{
  "pois_1km": {
    "version": 0.6,
    "generator": "Overpass API 0.7.62.8 e802775f",
    "osm3s": {
      "timestamp_osm_base": "2025-09-06T08:46:06Z",
      "copyright": "The data included in this document is from www.openstreetmap.org. The data is made available under ODbL."
    },
    "elements": [
      {
        "type": "node",
        "id": 5622328321,
        "lat": 17.5212099,
        "lon": 78.4829918,
        "tags": {
          "name": "D Mart",
          "name:en": "DMART",
          "shop": "supermarket"
        }
      },
      {
        "type": "node",
        "id": 6126434685,
        "lat": 17.5278976,
        "lon": 78.4854232,
        "tags": {
          "amenity": "cafe",
          "name": "Chai Party",
          "name:en": "Chai Party - Irani Chai"
        }
      },
      {
        "type": "node",
        "id": 6137324485,
        "lat": 17.5280475,
        "lon": 78.4854248,
        "tags": {
          "amenity": "cafe",
          "name": "Chai Party Irani Cafe"
        }
      },
      {
        "type": "node",
        "id": 6489790935,
        "lat": 17.5185239,
        "lon": 78.4822022,
        "tags": {
          "addr:district": "Hyderabad",
          "addr:full": "Plot No. 34, 34/A, NCL South, Petbasheerabad, Medchal Road, Secunderabad",
          "addr:postcode": "500055",
          "addr:state": "Telangana",
          "amenity": "hospital",
          "email": "balaji.hospital@yahoo.com",
          "name": "Sree Balaji Hospital",
          "phone": "040-27164000",
          "source": "OpenGovernmentData",
          "website": "www.sreebalajihospital.com"
        }
      },
      {
        "type": "node",
        "id": 6490089435,
        "lat": 17.520925,
        "lon": 78.484531,
        "tags": {
          "addr:district": "Hyderabad",
          "addr:full": "Plot No: 1-76/1/b/4, Ganga Enclave, Pet Basheerabad, Medchal Road, Secunderabad",
          "addr:postcode": "500055",
          "addr:state": "Telangana",
          "amenity": "hospital",
          "contact:email": "drprsunk@yahoo.com",
          "contact:mobile": "9949073049",
          "fax": "040 27165116",
          "healthcare:speciality": "multi specialty",
          "medical_system": "Allopathic",
          "name": "Harsha Hospitals",
          "operator:type": "private",
          "phone": "040 27165110",
          "source": "OpenGovernmentData",
          "website": "http://www.harshahospitals.com"
        }
      },
      {
        "type": "node",
        "id": 6511011214,
        "lat": 17.5218368,
        "lon": 78.4831209,
        "tags": {
          "addr:district": "Hyderabad",
          "addr:full": "C - 4,5, Ganga Enclave, Opp Excellancy Garden, Petbasheerabad, Medchal Road, Rangareddy",
          "addr:postcode": "500055",
          "addr:state": "Telangana",
          "amenity": "hospital",
          "name": "RR Hospital",
          "source": "OpenGovernmentData"
        }
      },
      {
        "type": "node",
        "id": 6549138754,
        "lat": 17.5246107,
        "lon": 78.482795,
        "tags": {
          "addr:district": "Hyderabad",
          "addr:full": "6A, 7A, Petbasheerabad, NH7, Near DPS, Opp St Anns, Kompally",
          "addr:postcode": "500055",
          "addr:state": "Telangana",
          "alt_name": "Bloom Hospitals",
          "amenity": "hospital",
          "contact:email": "admin@janapareddy.co.in",
          "contact:phone": "+91 9963233911 ; +91 9963233922",
          "name": "JANAPAREDDY HOSPITAL PVT LTD",
          "operator:type": "private",
          "source": "OpenGovernmentData"
        }
      },
      {
        "type": "node",
        "id": 6811749127,
        "lat": 17.517046,
        "lon": 78.480475,
        "tags": {
          "addr:district": "Medchal Malkajgiri",
          "addr:full": "National Highway 44, Opp.Canton Residential Township, NCL Enclave South, Jeedimetla",
          "addr:postcode": "500015",
          "addr:state": "Telangana",
          "amenity": "hospital",
          "contact:mobile": "8886668026",
          "name": "Suraksha Women And Children Hospital",
          "source": "OpenGovernmentData"
        }
      },
      {
        "type": "node",
        "id": 6811749183,
        "lat": 17.526613,
        "lon": 78.4824036,
        "tags": {
          "addr:district": "Medchal Malkajgiri",
          "addr:full": "Sujeet's Cricket Academy Lane, Satyam Enclave, Kompally",
          "addr:postcode": "500014",
          "addr:state": "Telangana",
          "amenity": "clinic",
          "contact:mobile": "9701679773",
          "name": "Apple Poly Clinic",
          "source": "OpenGovernmentData"
        }
      },
      {
        "type": "node",
        "id": 6822126603,
        "lat": 17.5159509,
        "lon": 78.4800636,
        "tags": {
          "amenity": "restaurant",
          "name": "Chandini Family Dhaba",
          "source": "survey"
        }
      },
      {
        "type": "node",
        "id": 8465488365,
        "lat": 17.5160498,
        "lon": 78.4812051,
        "tags": {
          "amenity": "restaurant",
          "name": "Raaga"
        }
      },
      {
        "type": "node",
        "id": 8465488366,
        "lat": 17.5157199,
        "lon": 78.4808926,
        "tags": {
          "amenity": "restaurant",
          "name": "Pizza Hut"
        }
      },
      {
        "type": "node",
        "id": 8465488367,
        "lat": 17.5156035,
        "lon": 78.4811153,
        "tags": {
          "amenity": "restaurant",
          "name": "SPG Grand"
        }
      },
      {
        "type": "node",
        "id": 8465488368,
        "lat": 17.5156438,
        "lon": 78.4808725,
        "tags": {
          "amenity": "restaurant",
          "name": "Mc Donalds"
        }
      },
      {
        "type": "node",
        "id": 9885009621,
        "lat": 17.5121065,
        "lon": 78.4788583,
        "tags": {
          "amenity": "restaurant",
          "name": "pista house"
        }
      }
    ]
  },
  "pois_2_5km": {
    "version": 0.6,
    "generator": "Overpass API 0.7.62.8 e802775f",
    "osm3s": {
      "timestamp_osm_base": "2025-09-06T08:46:06Z",
      "copyright": "The data included in this document is from www.openstreetmap.org. The data is made available under ODbL."
    },
    "elements": [
      {
        "type": "node",
        "id": 5407602853,
        "lat": 17.5022583,
        "lon": 78.4702527,
        "tags": {
          "amenity": "fuel",
          "brand": "Indian Oil",
          "brand:wikidata": "Q1289348",
          "brand:wikipedia": "en:Indian Oil Corporation",
          "name": "Indian oil fuel station"
        }
      },
      {
        "type": "node",
        "id": 5407606959,
        "lat": 17.5059786,
        "lon": 78.4668562,
        "tags": {
          "amenity": "fuel",
          "name": "HP fuel station"
        }
      },
      {
        "type": "node",
        "id": 5407611955,
        "lat": 17.5067796,
        "lon": 78.4663372,
        "tags": {
          "amenity": "fuel",
          "name": "Bharat petroleum fuel station"
        }
      },
      {
        "type": "node",
        "id": 6853049368,
        "lat": 17.515236,
        "lon": 78.479671,
        "tags": {
          "amenity": "fuel",
          "name": "Star Quality Fuel Station",
          "source": "survey"
        }
      },
      {
        "type": "node",
        "id": 8465492986,
        "lat": 17.5295765,
        "lon": 78.4858105,
        "tags": {
          "amenity": "theatre",
          "name": "cini planet multiplex"
        }
      },
      {
        "type": "node",
        "id": 12885855106,
        "lat": 17.5028949,
        "lon": 78.4776483,
        "tags": {
          "amenity": "cinema",
          "brand": "Cin\u00e9polis",
          "brand:wikidata": "Q5686673",
          "name": "Cinepolis TNR North City",
          "phone": "+919599616837",
          "website": "http://www.cinepolisindia.com/"
        }
      }
    ]
  }
}