{
  "pois_1km": {
    "version": 0.6,
    "generator": "Overpass API 0.7.62.8 e802775f",
    "osm3s": {
      "timestamp_osm_base": "2025-09-06T08:48:13Z",
      "copyright": "The data included in this document is from www.openstreetmap.org. The data is made available under ODbL."
    },
    "elements": [
      {
        "type": "node",
        "id": 344033897,
        "lat": 17.4502975,
        "lon": 78.3816574,
        "tags": {
          "amenity": "restaurant",
          "created_by": "Potlatch 0.10f",
          "name": "Windows of the World"
        }
      },
      {
        "type": "node",
        "id": 349015392,
        "lat": 17.4509278,
        "lon": 78.3820308,
        "tags": {
          "amenity": "bank",
          "atm": "yes",
          "brand": "HDFC Bank",
          "brand:wikidata": "Q631047",
          "brand:wikipedia": "en:HDFC Bank",
          "name": "HDFC Bank",
          "name:te": "\u0c39\u0c46\u0c1a\u0c4d.\u0c21\u0c3f.\u0c0e\u0c2b\u0c4d.\u0c38\u0c3f \u0c2c\u0c4d\u0c2f\u0c3e\u0c02\u0c15\u0c41",
          "short_name": "HDFC",
          "website": "https://www.hdfcbank.com"
        }
      },
      {
        "type": "node",
        "id": 349015541,
        "lat": 17.4506878,
        "lon": 78.3809809,
        "tags": {
          "amenity": "bank",
          "brand": "State Bank of India",
          "brand:wikidata": "Q1340361",
          "brand:wikipedia": "en:State Bank of India",
          "name": "State Bank of India",
          "name:te": "\u0c2d\u0c3e\u0c30\u0c24\u0c40\u0c2f \u0c38\u0c4d\u0c1f\u0c47\u0c1f\u0c4d \u0c2c\u0c4d\u0c2f\u0c3e\u0c02\u0c15\u0c41",
          "short_name": "SBI"
        }
      },
      {
        "type": "node",
        "id": 349270023,
        "lat": 17.4444337,
        "lon": 78.3860746,
        "tags": {
          "addr:district": "Hyderabad",
          "addr:full": "Plot No 8 & 9, Arunodaya Cooperative Housing Society, Vittal Rao nagar, Madhapur",
          "addr:postcode": "500081",
          "addr:state": "Telangana",
          "amenity": "hospital",
          "healthcare": "hospital",
          "name": "Image Hospitals",
          "name:te": "\u0c07\u0c2e\u0c47\u0c1c\u0c4d \u0c39\u0c3e\u0c38\u0c4d\u0c2a\u0c3f\u0c1f\u0c32\u0c4d\u0c38\u0c4d",
          "source": "OpenGovernmentData"
        }
      },
      {
        "type": "node",
        "id": 349270034,
        "lat": 17.4450343,
        "lon": 78.3859699,
        "tags": {
          "amenity": "restaurant",
          "brand": "Olive Garden",
          "brand:wikidata": "Q3045312",
          "cuisine": "italian",
          "name": "Olive Garden",
          "name:te": "\u0c06\u0c32\u0c3f\u0c35\u0c4d \u0c17\u0c3e\u0c30\u0c4d\u0c21\u0c46\u0c28\u0c4d"
        }
      },
      {
        "type": "node",
        "id": 1042229873,
        "lat": 17.4460891,
        "lon": 78.3847015,
        "tags": {
          "name": "Ratnadeep Supermarket",
          "name:te": "\u0c30\u0c24\u0c4d\u0c28\u0c26\u0c40\u0c2a\u0c4d \u0c38\u0c42\u0c2a\u0c30\u0c4d \u0c2e\u0c3e\u0c30\u0c4d\u0c15\u0c46\u0c1f\u0c4d",
          "shop": "supermarket"
        }
      },
      {
        "type": "node",
        "id": 1275490943,
        "lat": 17.4453139,
        "lon": 78.3863774,
        "tags": {
          "amenity": "restaurant",
          "brand": "Pizza Hut",
          "brand:wikidata": "Q191615",
          "cuisine": "pizza",
          "name": "Pizza Hut",
          "name:te": "\u0c2a\u0c3f\u0c1c\u0c4d\u0c1c\u0c3e \u0c39\u0c1f\u0c4d"
        }
      },
      {
        "type": "node",
        "id": 1275490956,
        "lat": 17.4460255,
        "lon": 78.3861105,
        "tags": {
          "amenity": "cafe",
          "brand": "Cafe Coffee Day",
          "brand:wikidata": "Q5017235",
          "cuisine": "coffee_shop",
          "name": "Cafe Coffee Day",
          "takeaway": "yes"
        }
      },
      {
        "type": "node",
        "id": 1836649894,
        "lat": 17.4500903,
        "lon": 78.3826057,
        "tags": {
          "addr:city": "Hyderabad",
          "addr:postcode": "500081",
          "addr:street": "Cyber Towers - Madhapur Main Road",
          "amenity": "bank",
          "atm": "yes",
          "name": "Kotak Bank"
        }
      },
      {
        "type": "node",
        "id": 2676394805,
        "lat": 17.4507673,
        "lon": 78.3809375,
        "tags": {
          "amenity": "bank",
          "brand": "State Bank of India",
          "brand:wikidata": "Q1340361",
          "brand:wikipedia": "en:State Bank of India",
          "name": "State Bank of India",
          "name:te": "\u0c2d\u0c3e\u0c30\u0c24\u0c40\u0c2f \u0c38\u0c4d\u0c1f\u0c47\u0c1f\u0c4d \u0c2c\u0c4d\u0c2f\u0c3e\u0c02\u0c15\u0c41",
          "short_name": "SBI",
          "website": "https://www.sbi.co.in"
        }
      },
      {
        "type": "node",
        "id": 3159028267,
        "lat": 17.4506384,
        "lon": 78.3822507,
        "tags": {
          "amenity": "fast_food",
          "brand": "Domino's",
          "brand:ks": "\u0688\u0648\u0645\u06cc\u0646\u0648\u0632",
          "brand:pa": "\u0a21\u0a4b\u0a2e\u0a40\u0a28\u0a4b\u0a1c\u0a3c",
          "brand:ur": "\u0688\u0648\u0645\u06cc\u0646\u0648\u0632",
          "brand:wikidata": "Q839466",
          "brand:wikipedia": "en:Domino's Pizza",
          "cuisine": "pizza",
          "name": "Domino's",
          "name:ks": "\u0688\u0648\u0645\u06cc\u0646\u0648\u0632",
          "name:pa": "\u0a21\u0a4b\u0a2e\u0a40\u0a28\u0a4b\u0a1c\u0a3c",
          "name:ur": "\u0688\u0648\u0645\u06cc\u0646\u0648\u0632",
          "opening_hours": "11:00-22:00",
          "operator": "Dominoz",
          "smoking": "no",
          "takeaway": "yes",
          "wheelchair": "no"
        }
      },
      {
        "type": "node",
        "id": 3159028270,
        "lat": 17.4506078,
        "lon": 78.3808666,
        "tags": {
          "addr:street": "Hitec City - Kondapur Main Road",
          "amenity": "restaurant",
          "capacity": "70",
          "cuisine": "chinese",
          "name": "Mainland China",
          "opening_hours": "11:00-22:00",
          "smoking": "no",
          "wheelchair": "no"
        }
      },
      {
        "type": "node",
        "id": 5160665780,
        "lat": 17.4504055,
        "lon": 78.3858826,
        "tags": {
          "addr:city": "Hyderabad",
          "addr:postcode": "500081",
          "addr:street": "Image Garden Road",
          "amenity": "bank",
          "atm": "yes",
          "brand": "HDFC Bank",
          "brand:wikidata": "Q631047",
          "name": "HDFC Bank",
          "opening_hours": "Mo-Sa 09:00-18:00",
          "short_name": "HDFC"
        }
      },
      {
        "type": "node",
        "id": 5160665781,
        "lat": 17.4500761,
        "lon": 78.3858133,
        "tags": {
          "addr:city": "Hyderabad",
          "addr:postcode": "500081",
          "addr:street": "Image Garden Road",
          "amenity": "restaurant",
          "cuisine": "indian;regional;chinese",
          "name": "President Dhaba",
          "outdoor_seating": "yes"
        }
      },
      {
        "type": "node",
        "id": 5467328880,
        "lat": 17.4469404,
        "lon": 78.3917078,
        "tags": {
          "amenity": "restaurant",
          "name": "Kalinga's Kitchen"
        }
      },
      {
        "type": "node",
        "id": 5469130135,
        "lat": 17.4518379,
        "lon": 78.391518,
        "tags": {
          "amenity": "restaurant",
          "name": "Annapurna Tiffens"
        }
      },
      {
        "type": "node",
        "id": 5692072169,
        "lat": 17.446934,
        "lon": 78.3918229,
        "tags": {
          "amenity": "restaurant",
          "name": "Sampradhaya curry point"
        }
      },
      {
        "type": "node",
        "id": 5793698165,
        "lat": 17.4455723,
        "lon": 78.3925382,
        "tags": {
          "amenity": "restaurant",
          "cuisine": "indian",
          "name": "Golconda Chef"
        }
      },
      {
        "type": "node",
        "id": 5931166341,
        "lat": 17.4475331,
        "lon": 78.3918768,
        "tags": {
          "amenity": "restaurant",
          "name": "Charcoal Bbq"
        }
      },
      {
        "type": "node",
        "id": 5942734591,
        "lat": 17.4461557,
        "lon": 78.384665,
        "tags": {
          "amenity": "cafe",
          "name": "Minevera Coffee Shop"
        }
      },
      {
        "type": "node",
        "id": 5942781129,
        "lat": 17.4464954,
        "lon": 78.3843723,
        "tags": {
          "addr:postcode": "500081",
          "amenity": "restaurant",
          "cuisine": "indian;asian",
          "name": "Flechazo"
        }
      },
      {
        "type": "node",
        "id": 5942783241,
        "lat": 17.4461031,
        "lon": 78.3856195,
        "tags": {
          "amenity": "bank",
          "name": "Lakshmi Vilas Bank",
          "opening_hours": "24/7",
          "operator": "Lakshmi Vilas Bank"
        }
      },
      {
        "type": "node",
        "id": 5942783243,
        "lat": 17.4456498,
        "lon": 78.3859665,
        "tags": {
          "amenity": "restaurant",
          "name": "Appetito"
        }
      },
      {
        "type": "node",
        "id": 5942783244,
        "lat": 17.4455675,
        "lon": 78.3861053,
        "tags": {
          "amenity": "bank",
          "name": "Oriental Bank Of Commerce"
        }
      },
      {
        "type": "node",
        "id": 5942783245,
        "lat": 17.4456195,
        "lon": 78.3861795,
        "tags": {
          "amenity": "restaurant",
          "name": "Abhiruchi Restaurant"
        }
      },
      {
        "type": "node",
        "id": 5942783247,
        "lat": 17.4460317,
        "lon": 78.3861787,
        "tags": {
          "amenity": "bank",
          "brand": "Bank of Baroda",
          "brand:wikidata": "Q2003797",
          "name": "Bank of Baroda"
        }
      },
      {
        "type": "node",
        "id": 5942847663,
        "lat": 17.4454605,
        "lon": 78.3862392,
        "tags": {
          "amenity": "restaurant",
          "changing_table": "no",
          "cuisine": "chicken;chinese;fish;indian;regional",
          "diet:vegetarian": "yes",
          "internet_access": "no",
          "level": "1",
          "name": "Eat Country Style",
          "payment:cash": "yes",
          "payment:maestro": "yes",
          "payment:notes": "yes",
          "payment:visa": "yes",
          "phone": "+91 40 2312 2222",
          "stars": "1",
          "takeaway": "yes",
          "toilets": "yes",
          "toilets:access": "customers",
          "toilets:wheelchair": "no"
        }
      },
      {
        "type": "node",
        "id": 5942847665,
        "lat": 17.4455953,
        "lon": 78.3864912,
        "tags": {
          "amenity": "bank",
          "brand": "Federal Bank",
          "brand:wikidata": "Q2044983",
          "name": "Federal Bank"
        }
      },
      {
        "type": "node",
        "id": 5942857802,
        "lat": 17.4455872,
        "lon": 78.3861359,
        "tags": {
          "amenity": "atm",
          "operator": "Oriental Bank Of Commerce"
        }
      },
      {
        "type": "node",
        "id": 5942878722,
        "lat": 17.4456246,
        "lon": 78.3864351,
        "tags": {
          "amenity": "atm",
          "brand": "Federal Bank",
          "brand:wikidata": "Q2044983",
          "operator": "Federal Bank",
          "operator:wikidata": "Q2044983"
        }
      },
      {
        "type": "node",
        "id": 5957452586,
        "lat": 17.444902,
        "lon": 78.3866088,
        "tags": {
          "amenity": "restaurant",
          "name": "Pan Shop"
        }
      },
      {
        "type": "node",
        "id": 5957506785,
        "lat": 17.4448874,
        "lon": 78.3865836,
        "tags": {
          "amenity": "fast_food",
          "name": "Om Sai Ram Nice Vada Pav"
        }
      },
      {
        "type": "node",
        "id": 5957568091,
        "lat": 17.445108,
        "lon": 78.3856663,
        "tags": {
          "name": "Heritage Fresh Store",
          "shop": "supermarket",
          "website": "http://www.heritagefresh.in/"
        }
      },
      {
        "type": "node",
        "id": 5965559685,
        "lat": 17.4442825,
        "lon": 78.3879877,
        "tags": {
          "amenity": "restaurant",
          "cuisine": "indian",
          "name": "Soma's Kitchen"
        }
      },
      {
        "type": "node",
        "id": 5965559686,
        "lat": 17.4441489,
        "lon": 78.3880973,
        "tags": {
          "amenity": "restaurant",
          "cuisine": "chinese;indian",
          "name": "Aadi Raghavendra Udupi Veg"
        }
      },
      {
        "type": "node",
        "id": 5970759667,
        "lat": 17.4466084,
        "lon": 78.38426,
        "tags": {
          "addr:postcode": "500081",
          "amenity": "restaurant",
          "name": "Rayalaseema Ruchulu"
        }
      },
      {
        "type": "node",
        "id": 5993045399,
        "lat": 17.4524,
        "lon": 78.3889115,
        "tags": {
          "amenity": "clinic",
          "healthcare": "clinic",
          "healthcare:speciality": "child_psychiatry;dermatology;psychiatry",
          "level": "2",
          "name": "IDEA Clinics",
          "payment:coins": "yes",
          "payment:maestro": "yes",
          "payment:notes": "yes",
          "payment:visa": "yes",
          "phone": "04040024000",
          "website": "https://www.ideaclinics.com/"
        }
      },
      {
        "type": "node",
        "id": 6009842126,
        "lat": 17.4448983,
        "lon": 78.3873777,
        "tags": {
          "amenity": "restaurant",
          "cuisine": "asian;chicken;indian",
          "level": "0",
          "name": "Spicy Hub",
          "takeaway": "yes",
          "toilets": "yes",
          "toilets:access": "yes",
          "wheelchair": "limited"
        }
      },
      {
        "type": "node",
        "id": 6151537449,
        "lat": 17.4503845,
        "lon": 78.3825608,
        "tags": {
          "amenity": "clinic",
          "healthcare": "clinic",
          "level": "1",
          "name": "Apollo White Dental",
          "operator": "Apollo Hospitals"
        }
      },
      {
        "type": "node",
        "id": 6151537450,
        "lat": 17.4503922,
        "lon": 78.3825036,
        "tags": {
          "amenity": "clinic",
          "healthcare": "clinic",
          "level": "0",
          "name": "Maxi vision eye clinic"
        }
      },
      {
        "type": "node",
        "id": 6151537452,
        "lat": 17.4503199,
        "lon": 78.3825693,
        "tags": {
          "amenity": "pharmacy",
          "healthcare": "pharmacy",
          "level": "0",
          "name": "Medical Store",
          "wheelchair": "limited"
        }
      },
      {
        "type": "node",
        "id": 6191414036,
        "lat": 17.4441572,
        "lon": 78.3867968,
        "tags": {
          "amenity": "atm",
          "brand": "IDBI Bank",
          "brand:wikidata": "Q3633485",
          "name": "IDBI Bank",
          "opening_hours": "24/7",
          "operator": "IDBI Bank",
          "operator:wikidata": "Q3633485"
        }
      },
      {
        "type": "node",
        "id": 6246439585,
        "lat": 17.4514807,
        "lon": 78.3937843,
        "tags": {
          "amenity": "restaurant",
          "name": "Kritunga"
        }
      },
      {
        "type": "node",
        "id": 6246440085,
        "lat": 17.4540505,
        "lon": 78.3829633,
        "tags": {
          "amenity": "cafe",
          "name": "Freak Shake"
        }
      },
      {
        "type": "node",
        "id": 6248961886,
        "lat": 17.4549917,
        "lon": 78.3841449,
        "tags": {
          "amenity": "restaurant",
          "name": "Ahilobhilam Foods"
        }
      },
      {
        "type": "node",
        "id": 6257501985,
        "lat": 17.4541261,
        "lon": 78.3829874,
        "tags": {
          "amenity": "fast_food",
          "name": "Puff House"
        }
      },
      {
        "type": "node",
        "id": 6259467986,
        "lat": 17.4519138,
        "lon": 78.3943368,
        "tags": {
          "name": "Ani's Apna Bazaar",
          "operator": "Apna Bazar",
          "shop": "supermarket"
        }
      },
      {
        "type": "node",
        "id": 6259475385,
        "lat": 17.4521526,
        "lon": 78.391294,
        "tags": {
          "amenity": "fast_food",
          "cuisine": "south_indian",
          "name": "Annapurna Food court"
        }
      },
      {
        "type": "node",
        "id": 6259475585,
        "lat": 17.4522477,
        "lon": 78.3850331,
        "tags": {
          "amenity": "restaurant",
          "name": "Palamuri Grill"
        }
      },
      {
        "type": "node",
        "id": 6261439688,
        "lat": 17.4522212,
        "lon": 78.3852733,
        "tags": {
          "amenity": "restaurant",
          "name": "Urban Vilage"
        }
      },
      {
        "type": "node",
        "id": 6261444885,
        "lat": 17.4515049,
        "lon": 78.39417,
        "tags": {
          "amenity": "restaurant",
          "name": "Wingster"
        }
      },
      {
        "type": "node",
        "id": 6261453185,
        "lat": 17.4511794,
        "lon": 78.3818973,
        "tags": {
          "amenity": "bank",
          "brand": "Bandhan Bank",
          "brand:wikidata": "Q19882235",
          "name": "Bandhan Bank",
          "name:en": "Bandhan Bank"
        }
      },
      {
        "type": "node",
        "id": 6273886287,
        "lat": 17.4590933,
        "lon": 78.3848255,
        "tags": {
          "amenity": "fast_food",
          "name": "Prince DriveInn"
        }
      },
      {
        "type": "node",
        "id": 6549184413,
        "lat": 17.4448396,
        "lon": 78.3855052,
        "tags": {
          "addr:district": "Hyderabad",
          "addr:full": "#1-120/3, Plot No.3, Behind Karachi Bakery, Survey No.64, Madhapur",
          "addr:postcode": "500081",
          "addr:state": "Telangana",
          "amenity": "hospital",
          "contact:phone": "040 67108108",
          "healthcare": "hospital",
          "name": "Oakridge Hospitals",
          "operator:type": "private",
          "source": "OpenGovernmentData",
          "website": "http://oakridgehospitals.com/"
        }
      },
      {
        "type": "node",
        "id": 6621607787,
        "lat": 17.4525736,
        "lon": 78.3913595,
        "tags": {
          "amenity": "fast_food",
          "cuisine": "indian;south_indian",
          "diet:vegan": "yes",
          "diet:vegetarian": "yes",
          "drive_through": "no",
          "name": "Taaza Kitchen"
        }
      },
      {
        "type": "node",
        "id": 6760780819,
        "lat": 17.4526084,
        "lon": 78.380549,
        "tags": {
          "amenity": "restaurant",
          "name": "Chutneys"
        }
      },
      {
        "type": "node",
        "id": 6811749119,
        "lat": 17.4447512,
        "lon": 78.3884762,
        "tags": {
          "addr:district": "Hyderabad",
          "addr:full": "Hitech City Road, Sri Sai Nagar, Madhapur",
          "addr:postcode": "500081",
          "addr:state": "Telangana",
          "amenity": "doctors",
          "contact:mobile": "9246523045",
          "healthcare": "doctor",
          "name": "Dr. B.Srinivas",
          "source": "OpenGovernmentData"
        }
      },
      {
        "type": "node",
        "id": 6822126549,
        "lat": 17.444671,
        "lon": 78.388582,
        "tags": {
          "amenity": "atm",
          "brand": "HDFC Bank",
          "brand:wikidata": "Q631047",
          "name": "HDFC Bank ATM",
          "operator": "HDFC Bank",
          "operator:wikidata": "Q631047",
          "source": "survey"
        }
      },
      {
        "type": "node",
        "id": 6934838950,
        "lat": 17.4488567,
        "lon": 78.38912,
        "tags": {
          "addr:city": "Hyderabad",
          "addr:housenumber": "195",
          "addr:postcode": "500081",
          "addr:street": "Jai Hind Gandhi Road",
          "amenity": "restaurant",
          "cuisine": "regional",
          "name": "Fudzy",
          "opening_hours": "Mo-Sa 08:00-18:00"
        }
      },
      {
        "type": "node",
        "id": 6935545368,
        "lat": 17.4497697,
        "lon": 78.3920674,
        "tags": {
          "name": "Siri Super Market",
          "shop": "supermarket"
        }
      },
      {
        "type": "node",
        "id": 6935579741,
        "lat": 17.4518874,
        "lon": 78.3856618,
        "tags": {
          "amenity": "restaurant",
          "name": "The grand truck road"
        }
      },
      {
        "type": "node",
        "id": 6935609217,
        "lat": 17.4466519,
        "lon": 78.3888618,
        "tags": {
          "amenity": "restaurant",
          "name": "The sweet tooth"
        }
      },
      {
        "type": "node",
        "id": 7021286970,
        "lat": 17.4441819,
        "lon": 78.386775,
        "tags": {
          "amenity": "pharmacy",
          "name": "Hetero pharmacy"
        }
      },
      {
        "type": "node",
        "id": 7021303598,
        "lat": 17.4497014,
        "lon": 78.3855111,
        "tags": {
          "amenity": "bank",
          "name": "KBS Bank Corporate Office"
        }
      },
      {
        "type": "node",
        "id": 7021303601,
        "lat": 17.4502911,
        "lon": 78.3858209,
        "tags": {
          "amenity": "bank",
          "brand": "HDFC Bank",
          "brand:wikidata": "Q631047",
          "name": "HDFC Bank",
          "short_name": "HDFC"
        }
      },
      {
        "type": "node",
        "id": 7021303602,
        "lat": 17.4441356,
        "lon": 78.3868159,
        "tags": {
          "amenity": "atm",
          "brand": "IDBI Bank",
          "brand:wikidata": "Q3633485",
          "name": "IDBI Bank ATM",
          "operator": "IDBI Bank",
          "operator:wikidata": "Q3633485"
        }
      },
      {
        "type": "node",
        "id": 7021303603,
        "lat": 17.4461048,
        "lon": 78.3856696,
        "tags": {
          "amenity": "atm",
          "name": "Laxmi Vilas Bank ATM"
        }
      },
      {
        "type": "node",
        "id": 7021303604,
        "lat": 17.4460938,
        "lon": 78.3885218,
        "tags": {
          "amenity": "atm",
          "brand": "ICICI Bank",
          "brand:wikidata": "Q1653258",
          "name": "ICICI Bank ATM",
          "operator": "ICICI Bank",
          "operator:wikidata": "Q1653258"
        }
      },
      {
        "type": "node",
        "id": 7021303605,
        "lat": 17.4468437,
        "lon": 78.3857947,
        "tags": {
          "amenity": "atm",
          "brand": "Karnataka Bank",
          "brand:wikidata": "Q2042632",
          "name": "Karnataka Bank ATM",
          "operator": "Karnataka Bank",
          "operator:wikidata": "Q2042632"
        }
      },
      {
        "type": "node",
        "id": 7021303729,
        "lat": 17.4463118,
        "lon": 78.3887776,
        "tags": {
          "amenity": "restaurant",
          "name": "Urban Spice kitchen"
        }
      },
      {
        "type": "node",
        "id": 7021303730,
        "lat": 17.4492551,
        "lon": 78.3858169,
        "tags": {
          "amenity": "restaurant",
          "name": "Onesta Restaurant"
        }
      },
      {
        "type": "node",
        "id": 7021303733,
        "lat": 17.4447002,
        "lon": 78.386046,
        "tags": {
          "amenity": "restaurant",
          "name": "Grand Spicy Bawarchi"
        }
      },
      {
        "type": "node",
        "id": 7021303734,
        "lat": 17.4450565,
        "lon": 78.3856161,
        "tags": {
          "amenity": "restaurant",
          "name": "Ayathi Restaurant"
        }
      },
      {
        "type": "node",
        "id": 7021303735,
        "lat": 17.4495149,
        "lon": 78.3854475,
        "tags": {
          "amenity": "restaurant",
          "name": "Naidu Gari Ruchulu"
        }
      },
      {
        "type": "node",
        "id": 7021303736,
        "lat": 17.4513665,
        "lon": 78.3866436,
        "tags": {
          "amenity": "restaurant",
          "name": "Simhapuri Deluxe"
        }
      },
      {
        "type": "node",
        "id": 7021303761,
        "lat": 17.4499993,
        "lon": 78.3854651,
        "tags": {
          "amenity": "fast_food",
          "name": "SK Fast Food",
          "office": "company"
        }
      },
      {
        "type": "node",
        "id": 7021303763,
        "lat": 17.4511935,
        "lon": 78.3858327,
        "tags": {
          "amenity": "clinic",
          "healthcare": "clinic",
          "name": "Dr.Rajetha's Mohana Skin & Hair Clinic"
        }
      },
      {
        "type": "node",
        "id": 7021303767,
        "lat": 17.449309,
        "lon": 78.3855162,
        "tags": {
          "amenity": "clinic",
          "healthcare": "clinic",
          "name": "Shathayu Ayurveda Clinic"
        }
      },
      {
        "type": "node",
        "id": 7025803845,
        "lat": 17.4452494,
        "lon": 78.3907983,
        "tags": {
          "amenity": "restaurant",
          "name": "Ankapur Kitchen"
        }
      },
      {
        "type": "node",
        "id": 7025820782,
        "lat": 17.4458679,
        "lon": 78.3924181,
        "tags": {
          "amenity": "fast_food",
          "name": "Chinese Cornerz"
        }
      },
      {
        "type": "node",
        "id": 7025820783,
        "lat": 17.4458496,
        "lon": 78.3925347,
        "tags": {
          "amenity": "restaurant",
          "name": "Desi Dhabha"
        }
      },
      {
        "type": "node",
        "id": 7025820784,
        "lat": 17.4462385,
        "lon": 78.3924715,
        "tags": {
          "amenity": "restaurant",
          "name": "Golconda Chefs"
        }
      },
      {
        "type": "node",
        "id": 7025820786,
        "lat": 17.44582,
        "lon": 78.3924173,
        "tags": {
          "addr:city": "hyderabad",
          "addr:district": "rangareddy",
          "addr:housenumber": "APIIC Colony Beside State Bank of India , Shapur Nagar Jeedimetla Hyderabad",
          "addr:postcode": "500055",
          "addr:street": "Near SBI Bank",
          "amenity": "hospital",
          "emergency": "yes",
          "healthcare": "hospital",
          "healthcare:speciality": "gynaecology",
          "name": "lifespan hospitals"
        }
      },
      {
        "type": "node",
        "id": 7025820790,
        "lat": 17.4446822,
        "lon": 78.3924319,
        "tags": {
          "amenity": "food_court",
          "name": "Daniel Food Court"
        }
      },
      {
        "type": "node",
        "id": 7025820813,
        "lat": 17.4475218,
        "lon": 78.3944099,
        "tags": {
          "amenity": "restaurant",
          "name": "Shake Stories"
        }
      },
      {
        "type": "node",
        "id": 7025820814,
        "lat": 17.4515635,
        "lon": 78.3936807,
        "tags": {
          "amenity": "restaurant",
          "name": "HutK Restaurant"
        }
      },
      {
        "type": "node",
        "id": 7025820815,
        "lat": 17.4498409,
        "lon": 78.3934938,
        "tags": {
          "amenity": "restaurant",
          "name": "Dhanyatha Foods"
        }
      },
      {
        "type": "node",
        "id": 7025820818,
        "lat": 17.4487951,
        "lon": 78.3921706,
        "tags": {
          "amenity": "clinic",
          "healthcare": "clinic",
          "name": "Krithi Children Clinic"
        }
      },
      {
        "type": "node",
        "id": 7025820821,
        "lat": 17.4516412,
        "lon": 78.3924843,
        "tags": {
          "amenity": "restaurant",
          "name": "Super Lean Meals"
        }
      },
      {
        "type": "node",
        "id": 7025820823,
        "lat": 17.4513469,
        "lon": 78.3917665,
        "tags": {
          "amenity": "restaurant",
          "name": "The London Shakes"
        }
      },
      {
        "type": "node",
        "id": 7025820825,
        "lat": 17.4476207,
        "lon": 78.3910935,
        "tags": {
          "amenity": "restaurant",
          "name": "Organic Thali kitchen"
        }
      },
      {
        "type": "node",
        "id": 7025820829,
        "lat": 17.4478808,
        "lon": 78.3905092,
        "tags": {
          "amenity": "pharmacy",
          "healthcare": "pharmacy",
          "name": "Siddha Nagarjuna Ayurveda pharmacy"
        }
      },
      {
        "type": "node",
        "id": 7025820832,
        "lat": 17.4493044,
        "lon": 78.3911004,
        "tags": {
          "amenity": "restaurant",
          "name": "Inner Chef"
        }
      },
      {
        "type": "node",
        "id": 7025820835,
        "lat": 17.4506503,
        "lon": 78.391516,
        "tags": {
          "amenity": "atm",
          "brand": "Axis Bank",
          "brand:wikidata": "Q2003549",
          "name": "Axis Bank Atm",
          "operator": "Axis Bank",
          "operator:wikidata": "Q2003549"
        }
      },
      {
        "type": "node",
        "id": 7027716891,
        "lat": 17.4486673,
        "lon": 78.398224,
        "tags": {
          "amenity": "bank",
          "branch": "Ltd",
          "brand": "IndusInd Bank",
          "brand:wikidata": "Q2040323",
          "name": "IndusInd Bank"
        }
      },
      {
        "type": "node",
        "id": 7027716893,
        "lat": 17.4508318,
        "lon": 78.3947564,
        "tags": {
          "amenity": "restaurant",
          "name": "Restaurant Guest Wifi Solutions"
        }
      },
      {
        "type": "node",
        "id": 7027716895,
        "lat": 17.4499217,
        "lon": 78.3949095,
        "tags": {
          "amenity": "restaurant",
          "name": "Kitchen 007"
        }
      },
      {
        "type": "node",
        "id": 7027716897,
        "lat": 17.4499292,
        "lon": 78.3947616,
        "tags": {
          "amenity": "restaurant",
          "name": "Tollywood Thick Shakes"
        }
      },
      {
        "type": "node",
        "id": 7043488849,
        "lat": 17.4461803,
        "lon": 78.3871687,
        "tags": {
          "addr:city": "Hyderabad",
          "addr:housenumber": "1-98/11",
          "addr:postcode": "500081",
          "addr:street": "Arunodaya Colony",
          "amenity": "bank",
          "brand": "Bank of Baroda",
          "brand:wikidata": "Q2003797",
          "name": "Bank of Baroda"
        }
      },
      {
        "type": "node",
        "id": 7043527232,
        "lat": 17.4460614,
        "lon": 78.3861779,
        "tags": {
          "amenity": "bank",
          "brand": "UCO Bank",
          "brand:wikidata": "Q2005310",
          "name": "UCO Bank"
        }
      },
      {
        "type": "node",
        "id": 7043571449,
        "lat": 17.4440876,
        "lon": 78.3876824,
        "tags": {
          "amenity": "atm",
          "brand": "HDFC Bank",
          "brand:wikidata": "Q631047",
          "name": "HDFC Bank ATM",
          "operator": "HDFC Bank",
          "operator:wikidata": "Q631047"
        }
      },
      {
        "type": "node",
        "id": 7043571450,
        "lat": 17.4442635,
        "lon": 78.3877183,
        "tags": {
          "amenity": "atm",
          "brand": "State Bank of India",
          "brand:wikidata": "Q1340361",
          "name": "State Bank Of India ATM",
          "operator": "State Bank of India",
          "operator:wikidata": "Q1340361"
        }
      },
      {
        "type": "node",
        "id": 7043571451,
        "lat": 17.444293,
        "lon": 78.3876626,
        "tags": {
          "amenity": "atm",
          "brand": "ICICI Bank",
          "brand:wikidata": "Q1653258",
          "name": "ICICI Bank ATM",
          "operator": "ICICI Bank",
          "operator:wikidata": "Q1653258"
        }
      },
      {
        "type": "node",
        "id": 7043571452,
        "lat": 17.4442592,
        "lon": 78.3874467,
        "tags": {
          "amenity": "atm",
          "brand": "Bank of India",
          "brand:wikidata": "Q2004439",
          "name": "BOI ATM",
          "operator": "Bank of India",
          "operator:wikidata": "Q2004439"
        }
      },
      {
        "type": "node",
        "id": 8710513390,
        "lat": 17.4497218,
        "lon": 78.3837256,
        "tags": {
          "amenity": "bank",
          "brand": "Kotak Mahindra Bank",
          "brand:wikidata": "Q2040404",
          "name": "Kotak Mahindra Bank"
        }
      },
      {
        "type": "node",
        "id": 9369853856,
        "lat": 17.453025,
        "lon": 78.3986574,
        "tags": {
          "amenity": "fast_food"
        }
      },
      {
        "type": "node",
        "id": 9369907790,
        "lat": 17.4529675,
        "lon": 78.3987973,
        "tags": {
          "amenity": "cafe"
        }
      },
      {
        "type": "node",
        "id": 9917000634,
        "lat": 17.4501371,
        "lon": 78.3915731,
        "tags": {
          "amenity": "fast_food",
          "name": "Ananya Food Court"
        }
      },
      {
        "type": "node",
        "id": 10171328851,
        "lat": 17.4505044,
        "lon": 78.3918238,
        "tags": {
          "name": "Sampoorna Super Mart",
          "shop": "supermarket"
        }
      },
      {
        "type": "node",
        "id": 10171328862,
        "lat": 17.4516821,
        "lon": 78.392479,
        "tags": {
          "amenity": "restaurant",
          "name": "Red Bucket"
        }
      },
      {
        "type": "node",
        "id": 10171328869,
        "lat": 17.450138,
        "lon": 78.391885,
        "tags": {
          "amenity": "restaurant",
          "cuisine": "indian",
          "name": "Mukka Mudda"
        }
      },
      {
        "type": "node",
        "id": 10171328871,
        "lat": 17.447691,
        "lon": 78.3919352,
        "tags": {
          "amenity": "cafe",
          "name": "Cosa de Rosa"
        }
      },
      {
        "type": "node",
        "id": 10171328916,
        "lat": 17.4496259,
        "lon": 78.3919495,
        "tags": {
          "amenity": "cafe",
          "brand": "Chai Point",
          "brand:wikidata": "Q28173415",
          "cuisine": "coffee_shop",
          "name": "Chai Point",
          "takeaway": "yes"
        }
      },
      {
        "type": "node",
        "id": 10171342017,
        "lat": 17.4462141,
        "lon": 78.3921748,
        "tags": {
          "amenity": "restaurant",
          "name": "Raju Gari Biriyani"
        }
      },
      {
        "type": "node",
        "id": 10171342021,
        "lat": 17.4454861,
        "lon": 78.3922374,
        "tags": {
          "amenity": "atm",
          "brand": "HDFC Bank",
          "brand:wikidata": "Q631047",
          "name": "HDFC ATM",
          "operator": "HDFC Bank",
          "operator:wikidata": "Q631047",
          "short_name": "HDFC"
        }
      },
      {
        "type": "node",
        "id": 10171342022,
        "lat": 17.4455652,
        "lon": 78.3922408,
        "tags": {
          "amenity": "atm",
          "brand": "Axis Bank",
          "brand:wikidata": "Q2003549",
          "name": "Axis ATM",
          "operator": "Axis Bank",
          "operator:wikidata": "Q2003549"
        }
      },
      {
        "type": "node",
        "id": 10171342023,
        "lat": 17.4457784,
        "lon": 78.3924176,
        "tags": {
          "amenity": "fast_food",
          "cuisine": "juice",
          "name": "Fresh Juice"
        }
      },
      {
        "type": "node",
        "id": 10593550499,
        "lat": 17.4482768,
        "lon": 78.3845095,
        "tags": {
          "addr:city": "Hyderabad",
          "addr:housenumber": "UNIT NO. 6,7 & 8, FLOOR L-4",
          "amenity": "fast_food",
          "brand": "Taco Bell",
          "brand:wikidata": "Q752941",
          "cuisine": "tex-mex",
          "drive_through": "no",
          "level": "4",
          "name": "Taco Bell",
          "opening_hours": "Mo-Su 11:00-23:00",
          "operator": "Yum! Brands",
          "takeaway": "yes",
          "website": "https://www.tacobell.co.in/"
        }
      }
    ]
  },
  "pois_2_5km": {
    "version": 0.6,
    "generator": "Overpass API 0.7.62.8 e802775f",
    "osm3s": {
      "timestamp_osm_base": "2025-09-06T08:48:13Z",
      "copyright": "The data included in this document is from www.openstreetmap.org. The data is made available under ODbL."
    },
    "elements": [
      {
        "type": "node",
        "id": 317759267,
        "lat": 17.4513921,
        "lon": 78.3792883,
        "tags": {
          "amenity": "theatre",
          "name": "Shilpa Kala Vedika",
          "name:te": "\u0c36\u0c3f\u0c32\u0c4d\u0c2a \u0c15\u0c33\u0c3e \u0c35\u0c47\u0c26\u0c3f\u0c15",
          "tourism": "attraction"
        }
      },
      {
        "type": "node",
        "id": 344033815,
        "lat": 17.4380252,
        "lon": 78.3996269,
        "tags": {
          "amenity": "fuel",
          "brand": "Indian Oil",
          "brand:wikidata": "Q1289348",
          "brand:wikipedia": "en:Indian Oil Corporation",
          "name": "Indian Oil",
          "operator": "IBP"
        }
      },
      {
        "type": "node",
        "id": 349267514,
        "lat": 17.4407798,
        "lon": 78.3913972,
        "tags": {
          "amenity": "fuel",
          "brand": "Indian Oil",
          "brand:wikidata": "Q1289348",
          "brand:wikipedia": "en:Indian Oil Corporation",
          "name": "Indian Oil Madhapur"
        }
      },
      {
        "type": "node",
        "id": 1425916857,
        "lat": 17.4698143,
        "lon": 78.3853779,
        "tags": {
          "internet_access": "no",
          "name": "Hitech City",
          "network": "IR",
          "operator": "SCR",
          "platforms": "2",
          "public_transport": "station",
          "railway": "station",
          "ref": "HTCY",
          "train": "yes",
          "wheelchair": "no",
          "wikidata": "Q5871886",
          "wikipedia": "en:Hitech City railway station"
        }
      },
      {
        "type": "node",
        "id": 1437208985,
        "lat": 17.4590687,
        "lon": 78.4078664,
        "tags": {
          "internet_access": "no",
          "name": "Borabanda",
          "name:ur": "\u0628\u0648\u0631\u0627 \u0628\u0646\u0688\u0627",
          "network": "IR",
          "operator": "SCR",
          "platforms": "2",
          "public_transport": "station",
          "railway": "station",
          "ref": "BRBD",
          "wikidata": "Q4944267",
          "wikipedia": "en:Borabanda railway station"
        }
      },
      {
        "type": "node",
        "id": 2422172983,
        "lat": 17.4489916,
        "lon": 78.3831192,
        "tags": {
          "name": "HITEC City",
          "name:te": "\u0c39\u0c48\u0c1f\u0c46\u0c15\u0c4d \u0c38\u0c3f\u0c1f\u0c3f",
          "network": "Hyderabad Metro",
          "note": "Contributors are requested to not edit the \"network\" and the \"operator\" tags. (2023/11/08)",
          "operator": "Hyderabad Metro Rail Limited",
          "public_transport": "stop_position",
          "railway": "stop",
          "subway": "yes"
        }
      },
      {
        "type": "node",
        "id": 2422173008,
        "lat": 17.4372512,
        "lon": 78.4004097,
        "tags": {
          "name": "Madhapur",
          "name:te": "\u0c2e\u0c3e\u0c27\u0c3e\u0c2a\u0c42\u0c30\u0c4d",
          "network": "Hyderabad Metro",
          "note": "Contributors are requested to not edit the \"network\" and the \"operator\" tags. (2023/11/08)",
          "operator": "Hyderabad Metro Rail Limited",
          "platforms": "2",
          "public_transport": "stop_position",
          "public_transport:version": "2",
          "railway": "stop",
          "subway": "yes",
          "wheelchair": "yes"
        }
      },
      {
        "type": "node",
        "id": 2422173105,
        "lat": 17.4421814,
        "lon": 78.3772038,
        "tags": {
          "name": "Raidurg",
          "network": "Hyderabad Metro",
          "note": "Contributors are requested to not edit the \"network\" and the \"operator\" tags. (2023/11/08)",
          "operator": "Hyderabad Metro Rail Limited",
          "public_transport": "stop_position",
          "railway": "stop",
          "subway": "yes"
        }
      },
      {
        "type": "node",
        "id": 2528181881,
        "lat": 17.4592409,
        "lon": 78.4078466,
        "tags": {
          "name": "Borabanda",
          "public_transport": "stop_position",
          "railway": "stop",
          "ref": "1",
          "train": "yes"
        }
      },
      {
        "type": "node",
        "id": 2528181954,
        "lat": 17.469728,
        "lon": 78.3852406,
        "tags": {
          "name": "Hitech City",
          "public_transport": "stop_position",
          "railway": "stop",
          "ref": "1",
          "train": "yes"
        }
      },
      {
        "type": "node",
        "id": 5017549934,
        "lat": 17.4374118,
        "lon": 78.3883021,
        "tags": {
          "amenity": "fuel",
          "brand": "Bharat Petroleum",
          "brand:wikidata": "Q854826",
          "name": "Bharat Petroleum",
          "short_name": "BP"
        }
      },
      {
        "type": "node",
        "id": 5787787852,
        "lat": 17.4490132,
        "lon": 78.3831555,
        "tags": {
          "name": "HITEC City",
          "name:te": "\u0c39\u0c48\u0c1f\u0c46\u0c15\u0c4d \u0c38\u0c3f\u0c1f\u0c3f",
          "network": "Hyderabad Metro",
          "note": "Contributors are requested to not edit the \"network\" and the \"operator\" tags. (2023/11/08)",
          "operator": "Hyderabad Metro Rail Limited",
          "public_transport": "stop_position",
          "railway": "stop",
          "subway": "yes"
        }
      },
      {
        "type": "node",
        "id": 5787787896,
        "lat": 17.4372693,
        "lon": 78.4004421,
        "tags": {
          "name": "Madhapur",
          "name:te": "\u0c2e\u0c3e\u0c27\u0c3e\u0c2a\u0c42\u0c30\u0c4d",
          "network": "Hyderabad Metro",
          "note": "Contributors are requested to not edit the \"network\" and the \"operator\" tags. (2023/11/08)",
          "operator": "Hyderabad Metro Rail Limited",
          "platforms": "2",
          "public_transport": "stop_position",
          "public_transport:version": "2",
          "railway": "stop",
          "subway": "yes",
          "wheelchair": "yes"
        }
      },
      {
        "type": "node",
        "id": 5787787987,
        "lat": 17.4421818,
        "lon": 78.3771643,
        "tags": {
          "name": "Raidurg",
          "network": "Hyderabad Metro",
          "note": "Contributors are requested to not edit the \"network\" and the \"operator\" tags. (2023/11/08)",
          "operator": "Hyderabad Metro Rail Limited",
          "public_transport": "stop_position",
          "railway": "stop",
          "subway": "yes"
        }
      },
      {
        "type": "node",
        "id": 6248961888,
        "lat": 17.4577608,
        "lon": 78.3841734,
        "tags": {
          "amenity": "fuel",
          "brand": "Hindustan Petroleum",
          "brand:wikidata": "Q1619375",
          "brand:wikipedia": "en:Hindustan Petroleum",
          "name": "HP",
          "name:en": "HP petrol bunk",
          "official_name": "Hindustan Petroleum"
        }
      },
      {
        "type": "node",
        "id": 6444553239,
        "lat": 17.4490055,
        "lon": 78.3831376,
        "tags": {
          "name": "HITEC City",
          "name:ml": "\u0d39\u0d48\u0d1f\u0d46\u0d15\u0d4d \u0d38\u0d3f\u0d31\u0d4d\u0d31\u0d3f",
          "name:te": "\u0c39\u0c48\u0c1f\u0c46\u0c15\u0c4d \u0c38\u0c3f\u0c1f\u0c3f",
          "network": "Hyderabad Metro",
          "note": "Contributors are requested to not edit the \"network\" and the \"operator\" tags. (2023/11/08)",
          "operator": "Hyderabad Metro Rail Limited",
          "public_transport": "station",
          "railway": "station",
          "station": "subway",
          "subway": "yes",
          "wikidata": "Q56701859"
        }
      },
      {
        "type": "node",
        "id": 6451675812,
        "lat": 17.4429466,
        "lon": 78.3875721,
        "tags": {
          "internet_access": "no",
          "name": "Durgam Cheruvu Metro Station",
          "name:ml": "\u0d26\u0d41\u0d7c\u0d17\u0d4d\u0d17\u0d02 \u0d1a\u0d46\u0d30\u0d41\u0d35\u0d4d",
          "name:te": "\u0c26\u0c41\u0c30\u0c4d\u0c17\u0c02 \u0c1a\u0c46\u0c30\u0c41\u0c35\u0c41 Metro Station",
          "network": "Hyderabad Metro",
          "note": "Contributors are requested to not edit the \"network\" and the \"operator\" tags. (2023/11/08)",
          "operator": "Hyderabad Metro Rail Limited",
          "public_transport": "station",
          "railway": "station",
          "station": "Metro",
          "subway": "yes",
          "website": "https://hmrl.co.in",
          "wheelchair": "yes",
          "wikidata": "Q83554384"
        }
      },
      {
        "type": "node",
        "id": 6453519084,
        "lat": 17.4429159,
        "lon": 78.3875922,
        "tags": {
          "internet_access": "no",
          "name": "Durgam Cheruvu",
          "name:te": "\u0c26\u0c41\u0c30\u0c4d\u0c17\u0c02 \u0c1a\u0c46\u0c30\u0c41\u0c35\u0c41",
          "network": "Hyderabad Metro",
          "note": "Contributors are requested to not edit the \"network\" and the \"operator\" tags. (2023/11/08)",
          "operator": "Hyderabad Metro Rail Limited",
          "public_transport": "stop_position",
          "railway": "stop",
          "subway": "yes"
        }
      },
      {
        "type": "node",
        "id": 6453520185,
        "lat": 17.442903,
        "lon": 78.387557,
        "tags": {
          "internet_access": "no",
          "name": "Durgam Cheruvu",
          "name:en": "Durgam Cheruvu Metro Station",
          "name:te": "\u0c26\u0c41\u0c30\u0c4d\u0c17\u0c02 \u0c1a\u0c46\u0c30\u0c41\u0c35\u0c41 \u0c2e\u0c46\u0c1f\u0c4d\u0c30\u0c4b \u0c38\u0c4d\u0c1f\u0c47\u0c37\u0c28\u0c4d",
          "network": "Hyderabad Metro",
          "note": "Contributors are requested to not edit the \"network\" and the \"operator\" tags. (2023/11/08)",
          "operator": "Hyderabad Metro Rail Limited",
          "public_transport": "stop_position",
          "railway": "stop",
          "subway": "yes"
        }
      },
      {
        "type": "node",
        "id": 6594683311,
        "lat": 17.4696885,
        "lon": 78.3851526,
        "tags": {
          "name": "Hitech City",
          "public_transport": "stop_position",
          "railway": "stop",
          "ref": "2",
          "train": "yes"
        }
      },
      {
        "type": "node",
        "id": 6594683312,
        "lat": 17.4592009,
        "lon": 78.4078495,
        "tags": {
          "name": "Borabanda",
          "public_transport": "stop_position",
          "railway": "stop",
          "ref": "2",
          "train": "yes"
        }
      },
      {
        "type": "node",
        "id": 6771713702,
        "lat": 17.4351644,
        "lon": 78.3867947,
        "tags": {
          "amenity": "cinema",
          "brand": "PVR Cinemas",
          "brand:short": "PVR",
          "brand:wikidata": "Q3359908",
          "name": "Pvr Cinemas"
        }
      },
      {
        "type": "node",
        "id": 7025820767,
        "lat": 17.4436886,
        "lon": 78.4008906,
        "tags": {
          "amenity": "cinema",
          "name": "Mic Movies"
        }
      },
      {
        "type": "node",
        "id": 7052069775,
        "lat": 17.44218,
        "lon": 78.3771819,
        "tags": {
          "name": "Raidurg",
          "name:ml": "\u0d31\u0d3e\u0d2f\u0d4d\u0d26\u0d41\u0d7c\u0d17\u0d4d",
          "name:te": "\u0c30\u0c3e\u0c2f\u0c26\u0c41\u0c30\u0c4d\u0c17\u0c4d",
          "network": "Hyderabad Metro",
          "note": "Contributors are requested to not edit the \"network\" and the \"operator\" tags. (2023/11/08)",
          "operator": "Hyderabad Metro Rail Limited",
          "public_transport": "station",
          "railway": "station",
          "station": "subway",
          "subway": "yes",
          "wikidata": "Q58814837"
        }
      },
      {
        "type": "node",
        "id": 9144573053,
        "lat": 17.4372637,
        "lon": 78.4004257,
        "tags": {
          "layer": "1",
          "lit": "yes",
          "name": "Madhapur",
          "name:ml": "\u0d2e\u0d3e\u0d27\u0d3e\u0d2a\u0d42\u0d7c",
          "name:te": "\u0c2e\u0c3e\u0c27\u0c3e\u0c2a\u0c42\u0c30\u0c4d",
          "network": "Hyderabad Metro",
          "note": "Contributors are requested to not edit the \"network\" and the \"operator\" tags. (2023/11/08)",
          "operator": "Hyderabad Metro Rail Limited",
          "platforms": "2",
          "public_transport": "station",
          "public_transport:version": "2",
          "railway": "station",
          "shelter": "yes",
          "station": "subway",
          "subway": "yes",
          "wheelchair": "yes",
          "wikidata": "Q83637027"
        }
      },
      {
        "type": "node",
        "id": 10789486270,
        "lat": 17.4481318,
        "lon": 78.3844627,
        "tags": {
          "amenity": "cinema",
          "branch": "Hitech city",
          "brand": "PVR Cinemas",
          "brand:short": "PVR",
          "brand:wikidata": "Q3359908",
          "name": "PVR Cinemas, Icon"
        }
      },
      {
        "type": "node",
        "id": 10789525449,
        "lat": 17.4444549,
        "lon": 78.3881266,
        "tags": {
          "addr:city": "Hyderabad",
          "addr:neighbourhood": "Madhapur",
          "addr:state": "Telangana",
          "air_conditioning": "yes",
          "amenity": "cinema",
          "name": "BR Hitech Theatre"
        }
      },
      {
        "type": "node",
        "id": 11770993370,
        "lat": 17.458549,
        "lon": 78.38424,
        "tags": {
          "amenity": "fuel",
          "brand": "Hindustan Petroleum",
          "brand:wikidata": "Q1619375",
          "check_date": "2024-03-29",
          "name": "HP",
          "official_name": "Hindustan Petroleum"
        }
      }
    ]
  }
}