{
  "pois_1km": {
    "version": 0.6,
    "generator": "Overpass API 0.7.62.8 e802775f",
    "osm3s": {
      "timestamp_osm_base": "2025-09-06T08:46:06Z",
      "copyright": "The data included in this document is from www.openstreetmap.org. The data is made available under ODbL."
    },
    "elements": [
      {
        "type": "node",
        "id": 2217960510,
        "lat": 17.3764252,
        "lon": 78.4920245,
        "tags": {
          "amenity": "atm",
          "name": "State Bank of India",
          "name:ur": "\u0627\u0633\u0679\u06cc\u0679 \u0628\u06cc\u0646\u06a9 \u0622\u0641 \u0627\u0646\u0688\u06cc\u0627",
          "opening_hours": "24/7"
        }
      },
      {
        "type": "node",
        "id": 2217960512,
        "lat": 17.3754636,
        "lon": 78.4970586,
        "tags": {
          "amenity": "atm"
        }
      },
      {
        "type": "node",
        "id": 2429955121,
        "lat": 17.3746556,
        "lon": 78.4998723,
        "tags": {
          "addr:district": "Hyderabad",
          "addr:full": "Nalgonda 'X' Roads, Malakpet",
          "addr:postcode": "500036",
          "addr:state": "Telangana",
          "amenity": "hospital",
          "contact:email": "malakpet@yashodamail.com",
          "contact:phone": "040 45674567; 040 2455 6257",
          "emergency": "yes",
          "fax": "040 24545690",
          "health_facility:type": "Surgical Suites;Trauma Center;Intensive Care Units;Surgical Observation Unit;Rehabilitation Services Department",
          "healthcare": "hospital",
          "healthcare:speciality": "multi specialty",
          "medical_system": "Allopathic",
          "name": "Yashoda Super Speciality Hospital",
          "name:ur": "\u06cc\u0627\u0634\u0648\u062f\u06c1 \u0627\u0633\u067e\u062a\u0627\u0644",
          "operator:type": "private",
          "source": "OpenGovernmentData",
          "website": "https://www.yashodahospitals.com/"
        }
      },
      {
        "type": "node",
        "id": 6208220989,
        "lat": 17.3772416,
        "lon": 78.4948995,
        "tags": {
          "amenity": "atm",
          "operator": "SBI"
        }
      },
      {
        "type": "node",
        "id": 6485104985,
        "lat": 17.3717457,
        "lon": 78.5005935,
        "tags": {
          "addr:city": "Hyderabad",
          "addr:district": "Hyderabad",
          "addr:full": "D No: 16-2-674/12, Judges Colony, Malakpet",
          "addr:postcode": "500024",
          "addr:state": "Telangana",
          "amenity": "hospital",
          "healthcare": "hospital",
          "name": "Hyderabad Kidney And Laparoscopic Centre",
          "source": "OpenGovernmentData"
        }
      },
      {
        "type": "node",
        "id": 6490016089,
        "lat": 17.373217,
        "lon": 78.5032857,
        "tags": {
          "addr:district": "Hyderabad",
          "addr:full": "H.No.16-2-701/51/1, Opposite Mahboob Mansion, Malakpet",
          "addr:postcode": "500036",
          "addr:state": "Telangana",
          "amenity": "hospital",
          "fax": "24540258",
          "healthcare": "hospital",
          "name": "Susrutha Hospital",
          "source": "OpenGovernmentData"
        }
      },
      {
        "type": "node",
        "id": 6496972191,
        "lat": 17.3737769,
        "lon": 78.4958902,
        "tags": {
          "addr:district": "Hyderabad",
          "addr:full": "16-8-536, Beside Akbar Tower, Anjuman Road, New Malakpet",
          "addr:postcode": "500036",
          "addr:state": "Telangana",
          "amenity": "hospital",
          "contact:phone": "040-24502108; 040-24412525",
          "healthcare": "hospital",
          "name": "Dr. Zaibunnisa's Imtiyaz Hospital",
          "source": "OpenGovernmentData"
        }
      },
      {
        "type": "node",
        "id": 6505187568,
        "lat": 17.3702559,
        "lon": 78.5005438,
        "tags": {
          "addr:district": "Hyderabad",
          "addr:full": "16-3-991/1/C, Government Printing Press Road, Malakpet",
          "addr:postcode": "500024",
          "addr:state": "Telangana",
          "amenity": "hospital",
          "healthcare": "hospital",
          "name": "KIMS BIBI Hospital",
          "phone": "040 24528122/33/34",
          "source": "OpenGovernmentData",
          "website": "https://hyderabad.kimsglobal.com/",
          "wikidata": "Q52856483"
        }
      },
      {
        "type": "node",
        "id": 6505303419,
        "lat": 17.3710405,
        "lon": 78.5008154,
        "tags": {
          "addr:district": "Hyderabad",
          "addr:full": "16-2-145/A/9, Judges Colony, Malakpet",
          "addr:postcode": "500036",
          "addr:state": "Telangana",
          "amenity": "hospital",
          "healthcare": "hospital",
          "name": "Pushpa Maternity and Nursing Home",
          "source": "OpenGovernmentData"
        }
      },
      {
        "type": "node",
        "id": 6505370525,
        "lat": 17.3724317,
        "lon": 78.5077295,
        "tags": {
          "addr:district": "Hyderabad",
          "addr:full": "16-2-705/9/12/A-F, Beside Hanuman Temple, opp Reliance Trends, New Malakpet Ganj",
          "addr:postcode": "500036",
          "addr:state": "Telangana",
          "amenity": "hospital",
          "healthcare": "hospital",
          "name": "Spark Eye Care Hospital",
          "phone": "040 24542000",
          "source": "OpenGovernmentData",
          "website": "https://www.sparkhealth.in/"
        }
      },
      {
        "type": "node",
        "id": 6508963155,
        "lat": 17.3758914,
        "lon": 78.4971612,
        "tags": {
          "addr:district": "Hyderabad",
          "addr:full": "16-10-49, Nalgonda 'X' Road, New Malakpet",
          "addr:postcode": "500036",
          "addr:state": "Telangana",
          "amenity": "hospital",
          "healthcare": "hospital",
          "name": "Moosi Maternity and Genernal Hospital",
          "source": "OpenGovernmentData"
        }
      },
      {
        "type": "node",
        "id": 6549332628,
        "lat": 17.3726148,
        "lon": 78.5010025,
        "tags": {
          "addr:district": "Hyderabad",
          "addr:full": "16-2-661, LANE BESIDE BAJAJ ELECTRONICS, MALAKPET",
          "addr:postcode": "500036",
          "addr:state": "Telangana",
          "amenity": "hospital",
          "contact:phone": "24550100",
          "healthcare": "hospital",
          "name": "METRO CURE HOSPITAL",
          "operator:type": "private",
          "source": "OpenGovernmentData"
        }
      },
      {
        "type": "node",
        "id": 6549374700,
        "lat": 17.3739817,
        "lon": 78.4985831,
        "tags": {
          "addr:city": "Hyderabad",
          "addr:full": "H.No: 16-8-932/A, SAFA PLAZA, MALAKPET",
          "addr:postcode": "500036",
          "addr:state": "Telangana",
          "amenity": "hospital",
          "healthcare": "hospital",
          "name": "EYE CARE HYDERABAD",
          "operator:type": "private",
          "source": "OpenGovernmentData"
        }
      },
      {
        "type": "node",
        "id": 6559245433,
        "lat": 17.3722481,
        "lon": 78.5008469,
        "tags": {
          "addr:district": "Hyderabad",
          "addr:full": "16-2-705/5/5, Opposite Santhi Fire Works, Malakpet",
          "addr:postcode": "500036",
          "addr:state": "Telangana",
          "amenity": "hospital",
          "fax": "040 24557549",
          "fixme": "Please verify the accurate position of the hospital as I have mapped the facility based on the address provided in Open Government data",
          "healthcare": "hospital",
          "medical_system": "Allopathic",
          "name": "Apollo Emergency Centre",
          "operator:type": "private",
          "phone": "040 24557552",
          "source": "OpenGovernmentData",
          "website": "https://www.apollohospitals.com/"
        }
      },
      {
        "type": "node",
        "id": 6652622186,
        "lat": 17.3728801,
        "lon": 78.4995744,
        "tags": {
          "name": "Masqati",
          "shop": "supermarket"
        }
      },
      {
        "type": "node",
        "id": 6779797463,
        "lat": 17.3736112,
        "lon": 78.5025321,
        "tags": {
          "addr:city": "hyderabad",
          "addr:housenumber": "371",
          "addr:postcode": "500036",
          "addr:street": "NH65",
          "amenity": "restaurant",
          "cuisine": "chicken",
          "name": "al-madini mandi house",
          "opening_hours": "Mo-Su 12:30-1:00"
        }
      },
      {
        "type": "node",
        "id": 6779797465,
        "lat": 17.3738987,
        "lon": 78.5011552,
        "tags": {
          "addr:city": "hyderabad",
          "addr:housenumber": "16-1027/105/13-16",
          "addr:postcode": "500036",
          "addr:street": "malakpet main road",
          "amenity": "bank",
          "brand": "Andhra Bank",
          "brand:wikidata": "Q2003476",
          "brand:wikipedia": "en:Andhra Bank",
          "name": "Andhra Bank"
        }
      },
      {
        "type": "node",
        "id": 6779797471,
        "lat": 17.3774807,
        "lon": 78.4996403,
        "tags": {
          "addr:city": "hyderabad",
          "addr:housenumber": "16-9-603",
          "addr:postcode": "500036",
          "amenity": "hospital",
          "healthcare": "hospital",
          "healthcare:speciality": "surgery",
          "name": "Dr.syed Ajaz hussain & Dr.syed mumtaz hussain"
        }
      },
      {
        "type": "node",
        "id": 6822126627,
        "lat": 17.3729132,
        "lon": 78.5011143,
        "tags": {
          "amenity": "bank",
          "name": "Andhra Pradesh Co-operative Bank",
          "source": "survey"
        }
      },
      {
        "type": "node",
        "id": 7508833038,
        "lat": 17.3726263,
        "lon": 78.4932724,
        "tags": {
          "amenity": "atm",
          "name": "\u0627\u0633\u0679\u06cc\u0679 \u0628\u06cc\u0646\u06a9 \u0622\u0641 \u0627\u0646\u0688\u06cc\u0627",
          "name:en": "State Bank of India"
        }
      },
      {
        "type": "node",
        "id": 7508844199,
        "lat": 17.3750194,
        "lon": 78.4988031,
        "tags": {
          "amenity": "atm",
          "name:en": "ICICI"
        }
      },
      {
        "type": "node",
        "id": 8065540528,
        "lat": 17.376452,
        "lon": 78.4920486,
        "tags": {
          "addr:city": "Hyderabad",
          "addr:district": "Hyderabad",
          "addr:postcode": "500024",
          "addr:state": "Telangana",
          "amenity": "bank",
          "contact:phone": "+91 40 24412022",
          "government": "public_service",
          "name": "\u0627\u0633\u0679\u06cc\u0679 \u0628\u06cc\u0646\u06a9 \u0622\u0641 \u0627\u0646\u0688\u06cc\u0627, \u0645\u0644\u0627\u06a9\u06cc\u067e\u0679",
          "name:en": "State Bank of India, Malakpet Branch",
          "office": "government",
          "opening_hours": "Mo-Fr 10:30-16:30; PH off",
          "operator": "State Bank of India",
          "short_name": "SBI",
          "website": "https://www.sbi.co.in/"
        }
      },
      {
        "type": "node",
        "id": 8084918585,
        "lat": 17.3661894,
        "lon": 78.496547,
        "tags": {
          "addr:city": "Hyderbad",
          "addr:state": "Telangana",
          "addr:street": "Chanchalguda Main Road",
          "amenity": "atm",
          "name": "\u0627\u06cc\u0686 \u0688\u06cc \u0627\u06cc\u0641 \u0633\u06cc\u06d4 \u0627\u06d2 \u0679\u06cc \u0627\u06cc\u0645",
          "name:en": "HDFC",
          "opening_hours": "24/7"
        }
      },
      {
        "type": "node",
        "id": 8084923983,
        "lat": 17.3661581,
        "lon": 78.4956642,
        "tags": {
          "addr:city": "Hyderbad",
          "addr:state": "Telangana",
          "addr:street": "Chanchalguda Main Road",
          "amenity": "atm",
          "name": "\u0622\u0626\u06cc \u0633\u06cc \u0622\u0626\u06cc \u0633\u06cc \u0622\u0626\u06cc - \u0627\u06d2 \u0679\u06cc \u0627\u06cc\u0645",
          "name:en": "ICICI",
          "opening_hours": "24/7"
        }
      },
      {
        "type": "node",
        "id": 8232796799,
        "lat": 17.3736286,
        "lon": 78.5025092,
        "tags": {
          "amenity": "restaurant",
          "name": "Sri Balaji Veg"
        }
      },
      {
        "type": "node",
        "id": 8233700526,
        "lat": 17.3733983,
        "lon": 78.5022812,
        "tags": {
          "amenity": "restaurant",
          "diet:vegetarian": "yes",
          "name": "Hotel Akshaya",
          "opening_hours": "Mo-Su 07:00-22:00"
        }
      },
      {
        "type": "node",
        "id": 8233700552,
        "lat": 17.3725101,
        "lon": 78.5067825,
        "tags": {
          "name": "D Mart malakpet",
          "opening_hours": "Mo-Su 10:00-22:00",
          "shop": "supermarket"
        }
      },
      {
        "type": "node",
        "id": 8233811325,
        "lat": 17.3713436,
        "lon": 78.5018929,
        "tags": {
          "amenity": "hospital",
          "healthcare": "hospital",
          "name": "Osmania clinic"
        }
      },
      {
        "type": "node",
        "id": 10087099043,
        "lat": 17.3709237,
        "lon": 78.5004657,
        "tags": {
          "addr:city": "Hyderabad",
          "addr:district": "Hyderabad",
          "addr:postcode": "500 024",
          "addr:state": "Telangana",
          "addr:street": "Government Press Road",
          "amenity": "restaurant",
          "cuisine": "indian;kebab;steak_house;ice_cream;barbecue;regional;chicken;coffee_shop;mughlai",
          "name": "\u067e\u0634\u0627\u0648\u0631",
          "name:en": "Peshawar",
          "opening_hours": "Mo-Su 08:00-24:00",
          "outdoor_seating": "no",
          "takeaway": "yes"
        }
      },
      {
        "type": "node",
        "id": 10087214571,
        "lat": 17.3759689,
        "lon": 78.4973599,
        "tags": {
          "addr:city": "Hyderabad",
          "addr:place": "Malakpet",
          "addr:state": "Telangana",
          "amenity": "hospital",
          "contact:phone": "+91 92465 85883 ; +91 83411 48193",
          "name": "\u0622\u0626\u06cc \u06a9\u06cc\u0626\u0631 \u062d\u06cc\u062f\u0631\u0622\u0628\u0627\u062f (\u0633\u067e\u0631 \u0627\u0633\u067e\u06cc\u0634\u0644\u0679\u06cc \u0622\u0626\u06cc \u06c1\u0633\u067e\u062a\u0627\u0644)",
          "name:en": "Eye Care Hyderabad (Superspeciality Eye Hospital)",
          "opening_hours": "Mo-Sa 09:00-19:30",
          "website": "https://eyecarehyd.com/"
        }
      },
      {
        "type": "node",
        "id": 10171328239,
        "lat": 17.3726485,
        "lon": 78.4946803,
        "tags": {
          "leisure": "playground"
        }
      },
      {
        "type": "node",
        "id": 10969295449,
        "lat": 17.3726544,
        "lon": 78.4988125,
        "tags": {
          "addr:district": "Hyderabad",
          "addr:place": "Malakpet",
          "addr:state": "Telangana",
          "addr:street": "Malakpet",
          "addr:subdistrict": "Amberpet",
          "amenity": "doctors",
          "healthcare": "doctor",
          "name": "Government Unani Dispensary, Kachiguda",
          "operational_status": "operational",
          "operator:type": "government",
          "source": "OpenDataTelangana"
        }
      },
      {
        "type": "node",
        "id": 11028219397,
        "lat": 17.3639917,
        "lon": 78.49631,
        "tags": {
          "amenity": "clinic",
          "healthcare": "clinic"
        }
      },
      {
        "type": "node",
        "id": 11028230881,
        "lat": 17.3730794,
        "lon": 78.4901865,
        "tags": {
          "addr:district": "Hyderabad",
          "addr:place": "Malakpet",
          "addr:state": "Telangana",
          "addr:street": "Near Super market",
          "addr:subdistrict": "Saidabad",
          "amenity": "clinic",
          "healthcare": "clinic",
          "name": "Urban Primary Health Centre, Malakpet",
          "operational_status": "operational",
          "operator:type": "government",
          "source": "OpenDataTelangana"
        }
      }
    ]
  },
  "pois_2_5km": {
    "version": 0.6,
    "generator": "Overpass API 0.7.62.8 e802775f",
    "osm3s": {
      "timestamp_osm_base": "2025-09-06T08:46:06Z",
      "copyright": "The data included in this document is from www.openstreetmap.org. The data is made available under ODbL."
    },
    "elements": [
      {
        "type": "node",
        "id": 307015337,
        "lat": 17.3765035,
        "lon": 78.4948263,
        "tags": {
          "alt_name:ur": "\u0645\u0644\u06a9 \u067e\u06cc\u0679",
          "internet_access": "no",
          "name": "Malakpet",
          "name:ar": "\u0645\u0627\u0644\u0643 \u0628\u064a\u062a",
          "name:ur": "\u0645\u0627\u0644\u06a9 \u067e\u06cc\u0679",
          "network": "IR",
          "operator": "SCR",
          "platforms": "2",
          "public_transport": "station",
          "railway": "station",
          "ref": "MXT",
          "train": "yes",
          "wikidata": "Q6741191",
          "wikipedia": "en:Malakpet railway station"
        }
      },
      {
        "type": "node",
        "id": 307015338,
        "lat": 17.3758726,
        "lon": 78.494705,
        "tags": {
          "name": "Malakpet",
          "public_transport": "stop_position",
          "ref": "1",
          "train": "yes"
        }
      },
      {
        "type": "node",
        "id": 307015360,
        "lat": 17.3661232,
        "lon": 78.4904751,
        "tags": {
          "name": "Dabirpura",
          "public_transport": "stop_position",
          "ref": "1",
          "train": "yes"
        }
      },
      {
        "type": "node",
        "id": 307023348,
        "lat": 17.389311,
        "lon": 78.4992403,
        "tags": {
          "historic": "yes",
          "internet_access": "wlan",
          "name": "Kacheguda",
          "name:ml": "\u0d15\u0d3e\u0d1a\u0d4d\u0d1a\u0d3f\u0d17\u0d41\u0d21",
          "name:te": "\u0c15\u0c3e\u0c1a\u0c3f\u0c17\u0c42\u0c21",
          "name:ur": "\u06a9\u0627\u0686\u06cc \u06af\u0648\u0691\u06c1",
          "network": "IR",
          "operator": "SCR",
          "public_transport": "station",
          "railway": "station",
          "ref": "KCG",
          "train": "yes",
          "wikidata": "Q6344674",
          "wikipedia": "en:Kacheguda railway station"
        }
      },
      {
        "type": "node",
        "id": 626897410,
        "lat": 17.3730067,
        "lon": 78.4766562,
        "tags": {
          "amenity": "bus_station",
          "bus": "yes",
          "name": "Afzalgunj",
          "public_transport": "station"
        }
      },
      {
        "type": "node",
        "id": 1118754600,
        "lat": 17.3619252,
        "lon": 78.4799909,
        "tags": {
          "construction": "station",
          "disused": "yes",
          "name": "Charminar (u/c)",
          "name:te": "\u0c1a\u0c3e\u0c30\u0c4d\u0c2e\u0c3f\u0c28\u0c3e\u0c30\u0c4d",
          "network": "Hyderabad Metro",
          "note": "Contributors are requested to not edit the \"network\" and the \"operator\" tags. (2023/11/08)",
          "operator": "Hyderabad Metro Rail Limited",
          "railway": "station",
          "station": "subway",
          "subway": "yes"
        }
      },
      {
        "type": "node",
        "id": 1118754671,
        "lat": 17.3717823,
        "lon": 78.4822609,
        "tags": {
          "construction": "station",
          "disused": "yes",
          "name": "Salar Jung Museum (u/c)",
          "name:te": "\u0c38\u0c3e\u0c32\u0c3e\u0c30\u0c4d \u0c1c\u0c02\u0c17\u0c4d \u0c2e\u0c4d\u0c2f\u0c42\u0c1c\u0c3f\u0c2f\u0c02",
          "network": "Hyderabad Metro",
          "note": "Contributors are requested to not edit the \"network\" and the \"operator\" tags. (2023/11/08)",
          "operator": "Hyderabad Metro Rail Limited",
          "railway": "station",
          "station": "subway",
          "subway": "yes"
        }
      },
      {
        "type": "node",
        "id": 2233018548,
        "lat": 17.3814163,
        "lon": 78.4828118,
        "tags": {
          "amenity": "fuel"
        }
      },
      {
        "type": "node",
        "id": 2422989007,
        "lat": 17.3734454,
        "lon": 78.5031791,
        "tags": {
          "addr:city": "Hyderabad",
          "addr:city:ar": "\u062d\u064a\u062f\u0631 \u0622\u0628\u0627\u062f",
          "addr:city:ur": "\u062d\u06cc\u062f\u0631\u0622\u0628\u0627\u062f",
          "alt_name": "\u0645\u062d\u0628\u0648\u0628 \u06af\u0646\u062c",
          "name": "New Market",
          "name:ml": "\u0d28\u0d4d\u0d2f\u0d42\u0d2e\u0d3e\u0d7c\u0d15\u0d4d\u0d15\u0d31\u0d4d\u0d31\u0d4d",
          "name:te": "\u0c15\u0c4a\u0c24\u0c4d\u0c24 \u0c2e\u0c3e\u0c30\u0c4d\u0c15\u0c46\u0c1f\u0c4d",
          "name:ur": "\u0646\u0626\u06cc \u0645\u0627\u0631\u06a9\u06cc\u0679",
          "network": "Hyderabad Metro",
          "note": "Contributors are requested to not edit the \"network\" and the \"operator\" tags. (2023/11/08)",
          "operator": "Hyderabad Metro Rail Limited",
          "public_transport": "stop_position",
          "public_transport:version": "2",
          "railway": "stop",
          "subway": "yes"
        }
      },
      {
        "type": "node",
        "id": 2422989049,
        "lat": 17.3821199,
        "lon": 78.4816145,
        "tags": {
          "addr:city": "Hyderabad",
          "addr:city:ar": "\u062d\u064a\u062f\u0631 \u0622\u0628\u0627\u062f",
          "addr:city:ur": "\u062d\u06cc\u062f\u0631\u0622\u0628\u0627\u062f",
          "alt_name": "OMC",
          "name": "Osmania Medical College",
          "name:ml": "\u0d09\u0d38\u0d4d\u0d2e\u0d3e\u0d28\u0d3f\u0d2f \u0d2e\u0d46\u0d21\u0d3f\u0d15\u0d4d\u0d15\u0d7d \u0d15\u0d4b\u0d33\u0d47\u0d1c\u0d4d",
          "name:te": "\u0c09\u0c38\u0c4d\u0c2e\u0c3e\u0c28\u0c3f\u0c2f\u0c3e \u0c35\u0c48\u0c26\u0c4d\u0c2f \u0c15\u0c33\u0c3e\u0c36\u0c3e\u0c32",
          "network": "Hyderabad Metro",
          "note": "Contributors are requested to not edit the \"network\" and the \"operator\" tags. (2023/11/08)",
          "operator": "Hyderabad Metro Rail Limited",
          "public_transport": "stop_position",
          "public_transport:version": "2",
          "railway": "stop",
          "subway": "yes"
        }
      },
      {
        "type": "node",
        "id": 2422989058,
        "lat": 17.3772052,
        "lon": 78.4939044,
        "tags": {
          "addr:city": "Hyderabad",
          "addr:city:ar": "\u062d\u064a\u062f\u0631 \u0622\u0628\u0627\u062f",
          "addr:city:ur": "\u062d\u06cc\u062f\u0631\u0622\u0628\u0627\u062f",
          "addr:place": "Malakpet",
          "addr:place:ar": "\u0645\u0627\u0644\u0643 \u0628\u064a\u062a",
          "addr:place:ur": "\u0645\u0627\u0644\u06a9 \u067e\u06cc\u0679",
          "alt_name:ur": "\u0645\u0644\u06a9 \u067e\u06cc\u0679",
          "name": "Malakpet",
          "name:ar": "\u0645\u0627\u0644\u0643 \u0628\u064a\u062a",
          "name:te": "\u0c2e\u0c32\u0c15\u0c4d\u200c\u0c2a\u0c47\u0c1f\u0c4d",
          "name:ur": "\u0645\u0627\u0644\u06a9 \u067e\u06cc\u0679",
          "network": "Hyderabad Metro",
          "note": "Contributors are requested to not edit the \"network\" and the \"operator\" tags. (2023/11/08)",
          "operator": "Hyderabad Metro Rail Limited",
          "public_transport": "stop_position",
          "public_transport:version": "2",
          "railway": "stop",
          "subway": "yes"
        }
      },
      {
        "type": "node",
        "id": 2422989260,
        "lat": 17.3798092,
        "lon": 78.486212,
        "tags": {
          "addr:city": "Hyderabad",
          "addr:city:ar": "\u062d\u064a\u062f\u0631 \u0622\u0628\u0627\u062f",
          "addr:city:ur": "\u062d\u06cc\u062f\u0631\u0622\u0628\u0627\u062f",
          "alt_name": "M. G. Bus Station (Red Line)",
          "name": "Mahatma Gandhi Bus Station (Red Line)",
          "name:te": "\u0c0e\u0c02.\u0c1c\u0c3f. \u0c2c\u0c38\u0c4d. \u0c38\u0c4d\u0c1f\u0c47\u0c37\u0c28\u0c4d",
          "name:ur": "\u0645\u06c1\u0627\u062a\u0645\u0627 \u06af\u0627\u0646\u062f\u06be\u06cc \u0628\u0633 \u0627\u0633\u0679\u06cc\u0634\u0646 (\u0631\u06cc\u0688 \u0644\u0627\u0626\u0646)",
          "network": "Hyderabad Metro",
          "note": "Contributors are requested to not edit the \"network\" and the \"operator\" tags. (2023/11/08)",
          "operator": "Hyderabad Metro Rail Limited",
          "public_transport": "stop_position",
          "public_transport:version": "2",
          "railway": "stop",
          "subway": "yes"
        }
      },
      {
        "type": "node",
        "id": 2447310770,
        "lat": 17.3889362,
        "lon": 78.4962342,
        "tags": {
          "amenity": "cinema",
          "name": "Kumar 70 mm"
        }
      },
      {
        "type": "node",
        "id": 3157201754,
        "lat": 17.3844647,
        "lon": 78.484,
        "tags": {
          "name": "Sultan Bazar",
          "name:te": "\u0c38\u0c41\u0c32\u0c4d\u0c24\u0c3e\u0c28\u0c4d \u0c2c\u0c1c\u0c3e\u0c30\u0c4d",
          "network": "Hyderabad Metro",
          "note": "Contributors are requested to not edit the \"network\" and the \"operator\" tags. (2023/11/08)",
          "operator": "Hyderabad Metro Rail Limited",
          "public_transport": "stop_position",
          "subway": "yes"
        }
      },
      {
        "type": "node",
        "id": 3475980154,
        "lat": 17.3874755,
        "lon": 78.5162991,
        "tags": {
          "addr:city": "hyderabad",
          "addr:housenumber": "16-11-16/v/26/A",
          "addr:postcode": "500036",
          "addr:street": "moosarambagh road",
          "amenity": "fuel",
          "name": "Brothers Hero Honda Clinic",
          "operator": "keerthi"
        }
      },
      {
        "type": "node",
        "id": 3842496350,
        "lat": 17.3906881,
        "lon": 78.4883506,
        "tags": {
          "amenity": "cinema",
          "name": "Maheshwari Parmeshwari INOX Cinemas"
        }
      },
      {
        "type": "node",
        "id": 4187313289,
        "lat": 17.3630312,
        "lon": 78.4800241,
        "tags": {
          "amenity": "fuel",
          "name": "Bharat Petroleum"
        }
      },
      {
        "type": "node",
        "id": 5936912539,
        "lat": 17.3661398,
        "lon": 78.490508,
        "tags": {
          "name": "Dabirpura",
          "public_transport": "stop_position",
          "ref": "2",
          "train": "yes"
        }
      },
      {
        "type": "node",
        "id": 6208220988,
        "lat": 17.3749107,
        "lon": 78.4980571,
        "tags": {
          "amenity": "fuel",
          "brand": "Bharat Petroleum",
          "brand:wikidata": "Q854826",
          "brand:wikipedia": "en:Bharat Petroleum",
          "name": "Bharat Petroleum"
        }
      },
      {
        "type": "node",
        "id": 6208220990,
        "lat": 17.3778645,
        "lon": 78.4923056,
        "tags": {
          "amenity": "fuel",
          "name": "Bharat Petroleum"
        }
      },
      {
        "type": "node",
        "id": 6624724948,
        "lat": 17.3758566,
        "lon": 78.4947456,
        "tags": {
          "name": "Malakpet",
          "public_transport": "stop_position",
          "ref": "2",
          "train": "yes"
        }
      },
      {
        "type": "node",
        "id": 6652615386,
        "lat": 17.3655781,
        "lon": 78.5011937,
        "tags": {
          "amenity": "fuel",
          "brand": "Indian Oil",
          "brand:wikidata": "Q1289348",
          "brand:wikipedia": "en:Indian Oil Corporation",
          "name": "Indian Oil"
        }
      },
      {
        "type": "node",
        "id": 6652622385,
        "lat": 17.3633735,
        "lon": 78.5027654,
        "tags": {
          "amenity": "fuel",
          "name": "HP"
        }
      },
      {
        "type": "node",
        "id": 6652962785,
        "lat": 17.3808647,
        "lon": 78.4857081,
        "tags": {
          "amenity": "fuel",
          "brand": "Indian Oil",
          "brand:wikidata": "Q1289348",
          "brand:wikipedia": "en:Indian Oil Corporation",
          "name": "Indian Oil"
        }
      },
      {
        "type": "node",
        "id": 6800005107,
        "lat": 17.3710873,
        "lon": 78.5119545,
        "tags": {
          "addr:city": "Hyderabad",
          "addr:city:ar": "\u062d\u064a\u062f\u0631 \u0622\u0628\u0627\u062f",
          "addr:city:ur": "\u062d\u06cc\u062f\u0631\u0622\u0628\u0627\u062f",
          "name": "Musarambagh",
          "name:ml": "\u0d2e\u0d42\u0d38\u0d3e\u0d30\u0d3e\u0d02\u0d2c\u0d3e\u0d17\u0d4d",
          "name:te": "\u0c2e\u0c42\u0c38\u0c3e\u0c30\u0c02\u0c2c\u0c3e\u0c17\u0c4d",
          "name:ur": "\u0645\u0648\u0633\u06cc\u0670 \u0631\u0627\u0645 \u0628\u0627\u063a",
          "network": "Hyderabad Metro",
          "note": "Contributors are requested to not edit the \"network\" and the \"operator\" tags. (2023/11/08)",
          "operator": "Hyderabad Metro Rail Limited",
          "public_transport": "stop_position",
          "public_transport:version": "2",
          "railway": "stop",
          "subway": "yes"
        }
      },
      {
        "type": "node",
        "id": 7206794933,
        "lat": 17.3771708,
        "lon": 78.4939016,
        "tags": {
          "addr:city": "Hyderabad",
          "addr:city:ar": "\u062d\u064a\u062f\u0631 \u0622\u0628\u0627\u062f",
          "addr:city:ur": "\u062d\u06cc\u062f\u0631\u0622\u0628\u0627\u062f",
          "addr:place": "Malakpet",
          "addr:place:ar": "\u0645\u0627\u0644\u0643 \u0628\u064a\u062a",
          "addr:place:ur": "\u0645\u0627\u0644\u06a9 \u067e\u06cc\u0679",
          "alt_name:ur": "\u0645\u0644\u06a9 \u067e\u06cc\u0679",
          "name": "Malakpet",
          "name:ar": "\u0645\u0627\u0644\u0643 \u0628\u064a\u062a",
          "name:te": "\u0c2e\u0c32\u0c15\u0c4d\u200c\u0c2a\u0c47\u0c1f\u0c4d",
          "name:ur": "\u0645\u0627\u0644\u06a9 \u067e\u06cc\u0679",
          "network": "Hyderabad Metro",
          "note": "Contributors are requested to not edit the \"network\" and the \"operator\" tags. (2023/11/08)",
          "operator": "Hyderabad Metro Rail Limited",
          "public_transport": "stop_position",
          "public_transport:version": "2",
          "railway": "stop",
          "subway": "yes"
        }
      },
      {
        "type": "node",
        "id": 7206794945,
        "lat": 17.3797847,
        "lon": 78.4861805,
        "tags": {
          "addr:city": "Hyderabad",
          "addr:city:ar": "\u062d\u064a\u062f\u0631 \u0622\u0628\u0627\u062f",
          "addr:city:ur": "\u062d\u06cc\u062f\u0631\u0622\u0628\u0627\u062f",
          "alt_name": "M. G. Bus Station (Red Line)",
          "name": "Mahatma Gandhi Bus Station (Red Line)",
          "name:te": "\u0c0e\u0c02.\u0c1c\u0c3f. \u0c2c\u0c38\u0c4d. \u0c38\u0c4d\u0c1f\u0c47\u0c37\u0c28\u0c4d",
          "name:ur": "\u0645\u06c1\u0627\u062a\u0645\u0627 \u06af\u0627\u0646\u062f\u06be\u06cc \u0628\u0633 \u0627\u0633\u0679\u06cc\u0634\u0646 (\u0631\u06cc\u0688 \u0644\u0627\u0626\u0646)",
          "network": "Hyderabad Metro",
          "note": "Contributors are requested to not edit the \"network\" and the \"operator\" tags. (2023/11/08)",
          "operator": "Hyderabad Metro Rail Limited",
          "public_transport": "stop_position",
          "public_transport:version": "2",
          "railway": "stop",
          "subway": "yes"
        }
      },
      {
        "type": "node",
        "id": 7208768626,
        "lat": 17.3798572,
        "lon": 78.4862022,
        "tags": {
          "alt_name": "M. G. Bus Station (Red Line)",
          "name": "Mahatma Gandhi Bus Station (Red Line)",
          "name:ml": "\u0d2e\u0d39\u0d3e\u0d24\u0d4d\u0d2e\u0d3e\u0d17\u0d3e\u0d28\u0d4d\u0d27\u0d3f \u0d2c\u0d38\u0d4d \u0d38\u0d4d\u0d31\u0d4d\u0d31\u0d47\u0d37\u0d7b",
          "name:te": "\u0c0e\u0c02.\u0c1c\u0c3f. \u0c2c\u0c38\u0c4d. \u0c38\u0c4d\u0c1f\u0c47\u0c37\u0c28\u0c4d",
          "name:ur": "\u0645\u06c1\u0627\u062a\u0645\u0627 \u06af\u0627\u0646\u062f\u06be\u06cc \u0628\u0633 \u0627\u0633\u0679\u06cc\u0634\u0646 (\u0631\u06cc\u0688 \u0644\u0627\u0626\u0646)",
          "network": "Hyderabad Metro",
          "note": "Contributors are requested to not edit the \"network\" and the \"operator\" tags. (2023/11/08)",
          "operator": "Hyderabad Metro Rail Limited",
          "public_transport": "station",
          "railway": "station",
          "station": "subway",
          "subway": "yes"
        }
      },
      {
        "type": "node",
        "id": 7208768627,
        "lat": 17.3796948,
        "lon": 78.4858635,
        "tags": {
          "alt_name": "M. G. Bus Station (Green Line)",
          "name": "Mahatma Gandhi Bus Station (Green Line)",
          "name:ml": "\u0d2e\u0d39\u0d3e\u0d24\u0d4d\u0d2e\u0d3e\u0d17\u0d3e\u0d28\u0d4d\u0d27\u0d3f \u0d2c\u0d38\u0d4d \u0d38\u0d4d\u0d31\u0d4d\u0d31\u0d47\u0d37\u0d7b",
          "name:te": "\u0c0e\u0c02.\u0c1c\u0c3f. \u0c2c\u0c38\u0c4d. \u0c38\u0c4d\u0c1f\u0c47\u0c37\u0c28\u0c4d",
          "name:ur": "\u0645\u06c1\u0627\u062a\u0645\u0627 \u06af\u0627\u0646\u062f\u06be\u06cc \u0628\u0633 \u0627\u0633\u0679\u06cc\u0634\u0646 (\u06af\u0631\u06cc\u0646 \u0644\u0627\u0626\u0646",
          "network": "Hyderabad Metro",
          "note": "Contributors are requested to not edit the \"network\" and the \"operator\" tags. (2023/11/08)",
          "operator": "Hyderabad Metro Rail Limited",
          "public_transport": "station",
          "railway": "station",
          "station": "subway",
          "subway": "yes"
        }
      },
      {
        "type": "node",
        "id": 7208768628,
        "lat": 17.3771888,
        "lon": 78.4939356,
        "tags": {
          "addr:city": "Hyderabad",
          "addr:city:ar": "\u062d\u064a\u062f\u0631 \u0622\u0628\u0627\u062f",
          "addr:city:ur": "\u062d\u06cc\u062f\u0631\u0622\u0628\u0627\u062f",
          "addr:place": "Malakpet",
          "addr:place:ar": "\u0645\u0627\u0644\u0643 \u0628\u064a\u062a",
          "addr:place:ur": "\u0645\u0627\u0644\u06a9 \u067e\u06cc\u0679",
          "alt_name:ur": "\u0645\u0644\u06a9 \u067e\u06cc\u0679",
          "name": "Malakpet",
          "name:ar": "\u0645\u0627\u0644\u0643 \u0628\u064a\u062a",
          "name:ml": "\u0d2e\u0d32\u0d15\u0d4d\u0d2a\u0d47\u0d1f\u0d4d\u0d1f\u0d4d",
          "name:te": "\u0c2e\u0c32\u0c15\u0c4d\u200c\u0c2a\u0c47\u0c1f\u0c4d",
          "name:ur": "\u0645\u0627\u0644\u06a9 \u067e\u06cc\u0679",
          "network": "Hyderabad Metro",
          "note": "Contributors are requested to not edit the \"network\" and the \"operator\" tags. (2023/11/08)",
          "operator": "Hyderabad Metro Rail Limited",
          "public_transport": "station",
          "railway": "station",
          "station": "subway",
          "subway": "yes",
          "wheelchair": "yes"
        }
      },
      {
        "type": "node",
        "id": 7244464679,
        "lat": 17.3662592,
        "lon": 78.4980173,
        "tags": {
          "amenity": "fuel",
          "brand": "Indian Oil",
          "brand:wikidata": "Q1289348",
          "brand:wikipedia": "en:Indian Oil Corporation",
          "name": "Indian Oil"
        }
      },
      {
        "type": "node",
        "id": 7246815452,
        "lat": 17.3710728,
        "lon": 78.5119483,
        "tags": {
          "name": "Musarambagh",
          "name:te": "\u0c2e\u0c42\u0c38\u0c30\u0c02\u0c2c\u0c3e\u0c18\u0c4d",
          "name:ur": "\u0645\u0648\u0633\u06cc\u0670 \u0631\u0627\u0645 \u0628\u0627\u063a",
          "network": "Hyderabad Metro",
          "note": "Contributors are requested to not edit the \"network\" and the \"operator\" tags. (2023/11/08)",
          "operator": "Hyderabad Metro Rail Limited",
          "public_transport": "station",
          "railway": "station",
          "station": "subway",
          "subway": "yes",
          "wikidata": "Q81640785"
        }
      },
      {
        "type": "node",
        "id": 7358663498,
        "lat": 17.3844258,
        "lon": 78.4840519,
        "tags": {
          "name": "Sultan Bazar",
          "name:te": "\u0c38\u0c41\u0c32\u0c4d\u0c24\u0c3e\u0c28\u0c4d \u0c2c\u0c1c\u0c3e\u0c30\u0c4d",
          "network": "Hyderabad Metro",
          "note": "Contributors are requested to not edit the \"network\" and the \"operator\" tags. (2023/11/08)",
          "operator": "Hyderabad Metro Rail Limited",
          "public_transport": "stop_position",
          "subway": "yes"
        }
      },
      {
        "type": "node",
        "id": 7358663499,
        "lat": 17.3844473,
        "lon": 78.4840241,
        "tags": {
          "name": "Sultan Bazar",
          "name:ml": "\u0d38\u0d41\u0d7d\u0d24\u0d4d\u0d24\u0d3e\u0d7b \u0d2c\u0d38\u0d3e\u0d7c",
          "name:te": "\u0c38\u0c41\u0c32\u0c4d\u0c24\u0c3e\u0c28\u0c4d \u0c2c\u0c1c\u0c3e\u0c30\u0c4d",
          "network": "Hyderabad Metro",
          "note": "Contributors are requested to not edit the \"network\" and the \"operator\" tags. (2023/11/08)",
          "operator": "Hyderabad Metro Rail Limited",
          "railway": "station",
          "station": "subway",
          "subway": "yes"
        }
      },
      {
        "type": "node",
        "id": 7632550173,
        "lat": 17.3795945,
        "lon": 78.4858221,
        "tags": {
          "alt_name": "M. G. Bus Station (Green Line)",
          "name": "Mahatma Gandhi Bus Station (Green Line)",
          "name:te": "\u0c0e\u0c02.\u0c1c\u0c3f. \u0c2c\u0c38\u0c4d. \u0c38\u0c4d\u0c1f\u0c47\u0c37\u0c28\u0c4d",
          "name:ur": "\u0645\u06c1\u0627\u062a\u0645\u0627 \u06af\u0627\u0646\u062f\u06be\u06cc \u0628\u0633 \u0627\u0633\u0679\u06cc\u0634\u0646 (\u06af\u0631\u06cc\u0646 \u0644\u0627\u0626\u0646",
          "network": "Hyderabad Metro",
          "note": "Contributors are requested to not edit the \"network\" and the \"operator\" tags. (2023/11/08)",
          "operator": "Hyderabad Metro Rail Limited",
          "public_transport": "stop_position",
          "railway": "stop",
          "subway": "yes"
        }
      },
      {
        "type": "node",
        "id": 7632550174,
        "lat": 17.3796106,
        "lon": 78.4858581,
        "tags": {
          "alt_name": "M. G. Bus Station (Green Line)",
          "name": "Mahatma Gandhi Bus Station (Green Line)",
          "name:te": "\u0c0e\u0c02.\u0c1c\u0c3f. \u0c2c\u0c38\u0c4d. \u0c38\u0c4d\u0c1f\u0c47\u0c37\u0c28\u0c4d",
          "name:ur": "\u0645\u06c1\u0627\u062a\u0645\u0627 \u06af\u0627\u0646\u062f\u06be\u06cc \u0628\u0633 \u0627\u0633\u0679\u06cc\u0634\u0646 (\u06af\u0631\u06cc\u0646 \u0644\u0627\u0626\u0646",
          "network": "Hyderabad Metro",
          "note": "Contributors are requested to not edit the \"network\" and the \"operator\" tags. (2023/11/08)",
          "operator": "Hyderabad Metro Rail Limited",
          "public_transport": "stop_position",
          "railway": "stop",
          "subway": "yes"
        }
      },
      {
        "type": "node",
        "id": 8087330614,
        "lat": 17.3774375,
        "lon": 78.5150117,
        "tags": {
          "amenity": "fuel",
          "brand": "Bharat Petroleum",
          "brand:wikidata": "Q854826",
          "brand:wikipedia": "en:Bharat Petroleum",
          "name": "Bharat Petroleum",
          "opening_hours": "24/7"
        }
      },
      {
        "type": "node",
        "id": 8233700551,
        "lat": 17.3724834,
        "lon": 78.5071176,
        "tags": {
          "amenity": "fuel",
          "brand": "Indian Oil",
          "brand:wikidata": "Q1289348",
          "brand:wikipedia": "en:Indian Oil Corporation",
          "fuel:diesel": "yes",
          "fuel:petroleum": "yes",
          "name": "Indian petroleum",
          "operator": "Indian gas"
        }
      },
      {
        "type": "node",
        "id": 8386477096,
        "lat": 17.382448,
        "lon": 78.5183431,
        "tags": {
          "amenity": "fuel",
          "brand": "Indian Oil",
          "brand:wikidata": "Q1289348",
          "brand:wikipedia": "en:Indian Oil Corporation",
          "fuel:diesel": "yes",
          "fuel:petrol": "yes",
          "name": "Indian Oil",
          "self_service": "no"
        }
      },
      {
        "type": "node",
        "id": 8386581580,
        "lat": 17.3819253,
        "lon": 78.5179366,
        "tags": {
          "amenity": "fuel",
          "brand": "Bharat Petroleum",
          "brand:wikidata": "Q854826",
          "brand:wikipedia": "en:Bharat Petroleum",
          "fuel:diesel": "yes",
          "fuel:petrol": "yes",
          "name": "Bharat Petroleum",
          "self_service": "no"
        }
      },
      {
        "type": "node",
        "id": 10278298785,
        "lat": 17.3734093,
        "lon": 78.5031773,
        "tags": {
          "addr:city": "Hyderabad",
          "addr:city:ar": "\u062d\u064a\u062f\u0631 \u0622\u0628\u0627\u062f",
          "addr:city:ur": "\u062d\u06cc\u062f\u0631\u0622\u0628\u0627\u062f",
          "alt_name": "\u0645\u062d\u0628\u0648\u0628 \u06af\u0646\u062c",
          "name": "New Market",
          "name:ml": "\u0d28\u0d4d\u0d2f\u0d42\u0d2e\u0d3e\u0d7c\u0d15\u0d4d\u0d15\u0d31\u0d4d\u0d31\u0d4d",
          "name:te": "\u0c15\u0c4a\u0c24\u0c4d\u0c24 \u0c2e\u0c3e\u0c30\u0c4d\u0c15\u0c46\u0c1f\u0c4d",
          "name:ur": "\u0646\u0626\u06cc \u0645\u0627\u0631\u06a9\u06cc\u0679",
          "network": "Hyderabad Metro",
          "note": "Contributors are requested to not edit the \"network\" and the \"operator\" tags. (2023/11/08)",
          "operator": "Hyderabad Metro Rail Limited",
          "public_transport": "stop_position",
          "public_transport:version": "2",
          "railway": "stop",
          "subway": "yes"
        }
      },
      {
        "type": "node",
        "id": 10279821749,
        "lat": 17.3734268,
        "lon": 78.5031775,
        "tags": {
          "alt_name": "\u0645\u062d\u0628\u0648\u0628 \u06af\u0646\u062c",
          "name": "New Market",
          "name:ml": "\u0d28\u0d4d\u0d2f\u0d42\u0d2e\u0d3e\u0d7c\u0d15\u0d4d\u0d15\u0d31\u0d4d\u0d31\u0d4d",
          "name:te": "\u0c15\u0c4a\u0c24\u0c4d\u0c24 \u0c2e\u0c3e\u0c30\u0c4d\u0c15\u0c46\u0c1f\u0c4d",
          "name:ur": "\u0646\u0626\u06cc \u0645\u0627\u0631\u06a9\u06cc\u0679",
          "network": "Hyderabad Metro",
          "note": "Contributors are requested to not edit the \"network\" and the \"operator\" tags. (2023/11/08)",
          "operator": "Hyderabad Metro Rail Limited",
          "public_transport": "station",
          "railway": "station",
          "station": "subway",
          "subway": "yes",
          "wikidata": "Q81483949"
        }
      },
      {
        "type": "node",
        "id": 10279821750,
        "lat": 17.3710547,
        "lon": 78.5119383,
        "tags": {
          "addr:city": "Hyderabad",
          "addr:city:ar": "\u062d\u064a\u062f\u0631 \u0622\u0628\u0627\u062f",
          "addr:city:ur": "\u062d\u06cc\u062f\u0631\u0622\u0628\u0627\u062f",
          "name": "Musarambagh",
          "name:ml": "\u0d2e\u0d42\u0d38\u0d3e\u0d30\u0d3e\u0d02\u0d2c\u0d3e\u0d17\u0d4d",
          "name:te": "\u0c2e\u0c42\u0c38\u0c3e\u0c30\u0c02\u0c2c\u0c3e\u0c17\u0c4d",
          "name:ur": "\u0645\u0648\u0633\u06cc\u0670 \u0631\u0627\u0645 \u0628\u0627\u063a",
          "network": "Hyderabad Metro",
          "note": "Contributors are requested to not edit the \"network\" and the \"operator\" tags. (2023/11/08)",
          "operator": "Hyderabad Metro Rail Limited",
          "public_transport": "stop_position",
          "public_transport:version": "2",
          "railway": "stop",
          "subway": "yes"
        }
      },
      {
        "type": "node",
        "id": 10992500539,
        "lat": 17.3782418,
        "lon": 78.4848364,
        "tags": {
          "amenity": "bus_station",
          "bus": "yes",
          "name": "TSRTC MGBS BUS STAND , HYDERABAD",
          "public_transport": "station"
        }
      },
      {
        "type": "node",
        "id": 10992500540,
        "lat": 17.3777475,
        "lon": 78.4844892,
        "tags": {
          "amenity": "bus_station",
          "bus": "yes",
          "name": "TSRTC MGBS CENTRAL BUS STAND",
          "public_transport": "station"
        }
      },
      {
        "type": "node",
        "id": 10992500541,
        "lat": 17.3921316,
        "lon": 78.5011455,
        "tags": {
          "amenity": "bus_station",
          "bus": "yes",
          "name": "TSRTC BUS DEPOT , BARKATPURA",
          "public_transport": "station"
        }
      },
      {
        "type": "node",
        "id": 11738179187,
        "lat": 17.3823471,
        "lon": 78.4811327,
        "tags": {
          "alt_name": "OMC",
          "internet_access": "no",
          "name": "Osmania Medical College",
          "name:ml": "\u0d09\u0d38\u0d4d\u0d2e\u0d3e\u0d28\u0d3f\u0d2f \u0d2e\u0d46\u0d21\u0d3f\u0d15\u0d4d\u0d15\u0d7d \u0d15\u0d4b\u0d33\u0d47\u0d1c\u0d4d",
          "name:te": "\u0c09\u0c38\u0c4d\u0c2e\u0c3e\u0c28\u0c3f\u0c2f\u0c3e \u0c35\u0c48\u0c26\u0c4d\u0c2f \u0c15\u0c33\u0c3e\u0c36\u0c3e\u0c32",
          "name:ur": "\u0639\u062b\u0645\u0627\u0646\u06cc\u06c1 \u0645\u06cc\u0688\u06cc\u06a9\u0644 \u06a9\u0627\u0644\u062c",
          "network": "Hyderabad Metro",
          "note": "Contributors are requested to not edit the \"network\" and the \"operator\" tags. (2023/11/08)",
          "operator": "Hyderabad Metro Rail Limited",
          "public_transport": "station",
          "railway": "station",
          "station": "subway",
          "subway": "yes",
          "website": "https://hmrl.co.in",
          "wheelchair": "yes",
          "wikidata": "Q83859784"
        }
      },
      {
        "type": "node",
        "id": 11738179222,
        "lat": 17.3824963,
        "lon": 78.4807152,
        "tags": {
          "addr:city": "Hyderabad",
          "addr:city:ar": "\u062d\u064a\u062f\u0631 \u0622\u0628\u0627\u062f",
          "addr:city:ur": "\u062d\u06cc\u062f\u0631\u0622\u0628\u0627\u062f",
          "alt_name": "OMC",
          "name": "Osmania Medical College",
          "name:ml": "\u0d09\u0d38\u0d4d\u0d2e\u0d3e\u0d28\u0d3f\u0d2f \u0d2e\u0d46\u0d21\u0d3f\u0d15\u0d4d\u0d15\u0d7d \u0d15\u0d4b\u0d33\u0d47\u0d1c\u0d4d",
          "name:te": "\u0c09\u0c38\u0c4d\u0c2e\u0c3e\u0c28\u0c3f\u0c2f\u0c3e \u0c35\u0c48\u0c26\u0c4d\u0c2f \u0c15\u0c33\u0c3e\u0c36\u0c3e\u0c32",
          "network": "Hyderabad Metro",
          "note": "Contributors are requested to not edit the \"network\" and the \"operator\" tags. (2023/11/08)",
          "operator": "Hyderabad Metro Rail Limited",
          "public_transport": "stop_position",
          "public_transport:version": "2",
          "railway": "stop",
          "subway": "yes"
        }
      },
      {
        "type": "node",
        "id": 11774365337,
        "lat": 17.3733667,
        "lon": 78.4785666,
        "tags": {
          "amenity": "fuel",
          "brand": "Bharat Petroleum",
          "brand:wikidata": "Q854826",
          "check_date": "2024-03-31",
          "name": "Bharat Petroleum"
        }
      },
      {
        "type": "node",
        "id": 12114475167,
        "lat": 17.3900344,
        "lon": 78.5007123,
        "tags": {
          "name": "Kacheguda",
          "public_transport": "stop_position",
          "ref": "5",
          "train": "yes"
        }
      },
      {
        "type": "node",
        "id": 12114475168,
        "lat": 17.3901182,
        "lon": 78.5006124,
        "tags": {
          "name": "Kacheguda",
          "public_transport": "stop_position",
          "ref": "4",
          "train": "yes"
        }
      },
      {
        "type": "node",
        "id": 12114475169,
        "lat": 17.3901459,
        "lon": 78.5005747,
        "tags": {
          "name": "Kacheguda",
          "public_transport": "stop_position",
          "ref": "3",
          "train": "yes"
        }
      },
      {
        "type": "node",
        "id": 12114475170,
        "lat": 17.3902324,
        "lon": 78.5004753,
        "tags": {
          "name": "Kacheguda",
          "public_transport": "stop_position",
          "ref": "2",
          "train": "yes"
        }
      },
      {
        "type": "node",
        "id": 12114475171,
        "lat": 17.3902647,
        "lon": 78.5004391,
        "tags": {
          "name": "Kacheguda",
          "public_transport": "stop_position",
          "ref": "1",
          "train": "yes"
        }
      },
      {
        "type": "node",
        "id": 12114479621,
        "lat": 17.3597792,
        "lon": 78.4918777,
        "tags": {
          "name": "Yakutpura",
          "public_transport": "stop_position",
          "ref": "1",
          "train": "yes"
        }
      },
      {
        "type": "node",
        "id": 12114479622,
        "lat": 17.3597712,
        "lon": 78.491905,
        "tags": {
          "name": "Yakutpura",
          "public_transport": "stop_position",
          "ref": "2",
          "train": "yes"
        }
      },
      {
        "type": "node",
        "id": 12462528085,
        "lat": 17.3913192,
        "lon": 78.5101249,
        "tags": {
          "amenity": "fuel"
        }
      }
    ]
  }
}