{
  "pois_1km": {
    "version": 0.6,
    "generator": "Overpass API 0.7.62.8 e802775f",
    "osm3s": {
      "timestamp_osm_base": "2025-09-06T08:47:08Z",
      "copyright": "The data included in this document is from www.openstreetmap.org. The data is made available under ODbL."
    },
    "elements": [
      {
        "type": "node",
        "id": 1872508643,
        "lat": 17.4762797,
        "lon": 78.4216433,
        "tags": {
          "addr:city": "Hyderabad",
          "addr:postcode": "500072",
          "addr:street": "Moosapet Y Junction - Balanagar Road",
          "name": "Dmart",
          "organic": "yes",
          "shop": "supermarket",
          "website": "https://www.dmart.in/",
          "wheelchair": "limited"
        }
      },
      {
        "type": "node",
        "id": 6811748991,
        "lat": 17.465443,
        "lon": 78.426262,
        "tags": {
          "addr:district": "Medchal Malkajgiri",
          "addr:full": "Near Yuvasena Grounds, Bharat Nagar Colony, Moosapet, Hyderabad",
          "addr:postcode": "500018",
          "addr:state": "Telangana",
          "amenity": "clinic",
          "name": "Kidzee Children Clinic",
          "source": "OpenGovernmentData"
        }
      },
      {
        "type": "node",
        "id": 6811748999,
        "lat": 17.469497,
        "lon": 78.426848,
        "tags": {
          "addr:district": "Medchal Malkajgiri",
          "addr:full": "Beside Sri Sai Ram Medical Store, Moosapet",
          "addr:postcode": "500018",
          "addr:state": "Telangana",
          "amenity": "doctors",
          "name": "Dr. Murthy's Clinic",
          "operator:type": "Private",
          "source": "OpenGovernmentData"
        }
      },
      {
        "type": "node",
        "id": 6811749003,
        "lat": 17.4699379,
        "lon": 78.4236187,
        "tags": {
          "addr:district": "Medchal Malkajgiri",
          "addr:full": "Opp. Raghavendra Medical Store, Moosapet Cross Road, Moosapet, Hyderabad",
          "addr:postcode": "500018",
          "addr:state": "Telangana",
          "amenity": "clinic",
          "name": "Punarvasu Clinic",
          "source": "OpenGovernmentData"
        }
      },
      {
        "type": "node",
        "id": 6811749016,
        "lat": 17.46925,
        "lon": 78.422557,
        "tags": {
          "addr:city": "Hyderabad",
          "addr:district": "Medchal Malkajgiri",
          "addr:full": "Opp. Sudhir Electric, Moosapet",
          "addr:postcode": "500018",
          "addr:state": "Telangana",
          "amenity": "clinic",
          "name": "Jogratna Firstaid Centre",
          "source": "OpenGovernmentData"
        }
      },
      {
        "type": "node",
        "id": 6811749035,
        "lat": 17.4691859,
        "lon": 78.4224565,
        "tags": {
          "addr:city": "Hyderabad",
          "addr:district": "Medchal Malkajgiri",
          "addr:full": "12-7-10/A, Beside Jyothi Medical Store, Moosapet",
          "addr:postcode": "500018",
          "addr:state": "Telangana",
          "amenity": "clinic",
          "name": "Narsimha Clinic",
          "source": "OpenGovernmentData"
        }
      },
      {
        "type": "node",
        "id": 6811749036,
        "lat": 17.4640779,
        "lon": 78.4271526,
        "tags": {
          "addr:district": "Medchal Malkajgiri",
          "addr:full": "Near Bharat Nagar Water Tank, Bharat Nagar Colony, Hyderabad",
          "addr:postcode": "500018",
          "addr:state": "Telangana",
          "amenity": "doctors",
          "contact:mobile": "9701970101",
          "name": "Dr. M. Prashanthi Homoeo Physician",
          "source": "OpenGovernmentData"
        }
      },
      {
        "type": "node",
        "id": 6811749039,
        "lat": 17.465376,
        "lon": 78.426401,
        "tags": {
          "addr:city": "Hyderabad",
          "addr:district": "Medchal Malkajgiri",
          "addr:full": "Near Yuvasena Grounds, Bharat Nagar Colony, SP Nagar, Moosapet",
          "addr:postcode": "500018",
          "addr:state": "Telangana",
          "amenity": "doctors",
          "name": "Dr. E.Seetharam's Clinic",
          "source": "OpenGovernmentData"
        }
      },
      {
        "type": "node",
        "id": 6811749048,
        "lat": 17.469277,
        "lon": 78.428507,
        "tags": {
          "addr:district": "Medchal Malkajgiri",
          "addr:full": "Bhavani Nagar, Moosapet, Hyderabad",
          "addr:postcode": "500018",
          "addr:state": "Telangana",
          "amenity": "clinic",
          "name": "Sai Sadan Skin & Gynecologist Clinic",
          "operator:type": "Private",
          "source": "OpenGovernmentData"
        }
      },
      {
        "type": "node",
        "id": 6811749063,
        "lat": 17.471356,
        "lon": 78.419528,
        "tags": {
          "addr:district": "Medchal Malkajgiri",
          "addr:full": "Beside Nut Planet, Anjaneya Nagar, Moosapet, Hyderabad",
          "addr:postcode": "500018",
          "addr:state": "Telangana",
          "amenity": "clinic",
          "name": "Clear Sight Eye Clinic",
          "source": "OpenGovernmentData"
        }
      },
      {
        "type": "node",
        "id": 6811749066,
        "lat": 17.4694418,
        "lon": 78.4256774,
        "tags": {
          "addr:city": "Hyderabad",
          "addr:district": "Medchal Malkajgiri",
          "addr:full": "Near Panchaseela School, Patel Nagar, Moosapet",
          "addr:postcode": "500018",
          "addr:state": "Telangana",
          "amenity": "hospital",
          "name": "Chaitanya Hospital",
          "operator:type": "Private",
          "source": "OpenGovernmentData"
        }
      },
      {
        "type": "node",
        "id": 6811749069,
        "lat": 17.465609,
        "lon": 78.426565,
        "tags": {
          "addr:district": "Medchal Malkajgiri",
          "addr:full": "Opp. Aditya Bakery, Bharat Nagar Colony, Moosapet, Hyderabad",
          "addr:postcode": "500018",
          "addr:state": "Telangana",
          "amenity": "clinic",
          "name": "Bharath Nagar Clinic",
          "source": "OpenGovernmentData"
        }
      },
      {
        "type": "node",
        "id": 6811749076,
        "lat": 17.4694428,
        "lon": 78.4223768,
        "tags": {
          "addr:city": "Hyderabad",
          "addr:district": "Medchal Malkajgiri",
          "addr:full": "Beside Jodhpur Mithai Wala, Patel Nagar, Moosapet, Hyderabad",
          "addr:postcode": "500018",
          "addr:state": "Telangana",
          "amenity": "doctors",
          "name": "Dr. M. Krishna Rao's Clinic",
          "source": "OpenGovernmentData"
        }
      },
      {
        "type": "node",
        "id": 6811749111,
        "lat": 17.4737889,
        "lon": 78.4244689,
        "tags": {
          "addr:city": "Hyderabad",
          "addr:district": "Medchal Malkajgiri",
          "addr:full": "Beside Cake Walk Bakery, Pragathi Nagar, Moosapet",
          "addr:postcode": "500072",
          "addr:state": "Telangana",
          "amenity": "clinic",
          "name": "Sri Vibhav Health Care",
          "source": "OpenGovernmentData"
        }
      },
      {
        "type": "node",
        "id": 6811749126,
        "lat": 17.4694346,
        "lon": 78.4225055,
        "tags": {
          "addr:city": "Hyderabad",
          "addr:district": "Medchal Malkajgiri",
          "addr:full": "Beside Aditya Medical & General Store, Moosapet",
          "addr:postcode": "500018",
          "addr:state": "Telangana",
          "amenity": "clinic",
          "name": "Akhil Clinic",
          "source": "OpenGovernmentData"
        }
      },
      {
        "type": "node",
        "id": 6811749133,
        "lat": 17.473479,
        "lon": 78.421673,
        "tags": {
          "addr:district": "Medchal Malkajgiri",
          "addr:full": "Lane Beside Cake Walk Bakery, Pragathi Nagar, Moosapet, Hyderabad",
          "addr:postcode": "500072",
          "addr:state": "Telangana",
          "amenity": "hospital",
          "name": "Vasundhara Hospital",
          "opening_hours": "24/7",
          "source": "OpenGovernmentData"
        }
      },
      {
        "type": "node",
        "id": 6811749139,
        "lat": 17.4691677,
        "lon": 78.4275318,
        "tags": {
          "addr:city": "Hyderabad",
          "addr:district": "Medchal Malkajgiri",
          "addr:full": "Opp. Andhra Bank, Beside Sangeetha Mobiles, Moosapet 'X' Road",
          "addr:postcode": "500018",
          "addr:state": "Telangana",
          "amenity": "hospital",
          "contact:mobile": "9390113366",
          "name": "Aradhya Multi Speciality Hospital",
          "operator:type": "Private",
          "source": "OpenGovernmentData"
        }
      },
      {
        "type": "node",
        "id": 6811749157,
        "lat": 17.465501,
        "lon": 78.42678,
        "tags": {
          "addr:city": "Hyderabad",
          "addr:district": "Medchal Malkajgiri",
          "addr:full": "Opp. Aditha Bakery, Bharat Nagar, Moosapet",
          "addr:postcode": "500018",
          "addr:state": "Telangana",
          "amenity": "clinic",
          "name": "Sri Sai Krishna Polyclinic",
          "source": "OpenGovernmentData"
        }
      },
      {
        "type": "node",
        "id": 6811749166,
        "lat": 17.465682,
        "lon": 78.426367,
        "tags": {
          "addr:city": "Hyderabad",
          "addr:district": "Medchal Malkajgiri",
          "addr:full": "Beside Srinivas Photo Studio, Yuvasena Grounds, Bharat Nagar Colony, Moosapet",
          "addr:postcode": "500018",
          "addr:state": "Telangana",
          "amenity": "clinic",
          "name": "Sushmitha Clinic",
          "operator:type": "Private",
          "source": "OpenGovernmentData"
        }
      },
      {
        "type": "node",
        "id": 6811749167,
        "lat": 17.4695091,
        "lon": 78.4262837,
        "tags": {
          "addr:district": "Medchal Malkajgiri",
          "addr:full": "Above Devisree Jewellers, Thumu Murali Patel Complex, Moosapet, Hyderabad",
          "addr:postcode": "500018",
          "addr:state": "Telangana",
          "amenity": "clinic",
          "contact:mobile": "6305814574",
          "name": "Raghu Gastero & Liver Clinic",
          "source": "OpenGovernmentData"
        }
      },
      {
        "type": "node",
        "id": 6822126500,
        "lat": 17.47325,
        "lon": 78.42188,
        "tags": {
          "amenity": "restaurant",
          "name": "Athidi Aahar",
          "source": "survey"
        }
      },
      {
        "type": "node",
        "id": 6822126541,
        "lat": 17.465501,
        "lon": 78.426204,
        "tags": {
          "name": "Aman Kirana Shop",
          "shop": "department_store",
          "source": "survey"
        }
      },
      {
        "type": "node",
        "id": 6822126580,
        "lat": 17.4694819,
        "lon": 78.418869,
        "tags": {
          "amenity": "atm",
          "name": "Canara Bank ATM",
          "source": "survey"
        }
      },
      {
        "type": "node",
        "id": 6822126581,
        "lat": 17.469468,
        "lon": 78.425618,
        "tags": {
          "amenity": "cafe",
          "name": "Broadway Cafe, Bakers & Tiffins",
          "source": "survey"
        }
      },
      {
        "type": "node",
        "id": 6822126589,
        "lat": 17.469455,
        "lon": 78.422083,
        "tags": {
          "amenity": "cafe",
          "name": "New Banjara Cafe",
          "source": "survey"
        }
      },
      {
        "type": "node",
        "id": 6822126602,
        "lat": 17.4698059,
        "lon": 78.4236913,
        "tags": {
          "amenity": "pharmacy",
          "name": "Raghavendra Medical",
          "source": "survey"
        }
      },
      {
        "type": "node",
        "id": 6822126644,
        "lat": 17.469416,
        "lon": 78.428425,
        "tags": {
          "name": "Sai Krupa Kirana & General Store",
          "shop": "department_store",
          "source": "survey"
        }
      },
      {
        "type": "node",
        "id": 6847914772,
        "lat": 17.4686663,
        "lon": 78.4276148,
        "tags": {
          "amenity": "atm",
          "name": "ICICI BANK ATM",
          "source": "survey"
        }
      },
      {
        "type": "node",
        "id": 6850830309,
        "lat": 17.4713322,
        "lon": 78.4195193,
        "tags": {
          "name": "Yurani Fashion",
          "shop": "mall",
          "source": "survey"
        }
      },
      {
        "type": "node",
        "id": 6853049501,
        "lat": 17.46941,
        "lon": 78.422626,
        "tags": {
          "amenity": "pharmacy",
          "name": "Aditya Medical Hall",
          "source": "survey"
        }
      },
      {
        "type": "node",
        "id": 7944527163,
        "lat": 17.4697227,
        "lon": 78.4271961,
        "tags": {
          "amenity": "atm",
          "cash_in": "no",
          "name": "Axis Bank ATM"
        }
      },
      {
        "type": "node",
        "id": 7944610774,
        "lat": 17.4624807,
        "lon": 78.4303618,
        "tags": {
          "amenity": "atm",
          "name": "State Bank of India ATM"
        }
      },
      {
        "type": "node",
        "id": 8594229321,
        "lat": 17.4661785,
        "lon": 78.4327881,
        "tags": {
          "leisure": "park"
        }
      }
    ]
  },
  "pois_2_5km": {
    "version": 0.6,
    "generator": "Overpass API 0.7.62.8 e802775f",
    "osm3s": {
      "timestamp_osm_base": "2025-09-06T08:47:08Z",
      "copyright": "The data included in this document is from www.openstreetmap.org. The data is made available under ODbL."
    },
    "elements": [
      {
        "type": "node",
        "id": 315069354,
        "lat": 17.4620962,
        "lon": 78.4286626,
        "tags": {
          "name": "Bharath Nagar",
          "public_transport": "stop_position",
          "railway": "stop",
          "ref": "2",
          "train": "yes"
        }
      },
      {
        "type": "node",
        "id": 354534763,
        "lat": 17.4677936,
        "lon": 78.4293808,
        "tags": {
          "addr:city": "Hyderabad",
          "addr:postcode": "500018",
          "addr:street": "Moosapet Road",
          "air_conditioning": "yes",
          "amenity": "cinema",
          "name": "Sri Ramulu",
          "wheelchair": "no"
        }
      },
      {
        "type": "node",
        "id": 354534764,
        "lat": 17.4675083,
        "lon": 78.4282422,
        "tags": {
          "addr:city": "Hyderabad",
          "addr:postcode": "500018",
          "addr:street": "Moosapet Road",
          "air_conditioning": "yes",
          "amenity": "cinema",
          "brand": "Asian",
          "name": "Chandrakala (Asian Lakshmikala)",
          "wheelchair": "no"
        }
      },
      {
        "type": "node",
        "id": 354534765,
        "lat": 17.4678001,
        "lon": 78.428118,
        "tags": {
          "addr:city": "Hyderabad",
          "addr:postcode": "500018",
          "addr:street": "Moosapet Road",
          "air_conditioning": "yes",
          "amenity": "cinema",
          "brand": "Asian",
          "name": "Shashikala",
          "wheelchair": "no"
        }
      },
      {
        "type": "node",
        "id": 1437208985,
        "lat": 17.4590687,
        "lon": 78.4078664,
        "tags": {
          "internet_access": "no",
          "name": "Borabanda",
          "name:ur": "\u0628\u0648\u0631\u0627 \u0628\u0646\u0688\u0627",
          "network": "IR",
          "operator": "SCR",
          "platforms": "2",
          "public_transport": "station",
          "railway": "station",
          "ref": "BRBD",
          "wikidata": "Q4944267",
          "wikipedia": "en:Borabanda railway station"
        }
      },
      {
        "type": "node",
        "id": 1437209842,
        "lat": 17.4626026,
        "lon": 78.4301562,
        "tags": {
          "internet_access": "no",
          "name": "Bharath Nagar",
          "network": "IR",
          "operator": "SCR",
          "platforms": "3",
          "public_transport": "station",
          "railway": "station",
          "ref": "BTNR",
          "train": "yes",
          "wikidata": "Q4901137",
          "wikipedia": "en:Bharat Nagar railway station"
        }
      },
      {
        "type": "node",
        "id": 1905171010,
        "lat": 17.4673137,
        "lon": 78.428333,
        "tags": {
          "addr:city": "Hyderabad",
          "addr:postcode": "500018",
          "addr:street": "Moosapet Road",
          "air_conditioning": "yes",
          "amenity": "cinema",
          "brand": "Asian",
          "name": "Lakshmikala",
          "wheelchair": "no"
        }
      },
      {
        "type": "node",
        "id": 2422988961,
        "lat": 17.4849303,
        "lon": 78.4117785,
        "tags": {
          "addr:city": "Hyderabad",
          "addr:city:ar": "\u062d\u064a\u062f\u0631 \u0622\u0628\u0627\u062f",
          "addr:city:ur": "\u062d\u06cc\u062f\u0631\u0622\u0628\u0627\u062f",
          "name": "Kukatpally",
          "name:ml": "\u0d15\u0d41\u0d15\u0d4d\u0d15\u0d1f\u0d4d\u0d1f\u0d4d\u0d2a\u0d33\u0d4d\u0d33\u0d3f",
          "name:te": "\u0c15\u0c42\u0c15\u0c4d\u0c15\u0c1f\u0c4d\u200c\u0c2a\u0c32\u0c4d\u0c32\u0c3f",
          "network": "Hyderabad Metro",
          "note": "Contributors are requested to not edit the \"network\" and the \"operator\" tags. (2023/11/08)",
          "operator": "Hyderabad Metro Rail Limited",
          "public_transport": "stop_position",
          "railway": "stop",
          "subway": "yes"
        }
      },
      {
        "type": "node",
        "id": 2422989021,
        "lat": 17.4570724,
        "lon": 78.4335941,
        "tags": {
          "addr:city": "Hyderabad",
          "addr:city:ar": "\u062d\u064a\u062f\u0631 \u0622\u0628\u0627\u062f",
          "addr:city:ur": "\u062d\u06cc\u062f\u0631\u0622\u0628\u0627\u062f",
          "name": "Erragadda",
          "name:ml": "\u0d0e\u0d31\u0d17\u0d22",
          "name:te": "\u0c0e\u0c30\u0c4d\u0c30\u0c17\u0c21\u0c4d\u0c21",
          "network": "Hyderabad Metro",
          "note": "Contributors are requested to not edit the \"network\" and the \"operator\" tags. (2023/11/08)",
          "operator": "Hyderabad Metro Rail Limited",
          "public_transport": "stop_position",
          "public_transport:version": "2",
          "railway": "stop",
          "subway": "yes"
        }
      },
      {
        "type": "node",
        "id": 2422989052,
        "lat": 17.464041,
        "lon": 78.4300928,
        "tags": {
          "addr:city": "Hyderabad",
          "addr:city:ar": "\u062d\u064a\u062f\u0631 \u0622\u0628\u0627\u062f",
          "addr:city:ur": "\u062d\u06cc\u062f\u0631\u0622\u0628\u0627\u062f",
          "name": "Bharat Nagar",
          "name:ml": "\u0d2d\u0d30\u0d24\u0d4d \u0d28\u0d17\u0d7c",
          "name:te": "\u0c2d\u0c30\u0c24\u0c4d \u0c28\u0c17\u0c30\u0c4d",
          "network": "Hyderabad Metro",
          "note": "Contributors are requested to not edit the \"network\" and the \"operator\" tags. (2023/11/08)",
          "operator": "Hyderabad Metro Rail Limited",
          "public_transport": "stop_position",
          "public_transport:version": "2",
          "railway": "stop",
          "subway": "yes",
          "wikidata": "Q4901137"
        }
      },
      {
        "type": "node",
        "id": 2422989180,
        "lat": 17.4767602,
        "lon": 78.4221009,
        "tags": {
          "addr:city": "Hyderabad",
          "addr:city:ar": "\u062d\u064a\u062f\u0631 \u0622\u0628\u0627\u062f",
          "addr:city:ur": "\u062d\u06cc\u062f\u0631\u0622\u0628\u0627\u062f",
          "name": "Balanagar",
          "name:ml": "\u0d2c\u0d3e\u0d32\u0d3e\u0d28\u0d17\u0d7c",
          "name:te": "\u0c2c\u0c3e\u0c32\u0c3e\u0c28\u0c17\u0c30\u0c4d",
          "network": "Hyderabad Metro",
          "note": "Contributors are requested to not edit the \"network\" and the \"operator\" tags. (2023/11/08)",
          "operator": "Hyderabad Metro Rail Limited",
          "public_transport": "stop_position",
          "public_transport:version": "2",
          "railway": "stop",
          "subway": "yes"
        }
      },
      {
        "type": "node",
        "id": 2528181881,
        "lat": 17.4592409,
        "lon": 78.4078466,
        "tags": {
          "name": "Borabanda",
          "public_transport": "stop_position",
          "railway": "stop",
          "ref": "1",
          "train": "yes"
        }
      },
      {
        "type": "node",
        "id": 2528181917,
        "lat": 17.4621388,
        "lon": 78.4286604,
        "tags": {
          "name": "Bharath Nagar",
          "public_transport": "stop_position",
          "railway": "stop",
          "ref": "1",
          "train": "yes"
        }
      },
      {
        "type": "node",
        "id": 3388977736,
        "lat": 17.4873033,
        "lon": 78.4137696,
        "tags": {
          "amenity": "fuel",
          "name": "Casey's General Store",
          "wheelchair": "yes"
        }
      },
      {
        "type": "node",
        "id": 5186129525,
        "lat": 17.4622355,
        "lon": 78.4366978,
        "tags": {
          "internet_access": "no",
          "name": "Sanat Nagar",
          "network": "IR",
          "operator": "SCR",
          "platforms": "2",
          "public_transport": "station",
          "railway": "station",
          "ref": "SNF",
          "train": "yes",
          "wikidata": "Q63369718"
        }
      },
      {
        "type": "node",
        "id": 5551948741,
        "lat": 17.4718855,
        "lon": 78.4261182,
        "tags": {
          "addr:city": "Hyderabad",
          "addr:city:ar": "\u062d\u064a\u062f\u0631 \u0622\u0628\u0627\u062f",
          "addr:city:ur": "\u062d\u06cc\u062f\u0631\u0622\u0628\u0627\u062f",
          "name": "Moosapet",
          "name:ml": "\u0d2e\u0d42\u0d38\u0d3e\u0d2a\u0d4d\u0d2a\u0d47\u0d1f\u0d4d\u0d1f\u0d4d",
          "name:te": "\u0c2e\u0c42\u0c38\u0c3e\u0c2a\u0c47\u0c1f\u0c4d",
          "network": "Hyderabad Metro",
          "note": "Contributors are requested to not edit the \"network\" and the \"operator\" tags. (2023/11/08)",
          "operator": "Hyderabad Metro Rail Limited",
          "public_transport": "stop_position",
          "public_transport:version": "2",
          "railway": "stop",
          "subway": "yes"
        }
      },
      {
        "type": "node",
        "id": 6255329187,
        "lat": 17.4712572,
        "lon": 78.426838,
        "tags": {
          "amenity": "fuel",
          "name": "Bharat Petrol Bunk"
        }
      },
      {
        "type": "node",
        "id": 6594683312,
        "lat": 17.4592009,
        "lon": 78.4078495,
        "tags": {
          "name": "Borabanda",
          "public_transport": "stop_position",
          "railway": "stop",
          "ref": "2",
          "train": "yes"
        }
      },
      {
        "type": "node",
        "id": 6868678696,
        "lat": 17.4543396,
        "lon": 78.4191447,
        "tags": {
          "addr:city": "HYDERABAD",
          "addr:postcode": "500018",
          "addr:street": "borabanda allahapur road",
          "amenity": "cinema",
          "name": "Vijetha Cinemas",
          "opening_hours": "Mo-Su 10:00-24:00",
          "opening_hours:covid19": "off",
          "payment:cash": "yes",
          "payment:electronic_purses": "yes",
          "screen": "1"
        }
      },
      {
        "type": "node",
        "id": 7040366286,
        "lat": 17.4850883,
        "lon": 78.411638,
        "tags": {
          "internet_access": "no",
          "name": "Kukatpally",
          "name:ml": "\u0d15\u0d41\u0d15\u0d4d\u0d15\u0d1f\u0d4d\u0d1f\u0d4d\u0d2a\u0d33\u0d4d\u0d33\u0d3f",
          "name:te": "\u0c15\u0c42\u0c15\u0c4d\u0c15\u0c1f\u0c4d\u200c\u0c2a\u0c32\u0c4d\u0c32\u0c3f",
          "network": "Hyderabad Metro",
          "note": "Contributors are requested to not edit the \"network\" and the \"operator\" tags. (2023/11/08)",
          "operator": "Hyderabad Metro Rail Limited",
          "public_transport": "station",
          "railway": "station",
          "station": "subway",
          "subway": "yes",
          "website": "https://hmrl.co.in",
          "wheelchair": "yes",
          "wikidata": "Q83283577"
        }
      },
      {
        "type": "node",
        "id": 10789443671,
        "lat": 17.4536439,
        "lon": 78.4345742,
        "tags": {
          "addr:city": "Hyderabad",
          "addr:neighbourhood": "Erragadda",
          "addr:postcode": "500018",
          "addr:state": "Telangana",
          "addr:street": "Mainroad",
          "air_conditioning": "yes",
          "amenity": "cinema",
          "name": "Gokul Theatre",
          "wheelchair": "no"
        }
      },
      {
        "type": "node",
        "id": 10992500550,
        "lat": 17.473504,
        "lon": 78.4267427,
        "tags": {
          "amenity": "bus_station",
          "bus": "yes",
          "check_date": "2024-03-16",
          "name": "TSRTC BUS STAND , Prashant Nagar",
          "public_transport": "station"
        }
      },
      {
        "type": "node",
        "id": 11738179189,
        "lat": 17.4719703,
        "lon": 78.4260361,
        "tags": {
          "internet_access": "no",
          "name": "Moosapet",
          "name:ml": "\u0d2e\u0d42\u0d38\u0d3e\u0d2a\u0d4d\u0d2a\u0d47\u0d1f\u0d4d\u0d1f\u0d4d",
          "name:te": "\u0c2e\u0c42\u0c38\u0c3e\u0c2a\u0c47\u0c1f\u0c4d",
          "name:ur": "\u0645\u0648\u0633\u06cc\u0670 \u067e\u06cc\u0679",
          "network": "Hyderabad Metro",
          "note": "Contributors are requested to not edit the \"network\" and the \"operator\" tags. (2023/11/08)",
          "operator": "Hyderabad Metro Rail Limited",
          "public_transport": "station",
          "railway": "station",
          "station": "subway",
          "subway": "yes",
          "website": "https://hmrl.co.in",
          "wheelchair": "yes",
          "wikidata": "Q82256850"
        }
      },
      {
        "type": "node",
        "id": 11738179196,
        "lat": 17.4573276,
        "lon": 78.4334618,
        "tags": {
          "internet_access": "no",
          "name": "Erragadda",
          "name:ml": "\u0d0e\u0d31\u0d17\u0d22",
          "name:te": "\u0c0e\u0c30\u0c4d\u0c30\u0c17\u0c21\u0c4d\u0c21",
          "name:ur": "\u0627\u06cc\u0631\u06c1 \u06af\u0688\u06c1",
          "network": "Hyderabad Metro",
          "note": "Contributors are requested to not edit the \"network\" and the \"operator\" tags. (2023/11/08)",
          "operator": "Hyderabad Metro Rail Limited",
          "public_transport": "station",
          "railway": "station",
          "station": "subway",
          "subway": "yes",
          "website": "https://hmrl.co.in",
          "wheelchair": "yes",
          "wikidata": "Q82698806"
        }
      },
      {
        "type": "node",
        "id": 11738179198,
        "lat": 17.4641604,
        "lon": 78.4300051,
        "tags": {
          "internet_access": "no",
          "name": "Bharat Nagar",
          "name:ml": "\u0d2d\u0d30\u0d24\u0d4d \u0d28\u0d17\u0d7c",
          "name:te": "\u0c2d\u0c30\u0c24\u0c4d \u0c28\u0c17\u0c30\u0c4d",
          "network": "Hyderabad Metro",
          "note": "Contributors are requested to not edit the \"network\" and the \"operator\" tags. (2023/11/08)",
          "operator": "Hyderabad Metro Rail Limited",
          "public_transport": "station",
          "railway": "station",
          "station": "subway",
          "subway": "yes",
          "website": "https://hmrl.co.in",
          "wheelchair": "yes",
          "wikidata": "Q82532536"
        }
      },
      {
        "type": "node",
        "id": 11738179199,
        "lat": 17.4768224,
        "lon": 78.4219645,
        "tags": {
          "internet_access": "no",
          "name": "Balanagar",
          "name:ml": "\u0d2c\u0d3e\u0d32\u0d3e\u0d28\u0d17\u0d7c",
          "name:te": "\u0c2c\u0c3e\u0c32\u0c3e\u0c28\u0c17\u0c30\u0c4d",
          "name:ur": "\u0628\u0627\u0644\u0627 \u0646\u06af\u0631",
          "network": "Hyderabad Metro",
          "note": "Contributors are requested to not edit the \"network\" and the \"operator\" tags. (2023/11/08)",
          "operator": "Hyderabad Metro Rail Limited",
          "public_transport": "station",
          "railway": "station",
          "station": "subway",
          "subway": "yes",
          "website": "https://hmrl.co.in",
          "wheelchair": "yes",
          "wikidata": "Q82064377"
        }
      },
      {
        "type": "node",
        "id": 11738179205,
        "lat": 17.485523,
        "lon": 78.411303,
        "tags": {
          "addr:city": "Hyderabad",
          "addr:city:ar": "\u062d\u064a\u062f\u0631 \u0622\u0628\u0627\u062f",
          "addr:city:ur": "\u062d\u06cc\u062f\u0631\u0622\u0628\u0627\u062f",
          "name": "Kukatpally",
          "name:ml": "\u0d15\u0d41\u0d15\u0d4d\u0d15\u0d1f\u0d4d\u0d1f\u0d4d\u0d2a\u0d33\u0d4d\u0d33\u0d3f",
          "name:te": "\u0c15\u0c42\u0c15\u0c4d\u0c15\u0c1f\u0c4d\u200c\u0c2a\u0c32\u0c4d\u0c32\u0c3f",
          "network": "Hyderabad Metro",
          "note": "Contributors are requested to not edit the \"network\" and the \"operator\" tags. (2023/11/08)",
          "operator": "Hyderabad Metro Rail Limited",
          "public_transport": "stop_position",
          "railway": "stop",
          "subway": "yes"
        }
      },
      {
        "type": "node",
        "id": 11738179206,
        "lat": 17.4770298,
        "lon": 78.4216187,
        "tags": {
          "addr:city": "Hyderabad",
          "addr:city:ar": "\u062d\u064a\u062f\u0631 \u0622\u0628\u0627\u062f",
          "addr:city:ur": "\u062d\u06cc\u062f\u0631\u0622\u0628\u0627\u062f",
          "name": "Balanagar",
          "name:ml": "\u0d2c\u0d3e\u0d32\u0d3e\u0d28\u0d17\u0d7c",
          "name:te": "\u0c2c\u0c3e\u0c32\u0c3e\u0c28\u0c17\u0c30\u0c4d",
          "network": "Hyderabad Metro",
          "note": "Contributors are requested to not edit the \"network\" and the \"operator\" tags. (2023/11/08)",
          "operator": "Hyderabad Metro Rail Limited",
          "public_transport": "stop_position",
          "public_transport:version": "2",
          "railway": "stop",
          "subway": "yes"
        }
      },
      {
        "type": "node",
        "id": 11738179207,
        "lat": 17.4723848,
        "lon": 78.4257298,
        "tags": {
          "addr:city": "Hyderabad",
          "addr:city:ar": "\u062d\u064a\u062f\u0631 \u0622\u0628\u0627\u062f",
          "addr:city:ur": "\u062d\u06cc\u062f\u0631\u0622\u0628\u0627\u062f",
          "name": "Moosapet",
          "name:ml": "\u0d2e\u0d42\u0d38\u0d3e\u0d2a\u0d4d\u0d2a\u0d47\u0d1f\u0d4d\u0d1f\u0d4d",
          "name:te": "\u0c2e\u0c42\u0c38\u0c3e\u0c2a\u0c47\u0c1f\u0c4d",
          "network": "Hyderabad Metro",
          "note": "Contributors are requested to not edit the \"network\" and the \"operator\" tags. (2023/11/08)",
          "operator": "Hyderabad Metro Rail Limited",
          "public_transport": "stop_position",
          "public_transport:version": "2",
          "railway": "stop",
          "subway": "yes"
        }
      },
      {
        "type": "node",
        "id": 11738179208,
        "lat": 17.4644365,
        "lon": 78.4298596,
        "tags": {
          "addr:city": "Hyderabad",
          "addr:city:ar": "\u062d\u064a\u062f\u0631 \u0622\u0628\u0627\u062f",
          "addr:city:ur": "\u062d\u06cc\u062f\u0631\u0622\u0628\u0627\u062f",
          "name": "Bharat Nagar",
          "name:ml": "\u0d2d\u0d30\u0d24\u0d4d \u0d28\u0d17\u0d7c",
          "name:te": "\u0c2d\u0c30\u0c24\u0c4d \u0c28\u0c17\u0c30\u0c4d",
          "network": "Hyderabad Metro",
          "note": "Contributors are requested to not edit the \"network\" and the \"operator\" tags. (2023/11/08)",
          "operator": "Hyderabad Metro Rail Limited",
          "public_transport": "stop_position",
          "public_transport:version": "2",
          "railway": "stop",
          "subway": "yes",
          "wikidata": "Q4901137"
        }
      },
      {
        "type": "node",
        "id": 11738179209,
        "lat": 17.4577203,
        "lon": 78.4332668,
        "tags": {
          "addr:city": "Hyderabad",
          "addr:city:ar": "\u062d\u064a\u062f\u0631 \u0622\u0628\u0627\u062f",
          "addr:city:ur": "\u062d\u06cc\u062f\u0631\u0622\u0628\u0627\u062f",
          "name": "Erragadda",
          "name:ml": "\u0d0e\u0d31\u0d17\u0d22",
          "name:te": "\u0c0e\u0c30\u0c4d\u0c30\u0c17\u0c21\u0c4d\u0c21",
          "network": "Hyderabad Metro",
          "note": "Contributors are requested to not edit the \"network\" and the \"operator\" tags. (2023/11/08)",
          "operator": "Hyderabad Metro Rail Limited",
          "public_transport": "stop_position",
          "public_transport:version": "2",
          "railway": "stop",
          "subway": "yes"
        }
      },
      {
        "type": "node",
        "id": 11770988838,
        "lat": 17.467945,
        "lon": 78.4446343,
        "tags": {
          "amenity": "fuel",
          "brand": "Indian Oil",
          "brand:wikidata": "Q1289348",
          "check_date": "2024-03-29",
          "name": "Indian Oil"
        }
      },
      {
        "type": "node",
        "id": 11770988867,
        "lat": 17.466143,
        "lon": 78.4469855,
        "tags": {
          "amenity": "fuel",
          "brand": "Indian Oil",
          "brand:wikidata": "Q1289348",
          "check_date": "2024-03-29",
          "name": "Indian Oil"
        }
      },
      {
        "type": "node",
        "id": 11770988868,
        "lat": 17.4665698,
        "lon": 78.447275,
        "tags": {
          "amenity": "fuel",
          "brand": "Bharat Petroleum",
          "brand:wikidata": "Q854826",
          "check_date": "2024-03-29",
          "name": "Bharat Petroleum"
        }
      },
      {
        "type": "node",
        "id": 11770993371,
        "lat": 17.4680674,
        "lon": 78.4444689,
        "tags": {
          "amenity": "fuel",
          "check_date": "2024-03-29",
          "name": "Go Gas"
        }
      },
      {
        "type": "node",
        "id": 11770993372,
        "lat": 17.4770601,
        "lon": 78.4208759,
        "tags": {
          "amenity": "fuel",
          "brand": "Bharat Petroleum",
          "brand:wikidata": "Q854826",
          "check_date": "2024-03-29",
          "name": "Bharat Petroleum"
        }
      },
      {
        "type": "node",
        "id": 11770993375,
        "lat": 17.4790052,
        "lon": 78.4182078,
        "tags": {
          "amenity": "fuel",
          "brand": "Hindustan Petroleum",
          "brand:wikidata": "Q1619375",
          "check_date": "2024-03-29",
          "name": "HP",
          "official_name": "Hindustan Petroleum"
        }
      },
      {
        "type": "node",
        "id": 11770993377,
        "lat": 17.4792324,
        "lon": 78.4175627,
        "tags": {
          "amenity": "cinema",
          "brand": "INOX Leisure",
          "brand:wikidata": "Q5972349",
          "check_date": "2024-03-29",
          "name": "INOX Leisure",
          "short_name": "INOX"
        }
      },
      {
        "type": "node",
        "id": 11774401371,
        "lat": 17.473159,
        "lon": 78.4248423,
        "tags": {
          "amenity": "fuel",
          "brand": "Hindustan Petroleum",
          "brand:wikidata": "Q1619375",
          "check_date": "2024-03-31",
          "name": "HP",
          "official_name": "Hindustan Petroleum"
        }
      },
      {
        "type": "node",
        "id": 12596336335,
        "lat": 17.4852053,
        "lon": 78.4115793,
        "tags": {
          "name": "Kukatpally Metro",
          "public_transport": "station",
          "railway": "station",
          "station": "subway",
          "subway": "yes"
        }
      },
      {
        "type": "node",
        "id": 12596350332,
        "lat": 17.4768693,
        "lon": 78.4219076,
        "tags": {
          "name": "Balanagar Metro",
          "name:ur": "\u0628\u0627\u0644\u0627 \u0646\u06af\u0631",
          "public_transport": "station",
          "railway": "station",
          "station": "subway",
          "subway": "yes"
        }
      }
    ]
  }
}