{
  "pois_1km": {
    "version": 0.6,
    "generator": "Overpass API 0.7.62.8 e802775f",
    "osm3s": {
      "timestamp_osm_base": "2025-09-06T08:56:24Z",
      "copyright": "The data included in this document is from www.openstreetmap.org. The data is made available under ODbL."
    },
    "elements": [
      {
        "type": "node",
        "id": 2023660439,
        "lat": 17.498029,
        "lon": 78.4093927,
        "tags": {
          "addr:city": "hyderabad",
          "addr:postcode": "500072",
          "addr:street": "Jagathgiri Gutta Road",
          "air_conditioning": "yes",
          "brand": "More",
          "brand:wikidata": "Q6910891",
          "brand:wikipedia": "en:More (store)",
          "check_date": "2024-03-16",
          "name": "More",
          "opening_hours": "Mo-Su 10:00-22:00",
          "payment:cash": "yes",
          "payment:credit_cards": "yes",
          "payment:debit_cards": "yes",
          "payment:mastercard": "yes",
          "payment:visa": "yes",
          "shop": "supermarket"
        }
      },
      {
        "type": "node",
        "id": 2710757269,
        "lat": 17.4949521,
        "lon": 78.4116846,
        "tags": {
          "addr:city": "hyderabad",
          "addr:postcode": "500072",
          "check_date": "2024-03-16",
          "name": "Reliance Fresh",
          "shop": "supermarket"
        }
      },
      {
        "type": "node",
        "id": 2710767846,
        "lat": 17.493049,
        "lon": 78.40946,
        "tags": {
          "amenity": "cafe",
          "cuisine": "burger",
          "name": "NFC"
        }
      },
      {
        "type": "node",
        "id": 2710770238,
        "lat": 17.4918634,
        "lon": 78.4089417,
        "tags": {
          "addr:city": "Hyderabad",
          "addr:housenumber": "939",
          "addr:postcode": "500072",
          "addr:street": "Vivekananda Nagar Road",
          "brand": "More",
          "brand:wikidata": "Q6910891",
          "brand:wikipedia": "en:More (store)",
          "name": "More",
          "operator": "Aditya Birla Retail Ltd.",
          "phone": "9912226184",
          "shop": "supermarket",
          "source": "http://www.morestore.com",
          "website": "http://www.morestore.com"
        }
      },
      {
        "type": "node",
        "id": 2843585223,
        "lat": 17.5043639,
        "lon": 78.415797,
        "tags": {
          "amenity": "cafe",
          "name": "Jalakanya Hotel"
        }
      },
      {
        "type": "node",
        "id": 3210306321,
        "lat": 17.4931799,
        "lon": 78.4100386,
        "tags": {
          "addr:city": "Hyderabad",
          "addr:postcode": "500072",
          "addr:street": "Vivekananda Nagar Road",
          "name": "Spencers",
          "organic": "yes",
          "shop": "supermarket",
          "website": "https://www.spencers.in/"
        }
      },
      {
        "type": "node",
        "id": 3388904097,
        "lat": 17.4964617,
        "lon": 78.4058535,
        "tags": {
          "amenity": "pharmacy",
          "check_date": "2024-03-16",
          "name": "Apollo Pharmacy"
        }
      },
      {
        "type": "node",
        "id": 3388904751,
        "lat": 17.4964439,
        "lon": 78.4057461,
        "tags": {
          "check_date": "2024-03-16",
          "name": "BhagyaLakshmi general store",
          "shop": "supermarket"
        }
      },
      {
        "type": "node",
        "id": 3388917966,
        "lat": 17.4976732,
        "lon": 78.408436,
        "tags": {
          "amenity": "bank",
          "check_date": "2024-03-16",
          "name": "SBI ATM"
        }
      },
      {
        "type": "node",
        "id": 3388918699,
        "lat": 17.4964617,
        "lon": 78.4061523,
        "tags": {
          "amenity": "bank",
          "check_date": "2024-03-16",
          "name": "ICICI ATM"
        }
      },
      {
        "type": "node",
        "id": 3388932508,
        "lat": 17.493556,
        "lon": 78.4100632,
        "tags": {
          "amenity": "fast_food",
          "name": "bombay chat",
          "wheelchair": "yes"
        }
      },
      {
        "type": "node",
        "id": 4605639455,
        "lat": 17.4953707,
        "lon": 78.4032296,
        "tags": {
          "amenity": "atm",
          "brand": "State Bank of India",
          "brand:wikidata": "Q1340361",
          "check_date": "2024-03-16",
          "name": "SBI ATM",
          "operator": "State Bank of India",
          "operator:wikidata": "Q1340361"
        }
      },
      {
        "type": "node",
        "id": 6494465425,
        "lat": 17.4953109,
        "lon": 78.415377,
        "tags": {
          "addr:district": "Hyderabad",
          "addr:full": "Plot No. 141 & 144/1, Sapthagiri Colony, Ayyappa Swamy Temple Road, Near New Era School, Kukatpally",
          "addr:postcode": "500072",
          "addr:state": "Telangana",
          "amenity": "hospital",
          "contact:email": "info@harsha-hospitals.co.in",
          "contact:mobile": "7799565793; 9000855548",
          "name": "Harsha Hospitals",
          "phone": "040 23066393",
          "source": "OpenGovernmentData",
          "website": "https://www.harsha-hospitals.com/"
        }
      },
      {
        "type": "node",
        "id": 6504154905,
        "lat": 17.4920026,
        "lon": 78.4093373,
        "tags": {
          "addr:district": "Hyderabad",
          "addr:full": "Plot No. 688, Sumana Hospital Lane, Road Number 2, Vivekananda Nagar, Kukatpally",
          "addr:postcode": "500072",
          "addr:state": "Telangana",
          "amenity": "hospital",
          "contact:email": "sumanahospital@gmail.com",
          "contact:phone": "040 2306 8066",
          "healthcare": "hospital",
          "name": "Sumana Hospital",
          "source": "OpenGovernmentData",
          "website": "http://sumanahospital.com",
          "wikidata": "Q52843701"
        }
      },
      {
        "type": "node",
        "id": 6504284028,
        "lat": 17.494147,
        "lon": 78.4053522,
        "tags": {
          "addr:district": "Hyderabad",
          "addr:full": "2-22-254, Street No.3, A.S. Raju Nagar, Behind South India Shopping Mall, Kukatpally",
          "addr:postcode": "500072",
          "addr:state": "Telangana",
          "amenity": "hospital",
          "name": "Kavya Nursing Home",
          "source": "OpenGovernmentData"
        }
      },
      {
        "type": "node",
        "id": 6513113356,
        "lat": 17.4961817,
        "lon": 78.4055095,
        "tags": {
          "addr:district": "Hyderabad",
          "addr:full": "22-163/2, Adjacent to Global Enclave, Bhagyanagar Colony, Kukatpally",
          "addr:postcode": "500072",
          "addr:state": "Telangana",
          "amenity": "hospital",
          "check_date": "2024-03-16",
          "healthcare": "hospital",
          "name": "Tadla Eye Hospital",
          "source": "OpenGovernmentData"
        }
      },
      {
        "type": "node",
        "id": 6549335308,
        "lat": 17.4915939,
        "lon": 78.4096941,
        "tags": {
          "addr:city": "Hyderabad",
          "addr:full": "Plot No:. 692, VIVEKANAND NAGAR COLONY, KUKATPALLY",
          "addr:postcode": "500072",
          "addr:state": "Telangana",
          "amenity": "hospital",
          "contact:phone": "4023060030",
          "healthcare": "hospital",
          "name": "Green Leaf Health Centre",
          "operator:type": "private",
          "source": "OpenGovernmentData"
        }
      },
      {
        "type": "node",
        "id": 6779912961,
        "lat": 17.4915282,
        "lon": 78.4079018,
        "tags": {
          "addr:city": "Hyderabad",
          "addr:housenumber": "4-5",
          "addr:postcode": "500072",
          "addr:street": "Vivekananda Nagar Road",
          "amenity": "fast_food",
          "cuisine": "chinese",
          "internet_access": "no",
          "name": "fast food",
          "operator": "read",
          "operator:type": "public"
        }
      },
      {
        "type": "node",
        "id": 6779931600,
        "lat": 17.4930152,
        "lon": 78.4079407,
        "tags": {
          "addr:city": "Hyderabad",
          "addr:housenumber": "9-6",
          "addr:postcode": "500072",
          "addr:street": "mahakali nager",
          "name": "bharat shop",
          "opening_hours": "Mo-Fr 09:00-17:00",
          "operator": "buying",
          "shop": "supermarket"
        }
      },
      {
        "type": "node",
        "id": 6779951485,
        "lat": 17.4931495,
        "lon": 78.4073439,
        "tags": {
          "access": "private",
          "leisure": "garden",
          "name": "park",
          "operator": "playing"
        }
      },
      {
        "type": "node",
        "id": 6811749053,
        "lat": 17.493087,
        "lon": 78.4096964,
        "tags": {
          "addr:district": "Medchal Malkajgiri",
          "addr:full": "266, Near Geethanjali Talent, School, Vivekananda Nagar, Kukatpally",
          "addr:postcode": "500072",
          "addr:state": "Telangana",
          "amenity": "hospital",
          "name": "Apple Diagnostic & Medical Centre, Kukatpally",
          "source": "OpenGovernmentData"
        }
      },
      {
        "type": "node",
        "id": 7008089080,
        "lat": 17.5035172,
        "lon": 78.4156543,
        "tags": {
          "amenity": "hospital",
          "healthcare": "hospital",
          "name": "Mythri Clinic"
        }
      },
      {
        "type": "node",
        "id": 7008120224,
        "lat": 17.4910941,
        "lon": 78.4075166,
        "tags": {
          "amenity": "restaurant",
          "name": "Raja Rani Ruchulu"
        }
      },
      {
        "type": "node",
        "id": 7244022648,
        "lat": 17.5019507,
        "lon": 78.415981,
        "tags": {
          "amenity": "clinic",
          "healthcare": "clinic"
        }
      },
      {
        "type": "node",
        "id": 7244022650,
        "lat": 17.5018298,
        "lon": 78.415966,
        "tags": {
          "amenity": "fast_food",
          "name": "Chat bander"
        }
      },
      {
        "type": "node",
        "id": 7244168630,
        "lat": 17.5016493,
        "lon": 78.416084,
        "tags": {
          "amenity": "atm",
          "operator": "ATM"
        }
      },
      {
        "type": "node",
        "id": 7244168643,
        "lat": 17.4984836,
        "lon": 78.4148451,
        "tags": {
          "name": "Ratnadeep",
          "shop": "supermarket"
        }
      },
      {
        "type": "node",
        "id": 7244168648,
        "lat": 17.5004842,
        "lon": 78.41607,
        "tags": {
          "amenity": "fast_food"
        }
      },
      {
        "type": "node",
        "id": 7244168658,
        "lat": 17.501953,
        "lon": 78.4188024,
        "tags": {
          "amenity": "pharmacy",
          "dispensing": "yes",
          "healthcare": "pharmacy"
        }
      },
      {
        "type": "node",
        "id": 7244168659,
        "lat": 17.5018535,
        "lon": 78.4186119,
        "tags": {
          "amenity": "fast_food"
        }
      },
      {
        "type": "node",
        "id": 7244184393,
        "lat": 17.4981041,
        "lon": 78.409625,
        "tags": {
          "addr:city": "hyderabad",
          "addr:postcode": "500072",
          "addr:street": "Jagathgiri Gutta Road",
          "air_conditioning": "yes",
          "check_date": "2024-03-16",
          "name": "Heritage Fresh",
          "opening_hours": "Mo-Su 10:00-22:00",
          "payment:cash": "yes",
          "payment:credit_cards": "yes",
          "payment:debit_cards": "yes",
          "payment:mastercard": "yes",
          "payment:visa": "yes",
          "shop": "supermarket"
        }
      },
      {
        "type": "node",
        "id": 7244184394,
        "lat": 17.4980928,
        "lon": 78.4094268,
        "tags": {
          "amenity": "fast_food",
          "check_date": "2024-03-16"
        }
      },
      {
        "type": "node",
        "id": 7246509983,
        "lat": 17.4913568,
        "lon": 78.4072751,
        "tags": {
          "amenity": "restaurant",
          "name": "guma gumalu"
        }
      },
      {
        "type": "node",
        "id": 7246516887,
        "lat": 17.4996381,
        "lon": 78.4159707,
        "tags": {
          "amenity": "pharmacy",
          "brand": "Apollo Pharmacy",
          "brand:wikidata": "Q62562612",
          "dispensing": "yes",
          "healthcare": "pharmacy",
          "name": "Apollo Pharmacy"
        }
      },
      {
        "type": "node",
        "id": 7246516888,
        "lat": 17.5002322,
        "lon": 78.4158588,
        "tags": {
          "amenity": "fast_food"
        }
      },
      {
        "type": "node",
        "id": 7246516889,
        "lat": 17.5006736,
        "lon": 78.4159365,
        "tags": {
          "shop": "supermarket"
        }
      },
      {
        "type": "node",
        "id": 7246516890,
        "lat": 17.5008159,
        "lon": 78.4160561,
        "tags": {
          "amenity": "clinic",
          "healthcare": "clinic"
        }
      },
      {
        "type": "node",
        "id": 7246516891,
        "lat": 17.4926212,
        "lon": 78.4051466,
        "tags": {
          "amenity": "restaurant",
          "name": "swagath grand"
        }
      },
      {
        "type": "node",
        "id": 7246516893,
        "lat": 17.4941766,
        "lon": 78.4048998,
        "tags": {
          "amenity": "restaurant",
          "name": "Kritunga"
        }
      },
      {
        "type": "node",
        "id": 7796316995,
        "lat": 17.4999606,
        "lon": 78.40899,
        "tags": {
          "amenity": "atm",
          "cash_in": "yes",
          "check_date": "2024-03-16",
          "currency:INR": "yes",
          "network": "HDFC",
          "operator": "HDFC ATM"
        }
      },
      {
        "type": "node",
        "id": 7796316997,
        "lat": 17.4998649,
        "lon": 78.4089739,
        "tags": {
          "addr:city": "hyderabad",
          "addr:postcode": "500072",
          "addr:street": "gajularamaram road",
          "amenity": "clinic",
          "check_date": "2024-03-16",
          "healthcare": "clinic",
          "healthcare:speciality": "general;clinic",
          "name": "Peoples clinic",
          "opening_hours": "Mo-Sa 09:00-21:00"
        }
      },
      {
        "type": "node",
        "id": 7796335942,
        "lat": 17.4991927,
        "lon": 78.4081171,
        "tags": {
          "air_conditioning": "yes",
          "amenity": "restaurant",
          "bar": "yes",
          "check_date": "2024-03-16",
          "cuisine": "regional",
          "name": "Lake view bar & restaurant",
          "opening_hours": "Mo-Su 10:00-22:00"
        }
      },
      {
        "type": "node",
        "id": 9523929897,
        "lat": 17.5041532,
        "lon": 78.4157829,
        "tags": {
          "leisure": "park"
        }
      },
      {
        "type": "node",
        "id": 11773916555,
        "lat": 17.4921251,
        "lon": 78.4063628,
        "tags": {
          "check_date": "2024-03-30",
          "name": "CMR Family Mall",
          "shop": "mall"
        }
      },
      {
        "type": "node",
        "id": 11773916556,
        "lat": 17.4922715,
        "lon": 78.4059143,
        "tags": {
          "amenity": "cafe",
          "check_date": "2024-03-30",
          "name": "Hangout"
        }
      },
      {
        "type": "node",
        "id": 11773916559,
        "lat": 17.4925386,
        "lon": 78.4055862,
        "tags": {
          "amenity": "fast_food",
          "check_date": "2024-03-30"
        }
      },
      {
        "type": "node",
        "id": 12413100573,
        "lat": 17.4940501,
        "lon": 78.4045222,
        "tags": {
          "amenity": "restaurant",
          "check_date": "2024-12-11",
          "name": "Amogham"
        }
      },
      {
        "type": "node",
        "id": 12413100578,
        "lat": 17.4936849,
        "lon": 78.4047544,
        "tags": {
          "check_date": "2024-12-11",
          "name": "Ratndeep",
          "shop": "supermarket"
        }
      },
      {
        "type": "node",
        "id": 12413100579,
        "lat": 17.4935385,
        "lon": 78.4046767,
        "tags": {
          "amenity": "bank",
          "brand": "IDFC First Bank",
          "brand:wikidata": "Q22031467",
          "check_date": "2024-12-11",
          "name": "IDFC First Bank"
        }
      }
    ]
  },
  "pois_2_5km": {
    "version": 0.6,
    "generator": "Overpass API 0.7.62.8 e802775f",
    "osm3s": {
      "timestamp_osm_base": "2025-09-06T08:56:24Z",
      "copyright": "The data included in this document is from www.openstreetmap.org. The data is made available under ODbL."
    },
    "elements": [
      {
        "type": "node",
        "id": 1987954929,
        "lat": 17.4939602,
        "lon": 78.4008412,
        "tags": {
          "alt_name": "Kukapally Housing Board",
          "amenity": "bus_station",
          "bus": "yes",
          "check_date": "2024-03-16",
          "name": "KPHB",
          "old_name": "KPHB Bus Stop",
          "public_transport": "station"
        }
      },
      {
        "type": "node",
        "id": 2000761647,
        "lat": 17.4875682,
        "lon": 78.4101365,
        "tags": {
          "amenity": "fuel",
          "name": "Petrol Pump",
          "wheelchair": "yes"
        }
      },
      {
        "type": "node",
        "id": 2422988961,
        "lat": 17.4849303,
        "lon": 78.4117785,
        "tags": {
          "addr:city": "Hyderabad",
          "addr:city:ar": "\u062d\u064a\u062f\u0631 \u0622\u0628\u0627\u062f",
          "addr:city:ur": "\u062d\u06cc\u062f\u0631\u0622\u0628\u0627\u062f",
          "name": "Kukatpally",
          "name:ml": "\u0d15\u0d41\u0d15\u0d4d\u0d15\u0d1f\u0d4d\u0d1f\u0d4d\u0d2a\u0d33\u0d4d\u0d33\u0d3f",
          "name:te": "\u0c15\u0c42\u0c15\u0c4d\u0c15\u0c1f\u0c4d\u200c\u0c2a\u0c32\u0c4d\u0c32\u0c3f",
          "network": "Hyderabad Metro",
          "note": "Contributors are requested to not edit the \"network\" and the \"operator\" tags. (2023/11/08)",
          "operator": "Hyderabad Metro Rail Limited",
          "public_transport": "stop_position",
          "railway": "stop",
          "subway": "yes"
        }
      },
      {
        "type": "node",
        "id": 2579737598,
        "lat": 17.4899688,
        "lon": 78.3927279,
        "tags": {
          "amenity": "cinema",
          "brand": "Cin\u00e9polis",
          "brand:wikidata": "Q5686673",
          "check_date": "2025-07-30",
          "name": "Cinepolis"
        }
      },
      {
        "type": "node",
        "id": 3388977736,
        "lat": 17.4873033,
        "lon": 78.4137696,
        "tags": {
          "amenity": "fuel",
          "name": "Casey's General Store",
          "wheelchair": "yes"
        }
      },
      {
        "type": "node",
        "id": 3390849578,
        "lat": 17.4991118,
        "lon": 78.4135636,
        "tags": {
          "amenity": "fuel",
          "name": "Bharat Petroleum"
        }
      },
      {
        "type": "node",
        "id": 4343145632,
        "lat": 17.4986724,
        "lon": 78.3888678,
        "tags": {
          "addr:city": "Hyderabad",
          "name": "JNTU College",
          "note": "Contributors are requested to not edit the \"network\" and the \"operator\" tags. (2023/11/08)",
          "public_transport": "stop_position",
          "railway": "stop",
          "subway": "yes"
        }
      },
      {
        "type": "node",
        "id": 7040356387,
        "lat": 17.4938191,
        "lon": 78.4017765,
        "tags": {
          "addr:city:ar": "\u062d\u064a\u062f\u0631 \u0622\u0628\u0627\u062f",
          "addr:city:ur": "\u062d\u06cc\u062f\u0631\u0622\u0628\u0627\u062f",
          "name": "KPHB Colony",
          "public_transport": "stop_position",
          "railway": "stop",
          "subway": "yes"
        }
      },
      {
        "type": "node",
        "id": 7040366286,
        "lat": 17.4850883,
        "lon": 78.411638,
        "tags": {
          "internet_access": "no",
          "name": "Kukatpally",
          "name:ml": "\u0d15\u0d41\u0d15\u0d4d\u0d15\u0d1f\u0d4d\u0d1f\u0d4d\u0d2a\u0d33\u0d4d\u0d33\u0d3f",
          "name:te": "\u0c15\u0c42\u0c15\u0c4d\u0c15\u0c1f\u0c4d\u200c\u0c2a\u0c32\u0c4d\u0c32\u0c3f",
          "network": "Hyderabad Metro",
          "note": "Contributors are requested to not edit the \"network\" and the \"operator\" tags. (2023/11/08)",
          "operator": "Hyderabad Metro Rail Limited",
          "public_transport": "station",
          "railway": "station",
          "station": "subway",
          "subway": "yes",
          "website": "https://hmrl.co.in",
          "wheelchair": "yes",
          "wikidata": "Q83283577"
        }
      },
      {
        "type": "node",
        "id": 7244127019,
        "lat": 17.4947627,
        "lon": 78.4007463,
        "tags": {
          "amenity": "theatre",
          "check_date": "2024-03-16",
          "name": "vishwanadh"
        }
      },
      {
        "type": "node",
        "id": 9903987805,
        "lat": 17.4982754,
        "lon": 78.388678,
        "tags": {
          "addr:city": "Hyderabad",
          "addr:postcode": "500085",
          "addr:street": "Nizampet - Miyapur Road Mumbai Highway",
          "amenity": "fuel",
          "brand": "Indian Oil",
          "brand:wikidata": "Q1289348",
          "check_date": "2024-03-16",
          "name": "Indian Oil"
        }
      },
      {
        "type": "node",
        "id": 9918495800,
        "lat": 17.5115291,
        "lon": 78.4248264,
        "tags": {
          "addr:city": "Hyderabad",
          "addr:postcode": "500055",
          "addr:street": "srinivas nagar",
          "amenity": "bus_station",
          "bus": "yes",
          "name": "Auto Stand",
          "public_transport": "station"
        }
      },
      {
        "type": "node",
        "id": 10789525446,
        "lat": 17.4969319,
        "lon": 78.3969152,
        "tags": {
          "air_conditioning": "yes",
          "amenity": "cinema",
          "check_date": "2024-03-16",
          "name": "Arjun Theatre"
        }
      },
      {
        "type": "node",
        "id": 10789525447,
        "lat": 17.4966507,
        "lon": 78.3969378,
        "tags": {
          "amenity": "cinema",
          "check_date": "2024-03-16",
          "name": "Shiva Parvathi Theatre"
        }
      },
      {
        "type": "node",
        "id": 10789525448,
        "lat": 17.4969894,
        "lon": 78.3964773,
        "tags": {
          "addr:neighbourhood": "Kukatpally",
          "air_conditioning": "yes",
          "amenity": "cinema",
          "check_date": "2024-03-16",
          "name": "Vishwanath Theatre"
        }
      },
      {
        "type": "node",
        "id": 11736385868,
        "lat": 17.4957767,
        "lon": 78.3948668,
        "tags": {
          "amenity": "bus_station",
          "bus": "yes",
          "check_date": "2025-08-25",
          "check_date:wheelchair": "2025-08-25",
          "name": "Jntu Bus Station",
          "public_transport": "station",
          "wheelchair": "no"
        }
      },
      {
        "type": "node",
        "id": 11736402177,
        "lat": 17.4957261,
        "lon": 78.3947083,
        "tags": {
          "bus": "yes",
          "name": "Jntuh",
          "public_transport": "stop_position"
        }
      },
      {
        "type": "node",
        "id": 11736402178,
        "lat": 17.4955883,
        "lon": 78.3946563,
        "tags": {
          "bus": "yes",
          "name": "Jntuh",
          "public_transport": "stop_position"
        }
      },
      {
        "type": "node",
        "id": 11737669093,
        "lat": 17.498637,
        "lon": 78.3888634,
        "tags": {
          "addr:city": "Hyderabad",
          "addr:city:ar": "\u062d\u064a\u062f\u0631 \u0622\u0628\u0627\u062f",
          "addr:city:ur": "\u062d\u06cc\u062f\u0631\u0622\u0628\u0627\u062f",
          "name": "JNTU College",
          "name:ml": "\u0d1c\u0d46 \u0d0e\u0d7b \u0d1f\u0d3f \u0d2f\u0d41 \u0d15\u0d4b\u0d33\u0d47\u0d1c\u0d4d",
          "name:te": "\u0c1c\u0c46.\u0c0e\u0c28\u0c4d.\u0c1f\u0c3f.\u0c2f\u0c42 \u0c15\u0c3e\u0c32\u0c47\u0c1c\u0c3f",
          "network": "Hyderabad Metro",
          "note": "Contributors are requested to not edit the \"network\" and the \"operator\" tags. (2023/11/08)",
          "operator": "Hyderabad Metro Rail Limited",
          "public_transport": "stop_position",
          "railway": "stop",
          "subway": "yes"
        }
      },
      {
        "type": "node",
        "id": 11737669094,
        "lat": 17.4986555,
        "lon": 78.3888661,
        "tags": {
          "name": "JNTU College",
          "name:ml": "\u0d1c\u0d46 \u0d0e\u0d7b \u0d1f\u0d3f \u0d2f\u0d41 \u0d15\u0d4b\u0d33\u0d47\u0d1c\u0d4d",
          "name:te": "\u0c1c\u0c46.\u0c0e\u0c28\u0c4d.\u0c1f\u0c3f.\u0c2f\u0c42 \u0c15\u0c3e\u0c32\u0c47\u0c1c\u0c3f",
          "network": "Hyderabad Metro",
          "operator": "Hyderabad Metro Rail Limited",
          "public_transport": "station",
          "railway": "station",
          "station": "subway",
          "subway": "yes",
          "wikidata": "Q84250421"
        }
      },
      {
        "type": "node",
        "id": 11737669095,
        "lat": 17.4937841,
        "lon": 78.4017525,
        "tags": {
          "addr:city": "Hyderabad",
          "addr:city:ar": "\u062d\u064a\u062f\u0631 \u0622\u0628\u0627\u062f",
          "addr:city:ur": "\u062d\u06cc\u062f\u0631\u0622\u0628\u0627\u062f",
          "name": "KPHB Colony",
          "name:ml": "\u0d15\u0d46 \u0d2a\u0d3f \u0d0e\u0d1a\u0d4d\u0d1a\u0d4d \u0d2c\u0d3f \u0d15\u0d4b\u0d33\u0d28\u0d3f",
          "name:te": "\u0c15\u0c46.\u0c2a\u0c3f.\u0c39\u0c46\u0c1a\u0c4d.\u0c2c\u0c3f \u0c15\u0c3e\u0c32\u0c28\u0c40",
          "network": "Hyderabad Metro",
          "note": "Contributors are requested to not edit the \"network\" and the \"operator\" tags. (2023/11/08)",
          "operator": "Hyderabad Metro Rail Limited",
          "public_transport": "stop_position",
          "public_transport:version": "2",
          "railway": "stop",
          "subway": "yes"
        }
      },
      {
        "type": "node",
        "id": 11737669096,
        "lat": 17.4938025,
        "lon": 78.4017651,
        "tags": {
          "name": "KPHB Colony",
          "name:ml": "\u0d15\u0d46 \u0d2a\u0d3f \u0d0e\u0d1a\u0d4d\u0d1a\u0d4d \u0d2c\u0d3f \u0d15\u0d4b\u0d33\u0d28\u0d3f",
          "name:te": "\u0c15\u0c46.\u0c2a\u0c3f.\u0c39\u0c46\u0c1a\u0c4d.\u0c2c\u0c3f \u0c15\u0c3e\u0c32\u0c28\u0c40",
          "network": "Hyderabad Metro",
          "note": "Contributors are requested to not edit the \"network\" and the \"operator\" tags. (2023/11/08)",
          "operator": "Hyderabad Metro Rail Limited",
          "public_transport": "station",
          "railway": "station",
          "station": "subway",
          "subway": "yes",
          "wikidata": "Q85773083"
        }
      },
      {
        "type": "node",
        "id": 11738179205,
        "lat": 17.485523,
        "lon": 78.411303,
        "tags": {
          "addr:city": "Hyderabad",
          "addr:city:ar": "\u062d\u064a\u062f\u0631 \u0622\u0628\u0627\u062f",
          "addr:city:ur": "\u062d\u06cc\u062f\u0631\u0622\u0628\u0627\u062f",
          "name": "Kukatpally",
          "name:ml": "\u0d15\u0d41\u0d15\u0d4d\u0d15\u0d1f\u0d4d\u0d1f\u0d4d\u0d2a\u0d33\u0d4d\u0d33\u0d3f",
          "name:te": "\u0c15\u0c42\u0c15\u0c4d\u0c15\u0c1f\u0c4d\u200c\u0c2a\u0c32\u0c4d\u0c32\u0c3f",
          "network": "Hyderabad Metro",
          "note": "Contributors are requested to not edit the \"network\" and the \"operator\" tags. (2023/11/08)",
          "operator": "Hyderabad Metro Rail Limited",
          "public_transport": "stop_position",
          "railway": "stop",
          "subway": "yes"
        }
      },
      {
        "type": "node",
        "id": 11770993375,
        "lat": 17.4790052,
        "lon": 78.4182078,
        "tags": {
          "amenity": "fuel",
          "brand": "Hindustan Petroleum",
          "brand:wikidata": "Q1619375",
          "check_date": "2024-03-29",
          "name": "HP",
          "official_name": "Hindustan Petroleum"
        }
      },
      {
        "type": "node",
        "id": 11770993377,
        "lat": 17.4792324,
        "lon": 78.4175627,
        "tags": {
          "amenity": "cinema",
          "brand": "INOX Leisure",
          "brand:wikidata": "Q5972349",
          "check_date": "2024-03-29",
          "name": "INOX Leisure",
          "short_name": "INOX"
        }
      },
      {
        "type": "node",
        "id": 12042878042,
        "lat": 17.519763,
        "lon": 78.417629,
        "tags": {
          "amenity": "fuel",
          "brand": "Bharat Petroleum",
          "brand:wikidata": "Q854826",
          "name": "Bharat Petroleum"
        }
      },
      {
        "type": "node",
        "id": 12596336335,
        "lat": 17.4852053,
        "lon": 78.4115793,
        "tags": {
          "name": "Kukatpally Metro",
          "public_transport": "station",
          "railway": "station",
          "station": "subway",
          "subway": "yes"
        }
      },
      {
        "type": "node",
        "id": 13073959951,
        "lat": 17.4964949,
        "lon": 78.3963715,
        "tags": {
          "amenity": "fuel",
          "brand": "Bharat Petroleum",
          "brand:wikidata": "Q854826",
          "name": "Bharat Petroleum"
        }
      }
    ]
  }
}