{
  "pois_1km": {
    "version": 0.6,
    "generator": "Overpass API 0.7.62.8 e802775f",
    "osm3s": {
      "timestamp_osm_base": "2025-09-06T08:55:22Z",
      "copyright": "The data included in this document is from www.openstreetmap.org. The data is made available under ODbL."
    },
    "elements": [
      {
        "type": "node",
        "id": 349267517,
        "lat": 17.4406857,
        "lon": 78.3916647,
        "tags": {
          "addr:district": "Hyderabad",
          "addr:full": "1-98/90/26, Near IOC Petrol Bunk, Hi-Tech City Main Road, Madhapur",
          "addr:postcode": "500033",
          "addr:state": "Telangana",
          "amenity": "hospital",
          "healthcare": "hospital",
          "name": "Vikram Hospitals",
          "source": "OpenGovernmentData"
        }
      },
      {
        "type": "node",
        "id": 349267744,
        "lat": 17.4405212,
        "lon": 78.3916995,
        "tags": {
          "amenity": "pharmacy",
          "healthcare": "pharmacy"
        }
      },
      {
        "type": "node",
        "id": 349267752,
        "lat": 17.4411195,
        "lon": 78.3922165,
        "tags": {
          "amenity": "pharmacy",
          "brand": "Apollo Pharmacy",
          "brand:wikidata": "Q62562612",
          "healthcare": "pharmacy",
          "name": "Apollo Pharmacy"
        }
      },
      {
        "type": "node",
        "id": 349267763,
        "lat": 17.4407486,
        "lon": 78.39365,
        "tags": {
          "amenity": "bank",
          "atm": "yes",
          "brand": "Syndicate Bank",
          "brand:wikidata": "Q2004088",
          "name": "Syndicate Bank",
          "name:en": "Syndicate Bank",
          "website": "https://www.syndicatebank.in"
        }
      },
      {
        "type": "node",
        "id": 349270023,
        "lat": 17.4444337,
        "lon": 78.3860746,
        "tags": {
          "addr:district": "Hyderabad",
          "addr:full": "Plot No 8 & 9, Arunodaya Cooperative Housing Society, Vittal Rao nagar, Madhapur",
          "addr:postcode": "500081",
          "addr:state": "Telangana",
          "amenity": "hospital",
          "healthcare": "hospital",
          "name": "Image Hospitals",
          "name:te": "\u0c07\u0c2e\u0c47\u0c1c\u0c4d \u0c39\u0c3e\u0c38\u0c4d\u0c2a\u0c3f\u0c1f\u0c32\u0c4d\u0c38\u0c4d",
          "source": "OpenGovernmentData"
        }
      },
      {
        "type": "node",
        "id": 349270034,
        "lat": 17.4450343,
        "lon": 78.3859699,
        "tags": {
          "amenity": "restaurant",
          "brand": "Olive Garden",
          "brand:wikidata": "Q3045312",
          "cuisine": "italian",
          "name": "Olive Garden",
          "name:te": "\u0c06\u0c32\u0c3f\u0c35\u0c4d \u0c17\u0c3e\u0c30\u0c4d\u0c21\u0c46\u0c28\u0c4d"
        }
      },
      {
        "type": "node",
        "id": 355649675,
        "lat": 17.4406888,
        "lon": 78.3923457,
        "tags": {
          "amenity": "atm",
          "brand": "ICICI Bank",
          "brand:wikidata": "Q1653258",
          "operator": "ICICI Bank",
          "operator:wikidata": "Q1653258"
        }
      },
      {
        "type": "node",
        "id": 355649678,
        "lat": 17.4407198,
        "lon": 78.3924692,
        "tags": {
          "amenity": "bank",
          "atm": "yes",
          "branch": "Madhapur",
          "brand": "Andhra Bank",
          "brand:wikidata": "Q2003476",
          "brand:wikipedia": "en:Andhra Bank",
          "name": "Andhra Bank",
          "name:en": "Andhra Bank",
          "operator": "Andhra Bank",
          "website": "https://www.andhrabank.in"
        }
      },
      {
        "type": "node",
        "id": 512993702,
        "lat": 17.4341435,
        "lon": 78.3864204,
        "tags": {
          "name": "Hypercity",
          "shop": "supermarket",
          "wheelchair": "yes"
        }
      },
      {
        "type": "node",
        "id": 654882404,
        "lat": 17.4346181,
        "lon": 78.3864731,
        "tags": {
          "amenity": "fast_food",
          "brand": "McDonald's",
          "brand:pa": "\u0a2e\u0a48\u0a15\u0a21\u0a4b\u0a28\u0a32\u0a21\u2019\u0a1c\u0a3c",
          "brand:ur": "\u0645\u06a9\u0688\u0648\u0646\u0644\u0688\u0632",
          "brand:wikidata": "Q38076",
          "brand:wikipedia": "en:McDonald's",
          "brand:wikipedia:pa": "\u0a2e\u0a48\u0a15\u0a21\u0a4b\u0a28\u0a32\u0a21\u2019\u0a1c\u0a3c",
          "brand:wikipedia:ur": "\u0645\u06a9\u0688\u0648\u0646\u0644\u0688\u0632",
          "cuisine": "burger",
          "name": "McDonald's",
          "name:pa": "\u0a2e\u0a48\u0a15\u0a21\u0a4b\u0a28\u0a32\u0a21\u2019\u0a1c\u0a3c",
          "name:ur": "\u0645\u06a9\u0688\u0648\u0646\u0644\u0688\u0632",
          "takeaway": "yes"
        }
      },
      {
        "type": "node",
        "id": 660914316,
        "lat": 17.4314951,
        "lon": 78.3887075,
        "tags": {
          "amenity": "restaurant",
          "name": "Something Fishy"
        }
      },
      {
        "type": "node",
        "id": 708303182,
        "lat": 17.4410683,
        "lon": 78.391636,
        "tags": {
          "amenity": "fast_food",
          "name": "Hi-Tech Bawarchi"
        }
      },
      {
        "type": "node",
        "id": 708303186,
        "lat": 17.4411848,
        "lon": 78.3917482,
        "tags": {
          "amenity": "pharmacy",
          "dispensing": "no",
          "healthcare": "pharmacy"
        }
      },
      {
        "type": "node",
        "id": 1041920536,
        "lat": 17.4443518,
        "lon": 78.3803001,
        "tags": {
          "amenity": "atm"
        }
      },
      {
        "type": "node",
        "id": 1041920541,
        "lat": 17.4442239,
        "lon": 78.3804557,
        "tags": {
          "amenity": "fast_food",
          "name": "Food Republic"
        }
      },
      {
        "type": "node",
        "id": 1042229873,
        "lat": 17.4460891,
        "lon": 78.3847015,
        "tags": {
          "name": "Ratnadeep Supermarket",
          "name:te": "\u0c30\u0c24\u0c4d\u0c28\u0c26\u0c40\u0c2a\u0c4d \u0c38\u0c42\u0c2a\u0c30\u0c4d \u0c2e\u0c3e\u0c30\u0c4d\u0c15\u0c46\u0c1f\u0c4d",
          "shop": "supermarket"
        }
      },
      {
        "type": "node",
        "id": 1275490936,
        "lat": 17.4404184,
        "lon": 78.3935111,
        "tags": {
          "amenity": "restaurant",
          "cuisine": "indian",
          "name": "Gingercourt"
        }
      },
      {
        "type": "node",
        "id": 1275490943,
        "lat": 17.4453139,
        "lon": 78.3863774,
        "tags": {
          "amenity": "restaurant",
          "brand": "Pizza Hut",
          "brand:wikidata": "Q191615",
          "cuisine": "pizza",
          "name": "Pizza Hut",
          "name:te": "\u0c2a\u0c3f\u0c1c\u0c4d\u0c1c\u0c3e \u0c39\u0c1f\u0c4d"
        }
      },
      {
        "type": "node",
        "id": 1275490956,
        "lat": 17.4460255,
        "lon": 78.3861105,
        "tags": {
          "amenity": "cafe",
          "brand": "Cafe Coffee Day",
          "brand:wikidata": "Q5017235",
          "cuisine": "coffee_shop",
          "name": "Cafe Coffee Day",
          "takeaway": "yes"
        }
      },
      {
        "type": "node",
        "id": 1344110839,
        "lat": 17.4412248,
        "lon": 78.381208,
        "tags": {
          "amenity": "cafe",
          "brand": "Cafe Coffee Day",
          "brand:wikidata": "Q5017235",
          "cuisine": "coffee_shop",
          "name": "Cafe Coffee Day",
          "takeaway": "yes"
        }
      },
      {
        "type": "node",
        "id": 1365115089,
        "lat": 17.439191,
        "lon": 78.3959248,
        "tags": {
          "amenity": "bank",
          "atm": "yes",
          "brand": "ICICI Bank",
          "brand:wikidata": "Q1653258",
          "name": "ICICI Bank",
          "name:en": "ICICI Bank",
          "short_name": "ICICI",
          "website": "https://www.icicibank.com"
        }
      },
      {
        "type": "node",
        "id": 1365115104,
        "lat": 17.4391541,
        "lon": 78.3958518,
        "tags": {
          "amenity": "bank",
          "name": "Margadarsi Chit Fund"
        }
      },
      {
        "type": "node",
        "id": 1641547337,
        "lat": 17.4424887,
        "lon": 78.3852422,
        "tags": {
          "amenity": "restaurant",
          "name": "Big Dosa",
          "name:te": "\u0c2c\u0c3f\u0c17\u0c4d \u0c26\u0c4b\u0c38"
        }
      },
      {
        "type": "node",
        "id": 1650424028,
        "lat": 17.4402073,
        "lon": 78.3933547,
        "tags": {
          "amenity": "restaurant",
          "name": "Hideout"
        }
      },
      {
        "type": "node",
        "id": 2134522890,
        "lat": 17.4411739,
        "lon": 78.3912705,
        "tags": {
          "amenity": "fast_food",
          "cuisine": "sandwich",
          "name": "Chick King"
        }
      },
      {
        "type": "node",
        "id": 2134523285,
        "lat": 17.4412924,
        "lon": 78.3913618,
        "tags": {
          "amenity": "restaurant",
          "cuisine": "sushi",
          "name": "Dil Punjabi"
        }
      },
      {
        "type": "node",
        "id": 2134523286,
        "lat": 17.4412938,
        "lon": 78.3913136,
        "tags": {
          "amenity": "restaurant",
          "diet:vegetarian": "only",
          "name": "Udupi Vihar"
        }
      },
      {
        "type": "node",
        "id": 2458203697,
        "lat": 17.4406066,
        "lon": 78.3942786,
        "tags": {
          "addr:postcode": "500081",
          "addr:street": "Sri Rama Colony",
          "amenity": "bank",
          "atm": "yes",
          "brand": "South Indian Bank",
          "brand:wikidata": "Q2044973",
          "name": "South Indian Bank"
        }
      },
      {
        "type": "node",
        "id": 3008092655,
        "lat": 17.4412679,
        "lon": 78.3825065,
        "tags": {
          "amenity": "restaurant",
          "name": "Eat Central"
        }
      },
      {
        "type": "node",
        "id": 4557677889,
        "lat": 17.4345135,
        "lon": 78.3888073,
        "tags": {
          "amenity": "atm",
          "highway": "bus_stop",
          "name": "Hitch city",
          "operator": "Ramesh",
          "source": "Maxar"
        }
      },
      {
        "type": "node",
        "id": 5459525615,
        "lat": 17.441612,
        "lon": 78.3914323,
        "tags": {
          "amenity": "restaurant",
          "name": "Kafe Tirupati"
        }
      },
      {
        "type": "node",
        "id": 5467328880,
        "lat": 17.4469404,
        "lon": 78.3917078,
        "tags": {
          "amenity": "restaurant",
          "name": "Kalinga's Kitchen"
        }
      },
      {
        "type": "node",
        "id": 5469218652,
        "lat": 17.4418611,
        "lon": 78.3914189,
        "tags": {
          "amenity": "bank",
          "brand": "State Bank of India",
          "brand:wikidata": "Q1340361",
          "name": "State Bank of India",
          "short_name": "SBI"
        }
      },
      {
        "type": "node",
        "id": 5482822501,
        "lat": 17.4433326,
        "lon": 78.3916667,
        "tags": {
          "amenity": "restaurant",
          "name": "Annapurna"
        }
      },
      {
        "type": "node",
        "id": 5515637837,
        "lat": 17.4414532,
        "lon": 78.3807897,
        "tags": {
          "amenity": "cafe",
          "brand": "Starbucks",
          "brand:pa": "\u0a38\u0a1f\u0a3e\u0a30\u0a2c\u0a15\u0a38",
          "brand:ur": "\u0627\u0633\u0679\u0627\u0631\u0628\u06a9\u0633",
          "brand:wikidata": "Q37158",
          "brand:wikipedia": "en:Starbucks",
          "cuisine": "coffee_shop",
          "name": "Starbucks",
          "name:pa": "\u0a38\u0a1f\u0a3e\u0a30\u0a2c\u0a15\u0a38",
          "name:ur": "\u0627\u0633\u0679\u0627\u0631\u0628\u06a9\u0633",
          "official_name": "Starbucks Coffee",
          "official_name:pa": "\u0a38\u0a1f\u0a3e\u0a30\u0a2c\u0a15\u0a38 \u0a15\u0a4c\u0a2b\u0a40",
          "official_name:ur": "\u0627\u0633\u0679\u0627\u0631\u0628\u06a9\u0633 \u06a9\u0627\u0641\u06cc",
          "takeaway": "yes"
        }
      },
      {
        "type": "node",
        "id": 5515637838,
        "lat": 17.4413058,
        "lon": 78.3808629,
        "tags": {
          "amenity": "fast_food",
          "brand": "Domino's",
          "brand:ks": "\u0688\u0648\u0645\u06cc\u0646\u0648\u0632",
          "brand:pa": "\u0a21\u0a4b\u0a2e\u0a40\u0a28\u0a4b\u0a1c\u0a3c",
          "brand:ur": "\u0688\u0648\u0645\u06cc\u0646\u0648\u0632",
          "brand:wikidata": "Q839466",
          "brand:wikipedia": "en:Domino's Pizza",
          "cuisine": "pizza",
          "name": "Domino's",
          "name:ks": "\u0688\u0648\u0645\u06cc\u0646\u0648\u0632",
          "name:pa": "\u0a21\u0a4b\u0a2e\u0a40\u0a28\u0a4b\u0a1c\u0a3c",
          "name:ur": "\u0688\u0648\u0645\u06cc\u0646\u0648\u0632",
          "takeaway": "yes"
        }
      },
      {
        "type": "node",
        "id": 5515637839,
        "lat": 17.4414144,
        "lon": 78.3812898,
        "tags": {
          "amenity": "restaurant",
          "name": "Melting pot"
        }
      },
      {
        "type": "node",
        "id": 5515637842,
        "lat": 17.4412709,
        "lon": 78.3813752,
        "tags": {
          "alt_name": "Dunkin' Donuts",
          "amenity": "fast_food",
          "brand": "Dunkin'",
          "brand:wikidata": "Q847743",
          "cuisine": "donut;coffee_shop",
          "name": "Dunkin'",
          "takeaway": "yes"
        }
      },
      {
        "type": "node",
        "id": 5515637843,
        "lat": 17.4414338,
        "lon": 78.381119,
        "tags": {
          "amenity": "bank",
          "brand": "State Bank of India",
          "brand:wikidata": "Q1340361",
          "name": "State Bank of India",
          "short_name": "SBI"
        }
      },
      {
        "type": "node",
        "id": 5515637844,
        "lat": 17.441554,
        "lon": 78.3807288,
        "tags": {
          "amenity": "atm",
          "brand": "Citibank",
          "brand:wikidata": "Q857063",
          "operator": "Citibank",
          "operator:wikidata": "Q857063"
        }
      },
      {
        "type": "node",
        "id": 5682100369,
        "lat": 17.4416015,
        "lon": 78.384644,
        "tags": {
          "addr:city": "Hyderabad",
          "addr:postcode": "500081",
          "addr:street": "image hospital lane",
          "addr:suburb": "Madhapur",
          "brand": "Reliance Fresh",
          "brand:wikidata": "Q7311014",
          "brand:wikipedia": "en:Reliance Fresh",
          "name": "Reliance Fresh",
          "opening_hours": "Mo-Su 07:00-22:00",
          "payment:cash": "yes",
          "payment:coins": "yes",
          "payment:maestro": "yes",
          "payment:visa": "yes",
          "shop": "supermarket"
        }
      },
      {
        "type": "node",
        "id": 5692072169,
        "lat": 17.446934,
        "lon": 78.3918229,
        "tags": {
          "amenity": "restaurant",
          "name": "Sampradhaya curry point"
        }
      },
      {
        "type": "node",
        "id": 5793698165,
        "lat": 17.4455723,
        "lon": 78.3925382,
        "tags": {
          "amenity": "restaurant",
          "cuisine": "indian",
          "name": "Golconda Chef"
        }
      },
      {
        "type": "node",
        "id": 5931166341,
        "lat": 17.4475331,
        "lon": 78.3918768,
        "tags": {
          "amenity": "restaurant",
          "name": "Charcoal Bbq"
        }
      },
      {
        "type": "node",
        "id": 5942734591,
        "lat": 17.4461557,
        "lon": 78.384665,
        "tags": {
          "amenity": "cafe",
          "name": "Minevera Coffee Shop"
        }
      },
      {
        "type": "node",
        "id": 5942781129,
        "lat": 17.4464954,
        "lon": 78.3843723,
        "tags": {
          "addr:postcode": "500081",
          "amenity": "restaurant",
          "cuisine": "indian;asian",
          "name": "Flechazo"
        }
      },
      {
        "type": "node",
        "id": 5942783241,
        "lat": 17.4461031,
        "lon": 78.3856195,
        "tags": {
          "amenity": "bank",
          "name": "Lakshmi Vilas Bank",
          "opening_hours": "24/7",
          "operator": "Lakshmi Vilas Bank"
        }
      },
      {
        "type": "node",
        "id": 5942783243,
        "lat": 17.4456498,
        "lon": 78.3859665,
        "tags": {
          "amenity": "restaurant",
          "name": "Appetito"
        }
      },
      {
        "type": "node",
        "id": 5942783244,
        "lat": 17.4455675,
        "lon": 78.3861053,
        "tags": {
          "amenity": "bank",
          "name": "Oriental Bank Of Commerce"
        }
      },
      {
        "type": "node",
        "id": 5942783245,
        "lat": 17.4456195,
        "lon": 78.3861795,
        "tags": {
          "amenity": "restaurant",
          "name": "Abhiruchi Restaurant"
        }
      },
      {
        "type": "node",
        "id": 5942783247,
        "lat": 17.4460317,
        "lon": 78.3861787,
        "tags": {
          "amenity": "bank",
          "brand": "Bank of Baroda",
          "brand:wikidata": "Q2003797",
          "name": "Bank of Baroda"
        }
      },
      {
        "type": "node",
        "id": 5942847663,
        "lat": 17.4454605,
        "lon": 78.3862392,
        "tags": {
          "amenity": "restaurant",
          "changing_table": "no",
          "cuisine": "chicken;chinese;fish;indian;regional",
          "diet:vegetarian": "yes",
          "internet_access": "no",
          "level": "1",
          "name": "Eat Country Style",
          "payment:cash": "yes",
          "payment:maestro": "yes",
          "payment:notes": "yes",
          "payment:visa": "yes",
          "phone": "+91 40 2312 2222",
          "stars": "1",
          "takeaway": "yes",
          "toilets": "yes",
          "toilets:access": "customers",
          "toilets:wheelchair": "no"
        }
      },
      {
        "type": "node",
        "id": 5942847665,
        "lat": 17.4455953,
        "lon": 78.3864912,
        "tags": {
          "amenity": "bank",
          "brand": "Federal Bank",
          "brand:wikidata": "Q2044983",
          "name": "Federal Bank"
        }
      },
      {
        "type": "node",
        "id": 5942857802,
        "lat": 17.4455872,
        "lon": 78.3861359,
        "tags": {
          "amenity": "atm",
          "operator": "Oriental Bank Of Commerce"
        }
      },
      {
        "type": "node",
        "id": 5942878722,
        "lat": 17.4456246,
        "lon": 78.3864351,
        "tags": {
          "amenity": "atm",
          "brand": "Federal Bank",
          "brand:wikidata": "Q2044983",
          "operator": "Federal Bank",
          "operator:wikidata": "Q2044983"
        }
      },
      {
        "type": "node",
        "id": 5957452586,
        "lat": 17.444902,
        "lon": 78.3866088,
        "tags": {
          "amenity": "restaurant",
          "name": "Pan Shop"
        }
      },
      {
        "type": "node",
        "id": 5957506785,
        "lat": 17.4448874,
        "lon": 78.3865836,
        "tags": {
          "amenity": "fast_food",
          "name": "Om Sai Ram Nice Vada Pav"
        }
      },
      {
        "type": "node",
        "id": 5957568091,
        "lat": 17.445108,
        "lon": 78.3856663,
        "tags": {
          "name": "Heritage Fresh Store",
          "shop": "supermarket",
          "website": "http://www.heritagefresh.in/"
        }
      },
      {
        "type": "node",
        "id": 5965559685,
        "lat": 17.4442825,
        "lon": 78.3879877,
        "tags": {
          "amenity": "restaurant",
          "cuisine": "indian",
          "name": "Soma's Kitchen"
        }
      },
      {
        "type": "node",
        "id": 5965559686,
        "lat": 17.4441489,
        "lon": 78.3880973,
        "tags": {
          "amenity": "restaurant",
          "cuisine": "chinese;indian",
          "name": "Aadi Raghavendra Udupi Veg"
        }
      },
      {
        "type": "node",
        "id": 5970759667,
        "lat": 17.4466084,
        "lon": 78.38426,
        "tags": {
          "addr:postcode": "500081",
          "amenity": "restaurant",
          "name": "Rayalaseema Ruchulu"
        }
      },
      {
        "type": "node",
        "id": 6009842126,
        "lat": 17.4448983,
        "lon": 78.3873777,
        "tags": {
          "amenity": "restaurant",
          "cuisine": "asian;chicken;indian",
          "level": "0",
          "name": "Spicy Hub",
          "takeaway": "yes",
          "toilets": "yes",
          "toilets:access": "yes",
          "wheelchair": "limited"
        }
      },
      {
        "type": "node",
        "id": 6085373383,
        "lat": 17.4442099,
        "lon": 78.3845103,
        "tags": {
          "amenity": "bank",
          "atm": "yes",
          "brand": "Indian Bank",
          "brand:wikidata": "Q2003789",
          "level": "0",
          "name": "Indian Bank",
          "wheelchair": "limited"
        }
      },
      {
        "type": "node",
        "id": 6191414036,
        "lat": 17.4441572,
        "lon": 78.3867968,
        "tags": {
          "amenity": "atm",
          "brand": "IDBI Bank",
          "brand:wikidata": "Q3633485",
          "name": "IDBI Bank",
          "opening_hours": "24/7",
          "operator": "IDBI Bank",
          "operator:wikidata": "Q3633485"
        }
      },
      {
        "type": "node",
        "id": 6191414037,
        "lat": 17.4439748,
        "lon": 78.386955,
        "tags": {
          "amenity": "pharmacy",
          "name": "Esskay Medicals"
        }
      },
      {
        "type": "node",
        "id": 6191414038,
        "lat": 17.443883,
        "lon": 78.3870128,
        "tags": {
          "amenity": "fast_food",
          "name": "Hot Chips"
        }
      },
      {
        "type": "node",
        "id": 6191414042,
        "lat": 17.4436402,
        "lon": 78.3870944,
        "tags": {
          "amenity": "pharmacy",
          "brand": "Apollo Pharmacy",
          "brand:wikidata": "Q62562612",
          "healthcare": "pharmacy",
          "name": "Apollo Pharmacy"
        }
      },
      {
        "type": "node",
        "id": 6191762118,
        "lat": 17.4433495,
        "lon": 78.3876668,
        "tags": {
          "amenity": "pharmacy",
          "dispensing": "yes",
          "healthcare": "pharmacy",
          "name": "JN Pharmacy"
        }
      },
      {
        "type": "node",
        "id": 6191762119,
        "lat": 17.4433217,
        "lon": 78.3876457,
        "tags": {
          "amenity": "clinic",
          "healthcare": "clinic",
          "name": "JN Clinic and diagnostics"
        }
      },
      {
        "type": "node",
        "id": 6191762120,
        "lat": 17.4431896,
        "lon": 78.3880625,
        "tags": {
          "amenity": "restaurant",
          "cuisine": "Biryanis;chinese;South_Indian;North_Indian",
          "name": "B- Eats"
        }
      },
      {
        "type": "node",
        "id": 6248946494,
        "lat": 17.4432774,
        "lon": 78.3935366,
        "tags": {
          "amenity": "fast_food",
          "name": "Thansi"
        }
      },
      {
        "type": "node",
        "id": 6266078685,
        "lat": 17.4420216,
        "lon": 78.38814,
        "tags": {
          "addr:postcode": "500081",
          "amenity": "fast_food",
          "name": "Drunken Monkey"
        }
      },
      {
        "type": "node",
        "id": 6268103691,
        "lat": 17.4425382,
        "lon": 78.3961507,
        "tags": {
          "amenity": "restaurant",
          "name": "T-grill"
        }
      },
      {
        "type": "node",
        "id": 6268240985,
        "lat": 17.4412498,
        "lon": 78.3885797,
        "tags": {
          "amenity": "fast_food",
          "name": "Brickwood"
        }
      },
      {
        "type": "node",
        "id": 6352370685,
        "lat": 17.4414944,
        "lon": 78.3916686,
        "tags": {
          "amenity": "cafe",
          "name": "Dostea Chai Caf\u00e9"
        }
      },
      {
        "type": "node",
        "id": 6484730153,
        "lat": 17.4372474,
        "lon": 78.3942747,
        "tags": {
          "addr:district": "Hyderabad",
          "addr:full": "1-66/4/194, Block-B, Kavurihills, Durgam Cheruvu Road, Madhava Nagar, Beside Shivaramalayam, Madhapur",
          "addr:postcode": "500033",
          "addr:state": "Telangana",
          "amenity": "hospital",
          "healthcare": "hospital",
          "name": "Praanadah Hospital",
          "source": "OpenGovernmentData"
        }
      },
      {
        "type": "node",
        "id": 6485323329,
        "lat": 17.4406202,
        "lon": 78.3930877,
        "tags": {
          "amenity": "restaurant",
          "cuisine": "indian",
          "name": "Lucky Restaurant"
        }
      },
      {
        "type": "node",
        "id": 6485848266,
        "lat": 17.4391256,
        "lon": 78.3958378,
        "tags": {
          "addr:district": "Hyderabad",
          "addr:full": "1-88/5/A, Plot No. 274, Opp. Madhapur Police Station, Kavuri Hills",
          "addr:postcode": "500081",
          "addr:state": "Telangana",
          "amenity": "hospital",
          "healthcare": "hospital",
          "name": "L.V. Prasad Eye Institute",
          "source": "OpenGovernmentData"
        }
      },
      {
        "type": "node",
        "id": 6497341385,
        "lat": 17.4440464,
        "lon": 78.3847817,
        "tags": {
          "addr:district": "Hyderabad",
          "addr:full": "Lane Adjacent To Oriental Bank Of commerce, Opposite Water Tank, Vittal Rao Nagar, Madhapur",
          "addr:postcode": "500081",
          "addr:state": "Telangana",
          "amenity": "hospital",
          "healthcare": "hospital",
          "name": "Srija Maternity and Nursing Home",
          "source": "OpenGovernmentData"
        }
      },
      {
        "type": "node",
        "id": 6549184413,
        "lat": 17.4448396,
        "lon": 78.3855052,
        "tags": {
          "addr:district": "Hyderabad",
          "addr:full": "#1-120/3, Plot No.3, Behind Karachi Bakery, Survey No.64, Madhapur",
          "addr:postcode": "500081",
          "addr:state": "Telangana",
          "amenity": "hospital",
          "contact:phone": "040 67108108",
          "healthcare": "hospital",
          "name": "Oakridge Hospitals",
          "operator:type": "private",
          "source": "OpenGovernmentData",
          "website": "http://oakridgehospitals.com/"
        }
      },
      {
        "type": "node",
        "id": 6633197605,
        "lat": 17.4324002,
        "lon": 78.3854882,
        "tags": {
          "amenity": "restaurant",
          "name": "ITC Kohenur"
        }
      },
      {
        "type": "node",
        "id": 6811749119,
        "lat": 17.4447512,
        "lon": 78.3884762,
        "tags": {
          "addr:district": "Hyderabad",
          "addr:full": "Hitech City Road, Sri Sai Nagar, Madhapur",
          "addr:postcode": "500081",
          "addr:state": "Telangana",
          "amenity": "doctors",
          "contact:mobile": "9246523045",
          "healthcare": "doctor",
          "name": "Dr. B.Srinivas",
          "source": "OpenGovernmentData"
        }
      },
      {
        "type": "node",
        "id": 6822126549,
        "lat": 17.444671,
        "lon": 78.388582,
        "tags": {
          "amenity": "atm",
          "brand": "HDFC Bank",
          "brand:wikidata": "Q631047",
          "name": "HDFC Bank ATM",
          "operator": "HDFC Bank",
          "operator:wikidata": "Q631047",
          "source": "survey"
        }
      },
      {
        "type": "node",
        "id": 6934838950,
        "lat": 17.4488567,
        "lon": 78.38912,
        "tags": {
          "addr:city": "Hyderabad",
          "addr:housenumber": "195",
          "addr:postcode": "500081",
          "addr:street": "Jai Hind Gandhi Road",
          "amenity": "restaurant",
          "cuisine": "regional",
          "name": "Fudzy",
          "opening_hours": "Mo-Sa 08:00-18:00"
        }
      },
      {
        "type": "node",
        "id": 6935609217,
        "lat": 17.4466519,
        "lon": 78.3888618,
        "tags": {
          "amenity": "restaurant",
          "name": "The sweet tooth"
        }
      },
      {
        "type": "node",
        "id": 6994597339,
        "lat": 17.4377697,
        "lon": 78.3900781,
        "tags": {
          "amenity": "restaurant",
          "name": "Abhiruchi"
        }
      },
      {
        "type": "node",
        "id": 7021286970,
        "lat": 17.4441819,
        "lon": 78.386775,
        "tags": {
          "amenity": "pharmacy",
          "name": "Hetero pharmacy"
        }
      },
      {
        "type": "node",
        "id": 7021303595,
        "lat": 17.4348002,
        "lon": 78.3941073,
        "tags": {
          "amenity": "bank",
          "brand": "State Bank of India",
          "brand:wikidata": "Q1340361",
          "name": "State Bank of India",
          "short_name": "SBI"
        }
      },
      {
        "type": "node",
        "id": 7021303602,
        "lat": 17.4441356,
        "lon": 78.3868159,
        "tags": {
          "amenity": "atm",
          "brand": "IDBI Bank",
          "brand:wikidata": "Q3633485",
          "name": "IDBI Bank ATM",
          "operator": "IDBI Bank",
          "operator:wikidata": "Q3633485"
        }
      },
      {
        "type": "node",
        "id": 7021303603,
        "lat": 17.4461048,
        "lon": 78.3856696,
        "tags": {
          "amenity": "atm",
          "name": "Laxmi Vilas Bank ATM"
        }
      },
      {
        "type": "node",
        "id": 7021303604,
        "lat": 17.4460938,
        "lon": 78.3885218,
        "tags": {
          "amenity": "atm",
          "brand": "ICICI Bank",
          "brand:wikidata": "Q1653258",
          "name": "ICICI Bank ATM",
          "operator": "ICICI Bank",
          "operator:wikidata": "Q1653258"
        }
      },
      {
        "type": "node",
        "id": 7021303605,
        "lat": 17.4468437,
        "lon": 78.3857947,
        "tags": {
          "amenity": "atm",
          "brand": "Karnataka Bank",
          "brand:wikidata": "Q2042632",
          "name": "Karnataka Bank ATM",
          "operator": "Karnataka Bank",
          "operator:wikidata": "Q2042632"
        }
      },
      {
        "type": "node",
        "id": 7021303606,
        "lat": 17.4373057,
        "lon": 78.3853732,
        "tags": {
          "amenity": "atm",
          "brand": "Citibank",
          "brand:wikidata": "Q857063",
          "name": "Citi bank ATM",
          "operator": "Citibank",
          "operator:wikidata": "Q857063"
        }
      },
      {
        "type": "node",
        "id": 7021303608,
        "lat": 17.4367771,
        "lon": 78.3891419,
        "tags": {
          "amenity": "restaurant",
          "name": "Amber"
        }
      },
      {
        "type": "node",
        "id": 7021303622,
        "lat": 17.4425777,
        "lon": 78.387388,
        "tags": {
          "amenity": "bank",
          "branch": "Limited and ATM",
          "brand": "RBL Bank",
          "brand:wikidata": "Q13120398",
          "name": "RBL Bank"
        }
      },
      {
        "type": "node",
        "id": 7021303640,
        "lat": 17.4417241,
        "lon": 78.3852879,
        "tags": {
          "amenity": "restaurant",
          "name": "Foodie Resto"
        }
      },
      {
        "type": "node",
        "id": 7021303662,
        "lat": 17.4388692,
        "lon": 78.3964354,
        "tags": {
          "amenity": "bank",
          "brand": "Kotak Mahindra Bank",
          "brand:wikidata": "Q2040404",
          "name": "Kotak Mahindra Bank"
        }
      },
      {
        "type": "node",
        "id": 7021303664,
        "lat": 17.4386757,
        "lon": 78.3960621,
        "tags": {
          "amenity": "bank",
          "brand": "State Bank of India",
          "brand:wikidata": "Q1340361",
          "name": "State Bank of India",
          "short_name": "SBI"
        }
      },
      {
        "type": "node",
        "id": 7021303711,
        "lat": 17.4373534,
        "lon": 78.3853935,
        "tags": {
          "amenity": "cafe",
          "name": "Tea Trails Cafe"
        }
      },
      {
        "type": "node",
        "id": 7021303723,
        "lat": 17.4430451,
        "lon": 78.3908019,
        "tags": {
          "amenity": "food_court",
          "name": "Spot Food Court"
        }
      },
      {
        "type": "node",
        "id": 7021303726,
        "lat": 17.4431428,
        "lon": 78.3879241,
        "tags": {
          "amenity": "restaurant",
          "name": "Chinatown"
        }
      },
      {
        "type": "node",
        "id": 7021303727,
        "lat": 17.443142,
        "lon": 78.3877529,
        "tags": {
          "amenity": "restaurant",
          "name": "Krazy Chef"
        }
      },
      {
        "type": "node",
        "id": 7021303728,
        "lat": 17.4430468,
        "lon": 78.3877611,
        "tags": {
          "amenity": "restaurant",
          "name": "Hi-Tech Bawarchi"
        }
      },
      {
        "type": "node",
        "id": 7021303729,
        "lat": 17.4463118,
        "lon": 78.3887776,
        "tags": {
          "amenity": "restaurant",
          "name": "Urban Spice kitchen"
        }
      },
      {
        "type": "node",
        "id": 7021303731,
        "lat": 17.4378342,
        "lon": 78.3884652,
        "tags": {
          "amenity": "restaurant",
          "cuisine": "indonesian",
          "name": "Sambal"
        }
      },
      {
        "type": "node",
        "id": 7021303732,
        "lat": 17.4378381,
        "lon": 78.3871372,
        "tags": {
          "amenity": "restaurant",
          "name": "Southwok Restaurant"
        }
      },
      {
        "type": "node",
        "id": 7021303733,
        "lat": 17.4447002,
        "lon": 78.386046,
        "tags": {
          "amenity": "restaurant",
          "name": "Grand Spicy Bawarchi"
        }
      },
      {
        "type": "node",
        "id": 7021303734,
        "lat": 17.4450565,
        "lon": 78.3856161,
        "tags": {
          "amenity": "restaurant",
          "name": "Ayathi Restaurant"
        }
      },
      {
        "type": "node",
        "id": 7021303737,
        "lat": 17.4348953,
        "lon": 78.3937529,
        "tags": {
          "amenity": "restaurant",
          "name": "Nala Bhimas Restaurant"
        }
      },
      {
        "type": "node",
        "id": 7021303751,
        "lat": 17.4429843,
        "lon": 78.387339,
        "tags": {
          "amenity": "pharmacy",
          "healthcare": "pharmacy",
          "name": "Care Pharmacy"
        }
      },
      {
        "type": "node",
        "id": 7021303762,
        "lat": 17.4438542,
        "lon": 78.3859419,
        "tags": {
          "amenity": "clinic",
          "healthcare": "clinic",
          "name": "SVR Physiotherapy Clinic"
        }
      },
      {
        "type": "node",
        "id": 7021303765,
        "lat": 17.4430962,
        "lon": 78.3918626,
        "tags": {
          "amenity": "clinic",
          "healthcare": "laboratory",
          "name": "Crystal Vision Eye Care Center"
        }
      },
      {
        "type": "node",
        "id": 7021303766,
        "lat": 17.442915,
        "lon": 78.3885085,
        "tags": {
          "amenity": "bank",
          "brand": "Kotak Mahindra Bank",
          "brand:wikidata": "Q2040404",
          "name": "Kotak Mahindra Bank"
        }
      },
      {
        "type": "node",
        "id": 7025803845,
        "lat": 17.4452494,
        "lon": 78.3907983,
        "tags": {
          "amenity": "restaurant",
          "name": "Ankapur Kitchen"
        }
      },
      {
        "type": "node",
        "id": 7025820724,
        "lat": 17.4413554,
        "lon": 78.388307,
        "tags": {
          "amenity": "fast_food",
          "name": "Balaji Hyderabad Mithai Bhandar"
        }
      },
      {
        "type": "node",
        "id": 7025820751,
        "lat": 17.4408428,
        "lon": 78.3912368,
        "tags": {
          "amenity": "restaurant",
          "name": "Kritunga Restaurant"
        }
      },
      {
        "type": "node",
        "id": 7025820753,
        "lat": 17.4385383,
        "lon": 78.3902999,
        "tags": {
          "air_conditioning": "yes",
          "amenity": "restaurant",
          "bar": "no",
          "name": "Sampradaya Ruchulu Restaurant"
        }
      },
      {
        "type": "node",
        "id": 7025820755,
        "lat": 17.44053,
        "lon": 78.3943343,
        "tags": {
          "name": "One Store Super Market",
          "shop": "supermarket"
        }
      },
      {
        "type": "node",
        "id": 7025820756,
        "lat": 17.440618,
        "lon": 78.3945512,
        "tags": {
          "amenity": "fast_food",
          "name": "Cafe Blue Diamond & Chinese Fast Food"
        }
      },
      {
        "type": "node",
        "id": 7025820758,
        "lat": 17.4406949,
        "lon": 78.3943588,
        "tags": {
          "amenity": "hospital",
          "healthcare": "hospital",
          "name": "Srinivasa Hospital"
        }
      },
      {
        "type": "node",
        "id": 7025820761,
        "lat": 17.4403669,
        "lon": 78.3950098,
        "tags": {
          "amenity": "pharmacy",
          "healthcare": "pharmacy",
          "name": "Pharmacist"
        }
      },
      {
        "type": "node",
        "id": 7025820764,
        "lat": 17.4386399,
        "lon": 78.3948138,
        "tags": {
          "amenity": "restaurant",
          "name": "Beach House"
        }
      },
      {
        "type": "node",
        "id": 7025820782,
        "lat": 17.4458679,
        "lon": 78.3924181,
        "tags": {
          "amenity": "fast_food",
          "name": "Chinese Cornerz"
        }
      },
      {
        "type": "node",
        "id": 7025820783,
        "lat": 17.4458496,
        "lon": 78.3925347,
        "tags": {
          "amenity": "restaurant",
          "name": "Desi Dhabha"
        }
      },
      {
        "type": "node",
        "id": 7025820784,
        "lat": 17.4462385,
        "lon": 78.3924715,
        "tags": {
          "amenity": "restaurant",
          "name": "Golconda Chefs"
        }
      },
      {
        "type": "node",
        "id": 7025820786,
        "lat": 17.44582,
        "lon": 78.3924173,
        "tags": {
          "addr:city": "hyderabad",
          "addr:district": "rangareddy",
          "addr:housenumber": "APIIC Colony Beside State Bank of India , Shapur Nagar Jeedimetla Hyderabad",
          "addr:postcode": "500055",
          "addr:street": "Near SBI Bank",
          "amenity": "hospital",
          "emergency": "yes",
          "healthcare": "hospital",
          "healthcare:speciality": "gynaecology",
          "name": "lifespan hospitals"
        }
      },
      {
        "type": "node",
        "id": 7025820788,
        "lat": 17.4437629,
        "lon": 78.3921118,
        "tags": {
          "amenity": "bank",
          "name": "Andhra Bank"
        }
      },
      {
        "type": "node",
        "id": 7025820790,
        "lat": 17.4446822,
        "lon": 78.3924319,
        "tags": {
          "amenity": "food_court",
          "name": "Daniel Food Court"
        }
      },
      {
        "type": "node",
        "id": 7025820793,
        "lat": 17.4427049,
        "lon": 78.3930518,
        "tags": {
          "amenity": "restaurant",
          "name": "Sree Uma Grand - Multicuisine Restaurant"
        }
      },
      {
        "type": "node",
        "id": 7025820810,
        "lat": 17.4369759,
        "lon": 78.3891408,
        "tags": {
          "amenity": "restaurant",
          "name": "Mustard"
        }
      },
      {
        "type": "node",
        "id": 7025820811,
        "lat": 17.4369089,
        "lon": 78.3892028,
        "tags": {
          "amenity": "restaurant",
          "name": "Burgandi"
        }
      },
      {
        "type": "node",
        "id": 7025820812,
        "lat": 17.4367769,
        "lon": 78.3891418,
        "tags": {
          "amenity": "restaurant",
          "name": "Amber"
        }
      },
      {
        "type": "node",
        "id": 7025820825,
        "lat": 17.4476207,
        "lon": 78.3910935,
        "tags": {
          "amenity": "restaurant",
          "name": "Organic Thali kitchen"
        }
      },
      {
        "type": "node",
        "id": 7025820829,
        "lat": 17.4478808,
        "lon": 78.3905092,
        "tags": {
          "amenity": "pharmacy",
          "healthcare": "pharmacy",
          "name": "Siddha Nagarjuna Ayurveda pharmacy"
        }
      },
      {
        "type": "node",
        "id": 7025820838,
        "lat": 17.4346129,
        "lon": 78.3939618,
        "tags": {
          "amenity": "cafe",
          "name": "Waffle House"
        }
      },
      {
        "type": "node",
        "id": 7025820842,
        "lat": 17.4357999,
        "lon": 78.3946868,
        "tags": {
          "amenity": "restaurant",
          "name": "Krishna's Kitchen"
        }
      },
      {
        "type": "node",
        "id": 7025820871,
        "lat": 17.4404015,
        "lon": 78.3935559,
        "tags": {
          "amenity": "restaurant",
          "name": "Thurum Khan Restaurant"
        }
      },
      {
        "type": "node",
        "id": 7025820874,
        "lat": 17.4404283,
        "lon": 78.3934664,
        "tags": {
          "amenity": "restaurant",
          "name": "Morning Dew",
          "tourism": "guest_house"
        }
      },
      {
        "type": "node",
        "id": 7025820877,
        "lat": 17.4404256,
        "lon": 78.3933337,
        "tags": {
          "amenity": "bank",
          "name": "Indusland Bank"
        }
      },
      {
        "type": "node",
        "id": 7025820878,
        "lat": 17.44045,
        "lon": 78.393417,
        "tags": {
          "amenity": "atm",
          "name": "DCB Bank Atm"
        }
      },
      {
        "type": "node",
        "id": 7025820883,
        "lat": 17.4404308,
        "lon": 78.3923717,
        "tags": {
          "amenity": "restaurant",
          "name": "Ghar Ka Khaana"
        }
      },
      {
        "type": "node",
        "id": 7025820886,
        "lat": 17.4407157,
        "lon": 78.3924993,
        "tags": {
          "amenity": "restaurant",
          "name": "Madhapur Bawarchi"
        }
      },
      {
        "type": "node",
        "id": 7025820891,
        "lat": 17.4416678,
        "lon": 78.3912208,
        "tags": {
          "amenity": "restaurant",
          "name": "Oven Italia"
        }
      },
      {
        "type": "node",
        "id": 7025820892,
        "lat": 17.4413009,
        "lon": 78.3912398,
        "tags": {
          "amenity": "pharmacy",
          "branch": "Pharmacy and General Store",
          "brand": "MedPlus",
          "brand:wikidata": "Q65684234",
          "healthcare": "pharmacy",
          "name": "MedPlus"
        }
      },
      {
        "type": "node",
        "id": 7025820893,
        "lat": 17.4415454,
        "lon": 78.3912131,
        "tags": {
          "amenity": "restaurant",
          "name": "Sri Sai Venkateshwara Hotel"
        }
      },
      {
        "type": "node",
        "id": 7025820897,
        "lat": 17.4415331,
        "lon": 78.3906461,
        "tags": {
          "amenity": "restaurant",
          "name": "The Adda"
        }
      },
      {
        "type": "node",
        "id": 7025820899,
        "lat": 17.4414609,
        "lon": 78.3908468,
        "tags": {
          "amenity": "bank",
          "name": "SBH Corner"
        }
      },
      {
        "type": "node",
        "id": 7025820902,
        "lat": 17.4416446,
        "lon": 78.3906575,
        "tags": {
          "amenity": "restaurant",
          "name": "Shree Santhosh Family Dhaba"
        }
      },
      {
        "type": "node",
        "id": 7025820906,
        "lat": 17.4415069,
        "lon": 78.3888758,
        "tags": {
          "amenity": "restaurant",
          "name": "Sanjha Chulha Punjabi Food Joint"
        }
      },
      {
        "type": "node",
        "id": 7025820911,
        "lat": 17.4412922,
        "lon": 78.3884437,
        "tags": {
          "amenity": "restaurant",
          "name": "Brickwood Pizza"
        }
      },
      {
        "type": "node",
        "id": 7025820913,
        "lat": 17.4417109,
        "lon": 78.3884808,
        "tags": {
          "amenity": "restaurant",
          "name": "Lassi Bistro"
        }
      },
      {
        "type": "node",
        "id": 7025820915,
        "lat": 17.4413783,
        "lon": 78.3880897,
        "tags": {
          "amenity": "hospital",
          "healthcare": "hospital",
          "name": "Samanta Homeopathy"
        }
      },
      {
        "type": "node",
        "id": 7025820916,
        "lat": 17.4414119,
        "lon": 78.3880408,
        "tags": {
          "amenity": "restaurant",
          "name": "The Burrito Bowl"
        }
      },
      {
        "type": "node",
        "id": 7025820918,
        "lat": 17.4420469,
        "lon": 78.3881578,
        "tags": {
          "amenity": "restaurant",
          "name": "Tumba Bengali Food"
        }
      },
      {
        "type": "node",
        "id": 7025820919,
        "lat": 17.4418969,
        "lon": 78.3881888,
        "tags": {
          "amenity": "restaurant",
          "name": "Eatsome"
        }
      },
      {
        "type": "node",
        "id": 7035236526,
        "lat": 17.4348714,
        "lon": 78.3870327,
        "tags": {
          "alt_name": "Kentucky Fried Chicken",
          "alt_name:en": "Kentucky Fried Chicken",
          "alt_name:hi": "\u0915\u0947\u0902\u091f\u0941\u0915\u0940 \u092b\u094d\u0930\u093e\u0907\u0921 \u091a\u093f\u0915\u0928",
          "alt_name:pa": "\u0a15\u0a48\u0a02\u0a1f\u0a41\u0a15\u0a40 \u0a2b\u0a4d\u0a30\u0a3e\u0a08\u0a21 \u0a1a\u0a3f\u0a15\u0a28",
          "alt_name:pnb": "\u06a9\u06cc\u0646\u0679\u06a9\u06cc \u0641\u0631\u0627\u0626\u06cc\u0688 \u0686\u06a9\u0646",
          "alt_name:ur": "\u06a9\u06cc\u0646\u0679\u06a9\u06cc \u0641\u0631\u0627\u0626\u06cc\u0688 \u0686\u06a9\u0646",
          "amenity": "fast_food",
          "brand": "KFC",
          "brand:en": "KFC",
          "brand:hi": "\u0915\u0947\u090f\u092b\u0938\u0940",
          "brand:pa": "\u0a15\u0a47\u0a10\u0a2b\u0a38\u0a40",
          "brand:pnb": "\u06a9\u06d2 \u0627\u06cc\u0641 \u0633\u06cc",
          "brand:ur": "\u06a9\u06d2 \u0627\u06cc\u0641 \u0633\u06cc",
          "brand:wikidata": "Q524757",
          "brand:wikipedia": "en:KFC",
          "brand:wikipedia:pa": "\u0a15\u0a47\u0a10\u0a2b\u0a38\u0a40",
          "brand:wikipedia:ur": "\u06a9\u06cc\u0646\u0679\u06a9\u06cc \u0641\u0631\u0627\u0626\u06cc\u0688 \u0686\u06a9\u0646",
          "cuisine": "chicken",
          "name": "KFC",
          "name:en": "KFC",
          "name:hi": "\u0915\u0947\u090f\u092b\u0938\u0940",
          "name:pa": "\u0a15\u0a47\u0a10\u0a2b\u0a38\u0a40",
          "name:pnb": "\u06a9\u06d2 \u0627\u06cc\u0641 \u0633\u06cc",
          "name:ur": "\u06a9\u06d2 \u0627\u06cc\u0641 \u0633\u06cc",
          "takeaway": "yes"
        }
      },
      {
        "type": "node",
        "id": 7035236527,
        "lat": 17.4352133,
        "lon": 78.3869412,
        "tags": {
          "amenity": "restaurant",
          "cuisine": "indian",
          "diet:vegan": "yes",
          "diet:vegetarian": "only",
          "name": "Chutneys"
        }
      },
      {
        "type": "node",
        "id": 7035236528,
        "lat": 17.4347204,
        "lon": 78.3870167,
        "tags": {
          "amenity": "fast_food",
          "brand": "Domino's",
          "brand:ks": "\u0688\u0648\u0645\u06cc\u0646\u0648\u0632",
          "brand:pa": "\u0a21\u0a4b\u0a2e\u0a40\u0a28\u0a4b\u0a1c\u0a3c",
          "brand:ur": "\u0688\u0648\u0645\u06cc\u0646\u0648\u0632",
          "brand:wikidata": "Q839466",
          "brand:wikipedia": "en:Domino's Pizza",
          "cuisine": "pizza",
          "name": "Domino's",
          "name:ks": "\u0688\u0648\u0645\u06cc\u0646\u0648\u0632",
          "name:pa": "\u0a21\u0a4b\u0a2e\u0a40\u0a28\u0a4b\u0a1c\u0a3c",
          "name:ur": "\u0688\u0648\u0645\u06cc\u0646\u0648\u0632",
          "takeaway": "yes"
        }
      },
      {
        "type": "node",
        "id": 7035236529,
        "lat": 17.4346142,
        "lon": 78.386904,
        "tags": {
          "amenity": "restaurant",
          "brand": "Pizza Hut",
          "brand:wikidata": "Q191615",
          "cuisine": "pizza",
          "name": "Pizza Hut"
        }
      },
      {
        "type": "node",
        "id": 7035236531,
        "lat": 17.4345566,
        "lon": 78.3864346,
        "tags": {
          "amenity": "restaurant",
          "name": "4 Seasons"
        }
      },
      {
        "type": "node",
        "id": 7035236534,
        "lat": 17.4349673,
        "lon": 78.3869939,
        "tags": {
          "brand": "Shoppers Stop",
          "brand:wikidata": "Q7501182",
          "check_date": "2024-03-29",
          "name": "Shoppers Stop",
          "shop": "department_store",
          "wheelchair": "yes"
        }
      },
      {
        "type": "node",
        "id": 7035236543,
        "lat": 17.4349353,
        "lon": 78.385811,
        "tags": {
          "amenity": "fast_food",
          "brand": "Domino's",
          "brand:ks": "\u0688\u0648\u0645\u06cc\u0646\u0648\u0632",
          "brand:pa": "\u0a21\u0a4b\u0a2e\u0a40\u0a28\u0a4b\u0a1c\u0a3c",
          "brand:ur": "\u0688\u0648\u0645\u06cc\u0646\u0648\u0632",
          "brand:wikidata": "Q839466",
          "brand:wikipedia": "en:Domino's Pizza",
          "cuisine": "pizza",
          "name": "Domino's",
          "name:ks": "\u0688\u0648\u0645\u06cc\u0646\u0648\u0632",
          "name:pa": "\u0a21\u0a4b\u0a2e\u0a40\u0a28\u0a4b\u0a1c\u0a3c",
          "name:ur": "\u0688\u0648\u0645\u06cc\u0646\u0648\u0632",
          "takeaway": "yes"
        }
      },
      {
        "type": "node",
        "id": 7043060807,
        "lat": 17.4388882,
        "lon": 78.3811747,
        "tags": {
          "addr:city": "Hyderabad",
          "addr:street": "Mindspace",
          "amenity": "bank",
          "name": "ICICI Bank"
        }
      },
      {
        "type": "node",
        "id": 7043245719,
        "lat": 17.443382,
        "lon": 78.3917089,
        "tags": {
          "amenity": "cafe",
          "brand": "Chai Point",
          "brand:wikidata": "Q28173415",
          "cuisine": "coffee_shop",
          "name": "Chai Point",
          "takeaway": "yes"
        }
      },
      {
        "type": "node",
        "id": 7043488849,
        "lat": 17.4461803,
        "lon": 78.3871687,
        "tags": {
          "addr:city": "Hyderabad",
          "addr:housenumber": "1-98/11",
          "addr:postcode": "500081",
          "addr:street": "Arunodaya Colony",
          "amenity": "bank",
          "brand": "Bank of Baroda",
          "brand:wikidata": "Q2003797",
          "name": "Bank of Baroda"
        }
      },
      {
        "type": "node",
        "id": 7043527232,
        "lat": 17.4460614,
        "lon": 78.3861779,
        "tags": {
          "amenity": "bank",
          "brand": "UCO Bank",
          "brand:wikidata": "Q2005310",
          "name": "UCO Bank"
        }
      },
      {
        "type": "node",
        "id": 7043571449,
        "lat": 17.4440876,
        "lon": 78.3876824,
        "tags": {
          "amenity": "atm",
          "brand": "HDFC Bank",
          "brand:wikidata": "Q631047",
          "name": "HDFC Bank ATM",
          "operator": "HDFC Bank",
          "operator:wikidata": "Q631047"
        }
      },
      {
        "type": "node",
        "id": 7043571450,
        "lat": 17.4442635,
        "lon": 78.3877183,
        "tags": {
          "amenity": "atm",
          "brand": "State Bank of India",
          "brand:wikidata": "Q1340361",
          "name": "State Bank Of India ATM",
          "operator": "State Bank of India",
          "operator:wikidata": "Q1340361"
        }
      },
      {
        "type": "node",
        "id": 7043571451,
        "lat": 17.444293,
        "lon": 78.3876626,
        "tags": {
          "amenity": "atm",
          "brand": "ICICI Bank",
          "brand:wikidata": "Q1653258",
          "name": "ICICI Bank ATM",
          "operator": "ICICI Bank",
          "operator:wikidata": "Q1653258"
        }
      },
      {
        "type": "node",
        "id": 7043571452,
        "lat": 17.4442592,
        "lon": 78.3874467,
        "tags": {
          "amenity": "atm",
          "brand": "Bank of India",
          "brand:wikidata": "Q2004439",
          "name": "BOI ATM",
          "operator": "Bank of India",
          "operator:wikidata": "Q2004439"
        }
      },
      {
        "type": "node",
        "id": 8747950688,
        "lat": 17.4446234,
        "lon": 78.384659,
        "tags": {
          "addr:district": "Rangareddy",
          "addr:full": "Vittal Rao Nagar, HITEC City, Madhapur",
          "addr:postcode": "500081",
          "addr:state": "Telangana",
          "amenity": "hospital",
          "healthcare": "hospital",
          "name": "Hegde Hospital",
          "source": "Local Knowledge"
        }
      },
      {
        "type": "node",
        "id": 9917006217,
        "lat": 17.4411978,
        "lon": 78.3916463,
        "tags": {
          "amenity": "restaurant",
          "name": "Hitech Bawarchi"
        }
      },
      {
        "type": "node",
        "id": 10171328871,
        "lat": 17.447691,
        "lon": 78.3919352,
        "tags": {
          "amenity": "cafe",
          "name": "Cosa de Rosa"
        }
      },
      {
        "type": "node",
        "id": 10171342017,
        "lat": 17.4462141,
        "lon": 78.3921748,
        "tags": {
          "amenity": "restaurant",
          "name": "Raju Gari Biriyani"
        }
      },
      {
        "type": "node",
        "id": 10171342020,
        "lat": 17.4430158,
        "lon": 78.3916139,
        "tags": {
          "amenity": "atm"
        }
      },
      {
        "type": "node",
        "id": 10171342021,
        "lat": 17.4454861,
        "lon": 78.3922374,
        "tags": {
          "amenity": "atm",
          "brand": "HDFC Bank",
          "brand:wikidata": "Q631047",
          "name": "HDFC ATM",
          "operator": "HDFC Bank",
          "operator:wikidata": "Q631047",
          "short_name": "HDFC"
        }
      },
      {
        "type": "node",
        "id": 10171342022,
        "lat": 17.4455652,
        "lon": 78.3922408,
        "tags": {
          "amenity": "atm",
          "brand": "Axis Bank",
          "brand:wikidata": "Q2003549",
          "name": "Axis ATM",
          "operator": "Axis Bank",
          "operator:wikidata": "Q2003549"
        }
      },
      {
        "type": "node",
        "id": 10171342023,
        "lat": 17.4457784,
        "lon": 78.3924176,
        "tags": {
          "amenity": "fast_food",
          "cuisine": "juice",
          "name": "Fresh Juice"
        }
      },
      {
        "type": "node",
        "id": 10593550499,
        "lat": 17.4482768,
        "lon": 78.3845095,
        "tags": {
          "addr:city": "Hyderabad",
          "addr:housenumber": "UNIT NO. 6,7 & 8, FLOOR L-4",
          "amenity": "fast_food",
          "brand": "Taco Bell",
          "brand:wikidata": "Q752941",
          "cuisine": "tex-mex",
          "drive_through": "no",
          "level": "4",
          "name": "Taco Bell",
          "opening_hours": "Mo-Su 11:00-23:00",
          "operator": "Yum! Brands",
          "takeaway": "yes",
          "website": "https://www.tacobell.co.in/"
        }
      },
      {
        "type": "node",
        "id": 12596386097,
        "lat": 17.4342579,
        "lon": 78.3867712,
        "tags": {
          "name": "inorbit mall",
          "shop": "mall"
        }
      }
    ]
  },
  "pois_2_5km": {
    "version": 0.6,
    "generator": "Overpass API 0.7.62.8 e802775f",
    "osm3s": {
      "timestamp_osm_base": "2025-09-06T08:55:22Z",
      "copyright": "The data included in this document is from www.openstreetmap.org. The data is made available under ODbL."
    },
    "elements": [
      {
        "type": "node",
        "id": 317759267,
        "lat": 17.4513921,
        "lon": 78.3792883,
        "tags": {
          "amenity": "theatre",
          "name": "Shilpa Kala Vedika",
          "name:te": "\u0c36\u0c3f\u0c32\u0c4d\u0c2a \u0c15\u0c33\u0c3e \u0c35\u0c47\u0c26\u0c3f\u0c15",
          "tourism": "attraction"
        }
      },
      {
        "type": "node",
        "id": 344033815,
        "lat": 17.4380252,
        "lon": 78.3996269,
        "tags": {
          "amenity": "fuel",
          "brand": "Indian Oil",
          "brand:wikidata": "Q1289348",
          "brand:wikipedia": "en:Indian Oil Corporation",
          "name": "Indian Oil",
          "operator": "IBP"
        }
      },
      {
        "type": "node",
        "id": 349267514,
        "lat": 17.4407798,
        "lon": 78.3913972,
        "tags": {
          "amenity": "fuel",
          "brand": "Indian Oil",
          "brand:wikidata": "Q1289348",
          "brand:wikipedia": "en:Indian Oil Corporation",
          "name": "Indian Oil Madhapur"
        }
      },
      {
        "type": "node",
        "id": 2217968824,
        "lat": 17.417971,
        "lon": 78.388481,
        "tags": {
          "amenity": "fuel",
          "brand": "Bharat Petroleum",
          "brand:wikidata": "Q854826",
          "check_date": "2024-03-29",
          "name": "Bharat Petroleum"
        }
      },
      {
        "type": "node",
        "id": 2422172978,
        "lat": 17.4306371,
        "lon": 78.4083638,
        "tags": {
          "name": "Peddamma Gudi",
          "name:te": "\u0c2a\u0c46\u0c26\u0c4d\u0c26\u0c2e\u0c4d\u0c2e \u0c17\u0c41\u0c21\u0c3f",
          "network": "Hyderabad Metro",
          "note": "Contributors are requested to not edit the \"network\" and the \"operator\" tags. (2023/11/08)",
          "operator": "Hyderabad Metro Rail Limited",
          "public_transport": "stop_position",
          "railway": "stop",
          "subway": "yes"
        }
      },
      {
        "type": "node",
        "id": 2422172983,
        "lat": 17.4489916,
        "lon": 78.3831192,
        "tags": {
          "name": "HITEC City",
          "name:te": "\u0c39\u0c48\u0c1f\u0c46\u0c15\u0c4d \u0c38\u0c3f\u0c1f\u0c3f",
          "network": "Hyderabad Metro",
          "note": "Contributors are requested to not edit the \"network\" and the \"operator\" tags. (2023/11/08)",
          "operator": "Hyderabad Metro Rail Limited",
          "public_transport": "stop_position",
          "railway": "stop",
          "subway": "yes"
        }
      },
      {
        "type": "node",
        "id": 2422173008,
        "lat": 17.4372512,
        "lon": 78.4004097,
        "tags": {
          "name": "Madhapur",
          "name:te": "\u0c2e\u0c3e\u0c27\u0c3e\u0c2a\u0c42\u0c30\u0c4d",
          "network": "Hyderabad Metro",
          "note": "Contributors are requested to not edit the \"network\" and the \"operator\" tags. (2023/11/08)",
          "operator": "Hyderabad Metro Rail Limited",
          "platforms": "2",
          "public_transport": "stop_position",
          "public_transport:version": "2",
          "railway": "stop",
          "subway": "yes",
          "wheelchair": "yes"
        }
      },
      {
        "type": "node",
        "id": 2422173105,
        "lat": 17.4421814,
        "lon": 78.3772038,
        "tags": {
          "name": "Raidurg",
          "network": "Hyderabad Metro",
          "note": "Contributors are requested to not edit the \"network\" and the \"operator\" tags. (2023/11/08)",
          "operator": "Hyderabad Metro Rail Limited",
          "public_transport": "stop_position",
          "railway": "stop",
          "subway": "yes"
        }
      },
      {
        "type": "node",
        "id": 4700619028,
        "lat": 17.4296684,
        "lon": 78.3744683,
        "tags": {
          "amenity": "fuel",
          "brand": "Indian Oil",
          "brand:wikidata": "Q1289348",
          "brand:wikipedia": "en:Indian Oil Corporation",
          "check_date": "2024-03-29",
          "name": "Indian Oil",
          "name:en": "Indian Oil",
          "operator": "Lumbini Filling Station"
        }
      },
      {
        "type": "node",
        "id": 5017549934,
        "lat": 17.4374118,
        "lon": 78.3883021,
        "tags": {
          "amenity": "fuel",
          "brand": "Bharat Petroleum",
          "brand:wikidata": "Q854826",
          "name": "Bharat Petroleum",
          "short_name": "BP"
        }
      },
      {
        "type": "node",
        "id": 5787787852,
        "lat": 17.4490132,
        "lon": 78.3831555,
        "tags": {
          "name": "HITEC City",
          "name:te": "\u0c39\u0c48\u0c1f\u0c46\u0c15\u0c4d \u0c38\u0c3f\u0c1f\u0c3f",
          "network": "Hyderabad Metro",
          "note": "Contributors are requested to not edit the \"network\" and the \"operator\" tags. (2023/11/08)",
          "operator": "Hyderabad Metro Rail Limited",
          "public_transport": "stop_position",
          "railway": "stop",
          "subway": "yes"
        }
      },
      {
        "type": "node",
        "id": 5787787896,
        "lat": 17.4372693,
        "lon": 78.4004421,
        "tags": {
          "name": "Madhapur",
          "name:te": "\u0c2e\u0c3e\u0c27\u0c3e\u0c2a\u0c42\u0c30\u0c4d",
          "network": "Hyderabad Metro",
          "note": "Contributors are requested to not edit the \"network\" and the \"operator\" tags. (2023/11/08)",
          "operator": "Hyderabad Metro Rail Limited",
          "platforms": "2",
          "public_transport": "stop_position",
          "public_transport:version": "2",
          "railway": "stop",
          "subway": "yes",
          "wheelchair": "yes"
        }
      },
      {
        "type": "node",
        "id": 5787787987,
        "lat": 17.4421818,
        "lon": 78.3771643,
        "tags": {
          "name": "Raidurg",
          "network": "Hyderabad Metro",
          "note": "Contributors are requested to not edit the \"network\" and the \"operator\" tags. (2023/11/08)",
          "operator": "Hyderabad Metro Rail Limited",
          "public_transport": "stop_position",
          "railway": "stop",
          "subway": "yes"
        }
      },
      {
        "type": "node",
        "id": 6248961888,
        "lat": 17.4577608,
        "lon": 78.3841734,
        "tags": {
          "amenity": "fuel",
          "brand": "Hindustan Petroleum",
          "brand:wikidata": "Q1619375",
          "brand:wikipedia": "en:Hindustan Petroleum",
          "name": "HP",
          "name:en": "HP petrol bunk",
          "official_name": "Hindustan Petroleum"
        }
      },
      {
        "type": "node",
        "id": 6444553239,
        "lat": 17.4490055,
        "lon": 78.3831376,
        "tags": {
          "name": "HITEC City",
          "name:ml": "\u0d39\u0d48\u0d1f\u0d46\u0d15\u0d4d \u0d38\u0d3f\u0d31\u0d4d\u0d31\u0d3f",
          "name:te": "\u0c39\u0c48\u0c1f\u0c46\u0c15\u0c4d \u0c38\u0c3f\u0c1f\u0c3f",
          "network": "Hyderabad Metro",
          "note": "Contributors are requested to not edit the \"network\" and the \"operator\" tags. (2023/11/08)",
          "operator": "Hyderabad Metro Rail Limited",
          "public_transport": "station",
          "railway": "station",
          "station": "subway",
          "subway": "yes",
          "wikidata": "Q56701859"
        }
      },
      {
        "type": "node",
        "id": 6451675812,
        "lat": 17.4429466,
        "lon": 78.3875721,
        "tags": {
          "internet_access": "no",
          "name": "Durgam Cheruvu Metro Station",
          "name:ml": "\u0d26\u0d41\u0d7c\u0d17\u0d4d\u0d17\u0d02 \u0d1a\u0d46\u0d30\u0d41\u0d35\u0d4d",
          "name:te": "\u0c26\u0c41\u0c30\u0c4d\u0c17\u0c02 \u0c1a\u0c46\u0c30\u0c41\u0c35\u0c41 Metro Station",
          "network": "Hyderabad Metro",
          "note": "Contributors are requested to not edit the \"network\" and the \"operator\" tags. (2023/11/08)",
          "operator": "Hyderabad Metro Rail Limited",
          "public_transport": "station",
          "railway": "station",
          "station": "Metro",
          "subway": "yes",
          "website": "https://hmrl.co.in",
          "wheelchair": "yes",
          "wikidata": "Q83554384"
        }
      },
      {
        "type": "node",
        "id": 6453519084,
        "lat": 17.4429159,
        "lon": 78.3875922,
        "tags": {
          "internet_access": "no",
          "name": "Durgam Cheruvu",
          "name:te": "\u0c26\u0c41\u0c30\u0c4d\u0c17\u0c02 \u0c1a\u0c46\u0c30\u0c41\u0c35\u0c41",
          "network": "Hyderabad Metro",
          "note": "Contributors are requested to not edit the \"network\" and the \"operator\" tags. (2023/11/08)",
          "operator": "Hyderabad Metro Rail Limited",
          "public_transport": "stop_position",
          "railway": "stop",
          "subway": "yes"
        }
      },
      {
        "type": "node",
        "id": 6453520185,
        "lat": 17.442903,
        "lon": 78.387557,
        "tags": {
          "internet_access": "no",
          "name": "Durgam Cheruvu",
          "name:en": "Durgam Cheruvu Metro Station",
          "name:te": "\u0c26\u0c41\u0c30\u0c4d\u0c17\u0c02 \u0c1a\u0c46\u0c30\u0c41\u0c35\u0c41 \u0c2e\u0c46\u0c1f\u0c4d\u0c30\u0c4b \u0c38\u0c4d\u0c1f\u0c47\u0c37\u0c28\u0c4d",
          "network": "Hyderabad Metro",
          "note": "Contributors are requested to not edit the \"network\" and the \"operator\" tags. (2023/11/08)",
          "operator": "Hyderabad Metro Rail Limited",
          "public_transport": "stop_position",
          "railway": "stop",
          "subway": "yes"
        }
      },
      {
        "type": "node",
        "id": 6771713702,
        "lat": 17.4351644,
        "lon": 78.3867947,
        "tags": {
          "amenity": "cinema",
          "brand": "PVR Cinemas",
          "brand:short": "PVR",
          "brand:wikidata": "Q3359908",
          "name": "Pvr Cinemas"
        }
      },
      {
        "type": "node",
        "id": 7025820767,
        "lat": 17.4436886,
        "lon": 78.4008906,
        "tags": {
          "amenity": "cinema",
          "name": "Mic Movies"
        }
      },
      {
        "type": "node",
        "id": 7052069773,
        "lat": 17.4306677,
        "lon": 78.4083833,
        "tags": {
          "name": "Peddamma Gudi",
          "name:te": "\u0c2a\u0c46\u0c26\u0c4d\u0c26\u0c2e\u0c4d\u0c2e \u0c17\u0c41\u0c21\u0c3f",
          "network": "Hyderabad Metro",
          "note": "Contributors are requested to not edit the \"network\" and the \"operator\" tags. (2023/11/08)",
          "operator": "Hyderabad Metro Rail Limited",
          "public_transport": "stop_position",
          "railway": "stop",
          "subway": "yes"
        }
      },
      {
        "type": "node",
        "id": 7052069774,
        "lat": 17.4306512,
        "lon": 78.4083721,
        "tags": {
          "name": "Peddamma Gudi",
          "name:ml": "\u0d2a\u0d46\u0d26\u0d4d\u0d26\u0d2e\u0d4d\u0d2e \u0d17\u0d41\u0d21\u0d3f",
          "name:te": "\u0c2a\u0c46\u0c26\u0c4d\u0c26\u0c2e\u0c4d\u0c2e \u0c17\u0c41\u0c21\u0c3f",
          "name:ur": "\u067e\u06cc\u062f\u0645\u0627 \u06af\u0688\u06cc",
          "network": "Hyderabad Metro",
          "note": "Contributors are requested to not edit the \"network\" and the \"operator\" tags. (2023/11/08)",
          "operator": "Hyderabad Metro Rail Limited",
          "public_transport": "station",
          "railway": "station",
          "station": "subway",
          "subway": "yes",
          "wikidata": "Q84028775"
        }
      },
      {
        "type": "node",
        "id": 7052069775,
        "lat": 17.44218,
        "lon": 78.3771819,
        "tags": {
          "name": "Raidurg",
          "name:ml": "\u0d31\u0d3e\u0d2f\u0d4d\u0d26\u0d41\u0d7c\u0d17\u0d4d",
          "name:te": "\u0c30\u0c3e\u0c2f\u0c26\u0c41\u0c30\u0c4d\u0c17\u0c4d",
          "network": "Hyderabad Metro",
          "note": "Contributors are requested to not edit the \"network\" and the \"operator\" tags. (2023/11/08)",
          "operator": "Hyderabad Metro Rail Limited",
          "public_transport": "station",
          "railway": "station",
          "station": "subway",
          "subway": "yes",
          "wikidata": "Q58814837"
        }
      },
      {
        "type": "node",
        "id": 8583160409,
        "lat": 17.4308333,
        "lon": 78.3734976,
        "tags": {
          "amenity": "cinema",
          "branch": "Gachibowli",
          "brand": "PVR Cinemas",
          "brand:short": "PVR",
          "brand:wikidata": "Q3359908",
          "name": "PVR Preston Prime",
          "screen": "4",
          "website": "https://www.pvrcinemas.com/cinemasessions/Hyderabad/PVR-Preston-Prime,-Gachibowli-Hyderabad/186"
        }
      },
      {
        "type": "node",
        "id": 9144573053,
        "lat": 17.4372637,
        "lon": 78.4004257,
        "tags": {
          "layer": "1",
          "lit": "yes",
          "name": "Madhapur",
          "name:ml": "\u0d2e\u0d3e\u0d27\u0d3e\u0d2a\u0d42\u0d7c",
          "name:te": "\u0c2e\u0c3e\u0c27\u0c3e\u0c2a\u0c42\u0c30\u0c4d",
          "network": "Hyderabad Metro",
          "note": "Contributors are requested to not edit the \"network\" and the \"operator\" tags. (2023/11/08)",
          "operator": "Hyderabad Metro Rail Limited",
          "platforms": "2",
          "public_transport": "station",
          "public_transport:version": "2",
          "railway": "station",
          "shelter": "yes",
          "station": "subway",
          "subway": "yes",
          "wheelchair": "yes",
          "wikidata": "Q83637027"
        }
      },
      {
        "type": "node",
        "id": 10789486270,
        "lat": 17.4481318,
        "lon": 78.3844627,
        "tags": {
          "amenity": "cinema",
          "branch": "Hitech city",
          "brand": "PVR Cinemas",
          "brand:short": "PVR",
          "brand:wikidata": "Q3359908",
          "name": "PVR Cinemas, Icon"
        }
      },
      {
        "type": "node",
        "id": 10789525449,
        "lat": 17.4444549,
        "lon": 78.3881266,
        "tags": {
          "addr:city": "Hyderabad",
          "addr:neighbourhood": "Madhapur",
          "addr:state": "Telangana",
          "air_conditioning": "yes",
          "amenity": "cinema",
          "name": "BR Hitech Theatre"
        }
      },
      {
        "type": "node",
        "id": 10790345915,
        "lat": 17.431208,
        "lon": 78.3711702,
        "tags": {
          "amenity": "theatre",
          "name": "Rangbhoomi"
        }
      },
      {
        "type": "node",
        "id": 11770988841,
        "lat": 17.4323776,
        "lon": 78.369946,
        "tags": {
          "amenity": "fuel",
          "brand": "Bharat Petroleum",
          "brand:wikidata": "Q854826",
          "check_date": "2024-03-29",
          "name": "Bharat Petroleum"
        }
      },
      {
        "type": "node",
        "id": 11770993370,
        "lat": 17.458549,
        "lon": 78.38424,
        "tags": {
          "amenity": "fuel",
          "brand": "Hindustan Petroleum",
          "brand:wikidata": "Q1619375",
          "check_date": "2024-03-29",
          "name": "HP",
          "official_name": "Hindustan Petroleum"
        }
      }
    ]
  }
}