{
  "pois_1km": {
    "version": 0.6,
    "generator": "Overpass API 0.7.62.8 e802775f",
    "osm3s": {
      "timestamp_osm_base": "2025-09-06T08:43:02Z",
      "copyright": "The data included in this document is from www.openstreetmap.org. The data is made available under ODbL."
    },
    "elements": [
      {
        "type": "node",
        "id": 1215782305,
        "lat": 17.4321596,
        "lon": 78.3447962,
        "tags": {
          "amenity": "atm"
        }
      },
      {
        "type": "node",
        "id": 3372041135,
        "lat": 17.4240182,
        "lon": 78.3442736,
        "tags": {
          "amenity": "fast_food",
          "brand": "Domino's",
          "brand:ks": "\u0688\u0648\u0645\u06cc\u0646\u0648\u0632",
          "brand:pa": "\u0a21\u0a4b\u0a2e\u0a40\u0a28\u0a4b\u0a1c\u0a3c",
          "brand:ur": "\u0688\u0648\u0645\u06cc\u0646\u0648\u0632",
          "brand:wikidata": "Q839466",
          "brand:wikipedia": "en:Domino's Pizza",
          "cuisine": "pizza",
          "name": "Domino's",
          "name:ks": "\u0688\u0648\u0645\u06cc\u0646\u0648\u0632",
          "name:pa": "\u0a21\u0a4b\u0a2e\u0a40\u0a28\u0a4b\u0a1c\u0a3c",
          "name:ur": "\u0688\u0648\u0645\u06cc\u0646\u0648\u0632",
          "takeaway": "yes"
        }
      },
      {
        "type": "node",
        "id": 3372041271,
        "lat": 17.4224343,
        "lon": 78.3476461,
        "tags": {
          "amenity": "atm",
          "operator": "State Bank"
        }
      },
      {
        "type": "node",
        "id": 3375924739,
        "lat": 17.421895,
        "lon": 78.3383773,
        "tags": {
          "amenity": "atm",
          "brand": "Citibank",
          "brand:wikidata": "Q857063",
          "operator": "Citibank",
          "operator:wikidata": "Q857063"
        }
      },
      {
        "type": "node",
        "id": 4508556289,
        "lat": 17.4217717,
        "lon": 78.3387768,
        "tags": {
          "amenity": "fast_food",
          "cuisine": "pizza;indian;american;italian;juice",
          "name": "Kapil Towers Food Court",
          "name:en": "Kapil Towers Food Court"
        }
      },
      {
        "type": "node",
        "id": 4644010325,
        "lat": 17.4186466,
        "lon": 78.3477977,
        "tags": {
          "addr:postcode": "500032",
          "addr:street": "Financial District, Nanakram Guda",
          "amenity": "bank",
          "brand": "Citibank",
          "brand:wikidata": "Q857063",
          "check_date": "2025-03-11",
          "name": "Citibank",
          "opening_hours": "24/7",
          "short_name": "Citi"
        }
      },
      {
        "type": "node",
        "id": 4644012803,
        "lat": 17.4181945,
        "lon": 78.3473807,
        "tags": {
          "addr:postcode": "500032",
          "addr:street": "Ground Floor Shop Number 3 & 4, Food Court Wave Rock Building, Sy no 115(p) APIIC IT / ITES Special Economic Zone, Nanakramguda Village Serilingampally Mandal, Financial District, Nanakram Guda,",
          "amenity": "fast_food",
          "brand": "Domino's",
          "brand:ks": "\u0688\u0648\u0645\u06cc\u0646\u0648\u0632",
          "brand:pa": "\u0a21\u0a4b\u0a2e\u0a40\u0a28\u0a4b\u0a1c\u0a3c",
          "brand:ur": "\u0688\u0648\u0645\u06cc\u0646\u0648\u0632",
          "brand:wikidata": "Q839466",
          "brand:wikipedia": "en:Domino's Pizza",
          "cuisine": "pizza",
          "name": "Domino's",
          "name:ks": "\u0688\u0648\u0645\u06cc\u0646\u0648\u0632",
          "name:pa": "\u0a21\u0a4b\u0a2e\u0a40\u0a28\u0a4b\u0a1c\u0a3c",
          "name:ur": "\u0688\u0648\u0645\u06cc\u0646\u0648\u0632",
          "opening_hours": "10:00-18:00",
          "takeaway": "yes"
        }
      },
      {
        "type": "node",
        "id": 4644013491,
        "lat": 17.4181024,
        "lon": 78.3472761,
        "tags": {
          "addr:postcode": "500032",
          "addr:street": "WaveRock SEZ, IT Number 2, Nanakramguda,, Gachibowli Rd, Financial District, Nanakram Guda,",
          "amenity": "bank",
          "atm": "yes",
          "brand": "HDFC Bank",
          "brand:wikidata": "Q631047",
          "name": "HDFC Bank",
          "opening_hours": "24/7",
          "operator": "HDFC",
          "short_name": "HDFC"
        }
      },
      {
        "type": "node",
        "id": 4773253021,
        "lat": 17.4269665,
        "lon": 78.343947,
        "tags": {
          "addr:city": "Hyderabad,Telangana",
          "addr:housenumber": "203/1",
          "addr:postcode": "500032",
          "addr:street": "Manikonda Village, Gatchibowli SEZ, Madhava Reddy Colony, Gachibowli",
          "amenity": "restaurant",
          "cuisine": "chinese",
          "level": "0",
          "name": "Bowl-O-China",
          "smoking": "no",
          "takeaway": "no"
        }
      },
      {
        "type": "node",
        "id": 5877511806,
        "lat": 17.4219679,
        "lon": 78.3386411,
        "tags": {
          "amenity": "cafe",
          "name": "Driven Cafe"
        }
      },
      {
        "type": "node",
        "id": 5905914156,
        "lat": 17.4220887,
        "lon": 78.3389987,
        "tags": {
          "amenity": "bank",
          "brand": "Axis Bank",
          "brand:wikidata": "Q2003549",
          "name": "Axis Bank",
          "wikidata": "Q73764584"
        }
      },
      {
        "type": "node",
        "id": 5905914157,
        "lat": 17.4219675,
        "lon": 78.3389589,
        "tags": {
          "amenity": "fast_food",
          "brand": "Subway",
          "brand:pa": "\u0a38\u0a2c\u0a35\u0a47\u0a05",
          "brand:ur": "\u0633\u0628 \u0648\u06d2",
          "brand:wikidata": "Q244457",
          "brand:wikipedia": "en:Subway (restaurant)",
          "cuisine": "sandwich",
          "name": "Subway",
          "name:pa": "\u0a38\u0a2c\u0a35\u0a47\u0a05",
          "name:ur": "\u0633\u0628 \u0648\u06d2",
          "takeaway": "yes"
        }
      },
      {
        "type": "node",
        "id": 6411856963,
        "lat": 17.422361,
        "lon": 78.3477331,
        "tags": {
          "addr:city": "HYDERABAD",
          "addr:postcode": "500032",
          "addr:street": "NANAKRAMGUDA",
          "amenity": "cafe",
          "name": "WAFL Caf\u00e9",
          "opening_hours": "Mo-Su 11:00-23:00",
          "outdoor_seating": "no"
        }
      },
      {
        "type": "node",
        "id": 6461024946,
        "lat": 17.4240886,
        "lon": 78.347173,
        "tags": {
          "addr:street": "Express and Suites, Holiday Inn, Madhava Reddy Colony, Gachibowli",
          "amenity": "restaurant",
          "bar": "yes",
          "cuisine": "italian;indian;seafood;burger;sandwich;chicken;fish_and_chips;international",
          "name": "Jonathan`s Kitchen",
          "opening_hours": "11:30-15:00,19:00-23:00",
          "outdoor_seating": "yes",
          "website": "http://www.curryhousefoods.com/jonathans-kitchen.html",
          "wheelchair": "yes"
        }
      },
      {
        "type": "node",
        "id": 6594823489,
        "lat": 17.4242094,
        "lon": 78.3439979,
        "tags": {
          "air_conditioning": "yes",
          "amenity": "restaurant",
          "bar": "yes",
          "level": "3",
          "name": "The English Cafe",
          "outdoor_seating": "no"
        }
      },
      {
        "type": "node",
        "id": 6594823490,
        "lat": 17.4241728,
        "lon": 78.3440842,
        "tags": {
          "amenity": "restaurant",
          "level": "0",
          "name": "Deli 9"
        }
      },
      {
        "type": "node",
        "id": 6594823491,
        "lat": 17.4241883,
        "lon": 78.3439964,
        "tags": {
          "amenity": "restaurant",
          "brand": "Barbeque Nation",
          "brand:wikidata": "Q4859568",
          "cuisine": "barbecue",
          "name": "Barbeque Nation"
        }
      },
      {
        "type": "node",
        "id": 10603326041,
        "lat": 17.4220548,
        "lon": 78.3388013,
        "tags": {
          "amenity": "bank",
          "atm": "yes",
          "brand": "HDFC Bank",
          "brand:wikidata": "Q631047",
          "name": "HDFC Bank",
          "short_name": "HDFC"
        }
      },
      {
        "type": "node",
        "id": 11460511433,
        "lat": 17.4202845,
        "lon": 78.3479645,
        "tags": {
          "amenity": "restaurant",
          "cuisine": "indian",
          "diet:vegetarian": "yes",
          "name": "JDM Punjabi Dhaba"
        }
      },
      {
        "type": "node",
        "id": 11460511434,
        "lat": 17.4203956,
        "lon": 78.3475133,
        "tags": {
          "amenity": "restaurant",
          "cuisine": "indian",
          "name": "Being Hungry"
        }
      },
      {
        "type": "node",
        "id": 12848339177,
        "lat": 17.420262,
        "lon": 78.3480373,
        "tags": {
          "amenity": "restaurant",
          "name": "Panjab Restaurant"
        }
      }
    ]
  },
  "pois_2_5km": {
    "version": 0.6,
    "generator": "Overpass API 0.7.62.8 e802775f",
    "osm3s": {
      "timestamp_osm_base": "2025-09-06T08:43:02Z",
      "copyright": "The data included in this document is from www.openstreetmap.org. The data is made available under ODbL."
    },
    "elements": [
      {
        "type": "node",
        "id": 1528724057,
        "lat": 17.4218292,
        "lon": 78.338227,
        "tags": {
          "amenity": "fuel",
          "brand": "Essar",
          "brand:wikidata": "Q5399372",
          "compressed_air": "yes",
          "name": "Essar Petrol Pump"
        }
      },
      {
        "type": "node",
        "id": 1753608441,
        "lat": 17.4428658,
        "lon": 78.3570147,
        "tags": {
          "amenity": "fuel",
          "brand": "Hindustan Petroleum",
          "brand:wikidata": "Q1619375",
          "name": "Indira Nagar HP Petrol Bunk",
          "official_name": "Hindustan Petroleum"
        }
      },
      {
        "type": "node",
        "id": 1985561804,
        "lat": 17.4400243,
        "lon": 78.3557675,
        "tags": {
          "amenity": "bus_station",
          "bus": "yes",
          "name": "GPR Quarters",
          "public_transport": "station"
        }
      },
      {
        "type": "node",
        "id": 6241203807,
        "lat": 17.435523,
        "lon": 78.3604923,
        "tags": {
          "amenity": "theatre",
          "name": "SVK Amphitheater"
        }
      }
    ]
  }
}