{
  "pois_1km": {
    "version": 0.6,
    "generator": "Overpass API 0.7.62.8 e802775f",
    "osm3s": {
      "timestamp_osm_base": "2025-09-06T08:45:02Z",
      "copyright": "The data included in this document is from www.openstreetmap.org. The data is made available under ODbL."
    },
    "elements": [
      {
        "type": "node",
        "id": 626897044,
        "lat": 17.3692876,
        "lon": 78.4783351,
        "tags": {
          "amenity": "cafe",
          "name": "seven star cafe"
        }
      },
      {
        "type": "node",
        "id": 626897364,
        "lat": 17.3745682,
        "lon": 78.47601,
        "tags": {
          "amenity": "restaurant",
          "name": "New Grand Restaurent"
        }
      },
      {
        "type": "node",
        "id": 626897399,
        "lat": 17.3684348,
        "lon": 78.4732956,
        "tags": {
          "amenity": "bank",
          "brand": "HDFC",
          "brand:wikidata": "Q631047",
          "brand:wikipedia": "en:HDFC Bank",
          "name": "HDFC Bank",
          "short_name": "HDFC",
          "website": "https://www.hdfcbank.com"
        }
      },
      {
        "type": "node",
        "id": 626897404,
        "lat": 17.3695304,
        "lon": 78.4768575,
        "tags": {
          "amenity": "restaurant",
          "description": "Main course : Mutton Paya + Roti; \nDessert : Qurbani (dates pudding with a sizeable dose of fresh milk cream)",
          "name": "Nayab Hotel"
        }
      },
      {
        "type": "node",
        "id": 626897444,
        "lat": 17.3687527,
        "lon": 78.4755405,
        "tags": {
          "addr:city": "Hyderabad",
          "addr:state": "Telangana",
          "amenity": "restaurant",
          "contact:phone": "+91 40 24561648",
          "cuisine": "indian;kebab;steak_house;ice_cream;barbecue;regional;chicken;coffee_shop",
          "name": "\u0634\u0627\u062f\u0627\u0628 \u06c1\u0648\u0679\u0644 (Hotel Shadab)",
          "name:en": "Shadab Hotel",
          "name:ur": "\u0634\u0627\u062f\u0627\u0628 \u06c1\u0648\u0679\u0644",
          "opening_hours": "Mo-Su 06:00-24:00",
          "outdoor_seating": "no",
          "takeaway": "yes"
        }
      },
      {
        "type": "node",
        "id": 626897451,
        "lat": 17.3685479,
        "lon": 78.4759107,
        "tags": {
          "amenity": "restaurant",
          "name": "madina hotel"
        }
      },
      {
        "type": "node",
        "id": 626910659,
        "lat": 17.3684762,
        "lon": 78.4757391,
        "tags": {
          "historic": "monument",
          "name": "madina building;Ajfan",
          "name:en": "Ajfan",
          "shop": "supermarket"
        }
      },
      {
        "type": "node",
        "id": 2185045481,
        "lat": 17.3785289,
        "lon": 78.4843675,
        "tags": {
          "amenity": "atm"
        }
      },
      {
        "type": "node",
        "id": 2713823466,
        "lat": 17.378402,
        "lon": 78.4712243,
        "tags": {
          "leisure": "park",
          "name": "goshamahal old quarters park"
        }
      },
      {
        "type": "node",
        "id": 4187311994,
        "lat": 17.379269,
        "lon": 78.4688864,
        "tags": {
          "internet_access": "wlan",
          "leisure": "playground"
        }
      },
      {
        "type": "node",
        "id": 4187312989,
        "lat": 17.3705586,
        "lon": 78.4772323,
        "tags": {
          "amenity": "bank",
          "brand": "ICICI",
          "brand:wikidata": "Q1653258",
          "name": "ICICI Bank",
          "name:en": "ICICI Bank",
          "short_name": "ICICI",
          "website": "https://www.icicibank.com",
          "wikidata": "Q1653258",
          "wikipedia": "en:ICICI Bank"
        }
      },
      {
        "type": "node",
        "id": 4325992690,
        "lat": 17.3728875,
        "lon": 78.4735131,
        "tags": {
          "amenity": "atm"
        }
      },
      {
        "type": "node",
        "id": 4684693789,
        "lat": 17.3721656,
        "lon": 78.4807267,
        "tags": {
          "amenity": "atm",
          "operator": "State Bank"
        }
      },
      {
        "type": "node",
        "id": 4684713994,
        "lat": 17.3711694,
        "lon": 78.4799305,
        "tags": {
          "amenity": "cafe",
          "name": "Salarjung Museum Tea Stall",
          "name:en": "Salarjung Museum Tea Stall"
        }
      },
      {
        "type": "node",
        "id": 6481952537,
        "lat": 17.3854315,
        "lon": 78.4747114,
        "tags": {
          "addr:district": "Hyderabad",
          "addr:full": "Opp. Exhibition Grounds Road, Nampally, Chandra Viha, Kattel Mandi, Abids",
          "addr:postcode": "500001",
          "addr:state": "Telangana",
          "amenity": "hospital",
          "contact:email": "info@carehospitals.com",
          "emergency_telephone_code": "040 30417777",
          "health_facility:type": "Blood Bank;Ambulance;Emergency Room;Food;Pharmacy;Day Care",
          "healthcare:speciality": "multi speciality",
          "medical_system": "Allopathic",
          "name": "Care Hospital, Nampally",
          "operator:type": "private",
          "phone": "040 30417777",
          "source": "OpenGovernmentData",
          "website": "https://www.carehospitals.com/"
        }
      },
      {
        "type": "node",
        "id": 6481959033,
        "lat": 17.3851141,
        "lon": 78.4754102,
        "tags": {
          "addr:district": "Hyderabad",
          "addr:full": "5-4-183 To 199, Twin City Market Complex, Moazam Jahi Market",
          "addr:postcode": "500001",
          "addr:state": "Telangana",
          "amenity": "hospital",
          "fax": "040 24744223",
          "name": "Aarogya Hospital",
          "source": "OpenGovernmentData"
        }
      },
      {
        "type": "node",
        "id": 6484886609,
        "lat": 17.3729437,
        "lon": 78.4673019,
        "tags": {
          "addr:district": "Hyderabad",
          "addr:full": "Nagarkhana, Begum Bazar",
          "addr:postcode": "500012",
          "addr:state": "Telangana",
          "amenity": "hospital",
          "name": "Kishorechand Chordia Eye Centre",
          "source": "OpenGovernmentData"
        }
      },
      {
        "type": "node",
        "id": 6485587478,
        "lat": 17.3818518,
        "lon": 78.4727287,
        "tags": {
          "addr:district": "Hyderabad",
          "addr:full": "Door No.5-3-832/8/1&2, Indian Oil Petrol Pump, M.J. Market",
          "addr:postcode": "500012",
          "addr:state": "Telangana",
          "amenity": "hospital",
          "name": "Goshamahal Hospital",
          "source": "OpenGovernmentData"
        }
      },
      {
        "type": "node",
        "id": 6485668057,
        "lat": 17.3763924,
        "lon": 78.4676445,
        "tags": {
          "addr:city": "Hyderabad",
          "addr:district": "Hyderabad",
          "addr:full": "14-2-163, Opposite L.M.G. School, Joshiwadi, Begum Bazar",
          "addr:postcode": "500012",
          "addr:state": "Telangana",
          "amenity": "hospital",
          "name": "Deepa Hospital",
          "source": "OpenGovernmentData"
        }
      },
      {
        "type": "node",
        "id": 6513234521,
        "lat": 17.3854802,
        "lon": 78.4752171,
        "tags": {
          "addr:district": "Hyderabad",
          "addr:full": "Twin City Market, 5-4-183 To 199, Moazamjahi Market",
          "addr:postcode": "500001",
          "addr:state": "Telangana",
          "amenity": "hospital",
          "name": "Kailash Diagnostic and Rehabilitation Center",
          "source": "OpenGovernmentData"
        }
      },
      {
        "type": "node",
        "id": 6542738096,
        "lat": 17.3836001,
        "lon": 78.4700498,
        "tags": {
          "addr:district": "Hyderabad",
          "addr:place": "Azam Pura",
          "addr:state": "Telangana",
          "addr:street": "Azam pura",
          "addr:subdistrict": "Charminar",
          "amenity": "doctors",
          "healthcare": "doctor",
          "name": "Government Unani Dispesary, Agahapura",
          "operational_status": "operational",
          "operator:type": "government",
          "source": "OpenDataTelangana"
        }
      },
      {
        "type": "node",
        "id": 6544352101,
        "lat": 17.3771226,
        "lon": 78.4681535,
        "tags": {
          "addr:district": "Hyderabad",
          "addr:full": "15-8-326, nampally, Near begumbazar",
          "addr:state": "Telangana",
          "addr:street": "feelkhana",
          "addr:subdistrict": "Nampally",
          "amenity": "clinic",
          "name": "Urban Primary Health Centre, Begum Bazar",
          "source": "OpenGovernmentData"
        }
      },
      {
        "type": "node",
        "id": 6560524869,
        "lat": 17.3728426,
        "lon": 78.4740262,
        "tags": {
          "addr:district": "Hyderabad",
          "addr:full": "15-5-104, Near Afzal Gunj Bus Stop, Osmania General Hospital Premises",
          "addr:postcode": "500012",
          "addr:state": "Telangana",
          "amenity": "hospital",
          "contact:mobile": "9849546995",
          "email": "bloodbank.ogh@gmail.com",
          "healthcare": "blood_bank",
          "name": "Osmania General Hospital's Blood Bank",
          "opening_hours": "24/7",
          "operator:type": "government",
          "phone": "4024600146",
          "source": "OpenGovernmentData"
        }
      },
      {
        "type": "node",
        "id": 7007353485,
        "lat": 17.3829901,
        "lon": 78.4748572,
        "tags": {
          "amenity": "atm",
          "opening_hours": "24/7",
          "operator": "kotak"
        }
      },
      {
        "type": "node",
        "id": 9728679935,
        "lat": 17.3739934,
        "lon": 78.4751131,
        "tags": {
          "amenity": "bank",
          "brand": "State Bank of India",
          "brand:wikidata": "Q1340361",
          "name": "State Bank of India",
          "short_name": "SBI"
        }
      },
      {
        "type": "node",
        "id": 10988874811,
        "lat": 17.37514,
        "lon": 78.4704535,
        "tags": {
          "addr:district": "Hyderabad",
          "addr:place": "Nampally",
          "addr:state": "Telangana",
          "addr:street": "feelkhana",
          "addr:subdistrict": "Nampally",
          "amenity": "clinic",
          "healthcare": "clinic",
          "name": "Urban Primary Health Centre, Begum Bazar",
          "operational_status": "operational",
          "operator:type": "government",
          "source": "OpenDataTelangana"
        }
      },
      {
        "type": "node",
        "id": 11037398543,
        "lat": 17.3707883,
        "lon": 78.4810616,
        "tags": {
          "addr:district": "Hyderabad",
          "addr:place": "Purani Haveli Chowrastha",
          "addr:state": "Telangana",
          "addr:street": "Tribunal Court, Darulsifa",
          "addr:subdistrict": "Bahadurpura",
          "amenity": "clinic",
          "healthcare": "clinic",
          "name": "Urban Primary Health Centre, Darulshifa",
          "operational_status": "operational",
          "operator:type": "government",
          "source": "OpenDataTelangana"
        }
      },
      {
        "type": "node",
        "id": 11037398544,
        "lat": 17.3725623,
        "lon": 78.4738438,
        "tags": {
          "addr:district": "Hyderabad",
          "addr:place": "Afzal Gunj, Hyderabad",
          "addr:state": "Telangana",
          "addr:street": "Afzal Gunj",
          "addr:subdistrict": "Charminar",
          "amenity": "hospital",
          "healthcare": "hospital",
          "name": "Osmania Governement General Hospital",
          "operational_status": "operational",
          "operator:type": "government",
          "source": "OpenDataTelangana"
        }
      },
      {
        "type": "node",
        "id": 11037401937,
        "lat": 17.3739753,
        "lon": 78.4832744,
        "tags": {
          "addr:district": "Hyderabad",
          "addr:place": "Darulshifa",
          "addr:state": "Telangana",
          "addr:street": "Darulshifa",
          "addr:subdistrict": "Bahadurpura",
          "amenity": "clinic",
          "healthcare": "clinic",
          "name": "Urban Primary Health Centre, Jambaghpark",
          "operational_status": "operational",
          "operator:type": "government",
          "source": "OpenDataTelangana"
        }
      },
      {
        "type": "node",
        "id": 11037414562,
        "lat": 17.3814192,
        "lon": 78.4676747,
        "tags": {
          "addr:district": "Hyderabad",
          "addr:place": "Nampally",
          "addr:state": "Telangana",
          "addr:street": "CHAKANWADI",
          "addr:subdistrict": "Nampally",
          "amenity": "clinic",
          "healthcare": "clinic",
          "name": "Urban Primary Health Centre, Maharajgunj",
          "operational_status": "operational",
          "operator:type": "government",
          "source": "OpenDataTelangana"
        }
      }
    ]
  },
  "pois_2_5km": {
    "version": 0.6,
    "generator": "Overpass API 0.7.62.8 e802775f",
    "osm3s": {
      "timestamp_osm_base": "2025-09-06T08:45:02Z",
      "copyright": "The data included in this document is from www.openstreetmap.org. The data is made available under ODbL."
    },
    "elements": [
      {
        "type": "node",
        "id": 289656763,
        "lat": 17.3924223,
        "lon": 78.4675956,
        "tags": {
          "internet_access": "no",
          "name": "Hyderabad Deccan Nampally",
          "name:te": "\u0c39\u0c48\u0c26\u0c30\u0c3e\u0c2c\u0c3e\u0c26\u0c4d \u0c26\u0c15\u0c4d\u0c15\u0c28\u0c4d \u0c28\u0c3e\u0c02\u0c2a\u0c32\u0c4d\u0c32\u0c3f",
          "name:ur": "\u062d\u06cc\u062f\u0631\u0622\u0628\u0627\u062f \u062f\u06a9\u0646",
          "network": "IR",
          "operator": "SCR",
          "platforms": "6",
          "railway": "station",
          "ref": "HYB",
          "train": "yes",
          "wheelchair": "limited",
          "wikidata": "Q3633967",
          "wikipedia": "en:Hyderabad Deccan railway station"
        }
      },
      {
        "type": "node",
        "id": 307015337,
        "lat": 17.3765035,
        "lon": 78.4948263,
        "tags": {
          "alt_name:ur": "\u0645\u0644\u06a9 \u067e\u06cc\u0679",
          "internet_access": "no",
          "name": "Malakpet",
          "name:ar": "\u0645\u0627\u0644\u0643 \u0628\u064a\u062a",
          "name:ur": "\u0645\u0627\u0644\u06a9 \u067e\u06cc\u0679",
          "network": "IR",
          "operator": "SCR",
          "platforms": "2",
          "public_transport": "station",
          "railway": "station",
          "ref": "MXT",
          "train": "yes",
          "wikidata": "Q6741191",
          "wikipedia": "en:Malakpet railway station"
        }
      },
      {
        "type": "node",
        "id": 307015338,
        "lat": 17.3758726,
        "lon": 78.494705,
        "tags": {
          "name": "Malakpet",
          "public_transport": "stop_position",
          "ref": "1",
          "train": "yes"
        }
      },
      {
        "type": "node",
        "id": 307015360,
        "lat": 17.3661232,
        "lon": 78.4904751,
        "tags": {
          "name": "Dabirpura",
          "public_transport": "stop_position",
          "ref": "1",
          "train": "yes"
        }
      },
      {
        "type": "node",
        "id": 626897410,
        "lat": 17.3730067,
        "lon": 78.4766562,
        "tags": {
          "amenity": "bus_station",
          "bus": "yes",
          "name": "Afzalgunj",
          "public_transport": "station"
        }
      },
      {
        "type": "node",
        "id": 728853927,
        "lat": 17.3953109,
        "lon": 78.4690741,
        "tags": {
          "amenity": "theatre",
          "name": "Lalita Kala Thoranam",
          "name:te": "\u0c32\u0c32\u0c3f\u0c24 \u0c15\u0c33\u0c3e \u0c24\u0c4b\u0c30\u0c23\u0c02"
        }
      },
      {
        "type": "node",
        "id": 1038351374,
        "lat": 17.3861153,
        "lon": 78.4763073,
        "tags": {
          "amenity": "cinema",
          "name": "Ramakrishna Theatre"
        }
      },
      {
        "type": "node",
        "id": 1118754600,
        "lat": 17.3619252,
        "lon": 78.4799909,
        "tags": {
          "construction": "station",
          "disused": "yes",
          "name": "Charminar (u/c)",
          "name:te": "\u0c1a\u0c3e\u0c30\u0c4d\u0c2e\u0c3f\u0c28\u0c3e\u0c30\u0c4d",
          "network": "Hyderabad Metro",
          "note": "Contributors are requested to not edit the \"network\" and the \"operator\" tags. (2023/11/08)",
          "operator": "Hyderabad Metro Rail Limited",
          "railway": "station",
          "station": "subway",
          "subway": "yes"
        }
      },
      {
        "type": "node",
        "id": 1118754671,
        "lat": 17.3717823,
        "lon": 78.4822609,
        "tags": {
          "construction": "station",
          "disused": "yes",
          "name": "Salar Jung Museum (u/c)",
          "name:te": "\u0c38\u0c3e\u0c32\u0c3e\u0c30\u0c4d \u0c1c\u0c02\u0c17\u0c4d \u0c2e\u0c4d\u0c2f\u0c42\u0c1c\u0c3f\u0c2f\u0c02",
          "network": "Hyderabad Metro",
          "note": "Contributors are requested to not edit the \"network\" and the \"operator\" tags. (2023/11/08)",
          "operator": "Hyderabad Metro Rail Limited",
          "railway": "station",
          "station": "subway",
          "subway": "yes"
        }
      },
      {
        "type": "node",
        "id": 2233018548,
        "lat": 17.3814163,
        "lon": 78.4828118,
        "tags": {
          "amenity": "fuel"
        }
      },
      {
        "type": "node",
        "id": 2422989049,
        "lat": 17.3821199,
        "lon": 78.4816145,
        "tags": {
          "addr:city": "Hyderabad",
          "addr:city:ar": "\u062d\u064a\u062f\u0631 \u0622\u0628\u0627\u062f",
          "addr:city:ur": "\u062d\u06cc\u062f\u0631\u0622\u0628\u0627\u062f",
          "alt_name": "OMC",
          "name": "Osmania Medical College",
          "name:ml": "\u0d09\u0d38\u0d4d\u0d2e\u0d3e\u0d28\u0d3f\u0d2f \u0d2e\u0d46\u0d21\u0d3f\u0d15\u0d4d\u0d15\u0d7d \u0d15\u0d4b\u0d33\u0d47\u0d1c\u0d4d",
          "name:te": "\u0c09\u0c38\u0c4d\u0c2e\u0c3e\u0c28\u0c3f\u0c2f\u0c3e \u0c35\u0c48\u0c26\u0c4d\u0c2f \u0c15\u0c33\u0c3e\u0c36\u0c3e\u0c32",
          "network": "Hyderabad Metro",
          "note": "Contributors are requested to not edit the \"network\" and the \"operator\" tags. (2023/11/08)",
          "operator": "Hyderabad Metro Rail Limited",
          "public_transport": "stop_position",
          "public_transport:version": "2",
          "railway": "stop",
          "subway": "yes"
        }
      },
      {
        "type": "node",
        "id": 2422989058,
        "lat": 17.3772052,
        "lon": 78.4939044,
        "tags": {
          "addr:city": "Hyderabad",
          "addr:city:ar": "\u062d\u064a\u062f\u0631 \u0622\u0628\u0627\u062f",
          "addr:city:ur": "\u062d\u06cc\u062f\u0631\u0622\u0628\u0627\u062f",
          "addr:place": "Malakpet",
          "addr:place:ar": "\u0645\u0627\u0644\u0643 \u0628\u064a\u062a",
          "addr:place:ur": "\u0645\u0627\u0644\u06a9 \u067e\u06cc\u0679",
          "alt_name:ur": "\u0645\u0644\u06a9 \u067e\u06cc\u0679",
          "name": "Malakpet",
          "name:ar": "\u0645\u0627\u0644\u0643 \u0628\u064a\u062a",
          "name:te": "\u0c2e\u0c32\u0c15\u0c4d\u200c\u0c2a\u0c47\u0c1f\u0c4d",
          "name:ur": "\u0645\u0627\u0644\u06a9 \u067e\u06cc\u0679",
          "network": "Hyderabad Metro",
          "note": "Contributors are requested to not edit the \"network\" and the \"operator\" tags. (2023/11/08)",
          "operator": "Hyderabad Metro Rail Limited",
          "public_transport": "stop_position",
          "public_transport:version": "2",
          "railway": "stop",
          "subway": "yes"
        }
      },
      {
        "type": "node",
        "id": 2422989068,
        "lat": 17.3979907,
        "lon": 78.4708797,
        "tags": {
          "addr:city": "Hyderabad",
          "addr:city:ar": "\u062d\u064a\u062f\u0631 \u0622\u0628\u0627\u062f",
          "addr:city:ur": "\u062d\u06cc\u062f\u0631\u0622\u0628\u0627\u062f",
          "name": "Assembly",
          "name:ml": "\u0d05\u0d38\u0d02\u0d2c\u0d4d\u0d32\u0d3f",
          "name:te": "\u0c05\u0c38\u0c46\u0c02\u0c2c\u0c4d\u0c32\u0c40",
          "network": "Hyderabad Metro",
          "note": "Contributors are requested to not edit the \"network\" and the \"operator\" tags. (2023/11/08)",
          "operator": "Hyderabad Metro Rail Limited",
          "public_transport": "stop_position",
          "public_transport:version": "2",
          "railway": "stop",
          "subway": "yes"
        }
      },
      {
        "type": "node",
        "id": 2422989110,
        "lat": 17.3858253,
        "lon": 78.4733347,
        "tags": {
          "addr:city": "Hyderabad",
          "addr:city:ar": "\u062d\u064a\u062f\u0631 \u0622\u0628\u0627\u062f",
          "addr:city:ur": "\u062d\u06cc\u062f\u0631\u0622\u0628\u0627\u062f",
          "name": "Gandhi Bhavan",
          "name:ml": "\u0d17\u0d3e\u0d28\u0d4d\u0d27\u0d3f \u0d2d\u0d35\u0d7b",
          "name:te": "\u0c17\u0c3e\u0c02\u0c27\u0c40 \u0c2d\u0c35\u0c28\u0c4d",
          "network": "Hyderabad Metro",
          "note": "Contributors are requested to not edit the \"network\" and the \"operator\" tags. (2023/11/08)",
          "operator": "Hyderabad Metro Rail Limited",
          "public_transport": "stop_position",
          "public_transport:version": "2",
          "railway": "stop",
          "subway": "yes"
        }
      },
      {
        "type": "node",
        "id": 2422989207,
        "lat": 17.392222,
        "lon": 78.4701612,
        "tags": {
          "addr:city": "Hyderabad",
          "addr:city:ar": "\u062d\u064a\u062f\u0631 \u0622\u0628\u0627\u062f",
          "addr:city:ur": "\u062d\u06cc\u062f\u0631\u0622\u0628\u0627\u062f",
          "name": "Nampally",
          "name:ml": "\u0d28\u0d3e\u0d2e\u0d4d\u0d2a\u0d33\u0d4d\u0d33\u0d3f",
          "name:te": "\u0c28\u0c3e\u0c02\u0c2a\u0c32\u0c4d\u0c32\u0c3f",
          "network": "Hyderabad Metro",
          "note": "Contributors are requested to not edit the \"network\" and the \"operator\" tags. (2023/11/08)",
          "operator": "Hyderabad Metro Rail Limited",
          "public_transport": "stop_position",
          "public_transport:version": "2",
          "railway": "stop",
          "subway": "yes"
        }
      },
      {
        "type": "node",
        "id": 2422989260,
        "lat": 17.3798092,
        "lon": 78.486212,
        "tags": {
          "addr:city": "Hyderabad",
          "addr:city:ar": "\u062d\u064a\u062f\u0631 \u0622\u0628\u0627\u062f",
          "addr:city:ur": "\u062d\u06cc\u062f\u0631\u0622\u0628\u0627\u062f",
          "alt_name": "M. G. Bus Station (Red Line)",
          "name": "Mahatma Gandhi Bus Station (Red Line)",
          "name:te": "\u0c0e\u0c02.\u0c1c\u0c3f. \u0c2c\u0c38\u0c4d. \u0c38\u0c4d\u0c1f\u0c47\u0c37\u0c28\u0c4d",
          "name:ur": "\u0645\u06c1\u0627\u062a\u0645\u0627 \u06af\u0627\u0646\u062f\u06be\u06cc \u0628\u0633 \u0627\u0633\u0679\u06cc\u0634\u0646 (\u0631\u06cc\u0688 \u0644\u0627\u0626\u0646)",
          "network": "Hyderabad Metro",
          "note": "Contributors are requested to not edit the \"network\" and the \"operator\" tags. (2023/11/08)",
          "operator": "Hyderabad Metro Rail Limited",
          "public_transport": "stop_position",
          "public_transport:version": "2",
          "railway": "stop",
          "subway": "yes"
        }
      },
      {
        "type": "node",
        "id": 2445898820,
        "lat": 17.3905862,
        "lon": 78.4702853,
        "tags": {
          "amenity": "fuel",
          "name": "Public Gardens Petrol Pump",
          "name:en": "Bharat Petroleum"
        }
      },
      {
        "type": "node",
        "id": 3157201754,
        "lat": 17.3844647,
        "lon": 78.484,
        "tags": {
          "name": "Sultan Bazar",
          "name:te": "\u0c38\u0c41\u0c32\u0c4d\u0c24\u0c3e\u0c28\u0c4d \u0c2c\u0c1c\u0c3e\u0c30\u0c4d",
          "network": "Hyderabad Metro",
          "note": "Contributors are requested to not edit the \"network\" and the \"operator\" tags. (2023/11/08)",
          "operator": "Hyderabad Metro Rail Limited",
          "public_transport": "stop_position",
          "subway": "yes"
        }
      },
      {
        "type": "node",
        "id": 3612553734,
        "lat": 17.3649588,
        "lon": 78.4749286,
        "tags": {
          "amenity": "charging_station"
        }
      },
      {
        "type": "node",
        "id": 3842496350,
        "lat": 17.3906881,
        "lon": 78.4883506,
        "tags": {
          "amenity": "cinema",
          "name": "Maheshwari Parmeshwari INOX Cinemas"
        }
      },
      {
        "type": "node",
        "id": 4187284391,
        "lat": 17.3987617,
        "lon": 78.4709627,
        "tags": {
          "amenity": "fuel",
          "brand": "Indian Oil",
          "brand:wikidata": "Q1289348",
          "brand:wikipedia": "en:Indian Oil Corporation",
          "name": "Indian Oil"
        }
      },
      {
        "type": "node",
        "id": 4187308293,
        "lat": 17.3909412,
        "lon": 78.467487,
        "tags": {
          "amenity": "fuel",
          "name": "HP"
        }
      },
      {
        "type": "node",
        "id": 4187311991,
        "lat": 17.3573187,
        "lon": 78.4739624,
        "tags": {
          "amenity": "fuel",
          "name": "Bharat Petroleum"
        }
      },
      {
        "type": "node",
        "id": 4187312990,
        "lat": 17.3575695,
        "lon": 78.4736129,
        "tags": {
          "amenity": "fuel",
          "brand": "Indian Oil",
          "brand:wikidata": "Q1289348",
          "brand:wikipedia": "en:Indian Oil Corporation",
          "name": "Indian Oil"
        }
      },
      {
        "type": "node",
        "id": 4187313289,
        "lat": 17.3630312,
        "lon": 78.4800241,
        "tags": {
          "amenity": "fuel",
          "name": "Bharat Petroleum"
        }
      },
      {
        "type": "node",
        "id": 5936912539,
        "lat": 17.3661398,
        "lon": 78.490508,
        "tags": {
          "name": "Dabirpura",
          "public_transport": "stop_position",
          "ref": "2",
          "train": "yes"
        }
      },
      {
        "type": "node",
        "id": 6208220988,
        "lat": 17.3749107,
        "lon": 78.4980571,
        "tags": {
          "amenity": "fuel",
          "brand": "Bharat Petroleum",
          "brand:wikidata": "Q854826",
          "brand:wikipedia": "en:Bharat Petroleum",
          "name": "Bharat Petroleum"
        }
      },
      {
        "type": "node",
        "id": 6208220990,
        "lat": 17.3778645,
        "lon": 78.4923056,
        "tags": {
          "amenity": "fuel",
          "name": "Bharat Petroleum"
        }
      },
      {
        "type": "node",
        "id": 6254336890,
        "lat": 17.3887027,
        "lon": 78.4753829,
        "tags": {
          "amenity": "fuel"
        }
      },
      {
        "type": "node",
        "id": 6255550788,
        "lat": 17.3887874,
        "lon": 78.4743368,
        "tags": {
          "amenity": "fuel",
          "name": "Hp petrol bunk"
        }
      },
      {
        "type": "node",
        "id": 6624724948,
        "lat": 17.3758566,
        "lon": 78.4947456,
        "tags": {
          "name": "Malakpet",
          "public_transport": "stop_position",
          "ref": "2",
          "train": "yes"
        }
      },
      {
        "type": "node",
        "id": 6652962785,
        "lat": 17.3808647,
        "lon": 78.4857081,
        "tags": {
          "amenity": "fuel",
          "brand": "Indian Oil",
          "brand:wikidata": "Q1289348",
          "brand:wikipedia": "en:Indian Oil Corporation",
          "name": "Indian Oil"
        }
      },
      {
        "type": "node",
        "id": 6652962786,
        "lat": 17.3873482,
        "lon": 78.4772332,
        "tags": {
          "amenity": "fuel",
          "brand": "Indian Oil",
          "brand:wikidata": "Q1289348",
          "brand:wikipedia": "en:Indian Oil Corporation",
          "name": "Indian Oil"
        }
      },
      {
        "type": "node",
        "id": 7195061317,
        "lat": 17.394371,
        "lon": 78.4899387,
        "tags": {
          "name": "Narayanaguda",
          "name:te": "\u0c28\u0c3e\u0c30\u0c3e\u0c2f\u0c23\u0c17\u0c42\u0c21",
          "network": "Hyderabad Metro",
          "note": "Contributors are requested to not edit the \"network\" and the \"operator\" tags. (2023/11/08)",
          "operator": "Hyderabad Metro Rail Limited",
          "public_transport": "stop_position",
          "subway": "yes"
        }
      },
      {
        "type": "node",
        "id": 7206794933,
        "lat": 17.3771708,
        "lon": 78.4939016,
        "tags": {
          "addr:city": "Hyderabad",
          "addr:city:ar": "\u062d\u064a\u062f\u0631 \u0622\u0628\u0627\u062f",
          "addr:city:ur": "\u062d\u06cc\u062f\u0631\u0622\u0628\u0627\u062f",
          "addr:place": "Malakpet",
          "addr:place:ar": "\u0645\u0627\u0644\u0643 \u0628\u064a\u062a",
          "addr:place:ur": "\u0645\u0627\u0644\u06a9 \u067e\u06cc\u0679",
          "alt_name:ur": "\u0645\u0644\u06a9 \u067e\u06cc\u0679",
          "name": "Malakpet",
          "name:ar": "\u0645\u0627\u0644\u0643 \u0628\u064a\u062a",
          "name:te": "\u0c2e\u0c32\u0c15\u0c4d\u200c\u0c2a\u0c47\u0c1f\u0c4d",
          "name:ur": "\u0645\u0627\u0644\u06a9 \u067e\u06cc\u0679",
          "network": "Hyderabad Metro",
          "note": "Contributors are requested to not edit the \"network\" and the \"operator\" tags. (2023/11/08)",
          "operator": "Hyderabad Metro Rail Limited",
          "public_transport": "stop_position",
          "public_transport:version": "2",
          "railway": "stop",
          "subway": "yes"
        }
      },
      {
        "type": "node",
        "id": 7206794945,
        "lat": 17.3797847,
        "lon": 78.4861805,
        "tags": {
          "addr:city": "Hyderabad",
          "addr:city:ar": "\u062d\u064a\u062f\u0631 \u0622\u0628\u0627\u062f",
          "addr:city:ur": "\u062d\u06cc\u062f\u0631\u0622\u0628\u0627\u062f",
          "alt_name": "M. G. Bus Station (Red Line)",
          "name": "Mahatma Gandhi Bus Station (Red Line)",
          "name:te": "\u0c0e\u0c02.\u0c1c\u0c3f. \u0c2c\u0c38\u0c4d. \u0c38\u0c4d\u0c1f\u0c47\u0c37\u0c28\u0c4d",
          "name:ur": "\u0645\u06c1\u0627\u062a\u0645\u0627 \u06af\u0627\u0646\u062f\u06be\u06cc \u0628\u0633 \u0627\u0633\u0679\u06cc\u0634\u0646 (\u0631\u06cc\u0688 \u0644\u0627\u0626\u0646)",
          "network": "Hyderabad Metro",
          "note": "Contributors are requested to not edit the \"network\" and the \"operator\" tags. (2023/11/08)",
          "operator": "Hyderabad Metro Rail Limited",
          "public_transport": "stop_position",
          "public_transport:version": "2",
          "railway": "stop",
          "subway": "yes"
        }
      },
      {
        "type": "node",
        "id": 7208768626,
        "lat": 17.3798572,
        "lon": 78.4862022,
        "tags": {
          "alt_name": "M. G. Bus Station (Red Line)",
          "name": "Mahatma Gandhi Bus Station (Red Line)",
          "name:ml": "\u0d2e\u0d39\u0d3e\u0d24\u0d4d\u0d2e\u0d3e\u0d17\u0d3e\u0d28\u0d4d\u0d27\u0d3f \u0d2c\u0d38\u0d4d \u0d38\u0d4d\u0d31\u0d4d\u0d31\u0d47\u0d37\u0d7b",
          "name:te": "\u0c0e\u0c02.\u0c1c\u0c3f. \u0c2c\u0c38\u0c4d. \u0c38\u0c4d\u0c1f\u0c47\u0c37\u0c28\u0c4d",
          "name:ur": "\u0645\u06c1\u0627\u062a\u0645\u0627 \u06af\u0627\u0646\u062f\u06be\u06cc \u0628\u0633 \u0627\u0633\u0679\u06cc\u0634\u0646 (\u0631\u06cc\u0688 \u0644\u0627\u0626\u0646)",
          "network": "Hyderabad Metro",
          "note": "Contributors are requested to not edit the \"network\" and the \"operator\" tags. (2023/11/08)",
          "operator": "Hyderabad Metro Rail Limited",
          "public_transport": "station",
          "railway": "station",
          "station": "subway",
          "subway": "yes"
        }
      },
      {
        "type": "node",
        "id": 7208768627,
        "lat": 17.3796948,
        "lon": 78.4858635,
        "tags": {
          "alt_name": "M. G. Bus Station (Green Line)",
          "name": "Mahatma Gandhi Bus Station (Green Line)",
          "name:ml": "\u0d2e\u0d39\u0d3e\u0d24\u0d4d\u0d2e\u0d3e\u0d17\u0d3e\u0d28\u0d4d\u0d27\u0d3f \u0d2c\u0d38\u0d4d \u0d38\u0d4d\u0d31\u0d4d\u0d31\u0d47\u0d37\u0d7b",
          "name:te": "\u0c0e\u0c02.\u0c1c\u0c3f. \u0c2c\u0c38\u0c4d. \u0c38\u0c4d\u0c1f\u0c47\u0c37\u0c28\u0c4d",
          "name:ur": "\u0645\u06c1\u0627\u062a\u0645\u0627 \u06af\u0627\u0646\u062f\u06be\u06cc \u0628\u0633 \u0627\u0633\u0679\u06cc\u0634\u0646 (\u06af\u0631\u06cc\u0646 \u0644\u0627\u0626\u0646",
          "network": "Hyderabad Metro",
          "note": "Contributors are requested to not edit the \"network\" and the \"operator\" tags. (2023/11/08)",
          "operator": "Hyderabad Metro Rail Limited",
          "public_transport": "station",
          "railway": "station",
          "station": "subway",
          "subway": "yes"
        }
      },
      {
        "type": "node",
        "id": 7208768628,
        "lat": 17.3771888,
        "lon": 78.4939356,
        "tags": {
          "addr:city": "Hyderabad",
          "addr:city:ar": "\u062d\u064a\u062f\u0631 \u0622\u0628\u0627\u062f",
          "addr:city:ur": "\u062d\u06cc\u062f\u0631\u0622\u0628\u0627\u062f",
          "addr:place": "Malakpet",
          "addr:place:ar": "\u0645\u0627\u0644\u0643 \u0628\u064a\u062a",
          "addr:place:ur": "\u0645\u0627\u0644\u06a9 \u067e\u06cc\u0679",
          "alt_name:ur": "\u0645\u0644\u06a9 \u067e\u06cc\u0679",
          "name": "Malakpet",
          "name:ar": "\u0645\u0627\u0644\u0643 \u0628\u064a\u062a",
          "name:ml": "\u0d2e\u0d32\u0d15\u0d4d\u0d2a\u0d47\u0d1f\u0d4d\u0d1f\u0d4d",
          "name:te": "\u0c2e\u0c32\u0c15\u0c4d\u200c\u0c2a\u0c47\u0c1f\u0c4d",
          "name:ur": "\u0645\u0627\u0644\u06a9 \u067e\u06cc\u0679",
          "network": "Hyderabad Metro",
          "note": "Contributors are requested to not edit the \"network\" and the \"operator\" tags. (2023/11/08)",
          "operator": "Hyderabad Metro Rail Limited",
          "public_transport": "station",
          "railway": "station",
          "station": "subway",
          "subway": "yes",
          "wheelchair": "yes"
        }
      },
      {
        "type": "node",
        "id": 7358663498,
        "lat": 17.3844258,
        "lon": 78.4840519,
        "tags": {
          "name": "Sultan Bazar",
          "name:te": "\u0c38\u0c41\u0c32\u0c4d\u0c24\u0c3e\u0c28\u0c4d \u0c2c\u0c1c\u0c3e\u0c30\u0c4d",
          "network": "Hyderabad Metro",
          "note": "Contributors are requested to not edit the \"network\" and the \"operator\" tags. (2023/11/08)",
          "operator": "Hyderabad Metro Rail Limited",
          "public_transport": "stop_position",
          "subway": "yes"
        }
      },
      {
        "type": "node",
        "id": 7358663499,
        "lat": 17.3844473,
        "lon": 78.4840241,
        "tags": {
          "name": "Sultan Bazar",
          "name:ml": "\u0d38\u0d41\u0d7d\u0d24\u0d4d\u0d24\u0d3e\u0d7b \u0d2c\u0d38\u0d3e\u0d7c",
          "name:te": "\u0c38\u0c41\u0c32\u0c4d\u0c24\u0c3e\u0c28\u0c4d \u0c2c\u0c1c\u0c3e\u0c30\u0c4d",
          "network": "Hyderabad Metro",
          "note": "Contributors are requested to not edit the \"network\" and the \"operator\" tags. (2023/11/08)",
          "operator": "Hyderabad Metro Rail Limited",
          "railway": "station",
          "station": "subway",
          "subway": "yes"
        }
      },
      {
        "type": "node",
        "id": 7358663500,
        "lat": 17.3943607,
        "lon": 78.489976,
        "tags": {
          "name": "Narayanaguda",
          "name:te": "\u0c28\u0c3e\u0c30\u0c3e\u0c2f\u0c23\u0c17\u0c42\u0c21",
          "network": "Hyderabad Metro",
          "note": "Contributors are requested to not edit the \"network\" and the \"operator\" tags. (2023/11/08)",
          "operator": "Hyderabad Metro Rail Limited",
          "public_transport": "stop_position",
          "subway": "yes"
        }
      },
      {
        "type": "node",
        "id": 7358663501,
        "lat": 17.3943658,
        "lon": 78.4899578,
        "tags": {
          "name": "Narayanaguda",
          "name:ml": "\u0d28\u0d3e\u0d30\u0d3e\u0d2f\u0d23\u0d17\u0d41\u0d21",
          "name:te": "\u0c28\u0c3e\u0c30\u0c3e\u0c2f\u0c23\u0c17\u0c42\u0c21",
          "network": "Hyderabad Metro",
          "note": "Contributors are requested to not edit the \"network\" and the \"operator\" tags. (2023/11/08)",
          "operator": "Hyderabad Metro Rail Limited",
          "railway": "station",
          "station": "subway",
          "subway": "yes",
          "wikidata": "Q108874763"
        }
      },
      {
        "type": "node",
        "id": 7632550173,
        "lat": 17.3795945,
        "lon": 78.4858221,
        "tags": {
          "alt_name": "M. G. Bus Station (Green Line)",
          "name": "Mahatma Gandhi Bus Station (Green Line)",
          "name:te": "\u0c0e\u0c02.\u0c1c\u0c3f. \u0c2c\u0c38\u0c4d. \u0c38\u0c4d\u0c1f\u0c47\u0c37\u0c28\u0c4d",
          "name:ur": "\u0645\u06c1\u0627\u062a\u0645\u0627 \u06af\u0627\u0646\u062f\u06be\u06cc \u0628\u0633 \u0627\u0633\u0679\u06cc\u0634\u0646 (\u06af\u0631\u06cc\u0646 \u0644\u0627\u0626\u0646",
          "network": "Hyderabad Metro",
          "note": "Contributors are requested to not edit the \"network\" and the \"operator\" tags. (2023/11/08)",
          "operator": "Hyderabad Metro Rail Limited",
          "public_transport": "stop_position",
          "railway": "stop",
          "subway": "yes"
        }
      },
      {
        "type": "node",
        "id": 7632550174,
        "lat": 17.3796106,
        "lon": 78.4858581,
        "tags": {
          "alt_name": "M. G. Bus Station (Green Line)",
          "name": "Mahatma Gandhi Bus Station (Green Line)",
          "name:te": "\u0c0e\u0c02.\u0c1c\u0c3f. \u0c2c\u0c38\u0c4d. \u0c38\u0c4d\u0c1f\u0c47\u0c37\u0c28\u0c4d",
          "name:ur": "\u0645\u06c1\u0627\u062a\u0645\u0627 \u06af\u0627\u0646\u062f\u06be\u06cc \u0628\u0633 \u0627\u0633\u0679\u06cc\u0634\u0646 (\u06af\u0631\u06cc\u0646 \u0644\u0627\u0626\u0646",
          "network": "Hyderabad Metro",
          "note": "Contributors are requested to not edit the \"network\" and the \"operator\" tags. (2023/11/08)",
          "operator": "Hyderabad Metro Rail Limited",
          "public_transport": "stop_position",
          "railway": "stop",
          "subway": "yes"
        }
      },
      {
        "type": "node",
        "id": 7635652752,
        "lat": 17.3932537,
        "lon": 78.4673086,
        "tags": {
          "name": "Hyderabad Deccan Nampally",
          "name:ur": "\u062d\u06cc\u062f\u0631\u0622\u0628\u0627\u062f \u062f\u06a9\u0646",
          "public_transport": "stop_position",
          "railway": "stop",
          "ref": "6",
          "train": "yes"
        }
      },
      {
        "type": "node",
        "id": 7635652753,
        "lat": 17.393247,
        "lon": 78.467451,
        "tags": {
          "name": "Hyderabad Deccan Nampally",
          "name:ur": "\u062d\u06cc\u062f\u0631\u0622\u0628\u0627\u062f \u062f\u06a9\u0646",
          "public_transport": "stop_position",
          "railway": "stop",
          "ref": "5",
          "train": "yes"
        }
      },
      {
        "type": "node",
        "id": 7635652754,
        "lat": 17.3932459,
        "lon": 78.4674948,
        "tags": {
          "name": "Hyderabad Deccan Nampally",
          "name:ur": "\u062d\u06cc\u062f\u0631\u0622\u0628\u0627\u062f \u062f\u06a9\u0646",
          "public_transport": "stop_position",
          "railway": "stop",
          "ref": "4",
          "train": "yes"
        }
      },
      {
        "type": "node",
        "id": 7635652755,
        "lat": 17.3932426,
        "lon": 78.4675952,
        "tags": {
          "name": "Hyderabad Deccan Nampally",
          "name:ur": "\u062d\u06cc\u062f\u0631\u0622\u0628\u0627\u062f \u062f\u06a9\u0646",
          "public_transport": "stop_position",
          "railway": "stop",
          "ref": "3",
          "train": "yes"
        }
      },
      {
        "type": "node",
        "id": 7635652756,
        "lat": 17.3932435,
        "lon": 78.4676319,
        "tags": {
          "name": "Hyderabad Deccan Nampally",
          "name:ur": "\u062d\u06cc\u062f\u0631\u0622\u0628\u0627\u062f \u062f\u06a9\u0646",
          "public_transport": "stop_position",
          "railway": "stop",
          "ref": "2",
          "train": "yes"
        }
      },
      {
        "type": "node",
        "id": 7635652757,
        "lat": 17.3932391,
        "lon": 78.46779,
        "tags": {
          "name": "Hyderabad Deccan Nampally",
          "name:ur": "\u062d\u06cc\u062f\u0631\u0622\u0628\u0627\u062f \u062f\u06a9\u0646",
          "public_transport": "stop_position",
          "railway": "stop",
          "ref": "1",
          "train": "yes"
        }
      },
      {
        "type": "node",
        "id": 10992500539,
        "lat": 17.3782418,
        "lon": 78.4848364,
        "tags": {
          "amenity": "bus_station",
          "bus": "yes",
          "name": "TSRTC MGBS BUS STAND , HYDERABAD",
          "public_transport": "station"
        }
      },
      {
        "type": "node",
        "id": 10992500540,
        "lat": 17.3777475,
        "lon": 78.4844892,
        "tags": {
          "amenity": "bus_station",
          "bus": "yes",
          "name": "TSRTC MGBS CENTRAL BUS STAND",
          "public_transport": "station"
        }
      },
      {
        "type": "node",
        "id": 11738179187,
        "lat": 17.3823471,
        "lon": 78.4811327,
        "tags": {
          "alt_name": "OMC",
          "internet_access": "no",
          "name": "Osmania Medical College",
          "name:ml": "\u0d09\u0d38\u0d4d\u0d2e\u0d3e\u0d28\u0d3f\u0d2f \u0d2e\u0d46\u0d21\u0d3f\u0d15\u0d4d\u0d15\u0d7d \u0d15\u0d4b\u0d33\u0d47\u0d1c\u0d4d",
          "name:te": "\u0c09\u0c38\u0c4d\u0c2e\u0c3e\u0c28\u0c3f\u0c2f\u0c3e \u0c35\u0c48\u0c26\u0c4d\u0c2f \u0c15\u0c33\u0c3e\u0c36\u0c3e\u0c32",
          "name:ur": "\u0639\u062b\u0645\u0627\u0646\u06cc\u06c1 \u0645\u06cc\u0688\u06cc\u06a9\u0644 \u06a9\u0627\u0644\u062c",
          "network": "Hyderabad Metro",
          "note": "Contributors are requested to not edit the \"network\" and the \"operator\" tags. (2023/11/08)",
          "operator": "Hyderabad Metro Rail Limited",
          "public_transport": "station",
          "railway": "station",
          "station": "subway",
          "subway": "yes",
          "website": "https://hmrl.co.in",
          "wheelchair": "yes",
          "wikidata": "Q83859784"
        }
      },
      {
        "type": "node",
        "id": 11738179188,
        "lat": 17.3923995,
        "lon": 78.4701477,
        "tags": {
          "internet_access": "no",
          "name": "Nampally",
          "name:ml": "\u0d28\u0d3e\u0d2e\u0d4d\u0d2a\u0d33\u0d4d\u0d33\u0d3f",
          "name:te": "\u0c28\u0c3e\u0c02\u0c2a\u0c32\u0c4d\u0c32\u0c3f",
          "name:ur": "\u0646\u0627\u0645\u067e\u0644\u0651\u06cc",
          "network": "Hyderabad Metro",
          "note": "Contributors are requested to not edit the \"network\" and the \"operator\" tags. (2023/11/08)",
          "operator": "Hyderabad Metro Rail Limited",
          "public_transport": "station",
          "railway": "station",
          "station": "subway",
          "subway": "yes",
          "website": "https://hmrl.co.in",
          "wheelchair": "yes",
          "wikidata": "Q63346685"
        }
      },
      {
        "type": "node",
        "id": 11738179194,
        "lat": 17.3861073,
        "lon": 78.4730995,
        "tags": {
          "internet_access": "no",
          "name": "Gandhi Bhavan",
          "name:ml": "\u0d17\u0d3e\u0d28\u0d4d\u0d27\u0d3f \u0d2d\u0d35\u0d7b",
          "name:te": "\u0c17\u0c3e\u0c02\u0c27\u0c40 \u0c2d\u0c35\u0c28\u0c4d",
          "name:ur": "\u06af\u0627\u0646\u062f\u06be\u06cc \u0628\u06be\u0648\u0646",
          "network": "Hyderabad Metro",
          "note": "Contributors are requested to not edit the \"network\" and the \"operator\" tags. (2023/11/08)",
          "operator": "Hyderabad Metro Rail Limited",
          "public_transport": "station",
          "railway": "station",
          "station": "subway",
          "subway": "yes",
          "website": "https://hmrl.co.in",
          "wheelchair": "yes",
          "wikidata": "Q62860405"
        }
      },
      {
        "type": "node",
        "id": 11738179200,
        "lat": 17.3981092,
        "lon": 78.4708176,
        "tags": {
          "internet_access": "no",
          "name": "Assembly",
          "name:ml": "\u0d05\u0d38\u0d02\u0d2c\u0d4d\u0d32\u0d3f",
          "name:te": "\u0c05\u0c38\u0c46\u0c02\u0c2c\u0c4d\u0c32\u0c40",
          "name:ur": "\u0627\u0633\u0645\u0628\u0644\u06cc",
          "network": "Hyderabad Metro",
          "note": "Contributors are requested to not edit the \"network\" and the \"operator\" tags. (2023/11/08)",
          "operator": "Hyderabad Metro Rail Limited",
          "public_transport": "station",
          "railway": "station",
          "station": "subway",
          "subway": "yes",
          "website": "https://hmrl.co.in",
          "wheelchair": "yes",
          "wikidata": "Q83718950"
        }
      },
      {
        "type": "node",
        "id": 11738179219,
        "lat": 17.3982698,
        "lon": 78.4707738,
        "tags": {
          "addr:city": "Hyderabad",
          "addr:city:ar": "\u062d\u064a\u062f\u0631 \u0622\u0628\u0627\u062f",
          "addr:city:ur": "\u062d\u06cc\u062f\u0631\u0622\u0628\u0627\u062f",
          "name": "Assembly",
          "name:ml": "\u0d05\u0d38\u0d02\u0d2c\u0d4d\u0d32\u0d3f",
          "name:te": "\u0c05\u0c38\u0c46\u0c02\u0c2c\u0c4d\u0c32\u0c40",
          "network": "Hyderabad Metro",
          "note": "Contributors are requested to not edit the \"network\" and the \"operator\" tags. (2023/11/08)",
          "operator": "Hyderabad Metro Rail Limited",
          "public_transport": "stop_position",
          "public_transport:version": "2",
          "railway": "stop",
          "subway": "yes"
        }
      },
      {
        "type": "node",
        "id": 11738179220,
        "lat": 17.3927365,
        "lon": 78.4701615,
        "tags": {
          "addr:city": "Hyderabad",
          "addr:city:ar": "\u062d\u064a\u062f\u0631 \u0622\u0628\u0627\u062f",
          "addr:city:ur": "\u062d\u06cc\u062f\u0631\u0622\u0628\u0627\u062f",
          "name": "Nampally",
          "name:ml": "\u0d28\u0d3e\u0d2e\u0d4d\u0d2a\u0d33\u0d4d\u0d33\u0d3f",
          "name:te": "\u0c28\u0c3e\u0c02\u0c2a\u0c32\u0c4d\u0c32\u0c3f",
          "network": "Hyderabad Metro",
          "note": "Contributors are requested to not edit the \"network\" and the \"operator\" tags. (2023/11/08)",
          "operator": "Hyderabad Metro Rail Limited",
          "public_transport": "stop_position",
          "public_transport:version": "2",
          "railway": "stop",
          "subway": "yes"
        }
      },
      {
        "type": "node",
        "id": 11738179221,
        "lat": 17.3863645,
        "lon": 78.4728752,
        "tags": {
          "addr:city": "Hyderabad",
          "addr:city:ar": "\u062d\u064a\u062f\u0631 \u0622\u0628\u0627\u062f",
          "addr:city:ur": "\u062d\u06cc\u062f\u0631\u0622\u0628\u0627\u062f",
          "name": "Gandhi Bhavan",
          "name:ml": "\u0d17\u0d3e\u0d28\u0d4d\u0d27\u0d3f \u0d2d\u0d35\u0d7b",
          "name:te": "\u0c17\u0c3e\u0c02\u0c27\u0c40 \u0c2d\u0c35\u0c28\u0c4d",
          "network": "Hyderabad Metro",
          "note": "Contributors are requested to not edit the \"network\" and the \"operator\" tags. (2023/11/08)",
          "operator": "Hyderabad Metro Rail Limited",
          "public_transport": "stop_position",
          "public_transport:version": "2",
          "railway": "stop",
          "subway": "yes"
        }
      },
      {
        "type": "node",
        "id": 11738179222,
        "lat": 17.3824963,
        "lon": 78.4807152,
        "tags": {
          "addr:city": "Hyderabad",
          "addr:city:ar": "\u062d\u064a\u062f\u0631 \u0622\u0628\u0627\u062f",
          "addr:city:ur": "\u062d\u06cc\u062f\u0631\u0622\u0628\u0627\u062f",
          "alt_name": "OMC",
          "name": "Osmania Medical College",
          "name:ml": "\u0d09\u0d38\u0d4d\u0d2e\u0d3e\u0d28\u0d3f\u0d2f \u0d2e\u0d46\u0d21\u0d3f\u0d15\u0d4d\u0d15\u0d7d \u0d15\u0d4b\u0d33\u0d47\u0d1c\u0d4d",
          "name:te": "\u0c09\u0c38\u0c4d\u0c2e\u0c3e\u0c28\u0c3f\u0c2f\u0c3e \u0c35\u0c48\u0c26\u0c4d\u0c2f \u0c15\u0c33\u0c3e\u0c36\u0c3e\u0c32",
          "network": "Hyderabad Metro",
          "note": "Contributors are requested to not edit the \"network\" and the \"operator\" tags. (2023/11/08)",
          "operator": "Hyderabad Metro Rail Limited",
          "public_transport": "stop_position",
          "public_transport:version": "2",
          "railway": "stop",
          "subway": "yes"
        }
      },
      {
        "type": "node",
        "id": 11774365337,
        "lat": 17.3733667,
        "lon": 78.4785666,
        "tags": {
          "amenity": "fuel",
          "brand": "Bharat Petroleum",
          "brand:wikidata": "Q854826",
          "check_date": "2024-03-31",
          "name": "Bharat Petroleum"
        }
      },
      {
        "type": "node",
        "id": 11774365338,
        "lat": 17.3847326,
        "lon": 78.4743828,
        "tags": {
          "amenity": "fuel",
          "brand": "Bharat Petroleum",
          "brand:wikidata": "Q854826",
          "check_date": "2025-01-07",
          "check_date:compressed_air": "2025-01-07",
          "compressed_air": "yes",
          "name": "Bharat Petroleum"
        }
      },
      {
        "type": "node",
        "id": 11774365339,
        "lat": 17.3943492,
        "lon": 78.4700623,
        "tags": {
          "amenity": "fuel",
          "check_date": "2024-03-31",
          "fuel:cng": "yes",
          "name": "Extra Gas"
        }
      }
    ]
  }
}