{
  "pois_1km": {
    "version": 0.6,
    "generator": "Overpass API 0.7.62.8 e802775f",
    "osm3s": {
      "timestamp_osm_base": "2025-09-06T08:36:59Z",
      "copyright": "The data included in this document is from www.openstreetmap.org. The data is made available under ODbL."
    },
    "elements": [
      {
        "type": "node",
        "id": 898965110,
        "lat": 17.3921498,
        "lon": 78.4793651,
        "tags": {
          "addr:district": "Hyderabad",
          "addr:full": "D.No: 4-1-1230, Opp. YWCA, Abids Road, Bogulkunta",
          "addr:postcode": "500001",
          "addr:state": "Telangana",
          "amenity": "hospital",
          "name": "Fernandez Hospital",
          "phone": "040 40222300",
          "source": "OpenGovernmentData",
          "website": "https://www.fernandezhospital.com"
        }
      },
      {
        "type": "node",
        "id": 1553576907,
        "lat": 17.394923,
        "lon": 78.4776275,
        "tags": {
          "amenity": "fast_food",
          "cuisine": "ice_cream",
          "name": "SoftyDen Ice Creams"
        }
      },
      {
        "type": "node",
        "id": 1553576934,
        "lat": 17.3993955,
        "lon": 78.4792005,
        "tags": {
          "addr:district": "Hyderabad",
          "addr:full": "3-5-836/1 to 3-5-838, Old MLA Quarters Road, Hyderguda",
          "addr:postcode": "500029",
          "addr:state": "Telangana",
          "amenity": "hospital",
          "emergency": "yes",
          "fax": "23388399",
          "name": "Apollo Emergency Hospital",
          "name:te": "\u0c05\u0c2a\u0c4b\u0c32\u0c4b \u0c0e\u0c2e\u0c30\u0c4d\u0c1c\u0c46\u0c28\u0c4d\u0c38\u0c40 \u0c39\u0c3e\u0c38\u0c4d\u0c2a\u0c3f\u0c1f\u0c32\u0c4d",
          "source": "OpenGovernmentData"
        }
      },
      {
        "type": "node",
        "id": 1932925761,
        "lat": 17.399719,
        "lon": 78.4785769,
        "tags": {
          "amenity": "restaurant",
          "cuisine": "indian",
          "designation": "Hyderabadi",
          "name": "Cafe Bahar",
          "wikidata": "Q5017090",
          "wikipedia": "en:Cafe Bahar"
        }
      },
      {
        "type": "node",
        "id": 2217968803,
        "lat": 17.3886782,
        "lon": 78.4737943,
        "tags": {
          "amenity": "atm",
          "name": "YES Bank"
        }
      },
      {
        "type": "node",
        "id": 2217968806,
        "lat": 17.3871402,
        "lon": 78.4760952,
        "tags": {
          "amenity": "atm",
          "name": "State Bank"
        }
      },
      {
        "type": "node",
        "id": 2261567007,
        "lat": 17.3871359,
        "lon": 78.4776933,
        "tags": {
          "addr:city": "Hyderabad",
          "addr:street": "abids",
          "amenity": "restaurant",
          "cuisine": "indian",
          "name": "Santhosh Dhaba"
        }
      },
      {
        "type": "node",
        "id": 2432111519,
        "lat": 17.4000853,
        "lon": 78.4682654,
        "tags": {
          "amenity": "cafe"
        }
      },
      {
        "type": "node",
        "id": 3146940006,
        "lat": 17.4015473,
        "lon": 78.475489,
        "tags": {
          "amenity": "bank",
          "brand:wikidata": "Q2004088",
          "name": "Syndicate Bank",
          "name:en": "Syndicate Bank",
          "website": "https://www.syndicatebank.in",
          "wikidata": "Q2004088",
          "wikimedia_commons": "Category:Syndicate Bank",
          "wikipedia": "en:Syndicate Bank"
        }
      },
      {
        "type": "node",
        "id": 3244256004,
        "lat": 17.3937267,
        "lon": 78.4812179,
        "tags": {
          "addr:housenumber": "D.No:3-5-784/A/2",
          "addr:postcode": "500029",
          "addr:street": "Opp Parda Gate King Koti Road",
          "amenity": "bank",
          "atm": "yes",
          "brand": "SBI",
          "brand:wikidata": "Q1340361",
          "brand:wikipedia": "en:State Bank of India",
          "name": "State Bank of India",
          "operator": "State Bank of India",
          "phone": "040 2323 4848",
          "short_name": "SBI"
        }
      },
      {
        "type": "node",
        "id": 3312372791,
        "lat": 17.3935142,
        "lon": 78.4786104,
        "tags": {
          "amenity": "atm",
          "name": "Lekshmi Vilas ATM"
        }
      },
      {
        "type": "node",
        "id": 3312374439,
        "lat": 17.3936044,
        "lon": 78.4812223,
        "tags": {
          "amenity": "atm",
          "name": "SBI ATM"
        }
      },
      {
        "type": "node",
        "id": 3312374440,
        "lat": 17.3939835,
        "lon": 78.4787602,
        "tags": {
          "amenity": "atm",
          "name": "ATM",
          "operator": "Indian Bank"
        }
      },
      {
        "type": "node",
        "id": 3619374555,
        "lat": 17.391896,
        "lon": 78.4768306,
        "tags": {
          "addr:city": "Hyderbad",
          "addr:state": "Telangana",
          "amenity": "restaurant",
          "name": "Taj Mahal Hotel"
        }
      },
      {
        "type": "node",
        "id": 4187312689,
        "lat": 17.3948038,
        "lon": 78.4753885,
        "tags": {
          "addr:city": "Hyderbad",
          "addr:state": "Telangana",
          "amenity": "bank",
          "brand:wikidata": "Q1340361",
          "brand:wikipedia": "en:State Bank of India",
          "historic": "yes",
          "name": "State Bank of India",
          "name:ur": "\u0627\u0633\u0679\u06cc\u0679 \u0628\u06cc\u0646\u06a9 \u0622\u0641 \u0627\u0646\u0688\u06cc\u0627",
          "old_name": "State Bank of Hyderabad",
          "short_name": "SBI",
          "website": "https://www.sbi.co.in"
        }
      },
      {
        "type": "node",
        "id": 4413152990,
        "lat": 17.4012421,
        "lon": 78.471645,
        "tags": {
          "amenity": "atm"
        }
      },
      {
        "type": "node",
        "id": 4464602993,
        "lat": 17.392811,
        "lon": 78.4748836,
        "tags": {
          "amenity": "atm",
          "operator": "sbi"
        }
      },
      {
        "type": "node",
        "id": 4499582389,
        "lat": 17.3882646,
        "lon": 78.4770354,
        "tags": {
          "amenity": "restaurant",
          "name": "Grand",
          "name:en": "Grand"
        }
      },
      {
        "type": "node",
        "id": 4589307297,
        "lat": 17.3934109,
        "lon": 78.4786483,
        "tags": {
          "amenity": "atm",
          "opening_hours": "24/7",
          "operator": "Indian Overseas Bank"
        }
      },
      {
        "type": "node",
        "id": 4589343192,
        "lat": 17.3949996,
        "lon": 78.4781294,
        "tags": {
          "amenity": "atm",
          "opening_hours": "24/7",
          "operator": "South Indian Bank"
        }
      },
      {
        "type": "node",
        "id": 4592533689,
        "lat": 17.3887372,
        "lon": 78.4772678,
        "tags": {
          "name": "Big Bazar",
          "name:en": "Big Bazar",
          "operator": "Big Bazar",
          "shop": "supermarket"
        }
      },
      {
        "type": "node",
        "id": 4592534489,
        "lat": 17.3947073,
        "lon": 78.4754676,
        "tags": {
          "amenity": "atm",
          "name:ur": "\u0627\u0633\u0679\u06cc\u0679 \u0628\u06cc\u0646\u06a9 \u0622\u0641 \u0627\u0646\u0688\u06cc\u0627",
          "operator": "State Bank"
        }
      },
      {
        "type": "node",
        "id": 4982960923,
        "lat": 17.3930912,
        "lon": 78.4759348,
        "tags": {
          "amenity": "fast_food",
          "brand": "McDonald's",
          "brand:pa": "\u0a2e\u0a48\u0a15\u0a21\u0a4b\u0a28\u0a32\u0a21\u2019\u0a1c\u0a3c",
          "brand:ur": "\u0645\u06a9\u0688\u0648\u0646\u0644\u0688\u0632",
          "brand:wikidata": "Q38076",
          "brand:wikipedia": "en:McDonald's",
          "brand:wikipedia:pa": "\u0a2e\u0a48\u0a15\u0a21\u0a4b\u0a28\u0a32\u0a21\u2019\u0a1c\u0a3c",
          "brand:wikipedia:ur": "\u0645\u06a9\u0688\u0648\u0646\u0644\u0688\u0632",
          "cuisine": "burger",
          "name": "McDonald's",
          "name:pa": "\u0a2e\u0a48\u0a15\u0a21\u0a4b\u0a28\u0a32\u0a21\u2019\u0a1c\u0a3c",
          "name:ur": "\u0645\u06a9\u0688\u0648\u0646\u0644\u0688\u0632",
          "takeaway": "yes"
        }
      },
      {
        "type": "node",
        "id": 4987518821,
        "lat": 17.3950308,
        "lon": 78.4758292,
        "tags": {
          "amenity": "fast_food",
          "brand": "KFC",
          "brand:pa": "\u0a15\u0a47\u0a10\u0a2b\u0a38\u0a40",
          "brand:ur": "\u06a9\u06cc\u0646\u0679\u06a9\u06cc \u0641\u0631\u0627\u0626\u06cc\u0688 \u0686\u06a9\u0646",
          "brand:wikidata": "Q524757",
          "brand:wikipedia": "en:KFC",
          "brand:wikipedia:pa": "\u0a15\u0a47\u0a10\u0a2b\u0a38\u0a40",
          "brand:wikipedia:ur": "\u06a9\u06cc\u0646\u0679\u06a9\u06cc \u0641\u0631\u0627\u0626\u06cc\u0688 \u0686\u06a9\u0646",
          "cuisine": "chicken",
          "name": "KFC",
          "name:pa": "\u0a15\u0a47\u0a10\u0a2b\u0a38\u0a40",
          "name:ur": "\u06a9\u06cc\u0646\u0679\u06a9\u06cc \u0641\u0631\u0627\u0626\u06cc\u0688 \u0686\u06a9\u0646",
          "takeaway": "yes"
        }
      },
      {
        "type": "node",
        "id": 6208287189,
        "lat": 17.3866112,
        "lon": 78.4724462,
        "tags": {
          "amenity": "atm",
          "operator": "Andhra Bank"
        }
      },
      {
        "type": "node",
        "id": 6208309185,
        "lat": 17.3868358,
        "lon": 78.4720854,
        "tags": {
          "amenity": "restaurant",
          "name": "Hotel Shezan"
        }
      },
      {
        "type": "node",
        "id": 6208309285,
        "lat": 17.389026,
        "lon": 78.4705949,
        "tags": {
          "amenity": "restaurant",
          "name": "Hotel Aadab"
        }
      },
      {
        "type": "node",
        "id": 6209990986,
        "lat": 17.3964405,
        "lon": 78.4655285,
        "tags": {
          "amenity": "pharmacy",
          "name": "S K MEDICALS"
        }
      },
      {
        "type": "node",
        "id": 6211085686,
        "lat": 17.3933858,
        "lon": 78.4651641,
        "tags": {
          "amenity": "atm",
          "operator": "BOI"
        }
      },
      {
        "type": "node",
        "id": 6211085986,
        "lat": 17.393693,
        "lon": 78.4652819,
        "tags": {
          "amenity": "atm",
          "operator": "ICICI"
        }
      },
      {
        "type": "node",
        "id": 6211086085,
        "lat": 17.3944846,
        "lon": 78.4657651,
        "tags": {
          "amenity": "atm",
          "operator": "State Bank Of India"
        }
      },
      {
        "type": "node",
        "id": 6211086385,
        "lat": 17.393626,
        "lon": 78.4652583,
        "tags": {
          "amenity": "atm",
          "operator": "SBI"
        }
      },
      {
        "type": "node",
        "id": 6211087085,
        "lat": 17.3934378,
        "lon": 78.4651784,
        "tags": {
          "amenity": "atm",
          "operator": "Andhra Bank"
        }
      },
      {
        "type": "node",
        "id": 6216842785,
        "lat": 17.3958608,
        "lon": 78.465996,
        "tags": {
          "amenity": "fast_food",
          "name": "Raghavendra Chips Shop"
        }
      },
      {
        "type": "node",
        "id": 6216842786,
        "lat": 17.3947279,
        "lon": 78.4655695,
        "tags": {
          "amenity": "fast_food",
          "name": "Tiffins"
        }
      },
      {
        "type": "node",
        "id": 6216842985,
        "lat": 17.3924442,
        "lon": 78.4648531,
        "tags": {
          "amenity": "cafe"
        }
      },
      {
        "type": "node",
        "id": 6219027188,
        "lat": 17.3960512,
        "lon": 78.4656063,
        "tags": {
          "addr:city": "Hyderabad",
          "addr:postcode": "500004",
          "addr:street": "Red Hills Road",
          "amenity": "clinic",
          "name": "Red Hills Poly Clinic",
          "payment:cash": "yes",
          "source": "OpenGovernmentData"
        }
      },
      {
        "type": "node",
        "id": 6254336889,
        "lat": 17.3889575,
        "lon": 78.4806808,
        "tags": {
          "amenity": "fast_food",
          "name": "Mayur Pan Shop"
        }
      },
      {
        "type": "node",
        "id": 6254339285,
        "lat": 17.3916834,
        "lon": 78.4654813,
        "tags": {
          "amenity": "restaurant",
          "name": "Yousufuan"
        }
      },
      {
        "type": "node",
        "id": 6255329590,
        "lat": 17.3911253,
        "lon": 78.4776842,
        "tags": {
          "amenity": "restaurant",
          "name": "Santosh Daba"
        }
      },
      {
        "type": "node",
        "id": 6399884540,
        "lat": 17.3924917,
        "lon": 78.4696426,
        "tags": {
          "amenity": "cafe",
          "payment:cash": "yes"
        }
      },
      {
        "type": "node",
        "id": 6407554284,
        "lat": 17.3974388,
        "lon": 78.4688357,
        "tags": {
          "addr:city": "Red Hills, Lakdikapul, Hyderabad",
          "addr:postcode": "500004",
          "addr:street": "Public Garden",
          "leisure": "park",
          "name": "T R Ujna Park"
        }
      },
      {
        "type": "node",
        "id": 6479934028,
        "lat": 17.3969132,
        "lon": 78.4722613,
        "tags": {
          "addr:district": "Hyderabad",
          "addr:full": "5 - 9 - 94, Chapel Road",
          "addr:postcode": "500001",
          "addr:state": "Telangana",
          "amenity": "hospital",
          "healthcare": "hospital",
          "healthcare:speciality": "orthopaedics",
          "name": "Udai Omni Hospital",
          "operator:type": "private",
          "phone": "+91 40 23232226;+9140 23233195",
          "source": "OpenGovernmentData",
          "website": "https://udaiomni.com/"
        }
      },
      {
        "type": "node",
        "id": 6481952537,
        "lat": 17.3854315,
        "lon": 78.4747114,
        "tags": {
          "addr:district": "Hyderabad",
          "addr:full": "Opp. Exhibition Grounds Road, Nampally, Chandra Viha, Kattel Mandi, Abids",
          "addr:postcode": "500001",
          "addr:state": "Telangana",
          "amenity": "hospital",
          "contact:email": "info@carehospitals.com",
          "emergency_telephone_code": "040 30417777",
          "health_facility:type": "Blood Bank;Ambulance;Emergency Room;Food;Pharmacy;Day Care",
          "healthcare:speciality": "multi speciality",
          "medical_system": "Allopathic",
          "name": "Care Hospital, Nampally",
          "operator:type": "private",
          "phone": "040 30417777",
          "source": "OpenGovernmentData",
          "website": "https://www.carehospitals.com/"
        }
      },
      {
        "type": "node",
        "id": 6481959033,
        "lat": 17.3851141,
        "lon": 78.4754102,
        "tags": {
          "addr:district": "Hyderabad",
          "addr:full": "5-4-183 To 199, Twin City Market Complex, Moazam Jahi Market",
          "addr:postcode": "500001",
          "addr:state": "Telangana",
          "amenity": "hospital",
          "fax": "040 24744223",
          "name": "Aarogya Hospital",
          "source": "OpenGovernmentData"
        }
      },
      {
        "type": "node",
        "id": 6496907674,
        "lat": 17.3913737,
        "lon": 78.4757126,
        "tags": {
          "addr:district": "Hyderabad",
          "addr:full": "5-8-535, Beside Santosh Sapna Theatre, Abids Road",
          "addr:postcode": "500001",
          "addr:state": "Telangana",
          "amenity": "hospital",
          "email": "info@shantabainursinghome.com",
          "health_facility:type": "24 Hour Obstetric Care;24 Hour General Surgical Care;Intrauterine Insemination;Diagnostic Lab;Well Equipped OT;In House Pharmacy;Ultrasound",
          "healthcare:speciality": "Obstetrics;Gynecology;Infertility;Pediatrics;General Surgery;Laparoscopy;Radiology;General Medicine",
          "medical_system": "Allopathic",
          "name": "Dr.Shantabai Nursing Home",
          "operator:type": "private",
          "phone": "040 23202163;040 23203339;040 64603339",
          "source": "OpenGovernmentData",
          "website": "https://www.shantabainursinghome.com/"
        }
      },
      {
        "type": "node",
        "id": 6505352702,
        "lat": 17.3967872,
        "lon": 78.4728447,
        "tags": {
          "addr:district": "Hyderabad",
          "addr:full": "H.No. 5-9-83/B, Ramchander House, Chapel Road, Lane Opposite LB Stadium & Public Gardens, Nampally",
          "addr:state": "Telangana",
          "amenity": "hospital",
          "contact:email": "info@neoretina.com",
          "contact:mobile": "9177410004; 7207040566",
          "contact:phone": "040 23236666",
          "medical_system": "Allopathic",
          "name": "Neo Retina Eye Care",
          "operator:type": "private",
          "source": "OpenGovernmentData",
          "website": "https://neoretina.com"
        }
      },
      {
        "type": "node",
        "id": 6513234521,
        "lat": 17.3854802,
        "lon": 78.4752171,
        "tags": {
          "addr:district": "Hyderabad",
          "addr:full": "Twin City Market, 5-4-183 To 199, Moazamjahi Market",
          "addr:postcode": "500001",
          "addr:state": "Telangana",
          "amenity": "hospital",
          "name": "Kailash Diagnostic and Rehabilitation Center",
          "source": "OpenGovernmentData"
        }
      },
      {
        "type": "node",
        "id": 6549028392,
        "lat": 17.3932243,
        "lon": 78.481999,
        "tags": {
          "addr:district": "Hyderabad",
          "addr:place": "King Koti",
          "addr:state": "Telangana",
          "addr:street": "King Koti",
          "addr:subdistrict": "Nampally",
          "amenity": "hospital",
          "healthcare": "hospital",
          "name": "District Hospital, King Koti",
          "operational_status": "operational",
          "operator:type": "government",
          "source": "OpenDataTelangana"
        }
      },
      {
        "type": "node",
        "id": 6549186461,
        "lat": 17.3910435,
        "lon": 78.4712635,
        "tags": {
          "addr:city": "Hyderabad",
          "addr:full": "H.No: 5-8-/105/A, Behind Kamath Hotel, Station Road, Nampally",
          "addr:postcode": "500001",
          "addr:state": "Telangana",
          "amenity": "hospital",
          "contact:phone": "4066734111",
          "name": "RAMA EYE HOSPITAL",
          "operator:type": "private",
          "source": "OpenGovernmentData"
        }
      },
      {
        "type": "node",
        "id": 6562402576,
        "lat": 17.3929299,
        "lon": 78.4797553,
        "tags": {
          "addr:district": "Hyderabad",
          "addr:full": "4-1-1226, Boggulakunta, King Koti, Abids",
          "addr:postcode": "500001",
          "addr:state": "Telangana",
          "amenity": "hospital",
          "contact:mobile": "94910 68784",
          "email": "life@kaminenifertility.com",
          "fax": "040 24764242",
          "health_facility:type": "Emergency Services and Facilities; Ambulances; Blood Bank",
          "healthcare:speciality": "Assisted Reproductive Technology; Counselling; Cryopreservation Freezing ; Andrology; Pre Implantation Genetic Diagnostics; Diagnostics; Surgical Procedures",
          "medical_system": "Allopathic",
          "name": "Kamineni Fertility Centre",
          "operator:type": "private",
          "phone": "040 2476 7777",
          "source": "OpenGovernmentData",
          "website": "https://www.kaminenifertility.com/"
        }
      },
      {
        "type": "node",
        "id": 6567311932,
        "lat": 17.3893491,
        "lon": 78.4734696,
        "tags": {
          "addr:district": "Hyderabad",
          "addr:full": "5-4-446, Nampally Station Road, Abids",
          "addr:postcode": "500001",
          "addr:state": "Telangana",
          "amenity": "hospital",
          "fixme": "Please verify the accurate position of the hospital as I have mapped the facility based on the address provided in Open Government data",
          "name": "Jayanti Maternity and Nursing Home",
          "source": "OpenGovernmentData"
        }
      },
      {
        "type": "node",
        "id": 6652963985,
        "lat": 17.3889925,
        "lon": 78.4715569,
        "tags": {
          "amenity": "bank",
          "name": "State Bank of India (SBI)"
        }
      },
      {
        "type": "node",
        "id": 6811748986,
        "lat": 17.3911402,
        "lon": 78.4803374,
        "tags": {
          "addr:district": "Hyderabad",
          "addr:full": "4-1-1198, Tilak Road, Near Hyderabad Dental Hospital, Boggulakunta",
          "addr:state": "Telangana",
          "addr:subdistrict": "Nampally",
          "amenity": "clinic",
          "healthcare": "centre",
          "name": "Urban Primary Health Centre, Boggulakunta",
          "source": "OpenGovernmentData"
        }
      },
      {
        "type": "node",
        "id": 6811749078,
        "lat": 17.393183,
        "lon": 78.478429,
        "tags": {
          "addr:district": "Hyderabad",
          "addr:full": "Near St. George's Degree College, King Koti Road, Bogulkunta, Hyderguda",
          "addr:postcode": "500001",
          "addr:state": "Telangana",
          "amenity": "doctors",
          "name": "Dr. Bajrang Pratap's Clinic",
          "source": "OpenGovernmentData"
        }
      },
      {
        "type": "node",
        "id": 6811749162,
        "lat": 17.395099,
        "lon": 78.480103,
        "tags": {
          "addr:district": "Hyderabad",
          "addr:full": "Raja Reddy Marg, King Koti, Basheer Bagh",
          "addr:postcode": "500001",
          "addr:state": "Telangana",
          "amenity": "doctors",
          "name": "Dr. Asha Khivsara's Clinic",
          "source": "OpenGovernmentData"
        }
      },
      {
        "type": "node",
        "id": 6822126483,
        "lat": 17.3915423,
        "lon": 78.4652788,
        "tags": {
          "amenity": "restaurant",
          "name": "Angaara5 Restaurant",
          "source": "survey"
        }
      },
      {
        "type": "node",
        "id": 11774365340,
        "lat": 17.3941792,
        "lon": 78.4699201,
        "tags": {
          "amenity": "bank",
          "brand": "Union Bank of India",
          "brand:wikidata": "Q2004078",
          "check_date": "2024-03-31",
          "name": "Union Bank of India"
        }
      },
      {
        "type": "node",
        "id": 11936085021,
        "lat": 17.390049,
        "lon": 78.4811485,
        "tags": {
          "addr:district": "Hyderabad",
          "addr:place": "Himayatha Nagar",
          "addr:state": "Telangana",
          "addr:street": "Tilak Road",
          "addr:subdistrict": "Nampally",
          "amenity": "clinic",
          "healthcare": "clinic",
          "name": "Urban Primary Health Centre, Boggulakunta",
          "operational_status": "operational",
          "operator:type": "government",
          "source": "OpenDataTelangana"
        }
      },
      {
        "type": "node",
        "id": 11942629822,
        "lat": 17.3913867,
        "lon": 78.4783334,
        "tags": {
          "addr:district": "Hyderabad",
          "addr:place": "Koti Busstop",
          "addr:state": "Telangana",
          "addr:street": "Himayatha Nagar",
          "addr:subdistrict": "Nampally",
          "amenity": "clinic",
          "healthcare": "clinic",
          "name": "Urban Primary Health Centre, Sultan Bazar",
          "operational_status": "operational",
          "operator:type": "government",
          "source": "OpenDataTelangana"
        }
      }
    ]
  },
  "pois_2_5km": {
    "version": 0.6,
    "generator": "Overpass API 0.7.62.8 e802775f",
    "osm3s": {
      "timestamp_osm_base": "2025-09-06T08:36:59Z",
      "copyright": "The data included in this document is from www.openstreetmap.org. The data is made available under ODbL."
    },
    "elements": [
      {
        "type": "node",
        "id": 289656763,
        "lat": 17.3924223,
        "lon": 78.4675956,
        "tags": {
          "internet_access": "no",
          "name": "Hyderabad Deccan Nampally",
          "name:te": "\u0c39\u0c48\u0c26\u0c30\u0c3e\u0c2c\u0c3e\u0c26\u0c4d \u0c26\u0c15\u0c4d\u0c15\u0c28\u0c4d \u0c28\u0c3e\u0c02\u0c2a\u0c32\u0c4d\u0c32\u0c3f",
          "name:ur": "\u062d\u06cc\u062f\u0631\u0622\u0628\u0627\u062f \u062f\u06a9\u0646",
          "network": "IR",
          "operator": "SCR",
          "platforms": "6",
          "railway": "station",
          "ref": "HYB",
          "train": "yes",
          "wheelchair": "limited",
          "wikidata": "Q3633967",
          "wikipedia": "en:Hyderabad Deccan railway station"
        }
      },
      {
        "type": "node",
        "id": 308792901,
        "lat": 17.4080669,
        "lon": 78.4697587,
        "tags": {
          "amenity": "fuel",
          "name": "HP",
          "name:te": "\u0c39\u0c46\u0c1a\u0c4d \u0c2a\u0c3f",
          "operator": "Telangana Civil Supplies"
        }
      },
      {
        "type": "node",
        "id": 626897410,
        "lat": 17.3730067,
        "lon": 78.4766562,
        "tags": {
          "amenity": "bus_station",
          "bus": "yes",
          "name": "Afzalgunj",
          "public_transport": "station"
        }
      },
      {
        "type": "node",
        "id": 636456848,
        "lat": 17.3992059,
        "lon": 78.4928268,
        "tags": {
          "amenity": "cinema",
          "name": "Venkatesa Cinema Theatre"
        }
      },
      {
        "type": "node",
        "id": 677300639,
        "lat": 17.3980757,
        "lon": 78.492579,
        "tags": {
          "amenity": "cinema",
          "name": "Deepak Theatre"
        }
      },
      {
        "type": "node",
        "id": 728853927,
        "lat": 17.3953109,
        "lon": 78.4690741,
        "tags": {
          "amenity": "theatre",
          "name": "Lalita Kala Thoranam",
          "name:te": "\u0c32\u0c32\u0c3f\u0c24 \u0c15\u0c33\u0c3e \u0c24\u0c4b\u0c30\u0c23\u0c02"
        }
      },
      {
        "type": "node",
        "id": 1038351374,
        "lat": 17.3861153,
        "lon": 78.4763073,
        "tags": {
          "amenity": "cinema",
          "name": "Ramakrishna Theatre"
        }
      },
      {
        "type": "node",
        "id": 1152688354,
        "lat": 17.4073584,
        "lon": 78.4555516,
        "tags": {
          "amenity": "theatre"
        }
      },
      {
        "type": "node",
        "id": 1259088726,
        "lat": 17.4115781,
        "lon": 78.4610668,
        "tags": {
          "amenity": "fuel"
        }
      },
      {
        "type": "node",
        "id": 1779029058,
        "lat": 17.4040544,
        "lon": 78.4638899,
        "tags": {
          "amenity": "fuel"
        }
      },
      {
        "type": "node",
        "id": 2052621892,
        "lat": 17.4031013,
        "lon": 78.4624993,
        "tags": {
          "amenity": "fuel"
        }
      },
      {
        "type": "node",
        "id": 2174747681,
        "lat": 17.4047659,
        "lon": 78.4627335,
        "tags": {
          "name": "Lakdi-ka-pul",
          "public_transport": "stop_position",
          "railway": "stop",
          "ref": "1",
          "train": "yes"
        }
      },
      {
        "type": "node",
        "id": 2233018548,
        "lat": 17.3814163,
        "lon": 78.4828118,
        "tags": {
          "amenity": "fuel"
        }
      },
      {
        "type": "node",
        "id": 2390894266,
        "lat": 17.4003684,
        "lon": 78.4948742,
        "tags": {
          "name": "Chikkadpally",
          "name:ml": "\u0d1a\u0d3f\u0d15\u0d4d\u0d15\u0d1f\u0d2a\u0d4d\u0d2a\u0d33\u0d4d\u0d33\u0d3f",
          "name:te": "\u0c1a\u0c3f\u0c15\u0c4d\u0c15\u0c21\u0c2a\u0c32\u0c4d\u0c32\u0c3f",
          "network": "Hyderabad Metro",
          "note": "Contributors are requested to not edit the \"network\" and the \"operator\" tags. (2023/11/08)",
          "operator": "Hyderabad Metro Rail Limited",
          "public_transport": "stop_position",
          "subway": "yes"
        }
      },
      {
        "type": "node",
        "id": 2422989049,
        "lat": 17.3821199,
        "lon": 78.4816145,
        "tags": {
          "addr:city": "Hyderabad",
          "addr:city:ar": "\u062d\u064a\u062f\u0631 \u0622\u0628\u0627\u062f",
          "addr:city:ur": "\u062d\u06cc\u062f\u0631\u0622\u0628\u0627\u062f",
          "alt_name": "OMC",
          "name": "Osmania Medical College",
          "name:ml": "\u0d09\u0d38\u0d4d\u0d2e\u0d3e\u0d28\u0d3f\u0d2f \u0d2e\u0d46\u0d21\u0d3f\u0d15\u0d4d\u0d15\u0d7d \u0d15\u0d4b\u0d33\u0d47\u0d1c\u0d4d",
          "name:te": "\u0c09\u0c38\u0c4d\u0c2e\u0c3e\u0c28\u0c3f\u0c2f\u0c3e \u0c35\u0c48\u0c26\u0c4d\u0c2f \u0c15\u0c33\u0c3e\u0c36\u0c3e\u0c32",
          "network": "Hyderabad Metro",
          "note": "Contributors are requested to not edit the \"network\" and the \"operator\" tags. (2023/11/08)",
          "operator": "Hyderabad Metro Rail Limited",
          "public_transport": "stop_position",
          "public_transport:version": "2",
          "railway": "stop",
          "subway": "yes"
        }
      },
      {
        "type": "node",
        "id": 2422989068,
        "lat": 17.3979907,
        "lon": 78.4708797,
        "tags": {
          "addr:city": "Hyderabad",
          "addr:city:ar": "\u062d\u064a\u062f\u0631 \u0622\u0628\u0627\u062f",
          "addr:city:ur": "\u062d\u06cc\u062f\u0631\u0622\u0628\u0627\u062f",
          "name": "Assembly",
          "name:ml": "\u0d05\u0d38\u0d02\u0d2c\u0d4d\u0d32\u0d3f",
          "name:te": "\u0c05\u0c38\u0c46\u0c02\u0c2c\u0c4d\u0c32\u0c40",
          "network": "Hyderabad Metro",
          "note": "Contributors are requested to not edit the \"network\" and the \"operator\" tags. (2023/11/08)",
          "operator": "Hyderabad Metro Rail Limited",
          "public_transport": "stop_position",
          "public_transport:version": "2",
          "railway": "stop",
          "subway": "yes"
        }
      },
      {
        "type": "node",
        "id": 2422989110,
        "lat": 17.3858253,
        "lon": 78.4733347,
        "tags": {
          "addr:city": "Hyderabad",
          "addr:city:ar": "\u062d\u064a\u062f\u0631 \u0622\u0628\u0627\u062f",
          "addr:city:ur": "\u062d\u06cc\u062f\u0631\u0622\u0628\u0627\u062f",
          "name": "Gandhi Bhavan",
          "name:ml": "\u0d17\u0d3e\u0d28\u0d4d\u0d27\u0d3f \u0d2d\u0d35\u0d7b",
          "name:te": "\u0c17\u0c3e\u0c02\u0c27\u0c40 \u0c2d\u0c35\u0c28\u0c4d",
          "network": "Hyderabad Metro",
          "note": "Contributors are requested to not edit the \"network\" and the \"operator\" tags. (2023/11/08)",
          "operator": "Hyderabad Metro Rail Limited",
          "public_transport": "stop_position",
          "public_transport:version": "2",
          "railway": "stop",
          "subway": "yes"
        }
      },
      {
        "type": "node",
        "id": 2422989207,
        "lat": 17.392222,
        "lon": 78.4701612,
        "tags": {
          "addr:city": "Hyderabad",
          "addr:city:ar": "\u062d\u064a\u062f\u0631 \u0622\u0628\u0627\u062f",
          "addr:city:ur": "\u062d\u06cc\u062f\u0631\u0622\u0628\u0627\u062f",
          "name": "Nampally",
          "name:ml": "\u0d28\u0d3e\u0d2e\u0d4d\u0d2a\u0d33\u0d4d\u0d33\u0d3f",
          "name:te": "\u0c28\u0c3e\u0c02\u0c2a\u0c32\u0c4d\u0c32\u0c3f",
          "network": "Hyderabad Metro",
          "note": "Contributors are requested to not edit the \"network\" and the \"operator\" tags. (2023/11/08)",
          "operator": "Hyderabad Metro Rail Limited",
          "public_transport": "stop_position",
          "public_transport:version": "2",
          "railway": "stop",
          "subway": "yes"
        }
      },
      {
        "type": "node",
        "id": 2422989260,
        "lat": 17.3798092,
        "lon": 78.486212,
        "tags": {
          "addr:city": "Hyderabad",
          "addr:city:ar": "\u062d\u064a\u062f\u0631 \u0622\u0628\u0627\u062f",
          "addr:city:ur": "\u062d\u06cc\u062f\u0631\u0622\u0628\u0627\u062f",
          "alt_name": "M. G. Bus Station (Red Line)",
          "name": "Mahatma Gandhi Bus Station (Red Line)",
          "name:te": "\u0c0e\u0c02.\u0c1c\u0c3f. \u0c2c\u0c38\u0c4d. \u0c38\u0c4d\u0c1f\u0c47\u0c37\u0c28\u0c4d",
          "name:ur": "\u0645\u06c1\u0627\u062a\u0645\u0627 \u06af\u0627\u0646\u062f\u06be\u06cc \u0628\u0633 \u0627\u0633\u0679\u06cc\u0634\u0646 (\u0631\u06cc\u0688 \u0644\u0627\u0626\u0646)",
          "network": "Hyderabad Metro",
          "note": "Contributors are requested to not edit the \"network\" and the \"operator\" tags. (2023/11/08)",
          "operator": "Hyderabad Metro Rail Limited",
          "public_transport": "stop_position",
          "public_transport:version": "2",
          "railway": "stop",
          "subway": "yes"
        }
      },
      {
        "type": "node",
        "id": 2445898820,
        "lat": 17.3905862,
        "lon": 78.4702853,
        "tags": {
          "amenity": "fuel",
          "name": "Public Gardens Petrol Pump",
          "name:en": "Bharat Petroleum"
        }
      },
      {
        "type": "node",
        "id": 2447310770,
        "lat": 17.3889362,
        "lon": 78.4962342,
        "tags": {
          "amenity": "cinema",
          "name": "Kumar 70 mm"
        }
      },
      {
        "type": "node",
        "id": 2712437769,
        "lat": 17.4038328,
        "lon": 78.4635019,
        "tags": {
          "internet_access": "no",
          "name": "Lakdi-ka-pul",
          "name:te": "\u0c32\u0c15\u0c4d\u0c21\u0c3f\u0c15\u0c2a\u0c42\u0c32\u0c4d",
          "name:ur": "\u0644\u06a9\u0691\u06cc \u06a9\u0627 \u067e\u0644",
          "network": "IR",
          "operator": "SCR",
          "platforms": "2",
          "public_transport": "station",
          "railway": "station",
          "ref": "LKPL",
          "train": "yes",
          "wikidata": "Q6474590",
          "wikipedia": "en:Lakdi-ka-pul railway station"
        }
      },
      {
        "type": "node",
        "id": 2779381745,
        "lat": 17.4125624,
        "lon": 78.4796126,
        "tags": {
          "amenity": "fuel",
          "name": "Hindustan Pertoleum"
        }
      },
      {
        "type": "node",
        "id": 3157201754,
        "lat": 17.3844647,
        "lon": 78.484,
        "tags": {
          "name": "Sultan Bazar",
          "name:te": "\u0c38\u0c41\u0c32\u0c4d\u0c24\u0c3e\u0c28\u0c4d \u0c2c\u0c1c\u0c3e\u0c30\u0c4d",
          "network": "Hyderabad Metro",
          "note": "Contributors are requested to not edit the \"network\" and the \"operator\" tags. (2023/11/08)",
          "operator": "Hyderabad Metro Rail Limited",
          "public_transport": "stop_position",
          "subway": "yes"
        }
      },
      {
        "type": "node",
        "id": 3249112572,
        "lat": 17.4069137,
        "lon": 78.4635188,
        "tags": {
          "amenity": "cinema",
          "name": "Sensation Insomnia"
        }
      },
      {
        "type": "node",
        "id": 3249112573,
        "lat": 17.40713,
        "lon": 78.4635409,
        "tags": {
          "amenity": "cinema",
          "name": "Sensation Sunshine"
        }
      },
      {
        "type": "node",
        "id": 3249112574,
        "lat": 17.4074371,
        "lon": 78.4630567,
        "tags": {
          "amenity": "cinema",
          "name": "Shaam Theatre"
        }
      },
      {
        "type": "node",
        "id": 3612573966,
        "lat": 17.4110069,
        "lon": 78.4733865,
        "tags": {
          "amenity": "ferry_terminal",
          "ferry": "yes",
          "name": "Boats to Budha Statue",
          "name:te": "\u0c2c\u0c41\u0c26\u0c4d\u0c27 \u0c35\u0c3f\u0c17\u0c4d\u0c30\u0c39\u0c02 \u0c15\u0c4a\u0c30\u0c15\u0c41 \u0c2c\u0c4b\u0c1f\u0c4d\u0c38\u0c4d",
          "public_transport": "station"
        }
      },
      {
        "type": "node",
        "id": 3784388166,
        "lat": 17.4047517,
        "lon": 78.4626985,
        "tags": {
          "name": "Lakdi-ka-pul",
          "public_transport": "stop_position",
          "railway": "stop",
          "ref": "2",
          "train": "yes"
        }
      },
      {
        "type": "node",
        "id": 3842496350,
        "lat": 17.3906881,
        "lon": 78.4883506,
        "tags": {
          "amenity": "cinema",
          "name": "Maheshwari Parmeshwari INOX Cinemas"
        }
      },
      {
        "type": "node",
        "id": 4187284391,
        "lat": 17.3987617,
        "lon": 78.4709627,
        "tags": {
          "amenity": "fuel",
          "brand": "Indian Oil",
          "brand:wikidata": "Q1289348",
          "brand:wikipedia": "en:Indian Oil Corporation",
          "name": "Indian Oil"
        }
      },
      {
        "type": "node",
        "id": 4187308293,
        "lat": 17.3909412,
        "lon": 78.467487,
        "tags": {
          "amenity": "fuel",
          "name": "HP"
        }
      },
      {
        "type": "node",
        "id": 4415288812,
        "lat": 17.3994754,
        "lon": 78.4920506,
        "tags": {
          "amenity": "fuel",
          "name": "petrol bunk",
          "name:en": "petrol bunk"
        }
      },
      {
        "type": "node",
        "id": 4415337591,
        "lat": 17.4005718,
        "lon": 78.4882961,
        "tags": {
          "amenity": "fuel"
        }
      },
      {
        "type": "node",
        "id": 4436525192,
        "lat": 17.3994358,
        "lon": 78.492022,
        "tags": {
          "amenity": "fuel"
        }
      },
      {
        "type": "node",
        "id": 5536020505,
        "lat": 17.410965,
        "lon": 78.4729424,
        "tags": {
          "amenity": "ferry_terminal",
          "ferry": "yes",
          "name": "Boats to Budha Statue",
          "public_transport": "station"
        }
      },
      {
        "type": "node",
        "id": 5787787751,
        "lat": 17.4003567,
        "lon": 78.4949221,
        "tags": {
          "name": "Chikkadpally",
          "name:ml": "\u0d1a\u0d3f\u0d15\u0d4d\u0d15\u0d1f\u0d2a\u0d4d\u0d2a\u0d33\u0d4d\u0d33\u0d3f",
          "name:te": "\u0c1a\u0c3f\u0c15\u0c4d\u0c15\u0c21\u0c2a\u0c32\u0c4d\u0c32\u0c3f",
          "network": "Hyderabad Metro",
          "note": "Contributors are requested to not edit the \"network\" and the \"operator\" tags. (2023/11/08)",
          "operator": "Hyderabad Metro Rail Limited",
          "public_transport": "stop_position",
          "subway": "yes"
        }
      },
      {
        "type": "node",
        "id": 5919924190,
        "lat": 17.4106646,
        "lon": 78.4821106,
        "tags": {
          "amenity": "theatre",
          "name": "Vivekananda Auditorium",
          "name:etymology:wikidata": "Q47478"
        }
      },
      {
        "type": "node",
        "id": 5961188254,
        "lat": 17.4111614,
        "lon": 78.4609532,
        "tags": {
          "addr:city": "Hyderabad",
          "addr:city:ar": "\u062d\u064a\u062f\u0631 \u0622\u0628\u0627\u062f",
          "addr:city:ur": "\u062d\u06cc\u062f\u0631\u0622\u0628\u0627\u062f",
          "name": "Khairatabad",
          "name:ml": "\u0d16\u0d48\u0d30\u0d24\u0d3e\u0d2c\u0d3e\u0d26\u0d4d",
          "name:te": "\u0c16\u0c48\u0c30\u0c24\u0c3e\u0c2c\u0c3e\u0c26\u0c4d",
          "network": "Hyderabad Metro",
          "note": "Contributors are requested to not edit the \"network\" and the \"operator\" tags. (2023/11/08)",
          "operator": "Hyderabad Metro Rail Limited",
          "public_transport": "stop_position",
          "public_transport:version": "2",
          "railway": "stop",
          "subway": "yes"
        }
      },
      {
        "type": "node",
        "id": 5968369025,
        "lat": 17.4036398,
        "lon": 78.4653197,
        "tags": {
          "addr:city": "Hyderabad",
          "addr:city:ar": "\u062d\u064a\u062f\u0631 \u0622\u0628\u0627\u062f",
          "addr:city:ur": "\u062d\u06cc\u062f\u0631\u0622\u0628\u0627\u062f",
          "name": "Lakdi-ka-pul",
          "name:ml": "\u0d32\u0d15\u0d4d\u0d21\u0d3f-\u0d15\u0d3e-\u0d2a\u0d41\u0d7d",
          "name:te": "\u0c32\u0c15\u0c4d\u0c21\u0c3f-\u0c15\u0c3e-\u0c2a\u0c41\u0c32\u0c4d",
          "network": "Hyderabad Metro",
          "note": "Contributors are requested to not edit the \"network\" and the \"operator\" tags. (2023/11/08)",
          "operator": "Hyderabad Metro Rail Limited",
          "public_transport": "stop_position",
          "public_transport:version": "2",
          "railway": "stop",
          "subway": "yes",
          "wheelchair": "yes"
        }
      },
      {
        "type": "node",
        "id": 6209973385,
        "lat": 17.4040258,
        "lon": 78.4618329,
        "tags": {
          "amenity": "fuel",
          "name": "Auto Gas"
        }
      },
      {
        "type": "node",
        "id": 6254336890,
        "lat": 17.3887027,
        "lon": 78.4753829,
        "tags": {
          "amenity": "fuel"
        }
      },
      {
        "type": "node",
        "id": 6255550788,
        "lat": 17.3887874,
        "lon": 78.4743368,
        "tags": {
          "amenity": "fuel",
          "name": "Hp petrol bunk"
        }
      },
      {
        "type": "node",
        "id": 6308287071,
        "lat": 17.4122959,
        "lon": 78.4792256,
        "tags": {
          "amenity": "fuel",
          "name": "Hindustan Pertoleum"
        }
      },
      {
        "type": "node",
        "id": 6652962785,
        "lat": 17.3808647,
        "lon": 78.4857081,
        "tags": {
          "amenity": "fuel",
          "brand": "Indian Oil",
          "brand:wikidata": "Q1289348",
          "brand:wikipedia": "en:Indian Oil Corporation",
          "name": "Indian Oil"
        }
      },
      {
        "type": "node",
        "id": 6652962786,
        "lat": 17.3873482,
        "lon": 78.4772332,
        "tags": {
          "amenity": "fuel",
          "brand": "Indian Oil",
          "brand:wikidata": "Q1289348",
          "brand:wikipedia": "en:Indian Oil Corporation",
          "name": "Indian Oil"
        }
      },
      {
        "type": "node",
        "id": 7195061317,
        "lat": 17.394371,
        "lon": 78.4899387,
        "tags": {
          "name": "Narayanaguda",
          "name:te": "\u0c28\u0c3e\u0c30\u0c3e\u0c2f\u0c23\u0c17\u0c42\u0c21",
          "network": "Hyderabad Metro",
          "note": "Contributors are requested to not edit the \"network\" and the \"operator\" tags. (2023/11/08)",
          "operator": "Hyderabad Metro Rail Limited",
          "public_transport": "stop_position",
          "subway": "yes"
        }
      },
      {
        "type": "node",
        "id": 7206794945,
        "lat": 17.3797847,
        "lon": 78.4861805,
        "tags": {
          "addr:city": "Hyderabad",
          "addr:city:ar": "\u062d\u064a\u062f\u0631 \u0622\u0628\u0627\u062f",
          "addr:city:ur": "\u062d\u06cc\u062f\u0631\u0622\u0628\u0627\u062f",
          "alt_name": "M. G. Bus Station (Red Line)",
          "name": "Mahatma Gandhi Bus Station (Red Line)",
          "name:te": "\u0c0e\u0c02.\u0c1c\u0c3f. \u0c2c\u0c38\u0c4d. \u0c38\u0c4d\u0c1f\u0c47\u0c37\u0c28\u0c4d",
          "name:ur": "\u0645\u06c1\u0627\u062a\u0645\u0627 \u06af\u0627\u0646\u062f\u06be\u06cc \u0628\u0633 \u0627\u0633\u0679\u06cc\u0634\u0646 (\u0631\u06cc\u0688 \u0644\u0627\u0626\u0646)",
          "network": "Hyderabad Metro",
          "note": "Contributors are requested to not edit the \"network\" and the \"operator\" tags. (2023/11/08)",
          "operator": "Hyderabad Metro Rail Limited",
          "public_transport": "stop_position",
          "public_transport:version": "2",
          "railway": "stop",
          "subway": "yes"
        }
      },
      {
        "type": "node",
        "id": 7208768626,
        "lat": 17.3798572,
        "lon": 78.4862022,
        "tags": {
          "alt_name": "M. G. Bus Station (Red Line)",
          "name": "Mahatma Gandhi Bus Station (Red Line)",
          "name:ml": "\u0d2e\u0d39\u0d3e\u0d24\u0d4d\u0d2e\u0d3e\u0d17\u0d3e\u0d28\u0d4d\u0d27\u0d3f \u0d2c\u0d38\u0d4d \u0d38\u0d4d\u0d31\u0d4d\u0d31\u0d47\u0d37\u0d7b",
          "name:te": "\u0c0e\u0c02.\u0c1c\u0c3f. \u0c2c\u0c38\u0c4d. \u0c38\u0c4d\u0c1f\u0c47\u0c37\u0c28\u0c4d",
          "name:ur": "\u0645\u06c1\u0627\u062a\u0645\u0627 \u06af\u0627\u0646\u062f\u06be\u06cc \u0628\u0633 \u0627\u0633\u0679\u06cc\u0634\u0646 (\u0631\u06cc\u0688 \u0644\u0627\u0626\u0646)",
          "network": "Hyderabad Metro",
          "note": "Contributors are requested to not edit the \"network\" and the \"operator\" tags. (2023/11/08)",
          "operator": "Hyderabad Metro Rail Limited",
          "public_transport": "station",
          "railway": "station",
          "station": "subway",
          "subway": "yes"
        }
      },
      {
        "type": "node",
        "id": 7208768627,
        "lat": 17.3796948,
        "lon": 78.4858635,
        "tags": {
          "alt_name": "M. G. Bus Station (Green Line)",
          "name": "Mahatma Gandhi Bus Station (Green Line)",
          "name:ml": "\u0d2e\u0d39\u0d3e\u0d24\u0d4d\u0d2e\u0d3e\u0d17\u0d3e\u0d28\u0d4d\u0d27\u0d3f \u0d2c\u0d38\u0d4d \u0d38\u0d4d\u0d31\u0d4d\u0d31\u0d47\u0d37\u0d7b",
          "name:te": "\u0c0e\u0c02.\u0c1c\u0c3f. \u0c2c\u0c38\u0c4d. \u0c38\u0c4d\u0c1f\u0c47\u0c37\u0c28\u0c4d",
          "name:ur": "\u0645\u06c1\u0627\u062a\u0645\u0627 \u06af\u0627\u0646\u062f\u06be\u06cc \u0628\u0633 \u0627\u0633\u0679\u06cc\u0634\u0646 (\u06af\u0631\u06cc\u0646 \u0644\u0627\u0626\u0646",
          "network": "Hyderabad Metro",
          "note": "Contributors are requested to not edit the \"network\" and the \"operator\" tags. (2023/11/08)",
          "operator": "Hyderabad Metro Rail Limited",
          "public_transport": "station",
          "railway": "station",
          "station": "subway",
          "subway": "yes"
        }
      },
      {
        "type": "node",
        "id": 7358663498,
        "lat": 17.3844258,
        "lon": 78.4840519,
        "tags": {
          "name": "Sultan Bazar",
          "name:te": "\u0c38\u0c41\u0c32\u0c4d\u0c24\u0c3e\u0c28\u0c4d \u0c2c\u0c1c\u0c3e\u0c30\u0c4d",
          "network": "Hyderabad Metro",
          "note": "Contributors are requested to not edit the \"network\" and the \"operator\" tags. (2023/11/08)",
          "operator": "Hyderabad Metro Rail Limited",
          "public_transport": "stop_position",
          "subway": "yes"
        }
      },
      {
        "type": "node",
        "id": 7358663499,
        "lat": 17.3844473,
        "lon": 78.4840241,
        "tags": {
          "name": "Sultan Bazar",
          "name:ml": "\u0d38\u0d41\u0d7d\u0d24\u0d4d\u0d24\u0d3e\u0d7b \u0d2c\u0d38\u0d3e\u0d7c",
          "name:te": "\u0c38\u0c41\u0c32\u0c4d\u0c24\u0c3e\u0c28\u0c4d \u0c2c\u0c1c\u0c3e\u0c30\u0c4d",
          "network": "Hyderabad Metro",
          "note": "Contributors are requested to not edit the \"network\" and the \"operator\" tags. (2023/11/08)",
          "operator": "Hyderabad Metro Rail Limited",
          "railway": "station",
          "station": "subway",
          "subway": "yes"
        }
      },
      {
        "type": "node",
        "id": 7358663500,
        "lat": 17.3943607,
        "lon": 78.489976,
        "tags": {
          "name": "Narayanaguda",
          "name:te": "\u0c28\u0c3e\u0c30\u0c3e\u0c2f\u0c23\u0c17\u0c42\u0c21",
          "network": "Hyderabad Metro",
          "note": "Contributors are requested to not edit the \"network\" and the \"operator\" tags. (2023/11/08)",
          "operator": "Hyderabad Metro Rail Limited",
          "public_transport": "stop_position",
          "subway": "yes"
        }
      },
      {
        "type": "node",
        "id": 7358663501,
        "lat": 17.3943658,
        "lon": 78.4899578,
        "tags": {
          "name": "Narayanaguda",
          "name:ml": "\u0d28\u0d3e\u0d30\u0d3e\u0d2f\u0d23\u0d17\u0d41\u0d21",
          "name:te": "\u0c28\u0c3e\u0c30\u0c3e\u0c2f\u0c23\u0c17\u0c42\u0c21",
          "network": "Hyderabad Metro",
          "note": "Contributors are requested to not edit the \"network\" and the \"operator\" tags. (2023/11/08)",
          "operator": "Hyderabad Metro Rail Limited",
          "railway": "station",
          "station": "subway",
          "subway": "yes",
          "wikidata": "Q108874763"
        }
      },
      {
        "type": "node",
        "id": 7358663502,
        "lat": 17.4003634,
        "lon": 78.4948964,
        "tags": {
          "name": "Chikkadpally",
          "name:ml": "\u0d1a\u0d3f\u0d15\u0d4d\u0d15\u0d1f\u0d2a\u0d4d\u0d2a\u0d33\u0d4d\u0d33\u0d3f",
          "name:te": "\u0c1a\u0c3f\u0c15\u0c4d\u0c15\u0c21\u0c2a\u0c32\u0c4d\u0c32\u0c3f",
          "network": "Hyderabad Metro",
          "note": "Contributors are requested to not edit the \"network\" and the \"operator\" tags. (2023/11/08)",
          "operator": "Hyderabad Metro Rail Limited",
          "railway": "station",
          "station": "subway",
          "subway": "yes",
          "wikidata": "Q108874757"
        }
      },
      {
        "type": "node",
        "id": 7632550173,
        "lat": 17.3795945,
        "lon": 78.4858221,
        "tags": {
          "alt_name": "M. G. Bus Station (Green Line)",
          "name": "Mahatma Gandhi Bus Station (Green Line)",
          "name:te": "\u0c0e\u0c02.\u0c1c\u0c3f. \u0c2c\u0c38\u0c4d. \u0c38\u0c4d\u0c1f\u0c47\u0c37\u0c28\u0c4d",
          "name:ur": "\u0645\u06c1\u0627\u062a\u0645\u0627 \u06af\u0627\u0646\u062f\u06be\u06cc \u0628\u0633 \u0627\u0633\u0679\u06cc\u0634\u0646 (\u06af\u0631\u06cc\u0646 \u0644\u0627\u0626\u0646",
          "network": "Hyderabad Metro",
          "note": "Contributors are requested to not edit the \"network\" and the \"operator\" tags. (2023/11/08)",
          "operator": "Hyderabad Metro Rail Limited",
          "public_transport": "stop_position",
          "railway": "stop",
          "subway": "yes"
        }
      },
      {
        "type": "node",
        "id": 7632550174,
        "lat": 17.3796106,
        "lon": 78.4858581,
        "tags": {
          "alt_name": "M. G. Bus Station (Green Line)",
          "name": "Mahatma Gandhi Bus Station (Green Line)",
          "name:te": "\u0c0e\u0c02.\u0c1c\u0c3f. \u0c2c\u0c38\u0c4d. \u0c38\u0c4d\u0c1f\u0c47\u0c37\u0c28\u0c4d",
          "name:ur": "\u0645\u06c1\u0627\u062a\u0645\u0627 \u06af\u0627\u0646\u062f\u06be\u06cc \u0628\u0633 \u0627\u0633\u0679\u06cc\u0634\u0646 (\u06af\u0631\u06cc\u0646 \u0644\u0627\u0626\u0646",
          "network": "Hyderabad Metro",
          "note": "Contributors are requested to not edit the \"network\" and the \"operator\" tags. (2023/11/08)",
          "operator": "Hyderabad Metro Rail Limited",
          "public_transport": "stop_position",
          "railway": "stop",
          "subway": "yes"
        }
      },
      {
        "type": "node",
        "id": 7635652752,
        "lat": 17.3932537,
        "lon": 78.4673086,
        "tags": {
          "name": "Hyderabad Deccan Nampally",
          "name:ur": "\u062d\u06cc\u062f\u0631\u0622\u0628\u0627\u062f \u062f\u06a9\u0646",
          "public_transport": "stop_position",
          "railway": "stop",
          "ref": "6",
          "train": "yes"
        }
      },
      {
        "type": "node",
        "id": 7635652753,
        "lat": 17.393247,
        "lon": 78.467451,
        "tags": {
          "name": "Hyderabad Deccan Nampally",
          "name:ur": "\u062d\u06cc\u062f\u0631\u0622\u0628\u0627\u062f \u062f\u06a9\u0646",
          "public_transport": "stop_position",
          "railway": "stop",
          "ref": "5",
          "train": "yes"
        }
      },
      {
        "type": "node",
        "id": 7635652754,
        "lat": 17.3932459,
        "lon": 78.4674948,
        "tags": {
          "name": "Hyderabad Deccan Nampally",
          "name:ur": "\u062d\u06cc\u062f\u0631\u0622\u0628\u0627\u062f \u062f\u06a9\u0646",
          "public_transport": "stop_position",
          "railway": "stop",
          "ref": "4",
          "train": "yes"
        }
      },
      {
        "type": "node",
        "id": 7635652755,
        "lat": 17.3932426,
        "lon": 78.4675952,
        "tags": {
          "name": "Hyderabad Deccan Nampally",
          "name:ur": "\u062d\u06cc\u062f\u0631\u0622\u0628\u0627\u062f \u062f\u06a9\u0646",
          "public_transport": "stop_position",
          "railway": "stop",
          "ref": "3",
          "train": "yes"
        }
      },
      {
        "type": "node",
        "id": 7635652756,
        "lat": 17.3932435,
        "lon": 78.4676319,
        "tags": {
          "name": "Hyderabad Deccan Nampally",
          "name:ur": "\u062d\u06cc\u062f\u0631\u0622\u0628\u0627\u062f \u062f\u06a9\u0646",
          "public_transport": "stop_position",
          "railway": "stop",
          "ref": "2",
          "train": "yes"
        }
      },
      {
        "type": "node",
        "id": 7635652757,
        "lat": 17.3932391,
        "lon": 78.46779,
        "tags": {
          "name": "Hyderabad Deccan Nampally",
          "name:ur": "\u062d\u06cc\u062f\u0631\u0622\u0628\u0627\u062f \u062f\u06a9\u0646",
          "public_transport": "stop_position",
          "railway": "stop",
          "ref": "1",
          "train": "yes"
        }
      },
      {
        "type": "node",
        "id": 9732099995,
        "lat": 17.390678,
        "lon": 78.4502828,
        "tags": {
          "amenity": "fuel",
          "brand": "Indian Oil Petrol Pump",
          "brand:wikidata": "Q1289348",
          "name": "Indian Oil Petrol Pump"
        }
      },
      {
        "type": "node",
        "id": 9732100001,
        "lat": 17.3887447,
        "lon": 78.4552104,
        "tags": {
          "amenity": "fuel",
          "brand": "Hindustan Petroleum",
          "brand:wikidata": "Q1619375",
          "name": "HP",
          "official_name": "Hindustan Petroleum"
        }
      },
      {
        "type": "node",
        "id": 10789496134,
        "lat": 17.4127019,
        "lon": 78.4657508,
        "tags": {
          "addr:city": "Hyderabad",
          "addr:neighbourhood": "Khairtabad",
          "addr:state": "Telangana",
          "air_conditioning": "yes",
          "amenity": "cinema",
          "name": "Prasads Imax",
          "wheelchair": "yes",
          "wikidata": "Q7238450",
          "wikipedia": "en:Prasads Multiplex"
        }
      },
      {
        "type": "node",
        "id": 10789525452,
        "lat": 17.396027,
        "lon": 78.4898863,
        "tags": {
          "amenity": "cinema",
          "name": "Shanti Cinema Theatre"
        }
      },
      {
        "type": "node",
        "id": 10992500539,
        "lat": 17.3782418,
        "lon": 78.4848364,
        "tags": {
          "amenity": "bus_station",
          "bus": "yes",
          "name": "TSRTC MGBS BUS STAND , HYDERABAD",
          "public_transport": "station"
        }
      },
      {
        "type": "node",
        "id": 10992500540,
        "lat": 17.3777475,
        "lon": 78.4844892,
        "tags": {
          "amenity": "bus_station",
          "bus": "yes",
          "name": "TSRTC MGBS CENTRAL BUS STAND",
          "public_transport": "station"
        }
      },
      {
        "type": "node",
        "id": 11738179187,
        "lat": 17.3823471,
        "lon": 78.4811327,
        "tags": {
          "alt_name": "OMC",
          "internet_access": "no",
          "name": "Osmania Medical College",
          "name:ml": "\u0d09\u0d38\u0d4d\u0d2e\u0d3e\u0d28\u0d3f\u0d2f \u0d2e\u0d46\u0d21\u0d3f\u0d15\u0d4d\u0d15\u0d7d \u0d15\u0d4b\u0d33\u0d47\u0d1c\u0d4d",
          "name:te": "\u0c09\u0c38\u0c4d\u0c2e\u0c3e\u0c28\u0c3f\u0c2f\u0c3e \u0c35\u0c48\u0c26\u0c4d\u0c2f \u0c15\u0c33\u0c3e\u0c36\u0c3e\u0c32",
          "name:ur": "\u0639\u062b\u0645\u0627\u0646\u06cc\u06c1 \u0645\u06cc\u0688\u06cc\u06a9\u0644 \u06a9\u0627\u0644\u062c",
          "network": "Hyderabad Metro",
          "note": "Contributors are requested to not edit the \"network\" and the \"operator\" tags. (2023/11/08)",
          "operator": "Hyderabad Metro Rail Limited",
          "public_transport": "station",
          "railway": "station",
          "station": "subway",
          "subway": "yes",
          "website": "https://hmrl.co.in",
          "wheelchair": "yes",
          "wikidata": "Q83859784"
        }
      },
      {
        "type": "node",
        "id": 11738179188,
        "lat": 17.3923995,
        "lon": 78.4701477,
        "tags": {
          "internet_access": "no",
          "name": "Nampally",
          "name:ml": "\u0d28\u0d3e\u0d2e\u0d4d\u0d2a\u0d33\u0d4d\u0d33\u0d3f",
          "name:te": "\u0c28\u0c3e\u0c02\u0c2a\u0c32\u0c4d\u0c32\u0c3f",
          "name:ur": "\u0646\u0627\u0645\u067e\u0644\u0651\u06cc",
          "network": "Hyderabad Metro",
          "note": "Contributors are requested to not edit the \"network\" and the \"operator\" tags. (2023/11/08)",
          "operator": "Hyderabad Metro Rail Limited",
          "public_transport": "station",
          "railway": "station",
          "station": "subway",
          "subway": "yes",
          "website": "https://hmrl.co.in",
          "wheelchair": "yes",
          "wikidata": "Q63346685"
        }
      },
      {
        "type": "node",
        "id": 11738179190,
        "lat": 17.4039063,
        "lon": 78.4650247,
        "tags": {
          "internet_access": "no",
          "name": "Lakdi-ka-pul",
          "name:ml": "\u0d32\u0d15\u0d4d\u0d21\u0d3f-\u0d15\u0d3e-\u0d2a\u0d41\u0d7d",
          "name:te": "\u0c32\u0c15\u0c4d\u0c21\u0c3f-\u0c15\u0c3e-\u0c2a\u0c41\u0c32\u0c4d",
          "name:ur": "\u0644\u06a9\u0691\u06cc \u06a9\u0627 \u067e\u0644",
          "network": "Hyderabad Metro",
          "note": "Contributors are requested to not edit the \"network\" and the \"operator\" tags. (2023/11/08)",
          "operator": "Hyderabad Metro Rail Limited",
          "public_transport": "station",
          "railway": "station",
          "station": "subway",
          "subway": "yes",
          "website": "https://hmrl.co.in",
          "wheelchair": "yes"
        }
      },
      {
        "type": "node",
        "id": 11738179191,
        "lat": 17.4115319,
        "lon": 78.4608458,
        "tags": {
          "internet_access": "no",
          "name": "Khairatabad",
          "name:ml": "\u0d16\u0d48\u0d30\u0d24\u0d3e\u0d2c\u0d3e\u0d26\u0d4d",
          "name:te": "\u0c16\u0c48\u0c30\u0c24\u0c3e\u0c2c\u0c3e\u0c26\u0c4d",
          "name:ur": "\u062e\u06cc\u0631\u062a \u0622\u0628\u0627\u062f",
          "network": "Hyderabad Metro",
          "note": "Contributors are requested to not edit the \"network\" and the \"operator\" tags. (2023/11/08)",
          "operator": "Hyderabad Metro Rail Limited",
          "public_transport": "station",
          "railway": "station",
          "station": "subway",
          "subway": "yes",
          "website": "https://hmrl.co.in",
          "wheelchair": "yes"
        }
      },
      {
        "type": "node",
        "id": 11738179194,
        "lat": 17.3861073,
        "lon": 78.4730995,
        "tags": {
          "internet_access": "no",
          "name": "Gandhi Bhavan",
          "name:ml": "\u0d17\u0d3e\u0d28\u0d4d\u0d27\u0d3f \u0d2d\u0d35\u0d7b",
          "name:te": "\u0c17\u0c3e\u0c02\u0c27\u0c40 \u0c2d\u0c35\u0c28\u0c4d",
          "name:ur": "\u06af\u0627\u0646\u062f\u06be\u06cc \u0628\u06be\u0648\u0646",
          "network": "Hyderabad Metro",
          "note": "Contributors are requested to not edit the \"network\" and the \"operator\" tags. (2023/11/08)",
          "operator": "Hyderabad Metro Rail Limited",
          "public_transport": "station",
          "railway": "station",
          "station": "subway",
          "subway": "yes",
          "website": "https://hmrl.co.in",
          "wheelchair": "yes",
          "wikidata": "Q62860405"
        }
      },
      {
        "type": "node",
        "id": 11738179200,
        "lat": 17.3981092,
        "lon": 78.4708176,
        "tags": {
          "internet_access": "no",
          "name": "Assembly",
          "name:ml": "\u0d05\u0d38\u0d02\u0d2c\u0d4d\u0d32\u0d3f",
          "name:te": "\u0c05\u0c38\u0c46\u0c02\u0c2c\u0c4d\u0c32\u0c40",
          "name:ur": "\u0627\u0633\u0645\u0628\u0644\u06cc",
          "network": "Hyderabad Metro",
          "note": "Contributors are requested to not edit the \"network\" and the \"operator\" tags. (2023/11/08)",
          "operator": "Hyderabad Metro Rail Limited",
          "public_transport": "station",
          "railway": "station",
          "station": "subway",
          "subway": "yes",
          "website": "https://hmrl.co.in",
          "wheelchair": "yes",
          "wikidata": "Q83718950"
        }
      },
      {
        "type": "node",
        "id": 11738179217,
        "lat": 17.4119664,
        "lon": 78.4607387,
        "tags": {
          "addr:city": "Hyderabad",
          "addr:city:ar": "\u062d\u064a\u062f\u0631 \u0622\u0628\u0627\u062f",
          "addr:city:ur": "\u062d\u06cc\u062f\u0631\u0622\u0628\u0627\u062f",
          "name": "Khairatabad",
          "name:ml": "\u0d16\u0d48\u0d30\u0d24\u0d3e\u0d2c\u0d3e\u0d26\u0d4d",
          "name:te": "\u0c16\u0c48\u0c30\u0c24\u0c3e\u0c2c\u0c3e\u0c26\u0c4d",
          "network": "Hyderabad Metro",
          "note": "Contributors are requested to not edit the \"network\" and the \"operator\" tags. (2023/11/08)",
          "operator": "Hyderabad Metro Rail Limited",
          "public_transport": "stop_position",
          "public_transport:version": "2",
          "railway": "stop",
          "subway": "yes"
        }
      },
      {
        "type": "node",
        "id": 11738179218,
        "lat": 17.4042288,
        "lon": 78.4646895,
        "tags": {
          "addr:city": "Hyderabad",
          "addr:city:ar": "\u062d\u064a\u062f\u0631 \u0622\u0628\u0627\u062f",
          "addr:city:ur": "\u062d\u06cc\u062f\u0631\u0622\u0628\u0627\u062f",
          "name": "Lakdi-ka-pul",
          "name:ml": "\u0d32\u0d15\u0d4d\u0d21\u0d3f-\u0d15\u0d3e-\u0d2a\u0d41\u0d7d",
          "name:te": "\u0c32\u0c15\u0c4d\u0c21\u0c3f-\u0c15\u0c3e-\u0c2a\u0c41\u0c32\u0c4d",
          "network": "Hyderabad Metro",
          "note": "Contributors are requested to not edit the \"network\" and the \"operator\" tags. (2023/11/08)",
          "operator": "Hyderabad Metro Rail Limited",
          "public_transport": "stop_position",
          "public_transport:version": "2",
          "railway": "stop",
          "subway": "yes",
          "wheelchair": "yes"
        }
      },
      {
        "type": "node",
        "id": 11738179219,
        "lat": 17.3982698,
        "lon": 78.4707738,
        "tags": {
          "addr:city": "Hyderabad",
          "addr:city:ar": "\u062d\u064a\u062f\u0631 \u0622\u0628\u0627\u062f",
          "addr:city:ur": "\u062d\u06cc\u062f\u0631\u0622\u0628\u0627\u062f",
          "name": "Assembly",
          "name:ml": "\u0d05\u0d38\u0d02\u0d2c\u0d4d\u0d32\u0d3f",
          "name:te": "\u0c05\u0c38\u0c46\u0c02\u0c2c\u0c4d\u0c32\u0c40",
          "network": "Hyderabad Metro",
          "note": "Contributors are requested to not edit the \"network\" and the \"operator\" tags. (2023/11/08)",
          "operator": "Hyderabad Metro Rail Limited",
          "public_transport": "stop_position",
          "public_transport:version": "2",
          "railway": "stop",
          "subway": "yes"
        }
      },
      {
        "type": "node",
        "id": 11738179220,
        "lat": 17.3927365,
        "lon": 78.4701615,
        "tags": {
          "addr:city": "Hyderabad",
          "addr:city:ar": "\u062d\u064a\u062f\u0631 \u0622\u0628\u0627\u062f",
          "addr:city:ur": "\u062d\u06cc\u062f\u0631\u0622\u0628\u0627\u062f",
          "name": "Nampally",
          "name:ml": "\u0d28\u0d3e\u0d2e\u0d4d\u0d2a\u0d33\u0d4d\u0d33\u0d3f",
          "name:te": "\u0c28\u0c3e\u0c02\u0c2a\u0c32\u0c4d\u0c32\u0c3f",
          "network": "Hyderabad Metro",
          "note": "Contributors are requested to not edit the \"network\" and the \"operator\" tags. (2023/11/08)",
          "operator": "Hyderabad Metro Rail Limited",
          "public_transport": "stop_position",
          "public_transport:version": "2",
          "railway": "stop",
          "subway": "yes"
        }
      },
      {
        "type": "node",
        "id": 11738179221,
        "lat": 17.3863645,
        "lon": 78.4728752,
        "tags": {
          "addr:city": "Hyderabad",
          "addr:city:ar": "\u062d\u064a\u062f\u0631 \u0622\u0628\u0627\u062f",
          "addr:city:ur": "\u062d\u06cc\u062f\u0631\u0622\u0628\u0627\u062f",
          "name": "Gandhi Bhavan",
          "name:ml": "\u0d17\u0d3e\u0d28\u0d4d\u0d27\u0d3f \u0d2d\u0d35\u0d7b",
          "name:te": "\u0c17\u0c3e\u0c02\u0c27\u0c40 \u0c2d\u0c35\u0c28\u0c4d",
          "network": "Hyderabad Metro",
          "note": "Contributors are requested to not edit the \"network\" and the \"operator\" tags. (2023/11/08)",
          "operator": "Hyderabad Metro Rail Limited",
          "public_transport": "stop_position",
          "public_transport:version": "2",
          "railway": "stop",
          "subway": "yes"
        }
      },
      {
        "type": "node",
        "id": 11738179222,
        "lat": 17.3824963,
        "lon": 78.4807152,
        "tags": {
          "addr:city": "Hyderabad",
          "addr:city:ar": "\u062d\u064a\u062f\u0631 \u0622\u0628\u0627\u062f",
          "addr:city:ur": "\u062d\u06cc\u062f\u0631\u0622\u0628\u0627\u062f",
          "alt_name": "OMC",
          "name": "Osmania Medical College",
          "name:ml": "\u0d09\u0d38\u0d4d\u0d2e\u0d3e\u0d28\u0d3f\u0d2f \u0d2e\u0d46\u0d21\u0d3f\u0d15\u0d4d\u0d15\u0d7d \u0d15\u0d4b\u0d33\u0d47\u0d1c\u0d4d",
          "name:te": "\u0c09\u0c38\u0c4d\u0c2e\u0c3e\u0c28\u0c3f\u0c2f\u0c3e \u0c35\u0c48\u0c26\u0c4d\u0c2f \u0c15\u0c33\u0c3e\u0c36\u0c3e\u0c32",
          "network": "Hyderabad Metro",
          "note": "Contributors are requested to not edit the \"network\" and the \"operator\" tags. (2023/11/08)",
          "operator": "Hyderabad Metro Rail Limited",
          "public_transport": "stop_position",
          "public_transport:version": "2",
          "railway": "stop",
          "subway": "yes"
        }
      },
      {
        "type": "node",
        "id": 11774365337,
        "lat": 17.3733667,
        "lon": 78.4785666,
        "tags": {
          "amenity": "fuel",
          "brand": "Bharat Petroleum",
          "brand:wikidata": "Q854826",
          "check_date": "2024-03-31",
          "name": "Bharat Petroleum"
        }
      },
      {
        "type": "node",
        "id": 11774365338,
        "lat": 17.3847326,
        "lon": 78.4743828,
        "tags": {
          "amenity": "fuel",
          "brand": "Bharat Petroleum",
          "brand:wikidata": "Q854826",
          "check_date": "2025-01-07",
          "check_date:compressed_air": "2025-01-07",
          "compressed_air": "yes",
          "name": "Bharat Petroleum"
        }
      },
      {
        "type": "node",
        "id": 11774365339,
        "lat": 17.3943492,
        "lon": 78.4700623,
        "tags": {
          "amenity": "fuel",
          "check_date": "2024-03-31",
          "fuel:cng": "yes",
          "name": "Extra Gas"
        }
      }
    ]
  }
}