{
  "pois_1km": {
    "version": 0.6,
    "generator": "Overpass API 0.7.62.8 e802775f",
    "osm3s": {
      "timestamp_osm_base": "2025-09-06T08:42:02Z",
      "copyright": "The data included in this document is from www.openstreetmap.org. The data is made available under ODbL."
    },
    "elements": [
      {
        "type": "node",
        "id": 453580264,
        "lat": 17.4186379,
        "lon": 78.4448824,
        "tags": {
          "amenity": "restaurant",
          "cuisine": "coffee_shop",
          "name": "Cafe Mocha"
        }
      },
      {
        "type": "node",
        "id": 513016922,
        "lat": 17.4263318,
        "lon": 78.4475017,
        "tags": {
          "amenity": "restaurant",
          "cuisine": "south_indian",
          "name": "Chutneys",
          "name:te": "\u0c1a\u0c1f\u0c4d\u0c28\u0c40\u0c38\u0c4d"
        }
      },
      {
        "type": "node",
        "id": 662721790,
        "lat": 17.4271464,
        "lon": 78.4443444,
        "tags": {
          "amenity": "restaurant",
          "cuisine": "regional",
          "name": "Southern Spice",
          "name:te": "\u0c38\u0c25\u0c30\u0c28\u0c4d \u0c38\u0c4d\u0c2a\u0c48\u0c38\u0c4d"
        }
      },
      {
        "type": "node",
        "id": 813570814,
        "lat": 17.4262926,
        "lon": 78.4480231,
        "tags": {
          "amenity": "fast_food",
          "brand": "Subway",
          "brand:pa": "\u0a38\u0a2c\u0a35\u0a47\u0a05",
          "brand:ur": "\u0633\u0628 \u0648\u06d2",
          "brand:wikidata": "Q244457",
          "brand:wikipedia": "en:Subway (restaurant)",
          "cuisine": "sandwich",
          "name": "Subway",
          "name:pa": "\u0a38\u0a2c\u0a35\u0a47\u0a05",
          "name:te": "\u0c38\u0c2c\u0c4d\u0c35\u0c47",
          "name:ur": "\u0633\u0628 \u0648\u06d2",
          "takeaway": "yes"
        }
      },
      {
        "type": "node",
        "id": 817354197,
        "lat": 17.4270696,
        "lon": 78.4433431,
        "tags": {
          "amenity": "fast_food",
          "cuisine": "pizza",
          "name": "Pizza Corner",
          "name:te": "\u0c2a\u0c3f\u0c1c\u0c4d\u0c1c\u0c3e \u0c15\u0c3e\u0c30\u0c4d\u0c28\u0c46\u0c30\u0c4d"
        }
      },
      {
        "type": "node",
        "id": 817354267,
        "lat": 17.4261299,
        "lon": 78.4484993,
        "tags": {
          "amenity": "cafe",
          "brand": "Cafe Coffee Day",
          "brand:wikidata": "Q5017235",
          "cuisine": "coffee_shop",
          "name": "Cafe Coffee Day",
          "name:te": "\u0c15\u0c47\u0c2b\u0c4d \u0c15\u0c3e\u0c2b\u0c40 \u0c21\u0c47",
          "takeaway": "yes"
        }
      },
      {
        "type": "node",
        "id": 817354319,
        "lat": 17.4262584,
        "lon": 78.4498378,
        "tags": {
          "amenity": "bank",
          "atm": "yes",
          "name": "LVB",
          "name:te": "\u0c0e\u0c32\u0c4d \u0c35\u0c40\u0c2c\u0c3f"
        }
      },
      {
        "type": "node",
        "id": 817354361,
        "lat": 17.4289627,
        "lon": 78.4557226,
        "tags": {
          "amenity": "restaurant",
          "name": "Minerva Coffee Shop"
        }
      },
      {
        "type": "node",
        "id": 889613966,
        "lat": 17.4190122,
        "lon": 78.4435048,
        "tags": {
          "amenity": "bank",
          "atm": "yes",
          "brand": "Bank of India",
          "brand:wikidata": "Q2004439",
          "brand:wikipedia": "en:Bank of India",
          "description": "Banjara Hills branch",
          "name": "Bank of India",
          "name:en": "Bank of India",
          "short_name": "BoI",
          "website": "https://www.bankofindia.co.in/"
        }
      },
      {
        "type": "node",
        "id": 889613967,
        "lat": 17.4188996,
        "lon": 78.4434941,
        "tags": {
          "amenity": "bank",
          "atm": "yes",
          "brand": "Canara Bank",
          "brand:en": "Canara Bank",
          "brand:hi": "\u0915\u0947\u0928\u0930\u093e \u092c\u0948\u0902\u0915",
          "brand:kn": "\u0c95\u0cc6\u0ca8\u0cb0\u0cbe \u0cac\u0ccd\u0caf\u0cbe\u0c82\u0c95\u0ccd",
          "brand:pa": "\u0a15\u0a47\u0a28\u0a30\u0a3e \u0a2c\u0a48\u0a02\u0a15",
          "brand:pnb": "\u06a9\u06cc\u0646\u0631\u0627 \u0628\u06cc\u0646\u06a9",
          "brand:ur": "\u06a9\u06cc\u0646\u0631\u0627 \u0628\u06cc\u0646\u06a9",
          "brand:wikidata": "Q2003777",
          "brand:wikipedia": "en:Canara Bank",
          "brand:wikipedia:pa": "\u0a15\u0a47\u0a28\u0a30\u0a3e \u0a2c\u0a48\u0a02\u0a15",
          "description": "Banjara Hills branch",
          "name": "Canara Bank",
          "name:en": "Canara Bank",
          "name:hi": "\u0915\u0947\u0928\u0930\u093e \u092c\u0948\u0902\u0915",
          "name:kn": "\u0c95\u0cc6\u0ca8\u0cb0\u0cbe \u0cac\u0ccd\u0caf\u0cbe\u0c82\u0c95\u0ccd",
          "name:pa": "\u0a15\u0a47\u0a28\u0a30\u0a3e \u0a2c\u0a48\u0a02\u0a15",
          "name:pnb": "\u06a9\u06cc\u0646\u0631\u0627 \u0628\u06cc\u0646\u06a9",
          "name:ur": "\u06a9\u06cc\u0646\u0631\u0627 \u0628\u06cc\u0646\u06a9",
          "website": "https://www.canarabank.com/"
        }
      },
      {
        "type": "node",
        "id": 889642289,
        "lat": 17.418702,
        "lon": 78.4486137,
        "tags": {
          "amenity": "restaurant",
          "brand": "Hard Rock Cafe",
          "brand:wikidata": "Q918151",
          "cuisine": "american",
          "level": "1",
          "name": "Hard Rock Cafe",
          "name:te": "\u0c39\u0c3e\u0c30\u0c4d\u0c21\u0c4d \u0c30\u0c3e\u0c15\u0c4d \u0c15\u0c47\u0c2b\u0c4d"
        }
      },
      {
        "type": "node",
        "id": 1779441445,
        "lat": 17.4271176,
        "lon": 78.4530481,
        "tags": {
          "name": "Hometown",
          "shop": "supermarket"
        }
      },
      {
        "type": "node",
        "id": 1883475067,
        "lat": 17.430205,
        "lon": 78.4418828,
        "tags": {
          "amenity": "restaurant",
          "cuisine": "chinese",
          "name": "Noodles King"
        }
      },
      {
        "type": "node",
        "id": 1883475384,
        "lat": 17.4299798,
        "lon": 78.4412927,
        "tags": {
          "amenity": "bank",
          "brand:wikidata": "Q2003476",
          "brand:wikipedia": "en:Andhra Bank",
          "name": "Andhra Bank",
          "name:en": "Andhra Bank",
          "website": "https://www.andhrabank.in"
        }
      },
      {
        "type": "node",
        "id": 1883475677,
        "lat": 17.4299491,
        "lon": 78.4422422,
        "tags": {
          "amenity": "bank",
          "atm": "yes",
          "brand": "HDFC",
          "brand:wikidata": "Q631047",
          "brand:wikipedia": "en:HDFC Bank",
          "name": "HDFC Bank",
          "short_name": "HDFC",
          "website": "https://www.hdfcbank.com"
        }
      },
      {
        "type": "node",
        "id": 1883475928,
        "lat": 17.4206569,
        "lon": 78.4481619,
        "tags": {
          "amenity": "hospital",
          "emergency": "no",
          "name": "Care Clinic",
          "name:te": "\u0c15\u0c47\u0c30\u0c4d \u0c15\u0c4d\u0c32\u0c3f\u0c28\u0c3f\u0c15\u0c4d"
        }
      },
      {
        "type": "node",
        "id": 1883482610,
        "lat": 17.4306001,
        "lon": 78.4487295,
        "tags": {
          "addr:city": "Hyderabad",
          "addr:street": "Ameerpet Road",
          "name": "Reliance Smart",
          "shop": "supermarket"
        }
      },
      {
        "type": "node",
        "id": 1885688137,
        "lat": 17.4301844,
        "lon": 78.4443344,
        "tags": {
          "amenity": "bank",
          "atm": "yes",
          "brand": "State Bank of India",
          "brand:wikidata": "Q1340361",
          "brand:wikipedia": "en:State Bank of India",
          "name": "State Bank of India",
          "short_name": "SBI"
        }
      },
      {
        "type": "node",
        "id": 2051380355,
        "lat": 17.4238852,
        "lon": 78.4537632,
        "tags": {
          "amenity": "fast_food",
          "cuisine": "indian",
          "name": "Srikanya"
        }
      },
      {
        "type": "node",
        "id": 2208162453,
        "lat": 17.4291646,
        "lon": 78.4567382,
        "tags": {
          "addr:district": "Hyderabad",
          "addr:full": "6-3-1111/19, NISHATH BAGH, BEGUMPET",
          "addr:postcode": "500016",
          "addr:state": "Telangana",
          "amenity": "hospital",
          "contact:phone": "23402417",
          "name": "Swapna Health Care",
          "operator:type": "private",
          "source": "OpenGovernmentData"
        }
      },
      {
        "type": "node",
        "id": 2208176524,
        "lat": 17.4260043,
        "lon": 78.4570033,
        "tags": {
          "amenity": "atm",
          "operator": "HDFC Bank ATM"
        }
      },
      {
        "type": "node",
        "id": 2352094397,
        "lat": 17.4213813,
        "lon": 78.4557705,
        "tags": {
          "amenity": "cafe",
          "cuisine": "tea",
          "internet_access": "no",
          "name": "Red rose cafe"
        }
      },
      {
        "type": "node",
        "id": 2352095456,
        "lat": 17.4211366,
        "lon": 78.4566557,
        "tags": {
          "addr:district": "Hyderabad",
          "addr:full": "6 - 3 - 661, Sangeet Nagar, Somajiguda",
          "addr:postcode": "500082",
          "addr:state": "Telangana",
          "addr:street": "Red rose restaurant lane",
          "amenity": "hospital",
          "email": "aigindiainfo@yahoo.co.in",
          "health_facility:type": "Out patient service;Endoscopy services;Day care services;In patient services including intensive care unit;Specialized procedures;",
          "healthcare": "hospital",
          "healthcare:speciality": "Anaesthesiology; Bio Chemistry;Gastroenterology; Hepatology; Interventional Radiology; Micro Biology; Pathology; Radiology; Surgical Gastroenterology; Transfusion Medicine",
          "medical_system": "Allopathic",
          "name": "Asian Institute of Gastroenterology",
          "operator:type": "private",
          "phone": "040 23378888",
          "source": "OpenGovernmentData",
          "website": "www.aigindia.net"
        }
      },
      {
        "type": "node",
        "id": 2352123652,
        "lat": 17.416347,
        "lon": 78.4479294,
        "tags": {
          "amenity": "cafe",
          "brand": "Cafe Coffee Day",
          "brand:wikidata": "Q5017235",
          "cuisine": "coffee_shop",
          "internet_access": "yes",
          "name": "Cafe Coffee Day",
          "takeaway": "yes"
        }
      },
      {
        "type": "node",
        "id": 2606351757,
        "lat": 17.4209782,
        "lon": 78.4424101,
        "tags": {
          "amenity": "restaurant",
          "name": "Rock Castle"
        }
      },
      {
        "type": "node",
        "id": 2607510863,
        "lat": 17.4222198,
        "lon": 78.4546359,
        "tags": {
          "amenity": "bank",
          "atm": "yes",
          "brand": "State Bank of India",
          "brand:wikidata": "Q1340361",
          "brand:wikipedia": "en:State Bank of India",
          "name": "State Bank of India",
          "short_name": "SBI",
          "website": "https://www.sbi.co.in"
        }
      },
      {
        "type": "node",
        "id": 2713841650,
        "lat": 17.4299016,
        "lon": 78.4428358,
        "tags": {
          "leisure": "park",
          "name": "ghmc park"
        }
      },
      {
        "type": "node",
        "id": 2713841739,
        "lat": 17.4304216,
        "lon": 78.4424111,
        "tags": {
          "leisure": "park",
          "name": "park"
        }
      },
      {
        "type": "node",
        "id": 3474702622,
        "lat": 17.4318064,
        "lon": 78.4468436,
        "tags": {
          "amenity": "restaurant",
          "name": "Godavari ruchulu"
        }
      },
      {
        "type": "node",
        "id": 3777418109,
        "lat": 17.4255244,
        "lon": 78.4568923,
        "tags": {
          "addr:city": "Hyderabad",
          "addr:postcode": "500082",
          "addr:street": "Raj Bhavan Road",
          "name": "Ratnadeep Supermarket",
          "shop": "supermarket"
        }
      },
      {
        "type": "node",
        "id": 3777421984,
        "lat": 17.4276683,
        "lon": 78.4568623,
        "tags": {
          "addr:postcode": "500082",
          "addr:street": "Raj Bhavan Road",
          "amenity": "bank",
          "atm": "yes",
          "brand": "HDFC Bank",
          "brand:wikidata": "Q631047",
          "brand:wikipedia": "en:HDFC Bank",
          "name": "HDFC Bank",
          "short_name": "HDFC",
          "website": "https://www.hdfcbank.com"
        }
      },
      {
        "type": "node",
        "id": 3777423105,
        "lat": 17.4304083,
        "lon": 78.455843,
        "tags": {
          "addr:postcode": "500082",
          "addr:street": "Raj Bhavan Road",
          "amenity": "bank",
          "atm": "yes",
          "name": "Kotak Mahindra"
        }
      },
      {
        "type": "node",
        "id": 3777426021,
        "lat": 17.4285203,
        "lon": 78.4562726,
        "tags": {
          "addr:city": "Hyderabad",
          "addr:postcode": "500082",
          "addr:street": "Raj Bhavan Road",
          "amenity": "fast_food",
          "brand": "Domino's",
          "brand:ks": "\u0688\u0648\u0645\u06cc\u0646\u0648\u0632",
          "brand:pa": "\u0a21\u0a4b\u0a2e\u0a40\u0a28\u0a4b\u0a1c\u0a3c",
          "brand:ur": "\u0688\u0648\u0645\u06cc\u0646\u0648\u0632",
          "brand:wikidata": "Q839466",
          "brand:wikipedia": "en:Domino's Pizza",
          "cuisine": "pizza",
          "name": "Domino's",
          "name:ks": "\u0688\u0648\u0645\u06cc\u0646\u0648\u0632",
          "name:pa": "\u0a21\u0a4b\u0a2e\u0a40\u0a28\u0a4b\u0a1c\u0a3c",
          "name:ur": "\u0688\u0648\u0645\u06cc\u0646\u0648\u0632",
          "takeaway": "yes"
        }
      },
      {
        "type": "node",
        "id": 3777427328,
        "lat": 17.4260486,
        "lon": 78.457334,
        "tags": {
          "addr:city": "Hyderabad",
          "addr:postcode": "500082",
          "addr:street": "Raj Bhavan Road",
          "check_date": "2023-12-15",
          "name": "Kirana Ghar",
          "shop": "supermarket"
        }
      },
      {
        "type": "node",
        "id": 4320884394,
        "lat": 17.429162,
        "lon": 78.4559771,
        "tags": {
          "amenity": "restaurant",
          "cuisine": "indian",
          "name": "Deccan"
        }
      },
      {
        "type": "node",
        "id": 4400657889,
        "lat": 17.4216439,
        "lon": 78.4529033,
        "tags": {
          "amenity": "bank",
          "branch": "NIMS",
          "brand": "Andhra Bank",
          "brand:wikidata": "Q2003476",
          "brand:wikipedia": "en:Andhra Bank",
          "name": "Andhra Bank",
          "name:en": "Andhra Bank",
          "website": "https://www.andhrabank.in"
        }
      },
      {
        "type": "node",
        "id": 4451580789,
        "lat": 17.4269993,
        "lon": 78.4488484,
        "tags": {
          "amenity": "hospital"
        }
      },
      {
        "type": "node",
        "id": 4826996023,
        "lat": 17.4185781,
        "lon": 78.4487684,
        "tags": {
          "amenity": "restaurant",
          "cuisine": "indian",
          "name": "Khan Saab",
          "name:en": "Khan Saab",
          "name:te": "\u0c16\u0c3e\u0c28\u0c4d \u0c38\u0c3e\u0c2c\u0c4d"
        }
      },
      {
        "type": "node",
        "id": 5104431823,
        "lat": 17.4240373,
        "lon": 78.4534146,
        "tags": {
          "amenity": "restaurant",
          "name": "suprabat tiffins"
        }
      },
      {
        "type": "node",
        "id": 5620024292,
        "lat": 17.4193666,
        "lon": 78.4482191,
        "tags": {
          "amenity": "cafe",
          "brand": "Starbucks",
          "brand:pa": "\u0a38\u0a1f\u0a3e\u0a30\u0a2c\u0a15\u0a38",
          "brand:ur": "\u0627\u0633\u0679\u0627\u0631\u0628\u06a9\u0633",
          "brand:wikidata": "Q37158",
          "brand:wikipedia": "en:Starbucks",
          "cuisine": "coffee_shop",
          "level": "-1",
          "name": "Starbucks",
          "name:pa": "\u0a38\u0a1f\u0a3e\u0a30\u0a2c\u0a15\u0a38",
          "name:te": "\u0c38\u0c4d\u0c1f\u0c3e\u0c30\u0c4d \u0c2c\u0c15\u0c4d\u0c38\u0c4d",
          "name:ur": "\u0627\u0633\u0679\u0627\u0631\u0628\u06a9\u0633",
          "official_name": "Starbucks Coffee",
          "official_name:pa": "\u0a38\u0a1f\u0a3e\u0a30\u0a2c\u0a15\u0a38 \u0a15\u0a4c\u0a2b\u0a40",
          "official_name:ur": "\u0627\u0633\u0679\u0627\u0631\u0628\u06a9\u0633 \u06a9\u0627\u0641\u06cc",
          "takeaway": "yes"
        }
      },
      {
        "type": "node",
        "id": 5620024296,
        "lat": 17.4197297,
        "lon": 78.4484606,
        "tags": {
          "level": "-1",
          "name": "United Colors of Benetton",
          "name:te": "\u0c2f\u0c41\u0c28\u0c48\u0c1f\u0c46\u0c21\u0c4d \u0c15\u0c32\u0c30\u0c4d\u0c38\u0c4d \u0c05\u0c2b\u0c4d \u0c2c\u0c46\u0c28\u0c46\u0c1f\u0c28\u0c4d",
          "shop": "supermarket"
        }
      },
      {
        "type": "node",
        "id": 5622280681,
        "lat": 17.4188116,
        "lon": 78.4485887,
        "tags": {
          "alt_name": "Kentucky Fried Chicken",
          "alt_name:en": "Kentucky Fried Chicken",
          "alt_name:hi": "\u0915\u0947\u0902\u091f\u0941\u0915\u0940 \u092b\u094d\u0930\u093e\u0907\u0921 \u091a\u093f\u0915\u0928",
          "alt_name:pa": "\u0a15\u0a48\u0a02\u0a1f\u0a41\u0a15\u0a40 \u0a2b\u0a4d\u0a30\u0a3e\u0a08\u0a21 \u0a1a\u0a3f\u0a15\u0a28",
          "alt_name:pnb": "\u06a9\u06cc\u0646\u0679\u06a9\u06cc \u0641\u0631\u0627\u0626\u06cc\u0688 \u0686\u06a9\u0646",
          "alt_name:ur": "\u06a9\u06cc\u0646\u0679\u06a9\u06cc \u0641\u0631\u0627\u0626\u06cc\u0688 \u0686\u06a9\u0646",
          "amenity": "fast_food",
          "brand": "KFC",
          "brand:en": "KFC",
          "brand:hi": "\u0915\u0947\u090f\u092b\u0938\u0940",
          "brand:pa": "\u0a15\u0a47\u0a10\u0a2b\u0a38\u0a40",
          "brand:pnb": "\u06a9\u06d2 \u0627\u06cc\u0641 \u0633\u06cc",
          "brand:ur": "\u06a9\u06d2 \u0627\u06cc\u0641 \u0633\u06cc",
          "brand:wikidata": "Q524757",
          "brand:wikipedia": "en:KFC",
          "brand:wikipedia:pa": "\u0a15\u0a47\u0a10\u0a2b\u0a38\u0a40",
          "brand:wikipedia:ur": "\u06a9\u06cc\u0646\u0679\u06a9\u06cc \u0641\u0631\u0627\u0626\u06cc\u0688 \u0686\u06a9\u0646",
          "cuisine": "chicken",
          "name": "KFC",
          "name:en": "KFC",
          "name:hi": "\u0915\u0947\u090f\u092b\u0938\u0940",
          "name:pa": "\u0a15\u0a47\u0a10\u0a2b\u0a38\u0a40",
          "name:pnb": "\u06a9\u06d2 \u0627\u06cc\u0641 \u0633\u06cc",
          "name:te": "\u0c15\u0c46 \u0c0e\u0c2b\u0c4d \u0c38\u0c3f",
          "name:ur": "\u06a9\u06d2 \u0627\u06cc\u0641 \u0633\u06cc",
          "takeaway": "yes"
        }
      },
      {
        "type": "node",
        "id": 5626709756,
        "lat": 17.4191639,
        "lon": 78.4486928,
        "tags": {
          "amenity": "fast_food",
          "brand": "Burger King",
          "brand:pa": "\u0a2c\u0a30\u0a17\u0a30 \u0a15\u0a3f\u0a70\u0a17",
          "brand:ur": "\u0628\u0631\u06af\u0631 \u06a9\u0646\u06af",
          "brand:wikidata": "Q177054",
          "brand:wikipedia": "en:Burger King",
          "brand:wikipedia:pa": "\u0a2c\u0a30\u0a17\u0a30 \u0a15\u0a3f\u0a70\u0a17",
          "brand:wikipedia:ur": "\u0628\u0631\u06af\u0631 \u06a9\u0646\u06af",
          "cuisine": "burger",
          "name": "Burger King",
          "name:pa": "\u0a2c\u0a30\u0a17\u0a30 \u0a15\u0a3f\u0a70\u0a17",
          "name:ru": "\u0411\u0443\u0440\u0433\u0435\u0440 \u041a\u0438\u043d\u0433",
          "name:te": "\u0c2c\u0c30\u0c4d\u0c17\u0c30\u0c4d \u0c15\u0c3f\u0c02\u0c17\u0c4d",
          "name:ur": "\u0628\u0631\u06af\u0631 \u06a9\u0646\u06af",
          "takeaway": "yes"
        }
      },
      {
        "type": "node",
        "id": 6089840786,
        "lat": 17.4204876,
        "lon": 78.4410872,
        "tags": {
          "amenity": "cafe",
          "internet_access": "wlan",
          "name": "Terrasen Cafe"
        }
      },
      {
        "type": "node",
        "id": 6212803088,
        "lat": 17.4275672,
        "lon": 78.4422612,
        "tags": {
          "amenity": "bank",
          "brand": "State Bank of India",
          "brand:wikidata": "Q1340361",
          "name": "State Bank of India",
          "short_name": "SBI"
        }
      },
      {
        "type": "node",
        "id": 6212822487,
        "lat": 17.4261994,
        "lon": 78.4498151,
        "tags": {
          "amenity": "bank",
          "brand": "ICICI Bank",
          "brand:wikidata": "Q1653258",
          "name": "ICICI Bank",
          "short_name": "ICICI"
        }
      },
      {
        "type": "node",
        "id": 6255631790,
        "lat": 17.4308673,
        "lon": 78.4478006,
        "tags": {
          "amenity": "restaurant",
          "name": "Sitara"
        }
      },
      {
        "type": "node",
        "id": 6340136985,
        "lat": 17.4301054,
        "lon": 78.4457025,
        "tags": {
          "amenity": "fast_food",
          "cuisine": "chinese",
          "name": "Chop Stick",
          "name:en": "Chop Sticks"
        }
      },
      {
        "type": "node",
        "id": 6477289985,
        "lat": 17.4238105,
        "lon": 78.449832,
        "tags": {
          "addr:district": "Hyderabad",
          "addr:full": "6-3-347/22B/1, Dwarakapuri Colony, Near Saibaba Temple",
          "addr:postcode": "500082",
          "addr:state": "Telangana",
          "amenity": "hospital",
          "contact:mobile": "9948889222",
          "fax": "040 23357979",
          "healthcare:speciality": "Pediatric ICU;Pediatric Neonatology;Pediatric Cardiology;Pediatric Surgery;Pediatric Dermatology;Pediatric Neurology;Cosmetic Surgery;ENT;Radiologist;Pediatric Audiology",
          "medical_system": "Allopathic",
          "name": "Pragna Hospital",
          "operator:type": "Private",
          "phone": "040 66827999;040 66666399",
          "source": "OpenGovernmentData",
          "website": "http://www.pragnahospital.com"
        }
      },
      {
        "type": "node",
        "id": 6477295602,
        "lat": 17.4232839,
        "lon": 78.4505488,
        "tags": {
          "addr:district": "Hyderabad",
          "addr:full": "Plot No. 145, Dwarakapuri Colony, Punjagutta",
          "addr:postcode": "500082",
          "addr:state": "Telangana",
          "amenity": "hospital",
          "fax": "040 40205616",
          "healthcare:speciality": "Cataract;Trauma surgeries;Pediatric Ophthalmology",
          "medical_system": "Allopathic",
          "name": "Swarup Eye Centre",
          "operator:type": "Private",
          "phone": "040 23354558;040 66782053",
          "source": "OpenGovernmentData",
          "website": "http://swarupeye.org"
        }
      },
      {
        "type": "node",
        "id": 6482129255,
        "lat": 17.4252477,
        "lon": 78.4537243,
        "tags": {
          "addr:district": "Hyderabad",
          "addr:full": "Ozone Complex, 1st Floor, Near Bajaj Electronics, Panjagutta",
          "addr:postcode": "500082",
          "addr:state": "Telangana",
          "amenity": "hospital",
          "contact:email": "info@lmcindia.com",
          "contact:mobile": "9246391309",
          "name": "Leads Medical Centre",
          "phone": "040 23418873; 040 32009559",
          "source": "OpenGovernmentData",
          "website": "https://www.lmcindia.com/"
        }
      },
      {
        "type": "node",
        "id": 6484931583,
        "lat": 17.429802,
        "lon": 78.4487075,
        "tags": {
          "addr:district": "Hyderabad",
          "addr:full": "# 8-3-952/10/2 & 2/1, Srinagar Colony Road, Punjagutta, Nagarjuna Nagar Colony, Yella Reddy Guda",
          "addr:postcode": "500073",
          "addr:state": "Telangana",
          "amenity": "hospital",
          "contact:email": "info@smiline.com",
          "fax": "23747979; 237440775",
          "name": "Smiline Dental Hospital",
          "phone": "+919595853000",
          "source": "OpenGovernmentData",
          "website": "https://www.smiline.com"
        }
      },
      {
        "type": "node",
        "id": 6485566735,
        "lat": 17.4298167,
        "lon": 78.4506487,
        "tags": {
          "addr:district": "Hyderabad",
          "addr:full": "Datla Pride, Punjagutta Officers Colony, Punjagutta",
          "addr:postcode": "500082",
          "addr:state": "Telangana",
          "amenity": "hospital",
          "email": "panjagutta@dragarwal.com",
          "healthcare": "hospital",
          "healthcare:speciality": "Cataract Surgery;Cornea and Refractive;Retina;Oculoplastic;Glaucoma;Uvea;Neuro Ophthamology;Squint and Pediatric Opthalmology;Lasik",
          "medical_system": "Allopathic",
          "name": "Dr.Agarwal's Eye Hospital",
          "operator": "Dr. Agarwal's Eye Hospital",
          "operator:type": "private",
          "operator:wikidata": "Q17052044",
          "phone": "040 23400081",
          "source": "OpenGovernmentData",
          "website": "https://www.dragarwal.com/"
        }
      },
      {
        "type": "node",
        "id": 6487162039,
        "lat": 17.4216154,
        "lon": 78.4556772,
        "tags": {
          "addr:district": "Hyderabad",
          "addr:full": "First Floor, Zore Complex, Above Red Rose Restaurant, Opp. NIMS, Panjagutta Main Road",
          "addr:postcode": "500082",
          "addr:state": "Telangana",
          "amenity": "hospital",
          "contact:email": "dr@asianentcarecentre.com",
          "name": "Asian E.N.T. Care Centre",
          "phone": "+91 8008188800; 040-23379237",
          "source": "OpenGovernmentData",
          "website": "asianentcarecentre.com"
        }
      },
      {
        "type": "node",
        "id": 6489688950,
        "lat": 17.4229122,
        "lon": 78.452197,
        "tags": {
          "addr:district": "Hyderabad",
          "addr:full": "H.No. 4, Pavani Villas, Dwarakapuri Colony, Panjagutta",
          "addr:postcode": "500082",
          "addr:state": "Telangana",
          "amenity": "hospital",
          "name": "Santhigiri Auyrveda and Siddha Hospital",
          "source": "OpenGovernmentData"
        }
      },
      {
        "type": "node",
        "id": 6489786900,
        "lat": 17.4186198,
        "lon": 78.4524223,
        "tags": {
          "addr:district": "Hyderabad",
          "addr:full": "6-3-252/B/8, Behind Taj Residency, Near Banjara Hills, Road No: 1, Erramanzil Colony",
          "addr:postcode": "500004",
          "addr:state": "Telangana",
          "amenity": "hospital",
          "email": "drraghuveerreddy3@gmail.com",
          "name": "Sai Institute Of Arthroscopy And Sports Injury",
          "phone": "040-2330 2996 ; 040- 6646 2996",
          "source": "OpenGovernmentData",
          "website": "https://www.drraghuveer.com"
        }
      },
      {
        "type": "node",
        "id": 6495015780,
        "lat": 17.4260772,
        "lon": 78.457375,
        "tags": {
          "addr:district": "Hyderabad",
          "addr:full": "No. 6-3-1092/S1&S2, A Block, 2nd Floor, Shanthi Sikhara Complex, Somajiguda",
          "addr:postcode": "500082",
          "addr:state": "Telangana",
          "amenity": "hospital",
          "contact:phone": "+91 9000185185",
          "name": "Maa Ent Institute",
          "source": "OpenGovernmentData",
          "website": "https://maaent.com/"
        }
      },
      {
        "type": "node",
        "id": 6497138970,
        "lat": 17.4299888,
        "lon": 78.4508921,
        "tags": {
          "addr:district": "Hyderabad",
          "addr:full": "Vamsee Estates ,Opposite Big Bazar ,Ameerpet Main Road",
          "addr:postcode": "500016",
          "addr:state": "Telangana",
          "amenity": "clinic",
          "name": "L.V. Eye Care Centre",
          "source": "OpenGovernmentData"
        }
      },
      {
        "type": "node",
        "id": 6497369555,
        "lat": 17.4292454,
        "lon": 78.4531264,
        "tags": {
          "addr:district": "Hyderabad",
          "addr:full": "Sapphire Block, Amrutha Hills, Punjagutta",
          "addr:postcode": "500082",
          "addr:state": "Telangana",
          "amenity": "hospital",
          "name": "Amrutha Diabetic Centre",
          "source": "OpenGovernmentData"
        }
      },
      {
        "type": "node",
        "id": 6504269305,
        "lat": 17.4251451,
        "lon": 78.4510457,
        "tags": {
          "addr:district": "Hyderabad",
          "addr:full": "6-3-663/7/5, Saibaba Temple Road, Dwarakapuri, Punjagutta",
          "addr:postcode": "500082",
          "addr:state": "Telangana",
          "amenity": "hospital",
          "health_facility:type": "Allergy and Headache Clinic;Vertigo Clinic;Sleep Lab;Audiology;Speech Therapy;Clinical Lab;X ray;ECG",
          "healthcare:speciality": "Radio Frequency Surgery;Micro Ear Surgery;Endoscopic Sinus Surgery;Micro Laryngeal Surgery;Phono Surgery for Voice Disorders;Surgery for Snoring;Head and Neck Surgery",
          "medical_system": "Allopathic",
          "name": "Sree Srinivasa ENT Care and Research Institute",
          "operator:type": "private",
          "phone": "040 2339 4995;040 66664995",
          "source": "OpenGovernmentData",
          "website": "http://www.secri.org/contactus.htm"
        }
      },
      {
        "type": "node",
        "id": 6505218409,
        "lat": 17.4305671,
        "lon": 78.4503329,
        "tags": {
          "addr:district": "Hyderabad",
          "addr:full": "Behind Durga Malleswara Swamy Temple, 1/2 RT, Housing Board Colony, Opposite Mosque, Panjagutta",
          "addr:postcode": "500008",
          "addr:state": "Telangana",
          "amenity": "hospital",
          "healthcare:speciality": "Laser; Storz Tricam; Storz Endoscopes; Storz Headcam; Storz Xenon Cold Light Sources; Xomed Micro Debrider; Xomed Skeeter Drill; Ventilating Bronchoscopes with Optical Forceps; Temporal Bone Dissection Laboratory",
          "medical_system": "Allopathic",
          "name": "Dr.Rao's ENT Super Speciality Hospital",
          "operator:type": "private",
          "phone": "040 45689977",
          "source": "OpenGovernmentData",
          "website": "https://raosentcare.com"
        }
      },
      {
        "type": "node",
        "id": 6510503879,
        "lat": 17.4270433,
        "lon": 78.450353,
        "tags": {
          "addr:district": "Hyderabad",
          "addr:full": "Plot No. 30, Nagarjuna Hills, Punjagutta",
          "addr:postcode": "500082",
          "addr:state": "Telangana",
          "amenity": "hospital",
          "email": "info@lsch.in",
          "name": "Little Star Children's Hospital (A Unit Of Thirumala Child Health Services Pvt. Ltd)",
          "phone": "040 6699 2345",
          "source": "OpenGovernmentData",
          "website": "www.lsch.in"
        }
      },
      {
        "type": "node",
        "id": 6513323438,
        "lat": 17.4314653,
        "lon": 78.4466797,
        "tags": {
          "addr:district": "Hyderabad",
          "addr:full": "8-3-903/F/12&13, Image House, Behind Chermas, Ameerpet",
          "addr:postcode": "500073",
          "addr:state": "Telangana",
          "amenity": "hospital",
          "fax": "2375555; 23746616",
          "name": "Image Hospital",
          "source": "OpenGovernmentData"
        }
      },
      {
        "type": "node",
        "id": 6527671224,
        "lat": 17.4322118,
        "lon": 78.4490681,
        "tags": {
          "addr:district": "Hyderabad",
          "addr:full": "Durga Nagar Colony, Opp Gold Spot, Ameerpet",
          "addr:postcode": "500016",
          "addr:state": "Telangana",
          "amenity": "hospital",
          "name": "Disneys Medi-Kid Hospitals Pvt. Ltd",
          "source": "OpenGovernmentData"
        }
      },
      {
        "type": "node",
        "id": 6549145506,
        "lat": 17.4205712,
        "lon": 78.4416855,
        "tags": {
          "addr:district": "Hyderabad",
          "addr:full": "8-2-413/B, ROAD NO. 4, BANJARA HILLS",
          "addr:postcode": "500034",
          "addr:state": "Telangana",
          "amenity": "hospital",
          "contact:phone": "4023351144",
          "healthcare": "hospital",
          "name": "Times Hospital",
          "operator:type": "private",
          "source": "OpenGovernmentData"
        }
      },
      {
        "type": "node",
        "id": 6549211440,
        "lat": 17.4160331,
        "lon": 78.4473536,
        "tags": {
          "addr:full": "H.No: .8-2-595/3, Opp: CARE CONVERGENCE, ROAD No.10, BANJARAHILLS",
          "addr:postcode": "500034",
          "addr:state": "Telangana",
          "amenity": "hospital",
          "contact:phone": "4023350733",
          "name": "HIGH SIGHT SUPER SPECILAITY EYE HOSPITAL",
          "operator:type": "private",
          "source": "OpenGovernmentData"
        }
      },
      {
        "type": "node",
        "id": 6771713700,
        "lat": 17.4296516,
        "lon": 78.4554308,
        "tags": {
          "amenity": "restaurant",
          "name": "Sri Kanya Comfort"
        }
      },
      {
        "type": "node",
        "id": 6811749047,
        "lat": 17.4329564,
        "lon": 78.4461388,
        "tags": {
          "addr:district": "Hyderabad",
          "addr:full": "Shop No.2, Yaseen Complex, Opposite Chennai Shopping Mall, Ameerpet",
          "addr:state": "Telangana",
          "amenity": "hospital",
          "name": "Gutta Eye Clinic",
          "source": "OpenGovernmentData"
        }
      },
      {
        "type": "node",
        "id": 6811749070,
        "lat": 17.4277736,
        "lon": 78.4573355,
        "tags": {
          "addr:district": "Hyderabad",
          "addr:full": "H.No: 6-3-1106/1/A, Near HSBC BANK, Raj Bhavan Road, Somajiguda",
          "addr:state": "Telangana",
          "amenity": "hospital",
          "name": "ZOI Hospital",
          "operator:type": "Private",
          "source": "OpenGovernmentData"
        }
      },
      {
        "type": "node",
        "id": 6811749102,
        "lat": 17.431901,
        "lon": 78.446376,
        "tags": {
          "addr:district": "Hyderabad",
          "addr:full": "F-8, Wureka Court, Lane Adj To Bata Showroom, Ameerpet",
          "addr:postcode": "500073",
          "addr:state": "Telangana",
          "amenity": "clinic",
          "name": "Alavi Eye Clinic",
          "source": "OpenGovernmentData"
        }
      },
      {
        "type": "node",
        "id": 6811749172,
        "lat": 17.432609,
        "lon": 78.446198,
        "tags": {
          "addr:district": "Hyderabad",
          "addr:full": "8-3-945, Shop No.4, New Science College Lane, Nagarjuna Nagar colony, Ameerpet",
          "addr:postcode": "500073",
          "addr:state": "Telangana",
          "amenity": "clinic",
          "name": "G.K.Poly Clinic",
          "source": "OpenGovernmentData"
        }
      },
      {
        "type": "node",
        "id": 6822126525,
        "lat": 17.4325622,
        "lon": 78.4460138,
        "tags": {
          "amenity": "restaurant",
          "name": "SHIVANYA RESTAURANT",
          "source": "survey"
        }
      },
      {
        "type": "node",
        "id": 6822126527,
        "lat": 17.421204,
        "lon": 78.456416,
        "tags": {
          "name": "Laxmi stores",
          "shop": "department_store",
          "source": "survey"
        }
      },
      {
        "type": "node",
        "id": 6822126533,
        "lat": 17.4192438,
        "lon": 78.4418493,
        "tags": {
          "amenity": "cafe",
          "name": "Telangana tea stall",
          "source": "survey"
        }
      },
      {
        "type": "node",
        "id": 6822126577,
        "lat": 17.427514,
        "lon": 78.457434,
        "tags": {
          "amenity": "atm",
          "name": "State Bank ATM",
          "source": "survey"
        }
      },
      {
        "type": "node",
        "id": 6863917785,
        "lat": 17.4282225,
        "lon": 78.4568421,
        "tags": {
          "amenity": "bank",
          "brand": "State Bank of India",
          "brand:wikidata": "Q1340361",
          "name": "State Bank of India",
          "short_name": "SBI"
        }
      },
      {
        "type": "node",
        "id": 7099403699,
        "lat": 17.421687,
        "lon": 78.4525812,
        "tags": {
          "amenity": "clinic",
          "name": "Department of Physiotherapy"
        }
      },
      {
        "type": "node",
        "id": 9605987726,
        "lat": 17.4161363,
        "lon": 78.449655,
        "tags": {
          "amenity": "atm",
          "brand": "HDFC Bank",
          "brand:wikidata": "Q631047",
          "level": "H",
          "name": "HDFC Bank",
          "operator": "HDFC Bank",
          "operator:wikidata": "Q631047",
          "short_name": "HDFC"
        }
      },
      {
        "type": "node",
        "id": 9611895248,
        "lat": 17.4282949,
        "lon": 78.4568453,
        "tags": {
          "amenity": "bank"
        }
      },
      {
        "type": "node",
        "id": 9907852281,
        "lat": 17.4243286,
        "lon": 78.4525318,
        "tags": {
          "addr:city": "Hyderabad",
          "addr:housenumber": "6-3-347/9/4/c",
          "addr:postcode": "500082",
          "addr:street": "Saibaba Temple Road",
          "air_conditioning": "yes",
          "amenity": "restaurant",
          "cuisine": "indian;biryani",
          "diet:non-vegetarian": "yes",
          "diet:vegetarian": "yes",
          "name": "Desi Donne Biryani",
          "takeaway": "yes"
        }
      },
      {
        "type": "node",
        "id": 10279728112,
        "lat": 17.4244067,
        "lon": 78.4552118,
        "tags": {
          "addr:city": "Hyderabad",
          "addr:street": "Durga Nagar Road",
          "amenity": "bank",
          "brand": "Bank of Baroda",
          "brand:wikidata": "Q2003797",
          "name": "Bank of Baroda"
        }
      },
      {
        "type": "node",
        "id": 10279728115,
        "lat": 17.4245106,
        "lon": 78.452603,
        "tags": {
          "addr:city": "Hyderabad",
          "addr:street": "Saibaba Temple Road",
          "name": "Urban Super Mart",
          "shop": "supermarket"
        }
      },
      {
        "type": "node",
        "id": 10279842268,
        "lat": 17.4271804,
        "lon": 78.4524443,
        "tags": {
          "amenity": "restaurant",
          "name": "Mehfil Restaurant"
        }
      },
      {
        "type": "node",
        "id": 10279842270,
        "lat": 17.4289831,
        "lon": 78.4503798,
        "tags": {
          "addr:city": "Hyderabad",
          "addr:street": "Ameerpet Road - Panjagutta Main Road",
          "amenity": "fast_food",
          "brand": "Taco Bell",
          "brand:wikidata": "Q752941",
          "cuisine": "tex-mex",
          "name": "Taco Bell",
          "takeaway": "yes"
        }
      },
      {
        "type": "node",
        "id": 10279842271,
        "lat": 17.4263366,
        "lon": 78.4530858,
        "tags": {
          "addr:city": "Hyderabad",
          "addr:street": "Punjagutta Junction",
          "amenity": "fast_food",
          "brand": "McDonald's",
          "brand:wikidata": "Q38076",
          "cuisine": "burger",
          "name": "McDonald's",
          "takeaway": "yes"
        }
      },
      {
        "type": "node",
        "id": 10279842272,
        "lat": 17.4264124,
        "lon": 78.4530515,
        "tags": {
          "alt_name": "Kentucky Fried Chicken",
          "alt_name:en": "Kentucky Fried Chicken",
          "alt_name:hi": "\u0915\u0947\u0902\u091f\u0941\u0915\u0940 \u092b\u094d\u0930\u093e\u0907\u0921 \u091a\u093f\u0915\u0928",
          "alt_name:pa": "\u0a15\u0a48\u0a02\u0a1f\u0a41\u0a15\u0a40 \u0a2b\u0a4d\u0a30\u0a3e\u0a08\u0a21 \u0a1a\u0a3f\u0a15\u0a28",
          "alt_name:pnb": "\u06a9\u06cc\u0646\u0679\u06a9\u06cc \u0641\u0631\u0627\u0626\u06cc\u0688 \u0686\u06a9\u0646",
          "alt_name:ur": "\u06a9\u06cc\u0646\u0679\u06a9\u06cc \u0641\u0631\u0627\u0626\u06cc\u0688 \u0686\u06a9\u0646",
          "amenity": "fast_food",
          "brand": "KFC",
          "brand:en": "KFC",
          "brand:hi": "\u0915\u0947\u090f\u092b\u0938\u0940",
          "brand:pa": "\u0a15\u0a47\u0a10\u0a2b\u0a38\u0a40",
          "brand:pnb": "\u06a9\u06d2 \u0627\u06cc\u0641 \u0633\u06cc",
          "brand:ur": "\u06a9\u06d2 \u0627\u06cc\u0641 \u0633\u06cc",
          "brand:wikidata": "Q524757",
          "cuisine": "chicken",
          "name": "KFC",
          "name:en": "KFC",
          "name:hi": "\u0915\u0947\u090f\u092b\u0938\u0940",
          "name:pa": "\u0a15\u0a47\u0a10\u0a2b\u0a38\u0a40",
          "name:pnb": "\u06a9\u06d2 \u0627\u06cc\u0641 \u0633\u06cc",
          "name:ur": "\u06a9\u06d2 \u0627\u06cc\u0641 \u0633\u06cc",
          "takeaway": "yes"
        }
      },
      {
        "type": "node",
        "id": 10279842274,
        "lat": 17.4239877,
        "lon": 78.4542857,
        "tags": {
          "addr:city": "Hyderabad",
          "addr:street": "Panjagutta Main Road",
          "amenity": "pharmacy",
          "healthcare": "pharmacy",
          "name": "Appollo Pharmacy"
        }
      },
      {
        "type": "node",
        "id": 10279842275,
        "lat": 17.4238251,
        "lon": 78.4542871,
        "tags": {
          "addr:city": "Hyderabad",
          "addr:street": "Panjagutta Main Road",
          "amenity": "pharmacy",
          "healthcare": "pharmacy",
          "name": "Arogya Medicals"
        }
      },
      {
        "type": "node",
        "id": 10279842276,
        "lat": 17.4237644,
        "lon": 78.4543324,
        "tags": {
          "addr:city": "Hyderabad",
          "addr:street": "Panjagutta Main Road",
          "amenity": "pharmacy",
          "healthcare": "pharmacy",
          "name": "Bhargav Medicals"
        }
      },
      {
        "type": "node",
        "id": 10279842278,
        "lat": 17.4221402,
        "lon": 78.4548339,
        "tags": {
          "addr:city": "Hyderabad",
          "addr:street": "Somajiguda Road - Panjagutta Main Road",
          "amenity": "cafe",
          "name": "Asiatic cafe"
        }
      },
      {
        "type": "node",
        "id": 10280159809,
        "lat": 17.4333993,
        "lon": 78.4471765,
        "tags": {
          "addr:city": "Hyderabad",
          "addr:street": "Ameerpet Road",
          "amenity": "food_court",
          "name": "Kakatiya Mess- Take Away"
        }
      },
      {
        "type": "node",
        "id": 10280159814,
        "lat": 17.4335367,
        "lon": 78.447321,
        "tags": {
          "addr:city": "Hyderabad",
          "addr:street": "Ameerpet Road",
          "amenity": "food_court",
          "name": "Subbayya Gari Hotel"
        }
      },
      {
        "type": "node",
        "id": 10280159833,
        "lat": 17.4279218,
        "lon": 78.452497,
        "tags": {
          "addr:city": "Hyderabad",
          "addr:street": "Greenlands Road",
          "amenity": "restaurant",
          "name": "The Seventh Heaven Restuarant and Bar"
        }
      },
      {
        "type": "node",
        "id": 11015782751,
        "lat": 17.4265089,
        "lon": 78.4575557,
        "tags": {
          "addr:street": "Raj Bhavan Road",
          "amenity": "cafe",
          "brand": "Cafe Coffee Day",
          "brand:wikidata": "Q5017235",
          "check_date": "2023-06-30",
          "cuisine": "coffee_shop",
          "name": "Cafe Coffee Day",
          "takeaway": "yes"
        }
      },
      {
        "type": "node",
        "id": 11015804254,
        "lat": 17.4263536,
        "lon": 78.4569342,
        "tags": {
          "addr:street": "Raj Bhavan Road",
          "amenity": "bank",
          "branch": "Raj Bhavan Road Branch",
          "brand": "Indian Overseas Bank",
          "brand:wikidata": "Q2003611",
          "check_date": "2023-06-30",
          "name": "Indian Overseas Bank"
        }
      },
      {
        "type": "node",
        "id": 11015823658,
        "lat": 17.4261484,
        "lon": 78.4569628,
        "tags": {
          "amenity": "fast_food",
          "check_date": "2023-06-30",
          "cuisine": "chicken",
          "name": "Bronzy Fried Chicken"
        }
      },
      {
        "type": "node",
        "id": 11015905458,
        "lat": 17.4253638,
        "lon": 78.4568762,
        "tags": {
          "amenity": "pharmacy",
          "brand": "Apollo Pharmacy",
          "brand:wikidata": "Q62562612",
          "check_date": "2023-06-30",
          "healthcare": "pharmacy",
          "name": "Apollo Pharmacy"
        }
      },
      {
        "type": "node",
        "id": 11015908542,
        "lat": 17.4252249,
        "lon": 78.4569298,
        "tags": {
          "check_date": "2023-06-30",
          "name": "Shri Saibaba Kirana General Store",
          "shop": "department_store"
        }
      },
      {
        "type": "node",
        "id": 11027534546,
        "lat": 17.4321204,
        "lon": 78.4461681,
        "tags": {
          "amenity": "cafe",
          "name": "Rose land cafe"
        }
      },
      {
        "type": "node",
        "id": 11027534547,
        "lat": 17.432146,
        "lon": 78.4460541,
        "tags": {
          "amenity": "food_court",
          "name": "Lassi shop"
        }
      },
      {
        "type": "node",
        "id": 11027534549,
        "lat": 17.432148,
        "lon": 78.4458335,
        "tags": {
          "amenity": "bank",
          "brand": "Karur Vysya Bank",
          "brand:wikidata": "Q6373724",
          "name": "Karur Vysya Bank"
        }
      },
      {
        "type": "node",
        "id": 11027534551,
        "lat": 17.4317985,
        "lon": 78.445258,
        "tags": {
          "amenity": "atm",
          "brand": "State Bank of India",
          "brand:wikidata": "Q1340361",
          "name": "State Bank of India",
          "operator": "State Bank of India",
          "operator:wikidata": "Q1340361",
          "short_name": "SBI"
        }
      },
      {
        "type": "node",
        "id": 11027534552,
        "lat": 17.4317717,
        "lon": 78.4455728,
        "tags": {
          "amenity": "hospital",
          "healthcare": "hospital",
          "name": "Shishira hospitals"
        }
      },
      {
        "type": "node",
        "id": 11027534558,
        "lat": 17.4319921,
        "lon": 78.446036,
        "tags": {
          "amenity": "clinic",
          "healthcare": "clinic",
          "name": "Pareena Eye care center"
        }
      },
      {
        "type": "node",
        "id": 11027534561,
        "lat": 17.431799,
        "lon": 78.4468438,
        "tags": {
          "amenity": "restaurant",
          "name": "Hotel Sarovar"
        }
      },
      {
        "type": "node",
        "id": 11027534563,
        "lat": 17.4314966,
        "lon": 78.4473474,
        "tags": {
          "amenity": "hospital",
          "healthcare": "hospital",
          "name": "Image Hospital"
        }
      },
      {
        "type": "node",
        "id": 11027534564,
        "lat": 17.4302495,
        "lon": 78.4487075,
        "tags": {
          "amenity": "hospital",
          "healthcare": "hospital",
          "name": "Medkid children's hospital"
        }
      },
      {
        "type": "node",
        "id": 11033994406,
        "lat": 17.4254886,
        "lon": 78.4573098,
        "tags": {
          "amenity": "restaurant",
          "check_date": "2023-07-08",
          "name": "Swathi Tiffins"
        }
      },
      {
        "type": "node",
        "id": 11034008431,
        "lat": 17.4253327,
        "lon": 78.4573464,
        "tags": {
          "amenity": "restaurant",
          "check_date": "2023-07-08",
          "name": "Annapoorna Darshini Tiffins & Meals"
        }
      },
      {
        "type": "node",
        "id": 11330792641,
        "lat": 17.424595,
        "lon": 78.4566843,
        "tags": {
          "addr:city": "Hyderabad",
          "addr:district": "Hyderabad",
          "addr:postcode": "500082",
          "addr:street": "KL Health Centre Clinic ,7-1-215 C/1,Ameerpet- Balkampet Main Road, Ameerpet",
          "amenity": "clinic",
          "healthcare": "clinic",
          "healthcare:speciality": "orthopaedics",
          "name": "Dr. Kiran Lingutla",
          "operator": "Novosalus Technology",
          "operator:type": "private"
        }
      },
      {
        "type": "node",
        "id": 11420436685,
        "lat": 17.4283748,
        "lon": 78.4552907,
        "tags": {
          "amenity": "restaurant",
          "check_date": "2023-11-17",
          "cuisine": "indian",
          "name": "Kritugua"
        }
      },
      {
        "type": "node",
        "id": 11422123669,
        "lat": 17.4261044,
        "lon": 78.4569305,
        "tags": {
          "addr:street": "Raj Bhavan Road",
          "amenity": "restaurant",
          "name": "Bronzy Fried Chicken"
        }
      },
      {
        "type": "node",
        "id": 11747882232,
        "lat": 17.4282437,
        "lon": 78.4569078,
        "tags": {
          "addr:housenumber": "House No 6-3-1119/1/A",
          "addr:street": "Kirtilal Jewellery Lane",
          "amenity": "bank",
          "atm": "yes",
          "brand": "HSBC",
          "brand:wikidata": "Q190464",
          "check_date": "2024-03-20",
          "internet_access": "wlan",
          "internet_access:fee": "no",
          "name": "HSBC"
        }
      },
      {
        "type": "node",
        "id": 11747882233,
        "lat": 17.4264967,
        "lon": 78.4574629,
        "tags": {
          "check_date": "2024-03-20",
          "internet_access": "no",
          "name": "Kirana Ghar",
          "opening_hours": "Mo-Su 09:00-21:00",
          "payment:cash": "yes",
          "payment:credit_cards": "yes",
          "payment:debit_cards": "yes",
          "shop": "supermarket"
        }
      },
      {
        "type": "node",
        "id": 12410053301,
        "lat": 17.4192631,
        "lon": 78.4427505,
        "tags": {
          "amenity": "restaurant",
          "cuisine": "asian",
          "name": "Hibacci - Asian Fusion Restaurant",
          "website:menu": "https://www.zomato.com/hyderabad/hibacci-north-east-asian-kitchen-4-banjara-hills/menu"
        }
      },
      {
        "type": "node",
        "id": 12413099402,
        "lat": 17.4192638,
        "lon": 78.442749,
        "tags": {
          "amenity": "restaurant",
          "name": "Hibacci Asian Fusion Restaurant"
        }
      }
    ]
  },
  "pois_2_5km": {
    "version": 0.6,
    "generator": "Overpass API 0.7.62.8 e802775f",
    "osm3s": {
      "timestamp_osm_base": "2025-09-06T08:42:02Z",
      "copyright": "The data included in this document is from www.openstreetmap.org. The data is made available under ODbL."
    },
    "elements": [
      {
        "type": "node",
        "id": 289582012,
        "lat": 17.4245107,
        "lon": 78.4626514,
        "tags": {
          "name": "Necklace Road",
          "name:te": "\u0c28\u0c46\u0c15\u0c4d\u0c32\u0c46\u0c38\u0c4d \u0c30\u0c4b\u0c21\u0c4d\u0c21\u0c41",
          "public_transport": "stop_position",
          "railway": "stop",
          "ref": "1",
          "train": "yes"
        }
      },
      {
        "type": "node",
        "id": 289582025,
        "lat": 17.4129744,
        "lon": 78.4610582,
        "tags": {
          "internet_access": "no",
          "name": "Khairatabad",
          "name:te": "\u0c16\u0c48\u0c30\u0c24\u0c3e\u0c2c\u0c3e\u0c26\u0c4d",
          "name:ur": "\u062e\u06cc\u0631\u062a \u0622\u0628\u0627\u062f",
          "network": "IR",
          "operator": "SCR",
          "platforms": "2",
          "public_transport": "station",
          "railway": "station",
          "ref": "KQD",
          "train": "yes",
          "wikidata": "Q6399082",
          "wikipedia": "en:Khairatabad railway station"
        }
      },
      {
        "type": "node",
        "id": 289582401,
        "lat": 17.4233355,
        "lon": 78.4631857,
        "tags": {
          "internet_access": "no",
          "name": "Necklace Road",
          "name:te": "\u0c28\u0c46\u0c15\u0c4d\u0c32\u0c46\u0c38\u0c4d \u0c30\u0c4b\u0c21\u0c4d\u0c21\u0c41",
          "name:ur": "\u0646\u06a9\u0644\u06cc\u0633 \u0631\u0648\u0688",
          "network": "IR",
          "operator": "SCR",
          "platforms": "2",
          "public_transport": "station",
          "railway": "station",
          "ref": "NLRD",
          "train": "yes",
          "wikidata": "Q6985575",
          "wikipedia": "en:Necklace Road railway station"
        }
      },
      {
        "type": "node",
        "id": 343319245,
        "lat": 17.4456571,
        "lon": 78.4521487,
        "tags": {
          "internet_access": "no",
          "name": "Nature Cure Hospital",
          "name:te": "\u0c2a\u0c4d\u0c30\u0c15\u0c43\u0c24\u0c3f \u0c1a\u0c3f\u0c15\u0c3f\u0c24\u0c4d\u0c38\u0c3e\u0c32\u0c2f \u0c30\u0c48\u0c32\u0c4d\u0c35\u0c47 \u0c38\u0c4d\u0c1f\u0c47\u0c37\u0c28\u0c4d",
          "network": "IR",
          "operator": "SCR",
          "platforms": "2",
          "public_transport": "station",
          "railway": "station",
          "ref": "NCHS",
          "train": "yes",
          "wikidata": "Q6980906",
          "wikipedia": "en:Nature Cure Hospital railway station"
        }
      },
      {
        "type": "node",
        "id": 343641073,
        "lat": 17.4386951,
        "lon": 78.4580969,
        "tags": {
          "internet_access": "no",
          "name": "Begumpet",
          "name:te": "\u0c2c\u0c47\u0c17\u0c02\u0c2a\u0c47\u0c1f\u0c4d",
          "name:ur": "\u0628\u06cc\u06af\u0645 \u067e\u06cc\u0679",
          "network": "IR",
          "operator": "SCR",
          "platforms": "2",
          "public_transport": "station",
          "railway": "station",
          "ref": "BMT",
          "train": "yes",
          "wikidata": "Q4880629",
          "wikipedia": "en:Begumpet railway station"
        }
      },
      {
        "type": "node",
        "id": 344033748,
        "lat": 17.4233743,
        "lon": 78.4278935,
        "tags": {
          "amenity": "cinema",
          "brand": "PVR Cinemas",
          "brand:short": "PVR",
          "brand:wikidata": "Q3359908",
          "name": "PVR Cinemas",
          "name:te": "\u0c38\u0c3f\u0c28\u0c40 \u0c2e\u0c3e\u0c15\u0c4d\u0c38\u0c4d"
        }
      },
      {
        "type": "node",
        "id": 813570842,
        "lat": 17.4263594,
        "lon": 78.451396,
        "tags": {
          "amenity": "fuel",
          "brand": "Indian Oil",
          "brand:wikidata": "Q1289348",
          "brand:wikipedia": "en:Indian Oil Corporation",
          "name": "Indian Oil"
        }
      },
      {
        "type": "node",
        "id": 814748141,
        "lat": 17.4273769,
        "lon": 78.4395446,
        "tags": {
          "amenity": "fuel",
          "brand": "Indian Oil",
          "brand:wikidata": "Q1289348",
          "brand:wikipedia": "en:Indian Oil Corporation",
          "name": "Indian Oil"
        }
      },
      {
        "type": "node",
        "id": 890312487,
        "lat": 17.418803,
        "lon": 78.4484007,
        "tags": {
          "amenity": "cinema",
          "brand": "INOX Leisure",
          "brand:wikidata": "Q5972349",
          "name": "INOX Cinema",
          "name:te": "\u0c10\u0c28\u0c3e\u0c15\u0c4d\u0c38\u0c4d \u0c38\u0c3f\u0c28\u0c3f\u0c2e\u0c3e",
          "short_name": "INOX"
        }
      },
      {
        "type": "node",
        "id": 1152688354,
        "lat": 17.4073584,
        "lon": 78.4555516,
        "tags": {
          "amenity": "theatre"
        }
      },
      {
        "type": "node",
        "id": 1259088726,
        "lat": 17.4115781,
        "lon": 78.4610668,
        "tags": {
          "amenity": "fuel"
        }
      },
      {
        "type": "node",
        "id": 1534935432,
        "lat": 17.4238,
        "lon": 78.4263912,
        "tags": {
          "amenity": "cinema",
          "name": "Prasads Lab preview Theatre"
        }
      },
      {
        "type": "node",
        "id": 1666010778,
        "lat": 17.4232572,
        "lon": 78.4589653,
        "tags": {
          "amenity": "fuel",
          "brand": "Shell",
          "brand:wikidata": "Q110716465",
          "fuel:diesel": "yes",
          "fuel:octane_91": "yes",
          "name": "Shell Petrol Bunk",
          "operator": "Shell"
        }
      },
      {
        "type": "node",
        "id": 1883484106,
        "lat": 17.4302638,
        "lon": 78.4484072,
        "tags": {
          "addr:city": "Hyderabad",
          "addr:state": "Telangana",
          "addr:street": "Ameerpet Road",
          "air_conditioning": "yes",
          "amenity": "cinema",
          "name": "Platinum Cinemas"
        }
      },
      {
        "type": "node",
        "id": 1883501408,
        "lat": 17.4298122,
        "lon": 78.4321238,
        "tags": {
          "amenity": "fuel",
          "brand": "IBP"
        }
      },
      {
        "type": "node",
        "id": 2177960405,
        "lat": 17.4362628,
        "lon": 78.4291105,
        "tags": {
          "amenity": "fuel"
        }
      },
      {
        "type": "node",
        "id": 2352099065,
        "lat": 17.4211261,
        "lon": 78.4559994,
        "tags": {
          "amenity": "fuel",
          "brand": "Indian Oil",
          "brand:wikidata": "Q1289348",
          "brand:wikipedia": "en:Indian Oil Corporation",
          "fuel:diesel": "yes",
          "fuel:petrol": "yes",
          "name": "Indian Oil Fuel Station"
        }
      },
      {
        "type": "node",
        "id": 2352100154,
        "lat": 17.4206051,
        "lon": 78.4563468,
        "tags": {
          "amenity": "fuel",
          "brand": "Bharat Petroleum",
          "brand:wikidata": "Q854826",
          "building": "yes",
          "name": "Bharat Petroleum"
        }
      },
      {
        "type": "node",
        "id": 2422172970,
        "lat": 17.4375661,
        "lon": 78.4569341,
        "tags": {
          "name": "Begumpet",
          "name:ml": "\u0d2c\u0d47\u0d17\u0d02\u0d2a\u0d47\u0d1f\u0d4d\u0d1f\u0d4d",
          "name:te": "\u0c2c\u0c47\u0c17\u0c02\u0c2a\u0c47\u0c1f\u0c4d",
          "name:ur": "\u0628\u06cc\u06af\u0645 \u067e\u06cc\u0679",
          "network": "Hyderabad Metro",
          "note": "Contributors are requested to not edit the \"network\" and the \"operator\" tags. (2023/11/08)",
          "operator": "Hyderabad Metro Rail Limited",
          "public_transport": "station",
          "railway": "station",
          "station": "subway",
          "subway": "yes"
        }
      },
      {
        "type": "node",
        "id": 2422172987,
        "lat": 17.4375612,
        "lon": 78.4569588,
        "tags": {
          "name": "Begumpet",
          "name:te": "\u0c2c\u0c47\u0c17\u0c02\u0c2a\u0c47\u0c1f\u0c4d",
          "network": "Hyderabad Metro",
          "note": "Contributors are requested to not edit the \"network\" and the \"operator\" tags. (2023/11/08)",
          "operator": "Hyderabad Metro Rail Limited",
          "public_transport": "stop_position",
          "railway": "stop",
          "subway": "yes",
          "wikidata": "Q84301996",
          "wikipedia": "en:Begumpet metro station"
        }
      },
      {
        "type": "node",
        "id": 2422172989,
        "lat": 17.436951,
        "lon": 78.4391108,
        "tags": {
          "alt_name": "Taruni Madhura Nagar",
          "name": "Madhura Nagar",
          "name:te": "\u0c2e\u0c27\u0c41\u0c30 \u0c28\u0c17\u0c30\u0c4d",
          "network": "Hyderabad Metro",
          "note": "Contributors are requested to not edit the \"network\" and the \"operator\" tags. (2023/11/08)",
          "operator": "Hyderabad Metro Rail Limited",
          "public_transport": "stop_position",
          "railway": "stop",
          "subway": "yes"
        }
      },
      {
        "type": "node",
        "id": 2422173110,
        "lat": 17.4353341,
        "lon": 78.4446031,
        "tags": {
          "name": "Ameerpet",
          "name:te": "\u0c05\u0c2e\u0c40\u0c30\u0c4d\u200c\u0c2a\u0c47\u0c1f\u0c4d",
          "network": "Hyderabad Metro",
          "note": "Contributors are requested to not edit the \"network\" and the \"operator\" tags. (2023/11/08)",
          "operator": "Hyderabad Metro Rail Limited",
          "public_transport": "stop_position",
          "public_transport:version": "2",
          "railway": "stop",
          "subway": "yes",
          "wikidata": "Q56701862",
          "wikipedia": "en:Ameerpet metro station"
        }
      },
      {
        "type": "node",
        "id": 2422988997,
        "lat": 17.4355002,
        "lon": 78.4447343,
        "tags": {
          "addr:city": "Hyderabad",
          "addr:city:ar": "\u062d\u064a\u062f\u0631 \u0622\u0628\u0627\u062f",
          "addr:city:ur": "\u062d\u06cc\u062f\u0631\u0622\u0628\u0627\u062f",
          "name": "Ameerpet",
          "name:te": "\u0c05\u0c2e\u0c40\u0c30\u0c4d\u200c\u0c2a\u0c47\u0c1f\u0c4d",
          "network": "Hyderabad Metro",
          "note": "Contributors are requested to not edit the \"network\" and the \"operator\" tags. (2023/11/08)",
          "operator": "Hyderabad Metro Rail Limited",
          "public_transport": "stop_position",
          "public_transport:version": "2",
          "railway": "stop",
          "subway": "yes",
          "wikidata": "Q56701862",
          "wikipedia": "en:Ameerpet metro station"
        }
      },
      {
        "type": "node",
        "id": 2422989191,
        "lat": 17.4202292,
        "lon": 78.4563489,
        "tags": {
          "addr:city": "Hyderabad",
          "addr:city:ar": "\u062d\u064a\u062f\u0631 \u0622\u0628\u0627\u062f",
          "addr:city:ur": "\u062d\u06cc\u062f\u0631\u0622\u0628\u0627\u062f",
          "name": "Irrum Manzil",
          "name:ml": "\u0d0e\u0d31\u0d02 \u0d2e\u0d7b\u0d38\u0d3f\u0d7d",
          "name:te": "\u0c07\u0c31\u0c02 \u0c2e\u0c02\u0c1c\u0c3f\u0c32\u0c4d",
          "network": "Hyderabad Metro",
          "note": "Contributors are requested to not edit the \"network\" and the \"operator\" tags. (2023/11/08)",
          "operator": "Hyderabad Metro Rail Limited",
          "public_transport": "stop_position",
          "public_transport:version": "2",
          "railway": "stop",
          "subway": "yes"
        }
      },
      {
        "type": "node",
        "id": 2422989193,
        "lat": 17.443146,
        "lon": 78.4408077,
        "tags": {
          "addr:city": "Hyderabad",
          "addr:city:ar": "\u062d\u064a\u062f\u0631 \u0622\u0628\u0627\u062f",
          "addr:city:ur": "\u062d\u06cc\u062f\u0631\u0622\u0628\u0627\u062f",
          "name": "S. R. Nagar",
          "name:te": "\u0c0e\u0c38\u0c4d.\u0c06\u0c30\u0c4d. \u0c28\u0c17\u0c30\u0c4d",
          "network": "Hyderabad Metro",
          "note": "Contributors are requested to not edit the \"network\" and the \"operator\" tags. (2023/11/08)",
          "operator": "Hyderabad Metro Rail Limited",
          "public_transport": "stop_position",
          "public_transport:version": "2",
          "railway": "stop",
          "subway": "yes"
        }
      },
      {
        "type": "node",
        "id": 2424019772,
        "lat": 17.4284456,
        "lon": 78.4513095,
        "tags": {
          "addr:city": "Hyderabad",
          "addr:city:ar": "\u062d\u064a\u062f\u0631 \u0622\u0628\u0627\u062f",
          "addr:city:ur": "\u062d\u06cc\u062f\u0631\u0622\u0628\u0627\u062f",
          "name": "Panjagutta",
          "name:ml": "\u0d2a\u0d1e\u0d4d\u0d1a\u0d17\u0d41\u0d1f\u0d4d\u0d1f",
          "name:te": "\u0c2a\u0c02\u0c1c\u0c3e\u0c17\u0c41\u0c1f\u0c4d\u0c1f",
          "network": "Hyderabad Metro",
          "note": "Contributors are requested to not edit the \"network\" and the \"operator\" tags. (2023/11/08)",
          "operator": "Hyderabad Metro Rail Limited",
          "public_transport": "stop_position",
          "public_transport:version": "2",
          "railway": "stop",
          "subway": "yes"
        }
      },
      {
        "type": "node",
        "id": 2461447890,
        "lat": 17.4385942,
        "lon": 78.458062,
        "tags": {
          "name": "Begumpet",
          "name:kn": "\u0cac\u0cc7\u0c97\u0c82\u0caa\u0cc7\u0c9f\u0cc6",
          "name:ur": "\u0628\u06cc\u06af\u0645 \u067e\u06cc\u0679",
          "public_transport": "station",
          "railway": "station",
          "ref": "2",
          "train": "yes",
          "wikidata": "Q4880629",
          "wikipedia": "en:Begumpet railway station"
        }
      },
      {
        "type": "node",
        "id": 2461447891,
        "lat": 17.4386323,
        "lon": 78.4580666,
        "tags": {
          "name": "Begumpet",
          "name:kn": "\u0cac\u0cc7\u0c97\u0c82\u0caa\u0cc7\u0c9f\u0cc6",
          "public_transport": "stop_position",
          "railway": "stop",
          "ref": "1",
          "train": "yes"
        }
      },
      {
        "type": "node",
        "id": 3159027221,
        "lat": 17.4362648,
        "lon": 78.4381583,
        "tags": {
          "addr:street": "Yousufguda Main Road",
          "amenity": "fuel",
          "brand": "Indian Oil",
          "brand:wikidata": "Q1289348",
          "brand:wikipedia": "en:Indian Oil Corporation",
          "name": "Indian Oil",
          "opening_hours": "11:00-22:00",
          "operator": "Indian oil"
        }
      },
      {
        "type": "node",
        "id": 3249112574,
        "lat": 17.4074371,
        "lon": 78.4630567,
        "tags": {
          "amenity": "cinema",
          "name": "Shaam Theatre"
        }
      },
      {
        "type": "node",
        "id": 3784388184,
        "lat": 17.4143528,
        "lon": 78.4609816,
        "tags": {
          "name": "Khairatabad",
          "name:te": "\u0c16\u0c48\u0c30\u0c24\u0c3e\u0c2c\u0c3e\u0c26\u0c4d",
          "public_transport": "stop_position",
          "railway": "stop",
          "ref": "2",
          "train": "yes"
        }
      },
      {
        "type": "node",
        "id": 3784388185,
        "lat": 17.4143598,
        "lon": 78.4610957,
        "tags": {
          "name": "Khairatabad",
          "name:te": "\u0c16\u0c48\u0c30\u0c24\u0c3e\u0c2c\u0c3e\u0c26\u0c4d",
          "public_transport": "stop_position",
          "railway": "stop",
          "ref": "1",
          "train": "yes"
        }
      },
      {
        "type": "node",
        "id": 3784388218,
        "lat": 17.4245006,
        "lon": 78.4626111,
        "tags": {
          "name": "Necklace Road",
          "name:te": "\u0c28\u0c46\u0c15\u0c4d\u0c32\u0c46\u0c38\u0c4d \u0c30\u0c4b\u0c21\u0c4d\u0c21\u0c41",
          "public_transport": "stop_position",
          "railway": "stop",
          "ref": "2",
          "train": "yes"
        }
      },
      {
        "type": "node",
        "id": 4407581196,
        "lat": 17.42008,
        "lon": 78.4308367,
        "tags": {
          "amenity": "bus_station",
          "bus": "yes",
          "name": "Nandi Nagar bus stand",
          "name:en": "Nandi Nagar bus stand",
          "public_transport": "station"
        }
      },
      {
        "type": "node",
        "id": 4556707782,
        "lat": 17.4457469,
        "lon": 78.4522785,
        "tags": {
          "local_ref": "1",
          "name": "Nature Cure Hospital",
          "name:te": "\u0c2a\u0c4d\u0c30\u0c15\u0c43\u0c24\u0c3f \u0c1a\u0c3f\u0c15\u0c3f\u0c24\u0c4d\u0c38\u0c3e\u0c32\u0c2f \u0c30\u0c48\u0c32\u0c4d\u0c35\u0c47 \u0c38\u0c4d\u0c1f\u0c47\u0c37\u0c28\u0c4d",
          "public_transport": "stop_position",
          "railway": "stop",
          "ref": "2",
          "train": "yes"
        }
      },
      {
        "type": "node",
        "id": 4556707783,
        "lat": 17.445761,
        "lon": 78.4523207,
        "tags": {
          "local_ref": "2",
          "name": "Nature Cure Hospital",
          "name:te": "\u0c2a\u0c4d\u0c30\u0c15\u0c43\u0c24\u0c3f \u0c1a\u0c3f\u0c15\u0c3f\u0c24\u0c4d\u0c38\u0c3e\u0c32\u0c2f \u0c30\u0c48\u0c32\u0c4d\u0c35\u0c47 \u0c38\u0c4d\u0c1f\u0c47\u0c37\u0c28\u0c4d",
          "public_transport": "stop_position",
          "railway": "stop",
          "ref": "1",
          "train": "yes"
        }
      },
      {
        "type": "node",
        "id": 4915906017,
        "lat": 17.4306214,
        "lon": 78.4556721,
        "tags": {
          "amenity": "fuel",
          "compressed_air": "yes",
          "name": "Petrol Pump"
        }
      },
      {
        "type": "node",
        "id": 5620024293,
        "lat": 17.4195272,
        "lon": 78.4486519,
        "tags": {
          "amenity": "cinema",
          "brand": "INOX Leisure",
          "brand:wikidata": "Q5972349",
          "name": "INOX",
          "name:te": "\u0c10\u0c28\u0c3e\u0c15\u0c4d\u0c38\u0c4d",
          "short_name": "INOX"
        }
      },
      {
        "type": "node",
        "id": 5787787982,
        "lat": 17.4353528,
        "lon": 78.4446353,
        "tags": {
          "name": "Ameerpet",
          "name:te": "\u0c05\u0c2e\u0c40\u0c30\u0c4d\u200c\u0c2a\u0c47\u0c1f\u0c4d",
          "network": "Hyderabad Metro",
          "note": "Contributors are requested to not edit the \"network\" and the \"operator\" tags. (2023/11/08)",
          "operator": "Hyderabad Metro Rail Limited",
          "public_transport": "stop_position",
          "public_transport:version": "2",
          "railway": "stop",
          "subway": "yes",
          "wikidata": "Q56701862",
          "wikipedia": "en:Ameerpet metro station"
        }
      },
      {
        "type": "node",
        "id": 5787787991,
        "lat": 17.4354849,
        "lon": 78.4447024,
        "tags": {
          "addr:city": "Hyderabad",
          "addr:city:ar": "\u062d\u064a\u062f\u0631 \u0622\u0628\u0627\u062f",
          "addr:city:ur": "\u062d\u06cc\u062f\u0631\u0622\u0628\u0627\u062f",
          "name": "Ameerpet",
          "name:te": "\u0c05\u0c2e\u0c40\u0c30\u0c4d\u200c\u0c2a\u0c47\u0c1f\u0c4d",
          "network": "Hyderabad Metro",
          "note": "Contributors are requested to not edit the \"network\" and the \"operator\" tags. (2023/11/08)",
          "operator": "Hyderabad Metro Rail Limited",
          "public_transport": "stop_position",
          "public_transport:version": "2",
          "railway": "stop",
          "subway": "yes",
          "wikidata": "Q56701862",
          "wikipedia": "en:Ameerpet metro station"
        }
      },
      {
        "type": "node",
        "id": 5787787993,
        "lat": 17.4431312,
        "lon": 78.4407689,
        "tags": {
          "addr:city": "Hyderabad",
          "addr:city:ar": "\u062d\u064a\u062f\u0631 \u0622\u0628\u0627\u062f",
          "addr:city:ur": "\u062d\u06cc\u062f\u0631\u0622\u0628\u0627\u062f",
          "name": "S. R. Nagar",
          "network": "Hyderabad Metro",
          "note": "Contributors are requested to not edit the \"network\" and the \"operator\" tags. (2023/11/08)",
          "operator": "Hyderabad Metro Rail Limited",
          "public_transport": "stop_position",
          "public_transport:version": "2",
          "railway": "stop",
          "subway": "yes"
        }
      },
      {
        "type": "node",
        "id": 5787788011,
        "lat": 17.4289005,
        "lon": 78.4508989,
        "tags": {
          "addr:city": "Hyderabad",
          "addr:city:ar": "\u062d\u064a\u062f\u0631 \u0622\u0628\u0627\u062f",
          "addr:city:ur": "\u062d\u06cc\u062f\u0631\u0622\u0628\u0627\u062f",
          "name": "Panjagutta",
          "name:ml": "\u0d2a\u0d1e\u0d4d\u0d1a\u0d17\u0d41\u0d1f\u0d4d\u0d1f",
          "name:te": "\u0c2a\u0c02\u0c1c\u0c3e\u0c17\u0c41\u0c1f\u0c4d\u0c1f",
          "network": "Hyderabad Metro",
          "note": "Contributors are requested to not edit the \"network\" and the \"operator\" tags. (2023/11/08)",
          "operator": "Hyderabad Metro Rail Limited",
          "public_transport": "stop_position",
          "public_transport:version": "2",
          "railway": "stop",
          "subway": "yes"
        }
      },
      {
        "type": "node",
        "id": 5787788969,
        "lat": 17.4375841,
        "lon": 78.456906,
        "tags": {
          "name": "Begumpet",
          "name:te": "\u0c2c\u0c47\u0c17\u0c02\u0c2a\u0c47\u0c1f\u0c4d",
          "network": "Hyderabad Metro",
          "note": "Contributors are requested to not edit the \"network\" and the \"operator\" tags. (2023/11/08)",
          "operator": "Hyderabad Metro Rail Limited",
          "public_transport": "stop_position",
          "railway": "stop",
          "subway": "yes",
          "wikidata": "Q84301996",
          "wikipedia": "en:Begumpet metro station"
        }
      },
      {
        "type": "node",
        "id": 5961188254,
        "lat": 17.4111614,
        "lon": 78.4609532,
        "tags": {
          "addr:city": "Hyderabad",
          "addr:city:ar": "\u062d\u064a\u062f\u0631 \u0622\u0628\u0627\u062f",
          "addr:city:ur": "\u062d\u06cc\u062f\u0631\u0622\u0628\u0627\u062f",
          "name": "Khairatabad",
          "name:ml": "\u0d16\u0d48\u0d30\u0d24\u0d3e\u0d2c\u0d3e\u0d26\u0d4d",
          "name:te": "\u0c16\u0c48\u0c30\u0c24\u0c3e\u0c2c\u0c3e\u0c26\u0c4d",
          "network": "Hyderabad Metro",
          "note": "Contributors are requested to not edit the \"network\" and the \"operator\" tags. (2023/11/08)",
          "operator": "Hyderabad Metro Rail Limited",
          "public_transport": "stop_position",
          "public_transport:version": "2",
          "railway": "stop",
          "subway": "yes"
        }
      },
      {
        "type": "node",
        "id": 6162823090,
        "lat": 17.4139112,
        "lon": 78.4646316,
        "tags": {
          "amenity": "ferry_terminal",
          "ferry": "yes",
          "name": "Boating",
          "public_transport": "station"
        }
      },
      {
        "type": "node",
        "id": 6444553238,
        "lat": 17.4431396,
        "lon": 78.4407903,
        "tags": {
          "name": "S. R. Nagar",
          "name:ml": "\u0d0e\u0d38\u0d4d \u0d06\u0d7c \u0d28\u0d17\u0d7c",
          "name:te": "\u0c0e\u0c38\u0c4d.\u0c06\u0c30\u0c4d. \u0c28\u0c17\u0c30\u0c4d",
          "network": "Hyderabad Metro",
          "note": "Contributors are requested to not edit the \"network\" and the \"operator\" tags. (2023/11/08)",
          "operator": "Hyderabad Metro Rail Limited",
          "public_transport": "station",
          "public_transport:version": "2",
          "railway": "station",
          "station": "subway",
          "subway": "yes",
          "wikidata": "Q83175963"
        }
      },
      {
        "type": "node",
        "id": 6447191882,
        "lat": 17.4357214,
        "lon": 78.4447933,
        "tags": {
          "name": "Ameerpet (Red Line)",
          "name:ml": "\u0d05\u0d2e\u0d40\u0d7c\u0d2a\u0d47\u0d1f\u0d4d\u0d1f\u0d4d",
          "name:te": "\u0c05\u0c2e\u0c40\u0c30\u0c4d\u200c\u0c2a\u0c47\u0c1f\u0c4d",
          "network": "Hyderabad Metro",
          "note": "Contributors are requested to not edit the \"network\" and the \"operator\" tags. (2023/11/08)",
          "operator": "Hyderabad Metro Rail Limited",
          "public_transport": "station",
          "public_transport:version": "2",
          "railway": "station",
          "station": "subway",
          "subway": "yes",
          "wikidata": "Q56701862",
          "wikipedia": "en:Ameerpet metro station"
        }
      },
      {
        "type": "node",
        "id": 6700511122,
        "lat": 17.4352864,
        "lon": 78.4447834,
        "tags": {
          "name": "Ameerpet (Blue Line)",
          "name:ml": "\u0d05\u0d2e\u0d40\u0d7c\u0d2a\u0d47\u0d1f\u0d4d\u0d1f\u0d4d",
          "name:te": "\u0c05\u0c2e\u0c40\u0c30\u0c4d\u200c\u0c2a\u0c47\u0c1f\u0c4d",
          "network": "Hyderabad Metro",
          "note": "Contributors are requested to not edit the \"network\" and the \"operator\" tags. (2023/11/08)",
          "operator": "Hyderabad Metro Rail Limited",
          "public_transport": "station",
          "public_transport:version": "2",
          "railway": "station",
          "station": "subway",
          "subway": "yes",
          "wikidata": "Q56701862",
          "wikipedia": "en:Ameerpet metro station"
        }
      },
      {
        "type": "node",
        "id": 6771713701,
        "lat": 17.4267669,
        "lon": 78.4531002,
        "tags": {
          "addr:city": "Hyderabad",
          "addr:state": "Telangana",
          "addr:street": "Punjagutta",
          "air_conditioning": "yes",
          "amenity": "cinema",
          "brand": "PVR Cinemas",
          "brand:wikidata": "Q3359908",
          "description": "it is a place for wa\ntching movies",
          "name": "PVR Cinemas",
          "short_name": "PVR"
        }
      },
      {
        "type": "node",
        "id": 7052069769,
        "lat": 17.4369785,
        "lon": 78.4390865,
        "tags": {
          "alt_name": "Taruni Madhura Nagar",
          "name": "Madhura Nagar",
          "name:te": "\u0c2e\u0c27\u0c41\u0c30 \u0c28\u0c17\u0c30\u0c4d",
          "network": "Hyderabad Metro",
          "note": "Contributors are requested to not edit the \"network\" and the \"operator\" tags. (2023/11/08)",
          "operator": "Hyderabad Metro Rail Limited",
          "public_transport": "stop_position",
          "railway": "stop",
          "subway": "yes"
        }
      },
      {
        "type": "node",
        "id": 7052069770,
        "lat": 17.4369652,
        "lon": 78.4390993,
        "tags": {
          "alt_name": "Taruni Madhura Nagar",
          "name": "Madhura Nagar",
          "name:ml": "\u0d2e\u0d27\u0d41\u0d30 \u0d28\u0d17\u0d7c",
          "name:te": "\u0c2e\u0c27\u0c41\u0c30 \u0c28\u0c17\u0c30\u0c4d",
          "name:ur": "\u0645\u062f\u06be\u0648\u0631\u0627 \u0646\u06af\u0631",
          "network": "Hyderabad Metro",
          "note": "Contributors are requested to not edit the \"network\" and the \"operator\" tags. (2023/11/08)",
          "operator": "Hyderabad Metro Rail Limited",
          "public_transport": "station",
          "railway": "station",
          "station": "subway",
          "subway": "yes",
          "wikidata": "Q63250572"
        }
      },
      {
        "type": "node",
        "id": 10789422582,
        "lat": 17.4346495,
        "lon": 78.448776,
        "tags": {
          "addr:city": "Hyderabad",
          "addr:state": "Telangana",
          "air_conditioning": "yes",
          "amenity": "cinema",
          "min_age": "18",
          "name": "Sheesh Mahal"
        }
      },
      {
        "type": "node",
        "id": 10789422583,
        "lat": 17.4371929,
        "lon": 78.448703,
        "tags": {
          "addr:city": "Hyderabad",
          "addr:state": "Telangana",
          "addr:street": "Ameerpet",
          "air_conditioning": "yes",
          "amenity": "cinema",
          "branch": "Ameerpet",
          "brand": "Asian",
          "name": "AAA Cinemas"
        }
      },
      {
        "type": "node",
        "id": 10789477897,
        "lat": 17.4286801,
        "lon": 78.4504275,
        "tags": {
          "addr:city": "Hyderabad",
          "addr:state": "Telangana",
          "addr:street": "Punjagutta",
          "air_conditioning": "yes",
          "amenity": "cinema",
          "branch": "Punjagutta",
          "brand": "PVR Cinemas",
          "brand:wikidata": "Q3359908",
          "name": "PVR Next Galleria",
          "short_name": "PVR",
          "wheelchair": "yes"
        }
      },
      {
        "type": "node",
        "id": 10789488362,
        "lat": 17.4208001,
        "lon": 78.4554217,
        "tags": {
          "addr:city": "Hyderabad",
          "addr:state": "Telangana",
          "addr:street": "Irrum manzil Road",
          "air_conditioning": "yes",
          "amenity": "cinema",
          "branch": "Irrum Manzil",
          "brand": "PVR Cinemas",
          "brand:wikidata": "Q3359908",
          "name": "PVR Next premia",
          "short_name": "PVR",
          "wheelchair": "yes"
        }
      },
      {
        "type": "node",
        "id": 10789496134,
        "lat": 17.4127019,
        "lon": 78.4657508,
        "tags": {
          "addr:city": "Hyderabad",
          "addr:neighbourhood": "Khairtabad",
          "addr:state": "Telangana",
          "air_conditioning": "yes",
          "amenity": "cinema",
          "name": "Prasads Imax",
          "wheelchair": "yes",
          "wikidata": "Q7238450",
          "wikipedia": "en:Prasads Multiplex"
        }
      },
      {
        "type": "node",
        "id": 11027534565,
        "lat": 17.4304735,
        "lon": 78.4483917,
        "tags": {
          "amenity": "cinema"
        }
      },
      {
        "type": "node",
        "id": 11738179191,
        "lat": 17.4115319,
        "lon": 78.4608458,
        "tags": {
          "internet_access": "no",
          "name": "Khairatabad",
          "name:ml": "\u0d16\u0d48\u0d30\u0d24\u0d3e\u0d2c\u0d3e\u0d26\u0d4d",
          "name:te": "\u0c16\u0c48\u0c30\u0c24\u0c3e\u0c2c\u0c3e\u0c26\u0c4d",
          "name:ur": "\u062e\u06cc\u0631\u062a \u0622\u0628\u0627\u062f",
          "network": "Hyderabad Metro",
          "note": "Contributors are requested to not edit the \"network\" and the \"operator\" tags. (2023/11/08)",
          "operator": "Hyderabad Metro Rail Limited",
          "public_transport": "station",
          "railway": "station",
          "station": "subway",
          "subway": "yes",
          "website": "https://hmrl.co.in",
          "wheelchair": "yes"
        }
      },
      {
        "type": "node",
        "id": 11738179192,
        "lat": 17.4209654,
        "lon": 78.4558011,
        "tags": {
          "addr:city": "Hyderabad",
          "addr:city:ar": "\u062d\u064a\u062f\u0631 \u0622\u0628\u0627\u062f",
          "addr:city:ur": "\u062d\u06cc\u062f\u0631\u0622\u0628\u0627\u062f",
          "name": "Irrum Manzil",
          "name:ml": "\u0d0e\u0d31\u0d02 \u0d2e\u0d7b\u0d38\u0d3f\u0d7d",
          "name:te": "\u0c07\u0c31\u0c02 \u0c2e\u0c02\u0c1c\u0c3f\u0c32\u0c4d",
          "network": "Hyderabad Metro",
          "note": "Contributors are requested to not edit the \"network\" and the \"operator\" tags. (2023/11/08)",
          "operator": "Hyderabad Metro Rail Limited",
          "public_transport": "stop_position",
          "public_transport:version": "2",
          "railway": "stop",
          "subway": "yes"
        }
      },
      {
        "type": "node",
        "id": 11738179193,
        "lat": 17.4205559,
        "lon": 78.456101,
        "tags": {
          "internet_access": "no",
          "name": "Irrum Manzil",
          "name:ml": "\u0d0e\u0d31\u0d02 \u0d2e\u0d7b\u0d38\u0d3f\u0d7d",
          "name:te": "\u0c07\u0c31\u0c02 \u0c2e\u0c02\u0c1c\u0c3f\u0c32\u0c4d",
          "name:ur": "\u0627\u0631\u0645 \u0645\u0646\u0632\u0644",
          "network": "Hyderabad Metro",
          "note": "Contributors are requested to not edit the \"network\" and the \"operator\" tags. (2023/11/08)",
          "operator": "Hyderabad Metro Rail Limited",
          "public_transport": "station",
          "railway": "station",
          "station": "subway",
          "subway": "yes",
          "website": "https://hmrl.co.in",
          "wheelchair": "yes",
          "wikidata": "Q85770033"
        }
      },
      {
        "type": "node",
        "id": 11738179217,
        "lat": 17.4119664,
        "lon": 78.4607387,
        "tags": {
          "addr:city": "Hyderabad",
          "addr:city:ar": "\u062d\u064a\u062f\u0631 \u0622\u0628\u0627\u062f",
          "addr:city:ur": "\u062d\u06cc\u062f\u0631\u0622\u0628\u0627\u062f",
          "name": "Khairatabad",
          "name:ml": "\u0d16\u0d48\u0d30\u0d24\u0d3e\u0d2c\u0d3e\u0d26\u0d4d",
          "name:te": "\u0c16\u0c48\u0c30\u0c24\u0c3e\u0c2c\u0c3e\u0c26\u0c4d",
          "network": "Hyderabad Metro",
          "note": "Contributors are requested to not edit the \"network\" and the \"operator\" tags. (2023/11/08)",
          "operator": "Hyderabad Metro Rail Limited",
          "public_transport": "stop_position",
          "public_transport:version": "2",
          "railway": "stop",
          "subway": "yes"
        }
      },
      {
        "type": "node",
        "id": 11738663633,
        "lat": 17.4286312,
        "lon": 78.4511322,
        "tags": {
          "internet_access": "no",
          "name": "Panjagutta",
          "name:ml": "\u0d2a\u0d1e\u0d4d\u0d1a\u0d17\u0d41\u0d1f\u0d4d\u0d1f",
          "name:te": "\u0c2a\u0c02\u0c1c\u0c3e\u0c17\u0c41\u0c1f\u0c4d\u0c1f",
          "name:ur": "\u067e\u0646\u062c\u06c1 \u06af\u0679\u06c1",
          "network": "Hyderabad Metro",
          "note": "Contributors are requested to not edit the \"network\" and the \"operator\" tags. (2023/11/08)",
          "operator": "Hyderabad Metro Rail Limited",
          "public_transport": "station",
          "railway": "station",
          "station": "subway",
          "subway": "yes",
          "website": "https://hmrl.co.in",
          "wheelchair": "yes"
        }
      },
      {
        "type": "node",
        "id": 12028767314,
        "lat": 17.4087339,
        "lon": 78.4388344,
        "tags": {
          "amenity": "fuel",
          "brand": "Indian Oil",
          "brand:wikidata": "Q1289348",
          "name": "Indian Oil"
        }
      }
    ]
  }
}