{
  "pois_1km": {
    "version": 0.6,
    "generator": "Overpass API 0.7.62.8 e802775f",
    "osm3s": {
      "timestamp_osm_base": "2025-09-06T08:53:16Z",
      "copyright": "The data included in this document is from www.openstreetmap.org. The data is made available under ODbL."
    },
    "elements": [
      {
        "type": "node",
        "id": 2713950140,
        "lat": 17.4536899,
        "lon": 78.4002273,
        "tags": {
          "leisure": "park",
          "name": "gayithri park"
        }
      },
      {
        "type": "node",
        "id": 5467328880,
        "lat": 17.4469404,
        "lon": 78.3917078,
        "tags": {
          "amenity": "restaurant",
          "name": "Kalinga's Kitchen"
        }
      },
      {
        "type": "node",
        "id": 5469130135,
        "lat": 17.4518379,
        "lon": 78.391518,
        "tags": {
          "amenity": "restaurant",
          "name": "Annapurna Tiffens"
        }
      },
      {
        "type": "node",
        "id": 5692072169,
        "lat": 17.446934,
        "lon": 78.3918229,
        "tags": {
          "amenity": "restaurant",
          "name": "Sampradhaya curry point"
        }
      },
      {
        "type": "node",
        "id": 5793698165,
        "lat": 17.4455723,
        "lon": 78.3925382,
        "tags": {
          "amenity": "restaurant",
          "cuisine": "indian",
          "name": "Golconda Chef"
        }
      },
      {
        "type": "node",
        "id": 5931166341,
        "lat": 17.4475331,
        "lon": 78.3918768,
        "tags": {
          "amenity": "restaurant",
          "name": "Charcoal Bbq"
        }
      },
      {
        "type": "node",
        "id": 6246439585,
        "lat": 17.4514807,
        "lon": 78.3937843,
        "tags": {
          "amenity": "restaurant",
          "name": "Kritunga"
        }
      },
      {
        "type": "node",
        "id": 6259467986,
        "lat": 17.4519138,
        "lon": 78.3943368,
        "tags": {
          "name": "Ani's Apna Bazaar",
          "operator": "Apna Bazar",
          "shop": "supermarket"
        }
      },
      {
        "type": "node",
        "id": 6259475385,
        "lat": 17.4521526,
        "lon": 78.391294,
        "tags": {
          "amenity": "fast_food",
          "cuisine": "south_indian",
          "name": "Annapurna Food court"
        }
      },
      {
        "type": "node",
        "id": 6261444885,
        "lat": 17.4515049,
        "lon": 78.39417,
        "tags": {
          "amenity": "restaurant",
          "name": "Wingster"
        }
      },
      {
        "type": "node",
        "id": 6268103691,
        "lat": 17.4425382,
        "lon": 78.3961507,
        "tags": {
          "amenity": "restaurant",
          "name": "T-grill"
        }
      },
      {
        "type": "node",
        "id": 6621607787,
        "lat": 17.4525736,
        "lon": 78.3913595,
        "tags": {
          "amenity": "fast_food",
          "cuisine": "indian;south_indian",
          "diet:vegan": "yes",
          "diet:vegetarian": "yes",
          "drive_through": "no",
          "name": "Taaza Kitchen"
        }
      },
      {
        "type": "node",
        "id": 6935545368,
        "lat": 17.4497697,
        "lon": 78.3920674,
        "tags": {
          "name": "Siri Super Market",
          "shop": "supermarket"
        }
      },
      {
        "type": "node",
        "id": 7025820773,
        "lat": 17.4462187,
        "lon": 78.3988928,
        "tags": {
          "amenity": "restaurant",
          "name": "Bake Factory Kitchens"
        }
      },
      {
        "type": "node",
        "id": 7025820776,
        "lat": 17.4441769,
        "lon": 78.3990718,
        "tags": {
          "name": "Kisan Supermarket",
          "shop": "supermarket"
        }
      },
      {
        "type": "node",
        "id": 7025820780,
        "lat": 17.4442543,
        "lon": 78.3973902,
        "tags": {
          "amenity": "cafe",
          "name": "The Blender's Cafe"
        }
      },
      {
        "type": "node",
        "id": 7025820782,
        "lat": 17.4458679,
        "lon": 78.3924181,
        "tags": {
          "amenity": "fast_food",
          "name": "Chinese Cornerz"
        }
      },
      {
        "type": "node",
        "id": 7025820783,
        "lat": 17.4458496,
        "lon": 78.3925347,
        "tags": {
          "amenity": "restaurant",
          "name": "Desi Dhabha"
        }
      },
      {
        "type": "node",
        "id": 7025820784,
        "lat": 17.4462385,
        "lon": 78.3924715,
        "tags": {
          "amenity": "restaurant",
          "name": "Golconda Chefs"
        }
      },
      {
        "type": "node",
        "id": 7025820786,
        "lat": 17.44582,
        "lon": 78.3924173,
        "tags": {
          "addr:city": "hyderabad",
          "addr:district": "rangareddy",
          "addr:housenumber": "APIIC Colony Beside State Bank of India , Shapur Nagar Jeedimetla Hyderabad",
          "addr:postcode": "500055",
          "addr:street": "Near SBI Bank",
          "amenity": "hospital",
          "emergency": "yes",
          "healthcare": "hospital",
          "healthcare:speciality": "gynaecology",
          "name": "lifespan hospitals"
        }
      },
      {
        "type": "node",
        "id": 7025820790,
        "lat": 17.4446822,
        "lon": 78.3924319,
        "tags": {
          "amenity": "food_court",
          "name": "Daniel Food Court"
        }
      },
      {
        "type": "node",
        "id": 7025820813,
        "lat": 17.4475218,
        "lon": 78.3944099,
        "tags": {
          "amenity": "restaurant",
          "name": "Shake Stories"
        }
      },
      {
        "type": "node",
        "id": 7025820814,
        "lat": 17.4515635,
        "lon": 78.3936807,
        "tags": {
          "amenity": "restaurant",
          "name": "HutK Restaurant"
        }
      },
      {
        "type": "node",
        "id": 7025820815,
        "lat": 17.4498409,
        "lon": 78.3934938,
        "tags": {
          "amenity": "restaurant",
          "name": "Dhanyatha Foods"
        }
      },
      {
        "type": "node",
        "id": 7025820818,
        "lat": 17.4487951,
        "lon": 78.3921706,
        "tags": {
          "amenity": "clinic",
          "healthcare": "clinic",
          "name": "Krithi Children Clinic"
        }
      },
      {
        "type": "node",
        "id": 7025820821,
        "lat": 17.4516412,
        "lon": 78.3924843,
        "tags": {
          "amenity": "restaurant",
          "name": "Super Lean Meals"
        }
      },
      {
        "type": "node",
        "id": 7025820823,
        "lat": 17.4513469,
        "lon": 78.3917665,
        "tags": {
          "amenity": "restaurant",
          "name": "The London Shakes"
        }
      },
      {
        "type": "node",
        "id": 7025820825,
        "lat": 17.4476207,
        "lon": 78.3910935,
        "tags": {
          "amenity": "restaurant",
          "name": "Organic Thali kitchen"
        }
      },
      {
        "type": "node",
        "id": 7025820832,
        "lat": 17.4493044,
        "lon": 78.3911004,
        "tags": {
          "amenity": "restaurant",
          "name": "Inner Chef"
        }
      },
      {
        "type": "node",
        "id": 7025820835,
        "lat": 17.4506503,
        "lon": 78.391516,
        "tags": {
          "amenity": "atm",
          "brand": "Axis Bank",
          "brand:wikidata": "Q2003549",
          "name": "Axis Bank Atm",
          "operator": "Axis Bank",
          "operator:wikidata": "Q2003549"
        }
      },
      {
        "type": "node",
        "id": 7027716891,
        "lat": 17.4486673,
        "lon": 78.398224,
        "tags": {
          "amenity": "bank",
          "branch": "Ltd",
          "brand": "IndusInd Bank",
          "brand:wikidata": "Q2040323",
          "name": "IndusInd Bank"
        }
      },
      {
        "type": "node",
        "id": 7027716893,
        "lat": 17.4508318,
        "lon": 78.3947564,
        "tags": {
          "amenity": "restaurant",
          "name": "Restaurant Guest Wifi Solutions"
        }
      },
      {
        "type": "node",
        "id": 7027716895,
        "lat": 17.4499217,
        "lon": 78.3949095,
        "tags": {
          "amenity": "restaurant",
          "name": "Kitchen 007"
        }
      },
      {
        "type": "node",
        "id": 7027716897,
        "lat": 17.4499292,
        "lon": 78.3947616,
        "tags": {
          "amenity": "restaurant",
          "name": "Tollywood Thick Shakes"
        }
      },
      {
        "type": "node",
        "id": 7113765586,
        "lat": 17.4545941,
        "lon": 78.3993763,
        "tags": {
          "name": "Kirana store",
          "shop": "department_store"
        }
      },
      {
        "type": "node",
        "id": 7113766286,
        "lat": 17.4549137,
        "lon": 78.3996316,
        "tags": {
          "name": "Kirana shop",
          "shop": "department_store"
        }
      },
      {
        "type": "node",
        "id": 7113766686,
        "lat": 17.4543229,
        "lon": 78.3993429,
        "tags": {
          "name": "Kirana store",
          "shop": "department_store"
        }
      },
      {
        "type": "node",
        "id": 9369853856,
        "lat": 17.453025,
        "lon": 78.3986574,
        "tags": {
          "amenity": "fast_food"
        }
      },
      {
        "type": "node",
        "id": 9369907790,
        "lat": 17.4529675,
        "lon": 78.3987973,
        "tags": {
          "amenity": "cafe"
        }
      },
      {
        "type": "node",
        "id": 9917000634,
        "lat": 17.4501371,
        "lon": 78.3915731,
        "tags": {
          "amenity": "fast_food",
          "name": "Ananya Food Court"
        }
      },
      {
        "type": "node",
        "id": 10171328851,
        "lat": 17.4505044,
        "lon": 78.3918238,
        "tags": {
          "name": "Sampoorna Super Mart",
          "shop": "supermarket"
        }
      },
      {
        "type": "node",
        "id": 10171328862,
        "lat": 17.4516821,
        "lon": 78.392479,
        "tags": {
          "amenity": "restaurant",
          "name": "Red Bucket"
        }
      },
      {
        "type": "node",
        "id": 10171328869,
        "lat": 17.450138,
        "lon": 78.391885,
        "tags": {
          "amenity": "restaurant",
          "cuisine": "indian",
          "name": "Mukka Mudda"
        }
      },
      {
        "type": "node",
        "id": 10171328871,
        "lat": 17.447691,
        "lon": 78.3919352,
        "tags": {
          "amenity": "cafe",
          "name": "Cosa de Rosa"
        }
      },
      {
        "type": "node",
        "id": 10171328916,
        "lat": 17.4496259,
        "lon": 78.3919495,
        "tags": {
          "amenity": "cafe",
          "brand": "Chai Point",
          "brand:wikidata": "Q28173415",
          "cuisine": "coffee_shop",
          "name": "Chai Point",
          "takeaway": "yes"
        }
      },
      {
        "type": "node",
        "id": 10171342017,
        "lat": 17.4462141,
        "lon": 78.3921748,
        "tags": {
          "amenity": "restaurant",
          "name": "Raju Gari Biriyani"
        }
      },
      {
        "type": "node",
        "id": 10171342021,
        "lat": 17.4454861,
        "lon": 78.3922374,
        "tags": {
          "amenity": "atm",
          "brand": "HDFC Bank",
          "brand:wikidata": "Q631047",
          "name": "HDFC ATM",
          "operator": "HDFC Bank",
          "operator:wikidata": "Q631047",
          "short_name": "HDFC"
        }
      },
      {
        "type": "node",
        "id": 10171342022,
        "lat": 17.4455652,
        "lon": 78.3922408,
        "tags": {
          "amenity": "atm",
          "brand": "Axis Bank",
          "brand:wikidata": "Q2003549",
          "name": "Axis ATM",
          "operator": "Axis Bank",
          "operator:wikidata": "Q2003549"
        }
      },
      {
        "type": "node",
        "id": 10171342023,
        "lat": 17.4457784,
        "lon": 78.3924176,
        "tags": {
          "amenity": "fast_food",
          "cuisine": "juice",
          "name": "Fresh Juice"
        }
      },
      {
        "type": "node",
        "id": 10992582390,
        "lat": 17.4570001,
        "lon": 78.3993991,
        "tags": {
          "addr:district": "Medchal Malkajgiri",
          "addr:place": "Parvathnagar",
          "addr:state": "Telangana",
          "addr:street": "Allapur, Parvathnagar",
          "addr:subdistrict": "Balanagar",
          "amenity": "clinic",
          "healthcare": "clinic",
          "name": "Urban Health Centre Parvathnagar (Urban)",
          "operational_status": "operational",
          "operator:type": "government"
        }
      },
      {
        "type": "node",
        "id": 11930116019,
        "lat": 17.4577166,
        "lon": 78.4023645,
        "tags": {
          "addr:district": "Hyderabad",
          "addr:place": "Parvathi Nagar",
          "addr:state": "Telangana",
          "addr:street": "Kandikal Gate",
          "addr:subdistrict": "Bandlaguda",
          "amenity": "clinic",
          "healthcare": "clinic",
          "name": "Urban Primary Health Centre, Parvathi Nagar",
          "operational_status": "operational",
          "operator:type": "government",
          "source": "OpenDataTelangana"
        }
      }
    ]
  },
  "pois_2_5km": {
    "version": 0.6,
    "generator": "Overpass API 0.7.62.8 e802775f",
    "osm3s": {
      "timestamp_osm_base": "2025-09-06T08:53:16Z",
      "copyright": "The data included in this document is from www.openstreetmap.org. The data is made available under ODbL."
    },
    "elements": [
      {
        "type": "node",
        "id": 317759267,
        "lat": 17.4513921,
        "lon": 78.3792883,
        "tags": {
          "amenity": "theatre",
          "name": "Shilpa Kala Vedika",
          "name:te": "\u0c36\u0c3f\u0c32\u0c4d\u0c2a \u0c15\u0c33\u0c3e \u0c35\u0c47\u0c26\u0c3f\u0c15",
          "tourism": "attraction"
        }
      },
      {
        "type": "node",
        "id": 344033815,
        "lat": 17.4380252,
        "lon": 78.3996269,
        "tags": {
          "amenity": "fuel",
          "brand": "Indian Oil",
          "brand:wikidata": "Q1289348",
          "brand:wikipedia": "en:Indian Oil Corporation",
          "name": "Indian Oil",
          "operator": "IBP"
        }
      },
      {
        "type": "node",
        "id": 349267514,
        "lat": 17.4407798,
        "lon": 78.3913972,
        "tags": {
          "amenity": "fuel",
          "brand": "Indian Oil",
          "brand:wikidata": "Q1289348",
          "brand:wikipedia": "en:Indian Oil Corporation",
          "name": "Indian Oil Madhapur"
        }
      },
      {
        "type": "node",
        "id": 1437208985,
        "lat": 17.4590687,
        "lon": 78.4078664,
        "tags": {
          "internet_access": "no",
          "name": "Borabanda",
          "name:ur": "\u0628\u0648\u0631\u0627 \u0628\u0646\u0688\u0627",
          "network": "IR",
          "operator": "SCR",
          "platforms": "2",
          "public_transport": "station",
          "railway": "station",
          "ref": "BRBD",
          "wikidata": "Q4944267",
          "wikipedia": "en:Borabanda railway station"
        }
      },
      {
        "type": "node",
        "id": 2422172978,
        "lat": 17.4306371,
        "lon": 78.4083638,
        "tags": {
          "name": "Peddamma Gudi",
          "name:te": "\u0c2a\u0c46\u0c26\u0c4d\u0c26\u0c2e\u0c4d\u0c2e \u0c17\u0c41\u0c21\u0c3f",
          "network": "Hyderabad Metro",
          "note": "Contributors are requested to not edit the \"network\" and the \"operator\" tags. (2023/11/08)",
          "operator": "Hyderabad Metro Rail Limited",
          "public_transport": "stop_position",
          "railway": "stop",
          "subway": "yes"
        }
      },
      {
        "type": "node",
        "id": 2422172983,
        "lat": 17.4489916,
        "lon": 78.3831192,
        "tags": {
          "name": "HITEC City",
          "name:te": "\u0c39\u0c48\u0c1f\u0c46\u0c15\u0c4d \u0c38\u0c3f\u0c1f\u0c3f",
          "network": "Hyderabad Metro",
          "note": "Contributors are requested to not edit the \"network\" and the \"operator\" tags. (2023/11/08)",
          "operator": "Hyderabad Metro Rail Limited",
          "public_transport": "stop_position",
          "railway": "stop",
          "subway": "yes"
        }
      },
      {
        "type": "node",
        "id": 2422173008,
        "lat": 17.4372512,
        "lon": 78.4004097,
        "tags": {
          "name": "Madhapur",
          "name:te": "\u0c2e\u0c3e\u0c27\u0c3e\u0c2a\u0c42\u0c30\u0c4d",
          "network": "Hyderabad Metro",
          "note": "Contributors are requested to not edit the \"network\" and the \"operator\" tags. (2023/11/08)",
          "operator": "Hyderabad Metro Rail Limited",
          "platforms": "2",
          "public_transport": "stop_position",
          "public_transport:version": "2",
          "railway": "stop",
          "subway": "yes",
          "wheelchair": "yes"
        }
      },
      {
        "type": "node",
        "id": 2528181881,
        "lat": 17.4592409,
        "lon": 78.4078466,
        "tags": {
          "name": "Borabanda",
          "public_transport": "stop_position",
          "railway": "stop",
          "ref": "1",
          "train": "yes"
        }
      },
      {
        "type": "node",
        "id": 5017549934,
        "lat": 17.4374118,
        "lon": 78.3883021,
        "tags": {
          "amenity": "fuel",
          "brand": "Bharat Petroleum",
          "brand:wikidata": "Q854826",
          "name": "Bharat Petroleum",
          "short_name": "BP"
        }
      },
      {
        "type": "node",
        "id": 5787787852,
        "lat": 17.4490132,
        "lon": 78.3831555,
        "tags": {
          "name": "HITEC City",
          "name:te": "\u0c39\u0c48\u0c1f\u0c46\u0c15\u0c4d \u0c38\u0c3f\u0c1f\u0c3f",
          "network": "Hyderabad Metro",
          "note": "Contributors are requested to not edit the \"network\" and the \"operator\" tags. (2023/11/08)",
          "operator": "Hyderabad Metro Rail Limited",
          "public_transport": "stop_position",
          "railway": "stop",
          "subway": "yes"
        }
      },
      {
        "type": "node",
        "id": 5787787896,
        "lat": 17.4372693,
        "lon": 78.4004421,
        "tags": {
          "name": "Madhapur",
          "name:te": "\u0c2e\u0c3e\u0c27\u0c3e\u0c2a\u0c42\u0c30\u0c4d",
          "network": "Hyderabad Metro",
          "note": "Contributors are requested to not edit the \"network\" and the \"operator\" tags. (2023/11/08)",
          "operator": "Hyderabad Metro Rail Limited",
          "platforms": "2",
          "public_transport": "stop_position",
          "public_transport:version": "2",
          "railway": "stop",
          "subway": "yes",
          "wheelchair": "yes"
        }
      },
      {
        "type": "node",
        "id": 6248961888,
        "lat": 17.4577608,
        "lon": 78.3841734,
        "tags": {
          "amenity": "fuel",
          "brand": "Hindustan Petroleum",
          "brand:wikidata": "Q1619375",
          "brand:wikipedia": "en:Hindustan Petroleum",
          "name": "HP",
          "name:en": "HP petrol bunk",
          "official_name": "Hindustan Petroleum"
        }
      },
      {
        "type": "node",
        "id": 6444553239,
        "lat": 17.4490055,
        "lon": 78.3831376,
        "tags": {
          "name": "HITEC City",
          "name:ml": "\u0d39\u0d48\u0d1f\u0d46\u0d15\u0d4d \u0d38\u0d3f\u0d31\u0d4d\u0d31\u0d3f",
          "name:te": "\u0c39\u0c48\u0c1f\u0c46\u0c15\u0c4d \u0c38\u0c3f\u0c1f\u0c3f",
          "network": "Hyderabad Metro",
          "note": "Contributors are requested to not edit the \"network\" and the \"operator\" tags. (2023/11/08)",
          "operator": "Hyderabad Metro Rail Limited",
          "public_transport": "station",
          "railway": "station",
          "station": "subway",
          "subway": "yes",
          "wikidata": "Q56701859"
        }
      },
      {
        "type": "node",
        "id": 6451675812,
        "lat": 17.4429466,
        "lon": 78.3875721,
        "tags": {
          "internet_access": "no",
          "name": "Durgam Cheruvu Metro Station",
          "name:ml": "\u0d26\u0d41\u0d7c\u0d17\u0d4d\u0d17\u0d02 \u0d1a\u0d46\u0d30\u0d41\u0d35\u0d4d",
          "name:te": "\u0c26\u0c41\u0c30\u0c4d\u0c17\u0c02 \u0c1a\u0c46\u0c30\u0c41\u0c35\u0c41 Metro Station",
          "network": "Hyderabad Metro",
          "note": "Contributors are requested to not edit the \"network\" and the \"operator\" tags. (2023/11/08)",
          "operator": "Hyderabad Metro Rail Limited",
          "public_transport": "station",
          "railway": "station",
          "station": "Metro",
          "subway": "yes",
          "website": "https://hmrl.co.in",
          "wheelchair": "yes",
          "wikidata": "Q83554384"
        }
      },
      {
        "type": "node",
        "id": 6453519084,
        "lat": 17.4429159,
        "lon": 78.3875922,
        "tags": {
          "internet_access": "no",
          "name": "Durgam Cheruvu",
          "name:te": "\u0c26\u0c41\u0c30\u0c4d\u0c17\u0c02 \u0c1a\u0c46\u0c30\u0c41\u0c35\u0c41",
          "network": "Hyderabad Metro",
          "note": "Contributors are requested to not edit the \"network\" and the \"operator\" tags. (2023/11/08)",
          "operator": "Hyderabad Metro Rail Limited",
          "public_transport": "stop_position",
          "railway": "stop",
          "subway": "yes"
        }
      },
      {
        "type": "node",
        "id": 6453520185,
        "lat": 17.442903,
        "lon": 78.387557,
        "tags": {
          "internet_access": "no",
          "name": "Durgam Cheruvu",
          "name:en": "Durgam Cheruvu Metro Station",
          "name:te": "\u0c26\u0c41\u0c30\u0c4d\u0c17\u0c02 \u0c1a\u0c46\u0c30\u0c41\u0c35\u0c41 \u0c2e\u0c46\u0c1f\u0c4d\u0c30\u0c4b \u0c38\u0c4d\u0c1f\u0c47\u0c37\u0c28\u0c4d",
          "network": "Hyderabad Metro",
          "note": "Contributors are requested to not edit the \"network\" and the \"operator\" tags. (2023/11/08)",
          "operator": "Hyderabad Metro Rail Limited",
          "public_transport": "stop_position",
          "railway": "stop",
          "subway": "yes"
        }
      },
      {
        "type": "node",
        "id": 6594683312,
        "lat": 17.4592009,
        "lon": 78.4078495,
        "tags": {
          "name": "Borabanda",
          "public_transport": "stop_position",
          "railway": "stop",
          "ref": "2",
          "train": "yes"
        }
      },
      {
        "type": "node",
        "id": 6771713702,
        "lat": 17.4351644,
        "lon": 78.3867947,
        "tags": {
          "amenity": "cinema",
          "brand": "PVR Cinemas",
          "brand:short": "PVR",
          "brand:wikidata": "Q3359908",
          "name": "Pvr Cinemas"
        }
      },
      {
        "type": "node",
        "id": 6868678696,
        "lat": 17.4543396,
        "lon": 78.4191447,
        "tags": {
          "addr:city": "HYDERABAD",
          "addr:postcode": "500018",
          "addr:street": "borabanda allahapur road",
          "amenity": "cinema",
          "name": "Vijetha Cinemas",
          "opening_hours": "Mo-Su 10:00-24:00",
          "opening_hours:covid19": "off",
          "payment:cash": "yes",
          "payment:electronic_purses": "yes",
          "screen": "1"
        }
      },
      {
        "type": "node",
        "id": 7025820767,
        "lat": 17.4436886,
        "lon": 78.4008906,
        "tags": {
          "amenity": "cinema",
          "name": "Mic Movies"
        }
      },
      {
        "type": "node",
        "id": 7052069773,
        "lat": 17.4306677,
        "lon": 78.4083833,
        "tags": {
          "name": "Peddamma Gudi",
          "name:te": "\u0c2a\u0c46\u0c26\u0c4d\u0c26\u0c2e\u0c4d\u0c2e \u0c17\u0c41\u0c21\u0c3f",
          "network": "Hyderabad Metro",
          "note": "Contributors are requested to not edit the \"network\" and the \"operator\" tags. (2023/11/08)",
          "operator": "Hyderabad Metro Rail Limited",
          "public_transport": "stop_position",
          "railway": "stop",
          "subway": "yes"
        }
      },
      {
        "type": "node",
        "id": 7052069774,
        "lat": 17.4306512,
        "lon": 78.4083721,
        "tags": {
          "name": "Peddamma Gudi",
          "name:ml": "\u0d2a\u0d46\u0d26\u0d4d\u0d26\u0d2e\u0d4d\u0d2e \u0d17\u0d41\u0d21\u0d3f",
          "name:te": "\u0c2a\u0c46\u0c26\u0c4d\u0c26\u0c2e\u0c4d\u0c2e \u0c17\u0c41\u0c21\u0c3f",
          "name:ur": "\u067e\u06cc\u062f\u0645\u0627 \u06af\u0688\u06cc",
          "network": "Hyderabad Metro",
          "note": "Contributors are requested to not edit the \"network\" and the \"operator\" tags. (2023/11/08)",
          "operator": "Hyderabad Metro Rail Limited",
          "public_transport": "station",
          "railway": "station",
          "station": "subway",
          "subway": "yes",
          "wikidata": "Q84028775"
        }
      },
      {
        "type": "node",
        "id": 9144573053,
        "lat": 17.4372637,
        "lon": 78.4004257,
        "tags": {
          "layer": "1",
          "lit": "yes",
          "name": "Madhapur",
          "name:ml": "\u0d2e\u0d3e\u0d27\u0d3e\u0d2a\u0d42\u0d7c",
          "name:te": "\u0c2e\u0c3e\u0c27\u0c3e\u0c2a\u0c42\u0c30\u0c4d",
          "network": "Hyderabad Metro",
          "note": "Contributors are requested to not edit the \"network\" and the \"operator\" tags. (2023/11/08)",
          "operator": "Hyderabad Metro Rail Limited",
          "platforms": "2",
          "public_transport": "station",
          "public_transport:version": "2",
          "railway": "station",
          "shelter": "yes",
          "station": "subway",
          "subway": "yes",
          "wheelchair": "yes",
          "wikidata": "Q83637027"
        }
      },
      {
        "type": "node",
        "id": 10789486270,
        "lat": 17.4481318,
        "lon": 78.3844627,
        "tags": {
          "amenity": "cinema",
          "branch": "Hitech city",
          "brand": "PVR Cinemas",
          "brand:short": "PVR",
          "brand:wikidata": "Q3359908",
          "name": "PVR Cinemas, Icon"
        }
      },
      {
        "type": "node",
        "id": 10789525449,
        "lat": 17.4444549,
        "lon": 78.3881266,
        "tags": {
          "addr:city": "Hyderabad",
          "addr:neighbourhood": "Madhapur",
          "addr:state": "Telangana",
          "air_conditioning": "yes",
          "amenity": "cinema",
          "name": "BR Hitech Theatre"
        }
      },
      {
        "type": "node",
        "id": 11770993370,
        "lat": 17.458549,
        "lon": 78.38424,
        "tags": {
          "amenity": "fuel",
          "brand": "Hindustan Petroleum",
          "brand:wikidata": "Q1619375",
          "check_date": "2024-03-29",
          "name": "HP",
          "official_name": "Hindustan Petroleum"
        }
      }
    ]
  }
}