{
  "pois_1km": {
    "version": 0.6,
    "generator": "Overpass API 0.7.62.8 e802775f",
    "osm3s": {
      "timestamp_osm_base": "2025-09-06T08:29:45Z",
      "copyright": "The data included in this document is from www.openstreetmap.org. The data is made available under ODbL."
    },
    "elements": [
      {
        "type": "node",
        "id": 512993702,
        "lat": 17.4341435,
        "lon": 78.3864204,
        "tags": {
          "name": "Hypercity",
          "shop": "supermarket",
          "wheelchair": "yes"
        }
      },
      {
        "type": "node",
        "id": 654882404,
        "lat": 17.4346181,
        "lon": 78.3864731,
        "tags": {
          "amenity": "fast_food",
          "brand": "McDonald's",
          "brand:pa": "\u0a2e\u0a48\u0a15\u0a21\u0a4b\u0a28\u0a32\u0a21\u2019\u0a1c\u0a3c",
          "brand:ur": "\u0645\u06a9\u0688\u0648\u0646\u0644\u0688\u0632",
          "brand:wikidata": "Q38076",
          "brand:wikipedia": "en:McDonald's",
          "brand:wikipedia:pa": "\u0a2e\u0a48\u0a15\u0a21\u0a4b\u0a28\u0a32\u0a21\u2019\u0a1c\u0a3c",
          "brand:wikipedia:ur": "\u0645\u06a9\u0688\u0648\u0646\u0644\u0688\u0632",
          "cuisine": "burger",
          "name": "McDonald's",
          "name:pa": "\u0a2e\u0a48\u0a15\u0a21\u0a4b\u0a28\u0a32\u0a21\u2019\u0a1c\u0a3c",
          "name:ur": "\u0645\u06a9\u0688\u0648\u0646\u0644\u0688\u0632",
          "takeaway": "yes"
        }
      },
      {
        "type": "node",
        "id": 660914316,
        "lat": 17.4314951,
        "lon": 78.3887075,
        "tags": {
          "amenity": "restaurant",
          "name": "Something Fishy"
        }
      },
      {
        "type": "node",
        "id": 827576106,
        "lat": 17.4301742,
        "lon": 78.3937323,
        "tags": {
          "amenity": "hospital",
          "healthcare": "hospital",
          "name": "Arogyasree Health care trust"
        }
      },
      {
        "type": "node",
        "id": 2713936303,
        "lat": 17.4311452,
        "lon": 78.3920499,
        "tags": {
          "leisure": "park",
          "name": "Durgam Cheruvu Secret Lake Park"
        }
      },
      {
        "type": "node",
        "id": 4557677889,
        "lat": 17.4345135,
        "lon": 78.3888073,
        "tags": {
          "amenity": "atm",
          "highway": "bus_stop",
          "name": "Hitch city",
          "operator": "Ramesh",
          "source": "Maxar"
        }
      },
      {
        "type": "node",
        "id": 6633197605,
        "lat": 17.4324002,
        "lon": 78.3854882,
        "tags": {
          "amenity": "restaurant",
          "name": "ITC Kohenur"
        }
      },
      {
        "type": "node",
        "id": 6994597339,
        "lat": 17.4377697,
        "lon": 78.3900781,
        "tags": {
          "amenity": "restaurant",
          "name": "Abhiruchi"
        }
      },
      {
        "type": "node",
        "id": 6997870508,
        "lat": 17.4300591,
        "lon": 78.3911379,
        "tags": {
          "amenity": "restaurant",
          "cuisine": "vietnamese",
          "diet:vegan": "no",
          "diet:vegetarian": "yes",
          "microbrewery": "yes",
          "name": "The Hoppery",
          "outdoor_seating": "yes",
          "reservation": "recommended",
          "smoking": "outside"
        }
      },
      {
        "type": "node",
        "id": 7021303606,
        "lat": 17.4373057,
        "lon": 78.3853732,
        "tags": {
          "amenity": "atm",
          "brand": "Citibank",
          "brand:wikidata": "Q857063",
          "name": "Citi bank ATM",
          "operator": "Citibank",
          "operator:wikidata": "Q857063"
        }
      },
      {
        "type": "node",
        "id": 7021303608,
        "lat": 17.4367771,
        "lon": 78.3891419,
        "tags": {
          "amenity": "restaurant",
          "name": "Amber"
        }
      },
      {
        "type": "node",
        "id": 7021303711,
        "lat": 17.4373534,
        "lon": 78.3853935,
        "tags": {
          "amenity": "cafe",
          "name": "Tea Trails Cafe"
        }
      },
      {
        "type": "node",
        "id": 7021303731,
        "lat": 17.4378342,
        "lon": 78.3884652,
        "tags": {
          "amenity": "restaurant",
          "cuisine": "indonesian",
          "name": "Sambal"
        }
      },
      {
        "type": "node",
        "id": 7021303732,
        "lat": 17.4378381,
        "lon": 78.3871372,
        "tags": {
          "amenity": "restaurant",
          "name": "Southwok Restaurant"
        }
      },
      {
        "type": "node",
        "id": 7021303737,
        "lat": 17.4348953,
        "lon": 78.3937529,
        "tags": {
          "amenity": "restaurant",
          "name": "Nala Bhimas Restaurant"
        }
      },
      {
        "type": "node",
        "id": 7025820753,
        "lat": 17.4385383,
        "lon": 78.3902999,
        "tags": {
          "air_conditioning": "yes",
          "amenity": "restaurant",
          "bar": "no",
          "name": "Sampradaya Ruchulu Restaurant"
        }
      },
      {
        "type": "node",
        "id": 7025820810,
        "lat": 17.4369759,
        "lon": 78.3891408,
        "tags": {
          "amenity": "restaurant",
          "name": "Mustard"
        }
      },
      {
        "type": "node",
        "id": 7025820811,
        "lat": 17.4369089,
        "lon": 78.3892028,
        "tags": {
          "amenity": "restaurant",
          "name": "Burgandi"
        }
      },
      {
        "type": "node",
        "id": 7025820812,
        "lat": 17.4367769,
        "lon": 78.3891418,
        "tags": {
          "amenity": "restaurant",
          "name": "Amber"
        }
      },
      {
        "type": "node",
        "id": 7025820838,
        "lat": 17.4346129,
        "lon": 78.3939618,
        "tags": {
          "amenity": "cafe",
          "name": "Waffle House"
        }
      },
      {
        "type": "node",
        "id": 7035236526,
        "lat": 17.4348714,
        "lon": 78.3870327,
        "tags": {
          "alt_name": "Kentucky Fried Chicken",
          "alt_name:en": "Kentucky Fried Chicken",
          "alt_name:hi": "\u0915\u0947\u0902\u091f\u0941\u0915\u0940 \u092b\u094d\u0930\u093e\u0907\u0921 \u091a\u093f\u0915\u0928",
          "alt_name:pa": "\u0a15\u0a48\u0a02\u0a1f\u0a41\u0a15\u0a40 \u0a2b\u0a4d\u0a30\u0a3e\u0a08\u0a21 \u0a1a\u0a3f\u0a15\u0a28",
          "alt_name:pnb": "\u06a9\u06cc\u0646\u0679\u06a9\u06cc \u0641\u0631\u0627\u0626\u06cc\u0688 \u0686\u06a9\u0646",
          "alt_name:ur": "\u06a9\u06cc\u0646\u0679\u06a9\u06cc \u0641\u0631\u0627\u0626\u06cc\u0688 \u0686\u06a9\u0646",
          "amenity": "fast_food",
          "brand": "KFC",
          "brand:en": "KFC",
          "brand:hi": "\u0915\u0947\u090f\u092b\u0938\u0940",
          "brand:pa": "\u0a15\u0a47\u0a10\u0a2b\u0a38\u0a40",
          "brand:pnb": "\u06a9\u06d2 \u0627\u06cc\u0641 \u0633\u06cc",
          "brand:ur": "\u06a9\u06d2 \u0627\u06cc\u0641 \u0633\u06cc",
          "brand:wikidata": "Q524757",
          "brand:wikipedia": "en:KFC",
          "brand:wikipedia:pa": "\u0a15\u0a47\u0a10\u0a2b\u0a38\u0a40",
          "brand:wikipedia:ur": "\u06a9\u06cc\u0646\u0679\u06a9\u06cc \u0641\u0631\u0627\u0626\u06cc\u0688 \u0686\u06a9\u0646",
          "cuisine": "chicken",
          "name": "KFC",
          "name:en": "KFC",
          "name:hi": "\u0915\u0947\u090f\u092b\u0938\u0940",
          "name:pa": "\u0a15\u0a47\u0a10\u0a2b\u0a38\u0a40",
          "name:pnb": "\u06a9\u06d2 \u0627\u06cc\u0641 \u0633\u06cc",
          "name:ur": "\u06a9\u06d2 \u0627\u06cc\u0641 \u0633\u06cc",
          "takeaway": "yes"
        }
      },
      {
        "type": "node",
        "id": 7035236527,
        "lat": 17.4352133,
        "lon": 78.3869412,
        "tags": {
          "amenity": "restaurant",
          "cuisine": "indian",
          "diet:vegan": "yes",
          "diet:vegetarian": "only",
          "name": "Chutneys"
        }
      },
      {
        "type": "node",
        "id": 7035236528,
        "lat": 17.4347204,
        "lon": 78.3870167,
        "tags": {
          "amenity": "fast_food",
          "brand": "Domino's",
          "brand:ks": "\u0688\u0648\u0645\u06cc\u0646\u0648\u0632",
          "brand:pa": "\u0a21\u0a4b\u0a2e\u0a40\u0a28\u0a4b\u0a1c\u0a3c",
          "brand:ur": "\u0688\u0648\u0645\u06cc\u0646\u0648\u0632",
          "brand:wikidata": "Q839466",
          "brand:wikipedia": "en:Domino's Pizza",
          "cuisine": "pizza",
          "name": "Domino's",
          "name:ks": "\u0688\u0648\u0645\u06cc\u0646\u0648\u0632",
          "name:pa": "\u0a21\u0a4b\u0a2e\u0a40\u0a28\u0a4b\u0a1c\u0a3c",
          "name:ur": "\u0688\u0648\u0645\u06cc\u0646\u0648\u0632",
          "takeaway": "yes"
        }
      },
      {
        "type": "node",
        "id": 7035236529,
        "lat": 17.4346142,
        "lon": 78.386904,
        "tags": {
          "amenity": "restaurant",
          "brand": "Pizza Hut",
          "brand:wikidata": "Q191615",
          "cuisine": "pizza",
          "name": "Pizza Hut"
        }
      },
      {
        "type": "node",
        "id": 7035236531,
        "lat": 17.4345566,
        "lon": 78.3864346,
        "tags": {
          "amenity": "restaurant",
          "name": "4 Seasons"
        }
      },
      {
        "type": "node",
        "id": 7035236534,
        "lat": 17.4349673,
        "lon": 78.3869939,
        "tags": {
          "brand": "Shoppers Stop",
          "brand:wikidata": "Q7501182",
          "check_date": "2024-03-29",
          "name": "Shoppers Stop",
          "shop": "department_store",
          "wheelchair": "yes"
        }
      },
      {
        "type": "node",
        "id": 7035236543,
        "lat": 17.4349353,
        "lon": 78.385811,
        "tags": {
          "amenity": "fast_food",
          "brand": "Domino's",
          "brand:ks": "\u0688\u0648\u0645\u06cc\u0646\u0648\u0632",
          "brand:pa": "\u0a21\u0a4b\u0a2e\u0a40\u0a28\u0a4b\u0a1c\u0a3c",
          "brand:ur": "\u0688\u0648\u0645\u06cc\u0646\u0648\u0632",
          "brand:wikidata": "Q839466",
          "brand:wikipedia": "en:Domino's Pizza",
          "cuisine": "pizza",
          "name": "Domino's",
          "name:ks": "\u0688\u0648\u0645\u06cc\u0646\u0648\u0632",
          "name:pa": "\u0a21\u0a4b\u0a2e\u0a40\u0a28\u0a4b\u0a1c\u0a3c",
          "name:ur": "\u0688\u0648\u0645\u06cc\u0646\u0648\u0632",
          "takeaway": "yes"
        }
      },
      {
        "type": "node",
        "id": 7043060807,
        "lat": 17.4388882,
        "lon": 78.3811747,
        "tags": {
          "addr:city": "Hyderabad",
          "addr:street": "Mindspace",
          "amenity": "bank",
          "name": "ICICI Bank"
        }
      },
      {
        "type": "node",
        "id": 12596386097,
        "lat": 17.4342579,
        "lon": 78.3867712,
        "tags": {
          "name": "inorbit mall",
          "shop": "mall"
        }
      }
    ]
  },
  "pois_2_5km": {
    "version": 0.6,
    "generator": "Overpass API 0.7.62.8 e802775f",
    "osm3s": {
      "timestamp_osm_base": "2025-09-06T08:29:45Z",
      "copyright": "The data included in this document is from www.openstreetmap.org. The data is made available under ODbL."
    },
    "elements": [
      {
        "type": "node",
        "id": 317759267,
        "lat": 17.4513921,
        "lon": 78.3792883,
        "tags": {
          "amenity": "theatre",
          "name": "Shilpa Kala Vedika",
          "name:te": "\u0c36\u0c3f\u0c32\u0c4d\u0c2a \u0c15\u0c33\u0c3e \u0c35\u0c47\u0c26\u0c3f\u0c15",
          "tourism": "attraction"
        }
      },
      {
        "type": "node",
        "id": 344033815,
        "lat": 17.4380252,
        "lon": 78.3996269,
        "tags": {
          "amenity": "fuel",
          "brand": "Indian Oil",
          "brand:wikidata": "Q1289348",
          "brand:wikipedia": "en:Indian Oil Corporation",
          "name": "Indian Oil",
          "operator": "IBP"
        }
      },
      {
        "type": "node",
        "id": 349267514,
        "lat": 17.4407798,
        "lon": 78.3913972,
        "tags": {
          "amenity": "fuel",
          "brand": "Indian Oil",
          "brand:wikidata": "Q1289348",
          "brand:wikipedia": "en:Indian Oil Corporation",
          "name": "Indian Oil Madhapur"
        }
      },
      {
        "type": "node",
        "id": 2217968824,
        "lat": 17.417971,
        "lon": 78.388481,
        "tags": {
          "amenity": "fuel",
          "brand": "Bharat Petroleum",
          "brand:wikidata": "Q854826",
          "check_date": "2024-03-29",
          "name": "Bharat Petroleum"
        }
      },
      {
        "type": "node",
        "id": 2422172978,
        "lat": 17.4306371,
        "lon": 78.4083638,
        "tags": {
          "name": "Peddamma Gudi",
          "name:te": "\u0c2a\u0c46\u0c26\u0c4d\u0c26\u0c2e\u0c4d\u0c2e \u0c17\u0c41\u0c21\u0c3f",
          "network": "Hyderabad Metro",
          "note": "Contributors are requested to not edit the \"network\" and the \"operator\" tags. (2023/11/08)",
          "operator": "Hyderabad Metro Rail Limited",
          "public_transport": "stop_position",
          "railway": "stop",
          "subway": "yes"
        }
      },
      {
        "type": "node",
        "id": 2422172983,
        "lat": 17.4489916,
        "lon": 78.3831192,
        "tags": {
          "name": "HITEC City",
          "name:te": "\u0c39\u0c48\u0c1f\u0c46\u0c15\u0c4d \u0c38\u0c3f\u0c1f\u0c3f",
          "network": "Hyderabad Metro",
          "note": "Contributors are requested to not edit the \"network\" and the \"operator\" tags. (2023/11/08)",
          "operator": "Hyderabad Metro Rail Limited",
          "public_transport": "stop_position",
          "railway": "stop",
          "subway": "yes"
        }
      },
      {
        "type": "node",
        "id": 2422173008,
        "lat": 17.4372512,
        "lon": 78.4004097,
        "tags": {
          "name": "Madhapur",
          "name:te": "\u0c2e\u0c3e\u0c27\u0c3e\u0c2a\u0c42\u0c30\u0c4d",
          "network": "Hyderabad Metro",
          "note": "Contributors are requested to not edit the \"network\" and the \"operator\" tags. (2023/11/08)",
          "operator": "Hyderabad Metro Rail Limited",
          "platforms": "2",
          "public_transport": "stop_position",
          "public_transport:version": "2",
          "railway": "stop",
          "subway": "yes",
          "wheelchair": "yes"
        }
      },
      {
        "type": "node",
        "id": 2422173105,
        "lat": 17.4421814,
        "lon": 78.3772038,
        "tags": {
          "name": "Raidurg",
          "network": "Hyderabad Metro",
          "note": "Contributors are requested to not edit the \"network\" and the \"operator\" tags. (2023/11/08)",
          "operator": "Hyderabad Metro Rail Limited",
          "public_transport": "stop_position",
          "railway": "stop",
          "subway": "yes"
        }
      },
      {
        "type": "node",
        "id": 4670740390,
        "lat": 17.4150869,
        "lon": 78.3941554,
        "tags": {
          "amenity": "fuel",
          "check_date": "2024-03-29",
          "name": "Bharat Petroleum",
          "name:en": "Bharat Petroleum"
        }
      },
      {
        "type": "node",
        "id": 4700619028,
        "lat": 17.4296684,
        "lon": 78.3744683,
        "tags": {
          "amenity": "fuel",
          "brand": "Indian Oil",
          "brand:wikidata": "Q1289348",
          "brand:wikipedia": "en:Indian Oil Corporation",
          "check_date": "2024-03-29",
          "name": "Indian Oil",
          "name:en": "Indian Oil",
          "operator": "Lumbini Filling Station"
        }
      },
      {
        "type": "node",
        "id": 5017549934,
        "lat": 17.4374118,
        "lon": 78.3883021,
        "tags": {
          "amenity": "fuel",
          "brand": "Bharat Petroleum",
          "brand:wikidata": "Q854826",
          "name": "Bharat Petroleum",
          "short_name": "BP"
        }
      },
      {
        "type": "node",
        "id": 5787787852,
        "lat": 17.4490132,
        "lon": 78.3831555,
        "tags": {
          "name": "HITEC City",
          "name:te": "\u0c39\u0c48\u0c1f\u0c46\u0c15\u0c4d \u0c38\u0c3f\u0c1f\u0c3f",
          "network": "Hyderabad Metro",
          "note": "Contributors are requested to not edit the \"network\" and the \"operator\" tags. (2023/11/08)",
          "operator": "Hyderabad Metro Rail Limited",
          "public_transport": "stop_position",
          "railway": "stop",
          "subway": "yes"
        }
      },
      {
        "type": "node",
        "id": 5787787896,
        "lat": 17.4372693,
        "lon": 78.4004421,
        "tags": {
          "name": "Madhapur",
          "name:te": "\u0c2e\u0c3e\u0c27\u0c3e\u0c2a\u0c42\u0c30\u0c4d",
          "network": "Hyderabad Metro",
          "note": "Contributors are requested to not edit the \"network\" and the \"operator\" tags. (2023/11/08)",
          "operator": "Hyderabad Metro Rail Limited",
          "platforms": "2",
          "public_transport": "stop_position",
          "public_transport:version": "2",
          "railway": "stop",
          "subway": "yes",
          "wheelchair": "yes"
        }
      },
      {
        "type": "node",
        "id": 5787787987,
        "lat": 17.4421818,
        "lon": 78.3771643,
        "tags": {
          "name": "Raidurg",
          "network": "Hyderabad Metro",
          "note": "Contributors are requested to not edit the \"network\" and the \"operator\" tags. (2023/11/08)",
          "operator": "Hyderabad Metro Rail Limited",
          "public_transport": "stop_position",
          "railway": "stop",
          "subway": "yes"
        }
      },
      {
        "type": "node",
        "id": 6444553239,
        "lat": 17.4490055,
        "lon": 78.3831376,
        "tags": {
          "name": "HITEC City",
          "name:ml": "\u0d39\u0d48\u0d1f\u0d46\u0d15\u0d4d \u0d38\u0d3f\u0d31\u0d4d\u0d31\u0d3f",
          "name:te": "\u0c39\u0c48\u0c1f\u0c46\u0c15\u0c4d \u0c38\u0c3f\u0c1f\u0c3f",
          "network": "Hyderabad Metro",
          "note": "Contributors are requested to not edit the \"network\" and the \"operator\" tags. (2023/11/08)",
          "operator": "Hyderabad Metro Rail Limited",
          "public_transport": "station",
          "railway": "station",
          "station": "subway",
          "subway": "yes",
          "wikidata": "Q56701859"
        }
      },
      {
        "type": "node",
        "id": 6451675812,
        "lat": 17.4429466,
        "lon": 78.3875721,
        "tags": {
          "internet_access": "no",
          "name": "Durgam Cheruvu Metro Station",
          "name:ml": "\u0d26\u0d41\u0d7c\u0d17\u0d4d\u0d17\u0d02 \u0d1a\u0d46\u0d30\u0d41\u0d35\u0d4d",
          "name:te": "\u0c26\u0c41\u0c30\u0c4d\u0c17\u0c02 \u0c1a\u0c46\u0c30\u0c41\u0c35\u0c41 Metro Station",
          "network": "Hyderabad Metro",
          "note": "Contributors are requested to not edit the \"network\" and the \"operator\" tags. (2023/11/08)",
          "operator": "Hyderabad Metro Rail Limited",
          "public_transport": "station",
          "railway": "station",
          "station": "Metro",
          "subway": "yes",
          "website": "https://hmrl.co.in",
          "wheelchair": "yes",
          "wikidata": "Q83554384"
        }
      },
      {
        "type": "node",
        "id": 6453519084,
        "lat": 17.4429159,
        "lon": 78.3875922,
        "tags": {
          "internet_access": "no",
          "name": "Durgam Cheruvu",
          "name:te": "\u0c26\u0c41\u0c30\u0c4d\u0c17\u0c02 \u0c1a\u0c46\u0c30\u0c41\u0c35\u0c41",
          "network": "Hyderabad Metro",
          "note": "Contributors are requested to not edit the \"network\" and the \"operator\" tags. (2023/11/08)",
          "operator": "Hyderabad Metro Rail Limited",
          "public_transport": "stop_position",
          "railway": "stop",
          "subway": "yes"
        }
      },
      {
        "type": "node",
        "id": 6453520185,
        "lat": 17.442903,
        "lon": 78.387557,
        "tags": {
          "internet_access": "no",
          "name": "Durgam Cheruvu",
          "name:en": "Durgam Cheruvu Metro Station",
          "name:te": "\u0c26\u0c41\u0c30\u0c4d\u0c17\u0c02 \u0c1a\u0c46\u0c30\u0c41\u0c35\u0c41 \u0c2e\u0c46\u0c1f\u0c4d\u0c30\u0c4b \u0c38\u0c4d\u0c1f\u0c47\u0c37\u0c28\u0c4d",
          "network": "Hyderabad Metro",
          "note": "Contributors are requested to not edit the \"network\" and the \"operator\" tags. (2023/11/08)",
          "operator": "Hyderabad Metro Rail Limited",
          "public_transport": "stop_position",
          "railway": "stop",
          "subway": "yes"
        }
      },
      {
        "type": "node",
        "id": 6771713702,
        "lat": 17.4351644,
        "lon": 78.3867947,
        "tags": {
          "amenity": "cinema",
          "brand": "PVR Cinemas",
          "brand:short": "PVR",
          "brand:wikidata": "Q3359908",
          "name": "Pvr Cinemas"
        }
      },
      {
        "type": "node",
        "id": 7025820767,
        "lat": 17.4436886,
        "lon": 78.4008906,
        "tags": {
          "amenity": "cinema",
          "name": "Mic Movies"
        }
      },
      {
        "type": "node",
        "id": 7052069773,
        "lat": 17.4306677,
        "lon": 78.4083833,
        "tags": {
          "name": "Peddamma Gudi",
          "name:te": "\u0c2a\u0c46\u0c26\u0c4d\u0c26\u0c2e\u0c4d\u0c2e \u0c17\u0c41\u0c21\u0c3f",
          "network": "Hyderabad Metro",
          "note": "Contributors are requested to not edit the \"network\" and the \"operator\" tags. (2023/11/08)",
          "operator": "Hyderabad Metro Rail Limited",
          "public_transport": "stop_position",
          "railway": "stop",
          "subway": "yes"
        }
      },
      {
        "type": "node",
        "id": 7052069774,
        "lat": 17.4306512,
        "lon": 78.4083721,
        "tags": {
          "name": "Peddamma Gudi",
          "name:ml": "\u0d2a\u0d46\u0d26\u0d4d\u0d26\u0d2e\u0d4d\u0d2e \u0d17\u0d41\u0d21\u0d3f",
          "name:te": "\u0c2a\u0c46\u0c26\u0c4d\u0c26\u0c2e\u0c4d\u0c2e \u0c17\u0c41\u0c21\u0c3f",
          "name:ur": "\u067e\u06cc\u062f\u0645\u0627 \u06af\u0688\u06cc",
          "network": "Hyderabad Metro",
          "note": "Contributors are requested to not edit the \"network\" and the \"operator\" tags. (2023/11/08)",
          "operator": "Hyderabad Metro Rail Limited",
          "public_transport": "station",
          "railway": "station",
          "station": "subway",
          "subway": "yes",
          "wikidata": "Q84028775"
        }
      },
      {
        "type": "node",
        "id": 7052069775,
        "lat": 17.44218,
        "lon": 78.3771819,
        "tags": {
          "name": "Raidurg",
          "name:ml": "\u0d31\u0d3e\u0d2f\u0d4d\u0d26\u0d41\u0d7c\u0d17\u0d4d",
          "name:te": "\u0c30\u0c3e\u0c2f\u0c26\u0c41\u0c30\u0c4d\u0c17\u0c4d",
          "network": "Hyderabad Metro",
          "note": "Contributors are requested to not edit the \"network\" and the \"operator\" tags. (2023/11/08)",
          "operator": "Hyderabad Metro Rail Limited",
          "public_transport": "station",
          "railway": "station",
          "station": "subway",
          "subway": "yes",
          "wikidata": "Q58814837"
        }
      },
      {
        "type": "node",
        "id": 8583160409,
        "lat": 17.4308333,
        "lon": 78.3734976,
        "tags": {
          "amenity": "cinema",
          "branch": "Gachibowli",
          "brand": "PVR Cinemas",
          "brand:short": "PVR",
          "brand:wikidata": "Q3359908",
          "name": "PVR Preston Prime",
          "screen": "4",
          "website": "https://www.pvrcinemas.com/cinemasessions/Hyderabad/PVR-Preston-Prime,-Gachibowli-Hyderabad/186"
        }
      },
      {
        "type": "node",
        "id": 9144573053,
        "lat": 17.4372637,
        "lon": 78.4004257,
        "tags": {
          "layer": "1",
          "lit": "yes",
          "name": "Madhapur",
          "name:ml": "\u0d2e\u0d3e\u0d27\u0d3e\u0d2a\u0d42\u0d7c",
          "name:te": "\u0c2e\u0c3e\u0c27\u0c3e\u0c2a\u0c42\u0c30\u0c4d",
          "network": "Hyderabad Metro",
          "note": "Contributors are requested to not edit the \"network\" and the \"operator\" tags. (2023/11/08)",
          "operator": "Hyderabad Metro Rail Limited",
          "platforms": "2",
          "public_transport": "station",
          "public_transport:version": "2",
          "railway": "station",
          "shelter": "yes",
          "station": "subway",
          "subway": "yes",
          "wheelchair": "yes",
          "wikidata": "Q83637027"
        }
      },
      {
        "type": "node",
        "id": 10789486270,
        "lat": 17.4481318,
        "lon": 78.3844627,
        "tags": {
          "amenity": "cinema",
          "branch": "Hitech city",
          "brand": "PVR Cinemas",
          "brand:short": "PVR",
          "brand:wikidata": "Q3359908",
          "name": "PVR Cinemas, Icon"
        }
      },
      {
        "type": "node",
        "id": 10789525449,
        "lat": 17.4444549,
        "lon": 78.3881266,
        "tags": {
          "addr:city": "Hyderabad",
          "addr:neighbourhood": "Madhapur",
          "addr:state": "Telangana",
          "air_conditioning": "yes",
          "amenity": "cinema",
          "name": "BR Hitech Theatre"
        }
      },
      {
        "type": "node",
        "id": 10790345915,
        "lat": 17.431208,
        "lon": 78.3711702,
        "tags": {
          "amenity": "theatre",
          "name": "Rangbhoomi"
        }
      },
      {
        "type": "node",
        "id": 11770988841,
        "lat": 17.4323776,
        "lon": 78.369946,
        "tags": {
          "amenity": "fuel",
          "brand": "Bharat Petroleum",
          "brand:wikidata": "Q854826",
          "check_date": "2024-03-29",
          "name": "Bharat Petroleum"
        }
      }
    ]
  }
}