{
  "pois_1km": {
    "version": 0.6,
    "generator": "Overpass API 0.7.62.8 e802775f",
    "osm3s": {
      "timestamp_osm_base": "2025-09-06T08:54:17Z",
      "copyright": "The data included in this document is from www.openstreetmap.org. The data is made available under ODbL."
    },
    "elements": [
      {
        "type": "node",
        "id": 3384185317,
        "lat": 17.4539558,
        "lon": 78.3783191,
        "tags": {
          "name": "NIGHT BAZAR",
          "shop": "mall"
        }
      },
      {
        "type": "node",
        "id": 5993045399,
        "lat": 17.4524,
        "lon": 78.3889115,
        "tags": {
          "amenity": "clinic",
          "healthcare": "clinic",
          "healthcare:speciality": "child_psychiatry;dermatology;psychiatry",
          "level": "2",
          "name": "IDEA Clinics",
          "payment:coins": "yes",
          "payment:maestro": "yes",
          "payment:notes": "yes",
          "payment:visa": "yes",
          "phone": "04040024000",
          "website": "https://www.ideaclinics.com/"
        }
      },
      {
        "type": "node",
        "id": 6246440085,
        "lat": 17.4540505,
        "lon": 78.3829633,
        "tags": {
          "amenity": "cafe",
          "name": "Freak Shake"
        }
      },
      {
        "type": "node",
        "id": 6248961886,
        "lat": 17.4549917,
        "lon": 78.3841449,
        "tags": {
          "amenity": "restaurant",
          "name": "Ahilobhilam Foods"
        }
      },
      {
        "type": "node",
        "id": 6257501985,
        "lat": 17.4541261,
        "lon": 78.3829874,
        "tags": {
          "amenity": "fast_food",
          "name": "Puff House"
        }
      },
      {
        "type": "node",
        "id": 6259475585,
        "lat": 17.4522477,
        "lon": 78.3850331,
        "tags": {
          "amenity": "restaurant",
          "name": "Palamuri Grill"
        }
      },
      {
        "type": "node",
        "id": 6261439688,
        "lat": 17.4522212,
        "lon": 78.3852733,
        "tags": {
          "amenity": "restaurant",
          "name": "Urban Vilage"
        }
      },
      {
        "type": "node",
        "id": 6273886287,
        "lat": 17.4590933,
        "lon": 78.3848255,
        "tags": {
          "amenity": "fast_food",
          "name": "Prince DriveInn"
        }
      },
      {
        "type": "node",
        "id": 6760780819,
        "lat": 17.4526084,
        "lon": 78.380549,
        "tags": {
          "amenity": "restaurant",
          "name": "Chutneys"
        }
      },
      {
        "type": "node",
        "id": 6935579741,
        "lat": 17.4518874,
        "lon": 78.3856618,
        "tags": {
          "amenity": "restaurant",
          "name": "The grand truck road"
        }
      },
      {
        "type": "node",
        "id": 7021303736,
        "lat": 17.4513665,
        "lon": 78.3866436,
        "tags": {
          "amenity": "restaurant",
          "name": "Simhapuri Deluxe"
        }
      },
      {
        "type": "node",
        "id": 7021303763,
        "lat": 17.4511935,
        "lon": 78.3858327,
        "tags": {
          "amenity": "clinic",
          "healthcare": "clinic",
          "name": "Dr.Rajetha's Mohana Skin & Hair Clinic"
        }
      },
      {
        "type": "node",
        "id": 7180262406,
        "lat": 17.4666865,
        "lon": 78.3810316,
        "tags": {
          "shop": "supermarket"
        }
      },
      {
        "type": "node",
        "id": 11597374603,
        "lat": 17.4528112,
        "lon": 78.3803019,
        "tags": {
          "amenity": "restaurant",
          "name": "Oh! Calcutta",
          "opening_hours": "Mo-Su 12:00-15:30, 19:00-23:00"
        }
      },
      {
        "type": "node",
        "id": 11770993380,
        "lat": 17.4622687,
        "lon": 78.384176,
        "tags": {
          "amenity": "hospital",
          "check_date": "2024-03-29",
          "healthcare": "hospital",
          "name": "Yashoda Hospitals"
        }
      },
      {
        "type": "node",
        "id": 12976164537,
        "lat": 17.456793,
        "lon": 78.3758339,
        "tags": {
          "addr:city": "Hyderabad",
          "addr:postcode": "500081",
          "addr:street": "Hitech City - Kondapur Main Road",
          "air_conditioning": "yes",
          "amenity": "bank",
          "atm": "yes",
          "branch": "Hitex Madhapur",
          "brand": "Kotak Mahindra Bank",
          "brand:wikidata": "Q2040404",
          "drive_through": "no",
          "level": "0",
          "name": "Kotak Mahindra Bank",
          "operator": "Kotak Mahindra Bank"
        }
      },
      {
        "type": "node",
        "id": 12976261868,
        "lat": 17.4565417,
        "lon": 78.3762981,
        "tags": {
          "addr:city": "Hyderabad",
          "addr:postcode": "500081",
          "air_conditioning": "yes",
          "amenity": "cafe",
          "cuisine": "italian;mexican;spanish",
          "description": "Place is famous for Churros and Gourmet food.",
          "drive_through": "no",
          "highchair": "yes",
          "internet_access": "wlan",
          "level": "1",
          "name": "Churrolto",
          "outdoor_seating": "no",
          "reservation": "yes",
          "website": "https://www.churrolto.com/",
          "website:menu": "https://www.churrolto.com/c/menu"
        }
      }
    ]
  },
  "pois_2_5km": {
    "version": 0.6,
    "generator": "Overpass API 0.7.62.8 e802775f",
    "osm3s": {
      "timestamp_osm_base": "2025-09-06T08:54:17Z",
      "copyright": "The data included in this document is from www.openstreetmap.org. The data is made available under ODbL."
    },
    "elements": [
      {
        "type": "node",
        "id": 317759267,
        "lat": 17.4513921,
        "lon": 78.3792883,
        "tags": {
          "amenity": "theatre",
          "name": "Shilpa Kala Vedika",
          "name:te": "\u0c36\u0c3f\u0c32\u0c4d\u0c2a \u0c15\u0c33\u0c3e \u0c35\u0c47\u0c26\u0c3f\u0c15",
          "tourism": "attraction"
        }
      },
      {
        "type": "node",
        "id": 349267514,
        "lat": 17.4407798,
        "lon": 78.3913972,
        "tags": {
          "amenity": "fuel",
          "brand": "Indian Oil",
          "brand:wikidata": "Q1289348",
          "brand:wikipedia": "en:Indian Oil Corporation",
          "name": "Indian Oil Madhapur"
        }
      },
      {
        "type": "node",
        "id": 1425916857,
        "lat": 17.4698143,
        "lon": 78.3853779,
        "tags": {
          "internet_access": "no",
          "name": "Hitech City",
          "network": "IR",
          "operator": "SCR",
          "platforms": "2",
          "public_transport": "station",
          "railway": "station",
          "ref": "HTCY",
          "train": "yes",
          "wheelchair": "no",
          "wikidata": "Q5871886",
          "wikipedia": "en:Hitech City railway station"
        }
      },
      {
        "type": "node",
        "id": 1437208985,
        "lat": 17.4590687,
        "lon": 78.4078664,
        "tags": {
          "internet_access": "no",
          "name": "Borabanda",
          "name:ur": "\u0628\u0648\u0631\u0627 \u0628\u0646\u0688\u0627",
          "network": "IR",
          "operator": "SCR",
          "platforms": "2",
          "public_transport": "station",
          "railway": "station",
          "ref": "BRBD",
          "wikidata": "Q4944267",
          "wikipedia": "en:Borabanda railway station"
        }
      },
      {
        "type": "node",
        "id": 2422172983,
        "lat": 17.4489916,
        "lon": 78.3831192,
        "tags": {
          "name": "HITEC City",
          "name:te": "\u0c39\u0c48\u0c1f\u0c46\u0c15\u0c4d \u0c38\u0c3f\u0c1f\u0c3f",
          "network": "Hyderabad Metro",
          "note": "Contributors are requested to not edit the \"network\" and the \"operator\" tags. (2023/11/08)",
          "operator": "Hyderabad Metro Rail Limited",
          "public_transport": "stop_position",
          "railway": "stop",
          "subway": "yes"
        }
      },
      {
        "type": "node",
        "id": 2422173105,
        "lat": 17.4421814,
        "lon": 78.3772038,
        "tags": {
          "name": "Raidurg",
          "network": "Hyderabad Metro",
          "note": "Contributors are requested to not edit the \"network\" and the \"operator\" tags. (2023/11/08)",
          "operator": "Hyderabad Metro Rail Limited",
          "public_transport": "stop_position",
          "railway": "stop",
          "subway": "yes"
        }
      },
      {
        "type": "node",
        "id": 2528181881,
        "lat": 17.4592409,
        "lon": 78.4078466,
        "tags": {
          "name": "Borabanda",
          "public_transport": "stop_position",
          "railway": "stop",
          "ref": "1",
          "train": "yes"
        }
      },
      {
        "type": "node",
        "id": 2528181954,
        "lat": 17.469728,
        "lon": 78.3852406,
        "tags": {
          "name": "Hitech City",
          "public_transport": "stop_position",
          "railway": "stop",
          "ref": "1",
          "train": "yes"
        }
      },
      {
        "type": "node",
        "id": 5787787852,
        "lat": 17.4490132,
        "lon": 78.3831555,
        "tags": {
          "name": "HITEC City",
          "name:te": "\u0c39\u0c48\u0c1f\u0c46\u0c15\u0c4d \u0c38\u0c3f\u0c1f\u0c3f",
          "network": "Hyderabad Metro",
          "note": "Contributors are requested to not edit the \"network\" and the \"operator\" tags. (2023/11/08)",
          "operator": "Hyderabad Metro Rail Limited",
          "public_transport": "stop_position",
          "railway": "stop",
          "subway": "yes"
        }
      },
      {
        "type": "node",
        "id": 5787787987,
        "lat": 17.4421818,
        "lon": 78.3771643,
        "tags": {
          "name": "Raidurg",
          "network": "Hyderabad Metro",
          "note": "Contributors are requested to not edit the \"network\" and the \"operator\" tags. (2023/11/08)",
          "operator": "Hyderabad Metro Rail Limited",
          "public_transport": "stop_position",
          "railway": "stop",
          "subway": "yes"
        }
      },
      {
        "type": "node",
        "id": 6248961888,
        "lat": 17.4577608,
        "lon": 78.3841734,
        "tags": {
          "amenity": "fuel",
          "brand": "Hindustan Petroleum",
          "brand:wikidata": "Q1619375",
          "brand:wikipedia": "en:Hindustan Petroleum",
          "name": "HP",
          "name:en": "HP petrol bunk",
          "official_name": "Hindustan Petroleum"
        }
      },
      {
        "type": "node",
        "id": 6444553239,
        "lat": 17.4490055,
        "lon": 78.3831376,
        "tags": {
          "name": "HITEC City",
          "name:ml": "\u0d39\u0d48\u0d1f\u0d46\u0d15\u0d4d \u0d38\u0d3f\u0d31\u0d4d\u0d31\u0d3f",
          "name:te": "\u0c39\u0c48\u0c1f\u0c46\u0c15\u0c4d \u0c38\u0c3f\u0c1f\u0c3f",
          "network": "Hyderabad Metro",
          "note": "Contributors are requested to not edit the \"network\" and the \"operator\" tags. (2023/11/08)",
          "operator": "Hyderabad Metro Rail Limited",
          "public_transport": "station",
          "railway": "station",
          "station": "subway",
          "subway": "yes",
          "wikidata": "Q56701859"
        }
      },
      {
        "type": "node",
        "id": 6451675812,
        "lat": 17.4429466,
        "lon": 78.3875721,
        "tags": {
          "internet_access": "no",
          "name": "Durgam Cheruvu Metro Station",
          "name:ml": "\u0d26\u0d41\u0d7c\u0d17\u0d4d\u0d17\u0d02 \u0d1a\u0d46\u0d30\u0d41\u0d35\u0d4d",
          "name:te": "\u0c26\u0c41\u0c30\u0c4d\u0c17\u0c02 \u0c1a\u0c46\u0c30\u0c41\u0c35\u0c41 Metro Station",
          "network": "Hyderabad Metro",
          "note": "Contributors are requested to not edit the \"network\" and the \"operator\" tags. (2023/11/08)",
          "operator": "Hyderabad Metro Rail Limited",
          "public_transport": "station",
          "railway": "station",
          "station": "Metro",
          "subway": "yes",
          "website": "https://hmrl.co.in",
          "wheelchair": "yes",
          "wikidata": "Q83554384"
        }
      },
      {
        "type": "node",
        "id": 6453519084,
        "lat": 17.4429159,
        "lon": 78.3875922,
        "tags": {
          "internet_access": "no",
          "name": "Durgam Cheruvu",
          "name:te": "\u0c26\u0c41\u0c30\u0c4d\u0c17\u0c02 \u0c1a\u0c46\u0c30\u0c41\u0c35\u0c41",
          "network": "Hyderabad Metro",
          "note": "Contributors are requested to not edit the \"network\" and the \"operator\" tags. (2023/11/08)",
          "operator": "Hyderabad Metro Rail Limited",
          "public_transport": "stop_position",
          "railway": "stop",
          "subway": "yes"
        }
      },
      {
        "type": "node",
        "id": 6453520185,
        "lat": 17.442903,
        "lon": 78.387557,
        "tags": {
          "internet_access": "no",
          "name": "Durgam Cheruvu",
          "name:en": "Durgam Cheruvu Metro Station",
          "name:te": "\u0c26\u0c41\u0c30\u0c4d\u0c17\u0c02 \u0c1a\u0c46\u0c30\u0c41\u0c35\u0c41 \u0c2e\u0c46\u0c1f\u0c4d\u0c30\u0c4b \u0c38\u0c4d\u0c1f\u0c47\u0c37\u0c28\u0c4d",
          "network": "Hyderabad Metro",
          "note": "Contributors are requested to not edit the \"network\" and the \"operator\" tags. (2023/11/08)",
          "operator": "Hyderabad Metro Rail Limited",
          "public_transport": "stop_position",
          "railway": "stop",
          "subway": "yes"
        }
      },
      {
        "type": "node",
        "id": 6594683311,
        "lat": 17.4696885,
        "lon": 78.3851526,
        "tags": {
          "name": "Hitech City",
          "public_transport": "stop_position",
          "railway": "stop",
          "ref": "2",
          "train": "yes"
        }
      },
      {
        "type": "node",
        "id": 6594683312,
        "lat": 17.4592009,
        "lon": 78.4078495,
        "tags": {
          "name": "Borabanda",
          "public_transport": "stop_position",
          "railway": "stop",
          "ref": "2",
          "train": "yes"
        }
      },
      {
        "type": "node",
        "id": 6771713703,
        "lat": 17.457321,
        "lon": 78.3634764,
        "tags": {
          "amenity": "cinema",
          "name": "AMB Cinemas"
        }
      },
      {
        "type": "node",
        "id": 6949244902,
        "lat": 17.4650201,
        "lon": 78.3647896,
        "tags": {
          "amenity": "fuel",
          "brand": "Hindustan Petroleum",
          "brand:wikidata": "Q1619375",
          "compressed_air": "yes",
          "name": "HP Petrol bunk",
          "official_name": "Hindustan Petroleum",
          "opening_hours": "Mo-Su 06:00-23:00"
        }
      },
      {
        "type": "node",
        "id": 7025820767,
        "lat": 17.4436886,
        "lon": 78.4008906,
        "tags": {
          "amenity": "cinema",
          "name": "Mic Movies"
        }
      },
      {
        "type": "node",
        "id": 7052069775,
        "lat": 17.44218,
        "lon": 78.3771819,
        "tags": {
          "name": "Raidurg",
          "name:ml": "\u0d31\u0d3e\u0d2f\u0d4d\u0d26\u0d41\u0d7c\u0d17\u0d4d",
          "name:te": "\u0c30\u0c3e\u0c2f\u0c26\u0c41\u0c30\u0c4d\u0c17\u0c4d",
          "network": "Hyderabad Metro",
          "note": "Contributors are requested to not edit the \"network\" and the \"operator\" tags. (2023/11/08)",
          "operator": "Hyderabad Metro Rail Limited",
          "public_transport": "station",
          "railway": "station",
          "station": "subway",
          "subway": "yes",
          "wikidata": "Q58814837"
        }
      },
      {
        "type": "node",
        "id": 7066081505,
        "lat": 17.4522209,
        "lon": 78.3627119,
        "tags": {
          "amenity": "cinema",
          "name": "Platinum"
        }
      },
      {
        "type": "node",
        "id": 10789486270,
        "lat": 17.4481318,
        "lon": 78.3844627,
        "tags": {
          "amenity": "cinema",
          "branch": "Hitech city",
          "brand": "PVR Cinemas",
          "brand:short": "PVR",
          "brand:wikidata": "Q3359908",
          "name": "PVR Cinemas, Icon"
        }
      },
      {
        "type": "node",
        "id": 10789525449,
        "lat": 17.4444549,
        "lon": 78.3881266,
        "tags": {
          "addr:city": "Hyderabad",
          "addr:neighbourhood": "Madhapur",
          "addr:state": "Telangana",
          "air_conditioning": "yes",
          "amenity": "cinema",
          "name": "BR Hitech Theatre"
        }
      },
      {
        "type": "node",
        "id": 11770993370,
        "lat": 17.458549,
        "lon": 78.38424,
        "tags": {
          "amenity": "fuel",
          "brand": "Hindustan Petroleum",
          "brand:wikidata": "Q1619375",
          "check_date": "2024-03-29",
          "name": "HP",
          "official_name": "Hindustan Petroleum"
        }
      }
    ]
  }
}