{
  "pois_1km": {
    "version": 0.6,
    "generator": "Overpass API 0.7.62.8 e802775f",
    "osm3s": {
      "timestamp_osm_base": "2025-09-06T08:43:02Z",
      "copyright": "The data included in this document is from www.openstreetmap.org. The data is made available under ODbL."
    },
    "elements": [
      {
        "type": "node",
        "id": 1215250883,
        "lat": 17.4582319,
        "lon": 78.3661208,
        "tags": {
          "amenity": "restaurant",
          "cuisine": "indian",
          "name": "Oysters Blue"
        }
      },
      {
        "type": "node",
        "id": 1215742614,
        "lat": 17.4593336,
        "lon": 78.3663932,
        "tags": {
          "amenity": "atm"
        }
      },
      {
        "type": "node",
        "id": 1215790311,
        "lat": 17.4597233,
        "lon": 78.3665008,
        "tags": {
          "amenity": "restaurant",
          "name": "Angaara",
          "phone": "+919640884010"
        }
      },
      {
        "type": "node",
        "id": 1224523179,
        "lat": 17.4535178,
        "lon": 78.364084,
        "tags": {
          "amenity": "hospital",
          "emergency": "no",
          "healthcare": "hospital",
          "name": "Ambicare Hospital"
        }
      },
      {
        "type": "node",
        "id": 1224523184,
        "lat": 17.4436204,
        "lon": 78.3625498,
        "tags": {
          "amenity": "atm",
          "brand": "Bank of India",
          "brand:wikidata": "Q2004439",
          "operator": "Bank of India",
          "operator:wikidata": "Q2004439"
        }
      },
      {
        "type": "node",
        "id": 1452415913,
        "lat": 17.4596243,
        "lon": 78.3659996,
        "tags": {
          "amenity": "restaurant",
          "cuisine": "kebab",
          "name": "Roll Cal"
        }
      },
      {
        "type": "node",
        "id": 1452419059,
        "lat": 17.4600092,
        "lon": 78.3661033,
        "tags": {
          "shop": "supermarket"
        }
      },
      {
        "type": "node",
        "id": 2586288038,
        "lat": 17.4561835,
        "lon": 78.3646926,
        "tags": {
          "name": "Ratnadeep SuperMarket",
          "shop": "supermarket",
          "website": "http://www.ratnadeepsupermarket.com/"
        }
      },
      {
        "type": "node",
        "id": 3554603085,
        "lat": 17.4594714,
        "lon": 78.3659499,
        "tags": {
          "amenity": "restaurant",
          "cuisine": "regional",
          "name": "Minerva"
        }
      },
      {
        "type": "node",
        "id": 3619348034,
        "lat": 17.4599321,
        "lon": 78.3660837,
        "tags": {
          "amenity": "hospital",
          "healthcare": "hospital",
          "name": "Apoolo Clinic"
        }
      },
      {
        "type": "node",
        "id": 4773276015,
        "lat": 17.4500825,
        "lon": 78.3649253,
        "tags": {
          "addr:city": "Hyderabad",
          "addr:postcode": "500032",
          "addr:street": "Anjaiah Nagar,Gachibowli",
          "ele": "0",
          "name": "Srinivasa Kirana & General Stores",
          "opening_hours": "06:00-22:30",
          "shop": "supermarket"
        }
      },
      {
        "type": "node",
        "id": 5299367317,
        "lat": 17.4488131,
        "lon": 78.3570817,
        "tags": {
          "amenity": "pharmacy",
          "brand": "Apollo Pharmacy",
          "brand:wikidata": "Q62562612",
          "healthcare": "pharmacy",
          "name": "Apollo Pharmacy"
        }
      },
      {
        "type": "node",
        "id": 5405059611,
        "lat": 17.4443054,
        "lon": 78.3627759,
        "tags": {
          "amenity": "atm",
          "brand": "Allahabad Bank",
          "brand:wikidata": "Q2018840",
          "name": "Allahabad bank",
          "operator": "Allahabad Bank",
          "operator:wikidata": "Q2018840"
        }
      },
      {
        "type": "node",
        "id": 5405059616,
        "lat": 17.4464989,
        "lon": 78.3632853,
        "tags": {
          "amenity": "food_court",
          "description": "100% pure vegetarian",
          "name": "Santosh family dhaba"
        }
      },
      {
        "type": "node",
        "id": 5405060917,
        "lat": 17.4447428,
        "lon": 78.3628972,
        "tags": {
          "amenity": "atm",
          "brand": "Axis Bank",
          "brand:wikidata": "Q2003549",
          "name": "Axis bank",
          "operator": "Axis Bank",
          "operator:wikidata": "Q2003549"
        }
      },
      {
        "type": "node",
        "id": 6036830618,
        "lat": 17.4497953,
        "lon": 78.3635491,
        "tags": {
          "amenity": "restaurant",
          "name": "Hyderabadi dawat"
        }
      },
      {
        "type": "node",
        "id": 6036834735,
        "lat": 17.4499196,
        "lon": 78.3641864,
        "tags": {
          "name": "Platina mall",
          "shop": "mall"
        }
      },
      {
        "type": "node",
        "id": 6537360032,
        "lat": 17.4506967,
        "lon": 78.3640308,
        "tags": {
          "addr:district": "Hyderabad",
          "addr:full": "Opp. Jayabheri Enclave, Anjaiah Nagar, Near Botanical Garden, Gachibowli",
          "addr:postcode": "500032",
          "addr:state": "Telangana",
          "amenity": "hospital",
          "healthcare": "hospital",
          "name": "Rajitha Hospital",
          "source": "OpenGovernmentData"
        }
      },
      {
        "type": "node",
        "id": 6548854401,
        "lat": 17.4497269,
        "lon": 78.3672388,
        "tags": {
          "addr:district": "Hyderabad",
          "addr:full": "ANJAIAH NAGAR COMMUNITY HALL ROAD, GACHIBOWLI",
          "addr:postcode": "500032",
          "addr:state": "Telangana",
          "amenity": "hospital",
          "contact:phone": "4031000697",
          "healthcare": "hospital",
          "name": "Kakatiya Hospital",
          "operator:type": "private",
          "source": "OpenGovernmentData"
        }
      },
      {
        "type": "node",
        "id": 6937779552,
        "lat": 17.4594547,
        "lon": 78.3659801,
        "tags": {
          "amenity": "hospital",
          "healthcare": "hospital",
          "name": "Apollo"
        }
      },
      {
        "type": "node",
        "id": 6982568887,
        "lat": 17.4484432,
        "lon": 78.3602756,
        "tags": {
          "addr:street": "DLF Road",
          "amenity": "restaurant",
          "name": "Y9 Cafe & Restuarant"
        }
      },
      {
        "type": "node",
        "id": 7010429411,
        "lat": 17.4576504,
        "lon": 78.3634724,
        "tags": {
          "amenity": "fast_food",
          "cuisine": "international;italian;pizza",
          "level": "-1",
          "name": "Spar Kitchen",
          "outdoor_seating": "no"
        }
      },
      {
        "type": "node",
        "id": 7010429422,
        "lat": 17.457546,
        "lon": 78.3634002,
        "tags": {
          "addr:city": "Hyderabad",
          "addr:postcode": "500084",
          "addr:street": "Gachibowli - Miyapur Highway",
          "brand": "Spar",
          "brand:wikidata": "Q610492",
          "brand:wikipedia": "en:Spar (retailer)",
          "level": "-1",
          "name": "Spar",
          "organic": "yes",
          "payment:cash": "yes",
          "payment:debit_cards": "yes",
          "shop": "supermarket",
          "website": "https://www.sparindia.com/",
          "wheelchair": "yes"
        }
      },
      {
        "type": "node",
        "id": 7010429441,
        "lat": 17.4577178,
        "lon": 78.3651339,
        "tags": {
          "amenity": "atm",
          "brand": "Syndicate Bank",
          "brand:wikidata": "Q2004088",
          "operator": "Syndicate Bank",
          "operator:wikidata": "Q2004088",
          "wheelchair": "limited",
          "wheelchair:step_height": "20"
        }
      },
      {
        "type": "node",
        "id": 7043416947,
        "lat": 17.4507279,
        "lon": 78.3642689,
        "tags": {
          "addr:city": "Hyderabad",
          "addr:postcode": "500082",
          "addr:street": "Gachibowli - Miyapur Highway",
          "amenity": "restaurant",
          "name": "Samskruthi Hotel"
        }
      },
      {
        "type": "node",
        "id": 7046190484,
        "lat": 17.4468817,
        "lon": 78.3638725,
        "tags": {
          "name": "Q Mart",
          "shop": "supermarket"
        }
      },
      {
        "type": "node",
        "id": 7066081506,
        "lat": 17.4522698,
        "lon": 78.3626074,
        "tags": {
          "addr:city": "Hyderabad",
          "addr:postcode": "500032",
          "addr:street": "Gachibowli - Miyapur Highway",
          "brand": "Spar",
          "brand:wikidata": "Q610492",
          "brand:wikipedia": "en:Spar (retailer)",
          "name": "Spar",
          "organic": "yes",
          "payment:cash": "yes",
          "payment:debit_cards": "yes",
          "shop": "supermarket",
          "website": "https://www.sparindia.com/"
        }
      },
      {
        "type": "node",
        "id": 7066081507,
        "lat": 17.4497262,
        "lon": 78.3641927,
        "tags": {
          "amenity": "cafe",
          "brand": "Cafe Coffee Day",
          "brand:wikidata": "Q5017235",
          "brand:wikipedia": "en:Caf\u00e9 Coffee Day",
          "cuisine": "coffee_shop",
          "name": "Cafe Coffee Day",
          "takeaway": "yes"
        }
      },
      {
        "type": "node",
        "id": 7611061441,
        "lat": 17.4576146,
        "lon": 78.3645591,
        "tags": {
          "amenity": "fast_food",
          "brand": "Taco Bell",
          "brand:wikidata": "Q752941",
          "brand:wikipedia": "en:Taco Bell",
          "cuisine": "tex-mex",
          "name": "Taco Bell",
          "takeaway": "yes"
        }
      },
      {
        "type": "node",
        "id": 7611073843,
        "lat": 17.4580968,
        "lon": 78.3645179,
        "tags": {
          "addr:city": "Hyderabad",
          "addr:postcode": "500084",
          "addr:street": "Gachibowli - Miyapur Highway",
          "amenity": "restaurant",
          "name": "Rasooi Ghar"
        }
      },
      {
        "type": "node",
        "id": 7611073999,
        "lat": 17.4575081,
        "lon": 78.364418,
        "tags": {
          "amenity": "cafe",
          "brand": "Cafe Coffee Day",
          "brand:wikidata": "Q5017235",
          "brand:wikipedia": "en:Caf\u00e9 Coffee Day",
          "cuisine": "coffee_shop",
          "name": "Cafe Coffee Day",
          "takeaway": "yes"
        }
      },
      {
        "type": "node",
        "id": 7721071786,
        "lat": 17.4572696,
        "lon": 78.3643728,
        "tags": {
          "addr:street": "Gachibowli - Miyapur Highway",
          "amenity": "fast_food",
          "brand": "McDonald's",
          "brand:pa": "\u0a2e\u0a48\u0a15\u0a21\u0a4b\u0a28\u0a32\u0a21\u2019\u0a1c\u0a3c",
          "brand:ur": "\u0645\u06a9\u0688\u0648\u0646\u0644\u0688\u0632",
          "brand:wikidata": "Q38076",
          "brand:wikipedia": "en:McDonald's",
          "brand:wikipedia:pa": "\u0a2e\u0a48\u0a15\u0a21\u0a4b\u0a28\u0a32\u0a21\u2019\u0a1c\u0a3c",
          "brand:wikipedia:ur": "\u0645\u06a9\u0688\u0648\u0646\u0644\u0688\u0632",
          "cuisine": "burger",
          "name": "McDonald's",
          "name:pa": "\u0a2e\u0a48\u0a15\u0a21\u0a4b\u0a28\u0a32\u0a21\u2019\u0a1c\u0a3c",
          "name:ur": "\u0645\u06a9\u0688\u0648\u0646\u0644\u0688\u0632",
          "takeaway": "yes"
        }
      },
      {
        "type": "node",
        "id": 8759381105,
        "lat": 17.4507517,
        "lon": 78.3631825,
        "tags": {
          "addr:district": "Hyderabad",
          "addr:full": "Plot NO.21, Level, 2, Jayabheri Enclave, Gachibowli, Hyderabad",
          "addr:postcode": "500032",
          "addr:state": "Telangana",
          "amenity": "hospital",
          "healthcare": "hospital",
          "name": "Praba's VCare Health Clinic (P) Ltd, Gachibowli",
          "source": "Local Knowledge"
        }
      },
      {
        "type": "node",
        "id": 9803882481,
        "lat": 17.4496549,
        "lon": 78.3635165,
        "tags": {
          "amenity": "cafe",
          "brand": "Starbucks",
          "brand:wikidata": "Q37158",
          "cuisine": "coffee_shop",
          "name": "Starbucks",
          "official_name": "Starbucks Coffee",
          "takeaway": "yes"
        }
      },
      {
        "type": "node",
        "id": 9803882488,
        "lat": 17.4461437,
        "lon": 78.3640624,
        "tags": {
          "amenity": "cafe",
          "brand": "Barista",
          "brand:wikidata": "Q644735",
          "cuisine": "coffee_shop",
          "name": "Barista",
          "takeaway": "yes"
        }
      },
      {
        "type": "node",
        "id": 9803882494,
        "lat": 17.4526175,
        "lon": 78.3632614,
        "tags": {
          "alt_name": "Dunkin' Donuts",
          "amenity": "fast_food",
          "brand": "Dunkin'",
          "brand:wikidata": "Q847743",
          "cuisine": "donut;coffee_shop",
          "name": "Dunkin'",
          "takeaway": "yes"
        }
      },
      {
        "type": "node",
        "id": 9958221196,
        "lat": 17.449277,
        "lon": 78.3639805,
        "tags": {
          "amenity": "restaurant",
          "name": "Udipi's Aahar"
        }
      },
      {
        "type": "node",
        "id": 11730656638,
        "lat": 17.4518424,
        "lon": 78.3655372,
        "tags": {
          "amenity": "fast_food",
          "cuisine": "indian",
          "diet:vegetarian": "yes",
          "name": "Dosa Street"
        }
      }
    ]
  },
  "pois_2_5km": {
    "version": 0.6,
    "generator": "Overpass API 0.7.62.8 e802775f",
    "osm3s": {
      "timestamp_osm_base": "2025-09-06T08:43:02Z",
      "copyright": "The data included in this document is from www.openstreetmap.org. The data is made available under ODbL."
    },
    "elements": [
      {
        "type": "node",
        "id": 317759267,
        "lat": 17.4513921,
        "lon": 78.3792883,
        "tags": {
          "amenity": "theatre",
          "name": "Shilpa Kala Vedika",
          "name:te": "\u0c36\u0c3f\u0c32\u0c4d\u0c2a \u0c15\u0c33\u0c3e \u0c35\u0c47\u0c26\u0c3f\u0c15",
          "tourism": "attraction"
        }
      },
      {
        "type": "node",
        "id": 1753608441,
        "lat": 17.4428658,
        "lon": 78.3570147,
        "tags": {
          "amenity": "fuel",
          "brand": "Hindustan Petroleum",
          "brand:wikidata": "Q1619375",
          "name": "Indira Nagar HP Petrol Bunk",
          "official_name": "Hindustan Petroleum"
        }
      },
      {
        "type": "node",
        "id": 1985561804,
        "lat": 17.4400243,
        "lon": 78.3557675,
        "tags": {
          "amenity": "bus_station",
          "bus": "yes",
          "name": "GPR Quarters",
          "public_transport": "station"
        }
      },
      {
        "type": "node",
        "id": 2422172983,
        "lat": 17.4489916,
        "lon": 78.3831192,
        "tags": {
          "name": "HITEC City",
          "name:te": "\u0c39\u0c48\u0c1f\u0c46\u0c15\u0c4d \u0c38\u0c3f\u0c1f\u0c3f",
          "network": "Hyderabad Metro",
          "note": "Contributors are requested to not edit the \"network\" and the \"operator\" tags. (2023/11/08)",
          "operator": "Hyderabad Metro Rail Limited",
          "public_transport": "stop_position",
          "railway": "stop",
          "subway": "yes"
        }
      },
      {
        "type": "node",
        "id": 2422173105,
        "lat": 17.4421814,
        "lon": 78.3772038,
        "tags": {
          "name": "Raidurg",
          "network": "Hyderabad Metro",
          "note": "Contributors are requested to not edit the \"network\" and the \"operator\" tags. (2023/11/08)",
          "operator": "Hyderabad Metro Rail Limited",
          "public_transport": "stop_position",
          "railway": "stop",
          "subway": "yes"
        }
      },
      {
        "type": "node",
        "id": 5787787852,
        "lat": 17.4490132,
        "lon": 78.3831555,
        "tags": {
          "name": "HITEC City",
          "name:te": "\u0c39\u0c48\u0c1f\u0c46\u0c15\u0c4d \u0c38\u0c3f\u0c1f\u0c3f",
          "network": "Hyderabad Metro",
          "note": "Contributors are requested to not edit the \"network\" and the \"operator\" tags. (2023/11/08)",
          "operator": "Hyderabad Metro Rail Limited",
          "public_transport": "stop_position",
          "railway": "stop",
          "subway": "yes"
        }
      },
      {
        "type": "node",
        "id": 5787787987,
        "lat": 17.4421818,
        "lon": 78.3771643,
        "tags": {
          "name": "Raidurg",
          "network": "Hyderabad Metro",
          "note": "Contributors are requested to not edit the \"network\" and the \"operator\" tags. (2023/11/08)",
          "operator": "Hyderabad Metro Rail Limited",
          "public_transport": "stop_position",
          "railway": "stop",
          "subway": "yes"
        }
      },
      {
        "type": "node",
        "id": 6241203807,
        "lat": 17.435523,
        "lon": 78.3604923,
        "tags": {
          "amenity": "theatre",
          "name": "SVK Amphitheater"
        }
      },
      {
        "type": "node",
        "id": 6248961888,
        "lat": 17.4577608,
        "lon": 78.3841734,
        "tags": {
          "amenity": "fuel",
          "brand": "Hindustan Petroleum",
          "brand:wikidata": "Q1619375",
          "brand:wikipedia": "en:Hindustan Petroleum",
          "name": "HP",
          "name:en": "HP petrol bunk",
          "official_name": "Hindustan Petroleum"
        }
      },
      {
        "type": "node",
        "id": 6444553239,
        "lat": 17.4490055,
        "lon": 78.3831376,
        "tags": {
          "name": "HITEC City",
          "name:ml": "\u0d39\u0d48\u0d1f\u0d46\u0d15\u0d4d \u0d38\u0d3f\u0d31\u0d4d\u0d31\u0d3f",
          "name:te": "\u0c39\u0c48\u0c1f\u0c46\u0c15\u0c4d \u0c38\u0c3f\u0c1f\u0c3f",
          "network": "Hyderabad Metro",
          "note": "Contributors are requested to not edit the \"network\" and the \"operator\" tags. (2023/11/08)",
          "operator": "Hyderabad Metro Rail Limited",
          "public_transport": "station",
          "railway": "station",
          "station": "subway",
          "subway": "yes",
          "wikidata": "Q56701859"
        }
      },
      {
        "type": "node",
        "id": 6771713703,
        "lat": 17.457321,
        "lon": 78.3634764,
        "tags": {
          "amenity": "cinema",
          "name": "AMB Cinemas"
        }
      },
      {
        "type": "node",
        "id": 6949244902,
        "lat": 17.4650201,
        "lon": 78.3647896,
        "tags": {
          "amenity": "fuel",
          "brand": "Hindustan Petroleum",
          "brand:wikidata": "Q1619375",
          "compressed_air": "yes",
          "name": "HP Petrol bunk",
          "official_name": "Hindustan Petroleum",
          "opening_hours": "Mo-Su 06:00-23:00"
        }
      },
      {
        "type": "node",
        "id": 7052069775,
        "lat": 17.44218,
        "lon": 78.3771819,
        "tags": {
          "name": "Raidurg",
          "name:ml": "\u0d31\u0d3e\u0d2f\u0d4d\u0d26\u0d41\u0d7c\u0d17\u0d4d",
          "name:te": "\u0c30\u0c3e\u0c2f\u0c26\u0c41\u0c30\u0c4d\u0c17\u0c4d",
          "network": "Hyderabad Metro",
          "note": "Contributors are requested to not edit the \"network\" and the \"operator\" tags. (2023/11/08)",
          "operator": "Hyderabad Metro Rail Limited",
          "public_transport": "station",
          "railway": "station",
          "station": "subway",
          "subway": "yes",
          "wikidata": "Q58814837"
        }
      },
      {
        "type": "node",
        "id": 7066081505,
        "lat": 17.4522209,
        "lon": 78.3627119,
        "tags": {
          "amenity": "cinema",
          "name": "Platinum"
        }
      },
      {
        "type": "node",
        "id": 9803882486,
        "lat": 17.4463392,
        "lon": 78.3642127,
        "tags": {
          "amenity": "cinema",
          "brand": "PVR Cinemas",
          "brand:short": "PVR",
          "brand:wikidata": "Q3359908",
          "name": "PVR Cinemas",
          "short_name": "PVR"
        }
      },
      {
        "type": "node",
        "id": 10789486270,
        "lat": 17.4481318,
        "lon": 78.3844627,
        "tags": {
          "amenity": "cinema",
          "branch": "Hitech city",
          "brand": "PVR Cinemas",
          "brand:short": "PVR",
          "brand:wikidata": "Q3359908",
          "name": "PVR Cinemas, Icon"
        }
      },
      {
        "type": "node",
        "id": 11770988841,
        "lat": 17.4323776,
        "lon": 78.369946,
        "tags": {
          "amenity": "fuel",
          "brand": "Bharat Petroleum",
          "brand:wikidata": "Q854826",
          "check_date": "2024-03-29",
          "name": "Bharat Petroleum"
        }
      },
      {
        "type": "node",
        "id": 11770993370,
        "lat": 17.458549,
        "lon": 78.38424,
        "tags": {
          "amenity": "fuel",
          "brand": "Hindustan Petroleum",
          "brand:wikidata": "Q1619375",
          "check_date": "2024-03-29",
          "name": "HP",
          "official_name": "Hindustan Petroleum"
        }
      }
    ]
  }
}