{
  "pois_1km": {
    "version": 0.6,
    "generator": "Overpass API 0.7.62.8 e802775f",
    "osm3s": {
      "timestamp_osm_base": "2025-09-06T08:42:02Z",
      "copyright": "The data included in this document is from www.openstreetmap.org. The data is made available under ODbL."
    },
    "elements": [
      {
        "type": "node",
        "id": 898965110,
        "lat": 17.3921498,
        "lon": 78.4793651,
        "tags": {
          "addr:district": "Hyderabad",
          "addr:full": "D.No: 4-1-1230, Opp. YWCA, Abids Road, Bogulkunta",
          "addr:postcode": "500001",
          "addr:state": "Telangana",
          "amenity": "hospital",
          "name": "Fernandez Hospital",
          "phone": "040 40222300",
          "source": "OpenGovernmentData",
          "website": "https://www.fernandezhospital.com"
        }
      },
      {
        "type": "node",
        "id": 1447172232,
        "lat": 17.3977147,
        "lon": 78.4833926,
        "tags": {
          "amenity": "atm",
          "name": "SBI ATM (2 Nos)"
        }
      },
      {
        "type": "node",
        "id": 1447172235,
        "lat": 17.3968226,
        "lon": 78.4845047,
        "tags": {
          "amenity": "bank",
          "brand": "Canara Bank",
          "brand:pa": "\u0a15\u0a47\u0a28\u0a30\u0a3e \u0a2c\u0a48\u0a02\u0a15",
          "brand:ur": "\u06a9\u06cc\u0646\u0631\u0627 \u0628\u06cc\u0646\u06a9",
          "brand:wikidata": "Q2003777",
          "brand:wikipedia": "en:Canara Bank",
          "brand:wikipedia:pa": "\u0a15\u0a47\u0a28\u0a30\u0a3e \u0a2c\u0a48\u0a02\u0a15",
          "name": "Canara Bank",
          "name:pa": "\u0a15\u0a47\u0a28\u0a30\u0a3e \u0a2c\u0a48\u0a02\u0a15",
          "name:ur": "\u06a9\u06cc\u0646\u0631\u0627 \u0628\u06cc\u0646\u06a9",
          "website": "https://www.canarabank.com/"
        }
      },
      {
        "type": "node",
        "id": 1447172269,
        "lat": 17.3921759,
        "lon": 78.4890271,
        "tags": {
          "amenity": "fast_food"
        }
      },
      {
        "type": "node",
        "id": 2197048453,
        "lat": 17.3846266,
        "lon": 78.488919,
        "tags": {
          "amenity": "atm",
          "operator": "State Bank"
        }
      },
      {
        "type": "node",
        "id": 2199508168,
        "lat": 17.3850823,
        "lon": 78.4880982,
        "tags": {
          "amenity": "atm",
          "operator": "State Bank"
        }
      },
      {
        "type": "node",
        "id": 2217940687,
        "lat": 17.3851863,
        "lon": 78.4848964,
        "tags": {
          "amenity": "bank",
          "brand:wikidata": "Q2003476",
          "brand:wikipedia": "en:Andhra Bank",
          "name": "Andhra Bank",
          "name:en": "Andhra Bank",
          "website": "https://www.andhrabank.in"
        }
      },
      {
        "type": "node",
        "id": 2429976498,
        "lat": 17.3850784,
        "lon": 78.486167,
        "tags": {
          "amenity": "fast_food",
          "name": "Gokul Chat"
        }
      },
      {
        "type": "node",
        "id": 3244256004,
        "lat": 17.3937267,
        "lon": 78.4812179,
        "tags": {
          "addr:housenumber": "D.No:3-5-784/A/2",
          "addr:postcode": "500029",
          "addr:street": "Opp Parda Gate King Koti Road",
          "amenity": "bank",
          "atm": "yes",
          "brand": "SBI",
          "brand:wikidata": "Q1340361",
          "brand:wikipedia": "en:State Bank of India",
          "name": "State Bank of India",
          "operator": "State Bank of India",
          "phone": "040 2323 4848",
          "short_name": "SBI"
        }
      },
      {
        "type": "node",
        "id": 3312372791,
        "lat": 17.3935142,
        "lon": 78.4786104,
        "tags": {
          "amenity": "atm",
          "name": "Lekshmi Vilas ATM"
        }
      },
      {
        "type": "node",
        "id": 3312374439,
        "lat": 17.3936044,
        "lon": 78.4812223,
        "tags": {
          "amenity": "atm",
          "name": "SBI ATM"
        }
      },
      {
        "type": "node",
        "id": 3312374440,
        "lat": 17.3939835,
        "lon": 78.4787602,
        "tags": {
          "amenity": "atm",
          "name": "ATM",
          "operator": "Indian Bank"
        }
      },
      {
        "type": "node",
        "id": 4589307297,
        "lat": 17.3934109,
        "lon": 78.4786483,
        "tags": {
          "amenity": "atm",
          "opening_hours": "24/7",
          "operator": "Indian Overseas Bank"
        }
      },
      {
        "type": "node",
        "id": 4920193221,
        "lat": 17.396742,
        "lon": 78.4847267,
        "tags": {
          "amenity": "cafe",
          "name": "Heavenz",
          "name:en": "Heavenz"
        }
      },
      {
        "type": "node",
        "id": 4980149821,
        "lat": 17.3901808,
        "lon": 78.4908195,
        "tags": {
          "amenity": "restaurant",
          "name": "Sweekar",
          "name:en": "Sweekar"
        }
      },
      {
        "type": "node",
        "id": 4981536922,
        "lat": 17.3846352,
        "lon": 78.4887325,
        "tags": {
          "amenity": "restaurant",
          "name": "Hotel Akshaya",
          "name:en": "Hotel Akshaya",
          "name:te": "\u0c39\u0c4b\u0c1f\u0c46\u0c32\u0c4d \u0c05\u0c15\u0c4d\u0c37\u0c2f",
          "name:zh": "\u5357\u5370\u6599\u7406"
        }
      },
      {
        "type": "node",
        "id": 4985144421,
        "lat": 17.39007,
        "lon": 78.4922121,
        "tags": {
          "amenity": "restaurant",
          "name": "Swanthi curry restaurant",
          "name:en": "Swanthi curry restaurant"
        }
      },
      {
        "type": "node",
        "id": 4995968023,
        "lat": 17.3847103,
        "lon": 78.4896927,
        "tags": {
          "amenity": "restaurant",
          "name:zh": "\u7092\u98ef\u7092\u9eb5\u5e97"
        }
      },
      {
        "type": "node",
        "id": 5549552100,
        "lat": 17.3905854,
        "lon": 78.4885066,
        "tags": {
          "name": "Big Bazar",
          "shop": "supermarket"
        }
      },
      {
        "type": "node",
        "id": 6254336889,
        "lat": 17.3889575,
        "lon": 78.4806808,
        "tags": {
          "amenity": "fast_food",
          "name": "Mayur Pan Shop"
        }
      },
      {
        "type": "node",
        "id": 6254336988,
        "lat": 17.3905981,
        "lon": 78.4836161,
        "tags": {
          "amenity": "bank"
        }
      },
      {
        "type": "node",
        "id": 6255329590,
        "lat": 17.3911253,
        "lon": 78.4776842,
        "tags": {
          "amenity": "restaurant",
          "name": "Santosh Daba"
        }
      },
      {
        "type": "node",
        "id": 6255342089,
        "lat": 17.3905127,
        "lon": 78.4890342,
        "tags": {
          "amenity": "fast_food",
          "name": "Famous Bread Omlet"
        }
      },
      {
        "type": "node",
        "id": 6481946699,
        "lat": 17.3920174,
        "lon": 78.4961598,
        "tags": {
          "addr:district": "Hyderabad",
          "addr:full": "Street Number 6, Barkatpura",
          "addr:postcode": "500027",
          "addr:state": "Telangana",
          "amenity": "hospital",
          "contact:email": "contact@bristleconehospitals.com",
          "email": "info@bristleconehospitals.com",
          "emergency_telephone_code": "040 45999999",
          "fax": "040 45999901",
          "healthcare:speciality": "Neurology;Urology and Nephrology;Obstetrics and Gynecology;Endoscopy;Pediatrics and Neo Natology;Orthopedics;Plastic Surgery;General Surgery;Trauma;Endocrine;Skin and Aesthetics;ENT;Diagnostics",
          "medical_system": "Allopathic",
          "name": "Bristlecone Hospital",
          "operator:type": "private",
          "phone": "040 45999999",
          "source": "OpenGovernmentData",
          "website": "http://bristleconehospitals.com"
        }
      },
      {
        "type": "node",
        "id": 6485603800,
        "lat": 17.3925332,
        "lon": 78.4957641,
        "tags": {
          "addr:district": "Hyderabad",
          "addr:full": "H.No: 3-4-140, Barkathpura",
          "addr:postcode": "500027",
          "addr:state": "Telangana",
          "amenity": "hospital",
          "name": "Shalini Hospitals",
          "source": "OpenGovernmentData"
        }
      },
      {
        "type": "node",
        "id": 6488608462,
        "lat": 17.3930464,
        "lon": 78.4890948,
        "tags": {
          "addr:district": "Hyderabad",
          "addr:full": "3-5-1105, Beside Bata Show Room, Narayanguda",
          "addr:postcode": "500029",
          "addr:state": "Telangana",
          "amenity": "hospital",
          "name": "Sunrise Superspeciality Children's Hospital",
          "source": "OpenGovernmentData"
        }
      },
      {
        "type": "node",
        "id": 6490029456,
        "lat": 17.390579,
        "lon": 78.4911588,
        "tags": {
          "addr:district": "Hyderabad",
          "addr:full": "3-4-259, Near Padmavathi Cineplex, Kachiguda Station Road",
          "addr:postcode": "500027",
          "addr:state": "Telangana",
          "amenity": "hospital",
          "name": "Venkatesh Borgaonker Nursing Home",
          "source": "OpenGovernmentData"
        }
      },
      {
        "type": "node",
        "id": 6490143313,
        "lat": 17.3979338,
        "lon": 78.492064,
        "tags": {
          "addr:district": "Hyderabad",
          "addr:full": "3-5-1082/A,Jaiswal Lane, Narayanaguda",
          "addr:postcode": "500029",
          "addr:state": "Telangana",
          "amenity": "hospital",
          "fax": "040 23226153",
          "name": "Sri Sai Srinivasa Speciality Hospitals Pvt. Ltd",
          "source": "OpenGovernmentData"
        }
      },
      {
        "type": "node",
        "id": 6490181234,
        "lat": 17.389948,
        "lon": 78.4959277,
        "tags": {
          "addr:district": "Hyderabad",
          "addr:full": "3-4-1, V.L.R Complex, Station Road, Kachiguda",
          "addr:postcode": "500027",
          "addr:state": "Telangana",
          "amenity": "hospital",
          "email": "info@sksneurohospital.com",
          "name": "Sai Krishna Neuro Hospital",
          "phone": "040 44778899 ; 040 2755 1414",
          "source": "OpenGovernmentData",
          "website": "https://www.sksneurohospitals.com/"
        }
      },
      {
        "type": "node",
        "id": 6494411875,
        "lat": 17.3962241,
        "lon": 78.4889916,
        "tags": {
          "addr:district": "Hyderabad",
          "addr:full": "3-5-170/G S, Near Shanti Theatre, Narayanaguda",
          "addr:postcode": "500029",
          "addr:state": "Telangana",
          "amenity": "hospital",
          "name": "Unity Centre For Orthopaedics And Trauma",
          "source": "OpenGovernmentData"
        }
      },
      {
        "type": "node",
        "id": 6495303036,
        "lat": 17.39863,
        "lon": 78.4849159,
        "tags": {
          "addr:district": "Hyderabad",
          "addr:full": "3-6-272, NVK Towers, Near Old MLA Quarters, Opposite Telugu Academy, Himayathnagar",
          "addr:postcode": "500029",
          "addr:state": "Telangana",
          "amenity": "hospital",
          "contact:mobile": "8008888511",
          "email": "info@clearvision.co.in",
          "health_facility:type": "Operation Theate;Medical and Diagnostic Services;Pharmacy;Ambulance",
          "healthcare:speciality": "Comprehensive Eye Check up;Cataract Clinic;Lasik and Laser Clinic;Blade Free Lasik Surgery;Cornea Clinic;Glaucoma Clinic;Retinal Clinic;Pediatric Ophthalmology;Squint Clinic;Oculoplasty Clinic;Opticals and Contact Lens",
          "medical_system": "Allopathic",
          "name": "Clear Vision Eye Hospital",
          "operator:type": "private",
          "phone": "040 23225386;040 23221522",
          "source": "OpenGovernmentData",
          "website": "https://www.clearvision.co.in/"
        }
      },
      {
        "type": "node",
        "id": 6496837455,
        "lat": 17.3863466,
        "lon": 78.4942286,
        "tags": {
          "addr:district": "Hyderabad",
          "addr:full": "Nimboliadda, Chappal Bazar, Kachiguda Railway Station",
          "addr:postcode": "500027",
          "addr:state": "Telangana",
          "amenity": "hospital",
          "fax": "040 55636395",
          "name": "Sri Rama Krishna Hospital",
          "source": "OpenGovernmentData"
        }
      },
      {
        "type": "node",
        "id": 6503723809,
        "lat": 17.3920533,
        "lon": 78.4961564,
        "tags": {
          "addr:district": "Hyderabad",
          "addr:full": "3-4-136/A, Street Number 6, Beside SBI, Barkatpura",
          "addr:postcode": "500027",
          "addr:state": "Telangana",
          "amenity": "hospital",
          "name": "Ashok Kumar Hospital",
          "source": "OpenGovernmentData"
        }
      },
      {
        "type": "node",
        "id": 6505184710,
        "lat": 17.3978302,
        "lon": 78.4842937,
        "tags": {
          "addr:district": "Hyderabad",
          "addr:full": "3-5-886, Opposite Blue Dart Courier Office, Near Old MLA Quarters, Himayat Nagar",
          "addr:postcode": "500029",
          "addr:state": "Telangana",
          "amenity": "hospital",
          "name": "Dr. P. Siva Reddy Eye Hospital",
          "source": "OpenGovernmentData"
        }
      },
      {
        "type": "node",
        "id": 6505528362,
        "lat": 17.3982154,
        "lon": 78.4843661,
        "tags": {
          "addr:district": "Hyderabad",
          "addr:full": "3-6-274, Near Telugu Academy, Opp. China Shop, MLA Quarters, Himayat Nagar",
          "addr:postcode": "500029",
          "addr:state": "Telangana",
          "amenity": "hospital",
          "fixme": "Please verify the accurate position of the hospital centre as I have mapped the facility based on the address provided in Open Government data",
          "name": "Desai Nursing Home",
          "source": "OpenGovernmentData"
        }
      },
      {
        "type": "node",
        "id": 6505593801,
        "lat": 17.3855301,
        "lon": 78.4801885,
        "tags": {
          "addr:district": "Hyderabad",
          "addr:full": "H. No. 5-1-680/1/1, Ayanger Plaza, Adj. Central Bank of India, Above HDFC Bank Bank Street, Koti",
          "addr:postcode": "500001",
          "addr:state": "Telangana",
          "amenity": "hospital",
          "contact:mobile": "88850 60776",
          "contact:phone": "040 2473 7373",
          "fax": "24655595",
          "name": "FMS Dental Hospital",
          "name:te": "\u0c0e\u0c2b\u0c4d\u0c0e\u0c02\u0c0e\u0c38\u0c4d \u0c21\u0c46\u0c02\u0c1f\u0c32\u0c4d \u0c39\u0c3e\u0c38\u0c4d\u0c2a\u0c3f\u0c1f\u0c32\u0c4d",
          "source": "OpenGovernmentData",
          "website": "https://www.fmsdental.com/"
        }
      },
      {
        "type": "node",
        "id": 6530750454,
        "lat": 17.3891213,
        "lon": 78.4928083,
        "tags": {
          "addr:district": "Hyderabad",
          "addr:full": "Old Manjeera Hotel, Chappal Bazaar, Kachiguda",
          "addr:postcode": "500027",
          "addr:state": "Telangana",
          "amenity": "hospital",
          "contact:email": "info@svshospitals.com",
          "contact:phone": "040 41499999",
          "healthcare": "hospital",
          "name": "SVS Hospitals",
          "source": "OpenGovernmentData",
          "website": "http://www.svshospitals.com"
        }
      },
      {
        "type": "node",
        "id": 6530758515,
        "lat": 17.3836896,
        "lon": 78.4897466,
        "tags": {
          "addr:district": "Hyderabad",
          "addr:full": "4-7-983, Behind Hotel Haridwar, Esamiah Bazar, Koti",
          "addr:postcode": "500027",
          "addr:state": "Telangana",
          "amenity": "hospital",
          "name": "Vishwa Medi Care and Diagnostic Centre",
          "source": "OpenGovernmentData"
        }
      },
      {
        "type": "node",
        "id": 6549028392,
        "lat": 17.3932243,
        "lon": 78.481999,
        "tags": {
          "addr:district": "Hyderabad",
          "addr:place": "King Koti",
          "addr:state": "Telangana",
          "addr:street": "King Koti",
          "addr:subdistrict": "Nampally",
          "amenity": "hospital",
          "healthcare": "hospital",
          "name": "District Hospital, King Koti",
          "operational_status": "operational",
          "operator:type": "government",
          "source": "OpenDataTelangana"
        }
      },
      {
        "type": "node",
        "id": 6549236738,
        "lat": 17.3985583,
        "lon": 78.4847268,
        "tags": {
          "addr:district": "Hyderabad",
          "addr:full": "3-6-273/274, III AND IV FLOOR, APURUPA L.N CHAMBERS, BESIDE RC REDDY IAS CIRCLE, NEAR OLD MLA QUARTERS, Opp TELANGANA TOURISM",
          "addr:postcode": "500029",
          "addr:state": "Telangana",
          "amenity": "hospital",
          "contact:phone": "23264353",
          "name": "RAMESH LASIK & LASER CENTRE",
          "operator:type": "private",
          "source": "OpenGovernmentData"
        }
      },
      {
        "type": "node",
        "id": 6562374170,
        "lat": 17.3944702,
        "lon": 78.4889225,
        "tags": {
          "addr:district": "Hyderabad",
          "addr:full": "Venkateshwara Colony, Opp. Central Blood Bank, Narayanaguda",
          "addr:postcode": "500029",
          "addr:state": "Telangana",
          "amenity": "hospital",
          "name": "Sri Venkateshwara Nursing Home - Narayanguda",
          "source": "OpenGovernmentData"
        }
      },
      {
        "type": "node",
        "id": 6562402576,
        "lat": 17.3929299,
        "lon": 78.4797553,
        "tags": {
          "addr:district": "Hyderabad",
          "addr:full": "4-1-1226, Boggulakunta, King Koti, Abids",
          "addr:postcode": "500001",
          "addr:state": "Telangana",
          "amenity": "hospital",
          "contact:mobile": "94910 68784",
          "email": "life@kaminenifertility.com",
          "fax": "040 24764242",
          "health_facility:type": "Emergency Services and Facilities; Ambulances; Blood Bank",
          "healthcare:speciality": "Assisted Reproductive Technology; Counselling; Cryopreservation Freezing ; Andrology; Pre Implantation Genetic Diagnostics; Diagnostics; Surgical Procedures",
          "medical_system": "Allopathic",
          "name": "Kamineni Fertility Centre",
          "operator:type": "private",
          "phone": "040 2476 7777",
          "source": "OpenGovernmentData",
          "website": "https://www.kaminenifertility.com/"
        }
      },
      {
        "type": "node",
        "id": 6652963085,
        "lat": 17.385132,
        "lon": 78.482281,
        "tags": {
          "amenity": "hospital",
          "healthcare": "hospital",
          "name": "Royal Ear, Nose and Throat (ENT) Hospital",
          "name:te": "\u0c30\u0c3e\u0c2f\u0c32\u0c4d \u0c07\u0c2f\u0c30\u0c4d, \u0c28\u0c4b\u0c38\u0c4d \u0c05\u0c02\u0c21\u0c4d \u0c25\u0c4d\u0c30\u0c4b\u0c1f\u0c4d (\u0c08\u0c0e\u0c28\u0c4d\u0c1f\u0c40) \u0c39\u0c3e\u0c38\u0c4d\u0c2a\u0c3f\u0c1f\u0c32\u0c4d"
        }
      },
      {
        "type": "node",
        "id": 6690779948,
        "lat": 17.3950969,
        "lon": 78.4912393,
        "tags": {
          "amenity": "atm",
          "name": "APCOB-AP State Government Cooperative Bank"
        }
      },
      {
        "type": "node",
        "id": 6811748986,
        "lat": 17.3911402,
        "lon": 78.4803374,
        "tags": {
          "addr:district": "Hyderabad",
          "addr:full": "4-1-1198, Tilak Road, Near Hyderabad Dental Hospital, Boggulakunta",
          "addr:state": "Telangana",
          "addr:subdistrict": "Nampally",
          "amenity": "clinic",
          "healthcare": "centre",
          "name": "Urban Primary Health Centre, Boggulakunta",
          "source": "OpenGovernmentData"
        }
      },
      {
        "type": "node",
        "id": 6811749078,
        "lat": 17.393183,
        "lon": 78.478429,
        "tags": {
          "addr:district": "Hyderabad",
          "addr:full": "Near St. George's Degree College, King Koti Road, Bogulkunta, Hyderguda",
          "addr:postcode": "500001",
          "addr:state": "Telangana",
          "amenity": "doctors",
          "name": "Dr. Bajrang Pratap's Clinic",
          "source": "OpenGovernmentData"
        }
      },
      {
        "type": "node",
        "id": 6811749162,
        "lat": 17.395099,
        "lon": 78.480103,
        "tags": {
          "addr:district": "Hyderabad",
          "addr:full": "Raja Reddy Marg, King Koti, Basheer Bagh",
          "addr:postcode": "500001",
          "addr:state": "Telangana",
          "amenity": "doctors",
          "name": "Dr. Asha Khivsara's Clinic",
          "source": "OpenGovernmentData"
        }
      },
      {
        "type": "node",
        "id": 7113450286,
        "lat": 17.3900805,
        "lon": 78.4946821,
        "tags": {
          "amenity": "atm",
          "operator": "Dhanalaxmi Bank ATM"
        }
      },
      {
        "type": "node",
        "id": 7244264222,
        "lat": 17.3992032,
        "lon": 78.4857694,
        "tags": {
          "amenity": "fast_food",
          "brand": "Domino's",
          "brand:ks": "\u0688\u0648\u0645\u06cc\u0646\u0648\u0632",
          "brand:pa": "\u0a21\u0a4b\u0a2e\u0a40\u0a28\u0a4b\u0a1c\u0a3c",
          "brand:ur": "\u0688\u0648\u0645\u06cc\u0646\u0648\u0632",
          "brand:wikidata": "Q839466",
          "brand:wikipedia": "en:Domino's Pizza",
          "cuisine": "pizza",
          "name": "Domino's",
          "name:ks": "\u0688\u0648\u0645\u06cc\u0646\u0648\u0632",
          "name:pa": "\u0a21\u0a4b\u0a2e\u0a40\u0a28\u0a4b\u0a1c\u0a3c",
          "name:ur": "\u0688\u0648\u0645\u06cc\u0646\u0648\u0632",
          "takeaway": "yes"
        }
      },
      {
        "type": "node",
        "id": 7244264235,
        "lat": 17.3993051,
        "lon": 78.4867394,
        "tags": {
          "name": "vijetha supermarket",
          "name:te": "\u0c35\u0c3f\u0c1c\u0c47\u0c24 \u0c38\u0c42\u0c2a\u0c30\u0c4d \u0c2e\u0c3e\u0c30\u0c4d\u0c15\u0c46\u0c1f\u0c4d",
          "shop": "supermarket"
        }
      },
      {
        "type": "node",
        "id": 8759154274,
        "lat": 17.3902616,
        "lon": 78.495225,
        "tags": {
          "addr:district": "Hyderabad",
          "addr:full": "3/4/3, Kachiguda Station Road, Barkatpura, Kachiguda",
          "addr:postcode": "500027",
          "addr:state": "Telangana",
          "amenity": "hospital",
          "name": "Prathima Hospitals",
          "source": "Local Knowledge"
        }
      },
      {
        "type": "node",
        "id": 8759163871,
        "lat": 17.3845228,
        "lon": 78.4820151,
        "tags": {
          "addr:district": "Hyderabad",
          "addr:full": "Troop Bazaar, Koti",
          "addr:postcode": "500095",
          "addr:state": "Telangana",
          "amenity": "hospital",
          "name": "Government ENT Hospital ,Koti",
          "source": "Local Knowledge"
        }
      },
      {
        "type": "node",
        "id": 8759707780,
        "lat": 17.3867056,
        "lon": 78.4950359,
        "tags": {
          "addr:district": "Hyderabad",
          "addr:full": "2-4-1108, Railway Quarters, Kachiguda",
          "addr:postcode": "500027",
          "addr:state": "Telangana",
          "amenity": "hospital",
          "name": "Railway Health Unit, Kachiguda",
          "source": "Local Knowledge"
        }
      },
      {
        "type": "node",
        "id": 10991105550,
        "lat": 17.3826702,
        "lon": 78.4895569,
        "tags": {
          "addr:district": "Hyderabad",
          "addr:place": "Esamayabazar",
          "addr:state": "Telangana",
          "addr:street": "Esamayabazar",
          "addr:subdistrict": "Nampally",
          "amenity": "doctors",
          "healthcare": "doctor",
          "name": "Government Ayurvedic Dispensary, Esamayabazar",
          "operational_status": "operational",
          "operator:type": "government",
          "source": "OpenDataTelangana"
        }
      },
      {
        "type": "node",
        "id": 11028244334,
        "lat": 17.3849593,
        "lon": 78.4891351,
        "tags": {
          "addr:district": "Hyderabad",
          "addr:place": "Koti Busstop",
          "addr:state": "Telangana",
          "addr:street": "Himayatha Nagar",
          "addr:subdistrict": "Himayatnagar",
          "amenity": "clinic",
          "healthcare": "clinic",
          "name": "Urban Primary Health Centre, RFPTC",
          "operational_status": "operational",
          "operator:type": "government",
          "source": "OpenDataTelangana"
        }
      },
      {
        "type": "node",
        "id": 11028255847,
        "lat": 17.3816956,
        "lon": 78.4885825,
        "tags": {
          "addr:district": "Hyderabad",
          "addr:place": "Koti",
          "addr:state": "Telangana",
          "addr:street": "Himayatha Nagar",
          "addr:subdistrict": "Himayatnagar",
          "amenity": "clinic",
          "healthcare": "clinic",
          "name": "Urban Primary Health Centre, Esamia Bazar",
          "operational_status": "operational",
          "operator:type": "government",
          "source": "OpenDataTelangana"
        }
      },
      {
        "type": "node",
        "id": 11936085021,
        "lat": 17.390049,
        "lon": 78.4811485,
        "tags": {
          "addr:district": "Hyderabad",
          "addr:place": "Himayatha Nagar",
          "addr:state": "Telangana",
          "addr:street": "Tilak Road",
          "addr:subdistrict": "Nampally",
          "amenity": "clinic",
          "healthcare": "clinic",
          "name": "Urban Primary Health Centre, Boggulakunta",
          "operational_status": "operational",
          "operator:type": "government",
          "source": "OpenDataTelangana"
        }
      },
      {
        "type": "node",
        "id": 11942629822,
        "lat": 17.3913867,
        "lon": 78.4783334,
        "tags": {
          "addr:district": "Hyderabad",
          "addr:place": "Koti Busstop",
          "addr:state": "Telangana",
          "addr:street": "Himayatha Nagar",
          "addr:subdistrict": "Nampally",
          "amenity": "clinic",
          "healthcare": "clinic",
          "name": "Urban Primary Health Centre, Sultan Bazar",
          "operational_status": "operational",
          "operator:type": "government",
          "source": "OpenDataTelangana"
        }
      }
    ]
  },
  "pois_2_5km": {
    "version": 0.6,
    "generator": "Overpass API 0.7.62.8 e802775f",
    "osm3s": {
      "timestamp_osm_base": "2025-09-06T08:42:02Z",
      "copyright": "The data included in this document is from www.openstreetmap.org. The data is made available under ODbL."
    },
    "elements": [
      {
        "type": "node",
        "id": 289656763,
        "lat": 17.3924223,
        "lon": 78.4675956,
        "tags": {
          "internet_access": "no",
          "name": "Hyderabad Deccan Nampally",
          "name:te": "\u0c39\u0c48\u0c26\u0c30\u0c3e\u0c2c\u0c3e\u0c26\u0c4d \u0c26\u0c15\u0c4d\u0c15\u0c28\u0c4d \u0c28\u0c3e\u0c02\u0c2a\u0c32\u0c4d\u0c32\u0c3f",
          "name:ur": "\u062d\u06cc\u062f\u0631\u0622\u0628\u0627\u062f \u062f\u06a9\u0646",
          "network": "IR",
          "operator": "SCR",
          "platforms": "6",
          "railway": "station",
          "ref": "HYB",
          "train": "yes",
          "wheelchair": "limited",
          "wikidata": "Q3633967",
          "wikipedia": "en:Hyderabad Deccan railway station"
        }
      },
      {
        "type": "node",
        "id": 307015337,
        "lat": 17.3765035,
        "lon": 78.4948263,
        "tags": {
          "alt_name:ur": "\u0645\u0644\u06a9 \u067e\u06cc\u0679",
          "internet_access": "no",
          "name": "Malakpet",
          "name:ar": "\u0645\u0627\u0644\u0643 \u0628\u064a\u062a",
          "name:ur": "\u0645\u0627\u0644\u06a9 \u067e\u06cc\u0679",
          "network": "IR",
          "operator": "SCR",
          "platforms": "2",
          "public_transport": "station",
          "railway": "station",
          "ref": "MXT",
          "train": "yes",
          "wikidata": "Q6741191",
          "wikipedia": "en:Malakpet railway station"
        }
      },
      {
        "type": "node",
        "id": 307015338,
        "lat": 17.3758726,
        "lon": 78.494705,
        "tags": {
          "name": "Malakpet",
          "public_transport": "stop_position",
          "ref": "1",
          "train": "yes"
        }
      },
      {
        "type": "node",
        "id": 307023348,
        "lat": 17.389311,
        "lon": 78.4992403,
        "tags": {
          "historic": "yes",
          "internet_access": "wlan",
          "name": "Kacheguda",
          "name:ml": "\u0d15\u0d3e\u0d1a\u0d4d\u0d1a\u0d3f\u0d17\u0d41\u0d21",
          "name:te": "\u0c15\u0c3e\u0c1a\u0c3f\u0c17\u0c42\u0c21",
          "name:ur": "\u06a9\u0627\u0686\u06cc \u06af\u0648\u0691\u06c1",
          "network": "IR",
          "operator": "SCR",
          "public_transport": "station",
          "railway": "station",
          "ref": "KCG",
          "train": "yes",
          "wikidata": "Q6344674",
          "wikipedia": "en:Kacheguda railway station"
        }
      },
      {
        "type": "node",
        "id": 626897410,
        "lat": 17.3730067,
        "lon": 78.4766562,
        "tags": {
          "amenity": "bus_station",
          "bus": "yes",
          "name": "Afzalgunj",
          "public_transport": "station"
        }
      },
      {
        "type": "node",
        "id": 634135188,
        "lat": 17.4054697,
        "lon": 78.4965246,
        "tags": {
          "amenity": "cinema",
          "name": "Odeon complex"
        }
      },
      {
        "type": "node",
        "id": 636456848,
        "lat": 17.3992059,
        "lon": 78.4928268,
        "tags": {
          "amenity": "cinema",
          "name": "Venkatesa Cinema Theatre"
        }
      },
      {
        "type": "node",
        "id": 677300639,
        "lat": 17.3980757,
        "lon": 78.492579,
        "tags": {
          "amenity": "cinema",
          "name": "Deepak Theatre"
        }
      },
      {
        "type": "node",
        "id": 728853927,
        "lat": 17.3953109,
        "lon": 78.4690741,
        "tags": {
          "amenity": "theatre",
          "name": "Lalita Kala Thoranam",
          "name:te": "\u0c32\u0c32\u0c3f\u0c24 \u0c15\u0c33\u0c3e \u0c24\u0c4b\u0c30\u0c23\u0c02"
        }
      },
      {
        "type": "node",
        "id": 1038351374,
        "lat": 17.3861153,
        "lon": 78.4763073,
        "tags": {
          "amenity": "cinema",
          "name": "Ramakrishna Theatre"
        }
      },
      {
        "type": "node",
        "id": 1118754671,
        "lat": 17.3717823,
        "lon": 78.4822609,
        "tags": {
          "construction": "station",
          "disused": "yes",
          "name": "Salar Jung Museum (u/c)",
          "name:te": "\u0c38\u0c3e\u0c32\u0c3e\u0c30\u0c4d \u0c1c\u0c02\u0c17\u0c4d \u0c2e\u0c4d\u0c2f\u0c42\u0c1c\u0c3f\u0c2f\u0c02",
          "network": "Hyderabad Metro",
          "note": "Contributors are requested to not edit the \"network\" and the \"operator\" tags. (2023/11/08)",
          "operator": "Hyderabad Metro Rail Limited",
          "railway": "station",
          "station": "subway",
          "subway": "yes"
        }
      },
      {
        "type": "node",
        "id": 2233018548,
        "lat": 17.3814163,
        "lon": 78.4828118,
        "tags": {
          "amenity": "fuel"
        }
      },
      {
        "type": "node",
        "id": 2390894256,
        "lat": 17.4070448,
        "lon": 78.4967721,
        "tags": {
          "name": "RTC Cross Roads",
          "name:te": "\u0c06\u0c30\u0c4d \u0c1f\u0c40 \u0c38\u0c3f \u0c15\u0c4d\u0c30\u0c3e\u0c38\u0c4d \u0c30\u0c4b\u0c21\u0c4d\u0c38\u0c4d",
          "network": "Hyderabad Metro",
          "note": "Contributors are requested to not edit the \"network\" and the \"operator\" tags. (2023/11/08)",
          "operator": "Hyderabad Metro Rail Limited",
          "public_transport": "stop_position",
          "subway": "yes"
        }
      },
      {
        "type": "node",
        "id": 2390894266,
        "lat": 17.4003684,
        "lon": 78.4948742,
        "tags": {
          "name": "Chikkadpally",
          "name:ml": "\u0d1a\u0d3f\u0d15\u0d4d\u0d15\u0d1f\u0d2a\u0d4d\u0d2a\u0d33\u0d4d\u0d33\u0d3f",
          "name:te": "\u0c1a\u0c3f\u0c15\u0c4d\u0c15\u0c21\u0c2a\u0c32\u0c4d\u0c32\u0c3f",
          "network": "Hyderabad Metro",
          "note": "Contributors are requested to not edit the \"network\" and the \"operator\" tags. (2023/11/08)",
          "operator": "Hyderabad Metro Rail Limited",
          "public_transport": "stop_position",
          "subway": "yes"
        }
      },
      {
        "type": "node",
        "id": 2422989049,
        "lat": 17.3821199,
        "lon": 78.4816145,
        "tags": {
          "addr:city": "Hyderabad",
          "addr:city:ar": "\u062d\u064a\u062f\u0631 \u0622\u0628\u0627\u062f",
          "addr:city:ur": "\u062d\u06cc\u062f\u0631\u0622\u0628\u0627\u062f",
          "alt_name": "OMC",
          "name": "Osmania Medical College",
          "name:ml": "\u0d09\u0d38\u0d4d\u0d2e\u0d3e\u0d28\u0d3f\u0d2f \u0d2e\u0d46\u0d21\u0d3f\u0d15\u0d4d\u0d15\u0d7d \u0d15\u0d4b\u0d33\u0d47\u0d1c\u0d4d",
          "name:te": "\u0c09\u0c38\u0c4d\u0c2e\u0c3e\u0c28\u0c3f\u0c2f\u0c3e \u0c35\u0c48\u0c26\u0c4d\u0c2f \u0c15\u0c33\u0c3e\u0c36\u0c3e\u0c32",
          "network": "Hyderabad Metro",
          "note": "Contributors are requested to not edit the \"network\" and the \"operator\" tags. (2023/11/08)",
          "operator": "Hyderabad Metro Rail Limited",
          "public_transport": "stop_position",
          "public_transport:version": "2",
          "railway": "stop",
          "subway": "yes"
        }
      },
      {
        "type": "node",
        "id": 2422989058,
        "lat": 17.3772052,
        "lon": 78.4939044,
        "tags": {
          "addr:city": "Hyderabad",
          "addr:city:ar": "\u062d\u064a\u062f\u0631 \u0622\u0628\u0627\u062f",
          "addr:city:ur": "\u062d\u06cc\u062f\u0631\u0622\u0628\u0627\u062f",
          "addr:place": "Malakpet",
          "addr:place:ar": "\u0645\u0627\u0644\u0643 \u0628\u064a\u062a",
          "addr:place:ur": "\u0645\u0627\u0644\u06a9 \u067e\u06cc\u0679",
          "alt_name:ur": "\u0645\u0644\u06a9 \u067e\u06cc\u0679",
          "name": "Malakpet",
          "name:ar": "\u0645\u0627\u0644\u0643 \u0628\u064a\u062a",
          "name:te": "\u0c2e\u0c32\u0c15\u0c4d\u200c\u0c2a\u0c47\u0c1f\u0c4d",
          "name:ur": "\u0645\u0627\u0644\u06a9 \u067e\u06cc\u0679",
          "network": "Hyderabad Metro",
          "note": "Contributors are requested to not edit the \"network\" and the \"operator\" tags. (2023/11/08)",
          "operator": "Hyderabad Metro Rail Limited",
          "public_transport": "stop_position",
          "public_transport:version": "2",
          "railway": "stop",
          "subway": "yes"
        }
      },
      {
        "type": "node",
        "id": 2422989068,
        "lat": 17.3979907,
        "lon": 78.4708797,
        "tags": {
          "addr:city": "Hyderabad",
          "addr:city:ar": "\u062d\u064a\u062f\u0631 \u0622\u0628\u0627\u062f",
          "addr:city:ur": "\u062d\u06cc\u062f\u0631\u0622\u0628\u0627\u062f",
          "name": "Assembly",
          "name:ml": "\u0d05\u0d38\u0d02\u0d2c\u0d4d\u0d32\u0d3f",
          "name:te": "\u0c05\u0c38\u0c46\u0c02\u0c2c\u0c4d\u0c32\u0c40",
          "network": "Hyderabad Metro",
          "note": "Contributors are requested to not edit the \"network\" and the \"operator\" tags. (2023/11/08)",
          "operator": "Hyderabad Metro Rail Limited",
          "public_transport": "stop_position",
          "public_transport:version": "2",
          "railway": "stop",
          "subway": "yes"
        }
      },
      {
        "type": "node",
        "id": 2422989110,
        "lat": 17.3858253,
        "lon": 78.4733347,
        "tags": {
          "addr:city": "Hyderabad",
          "addr:city:ar": "\u062d\u064a\u062f\u0631 \u0622\u0628\u0627\u062f",
          "addr:city:ur": "\u062d\u06cc\u062f\u0631\u0622\u0628\u0627\u062f",
          "name": "Gandhi Bhavan",
          "name:ml": "\u0d17\u0d3e\u0d28\u0d4d\u0d27\u0d3f \u0d2d\u0d35\u0d7b",
          "name:te": "\u0c17\u0c3e\u0c02\u0c27\u0c40 \u0c2d\u0c35\u0c28\u0c4d",
          "network": "Hyderabad Metro",
          "note": "Contributors are requested to not edit the \"network\" and the \"operator\" tags. (2023/11/08)",
          "operator": "Hyderabad Metro Rail Limited",
          "public_transport": "stop_position",
          "public_transport:version": "2",
          "railway": "stop",
          "subway": "yes"
        }
      },
      {
        "type": "node",
        "id": 2422989207,
        "lat": 17.392222,
        "lon": 78.4701612,
        "tags": {
          "addr:city": "Hyderabad",
          "addr:city:ar": "\u062d\u064a\u062f\u0631 \u0622\u0628\u0627\u062f",
          "addr:city:ur": "\u062d\u06cc\u062f\u0631\u0622\u0628\u0627\u062f",
          "name": "Nampally",
          "name:ml": "\u0d28\u0d3e\u0d2e\u0d4d\u0d2a\u0d33\u0d4d\u0d33\u0d3f",
          "name:te": "\u0c28\u0c3e\u0c02\u0c2a\u0c32\u0c4d\u0c32\u0c3f",
          "network": "Hyderabad Metro",
          "note": "Contributors are requested to not edit the \"network\" and the \"operator\" tags. (2023/11/08)",
          "operator": "Hyderabad Metro Rail Limited",
          "public_transport": "stop_position",
          "public_transport:version": "2",
          "railway": "stop",
          "subway": "yes"
        }
      },
      {
        "type": "node",
        "id": 2422989260,
        "lat": 17.3798092,
        "lon": 78.486212,
        "tags": {
          "addr:city": "Hyderabad",
          "addr:city:ar": "\u062d\u064a\u062f\u0631 \u0622\u0628\u0627\u062f",
          "addr:city:ur": "\u062d\u06cc\u062f\u0631\u0622\u0628\u0627\u062f",
          "alt_name": "M. G. Bus Station (Red Line)",
          "name": "Mahatma Gandhi Bus Station (Red Line)",
          "name:te": "\u0c0e\u0c02.\u0c1c\u0c3f. \u0c2c\u0c38\u0c4d. \u0c38\u0c4d\u0c1f\u0c47\u0c37\u0c28\u0c4d",
          "name:ur": "\u0645\u06c1\u0627\u062a\u0645\u0627 \u06af\u0627\u0646\u062f\u06be\u06cc \u0628\u0633 \u0627\u0633\u0679\u06cc\u0634\u0646 (\u0631\u06cc\u0688 \u0644\u0627\u0626\u0646)",
          "network": "Hyderabad Metro",
          "note": "Contributors are requested to not edit the \"network\" and the \"operator\" tags. (2023/11/08)",
          "operator": "Hyderabad Metro Rail Limited",
          "public_transport": "stop_position",
          "public_transport:version": "2",
          "railway": "stop",
          "subway": "yes"
        }
      },
      {
        "type": "node",
        "id": 2445898820,
        "lat": 17.3905862,
        "lon": 78.4702853,
        "tags": {
          "amenity": "fuel",
          "name": "Public Gardens Petrol Pump",
          "name:en": "Bharat Petroleum"
        }
      },
      {
        "type": "node",
        "id": 2447310770,
        "lat": 17.3889362,
        "lon": 78.4962342,
        "tags": {
          "amenity": "cinema",
          "name": "Kumar 70 mm"
        }
      },
      {
        "type": "node",
        "id": 2578026375,
        "lat": 17.4066792,
        "lon": 78.4986216,
        "tags": {
          "amenity": "bus_station",
          "bus": "yes",
          "name": "TSRTC BUS BHAVAN",
          "public_transport": "station"
        }
      },
      {
        "type": "node",
        "id": 3157201754,
        "lat": 17.3844647,
        "lon": 78.484,
        "tags": {
          "name": "Sultan Bazar",
          "name:te": "\u0c38\u0c41\u0c32\u0c4d\u0c24\u0c3e\u0c28\u0c4d \u0c2c\u0c1c\u0c3e\u0c30\u0c4d",
          "network": "Hyderabad Metro",
          "note": "Contributors are requested to not edit the \"network\" and the \"operator\" tags. (2023/11/08)",
          "operator": "Hyderabad Metro Rail Limited",
          "public_transport": "stop_position",
          "subway": "yes"
        }
      },
      {
        "type": "node",
        "id": 3842496350,
        "lat": 17.3906881,
        "lon": 78.4883506,
        "tags": {
          "amenity": "cinema",
          "name": "Maheshwari Parmeshwari INOX Cinemas"
        }
      },
      {
        "type": "node",
        "id": 4187284391,
        "lat": 17.3987617,
        "lon": 78.4709627,
        "tags": {
          "amenity": "fuel",
          "brand": "Indian Oil",
          "brand:wikidata": "Q1289348",
          "brand:wikipedia": "en:Indian Oil Corporation",
          "name": "Indian Oil"
        }
      },
      {
        "type": "node",
        "id": 4187308293,
        "lat": 17.3909412,
        "lon": 78.467487,
        "tags": {
          "amenity": "fuel",
          "name": "HP"
        }
      },
      {
        "type": "node",
        "id": 4415288812,
        "lat": 17.3994754,
        "lon": 78.4920506,
        "tags": {
          "amenity": "fuel",
          "name": "petrol bunk",
          "name:en": "petrol bunk"
        }
      },
      {
        "type": "node",
        "id": 4415337591,
        "lat": 17.4005718,
        "lon": 78.4882961,
        "tags": {
          "amenity": "fuel"
        }
      },
      {
        "type": "node",
        "id": 4436525192,
        "lat": 17.3994358,
        "lon": 78.492022,
        "tags": {
          "amenity": "fuel"
        }
      },
      {
        "type": "node",
        "id": 4436525398,
        "lat": 17.4092721,
        "lon": 78.4979738,
        "tags": {
          "amenity": "fuel",
          "brand": "Bharat Petroleum",
          "brand:wikidata": "Q854826",
          "name": "Bharat Petroleum"
        }
      },
      {
        "type": "node",
        "id": 5787787745,
        "lat": 17.4070193,
        "lon": 78.4968324,
        "tags": {
          "name": "RTC Cross Roads",
          "name:te": "\u0c06\u0c30\u0c4d \u0c1f\u0c40 \u0c38\u0c3f \u0c15\u0c4d\u0c30\u0c3e\u0c38\u0c4d \u0c30\u0c4b\u0c21\u0c4d\u0c38\u0c4d",
          "network": "Hyderabad Metro",
          "note": "Contributors are requested to not edit the \"network\" and the \"operator\" tags. (2023/11/08)",
          "operator": "Hyderabad Metro Rail Limited",
          "public_transport": "stop_position",
          "subway": "yes"
        }
      },
      {
        "type": "node",
        "id": 5787787751,
        "lat": 17.4003567,
        "lon": 78.4949221,
        "tags": {
          "name": "Chikkadpally",
          "name:ml": "\u0d1a\u0d3f\u0d15\u0d4d\u0d15\u0d1f\u0d2a\u0d4d\u0d2a\u0d33\u0d4d\u0d33\u0d3f",
          "name:te": "\u0c1a\u0c3f\u0c15\u0c4d\u0c15\u0c21\u0c2a\u0c32\u0c4d\u0c32\u0c3f",
          "network": "Hyderabad Metro",
          "note": "Contributors are requested to not edit the \"network\" and the \"operator\" tags. (2023/11/08)",
          "operator": "Hyderabad Metro Rail Limited",
          "public_transport": "stop_position",
          "subway": "yes"
        }
      },
      {
        "type": "node",
        "id": 5919924190,
        "lat": 17.4106646,
        "lon": 78.4821106,
        "tags": {
          "amenity": "theatre",
          "name": "Vivekananda Auditorium",
          "name:etymology:wikidata": "Q47478"
        }
      },
      {
        "type": "node",
        "id": 6208220988,
        "lat": 17.3749107,
        "lon": 78.4980571,
        "tags": {
          "amenity": "fuel",
          "brand": "Bharat Petroleum",
          "brand:wikidata": "Q854826",
          "brand:wikipedia": "en:Bharat Petroleum",
          "name": "Bharat Petroleum"
        }
      },
      {
        "type": "node",
        "id": 6208220990,
        "lat": 17.3778645,
        "lon": 78.4923056,
        "tags": {
          "amenity": "fuel",
          "name": "Bharat Petroleum"
        }
      },
      {
        "type": "node",
        "id": 6254336890,
        "lat": 17.3887027,
        "lon": 78.4753829,
        "tags": {
          "amenity": "fuel"
        }
      },
      {
        "type": "node",
        "id": 6255550788,
        "lat": 17.3887874,
        "lon": 78.4743368,
        "tags": {
          "amenity": "fuel",
          "name": "Hp petrol bunk"
        }
      },
      {
        "type": "node",
        "id": 6624724948,
        "lat": 17.3758566,
        "lon": 78.4947456,
        "tags": {
          "name": "Malakpet",
          "public_transport": "stop_position",
          "ref": "2",
          "train": "yes"
        }
      },
      {
        "type": "node",
        "id": 6652962785,
        "lat": 17.3808647,
        "lon": 78.4857081,
        "tags": {
          "amenity": "fuel",
          "brand": "Indian Oil",
          "brand:wikidata": "Q1289348",
          "brand:wikipedia": "en:Indian Oil Corporation",
          "name": "Indian Oil"
        }
      },
      {
        "type": "node",
        "id": 6652962786,
        "lat": 17.3873482,
        "lon": 78.4772332,
        "tags": {
          "amenity": "fuel",
          "brand": "Indian Oil",
          "brand:wikidata": "Q1289348",
          "brand:wikipedia": "en:Indian Oil Corporation",
          "name": "Indian Oil"
        }
      },
      {
        "type": "node",
        "id": 7195061317,
        "lat": 17.394371,
        "lon": 78.4899387,
        "tags": {
          "name": "Narayanaguda",
          "name:te": "\u0c28\u0c3e\u0c30\u0c3e\u0c2f\u0c23\u0c17\u0c42\u0c21",
          "network": "Hyderabad Metro",
          "note": "Contributors are requested to not edit the \"network\" and the \"operator\" tags. (2023/11/08)",
          "operator": "Hyderabad Metro Rail Limited",
          "public_transport": "stop_position",
          "subway": "yes"
        }
      },
      {
        "type": "node",
        "id": 7206794919,
        "lat": 17.4070321,
        "lon": 78.4968023,
        "tags": {
          "name": "RTC Cross Roads",
          "name:ml": "\u0d06\u0d7c \u0d1f\u0d3f \u0d38\u0d3f \u0d15\u0d4d\u0d30\u0d4b\u0d38\u0d4d \u0d31\u0d4b\u0d21\u0d4d\u0d38\u0d4d",
          "name:te": "\u0c06\u0c30\u0c4d \u0c1f\u0c40 \u0c38\u0c3f \u0c15\u0c4d\u0c30\u0c3e\u0c38\u0c4d \u0c30\u0c4b\u0c21\u0c4d\u0c38\u0c4d",
          "network": "Hyderabad Metro",
          "note": "Contributors are requested to not edit the \"network\" and the \"operator\" tags. (2023/11/08)",
          "operator": "Hyderabad Metro Rail Limited",
          "public_transport": "station",
          "railway": "station",
          "station": "subway",
          "subway": "yes",
          "wikidata": "Q108874753"
        }
      },
      {
        "type": "node",
        "id": 7206794933,
        "lat": 17.3771708,
        "lon": 78.4939016,
        "tags": {
          "addr:city": "Hyderabad",
          "addr:city:ar": "\u062d\u064a\u062f\u0631 \u0622\u0628\u0627\u062f",
          "addr:city:ur": "\u062d\u06cc\u062f\u0631\u0622\u0628\u0627\u062f",
          "addr:place": "Malakpet",
          "addr:place:ar": "\u0645\u0627\u0644\u0643 \u0628\u064a\u062a",
          "addr:place:ur": "\u0645\u0627\u0644\u06a9 \u067e\u06cc\u0679",
          "alt_name:ur": "\u0645\u0644\u06a9 \u067e\u06cc\u0679",
          "name": "Malakpet",
          "name:ar": "\u0645\u0627\u0644\u0643 \u0628\u064a\u062a",
          "name:te": "\u0c2e\u0c32\u0c15\u0c4d\u200c\u0c2a\u0c47\u0c1f\u0c4d",
          "name:ur": "\u0645\u0627\u0644\u06a9 \u067e\u06cc\u0679",
          "network": "Hyderabad Metro",
          "note": "Contributors are requested to not edit the \"network\" and the \"operator\" tags. (2023/11/08)",
          "operator": "Hyderabad Metro Rail Limited",
          "public_transport": "stop_position",
          "public_transport:version": "2",
          "railway": "stop",
          "subway": "yes"
        }
      },
      {
        "type": "node",
        "id": 7206794945,
        "lat": 17.3797847,
        "lon": 78.4861805,
        "tags": {
          "addr:city": "Hyderabad",
          "addr:city:ar": "\u062d\u064a\u062f\u0631 \u0622\u0628\u0627\u062f",
          "addr:city:ur": "\u062d\u06cc\u062f\u0631\u0622\u0628\u0627\u062f",
          "alt_name": "M. G. Bus Station (Red Line)",
          "name": "Mahatma Gandhi Bus Station (Red Line)",
          "name:te": "\u0c0e\u0c02.\u0c1c\u0c3f. \u0c2c\u0c38\u0c4d. \u0c38\u0c4d\u0c1f\u0c47\u0c37\u0c28\u0c4d",
          "name:ur": "\u0645\u06c1\u0627\u062a\u0645\u0627 \u06af\u0627\u0646\u062f\u06be\u06cc \u0628\u0633 \u0627\u0633\u0679\u06cc\u0634\u0646 (\u0631\u06cc\u0688 \u0644\u0627\u0626\u0646)",
          "network": "Hyderabad Metro",
          "note": "Contributors are requested to not edit the \"network\" and the \"operator\" tags. (2023/11/08)",
          "operator": "Hyderabad Metro Rail Limited",
          "public_transport": "stop_position",
          "public_transport:version": "2",
          "railway": "stop",
          "subway": "yes"
        }
      },
      {
        "type": "node",
        "id": 7208768626,
        "lat": 17.3798572,
        "lon": 78.4862022,
        "tags": {
          "alt_name": "M. G. Bus Station (Red Line)",
          "name": "Mahatma Gandhi Bus Station (Red Line)",
          "name:ml": "\u0d2e\u0d39\u0d3e\u0d24\u0d4d\u0d2e\u0d3e\u0d17\u0d3e\u0d28\u0d4d\u0d27\u0d3f \u0d2c\u0d38\u0d4d \u0d38\u0d4d\u0d31\u0d4d\u0d31\u0d47\u0d37\u0d7b",
          "name:te": "\u0c0e\u0c02.\u0c1c\u0c3f. \u0c2c\u0c38\u0c4d. \u0c38\u0c4d\u0c1f\u0c47\u0c37\u0c28\u0c4d",
          "name:ur": "\u0645\u06c1\u0627\u062a\u0645\u0627 \u06af\u0627\u0646\u062f\u06be\u06cc \u0628\u0633 \u0627\u0633\u0679\u06cc\u0634\u0646 (\u0631\u06cc\u0688 \u0644\u0627\u0626\u0646)",
          "network": "Hyderabad Metro",
          "note": "Contributors are requested to not edit the \"network\" and the \"operator\" tags. (2023/11/08)",
          "operator": "Hyderabad Metro Rail Limited",
          "public_transport": "station",
          "railway": "station",
          "station": "subway",
          "subway": "yes"
        }
      },
      {
        "type": "node",
        "id": 7208768627,
        "lat": 17.3796948,
        "lon": 78.4858635,
        "tags": {
          "alt_name": "M. G. Bus Station (Green Line)",
          "name": "Mahatma Gandhi Bus Station (Green Line)",
          "name:ml": "\u0d2e\u0d39\u0d3e\u0d24\u0d4d\u0d2e\u0d3e\u0d17\u0d3e\u0d28\u0d4d\u0d27\u0d3f \u0d2c\u0d38\u0d4d \u0d38\u0d4d\u0d31\u0d4d\u0d31\u0d47\u0d37\u0d7b",
          "name:te": "\u0c0e\u0c02.\u0c1c\u0c3f. \u0c2c\u0c38\u0c4d. \u0c38\u0c4d\u0c1f\u0c47\u0c37\u0c28\u0c4d",
          "name:ur": "\u0645\u06c1\u0627\u062a\u0645\u0627 \u06af\u0627\u0646\u062f\u06be\u06cc \u0628\u0633 \u0627\u0633\u0679\u06cc\u0634\u0646 (\u06af\u0631\u06cc\u0646 \u0644\u0627\u0626\u0646",
          "network": "Hyderabad Metro",
          "note": "Contributors are requested to not edit the \"network\" and the \"operator\" tags. (2023/11/08)",
          "operator": "Hyderabad Metro Rail Limited",
          "public_transport": "station",
          "railway": "station",
          "station": "subway",
          "subway": "yes"
        }
      },
      {
        "type": "node",
        "id": 7208768628,
        "lat": 17.3771888,
        "lon": 78.4939356,
        "tags": {
          "addr:city": "Hyderabad",
          "addr:city:ar": "\u062d\u064a\u062f\u0631 \u0622\u0628\u0627\u062f",
          "addr:city:ur": "\u062d\u06cc\u062f\u0631\u0622\u0628\u0627\u062f",
          "addr:place": "Malakpet",
          "addr:place:ar": "\u0645\u0627\u0644\u0643 \u0628\u064a\u062a",
          "addr:place:ur": "\u0645\u0627\u0644\u06a9 \u067e\u06cc\u0679",
          "alt_name:ur": "\u0645\u0644\u06a9 \u067e\u06cc\u0679",
          "name": "Malakpet",
          "name:ar": "\u0645\u0627\u0644\u0643 \u0628\u064a\u062a",
          "name:ml": "\u0d2e\u0d32\u0d15\u0d4d\u0d2a\u0d47\u0d1f\u0d4d\u0d1f\u0d4d",
          "name:te": "\u0c2e\u0c32\u0c15\u0c4d\u200c\u0c2a\u0c47\u0c1f\u0c4d",
          "name:ur": "\u0645\u0627\u0644\u06a9 \u067e\u06cc\u0679",
          "network": "Hyderabad Metro",
          "note": "Contributors are requested to not edit the \"network\" and the \"operator\" tags. (2023/11/08)",
          "operator": "Hyderabad Metro Rail Limited",
          "public_transport": "station",
          "railway": "station",
          "station": "subway",
          "subway": "yes",
          "wheelchair": "yes"
        }
      },
      {
        "type": "node",
        "id": 7358663498,
        "lat": 17.3844258,
        "lon": 78.4840519,
        "tags": {
          "name": "Sultan Bazar",
          "name:te": "\u0c38\u0c41\u0c32\u0c4d\u0c24\u0c3e\u0c28\u0c4d \u0c2c\u0c1c\u0c3e\u0c30\u0c4d",
          "network": "Hyderabad Metro",
          "note": "Contributors are requested to not edit the \"network\" and the \"operator\" tags. (2023/11/08)",
          "operator": "Hyderabad Metro Rail Limited",
          "public_transport": "stop_position",
          "subway": "yes"
        }
      },
      {
        "type": "node",
        "id": 7358663499,
        "lat": 17.3844473,
        "lon": 78.4840241,
        "tags": {
          "name": "Sultan Bazar",
          "name:ml": "\u0d38\u0d41\u0d7d\u0d24\u0d4d\u0d24\u0d3e\u0d7b \u0d2c\u0d38\u0d3e\u0d7c",
          "name:te": "\u0c38\u0c41\u0c32\u0c4d\u0c24\u0c3e\u0c28\u0c4d \u0c2c\u0c1c\u0c3e\u0c30\u0c4d",
          "network": "Hyderabad Metro",
          "note": "Contributors are requested to not edit the \"network\" and the \"operator\" tags. (2023/11/08)",
          "operator": "Hyderabad Metro Rail Limited",
          "railway": "station",
          "station": "subway",
          "subway": "yes"
        }
      },
      {
        "type": "node",
        "id": 7358663500,
        "lat": 17.3943607,
        "lon": 78.489976,
        "tags": {
          "name": "Narayanaguda",
          "name:te": "\u0c28\u0c3e\u0c30\u0c3e\u0c2f\u0c23\u0c17\u0c42\u0c21",
          "network": "Hyderabad Metro",
          "note": "Contributors are requested to not edit the \"network\" and the \"operator\" tags. (2023/11/08)",
          "operator": "Hyderabad Metro Rail Limited",
          "public_transport": "stop_position",
          "subway": "yes"
        }
      },
      {
        "type": "node",
        "id": 7358663501,
        "lat": 17.3943658,
        "lon": 78.4899578,
        "tags": {
          "name": "Narayanaguda",
          "name:ml": "\u0d28\u0d3e\u0d30\u0d3e\u0d2f\u0d23\u0d17\u0d41\u0d21",
          "name:te": "\u0c28\u0c3e\u0c30\u0c3e\u0c2f\u0c23\u0c17\u0c42\u0c21",
          "network": "Hyderabad Metro",
          "note": "Contributors are requested to not edit the \"network\" and the \"operator\" tags. (2023/11/08)",
          "operator": "Hyderabad Metro Rail Limited",
          "railway": "station",
          "station": "subway",
          "subway": "yes",
          "wikidata": "Q108874763"
        }
      },
      {
        "type": "node",
        "id": 7358663502,
        "lat": 17.4003634,
        "lon": 78.4948964,
        "tags": {
          "name": "Chikkadpally",
          "name:ml": "\u0d1a\u0d3f\u0d15\u0d4d\u0d15\u0d1f\u0d2a\u0d4d\u0d2a\u0d33\u0d4d\u0d33\u0d3f",
          "name:te": "\u0c1a\u0c3f\u0c15\u0c4d\u0c15\u0c21\u0c2a\u0c32\u0c4d\u0c32\u0c3f",
          "network": "Hyderabad Metro",
          "note": "Contributors are requested to not edit the \"network\" and the \"operator\" tags. (2023/11/08)",
          "operator": "Hyderabad Metro Rail Limited",
          "railway": "station",
          "station": "subway",
          "subway": "yes",
          "wikidata": "Q108874757"
        }
      },
      {
        "type": "node",
        "id": 7632550173,
        "lat": 17.3795945,
        "lon": 78.4858221,
        "tags": {
          "alt_name": "M. G. Bus Station (Green Line)",
          "name": "Mahatma Gandhi Bus Station (Green Line)",
          "name:te": "\u0c0e\u0c02.\u0c1c\u0c3f. \u0c2c\u0c38\u0c4d. \u0c38\u0c4d\u0c1f\u0c47\u0c37\u0c28\u0c4d",
          "name:ur": "\u0645\u06c1\u0627\u062a\u0645\u0627 \u06af\u0627\u0646\u062f\u06be\u06cc \u0628\u0633 \u0627\u0633\u0679\u06cc\u0634\u0646 (\u06af\u0631\u06cc\u0646 \u0644\u0627\u0626\u0646",
          "network": "Hyderabad Metro",
          "note": "Contributors are requested to not edit the \"network\" and the \"operator\" tags. (2023/11/08)",
          "operator": "Hyderabad Metro Rail Limited",
          "public_transport": "stop_position",
          "railway": "stop",
          "subway": "yes"
        }
      },
      {
        "type": "node",
        "id": 7632550174,
        "lat": 17.3796106,
        "lon": 78.4858581,
        "tags": {
          "alt_name": "M. G. Bus Station (Green Line)",
          "name": "Mahatma Gandhi Bus Station (Green Line)",
          "name:te": "\u0c0e\u0c02.\u0c1c\u0c3f. \u0c2c\u0c38\u0c4d. \u0c38\u0c4d\u0c1f\u0c47\u0c37\u0c28\u0c4d",
          "name:ur": "\u0645\u06c1\u0627\u062a\u0645\u0627 \u06af\u0627\u0646\u062f\u06be\u06cc \u0628\u0633 \u0627\u0633\u0679\u06cc\u0634\u0646 (\u06af\u0631\u06cc\u0646 \u0644\u0627\u0626\u0646",
          "network": "Hyderabad Metro",
          "note": "Contributors are requested to not edit the \"network\" and the \"operator\" tags. (2023/11/08)",
          "operator": "Hyderabad Metro Rail Limited",
          "public_transport": "stop_position",
          "railway": "stop",
          "subway": "yes"
        }
      },
      {
        "type": "node",
        "id": 7635652752,
        "lat": 17.3932537,
        "lon": 78.4673086,
        "tags": {
          "name": "Hyderabad Deccan Nampally",
          "name:ur": "\u062d\u06cc\u062f\u0631\u0622\u0628\u0627\u062f \u062f\u06a9\u0646",
          "public_transport": "stop_position",
          "railway": "stop",
          "ref": "6",
          "train": "yes"
        }
      },
      {
        "type": "node",
        "id": 7635652753,
        "lat": 17.393247,
        "lon": 78.467451,
        "tags": {
          "name": "Hyderabad Deccan Nampally",
          "name:ur": "\u062d\u06cc\u062f\u0631\u0622\u0628\u0627\u062f \u062f\u06a9\u0646",
          "public_transport": "stop_position",
          "railway": "stop",
          "ref": "5",
          "train": "yes"
        }
      },
      {
        "type": "node",
        "id": 7635652754,
        "lat": 17.3932459,
        "lon": 78.4674948,
        "tags": {
          "name": "Hyderabad Deccan Nampally",
          "name:ur": "\u062d\u06cc\u062f\u0631\u0622\u0628\u0627\u062f \u062f\u06a9\u0646",
          "public_transport": "stop_position",
          "railway": "stop",
          "ref": "4",
          "train": "yes"
        }
      },
      {
        "type": "node",
        "id": 7635652755,
        "lat": 17.3932426,
        "lon": 78.4675952,
        "tags": {
          "name": "Hyderabad Deccan Nampally",
          "name:ur": "\u062d\u06cc\u062f\u0631\u0622\u0628\u0627\u062f \u062f\u06a9\u0646",
          "public_transport": "stop_position",
          "railway": "stop",
          "ref": "3",
          "train": "yes"
        }
      },
      {
        "type": "node",
        "id": 7635652756,
        "lat": 17.3932435,
        "lon": 78.4676319,
        "tags": {
          "name": "Hyderabad Deccan Nampally",
          "name:ur": "\u062d\u06cc\u062f\u0631\u0622\u0628\u0627\u062f \u062f\u06a9\u0646",
          "public_transport": "stop_position",
          "railway": "stop",
          "ref": "2",
          "train": "yes"
        }
      },
      {
        "type": "node",
        "id": 7635652757,
        "lat": 17.3932391,
        "lon": 78.46779,
        "tags": {
          "name": "Hyderabad Deccan Nampally",
          "name:ur": "\u062d\u06cc\u062f\u0631\u0622\u0628\u0627\u062f \u062f\u06a9\u0646",
          "public_transport": "stop_position",
          "railway": "stop",
          "ref": "1",
          "train": "yes"
        }
      },
      {
        "type": "node",
        "id": 10789525452,
        "lat": 17.396027,
        "lon": 78.4898863,
        "tags": {
          "amenity": "cinema",
          "name": "Shanti Cinema Theatre"
        }
      },
      {
        "type": "node",
        "id": 10789553717,
        "lat": 17.4070181,
        "lon": 78.4973309,
        "tags": {
          "amenity": "cinema",
          "name": "Sandhya 70mm"
        }
      },
      {
        "type": "node",
        "id": 10992500539,
        "lat": 17.3782418,
        "lon": 78.4848364,
        "tags": {
          "amenity": "bus_station",
          "bus": "yes",
          "name": "TSRTC MGBS BUS STAND , HYDERABAD",
          "public_transport": "station"
        }
      },
      {
        "type": "node",
        "id": 10992500540,
        "lat": 17.3777475,
        "lon": 78.4844892,
        "tags": {
          "amenity": "bus_station",
          "bus": "yes",
          "name": "TSRTC MGBS CENTRAL BUS STAND",
          "public_transport": "station"
        }
      },
      {
        "type": "node",
        "id": 10992500541,
        "lat": 17.3921316,
        "lon": 78.5011455,
        "tags": {
          "amenity": "bus_station",
          "bus": "yes",
          "name": "TSRTC BUS DEPOT , BARKATPURA",
          "public_transport": "station"
        }
      },
      {
        "type": "node",
        "id": 10992500542,
        "lat": 17.4063252,
        "lon": 78.5001204,
        "tags": {
          "amenity": "bus_station",
          "bus": "yes",
          "name": "TSRTC WORKSHOP , RTC X ROADS",
          "public_transport": "station"
        }
      },
      {
        "type": "node",
        "id": 10992500544,
        "lat": 17.4077647,
        "lon": 78.5018495,
        "tags": {
          "amenity": "bus_station",
          "bus": "yes",
          "name": "TSRTC BUS DEPOT, HYDERABAD",
          "public_transport": "station"
        }
      },
      {
        "type": "node",
        "id": 11738179187,
        "lat": 17.3823471,
        "lon": 78.4811327,
        "tags": {
          "alt_name": "OMC",
          "internet_access": "no",
          "name": "Osmania Medical College",
          "name:ml": "\u0d09\u0d38\u0d4d\u0d2e\u0d3e\u0d28\u0d3f\u0d2f \u0d2e\u0d46\u0d21\u0d3f\u0d15\u0d4d\u0d15\u0d7d \u0d15\u0d4b\u0d33\u0d47\u0d1c\u0d4d",
          "name:te": "\u0c09\u0c38\u0c4d\u0c2e\u0c3e\u0c28\u0c3f\u0c2f\u0c3e \u0c35\u0c48\u0c26\u0c4d\u0c2f \u0c15\u0c33\u0c3e\u0c36\u0c3e\u0c32",
          "name:ur": "\u0639\u062b\u0645\u0627\u0646\u06cc\u06c1 \u0645\u06cc\u0688\u06cc\u06a9\u0644 \u06a9\u0627\u0644\u062c",
          "network": "Hyderabad Metro",
          "note": "Contributors are requested to not edit the \"network\" and the \"operator\" tags. (2023/11/08)",
          "operator": "Hyderabad Metro Rail Limited",
          "public_transport": "station",
          "railway": "station",
          "station": "subway",
          "subway": "yes",
          "website": "https://hmrl.co.in",
          "wheelchair": "yes",
          "wikidata": "Q83859784"
        }
      },
      {
        "type": "node",
        "id": 11738179188,
        "lat": 17.3923995,
        "lon": 78.4701477,
        "tags": {
          "internet_access": "no",
          "name": "Nampally",
          "name:ml": "\u0d28\u0d3e\u0d2e\u0d4d\u0d2a\u0d33\u0d4d\u0d33\u0d3f",
          "name:te": "\u0c28\u0c3e\u0c02\u0c2a\u0c32\u0c4d\u0c32\u0c3f",
          "name:ur": "\u0646\u0627\u0645\u067e\u0644\u0651\u06cc",
          "network": "Hyderabad Metro",
          "note": "Contributors are requested to not edit the \"network\" and the \"operator\" tags. (2023/11/08)",
          "operator": "Hyderabad Metro Rail Limited",
          "public_transport": "station",
          "railway": "station",
          "station": "subway",
          "subway": "yes",
          "website": "https://hmrl.co.in",
          "wheelchair": "yes",
          "wikidata": "Q63346685"
        }
      },
      {
        "type": "node",
        "id": 11738179194,
        "lat": 17.3861073,
        "lon": 78.4730995,
        "tags": {
          "internet_access": "no",
          "name": "Gandhi Bhavan",
          "name:ml": "\u0d17\u0d3e\u0d28\u0d4d\u0d27\u0d3f \u0d2d\u0d35\u0d7b",
          "name:te": "\u0c17\u0c3e\u0c02\u0c27\u0c40 \u0c2d\u0c35\u0c28\u0c4d",
          "name:ur": "\u06af\u0627\u0646\u062f\u06be\u06cc \u0628\u06be\u0648\u0646",
          "network": "Hyderabad Metro",
          "note": "Contributors are requested to not edit the \"network\" and the \"operator\" tags. (2023/11/08)",
          "operator": "Hyderabad Metro Rail Limited",
          "public_transport": "station",
          "railway": "station",
          "station": "subway",
          "subway": "yes",
          "website": "https://hmrl.co.in",
          "wheelchair": "yes",
          "wikidata": "Q62860405"
        }
      },
      {
        "type": "node",
        "id": 11738179200,
        "lat": 17.3981092,
        "lon": 78.4708176,
        "tags": {
          "internet_access": "no",
          "name": "Assembly",
          "name:ml": "\u0d05\u0d38\u0d02\u0d2c\u0d4d\u0d32\u0d3f",
          "name:te": "\u0c05\u0c38\u0c46\u0c02\u0c2c\u0c4d\u0c32\u0c40",
          "name:ur": "\u0627\u0633\u0645\u0628\u0644\u06cc",
          "network": "Hyderabad Metro",
          "note": "Contributors are requested to not edit the \"network\" and the \"operator\" tags. (2023/11/08)",
          "operator": "Hyderabad Metro Rail Limited",
          "public_transport": "station",
          "railway": "station",
          "station": "subway",
          "subway": "yes",
          "website": "https://hmrl.co.in",
          "wheelchair": "yes",
          "wikidata": "Q83718950"
        }
      },
      {
        "type": "node",
        "id": 11738179219,
        "lat": 17.3982698,
        "lon": 78.4707738,
        "tags": {
          "addr:city": "Hyderabad",
          "addr:city:ar": "\u062d\u064a\u062f\u0631 \u0622\u0628\u0627\u062f",
          "addr:city:ur": "\u062d\u06cc\u062f\u0631\u0622\u0628\u0627\u062f",
          "name": "Assembly",
          "name:ml": "\u0d05\u0d38\u0d02\u0d2c\u0d4d\u0d32\u0d3f",
          "name:te": "\u0c05\u0c38\u0c46\u0c02\u0c2c\u0c4d\u0c32\u0c40",
          "network": "Hyderabad Metro",
          "note": "Contributors are requested to not edit the \"network\" and the \"operator\" tags. (2023/11/08)",
          "operator": "Hyderabad Metro Rail Limited",
          "public_transport": "stop_position",
          "public_transport:version": "2",
          "railway": "stop",
          "subway": "yes"
        }
      },
      {
        "type": "node",
        "id": 11738179220,
        "lat": 17.3927365,
        "lon": 78.4701615,
        "tags": {
          "addr:city": "Hyderabad",
          "addr:city:ar": "\u062d\u064a\u062f\u0631 \u0622\u0628\u0627\u062f",
          "addr:city:ur": "\u062d\u06cc\u062f\u0631\u0622\u0628\u0627\u062f",
          "name": "Nampally",
          "name:ml": "\u0d28\u0d3e\u0d2e\u0d4d\u0d2a\u0d33\u0d4d\u0d33\u0d3f",
          "name:te": "\u0c28\u0c3e\u0c02\u0c2a\u0c32\u0c4d\u0c32\u0c3f",
          "network": "Hyderabad Metro",
          "note": "Contributors are requested to not edit the \"network\" and the \"operator\" tags. (2023/11/08)",
          "operator": "Hyderabad Metro Rail Limited",
          "public_transport": "stop_position",
          "public_transport:version": "2",
          "railway": "stop",
          "subway": "yes"
        }
      },
      {
        "type": "node",
        "id": 11738179221,
        "lat": 17.3863645,
        "lon": 78.4728752,
        "tags": {
          "addr:city": "Hyderabad",
          "addr:city:ar": "\u062d\u064a\u062f\u0631 \u0622\u0628\u0627\u062f",
          "addr:city:ur": "\u062d\u06cc\u062f\u0631\u0622\u0628\u0627\u062f",
          "name": "Gandhi Bhavan",
          "name:ml": "\u0d17\u0d3e\u0d28\u0d4d\u0d27\u0d3f \u0d2d\u0d35\u0d7b",
          "name:te": "\u0c17\u0c3e\u0c02\u0c27\u0c40 \u0c2d\u0c35\u0c28\u0c4d",
          "network": "Hyderabad Metro",
          "note": "Contributors are requested to not edit the \"network\" and the \"operator\" tags. (2023/11/08)",
          "operator": "Hyderabad Metro Rail Limited",
          "public_transport": "stop_position",
          "public_transport:version": "2",
          "railway": "stop",
          "subway": "yes"
        }
      },
      {
        "type": "node",
        "id": 11738179222,
        "lat": 17.3824963,
        "lon": 78.4807152,
        "tags": {
          "addr:city": "Hyderabad",
          "addr:city:ar": "\u062d\u064a\u062f\u0631 \u0622\u0628\u0627\u062f",
          "addr:city:ur": "\u062d\u06cc\u062f\u0631\u0622\u0628\u0627\u062f",
          "alt_name": "OMC",
          "name": "Osmania Medical College",
          "name:ml": "\u0d09\u0d38\u0d4d\u0d2e\u0d3e\u0d28\u0d3f\u0d2f \u0d2e\u0d46\u0d21\u0d3f\u0d15\u0d4d\u0d15\u0d7d \u0d15\u0d4b\u0d33\u0d47\u0d1c\u0d4d",
          "name:te": "\u0c09\u0c38\u0c4d\u0c2e\u0c3e\u0c28\u0c3f\u0c2f\u0c3e \u0c35\u0c48\u0c26\u0c4d\u0c2f \u0c15\u0c33\u0c3e\u0c36\u0c3e\u0c32",
          "network": "Hyderabad Metro",
          "note": "Contributors are requested to not edit the \"network\" and the \"operator\" tags. (2023/11/08)",
          "operator": "Hyderabad Metro Rail Limited",
          "public_transport": "stop_position",
          "public_transport:version": "2",
          "railway": "stop",
          "subway": "yes"
        }
      },
      {
        "type": "node",
        "id": 11774365337,
        "lat": 17.3733667,
        "lon": 78.4785666,
        "tags": {
          "amenity": "fuel",
          "brand": "Bharat Petroleum",
          "brand:wikidata": "Q854826",
          "check_date": "2024-03-31",
          "name": "Bharat Petroleum"
        }
      },
      {
        "type": "node",
        "id": 11774365338,
        "lat": 17.3847326,
        "lon": 78.4743828,
        "tags": {
          "amenity": "fuel",
          "brand": "Bharat Petroleum",
          "brand:wikidata": "Q854826",
          "check_date": "2025-01-07",
          "check_date:compressed_air": "2025-01-07",
          "compressed_air": "yes",
          "name": "Bharat Petroleum"
        }
      },
      {
        "type": "node",
        "id": 11774365339,
        "lat": 17.3943492,
        "lon": 78.4700623,
        "tags": {
          "amenity": "fuel",
          "check_date": "2024-03-31",
          "fuel:cng": "yes",
          "name": "Extra Gas"
        }
      },
      {
        "type": "node",
        "id": 12114475167,
        "lat": 17.3900344,
        "lon": 78.5007123,
        "tags": {
          "name": "Kacheguda",
          "public_transport": "stop_position",
          "ref": "5",
          "train": "yes"
        }
      },
      {
        "type": "node",
        "id": 12114475168,
        "lat": 17.3901182,
        "lon": 78.5006124,
        "tags": {
          "name": "Kacheguda",
          "public_transport": "stop_position",
          "ref": "4",
          "train": "yes"
        }
      },
      {
        "type": "node",
        "id": 12114475169,
        "lat": 17.3901459,
        "lon": 78.5005747,
        "tags": {
          "name": "Kacheguda",
          "public_transport": "stop_position",
          "ref": "3",
          "train": "yes"
        }
      },
      {
        "type": "node",
        "id": 12114475170,
        "lat": 17.3902324,
        "lon": 78.5004753,
        "tags": {
          "name": "Kacheguda",
          "public_transport": "stop_position",
          "ref": "2",
          "train": "yes"
        }
      },
      {
        "type": "node",
        "id": 12114475171,
        "lat": 17.3902647,
        "lon": 78.5004391,
        "tags": {
          "name": "Kacheguda",
          "public_transport": "stop_position",
          "ref": "1",
          "train": "yes"
        }
      },
      {
        "type": "node",
        "id": 12462528085,
        "lat": 17.3913192,
        "lon": 78.5101249,
        "tags": {
          "amenity": "fuel"
        }
      }
    ]
  }
}