{
  "pois_1km": {
    "version": 0.6,
    "generator": "Overpass API 0.7.62.8 e802775f",
    "osm3s": {
      "timestamp_osm_base": "2025-09-06T08:40:01Z",
      "copyright": "The data included in this document is from www.openstreetmap.org. The data is made available under ODbL."
    },
    "elements": [
      {
        "type": "node",
        "id": 635573665,
        "lat": 17.4083957,
        "lon": 78.4977836,
        "tags": {
          "amenity": "bank",
          "name": "HDFC BANK ATM",
          "operator": "HDFC BANK"
        }
      },
      {
        "type": "node",
        "id": 675646780,
        "lat": 17.4062114,
        "lon": 78.496159,
        "tags": {
          "amenity": "restaurant",
          "name": "Swagath"
        }
      },
      {
        "type": "node",
        "id": 675646783,
        "lat": 17.4064861,
        "lon": 78.4969807,
        "tags": {
          "addr:city": "Hyderabad",
          "addr:state": "Telangana",
          "alt_name": "Astoria Cafe & Restaurant",
          "amenity": "restaurant",
          "contact:phone": "+91 96429 48658",
          "cuisine": "indian;kebab;steak_house;ice_cream;barbecue;regional;chicken;coffee_shop",
          "name": "Astoria",
          "opening_hours": "06:00-24:00",
          "outdoor_seating": "no",
          "takeaway": "yes"
        }
      },
      {
        "type": "node",
        "id": 675646784,
        "lat": 17.4063098,
        "lon": 78.4974141,
        "tags": {
          "addr:city": "Hyderabad",
          "addr:state": "Telangana",
          "amenity": "restaurant",
          "contact:phone": "+91 40 27634490",
          "cuisine": "indian;kebab;steak_house;ice_cream;barbecue;regional;chicken;coffee_shop",
          "name": "Bawarchi",
          "opening_hours": "Mo-Su 06:00-24:00",
          "outdoor_seating": "no",
          "takeaway": "yes"
        }
      },
      {
        "type": "node",
        "id": 771240771,
        "lat": 17.4131673,
        "lon": 78.4899867,
        "tags": {
          "name": "MORE",
          "shop": "department_store"
        }
      },
      {
        "type": "node",
        "id": 771240778,
        "lat": 17.4128068,
        "lon": 78.4901857,
        "tags": {
          "amenity": "bank",
          "brand": "Canara Bank",
          "brand:pa": "\u0a15\u0a47\u0a28\u0a30\u0a3e \u0a2c\u0a48\u0a02\u0a15",
          "brand:ur": "\u06a9\u06cc\u0646\u0631\u0627 \u0628\u06cc\u0646\u06a9",
          "brand:wikidata": "Q2003777",
          "brand:wikipedia": "en:Canara Bank",
          "brand:wikipedia:pa": "\u0a15\u0a47\u0a28\u0a30\u0a3e \u0a2c\u0a48\u0a02\u0a15",
          "name": "Canara Bank",
          "name:pa": "\u0a15\u0a47\u0a28\u0a30\u0a3e \u0a2c\u0a48\u0a02\u0a15",
          "name:ur": "\u06a9\u06cc\u0646\u0631\u0627 \u0628\u06cc\u0646\u06a9",
          "website": "https://www.canarabank.com/"
        }
      },
      {
        "type": "node",
        "id": 1693981449,
        "lat": 17.4085145,
        "lon": 78.4895355,
        "tags": {
          "amenity": "bank",
          "atm": "no",
          "brand:wikidata": "Q2003476",
          "brand:wikipedia": "en:Andhra Bank",
          "name": "Andhra Bank",
          "name:en": "Andhra Bank",
          "website": "https://www.andhrabank.in"
        }
      },
      {
        "type": "node",
        "id": 2702448242,
        "lat": 17.4110955,
        "lon": 78.4978605,
        "tags": {
          "amenity": "bank",
          "branch": "RTC X Roads",
          "brand": "HDFC",
          "brand:wikidata": "Q631047",
          "brand:wikipedia": "en:HDFC Bank",
          "name": "HDFC Bank",
          "short_name": "HDFC",
          "website": "https://www.hdfcbank.com"
        }
      },
      {
        "type": "node",
        "id": 2702452111,
        "lat": 17.4123605,
        "lon": 78.4984613,
        "tags": {
          "addr:city": "Hyderabad",
          "addr:housenumber": "1-7-146",
          "addr:postcode": "500020",
          "addr:street": "Musheerabad Main Road",
          "name": "Spencers Hypermarket",
          "opening_hours": "Mo-Su 10:00-22:00",
          "operator": "Spencer Retail Limited",
          "organic": "yes",
          "shop": "supermarket",
          "website": "https://www.spencers.in/"
        }
      },
      {
        "type": "node",
        "id": 2712622751,
        "lat": 17.4088159,
        "lon": 78.4901106,
        "tags": {
          "amenity": "atm",
          "name": "ING ATM",
          "operator": "ING Vysya"
        }
      },
      {
        "type": "node",
        "id": 2712623077,
        "lat": 17.4089088,
        "lon": 78.4894972,
        "tags": {
          "amenity": "hospital",
          "name": "ramesh eye care"
        }
      },
      {
        "type": "node",
        "id": 2712626398,
        "lat": 17.4091385,
        "lon": 78.4891954,
        "tags": {
          "amenity": "atm",
          "name": "Punjab National Bank"
        }
      },
      {
        "type": "node",
        "id": 2712627410,
        "lat": 17.4090551,
        "lon": 78.4894985,
        "tags": {
          "amenity": "bank",
          "name": "icici securities"
        }
      },
      {
        "type": "node",
        "id": 2712642179,
        "lat": 17.4104214,
        "lon": 78.4890007,
        "tags": {
          "amenity": "atm",
          "name": "icici bank atm"
        }
      },
      {
        "type": "node",
        "id": 2712657371,
        "lat": 17.4109516,
        "lon": 78.489029,
        "tags": {
          "name": "Vikas Grand Bazar",
          "shop": "supermarket"
        }
      },
      {
        "type": "node",
        "id": 2712662377,
        "lat": 17.4118417,
        "lon": 78.4890161,
        "tags": {
          "amenity": "atm",
          "name": "DCB Bank ATM",
          "operator": "DCB"
        }
      },
      {
        "type": "node",
        "id": 2712662990,
        "lat": 17.4118751,
        "lon": 78.4888572,
        "tags": {
          "addr:district": "Hyderabad",
          "addr:full": "Plot No.9, Near Sub-Register Office, Gandhi Nagar",
          "addr:postcode": "500080",
          "addr:state": "Telangana",
          "amenity": "hospital",
          "contact:phone": "27618442",
          "name": "Tapadia Medical Centre's Eashwar Lakshmi Hospital",
          "operator:type": "private",
          "source": "OpenGovernmentData"
        }
      },
      {
        "type": "node",
        "id": 2712663887,
        "lat": 17.4122874,
        "lon": 78.488786,
        "tags": {
          "amenity": "restaurant",
          "cuisine": "regional",
          "name": "Sweekar Tiffins"
        }
      },
      {
        "type": "node",
        "id": 2712671506,
        "lat": 17.4123685,
        "lon": 78.4904636,
        "tags": {
          "amenity": "bank",
          "atm": "no",
          "name": "Western Union Money Transfer"
        }
      },
      {
        "type": "node",
        "id": 2715317654,
        "lat": 17.408565,
        "lon": 78.4917997,
        "tags": {
          "amenity": "atm",
          "operator": "Andhra Bank"
        }
      },
      {
        "type": "node",
        "id": 2715317862,
        "lat": 17.4085451,
        "lon": 78.4919233,
        "tags": {
          "amenity": "atm",
          "operator": "State Bank"
        }
      },
      {
        "type": "node",
        "id": 2729406949,
        "lat": 17.4091667,
        "lon": 78.4900649,
        "tags": {
          "amenity": "cafe",
          "name": "Cafe",
          "name:en": "Victoria cafe"
        }
      },
      {
        "type": "node",
        "id": 4415311695,
        "lat": 17.4128893,
        "lon": 78.4901872,
        "tags": {
          "amenity": "bank",
          "brand:wikidata": "Q1340361",
          "brand:wikipedia": "en:State Bank of India",
          "name": "State Bank of India",
          "operator": "Government",
          "short_name": "SBI",
          "website": "https://www.sbi.co.in"
        }
      },
      {
        "type": "node",
        "id": 4415331903,
        "lat": 17.4081685,
        "lon": 78.4921872,
        "tags": {
          "amenity": "atm",
          "name": "icici",
          "name:en": "icici"
        }
      },
      {
        "type": "node",
        "id": 4415336191,
        "lat": 17.4111893,
        "lon": 78.4926794,
        "tags": {
          "amenity": "cafe",
          "name": "andhra cafe",
          "name:en": "andhra cafe"
        }
      },
      {
        "type": "node",
        "id": 4416373792,
        "lat": 17.4115391,
        "lon": 78.4904614,
        "tags": {
          "addr:district": "Hyderabad",
          "addr:full": "1-1-380/3, Gandhi Nagar, Ashok Nagar 'X' Roads",
          "addr:postcode": "500080",
          "addr:state": "Telangana",
          "amenity": "hospital",
          "name": "Jagadamba Hospitals",
          "source": "OpenGovernmentData"
        }
      },
      {
        "type": "node",
        "id": 4417145294,
        "lat": 17.4038885,
        "lon": 78.4953224,
        "tags": {
          "amenity": "atm",
          "name": "andhra bank atm",
          "name:en": "andhra bank atm"
        }
      },
      {
        "type": "node",
        "id": 4422081998,
        "lat": 17.4083807,
        "lon": 78.4897828,
        "tags": {
          "amenity": "bank",
          "name": "Corporation bank, atm",
          "name:en": "Corporation bank, atm"
        }
      },
      {
        "type": "node",
        "id": 4422093292,
        "lat": 17.4107091,
        "lon": 78.489014,
        "tags": {
          "amenity": "cafe"
        }
      },
      {
        "type": "node",
        "id": 4425032194,
        "lat": 17.4058163,
        "lon": 78.4932532,
        "tags": {
          "amenity": "bank",
          "name": "Bank of Baroda bank, atm",
          "name:en": "Bank of Baroda bank, atm"
        }
      },
      {
        "type": "node",
        "id": 4432327795,
        "lat": 17.4057852,
        "lon": 78.4932602,
        "tags": {
          "amenity": "bank",
          "name": "Bank of Baroda bank, atm",
          "name:en": "Bank of Baroda bank, atm"
        }
      },
      {
        "type": "node",
        "id": 4433014293,
        "lat": 17.4083614,
        "lon": 78.4897461,
        "tags": {
          "amenity": "bank",
          "name": "Corporation bank, atm",
          "name:en": "Corporation bank, atm"
        }
      },
      {
        "type": "node",
        "id": 4433085089,
        "lat": 17.4097113,
        "lon": 78.4926128,
        "tags": {
          "name": "Heritage fresh",
          "name:en": "Heritage fresh",
          "shop": "department_store"
        }
      },
      {
        "type": "node",
        "id": 4433085289,
        "lat": 17.4081507,
        "lon": 78.4921708,
        "tags": {
          "amenity": "atm",
          "operator": "icici atm"
        }
      },
      {
        "type": "node",
        "id": 4436560090,
        "lat": 17.4083572,
        "lon": 78.4923778,
        "tags": {
          "name": "China bazar",
          "name:en": "China bazar",
          "shop": "department_store"
        }
      },
      {
        "type": "node",
        "id": 4508429695,
        "lat": 17.4087261,
        "lon": 78.4904922,
        "tags": {
          "amenity": "cafe",
          "name": "Balaji darshan",
          "name:en": "Balaji darshan"
        }
      },
      {
        "type": "node",
        "id": 4508450990,
        "lat": 17.4088082,
        "lon": 78.4902875,
        "tags": {
          "amenity": "clinic",
          "name": "Med plus",
          "name:en": "Med plus"
        }
      },
      {
        "type": "node",
        "id": 5118590649,
        "lat": 17.4153976,
        "lon": 78.4979892,
        "tags": {
          "addr:district": "Hyderabad",
          "addr:full": "1-4-908/7/1, Musheerabad",
          "addr:postcode": "500020",
          "addr:state": "Telangana",
          "amenity": "hospital",
          "contact:email": "info@carehospitals.com",
          "fax": "040 30219488",
          "healthcare:speciality": "multi speciality",
          "medical_system": "Allopathic",
          "name": "Guru Nanak Care Hospital",
          "operator:type": "private",
          "phone": "040 30219000;040 30219111;040 30219123",
          "source": "OpenGovernmentData",
          "website": "https://www.carehospitals.com/"
        }
      },
      {
        "type": "node",
        "id": 6308262613,
        "lat": 17.408247,
        "lon": 78.4927715,
        "tags": {
          "amenity": "pharmacy"
        }
      },
      {
        "type": "node",
        "id": 6308262617,
        "lat": 17.4084627,
        "lon": 78.492225,
        "tags": {
          "amenity": "cafe",
          "name": "AM PM Hotel"
        }
      },
      {
        "type": "node",
        "id": 6308262618,
        "lat": 17.4102126,
        "lon": 78.4923966,
        "tags": {
          "amenity": "pharmacy",
          "name": "Sai medical shop"
        }
      },
      {
        "type": "node",
        "id": 6308262619,
        "lat": 17.4111493,
        "lon": 78.4932791,
        "tags": {
          "shop": "department_store"
        }
      },
      {
        "type": "node",
        "id": 6308262623,
        "lat": 17.4111608,
        "lon": 78.4905432,
        "tags": {
          "amenity": "pharmacy"
        }
      },
      {
        "type": "node",
        "id": 6308262624,
        "lat": 17.4114616,
        "lon": 78.4909764,
        "tags": {
          "amenity": "atm",
          "name": "SBI ATM"
        }
      },
      {
        "type": "node",
        "id": 6308262631,
        "lat": 17.4114001,
        "lon": 78.4921539,
        "tags": {
          "amenity": "pharmacy",
          "name": "Surya Medical & General Stores"
        }
      },
      {
        "type": "node",
        "id": 6308262637,
        "lat": 17.4098159,
        "lon": 78.4926179,
        "tags": {
          "name": "ratnadeep",
          "shop": "department_store"
        }
      },
      {
        "type": "node",
        "id": 6484888144,
        "lat": 17.4073263,
        "lon": 78.492862,
        "tags": {
          "addr:district": "Hyderabad",
          "addr:full": "1-10-189, Near RTC Cross Road, SBH Colony, Ashok Nagar",
          "addr:postcode": "500020",
          "addr:state": "Telangana",
          "amenity": "hospital",
          "name": "Praja Sai Hospital",
          "source": "OpenGovernmentData"
        }
      },
      {
        "type": "node",
        "id": 6485021712,
        "lat": 17.4142,
        "lon": 78.5021076,
        "tags": {
          "addr:district": "Hyderabad",
          "addr:full": "Dayara Market, Musheerabad",
          "addr:postcode": "500020",
          "addr:state": "Telangana",
          "amenity": "hospital",
          "name": "Sudarshan Hospital",
          "source": "OpenGovernmentData"
        }
      },
      {
        "type": "node",
        "id": 6485066503,
        "lat": 17.4077787,
        "lon": 78.4975089,
        "tags": {
          "addr:district": "Hyderabad",
          "addr:full": "RTC 'X' Roads, Musheerbad",
          "addr:postcode": "500020",
          "addr:state": "Telangana",
          "amenity": "hospital",
          "name": "Dangoria Maternity and Nursing Home",
          "source": "OpenGovernmentData"
        }
      },
      {
        "type": "node",
        "id": 6490329242,
        "lat": 17.4156652,
        "lon": 78.4988473,
        "tags": {
          "addr:district": "Hyderabad",
          "addr:full": "H.No 1-5-551, Musheerabad",
          "addr:postcode": "500020",
          "addr:state": "Telangana",
          "amenity": "hospital",
          "fax": "040 23445505",
          "health_facility:type": "Diagnostic Centre;Lab;Health Check Up;Physiotherapy;24 Hour Facility of Emergency care;Laboratory and Pharmacy;Digital X Ray;Sonography;DialysisFacility;Intensive Care Unit;Emergency and Trauma Care;Operation Theatre",
          "healthcare:speciality": "General Medicine;Cardiology;Surgery;Gynaecilogy;Obstetrics;Orthopedics;Paediatrics;Opthalmology;Dental;Urology;ENT;Oncology;Neurology;Psychiatry;Physiootheraphy;Plastic Surgery;Rediology;Dermatology;Gastroenterology",
          "medical_system": "Allopathic",
          "name": "Sagar Lal Memorial Hospital and Matadin Goel Research Center",
          "operator:type": "private",
          "phone": "040 23445501;040 23445502;040 23445503",
          "source": "OpenGovernmentData",
          "website": "http://www.sagarlalhospital.com"
        }
      },
      {
        "type": "node",
        "id": 6505551677,
        "lat": 17.4155472,
        "lon": 78.4897188,
        "tags": {
          "addr:postcode": "500080",
          "amenity": "doctors",
          "healthcare:speciality": "pediatric"
        }
      },
      {
        "type": "node",
        "id": 6559986603,
        "lat": 17.4150151,
        "lon": 78.497702,
        "tags": {
          "addr:district": "Hyderabad",
          "addr:full": "Musheerabad, Near Rajadeluxe Theatre",
          "addr:postcode": "500020",
          "addr:state": "Telangana",
          "addr:street": "Rajadeluxe",
          "addr:subdistrict": "Musheerabad",
          "amenity": "clinic",
          "fixme": "Please verify the accurate position of the hospital/health care centre as I have mapped the facility based on the address provided in Open Government data",
          "healthcare": "clinic",
          "name": "Urban Primary Health Centre, Musheerabad",
          "source": "OpenGovernmentData"
        }
      },
      {
        "type": "node",
        "id": 6811749181,
        "lat": 17.4180959,
        "lon": 78.4999369,
        "tags": {
          "addr:district": "Hyderabad",
          "addr:place": "Musheerabad",
          "addr:state": "Telangana",
          "addr:street": "beside Govt school musheerabad",
          "addr:subdistrict": "Musheerabad",
          "amenity": "doctors",
          "healthcare": "doctor",
          "name": "Government Homoeo Dispensary, CHIKKADPALLY",
          "operational_status": "operational",
          "operator:type": "government",
          "source": "OpenDataTelangana"
        }
      },
      {
        "type": "node",
        "id": 6822126645,
        "lat": 17.4179308,
        "lon": 78.4995689,
        "tags": {
          "amenity": "atm",
          "name": "Punjab National Bank ATM",
          "source": "survey"
        }
      },
      {
        "type": "node",
        "id": 7244238200,
        "lat": 17.4066547,
        "lon": 78.497651,
        "tags": {
          "addr:city": "Hyderabad",
          "addr:state": "Telangana",
          "amenity": "restaurant",
          "contact:phone": "+91 40 27634490",
          "cuisine": "indian;kebab;steak_house;ice_cream;barbecue;regional;chicken;coffee_shop",
          "name": "Bawarchi",
          "opening_hours": "06:00-24:00",
          "outdoor_seating": "no",
          "takeaway": "yes"
        }
      },
      {
        "type": "node",
        "id": 7244238250,
        "lat": 17.4110374,
        "lon": 78.5070876,
        "tags": {
          "amenity": "food_court",
          "name": "chat center"
        }
      },
      {
        "type": "node",
        "id": 7244267532,
        "lat": 17.4105701,
        "lon": 78.5069506,
        "tags": {
          "amenity": "atm"
        }
      },
      {
        "type": "node",
        "id": 7244267538,
        "lat": 17.410739,
        "lon": 78.5072414,
        "tags": {
          "amenity": "cafe",
          "cuisine": "tea_stall"
        }
      },
      {
        "type": "node",
        "id": 7246526406,
        "lat": 17.4095317,
        "lon": 78.5067608,
        "tags": {
          "amenity": "bank"
        }
      },
      {
        "type": "node",
        "id": 7246526407,
        "lat": 17.4094475,
        "lon": 78.5065099,
        "tags": {
          "amenity": "cafe"
        }
      },
      {
        "type": "node",
        "id": 7246588750,
        "lat": 17.4124873,
        "lon": 78.5066021,
        "tags": {
          "amenity": "fast_food"
        }
      },
      {
        "type": "node",
        "id": 7788168896,
        "lat": 17.4114641,
        "lon": 78.4909496,
        "tags": {
          "amenity": "bank",
          "name": "State Bank of India"
        }
      },
      {
        "type": "node",
        "id": 7917719787,
        "lat": 17.4112363,
        "lon": 78.4919158,
        "tags": {
          "name": "SKS Traders",
          "shop": "supermarket"
        }
      },
      {
        "type": "node",
        "id": 8111098691,
        "lat": 17.4053502,
        "lon": 78.4961588,
        "tags": {
          "addr:city": "Hyderabad",
          "addr:postcode": "500020",
          "addr:street": "Chikkadapally Road",
          "amenity": "food_court",
          "name": "Pista house"
        }
      },
      {
        "type": "node",
        "id": 8111098692,
        "lat": 17.4052349,
        "lon": 78.4961186,
        "tags": {
          "addr:city": "hyderabad",
          "addr:postcode": "500020",
          "addr:street": "Chikkadapally Road",
          "amenity": "bank",
          "brand": "Union Bank of India",
          "brand:wikidata": "Q2004078",
          "brand:wikipedia": "en:Union Bank of India",
          "name": "Union Bank of India"
        }
      },
      {
        "type": "node",
        "id": 8111098697,
        "lat": 17.4057061,
        "lon": 78.4955046,
        "tags": {
          "addr:city": "Hyderabad",
          "addr:postcode": "500020",
          "addr:street": "Chikkadapally Road",
          "brand": "More",
          "brand:wikidata": "Q6910891",
          "brand:wikipedia": "en:More (store)",
          "name": "More",
          "shop": "supermarket"
        }
      },
      {
        "type": "node",
        "id": 8386117717,
        "lat": 17.4052122,
        "lon": 78.4935646,
        "tags": {
          "leisure": "park",
          "name": "People's park association"
        }
      },
      {
        "type": "node",
        "id": 8386123123,
        "lat": 17.4062387,
        "lon": 78.4935284,
        "tags": {
          "amenity": "bank",
          "brand": "Andhra Bank",
          "brand:wikidata": "Q2003476",
          "brand:wikipedia": "en:Andhra Bank",
          "name": "Andhra Bank labour commissioner office branch"
        }
      },
      {
        "type": "node",
        "id": 8386127464,
        "lat": 17.4073432,
        "lon": 78.495438,
        "tags": {
          "addr:city": "Hyderabad",
          "addr:postcode": "500020",
          "addr:street": "jawahar nagar",
          "amenity": "bank",
          "name": "syndicate bank chikkadpally"
        }
      },
      {
        "type": "node",
        "id": 8386516280,
        "lat": 17.4075571,
        "lon": 78.4939131,
        "tags": {
          "addr:city": "Hyderabad",
          "addr:postcode": "500020",
          "addr:street": "jawahar nagar",
          "amenity": "food_court",
          "name": "Brundavan Udupi Veg",
          "opening_hours": "Mo-Su 07:00-22:00"
        }
      },
      {
        "type": "node",
        "id": 8386939115,
        "lat": 17.4075201,
        "lon": 78.4947061,
        "tags": {
          "amenity": "food_court",
          "name": "Tiffen centre"
        }
      },
      {
        "type": "node",
        "id": 8387021471,
        "lat": 17.4075909,
        "lon": 78.4944944,
        "tags": {
          "amenity": "atm",
          "cash_in": "yes",
          "operator": "Oriental bank atm"
        }
      },
      {
        "type": "node",
        "id": 11001478580,
        "lat": 17.4207555,
        "lon": 78.4986489,
        "tags": {
          "addr:district": "Hyderabad",
          "addr:place": "Rajadeluxe",
          "addr:state": "Telangana",
          "addr:street": "Musheerabad",
          "addr:subdistrict": "Amberpet",
          "amenity": "clinic",
          "healthcare": "clinic",
          "name": "Urban Primary Health Centre, Bholakpur",
          "operational_status": "operational",
          "operator:type": "government",
          "source": "OpenDataTelangana"
        }
      },
      {
        "type": "node",
        "id": 11001534025,
        "lat": 17.4137227,
        "lon": 78.4911923,
        "tags": {
          "addr:district": "Hyderabad",
          "addr:place": "Humayun Nagar, Hyderabad",
          "addr:state": "Telangana",
          "addr:street": "Humayun nagar",
          "addr:subdistrict": "Khairatabad",
          "amenity": "hospital",
          "healthcare": "hospital",
          "name": "Sarojini Devi EYE Hospital",
          "operational_status": "operational",
          "operator:type": "government",
          "source": "OpenDataTelangana"
        }
      },
      {
        "type": "node",
        "id": 11001538902,
        "lat": 17.4146415,
        "lon": 78.4981553,
        "tags": {
          "addr:district": "Hyderabad",
          "addr:place": "Musheerabad",
          "addr:state": "Telangana",
          "addr:street": "Rajadeluxe",
          "addr:subdistrict": "Musheerabad",
          "amenity": "clinic",
          "healthcare": "clinic",
          "name": "Urban Primary Health Centre, Musheerabad",
          "operational_status": "operational",
          "operator:type": "government",
          "source": "OpenDataTelangana"
        }
      },
      {
        "type": "node",
        "id": 11010078416,
        "lat": 17.4087397,
        "lon": 78.5026775,
        "tags": {
          "addr:district": "Vikarabad",
          "addr:place": "Patloor",
          "addr:state": "Telangana",
          "addr:street": "Marpally Main Road",
          "addr:subdistrict": "Marpalle",
          "amenity": "doctors",
          "healthcare": "doctor",
          "name": "Govt.Unani Dispensary, Patloor",
          "operational_status": "operational",
          "operator:type": "government",
          "source": "OpenDataTelangana"
        }
      }
    ]
  },
  "pois_2_5km": {
    "version": 0.6,
    "generator": "Overpass API 0.7.62.8 e802775f",
    "osm3s": {
      "timestamp_osm_base": "2025-09-06T08:40:01Z",
      "copyright": "The data included in this document is from www.openstreetmap.org. The data is made available under ODbL."
    },
    "elements": [
      {
        "type": "node",
        "id": 634125053,
        "lat": 17.4020866,
        "lon": 78.5093523,
        "tags": {
          "amenity": "fuel"
        }
      },
      {
        "type": "node",
        "id": 634135188,
        "lat": 17.4054697,
        "lon": 78.4965246,
        "tags": {
          "amenity": "cinema",
          "name": "Odeon complex"
        }
      },
      {
        "type": "node",
        "id": 635574643,
        "lat": 17.40581,
        "lon": 78.513264,
        "tags": {
          "amenity": "fuel"
        }
      },
      {
        "type": "node",
        "id": 636456848,
        "lat": 17.3992059,
        "lon": 78.4928268,
        "tags": {
          "amenity": "cinema",
          "name": "Venkatesa Cinema Theatre"
        }
      },
      {
        "type": "node",
        "id": 677300639,
        "lat": 17.3980757,
        "lon": 78.492579,
        "tags": {
          "amenity": "cinema",
          "name": "Deepak Theatre"
        }
      },
      {
        "type": "node",
        "id": 771240789,
        "lat": 17.4146824,
        "lon": 78.4981191,
        "tags": {
          "amenity": "cinema",
          "name": "Sri Sai Raja theatre"
        }
      },
      {
        "type": "node",
        "id": 2212573644,
        "lat": 17.4332387,
        "lon": 78.5028861,
        "tags": {
          "name": "Secunderabad Junction",
          "name:hi": "\u0938\u093f\u0915\u0902\u0926\u0930\u093e\u092c\u093e\u0926 \u091c\u0902\u0915\u094d\u0936\u0928",
          "name:kn": "\u0cb8\u0cbf\u0c95\u0c82\u0ca6\u0cb0\u0cbe\u0cac\u0cbe\u0ca6\u0ccd \u0c9c\u0c82\u0c95\u0ccd\u0cb7\u0ca8\u0ccd",
          "name:ml": "\u0d38\u0d46\u0d15\u0d4d\u0d15\u0d28\u0d4d\u0d24\u0d30\u0d3e\u0d2c\u0d3e\u0d26\u0d4d \u0d1c\u0d02\u0d17\u0d4d\u0d37\u0d7b",
          "name:ta": "\u0b9a\u0bc6\u0b95\u0ba8\u0bcd\u0ba4\u0bbf\u0bb0\u0bbe\u0baa\u0bbe\u0ba4\u0bcd \u0b9a\u0ba8\u0bcd\u0ba4\u0bbf\u0baa\u0bcd\u0baa\u0bc1",
          "name:te": "\u0c38\u0c3f\u0c15\u0c3f\u0c02\u0c26\u0c4d\u0c30\u0c3e\u0c2c\u0c3e\u0c26\u0c4d \u0c1c\u0c02\u0c15\u0c4d\u0c37\u0c28\u0c4d",
          "name:ur": "\u0633\u06a9\u0646\u062f\u0631\u0622\u0628\u0627\u062f \u062c\u0646\u06a9\u0634\u0646",
          "public_transport": "stop_position",
          "railway": "stop",
          "ref": "7",
          "train": "yes"
        }
      },
      {
        "type": "node",
        "id": 2212573646,
        "lat": 17.433424,
        "lon": 78.5028185,
        "tags": {
          "name": "Secunderabad Junction",
          "name:hi": "\u0938\u093f\u0915\u0902\u0926\u0930\u093e\u092c\u093e\u0926 \u091c\u0902\u0915\u094d\u0936\u0928",
          "name:kn": "\u0cb8\u0cbf\u0c95\u0c82\u0ca6\u0cb0\u0cbe\u0cac\u0cbe\u0ca6\u0ccd \u0c9c\u0c82\u0c95\u0ccd\u0cb7\u0ca8\u0ccd",
          "name:ml": "\u0d38\u0d46\u0d15\u0d4d\u0d15\u0d28\u0d4d\u0d24\u0d30\u0d3e\u0d2c\u0d3e\u0d26\u0d4d \u0d1c\u0d02\u0d17\u0d4d\u0d37\u0d7b",
          "name:ta": "\u0b9a\u0bc6\u0b95\u0ba8\u0bcd\u0ba4\u0bbf\u0bb0\u0bbe\u0baa\u0bbe\u0ba4\u0bcd \u0b9a\u0ba8\u0bcd\u0ba4\u0bbf\u0baa\u0bcd\u0baa\u0bc1",
          "name:te": "\u0c38\u0c3f\u0c15\u0c3f\u0c02\u0c26\u0c4d\u0c30\u0c3e\u0c2c\u0c3e\u0c26\u0c4d \u0c1c\u0c02\u0c15\u0c4d\u0c37\u0c28\u0c4d",
          "name:ur": "\u0633\u06a9\u0646\u062f\u0631\u0622\u0628\u0627\u062f \u062c\u0646\u06a9\u0634\u0646",
          "public_transport": "stop_position",
          "railway": "stop",
          "ref": "5",
          "train": "yes"
        }
      },
      {
        "type": "node",
        "id": 2212573685,
        "lat": 17.4333878,
        "lon": 78.5028476,
        "tags": {
          "name": "Secunderabad Junction",
          "name:hi": "\u0938\u093f\u0915\u0902\u0926\u0930\u093e\u092c\u093e\u0926 \u091c\u0902\u0915\u094d\u0936\u0928",
          "name:kn": "\u0cb8\u0cbf\u0c95\u0c82\u0ca6\u0cb0\u0cbe\u0cac\u0cbe\u0ca6\u0ccd \u0c9c\u0c82\u0c95\u0ccd\u0cb7\u0ca8\u0ccd",
          "name:ml": "\u0d38\u0d46\u0d15\u0d4d\u0d15\u0d28\u0d4d\u0d24\u0d30\u0d3e\u0d2c\u0d3e\u0d26\u0d4d \u0d1c\u0d02\u0d17\u0d4d\u0d37\u0d7b",
          "name:ta": "\u0b9a\u0bc6\u0b95\u0ba8\u0bcd\u0ba4\u0bbf\u0bb0\u0bbe\u0baa\u0bbe\u0ba4\u0bcd \u0b9a\u0ba8\u0bcd\u0ba4\u0bbf\u0baa\u0bcd\u0baa\u0bc1",
          "name:te": "\u0c38\u0c3f\u0c15\u0c3f\u0c02\u0c26\u0c4d\u0c30\u0c3e\u0c2c\u0c3e\u0c26\u0c4d \u0c1c\u0c02\u0c15\u0c4d\u0c37\u0c28\u0c4d",
          "name:ur": "\u0633\u06a9\u0646\u062f\u0631\u0622\u0628\u0627\u062f \u062c\u0646\u06a9\u0634\u0646",
          "public_transport": "stop_position",
          "railway": "stop",
          "ref": "6",
          "train": "yes"
        }
      },
      {
        "type": "node",
        "id": 2212573687,
        "lat": 17.4330215,
        "lon": 78.502945,
        "tags": {
          "name": "Secunderabad Junction",
          "name:hi": "\u0938\u093f\u0915\u0902\u0926\u0930\u093e\u092c\u093e\u0926 \u091c\u0902\u0915\u094d\u0936\u0928",
          "name:kn": "\u0cb8\u0cbf\u0c95\u0c82\u0ca6\u0cb0\u0cbe\u0cac\u0cbe\u0ca6\u0ccd \u0c9c\u0c82\u0c95\u0ccd\u0cb7\u0ca8\u0ccd",
          "name:ml": "\u0d38\u0d46\u0d15\u0d4d\u0d15\u0d28\u0d4d\u0d24\u0d30\u0d3e\u0d2c\u0d3e\u0d26\u0d4d \u0d1c\u0d02\u0d17\u0d4d\u0d37\u0d7b",
          "name:ta": "\u0b9a\u0bc6\u0b95\u0ba8\u0bcd\u0ba4\u0bbf\u0bb0\u0bbe\u0baa\u0bbe\u0ba4\u0bcd \u0b9a\u0ba8\u0bcd\u0ba4\u0bbf\u0baa\u0bcd\u0baa\u0bc1",
          "name:te": "\u0c38\u0c3f\u0c15\u0c3f\u0c02\u0c26\u0c4d\u0c30\u0c3e\u0c2c\u0c3e\u0c26\u0c4d \u0c1c\u0c02\u0c15\u0c4d\u0c37\u0c28\u0c4d",
          "name:ur": "\u0633\u06a9\u0646\u062f\u0631\u0622\u0628\u0627\u062f \u062c\u0646\u06a9\u0634\u0646",
          "public_transport": "stop_position",
          "railway": "stop",
          "ref": "9",
          "train": "yes"
        }
      },
      {
        "type": "node",
        "id": 2212573719,
        "lat": 17.4329748,
        "lon": 78.5029553,
        "tags": {
          "name": "Secunderabad Junction",
          "name:hi": "\u0938\u093f\u0915\u0902\u0926\u0930\u093e\u092c\u093e\u0926 \u091c\u0902\u0915\u094d\u0936\u0928",
          "name:kn": "\u0cb8\u0cbf\u0c95\u0c82\u0ca6\u0cb0\u0cbe\u0cac\u0cbe\u0ca6\u0ccd \u0c9c\u0c82\u0c95\u0ccd\u0cb7\u0ca8\u0ccd",
          "name:ml": "\u0d38\u0d46\u0d15\u0d4d\u0d15\u0d28\u0d4d\u0d24\u0d30\u0d3e\u0d2c\u0d3e\u0d26\u0d4d \u0d1c\u0d02\u0d17\u0d4d\u0d37\u0d7b",
          "name:ta": "\u0b9a\u0bc6\u0b95\u0ba8\u0bcd\u0ba4\u0bbf\u0bb0\u0bbe\u0baa\u0bbe\u0ba4\u0bcd \u0b9a\u0ba8\u0bcd\u0ba4\u0bbf\u0baa\u0bcd\u0baa\u0bc1",
          "name:te": "\u0c38\u0c3f\u0c15\u0c3f\u0c02\u0c26\u0c4d\u0c30\u0c3e\u0c2c\u0c3e\u0c26\u0c4d \u0c1c\u0c02\u0c15\u0c4d\u0c37\u0c28\u0c4d",
          "name:ur": "\u0633\u06a9\u0646\u062f\u0631\u0622\u0628\u0627\u062f \u062c\u0646\u06a9\u0634\u0646",
          "public_transport": "stop_position",
          "railway": "stop",
          "ref": "10",
          "train": "yes"
        }
      },
      {
        "type": "node",
        "id": 2212573735,
        "lat": 17.4335638,
        "lon": 78.5027974,
        "tags": {
          "name": "Secunderabad Junction",
          "name:hi": "\u0938\u093f\u0915\u0902\u0926\u0930\u093e\u092c\u093e\u0926 \u091c\u0902\u0915\u094d\u0936\u0928",
          "name:kn": "\u0cb8\u0cbf\u0c95\u0c82\u0ca6\u0cb0\u0cbe\u0cac\u0cbe\u0ca6\u0ccd \u0c9c\u0c82\u0c95\u0ccd\u0cb7\u0ca8\u0ccd",
          "name:ml": "\u0d38\u0d46\u0d15\u0d4d\u0d15\u0d28\u0d4d\u0d24\u0d30\u0d3e\u0d2c\u0d3e\u0d26\u0d4d \u0d1c\u0d02\u0d17\u0d4d\u0d37\u0d7b",
          "name:ta": "\u0b9a\u0bc6\u0b95\u0ba8\u0bcd\u0ba4\u0bbf\u0bb0\u0bbe\u0baa\u0bbe\u0ba4\u0bcd \u0b9a\u0ba8\u0bcd\u0ba4\u0bbf\u0baa\u0bcd\u0baa\u0bc1",
          "name:te": "\u0c38\u0c3f\u0c15\u0c3f\u0c02\u0c26\u0c4d\u0c30\u0c3e\u0c2c\u0c3e\u0c26\u0c4d \u0c1c\u0c02\u0c15\u0c4d\u0c37\u0c28\u0c4d",
          "name:ur": "\u0633\u06a9\u0646\u062f\u0631\u0622\u0628\u0627\u062f \u062c\u0646\u06a9\u0634\u0646",
          "public_transport": "stop_position",
          "railway": "stop",
          "ref": "4",
          "train": "yes"
        }
      },
      {
        "type": "node",
        "id": 2212573760,
        "lat": 17.4335955,
        "lon": 78.5027936,
        "tags": {
          "name": "Secunderabad Junction",
          "name:hi": "\u0938\u093f\u0915\u0902\u0926\u0930\u093e\u092c\u093e\u0926 \u091c\u0902\u0915\u094d\u0936\u0928",
          "name:kn": "\u0cb8\u0cbf\u0c95\u0c82\u0ca6\u0cb0\u0cbe\u0cac\u0cbe\u0ca6\u0ccd \u0c9c\u0c82\u0c95\u0ccd\u0cb7\u0ca8\u0ccd",
          "name:ml": "\u0d38\u0d46\u0d15\u0d4d\u0d15\u0d28\u0d4d\u0d24\u0d30\u0d3e\u0d2c\u0d3e\u0d26\u0d4d \u0d1c\u0d02\u0d17\u0d4d\u0d37\u0d7b",
          "name:ta": "\u0b9a\u0bc6\u0b95\u0ba8\u0bcd\u0ba4\u0bbf\u0bb0\u0bbe\u0baa\u0bbe\u0ba4\u0bcd \u0b9a\u0ba8\u0bcd\u0ba4\u0bbf\u0baa\u0bcd\u0baa\u0bc1",
          "name:te": "\u0c38\u0c3f\u0c15\u0c3f\u0c02\u0c26\u0c4d\u0c30\u0c3e\u0c2c\u0c3e\u0c26\u0c4d \u0c1c\u0c02\u0c15\u0c4d\u0c37\u0c28\u0c4d",
          "name:ur": "\u0633\u06a9\u0646\u062f\u0631\u0622\u0628\u0627\u062f \u062c\u0646\u06a9\u0634\u0646",
          "public_transport": "stop_position",
          "railway": "stop",
          "ref": "3",
          "train": "yes"
        }
      },
      {
        "type": "node",
        "id": 2212573769,
        "lat": 17.4337432,
        "lon": 78.5027517,
        "tags": {
          "name": "Secunderabad Junction",
          "name:hi": "\u0938\u093f\u0915\u0902\u0926\u0930\u093e\u092c\u093e\u0926 \u091c\u0902\u0915\u094d\u0936\u0928",
          "name:kn": "\u0cb8\u0cbf\u0c95\u0c82\u0ca6\u0cb0\u0cbe\u0cac\u0cbe\u0ca6\u0ccd \u0c9c\u0c82\u0c95\u0ccd\u0cb7\u0ca8\u0ccd",
          "name:ml": "\u0d38\u0d46\u0d15\u0d4d\u0d15\u0d28\u0d4d\u0d24\u0d30\u0d3e\u0d2c\u0d3e\u0d26\u0d4d \u0d1c\u0d02\u0d17\u0d4d\u0d37\u0d7b",
          "name:ta": "\u0b9a\u0bc6\u0b95\u0ba8\u0bcd\u0ba4\u0bbf\u0bb0\u0bbe\u0baa\u0bbe\u0ba4\u0bcd \u0b9a\u0ba8\u0bcd\u0ba4\u0bbf\u0baa\u0bcd\u0baa\u0bc1",
          "name:te": "\u0c38\u0c3f\u0c15\u0c3f\u0c02\u0c26\u0c4d\u0c30\u0c3e\u0c2c\u0c3e\u0c26\u0c4d \u0c1c\u0c02\u0c15\u0c4d\u0c37\u0c28\u0c4d",
          "name:ur": "\u0633\u06a9\u0646\u062f\u0631\u0622\u0628\u0627\u062f \u062c\u0646\u06a9\u0634\u0646",
          "public_transport": "stop_position",
          "railway": "stop",
          "ref": "1",
          "train": "yes"
        }
      },
      {
        "type": "node",
        "id": 2212573771,
        "lat": 17.4331516,
        "lon": 78.5029134,
        "tags": {
          "name": "Secunderabad Junction",
          "name:hi": "\u0938\u093f\u0915\u0902\u0926\u0930\u093e\u092c\u093e\u0926 \u091c\u0902\u0915\u094d\u0936\u0928",
          "name:kn": "\u0cb8\u0cbf\u0c95\u0c82\u0ca6\u0cb0\u0cbe\u0cac\u0cbe\u0ca6\u0ccd \u0c9c\u0c82\u0c95\u0ccd\u0cb7\u0ca8\u0ccd",
          "name:ml": "\u0d38\u0d46\u0d15\u0d4d\u0d15\u0d28\u0d4d\u0d24\u0d30\u0d3e\u0d2c\u0d3e\u0d26\u0d4d \u0d1c\u0d02\u0d17\u0d4d\u0d37\u0d7b",
          "name:ta": "\u0b9a\u0bc6\u0b95\u0ba8\u0bcd\u0ba4\u0bbf\u0bb0\u0bbe\u0baa\u0bbe\u0ba4\u0bcd \u0b9a\u0ba8\u0bcd\u0ba4\u0bbf\u0baa\u0bcd\u0baa\u0bc1",
          "name:te": "\u0c38\u0c3f\u0c15\u0c3f\u0c02\u0c26\u0c4d\u0c30\u0c3e\u0c2c\u0c3e\u0c26\u0c4d \u0c1c\u0c02\u0c15\u0c4d\u0c37\u0c28\u0c4d",
          "name:ur": "\u0633\u06a9\u0646\u062f\u0631\u0622\u0628\u0627\u062f \u062c\u0646\u06a9\u0634\u0646",
          "public_transport": "stop_position",
          "railway": "stop",
          "ref": "8",
          "train": "yes"
        }
      },
      {
        "type": "node",
        "id": 2212573775,
        "lat": 17.4337186,
        "lon": 78.5027557,
        "tags": {
          "name": "Secunderabad Junction",
          "name:hi": "\u0938\u093f\u0915\u0902\u0926\u0930\u093e\u092c\u093e\u0926 \u091c\u0902\u0915\u094d\u0936\u0928",
          "name:kn": "\u0cb8\u0cbf\u0c95\u0c82\u0ca6\u0cb0\u0cbe\u0cac\u0cbe\u0ca6\u0ccd \u0c9c\u0c82\u0c95\u0ccd\u0cb7\u0ca8\u0ccd",
          "name:ml": "\u0d38\u0d46\u0d15\u0d4d\u0d15\u0d28\u0d4d\u0d24\u0d30\u0d3e\u0d2c\u0d3e\u0d26\u0d4d \u0d1c\u0d02\u0d17\u0d4d\u0d37\u0d7b",
          "name:ta": "\u0b9a\u0bc6\u0b95\u0ba8\u0bcd\u0ba4\u0bbf\u0bb0\u0bbe\u0baa\u0bbe\u0ba4\u0bcd \u0b9a\u0ba8\u0bcd\u0ba4\u0bbf\u0baa\u0bcd\u0baa\u0bc1",
          "name:te": "\u0c38\u0c3f\u0c15\u0c3f\u0c02\u0c26\u0c4d\u0c30\u0c3e\u0c2c\u0c3e\u0c26\u0c4d \u0c1c\u0c02\u0c15\u0c4d\u0c37\u0c28\u0c4d",
          "name:ur": "\u0633\u06a9\u0646\u062f\u0631\u0622\u0628\u0627\u062f \u062c\u0646\u06a9\u0634\u0646",
          "public_transport": "stop_position",
          "railway": "stop",
          "ref": "2",
          "train": "yes"
        }
      },
      {
        "type": "node",
        "id": 2390894252,
        "lat": 17.4338339,
        "lon": 78.499501,
        "tags": {
          "name": "Secunderabad West",
          "name:te": "\u0c38\u0c3f\u0c15\u0c3f\u0c02\u0c26\u0c4d\u0c30\u0c3e\u0c2c\u0c3e\u0c26\u0c4d \u0c35\u0c46\u0c38\u0c4d\u0c1f\u0c4d",
          "network": "Hyderabad Metro",
          "note": "Contributors are requested to not edit the \"network\" and the \"operator\" tags. (2023/11/08)",
          "operator": "Hyderabad Metro Rail Limited",
          "public_transport": "stop_position",
          "railway": "stop",
          "subway": "yes"
        }
      },
      {
        "type": "node",
        "id": 2390894256,
        "lat": 17.4070448,
        "lon": 78.4967721,
        "tags": {
          "name": "RTC Cross Roads",
          "name:te": "\u0c06\u0c30\u0c4d \u0c1f\u0c40 \u0c38\u0c3f \u0c15\u0c4d\u0c30\u0c3e\u0c38\u0c4d \u0c30\u0c4b\u0c21\u0c4d\u0c38\u0c4d",
          "network": "Hyderabad Metro",
          "note": "Contributors are requested to not edit the \"network\" and the \"operator\" tags. (2023/11/08)",
          "operator": "Hyderabad Metro Rail Limited",
          "public_transport": "stop_position",
          "subway": "yes"
        }
      },
      {
        "type": "node",
        "id": 2390894266,
        "lat": 17.4003684,
        "lon": 78.4948742,
        "tags": {
          "name": "Chikkadpally",
          "name:ml": "\u0d1a\u0d3f\u0d15\u0d4d\u0d15\u0d1f\u0d2a\u0d4d\u0d2a\u0d33\u0d4d\u0d33\u0d3f",
          "name:te": "\u0c1a\u0c3f\u0c15\u0c4d\u0c15\u0c21\u0c2a\u0c32\u0c4d\u0c32\u0c3f",
          "network": "Hyderabad Metro",
          "note": "Contributors are requested to not edit the \"network\" and the \"operator\" tags. (2023/11/08)",
          "operator": "Hyderabad Metro Rail Limited",
          "public_transport": "stop_position",
          "subway": "yes"
        }
      },
      {
        "type": "node",
        "id": 2578026375,
        "lat": 17.4066792,
        "lon": 78.4986216,
        "tags": {
          "amenity": "bus_station",
          "bus": "yes",
          "name": "TSRTC BUS BHAVAN",
          "public_transport": "station"
        }
      },
      {
        "type": "node",
        "id": 2779381745,
        "lat": 17.4125624,
        "lon": 78.4796126,
        "tags": {
          "amenity": "fuel",
          "name": "Hindustan Pertoleum"
        }
      },
      {
        "type": "node",
        "id": 3200943741,
        "lat": 17.4244702,
        "lon": 78.4917485,
        "tags": {
          "amenity": "fuel"
        }
      },
      {
        "type": "node",
        "id": 3200948743,
        "lat": 17.4273857,
        "lon": 78.5018327,
        "tags": {
          "amenity": "fuel",
          "brand": "Bharat Petroleum",
          "brand:wikidata": "Q854826",
          "name": "Bharat Petroleum"
        }
      },
      {
        "type": "node",
        "id": 3782524808,
        "lat": 17.4187247,
        "lon": 78.5200434,
        "tags": {
          "name": "Arts College",
          "public_transport": "stop_position",
          "railway": "stop",
          "ref": "2",
          "train": "yes"
        }
      },
      {
        "type": "node",
        "id": 4415288812,
        "lat": 17.3994754,
        "lon": 78.4920506,
        "tags": {
          "amenity": "fuel",
          "name": "petrol bunk",
          "name:en": "petrol bunk"
        }
      },
      {
        "type": "node",
        "id": 4415337591,
        "lat": 17.4005718,
        "lon": 78.4882961,
        "tags": {
          "amenity": "fuel"
        }
      },
      {
        "type": "node",
        "id": 4416333791,
        "lat": 17.432773,
        "lon": 78.4929081,
        "tags": {
          "amenity": "fuel",
          "name": "petrol bunk",
          "name:en": "petrol bunk"
        }
      },
      {
        "type": "node",
        "id": 4436525192,
        "lat": 17.3994358,
        "lon": 78.492022,
        "tags": {
          "amenity": "fuel"
        }
      },
      {
        "type": "node",
        "id": 4436525398,
        "lat": 17.4092721,
        "lon": 78.4979738,
        "tags": {
          "amenity": "fuel",
          "brand": "Bharat Petroleum",
          "brand:wikidata": "Q854826",
          "name": "Bharat Petroleum"
        }
      },
      {
        "type": "node",
        "id": 5787787701,
        "lat": 17.4337798,
        "lon": 78.4995347,
        "tags": {
          "name": "Secunderabad West",
          "name:te": "\u0c38\u0c3f\u0c15\u0c3f\u0c02\u0c26\u0c4d\u0c30\u0c3e\u0c2c\u0c3e\u0c26\u0c4d \u0c35\u0c46\u0c38\u0c4d\u0c1f\u0c4d",
          "network": "Hyderabad Metro",
          "note": "Contributors are requested to not edit the \"network\" and the \"operator\" tags. (2023/11/08)",
          "operator": "Hyderabad Metro Rail Limited",
          "public_transport": "stop_position",
          "railway": "stop",
          "subway": "yes"
        }
      },
      {
        "type": "node",
        "id": 5787787745,
        "lat": 17.4070193,
        "lon": 78.4968324,
        "tags": {
          "name": "RTC Cross Roads",
          "name:te": "\u0c06\u0c30\u0c4d \u0c1f\u0c40 \u0c38\u0c3f \u0c15\u0c4d\u0c30\u0c3e\u0c38\u0c4d \u0c30\u0c4b\u0c21\u0c4d\u0c38\u0c4d",
          "network": "Hyderabad Metro",
          "note": "Contributors are requested to not edit the \"network\" and the \"operator\" tags. (2023/11/08)",
          "operator": "Hyderabad Metro Rail Limited",
          "public_transport": "stop_position",
          "subway": "yes"
        }
      },
      {
        "type": "node",
        "id": 5787787751,
        "lat": 17.4003567,
        "lon": 78.4949221,
        "tags": {
          "name": "Chikkadpally",
          "name:ml": "\u0d1a\u0d3f\u0d15\u0d4d\u0d15\u0d1f\u0d2a\u0d4d\u0d2a\u0d33\u0d4d\u0d33\u0d3f",
          "name:te": "\u0c1a\u0c3f\u0c15\u0c4d\u0c15\u0c21\u0c2a\u0c32\u0c4d\u0c32\u0c3f",
          "network": "Hyderabad Metro",
          "note": "Contributors are requested to not edit the \"network\" and the \"operator\" tags. (2023/11/08)",
          "operator": "Hyderabad Metro Rail Limited",
          "public_transport": "stop_position",
          "subway": "yes"
        }
      },
      {
        "type": "node",
        "id": 5919924190,
        "lat": 17.4106646,
        "lon": 78.4821106,
        "tags": {
          "amenity": "theatre",
          "name": "Vivekananda Auditorium",
          "name:etymology:wikidata": "Q47478"
        }
      },
      {
        "type": "node",
        "id": 6308287071,
        "lat": 17.4122959,
        "lon": 78.4792256,
        "tags": {
          "amenity": "fuel",
          "name": "Hindustan Pertoleum"
        }
      },
      {
        "type": "node",
        "id": 6624724909,
        "lat": 17.4187345,
        "lon": 78.5200045,
        "tags": {
          "name": "Arts College",
          "public_transport": "stop_position",
          "railway": "stop",
          "ref": "1",
          "train": "yes"
        }
      },
      {
        "type": "node",
        "id": 7195061311,
        "lat": 17.4255216,
        "lon": 78.5018818,
        "tags": {
          "name": "Gandhi Hospital",
          "name:te": "\u0c17\u0c3e\u0c02\u0c27\u0c40 \u0c39\u0c3e\u0c38\u0c4d\u0c2a\u0c3f\u0c1f\u0c32\u0c4d",
          "network": "Hyderabad Metro",
          "note": "Contributors are requested to not edit the \"network\" and the \"operator\" tags. (2023/11/08)",
          "operator": "Hyderabad Metro Rail Limited",
          "public_transport": "stop_position",
          "subway": "yes"
        }
      },
      {
        "type": "node",
        "id": 7195061312,
        "lat": 17.4178876,
        "lon": 78.4994715,
        "tags": {
          "name": "Musheerabad",
          "name:te": "\u0c2e\u0c41\u0c37\u0c40\u0c30\u0c3e\u0c2c\u0c3e\u0c26\u0c4d",
          "network": "Hyderabad Metro",
          "note": "Contributors are requested to not edit the \"network\" and the \"operator\" tags. (2023/11/08)",
          "operator": "Hyderabad Metro Rail Limited",
          "public_transport": "stop_position",
          "subway": "yes"
        }
      },
      {
        "type": "node",
        "id": 7195061317,
        "lat": 17.394371,
        "lon": 78.4899387,
        "tags": {
          "name": "Narayanaguda",
          "name:te": "\u0c28\u0c3e\u0c30\u0c3e\u0c2f\u0c23\u0c17\u0c42\u0c21",
          "network": "Hyderabad Metro",
          "note": "Contributors are requested to not edit the \"network\" and the \"operator\" tags. (2023/11/08)",
          "operator": "Hyderabad Metro Rail Limited",
          "public_transport": "stop_position",
          "subway": "yes"
        }
      },
      {
        "type": "node",
        "id": 7206794919,
        "lat": 17.4070321,
        "lon": 78.4968023,
        "tags": {
          "name": "RTC Cross Roads",
          "name:ml": "\u0d06\u0d7c \u0d1f\u0d3f \u0d38\u0d3f \u0d15\u0d4d\u0d30\u0d4b\u0d38\u0d4d \u0d31\u0d4b\u0d21\u0d4d\u0d38\u0d4d",
          "name:te": "\u0c06\u0c30\u0c4d \u0c1f\u0c40 \u0c38\u0c3f \u0c15\u0c4d\u0c30\u0c3e\u0c38\u0c4d \u0c30\u0c4b\u0c21\u0c4d\u0c38\u0c4d",
          "network": "Hyderabad Metro",
          "note": "Contributors are requested to not edit the \"network\" and the \"operator\" tags. (2023/11/08)",
          "operator": "Hyderabad Metro Rail Limited",
          "public_transport": "station",
          "railway": "station",
          "station": "subway",
          "subway": "yes",
          "wikidata": "Q108874753"
        }
      },
      {
        "type": "node",
        "id": 7358663500,
        "lat": 17.3943607,
        "lon": 78.489976,
        "tags": {
          "name": "Narayanaguda",
          "name:te": "\u0c28\u0c3e\u0c30\u0c3e\u0c2f\u0c23\u0c17\u0c42\u0c21",
          "network": "Hyderabad Metro",
          "note": "Contributors are requested to not edit the \"network\" and the \"operator\" tags. (2023/11/08)",
          "operator": "Hyderabad Metro Rail Limited",
          "public_transport": "stop_position",
          "subway": "yes"
        }
      },
      {
        "type": "node",
        "id": 7358663501,
        "lat": 17.3943658,
        "lon": 78.4899578,
        "tags": {
          "name": "Narayanaguda",
          "name:ml": "\u0d28\u0d3e\u0d30\u0d3e\u0d2f\u0d23\u0d17\u0d41\u0d21",
          "name:te": "\u0c28\u0c3e\u0c30\u0c3e\u0c2f\u0c23\u0c17\u0c42\u0c21",
          "network": "Hyderabad Metro",
          "note": "Contributors are requested to not edit the \"network\" and the \"operator\" tags. (2023/11/08)",
          "operator": "Hyderabad Metro Rail Limited",
          "railway": "station",
          "station": "subway",
          "subway": "yes",
          "wikidata": "Q108874763"
        }
      },
      {
        "type": "node",
        "id": 7358663502,
        "lat": 17.4003634,
        "lon": 78.4948964,
        "tags": {
          "name": "Chikkadpally",
          "name:ml": "\u0d1a\u0d3f\u0d15\u0d4d\u0d15\u0d1f\u0d2a\u0d4d\u0d2a\u0d33\u0d4d\u0d33\u0d3f",
          "name:te": "\u0c1a\u0c3f\u0c15\u0c4d\u0c15\u0c21\u0c2a\u0c32\u0c4d\u0c32\u0c3f",
          "network": "Hyderabad Metro",
          "note": "Contributors are requested to not edit the \"network\" and the \"operator\" tags. (2023/11/08)",
          "operator": "Hyderabad Metro Rail Limited",
          "railway": "station",
          "station": "subway",
          "subway": "yes",
          "wikidata": "Q108874757"
        }
      },
      {
        "type": "node",
        "id": 7358663503,
        "lat": 17.4178744,
        "lon": 78.4995051,
        "tags": {
          "name": "Musheerabad",
          "name:ml": "\u0d2e\u0d41\u0d37\u0d40\u0d31\u0d3e\u0d2c\u0d3e\u0d26\u0d4d",
          "name:te": "\u0c2e\u0c41\u0c37\u0c40\u0c30\u0c3e\u0c2c\u0c3e\u0c26\u0c4d",
          "network": "Hyderabad Metro",
          "note": "Contributors are requested to not edit the \"network\" and the \"operator\" tags. (2023/11/08)",
          "operator": "Hyderabad Metro Rail Limited",
          "railway": "station",
          "station": "subway",
          "subway": "yes",
          "wikidata": "Q84890478"
        }
      },
      {
        "type": "node",
        "id": 7358663504,
        "lat": 17.4178644,
        "lon": 78.4995327,
        "tags": {
          "name": "Musheerabad",
          "name:te": "\u0c2e\u0c41\u0c37\u0c40\u0c30\u0c3e\u0c2c\u0c3e\u0c26\u0c4d",
          "network": "Hyderabad Metro",
          "note": "Contributors are requested to not edit the \"network\" and the \"operator\" tags. (2023/11/08)",
          "operator": "Hyderabad Metro Rail Limited",
          "public_transport": "stop_position",
          "subway": "yes"
        }
      },
      {
        "type": "node",
        "id": 7358663505,
        "lat": 17.4255191,
        "lon": 78.5019187,
        "tags": {
          "name": "Gandhi Hospital",
          "name:te": "\u0c17\u0c3e\u0c02\u0c27\u0c40 \u0c39\u0c3e\u0c38\u0c4d\u0c2a\u0c3f\u0c1f\u0c32\u0c4d",
          "network": "Hyderabad Metro",
          "note": "Contributors are requested to not edit the \"network\" and the \"operator\" tags. (2023/11/08)",
          "operator": "Hyderabad Metro Rail Limited",
          "public_transport": "stop_position",
          "subway": "yes"
        }
      },
      {
        "type": "node",
        "id": 7358663506,
        "lat": 17.4255155,
        "lon": 78.501956,
        "tags": {
          "name": "Gandhi Hospital",
          "name:ml": "\u0d17\u0d3e\u0d28\u0d4d\u0d27\u0d3f \u0d39\u0d4b\u0d38\u0d4d\u0d2a\u0d3f\u0d31\u0d4d\u0d31\u0d7d",
          "name:te": "\u0c17\u0c3e\u0c02\u0c27\u0c40 \u0c39\u0c3e\u0c38\u0c4d\u0c2a\u0c3f\u0c1f\u0c32\u0c4d",
          "network": "Hyderabad Metro",
          "note": "Contributors are requested to not edit the \"network\" and the \"operator\" tags. (2023/11/08)",
          "operator": "Hyderabad Metro Rail Limited",
          "railway": "station",
          "station": "subway",
          "subway": "yes",
          "wikidata": "Q84766563"
        }
      },
      {
        "type": "node",
        "id": 7358663518,
        "lat": 17.4338034,
        "lon": 78.4995181,
        "tags": {
          "name": "Secunderabad West",
          "name:ml": "\u0d38\u0d46\u0d15\u0d4d\u0d15\u0d28\u0d4d\u0d26\u0d4d\u0d30\u0d3e\u0d2c\u0d3e\u0d26\u0d4d \u0d35\u0d46\u0d38\u0d4d\u0d31\u0d4d\u0d31\u0d4d",
          "name:te": "\u0c38\u0c3f\u0c15\u0c3f\u0c02\u0c26\u0c4d\u0c30\u0c3e\u0c2c\u0c3e\u0c26\u0c4d \u0c35\u0c46\u0c38\u0c4d\u0c1f\u0c4d",
          "name:ur": "\u0633\u06a9\u0646\u062f\u0631 \u0622\u0628\u0627\u062f \u0648\u06cc\u0633\u0679",
          "network": "Hyderabad Metro",
          "note": "Contributors are requested to not edit the \"network\" and the \"operator\" tags. (2023/11/08)",
          "operator": "Hyderabad Metro Rail Limited",
          "public_transport": "station",
          "railway": "station",
          "station": "subway",
          "subway": "yes",
          "wikidata": "Q108874730"
        }
      },
      {
        "type": "node",
        "id": 10252989488,
        "lat": 17.4338591,
        "lon": 78.502051,
        "tags": {
          "addr:city": "Secunderabad",
          "addr:postcode": "500003",
          "addr:street": "Station Road",
          "internet_access": "wlan",
          "internet_access:fee": "yes",
          "internet_access:ssid": "Rail Wire Free Wi-Fi",
          "name": "Secunderabad Junction",
          "name:hi": "\u0938\u093f\u0915\u0902\u0926\u0930\u093e\u092c\u093e\u0926 \u091c\u0902\u0915\u094d\u0936\u0928",
          "name:kn": "\u0cb8\u0cbf\u0c95\u0c82\u0ca6\u0cb0\u0cbe\u0cac\u0cbe\u0ca6\u0ccd \u0c9c\u0c82\u0c95\u0ccd\u0cb7\u0ca8\u0ccd",
          "name:ml": "\u0d38\u0d46\u0d15\u0d4d\u0d15\u0d28\u0d4d\u0d24\u0d30\u0d3e\u0d2c\u0d3e\u0d26\u0d4d \u0d1c\u0d02\u0d17\u0d4d\u0d37\u0d7b",
          "name:ta": "\u0b9a\u0bc6\u0b95\u0ba8\u0bcd\u0ba4\u0bbf\u0bb0\u0bbe\u0baa\u0bbe\u0ba4\u0bcd \u0b9a\u0ba8\u0bcd\u0ba4\u0bbf\u0baa\u0bcd\u0baa\u0bc1",
          "name:te": "\u0c38\u0c3f\u0c15\u0c3f\u0c02\u0c26\u0c4d\u0c30\u0c3e\u0c2c\u0c3e\u0c26\u0c4d \u0c1c\u0c02\u0c15\u0c4d\u0c37\u0c28\u0c4d",
          "name:ur": "\u0633\u06a9\u0646\u062f\u0631 \u0622\u0628\u0627\u062f \u062c\u0646\u06a9\u0634\u0646",
          "network": "Indian Railways",
          "operator": "South Central Railway",
          "platforms": "10",
          "public_transport": "station",
          "railway": "station",
          "ref": "SC",
          "train": "yes",
          "wheelchair": "yes",
          "wikidata": "Q7444810",
          "wikipedia": "en:Secunderabad Junction railway station"
        }
      },
      {
        "type": "node",
        "id": 10789525452,
        "lat": 17.396027,
        "lon": 78.4898863,
        "tags": {
          "amenity": "cinema",
          "name": "Shanti Cinema Theatre"
        }
      },
      {
        "type": "node",
        "id": 10789553717,
        "lat": 17.4070181,
        "lon": 78.4973309,
        "tags": {
          "amenity": "cinema",
          "name": "Sandhya 70mm"
        }
      },
      {
        "type": "node",
        "id": 10992500541,
        "lat": 17.3921316,
        "lon": 78.5011455,
        "tags": {
          "amenity": "bus_station",
          "bus": "yes",
          "name": "TSRTC BUS DEPOT , BARKATPURA",
          "public_transport": "station"
        }
      },
      {
        "type": "node",
        "id": 10992500542,
        "lat": 17.4063252,
        "lon": 78.5001204,
        "tags": {
          "amenity": "bus_station",
          "bus": "yes",
          "name": "TSRTC WORKSHOP , RTC X ROADS",
          "public_transport": "station"
        }
      },
      {
        "type": "node",
        "id": 10992500543,
        "lat": 17.4081874,
        "lon": 78.5036561,
        "tags": {
          "amenity": "bus_station",
          "bus": "yes",
          "name": "TSRTC BUS DEPOT, MUSHEERABAD 2",
          "public_transport": "station"
        }
      },
      {
        "type": "node",
        "id": 10992500544,
        "lat": 17.4077647,
        "lon": 78.5018495,
        "tags": {
          "amenity": "bus_station",
          "bus": "yes",
          "name": "TSRTC BUS DEPOT, HYDERABAD",
          "public_transport": "station"
        }
      },
      {
        "type": "node",
        "id": 10992500569,
        "lat": 17.4043212,
        "lon": 78.5102865,
        "tags": {
          "amenity": "bus_station",
          "bus": "yes",
          "name": "VIDYANAGAR BUS STOP",
          "public_transport": "station"
        }
      },
      {
        "type": "node",
        "id": 10992500570,
        "lat": 17.4043258,
        "lon": 78.5104757,
        "tags": {
          "amenity": "bus_station",
          "bus": "yes",
          "name": "VIDYANAGAR BUS STOP",
          "public_transport": "station"
        }
      },
      {
        "type": "node",
        "id": 12114475162,
        "lat": 17.411607,
        "lon": 78.5182729,
        "tags": {
          "name": "Jamai Osmania",
          "public_transport": "stop_position",
          "ref": "1",
          "train": "yes"
        }
      },
      {
        "type": "node",
        "id": 12114475163,
        "lat": 17.411598,
        "lon": 78.5183194,
        "tags": {
          "name": "Jamai Osmania",
          "public_transport": "stop_position",
          "ref": "2",
          "train": "yes"
        }
      },
      {
        "type": "node",
        "id": 12114475164,
        "lat": 17.4019659,
        "lon": 78.5111109,
        "tags": {
          "name": "Vidyanagar",
          "public_transport": "stop_position",
          "ref": "1",
          "train": "yes"
        }
      },
      {
        "type": "node",
        "id": 12114475165,
        "lat": 17.4019337,
        "lon": 78.5111472,
        "tags": {
          "name": "Vidyanagar",
          "public_transport": "stop_position",
          "ref": "2",
          "train": "yes"
        }
      },
      {
        "type": "node",
        "id": 12114475167,
        "lat": 17.3900344,
        "lon": 78.5007123,
        "tags": {
          "name": "Kacheguda",
          "public_transport": "stop_position",
          "ref": "5",
          "train": "yes"
        }
      },
      {
        "type": "node",
        "id": 12114475168,
        "lat": 17.3901182,
        "lon": 78.5006124,
        "tags": {
          "name": "Kacheguda",
          "public_transport": "stop_position",
          "ref": "4",
          "train": "yes"
        }
      },
      {
        "type": "node",
        "id": 12114475169,
        "lat": 17.3901459,
        "lon": 78.5005747,
        "tags": {
          "name": "Kacheguda",
          "public_transport": "stop_position",
          "ref": "3",
          "train": "yes"
        }
      },
      {
        "type": "node",
        "id": 12114475170,
        "lat": 17.3902324,
        "lon": 78.5004753,
        "tags": {
          "name": "Kacheguda",
          "public_transport": "stop_position",
          "ref": "2",
          "train": "yes"
        }
      },
      {
        "type": "node",
        "id": 12114475171,
        "lat": 17.3902647,
        "lon": 78.5004391,
        "tags": {
          "name": "Kacheguda",
          "public_transport": "stop_position",
          "ref": "1",
          "train": "yes"
        }
      }
    ]
  }
}