{
  "pois_1km": {
    "version": 0.6,
    "generator": "Overpass API 0.7.62.8 e802775f",
    "osm3s": {
      "timestamp_osm_base": "2025-09-06T08:55:22Z",
      "copyright": "The data included in this document is from www.openstreetmap.org. The data is made available under ODbL."
    },
    "elements": [
      {
        "type": "node",
        "id": 762995567,
        "lat": 17.441951,
        "lon": 78.4855009,
        "tags": {
          "amenity": "restaurant",
          "cuisine": "indian",
          "name": "Chatees 36"
        }
      },
      {
        "type": "node",
        "id": 813571102,
        "lat": 17.4433171,
        "lon": 78.4768552,
        "tags": {
          "amenity": "bank",
          "atm": "yes",
          "branch": "SP Road",
          "brand": "SBI",
          "brand:wikidata": "Q1340361",
          "brand:wikipedia": "en:State Bank of India",
          "name": "State Bank of India",
          "operator": "State Bank of India",
          "short_name": "SBI"
        }
      },
      {
        "type": "node",
        "id": 813571150,
        "lat": 17.4436222,
        "lon": 78.4802638,
        "tags": {
          "amenity": "atm",
          "operator": "Citibank"
        }
      },
      {
        "type": "node",
        "id": 817353632,
        "lat": 17.4432794,
        "lon": 78.4798416,
        "tags": {
          "amenity": "fast_food",
          "cuisine": "pizza",
          "name": "Pizza Hut"
        }
      },
      {
        "type": "node",
        "id": 817354552,
        "lat": 17.4436154,
        "lon": 78.4804254,
        "tags": {
          "amenity": "pharmacy",
          "dispensing": "no",
          "name": "Apollo"
        }
      },
      {
        "type": "node",
        "id": 891324851,
        "lat": 17.4419971,
        "lon": 78.4858784,
        "tags": {
          "amenity": "restaurant",
          "diet:vegetarian": "only",
          "name": "Chilly's Restaurant"
        }
      },
      {
        "type": "node",
        "id": 902311097,
        "lat": 17.4432714,
        "lon": 78.4787687,
        "tags": {
          "amenity": "restaurant",
          "brand": "Subway",
          "brand:pa": "\u0a38\u0a2c\u0a35\u0a47\u0a05",
          "brand:ur": "\u0633\u0628 \u0648\u06d2",
          "brand:wikidata": "Q244457",
          "brand:wikipedia": "en:Subway (restaurant)",
          "cuisine": "sandwich",
          "name": "Subway",
          "name:pa": "\u0a38\u0a2c\u0a35\u0a47\u0a05",
          "name:ur": "\u0633\u0628 \u0648\u06d2"
        }
      },
      {
        "type": "node",
        "id": 902311098,
        "lat": 17.4432919,
        "lon": 78.4790047,
        "tags": {
          "amenity": "fast_food",
          "cuisine": "pizza",
          "name": "Pizza Corner"
        }
      },
      {
        "type": "node",
        "id": 902311099,
        "lat": 17.4432817,
        "lon": 78.4788867,
        "tags": {
          "amenity": "restaurant",
          "cuisine": "coffee_shop",
          "name": "Barista"
        }
      },
      {
        "type": "node",
        "id": 2014860754,
        "lat": 17.4432367,
        "lon": 78.4795372,
        "tags": {
          "amenity": "fast_food",
          "brand": "Domino's",
          "brand:ks": "\u0688\u0648\u0645\u06cc\u0646\u0648\u0632",
          "brand:pa": "\u0a21\u0a4b\u0a2e\u0a40\u0a28\u0a4b\u0a1c\u0a3c",
          "brand:ur": "\u0688\u0648\u0645\u06cc\u0646\u0648\u0632",
          "brand:wikidata": "Q839466",
          "brand:wikipedia": "en:Domino's Pizza",
          "cuisine": "pizza",
          "name": "Domino's",
          "name:ks": "\u0688\u0648\u0645\u06cc\u0646\u0648\u0632",
          "name:pa": "\u0a21\u0a4b\u0a2e\u0a40\u0a28\u0a4b\u0a1c\u0a3c",
          "name:ur": "\u0688\u0648\u0645\u06cc\u0646\u0648\u0632"
        }
      },
      {
        "type": "node",
        "id": 2014860758,
        "lat": 17.4431928,
        "lon": 78.4800077,
        "tags": {
          "amenity": "restaurant",
          "cuisine": "indian",
          "name": "Chutneys"
        }
      },
      {
        "type": "node",
        "id": 2794664336,
        "lat": 17.4418334,
        "lon": 78.4854476,
        "tags": {
          "amenity": "bank",
          "atm": "yes",
          "brand": "HDFC Bank",
          "brand:wikidata": "Q631047",
          "brand:wikipedia": "en:HDFC Bank",
          "name": "HDFC Bank",
          "short_name": "HDFC",
          "website": "https://www.hdfcbank.com"
        }
      },
      {
        "type": "node",
        "id": 2794664339,
        "lat": 17.440247,
        "lon": 78.4854909,
        "tags": {
          "amenity": "atm",
          "name": "State Bank of Hyderabad (ATM)"
        }
      },
      {
        "type": "node",
        "id": 2794745057,
        "lat": 17.4401842,
        "lon": 78.4818181,
        "tags": {
          "name": "Heritage Fresh",
          "shop": "supermarket"
        }
      },
      {
        "type": "node",
        "id": 2794745060,
        "lat": 17.4402139,
        "lon": 78.4817062,
        "tags": {
          "amenity": "atm",
          "name": "ICICI Bank (ATM)"
        }
      },
      {
        "type": "node",
        "id": 2794745063,
        "lat": 17.4404871,
        "lon": 78.4819554,
        "tags": {
          "amenity": "pharmacy",
          "name": "Shalini Pharmacy"
        }
      },
      {
        "type": "node",
        "id": 2794745066,
        "lat": 17.4401111,
        "lon": 78.4824751,
        "tags": {
          "amenity": "pharmacy",
          "name": "Bhavani Medical Stores"
        }
      },
      {
        "type": "node",
        "id": 2794745076,
        "lat": 17.440072,
        "lon": 78.4836573,
        "tags": {
          "amenity": "fast_food",
          "name": "Hot Chips"
        }
      },
      {
        "type": "node",
        "id": 3010475742,
        "lat": 17.4440891,
        "lon": 78.4695349,
        "tags": {
          "amenity": "bank",
          "atm": "yes",
          "brand:wikidata": "Q2003476",
          "brand:wikipedia": "en:Andhra Bank",
          "name": "Andhra Bank",
          "name:en": "Andhra Bank",
          "website": "https://www.andhrabank.in"
        }
      },
      {
        "type": "node",
        "id": 3010475772,
        "lat": 17.4440522,
        "lon": 78.4691906,
        "tags": {
          "addr:street": "Airport Flyover",
          "amenity": "cafe",
          "name": "HeartCup Coffee"
        }
      },
      {
        "type": "node",
        "id": 3847458511,
        "lat": 17.4439245,
        "lon": 78.470823,
        "tags": {
          "amenity": "clinic",
          "name": "Dr. Prakash Bhatia, Dr. Chandra Bhatia",
          "opening_hours": "Mo-Sa 10:00-12:00,19:00-21:00; Su 10:00-12:00"
        }
      },
      {
        "type": "node",
        "id": 4196826121,
        "lat": 17.4405743,
        "lon": 78.485778,
        "tags": {
          "amenity": "restaurant",
          "cuisine": "South_Indian",
          "name": "Anand Bhavan",
          "name:te": "\u0c06\u0c28\u0c02\u0c26\u0c4d \u0c2d\u0c35\u0c28\u0c4d",
          "smoking": "outside",
          "takeaway": "yes"
        }
      },
      {
        "type": "node",
        "id": 4196826123,
        "lat": 17.4409028,
        "lon": 78.4859077,
        "tags": {
          "amenity": "restaurant",
          "cuisine": "south_Indian",
          "name": "Rang Rasiya",
          "name:te": "\u0c30\u0c02\u0c17\u0c4d \u0c30\u0c38\u0c3f\u0c2f\u0c3e",
          "phone": "+91 9912227868",
          "smoking": "no",
          "takeaway": "yes"
        }
      },
      {
        "type": "node",
        "id": 4389398990,
        "lat": 17.4449576,
        "lon": 78.4704074,
        "tags": {
          "addr:street": "street number 1",
          "amenity": "bank",
          "brand": "ICICI",
          "brand:wikidata": "Q1653258",
          "name": "ICICI Bank",
          "name:en": "ICICI Bank",
          "short_name": "ICICI",
          "website": "https://www.icicibank.com",
          "wikidata": "Q1653258",
          "wikipedia": "en:ICICI Bank"
        }
      },
      {
        "type": "node",
        "id": 4614309652,
        "lat": 17.4406542,
        "lon": 78.4806992,
        "tags": {
          "amenity": "bank",
          "atm": "yes",
          "branch": "Sindhi Colony",
          "brand": "ICICI",
          "brand:wikidata": "Q1653258",
          "name": "ICICI Bank",
          "name:en": "ICICI Bank",
          "short_name": "ICICI",
          "website": "https://www.icicibank.com",
          "wikidata": "Q1653258",
          "wikipedia": "en:ICICI Bank"
        }
      },
      {
        "type": "node",
        "id": 4614310917,
        "lat": 17.440538,
        "lon": 78.4817501,
        "tags": {
          "amenity": "cafe",
          "name": "Cafe Coffee Day"
        }
      },
      {
        "type": "node",
        "id": 4614311068,
        "lat": 17.4411766,
        "lon": 78.4821203,
        "tags": {
          "amenity": "bank",
          "atm": "yes",
          "brand:wikidata": "Q2003476",
          "brand:wikipedia": "en:Andhra Bank",
          "name": "Andhra Bank",
          "name:en": "Andhra Bank",
          "website": "https://www.andhrabank.in"
        }
      },
      {
        "type": "node",
        "id": 4614311148,
        "lat": 17.440592,
        "lon": 78.4820593,
        "tags": {
          "amenity": "restaurant",
          "name": "Om Siddhi Vinayak Tiffin Centre"
        }
      },
      {
        "type": "node",
        "id": 4614311149,
        "lat": 17.4402511,
        "lon": 78.4820918,
        "tags": {
          "amenity": "fast_food",
          "name": "San's Pizza Den"
        }
      },
      {
        "type": "node",
        "id": 4614311308,
        "lat": 17.4406414,
        "lon": 78.4808181,
        "tags": {
          "amenity": "bank",
          "atm": "yes",
          "branch": "Sindhi Colony",
          "brand": "SBI",
          "brand:wikidata": "Q1340361",
          "brand:wikipedia": "en:State Bank of India",
          "name": "State Bank of India",
          "short_name": "SBI"
        }
      },
      {
        "type": "node",
        "id": 4614311310,
        "lat": 17.4402864,
        "lon": 78.4797682,
        "tags": {
          "amenity": "pharmacy",
          "name": "Kamakshi Medicals"
        }
      },
      {
        "type": "node",
        "id": 4614311358,
        "lat": 17.4444782,
        "lon": 78.469498,
        "tags": {
          "addr:district": "Hyderabad",
          "addr:full": "SP Road, Near Begumpet Old Airport, Begumpet",
          "addr:postcode": "500016",
          "addr:state": "Telangana",
          "amenity": "hospital",
          "medical_system": "Allopathic",
          "name": "Pace Hospital",
          "operator:type": "private",
          "phone": "040 66171717; 040 27764646",
          "source": "OpenGovernmentData"
        }
      },
      {
        "type": "node",
        "id": 4614311359,
        "lat": 17.4432496,
        "lon": 78.4777365,
        "tags": {
          "amenity": "restaurant",
          "cuisine": "chinese",
          "name": "Bowl O'China"
        }
      },
      {
        "type": "node",
        "id": 4614311389,
        "lat": 17.4432617,
        "lon": 78.4756997,
        "tags": {
          "amenity": "bank",
          "atm": "yes",
          "name": "Citibank"
        }
      },
      {
        "type": "node",
        "id": 4614311393,
        "lat": 17.4437546,
        "lon": 78.47364,
        "tags": {
          "amenity": "bank",
          "atm": "yes",
          "brand:wikidata": "Q2040323",
          "brand:wikipedia": "en:IndusInd Bank",
          "name": "IndusInd Bank",
          "name:en": "IndusInd Bank",
          "website": "https://www.indusind.com"
        }
      },
      {
        "type": "node",
        "id": 4614442637,
        "lat": 17.4398266,
        "lon": 78.4841159,
        "tags": {
          "amenity": "clinic",
          "name": "Dr Mirchandani"
        }
      },
      {
        "type": "node",
        "id": 6477257408,
        "lat": 17.4451684,
        "lon": 78.4721151,
        "tags": {
          "addr:district": "Hyderabad",
          "addr:full": "K.S.Bhawan, Begumpet",
          "addr:state": "Telangana",
          "amenity": "clinic",
          "health_facility:type": "dispensary",
          "healthcare": "centre",
          "medical_system": "Allopathic",
          "name": "CGHS Dispensary No.IV,Begumpet",
          "operator:type": "public; government",
          "phone": "040 27904259",
          "source": "OpenGovernmentData",
          "website": "http://nb.bsf.gov.in/CGHS%20DIspenseries.pdf"
        }
      },
      {
        "type": "node",
        "id": 6482108938,
        "lat": 17.4432007,
        "lon": 78.4796964,
        "tags": {
          "addr:district": "Hyderabad",
          "addr:full": "Above Agrawala Sweets, Opp to Metro Pillar No 18, S.P. Road, Begumpet",
          "addr:postcode": "500003",
          "addr:state": "Telangana",
          "amenity": "hospital",
          "contact:mobile": "+91-9550003399; +91-9177550066.",
          "health_facility:type": "Arthritis;Sexual Problems;Thyroid Disorders;Respiratory Disorders;Skin Disorders;Female DisordersInfertility;Gastric Disorders;Kidney Problems;Auto Immune;Disorders",
          "healthcare:speciality": "homeopathy",
          "medical_system": "Ayush;Homeopathy",
          "name": "Homeocare International",
          "operator:type": "private",
          "source": "OpenGovernmentData",
          "website": "www.homeocares.com"
        }
      },
      {
        "type": "node",
        "id": 6527939380,
        "lat": 17.4403693,
        "lon": 78.4825905,
        "tags": {
          "addr:district": "Hyderabad",
          "addr:full": "Krishna Nagar Colony, Prenderghast Road",
          "addr:postcode": "500003",
          "addr:state": "Telangana",
          "amenity": "clinic",
          "fixme": "could someone locate the clinic accurately",
          "name": "VSM Day Eye Care Clinic",
          "source": "OpenGovernmentData"
        }
      },
      {
        "type": "node",
        "id": 6544062164,
        "lat": 17.4375378,
        "lon": 78.4758085,
        "tags": {
          "addr:district": "Hyderabad",
          "addr:full": "A qtrs Patigadda, Patigadda, Near Sanjeevaiah Park Railway Station",
          "addr:postcode": "500003",
          "addr:state": "Telangana",
          "addr:street": "Near Sanjeevaiah Park Railway Station",
          "addr:subdistrict": "Secunderabad",
          "amenity": "clinic",
          "name": "Urban Primary Health Centre, Gareeb Nagar",
          "source": "OpenGovernmentData"
        }
      },
      {
        "type": "node",
        "id": 6549358836,
        "lat": 17.4392005,
        "lon": 78.4803766,
        "tags": {
          "addr:district": "Hyderabad",
          "addr:full": "1-8-32/62 & 1-8-32/62/1, Minister Road, Secunderabad",
          "addr:postcode": "500003",
          "addr:state": "Telangana",
          "amenity": "hospital",
          "contact:phone": "040 66023111; 040 66023113",
          "name": "SECUNDERABAD WOMENS HOSPITAL",
          "operator:type": "private",
          "source": "OpenGovernmentData"
        }
      },
      {
        "type": "node",
        "id": 7707961938,
        "lat": 17.4341475,
        "lon": 78.4776261,
        "tags": {
          "access": "yes",
          "garden:type": "botanical",
          "leisure": "garden",
          "name": "Rose Garden",
          "name:te": "\u0c30\u0c4b\u0c38\u0c4d \u0c17\u0c3e\u0c30\u0c4d\u0c21\u0c46\u0c28\u0c4d"
        }
      },
      {
        "type": "node",
        "id": 7707961948,
        "lat": 17.4339667,
        "lon": 78.475705,
        "tags": {
          "access": "yes",
          "garden:type": "botanical",
          "leisure": "garden",
          "name": "Rock Garden",
          "name:te": "\u0c30\u0c3e\u0c15\u0c4d \u0c17\u0c3e\u0c30\u0c4d\u0c21\u0c46\u0c28\u0c4d @ \u0c38\u0c02\u0c1c\u0c40\u0c35\u0c4d \u0c2a\u0c3e\u0c30\u0c4d\u0c15\u0c4d"
        }
      },
      {
        "type": "node",
        "id": 8557123066,
        "lat": 17.4429633,
        "lon": 78.4771217,
        "tags": {
          "addr:housenumber": "kamala towers",
          "amenity": "bank",
          "name": "Tvs finance"
        }
      },
      {
        "type": "node",
        "id": 8760933526,
        "lat": 17.444713,
        "lon": 78.4691593,
        "tags": {
          "addr:district": "Medchal",
          "addr:full": "1-11-254, 2nd Floor, Rama Mansion Besides Pace Hospital, Motilal Nehru Nagar, Begumpet, Hyderabad",
          "addr:postcode": "500016",
          "addr:state": "Telangana",
          "amenity": "hospital",
          "name": "Pathcare Labs Pvt Ltd",
          "source": "Local Knowledge"
        }
      },
      {
        "type": "node",
        "id": 10994456803,
        "lat": 17.4372081,
        "lon": 78.4765585,
        "tags": {
          "addr:district": "Hyderabad",
          "addr:place": "Patigadda",
          "addr:state": "Telangana",
          "addr:street": "Near Sanjeevaiah Park Railway Station",
          "addr:subdistrict": "Secunderabad",
          "amenity": "clinic",
          "healthcare": "clinic",
          "name": "Urban Primary Health Centre, Gareeb Nagar",
          "operational_status": "operational",
          "operator:type": "government",
          "source": "OpenDataTelangana"
        }
      }
    ]
  },
  "pois_2_5km": {
    "version": 0.6,
    "generator": "Overpass API 0.7.62.8 e802775f",
    "osm3s": {
      "timestamp_osm_base": "2025-09-06T08:55:22Z",
      "copyright": "The data included in this document is from www.openstreetmap.org. The data is made available under ODbL."
    },
    "elements": [
      {
        "type": "node",
        "id": 289582012,
        "lat": 17.4245107,
        "lon": 78.4626514,
        "tags": {
          "name": "Necklace Road",
          "name:te": "\u0c28\u0c46\u0c15\u0c4d\u0c32\u0c46\u0c38\u0c4d \u0c30\u0c4b\u0c21\u0c4d\u0c21\u0c41",
          "public_transport": "stop_position",
          "railway": "stop",
          "ref": "1",
          "train": "yes"
        }
      },
      {
        "type": "node",
        "id": 289582401,
        "lat": 17.4233355,
        "lon": 78.4631857,
        "tags": {
          "internet_access": "no",
          "name": "Necklace Road",
          "name:te": "\u0c28\u0c46\u0c15\u0c4d\u0c32\u0c46\u0c38\u0c4d \u0c30\u0c4b\u0c21\u0c4d\u0c21\u0c41",
          "name:ur": "\u0646\u06a9\u0644\u06cc\u0633 \u0631\u0648\u0688",
          "network": "IR",
          "operator": "SCR",
          "platforms": "2",
          "public_transport": "station",
          "railway": "station",
          "ref": "NLRD",
          "train": "yes",
          "wikidata": "Q6985575",
          "wikipedia": "en:Necklace Road railway station"
        }
      },
      {
        "type": "node",
        "id": 343641073,
        "lat": 17.4386951,
        "lon": 78.4580969,
        "tags": {
          "internet_access": "no",
          "name": "Begumpet",
          "name:te": "\u0c2c\u0c47\u0c17\u0c02\u0c2a\u0c47\u0c1f\u0c4d",
          "name:ur": "\u0628\u06cc\u06af\u0645 \u067e\u06cc\u0679",
          "network": "IR",
          "operator": "SCR",
          "platforms": "2",
          "public_transport": "station",
          "railway": "station",
          "ref": "BMT",
          "train": "yes",
          "wikidata": "Q4880629",
          "wikipedia": "en:Begumpet railway station"
        }
      },
      {
        "type": "node",
        "id": 582824405,
        "lat": 17.4395738,
        "lon": 78.4985352,
        "tags": {
          "amenity": "cinema",
          "name": "Prashanth theatre",
          "name:en": "Prashanth theatre",
          "name:te": "\u0c2a\u0c4d\u0c30\u0c36\u0c3e\u0c02\u0c24\u0c4d \u0c25\u0c3f\u0c2f\u0c47\u0c1f\u0c30\u0c4d"
        }
      },
      {
        "type": "node",
        "id": 582824598,
        "lat": 17.4404726,
        "lon": 78.4935719,
        "tags": {
          "amenity": "cinema",
          "name": "Manju Cinema",
          "name:te": "\u0c2e\u0c02\u0c1c\u0c41 \u0c38\u0c3f\u0c28\u0c3f\u0c2e\u0c3e"
        }
      },
      {
        "type": "node",
        "id": 813571228,
        "lat": 17.4435568,
        "lon": 78.4877615,
        "tags": {
          "amenity": "fuel",
          "brand": "Indian Oil",
          "brand:wikidata": "Q1289348",
          "brand:wikipedia": "en:Indian Oil Corporation",
          "name": "Indian Oil"
        }
      },
      {
        "type": "node",
        "id": 813571286,
        "lat": 17.4430364,
        "lon": 78.4905722,
        "tags": {
          "amenity": "fuel",
          "name": "Bharat Petroleum"
        }
      },
      {
        "type": "node",
        "id": 817353703,
        "lat": 17.4449593,
        "lon": 78.4671058,
        "tags": {
          "amenity": "fuel",
          "brand": "Indian Oil",
          "brand:wikidata": "Q1289348",
          "brand:wikipedia": "en:Indian Oil Corporation",
          "name": "Indian Oil",
          "operator": "Indian Oil"
        }
      },
      {
        "type": "node",
        "id": 817354434,
        "lat": 17.4445955,
        "lon": 78.4616641,
        "tags": {
          "amenity": "fuel",
          "brand": "Indian Oil",
          "brand:wikidata": "Q1289348",
          "brand:wikipedia": "en:Indian Oil Corporation",
          "name": "Indian Oil"
        }
      },
      {
        "type": "node",
        "id": 893170355,
        "lat": 17.4329515,
        "lon": 78.4873218,
        "tags": {
          "internet_access": "no",
          "name": "James Street",
          "name:te": "\u0c1c\u0c47\u0c2e\u0c4d\u0c38\u0c4d \u0c38\u0c4d\u0c1f\u0c4d\u0c30\u0c40\u0c1f\u0c4d",
          "name:ur": "\u062c\u06cc\u0645\u0632 \u0627\u0633\u0679\u0631\u06cc\u0679",
          "network": "IR",
          "operator": "SCR",
          "platforms": "2",
          "public_transport": "station",
          "railway": "station",
          "ref": "JET",
          "train": "yes",
          "wikidata": "Q6143758",
          "wikipedia": "en:James Street railway station, Hyderabad"
        }
      },
      {
        "type": "node",
        "id": 928699174,
        "lat": 17.4550905,
        "lon": 78.4855131,
        "tags": {
          "amenity": "fuel",
          "brand": "Indian Oil",
          "brand:wikidata": "Q1289348",
          "brand:wikipedia": "en:Indian Oil Corporation",
          "name": "Indian Oil",
          "operator": "Indian Oil Corporation"
        }
      },
      {
        "type": "node",
        "id": 1038397148,
        "lat": 17.439912,
        "lon": 78.4880414,
        "tags": {
          "amenity": "fuel"
        }
      },
      {
        "type": "node",
        "id": 1050856274,
        "lat": 17.4634786,
        "lon": 78.4736466,
        "tags": {
          "amenity": "fuel",
          "diesel": "yes",
          "fuel:octane_100": "yes",
          "name": "HP fuel station",
          "operator": "Hindustan Petroleum",
          "source": "self"
        }
      },
      {
        "type": "node",
        "id": 1118773825,
        "lat": 17.4488218,
        "lon": 78.4964407,
        "tags": {
          "alt_name": "Jubilee Bus Station",
          "name": "JBS",
          "network": "Hyderabad Metro",
          "note": "Contributors are requested to not edit the \"network\" and the \"operator\" tags. (2023/11/08)",
          "operator": "Hyderabad Metro Rail Limited",
          "public_transport": "stop_position",
          "subway": "yes"
        }
      },
      {
        "type": "node",
        "id": 2422172970,
        "lat": 17.4375661,
        "lon": 78.4569341,
        "tags": {
          "name": "Begumpet",
          "name:ml": "\u0d2c\u0d47\u0d17\u0d02\u0d2a\u0d47\u0d1f\u0d4d\u0d1f\u0d4d",
          "name:te": "\u0c2c\u0c47\u0c17\u0c02\u0c2a\u0c47\u0c1f\u0c4d",
          "name:ur": "\u0628\u06cc\u06af\u0645 \u067e\u06cc\u0679",
          "network": "Hyderabad Metro",
          "note": "Contributors are requested to not edit the \"network\" and the \"operator\" tags. (2023/11/08)",
          "operator": "Hyderabad Metro Rail Limited",
          "public_transport": "station",
          "railway": "station",
          "station": "subway",
          "subway": "yes"
        }
      },
      {
        "type": "node",
        "id": 2422172987,
        "lat": 17.4375612,
        "lon": 78.4569588,
        "tags": {
          "name": "Begumpet",
          "name:te": "\u0c2c\u0c47\u0c17\u0c02\u0c2a\u0c47\u0c1f\u0c4d",
          "network": "Hyderabad Metro",
          "note": "Contributors are requested to not edit the \"network\" and the \"operator\" tags. (2023/11/08)",
          "operator": "Hyderabad Metro Rail Limited",
          "public_transport": "stop_position",
          "railway": "stop",
          "subway": "yes",
          "wikidata": "Q84301996",
          "wikipedia": "en:Begumpet metro station"
        }
      },
      {
        "type": "node",
        "id": 2422172990,
        "lat": 17.4448686,
        "lon": 78.4658736,
        "tags": {
          "name": "Prakash Nagar",
          "name:te": "\u0c2a\u0c4d\u0c30\u0c15\u0c3e\u0c36\u0c4d\u200c\u0c28\u0c17\u0c30\u0c4d",
          "network": "Hyderabad Metro",
          "note": "Contributors are requested to not edit the \"network\" and the \"operator\" tags. (2023/11/08)",
          "operator": "Hyderabad Metro Rail Limited",
          "public_transport": "stop_position",
          "subway": "yes"
        }
      },
      {
        "type": "node",
        "id": 2422173010,
        "lat": 17.4435921,
        "lon": 78.4764056,
        "tags": {
          "name": "Rasoolpura",
          "name:te": "\u0c30\u0c38\u0c42\u0c32\u0c4d\u200c\u0c2a\u0c41\u0c30",
          "network": "Hyderabad Metro",
          "note": "Contributors are requested to not edit the \"network\" and the \"operator\" tags. (2023/11/08)",
          "operator": "Hyderabad Metro Rail Limited",
          "public_transport": "stop_position",
          "subway": "yes"
        }
      },
      {
        "type": "node",
        "id": 2422173034,
        "lat": 17.4431713,
        "lon": 78.4974685,
        "tags": {
          "name": "Parade Grounds (Blue Line)",
          "name:te": "\u0c2a\u0c46\u0c30\u0c47\u0c21\u0c4d \u0c17\u0c4d\u0c30\u0c4c\u0c02\u0c21\u0c4d\u0c38\u0c4d",
          "network": "Hyderabad Metro",
          "note": "Contributors are requested to not edit the \"network\" and the \"operator\" tags. (2023/11/08)",
          "operator": "Hyderabad Metro Rail Limited",
          "public_transport": "stop_position",
          "railway": "stop",
          "subway": "yes"
        }
      },
      {
        "type": "node",
        "id": 2422173063,
        "lat": 17.4434398,
        "lon": 78.4862445,
        "tags": {
          "name": "Paradise",
          "name:te": "\u0c2a\u0c4d\u0c2f\u0c3e\u0c30\u0c21\u0c48\u0c1c\u0c4d",
          "network": "Hyderabad Metro",
          "note": "Contributors are requested to not edit the \"network\" and the \"operator\" tags. (2023/11/08)",
          "operator": "Hyderabad Metro Rail Limited",
          "public_transport": "stop_position",
          "subway": "yes"
        }
      },
      {
        "type": "node",
        "id": 2446524797,
        "lat": 17.4432701,
        "lon": 78.4905593,
        "tags": {
          "amenity": "fuel",
          "name": "Paradise Cross Roads"
        }
      },
      {
        "type": "node",
        "id": 2461447890,
        "lat": 17.4385942,
        "lon": 78.458062,
        "tags": {
          "name": "Begumpet",
          "name:kn": "\u0cac\u0cc7\u0c97\u0c82\u0caa\u0cc7\u0c9f\u0cc6",
          "name:ur": "\u0628\u06cc\u06af\u0645 \u067e\u06cc\u0679",
          "public_transport": "station",
          "railway": "station",
          "ref": "2",
          "train": "yes",
          "wikidata": "Q4880629",
          "wikipedia": "en:Begumpet railway station"
        }
      },
      {
        "type": "node",
        "id": 2461447891,
        "lat": 17.4386323,
        "lon": 78.4580666,
        "tags": {
          "name": "Begumpet",
          "name:kn": "\u0cac\u0cc7\u0c97\u0c82\u0caa\u0cc7\u0c9f\u0cc6",
          "public_transport": "stop_position",
          "railway": "stop",
          "ref": "1",
          "train": "yes"
        }
      },
      {
        "type": "node",
        "id": 2528192948,
        "lat": 17.4328721,
        "lon": 78.4868199,
        "tags": {
          "name": "James Street",
          "public_transport": "stop_position",
          "ref": "2",
          "train": "yes"
        }
      },
      {
        "type": "node",
        "id": 2528192961,
        "lat": 17.4356742,
        "lon": 78.4763981,
        "tags": {
          "name": "Sanjeevaiah Park",
          "public_transport": "stop_position",
          "railway": "stop",
          "ref": "2",
          "train": "yes"
        }
      },
      {
        "type": "node",
        "id": 3200943741,
        "lat": 17.4244702,
        "lon": 78.4917485,
        "tags": {
          "amenity": "fuel"
        }
      },
      {
        "type": "node",
        "id": 3784388218,
        "lat": 17.4245006,
        "lon": 78.4626111,
        "tags": {
          "name": "Necklace Road",
          "name:te": "\u0c28\u0c46\u0c15\u0c4d\u0c32\u0c46\u0c38\u0c4d \u0c30\u0c4b\u0c21\u0c4d\u0c21\u0c41",
          "public_transport": "stop_position",
          "railway": "stop",
          "ref": "2",
          "train": "yes"
        }
      },
      {
        "type": "node",
        "id": 4416333791,
        "lat": 17.432773,
        "lon": 78.4929081,
        "tags": {
          "amenity": "fuel",
          "name": "petrol bunk",
          "name:en": "petrol bunk"
        }
      },
      {
        "type": "node",
        "id": 5787788969,
        "lat": 17.4375841,
        "lon": 78.456906,
        "tags": {
          "name": "Begumpet",
          "name:te": "\u0c2c\u0c47\u0c17\u0c02\u0c2a\u0c47\u0c1f\u0c4d",
          "network": "Hyderabad Metro",
          "note": "Contributors are requested to not edit the \"network\" and the \"operator\" tags. (2023/11/08)",
          "operator": "Hyderabad Metro Rail Limited",
          "public_transport": "stop_position",
          "railway": "stop",
          "subway": "yes",
          "wikidata": "Q84301996",
          "wikipedia": "en:Begumpet metro station"
        }
      },
      {
        "type": "node",
        "id": 5787788979,
        "lat": 17.4432188,
        "lon": 78.497471,
        "tags": {
          "name": "Parade Grounds (Blue Line)",
          "name:te": "\u0c2a\u0c46\u0c30\u0c47\u0c21\u0c4d \u0c17\u0c4d\u0c30\u0c4c\u0c02\u0c21\u0c4d\u0c38\u0c4d",
          "network": "Hyderabad Metro",
          "note": "Contributors are requested to not edit the \"network\" and the \"operator\" tags. (2023/11/08)",
          "operator": "Hyderabad Metro Rail Limited",
          "public_transport": "stop_position",
          "railway": "stop",
          "subway": "yes"
        }
      },
      {
        "type": "node",
        "id": 5787788980,
        "lat": 17.4434911,
        "lon": 78.4862461,
        "tags": {
          "name": "Paradise",
          "name:te": "\u0c2a\u0c4d\u0c2f\u0c3e\u0c30\u0c21\u0c48\u0c1c\u0c4d",
          "network": "Hyderabad Metro",
          "note": "Contributors are requested to not edit the \"network\" and the \"operator\" tags. (2023/11/08)",
          "operator": "Hyderabad Metro Rail Limited",
          "public_transport": "stop_position",
          "subway": "yes"
        }
      },
      {
        "type": "node",
        "id": 5787788982,
        "lat": 17.4449044,
        "lon": 78.465879,
        "tags": {
          "name": "Prakash Nagar",
          "name:te": "\u0c2a\u0c4d\u0c30\u0c15\u0c3e\u0c36\u0c4d\u200c\u0c28\u0c17\u0c30\u0c4d",
          "network": "Hyderabad Metro",
          "note": "Contributors are requested to not edit the \"network\" and the \"operator\" tags. (2023/11/08)",
          "operator": "Hyderabad Metro Rail Limited",
          "public_transport": "stop_position",
          "subway": "yes"
        }
      },
      {
        "type": "node",
        "id": 6594733962,
        "lat": 17.4329035,
        "lon": 78.4868305,
        "tags": {
          "name": "James Street",
          "public_transport": "stop_position",
          "ref": "1",
          "train": "yes"
        }
      },
      {
        "type": "node",
        "id": 7052069758,
        "lat": 17.4431943,
        "lon": 78.4974687,
        "tags": {
          "name": "Parade Grounds (Blue Line)",
          "name:ml": "\u0d2a\u0d30\u0d47\u0d21\u0d4d \u0d17\u0d4d\u0d30\u0d57\u0d23\u0d4d\u0d1f\u0d4d\u0d38\u0d4d",
          "name:te": "\u0c2a\u0c46\u0c30\u0c47\u0c21\u0c4d \u0c17\u0c4d\u0c30\u0c4c\u0c02\u0c21\u0c4d\u0c38\u0c4d",
          "network": "Hyderabad Metro",
          "note": "Contributors are requested to not edit the \"network\" and the \"operator\" tags. (2023/11/08)",
          "operator": "Hyderabad Metro Rail Limited",
          "public_transport": "station",
          "railway": "station",
          "station": "subway",
          "subway": "yes"
        }
      },
      {
        "type": "node",
        "id": 7052069759,
        "lat": 17.4434668,
        "lon": 78.4862436,
        "tags": {
          "name": "Paradise",
          "name:ml": "\u0d2a\u0d3e\u0d30\u0d21\u0d48\u0d38\u0d4d",
          "name:te": "\u0c2a\u0c4d\u0c2f\u0c3e\u0c30\u0c21\u0c48\u0c1c\u0c4d",
          "network": "Hyderabad Metro",
          "note": "Contributors are requested to not edit the \"network\" and the \"operator\" tags. (2023/11/08)",
          "operator": "Hyderabad Metro Rail Limited",
          "public_transport": "station",
          "railway": "station",
          "station": "subway",
          "subway": "yes"
        }
      },
      {
        "type": "node",
        "id": 7052069760,
        "lat": 17.443612,
        "lon": 78.4764053,
        "tags": {
          "name": "Rasoolpura",
          "name:ml": "\u0d31\u0d38\u0d42\u0d7d\u0d2a\u0d41\u0d30",
          "name:te": "\u0c30\u0c38\u0c42\u0c32\u0c4d\u200c\u0c2a\u0c41\u0c30",
          "network": "Hyderabad Metro",
          "note": "Contributors are requested to not edit the \"network\" and the \"operator\" tags. (2023/11/08)",
          "operator": "Hyderabad Metro Rail Limited",
          "railway": "station",
          "station": "subway",
          "subway": "yes",
          "wikidata": "Q84358120"
        }
      },
      {
        "type": "node",
        "id": 7052069761,
        "lat": 17.443638,
        "lon": 78.4764095,
        "tags": {
          "name": "Rasoolpura",
          "name:te": "\u0c30\u0c38\u0c42\u0c32\u0c4d\u200c\u0c2a\u0c41\u0c30",
          "network": "Hyderabad Metro",
          "note": "Contributors are requested to not edit the \"network\" and the \"operator\" tags. (2023/11/08)",
          "operator": "Hyderabad Metro Rail Limited",
          "public_transport": "stop_position",
          "railway": "stop",
          "subway": "yes"
        }
      },
      {
        "type": "node",
        "id": 7052069766,
        "lat": 17.4448889,
        "lon": 78.4658749,
        "tags": {
          "name": "Prakash Nagar",
          "name:ml": "\u0d2a\u0d4d\u0d30\u0d15\u0d3e\u0d36\u0d4d \u0d28\u0d17\u0d7c",
          "name:te": "\u0c2a\u0c4d\u0c30\u0c15\u0c3e\u0c36\u0c4d\u200c\u0c28\u0c17\u0c30\u0c4d",
          "name:ur": "\u067e\u0631\u06a9\u0627\u0634 \u0646\u06af\u0631",
          "network": "Hyderabad Metro",
          "note": "Contributors are requested to not edit the \"network\" and the \"operator\" tags. (2023/11/08)",
          "operator": "Hyderabad Metro Rail Limited",
          "public_transport": "station",
          "railway": "station",
          "station": "subway",
          "subway": "yes",
          "wikidata": "Q84499965"
        }
      },
      {
        "type": "node",
        "id": 7195061307,
        "lat": 17.4488147,
        "lon": 78.4965237,
        "tags": {
          "alt_name": "Jubilee Bus Station",
          "name": "JBS",
          "network": "Hyderabad Metro",
          "note": "Contributors are requested to not edit the \"network\" and the \"operator\" tags. (2023/11/08)",
          "operator": "Hyderabad Metro Rail Limited",
          "public_transport": "stop_position",
          "subway": "yes"
        }
      },
      {
        "type": "node",
        "id": 7195061308,
        "lat": 17.4445164,
        "lon": 78.4976151,
        "tags": {
          "name": "Parade Grounds (Green Line)",
          "name:te": "\u0c2a\u0c46\u0c30\u0c47\u0c21\u0c4d \u0c17\u0c4d\u0c30\u0c4c\u0c02\u0c21\u0c4d\u0c38\u0c4d",
          "network": "Hyderabad Metro",
          "note": "Contributors are requested to not edit the \"network\" and the \"operator\" tags. (2023/11/08)",
          "operator": "Hyderabad Metro Rail Limited",
          "public_transport": "stop_position",
          "railway": "stop",
          "subway": "yes"
        }
      },
      {
        "type": "node",
        "id": 7195061309,
        "lat": 17.4444527,
        "lon": 78.497553,
        "tags": {
          "name": "Parade Grounds (Green Line)",
          "name:te": "\u0c2a\u0c46\u0c30\u0c47\u0c21\u0c4d \u0c17\u0c4d\u0c30\u0c4c\u0c02\u0c21\u0c4d\u0c38\u0c4d",
          "network": "Hyderabad Metro",
          "note": "Contributors are requested to not edit the \"network\" and the \"operator\" tags. (2023/11/08)",
          "operator": "Hyderabad Metro Rail Limited",
          "public_transport": "stop_position",
          "railway": "stop",
          "subway": "yes"
        }
      },
      {
        "type": "node",
        "id": 7195061310,
        "lat": 17.4444775,
        "lon": 78.497584,
        "tags": {
          "name": "Parade Grounds (Green Line)",
          "name:ml": "\u0d2a\u0d30\u0d47\u0d21\u0d4d \u0d17\u0d4d\u0d30\u0d57\u0d23\u0d4d\u0d1f\u0d4d\u0d38\u0d4d",
          "name:te": "\u0c2a\u0c46\u0c30\u0c47\u0c21\u0c4d \u0c17\u0c4d\u0c30\u0c4c\u0c02\u0c21\u0c4d\u0c38\u0c4d",
          "network": "Hyderabad Metro",
          "note": "Contributors are requested to not edit the \"network\" and the \"operator\" tags. (2023/11/08)",
          "operator": "Hyderabad Metro Rail Limited",
          "public_transport": "station",
          "railway": "station",
          "station": "subway",
          "subway": "yes"
        }
      },
      {
        "type": "node",
        "id": 7201054971,
        "lat": 17.4488181,
        "lon": 78.4964843,
        "tags": {
          "alt_name": "Jubilee Bus Station",
          "name": "JBS",
          "name:ml": "\u0d1c\u0d46\u0d2c\u0d3f\u0d0e\u0d38\u0d4d",
          "name:te": "\u0c1c\u0c46 \u0c2c\u0c3f \u0c0e\u0c38\u0c4d",
          "network": "Hyderabad Metro",
          "note": "Contributors are requested to not edit the \"network\" and the \"operator\" tags. (2023/11/08)",
          "operator": "Hyderabad Metro Rail Limited",
          "public_transport": "station",
          "railway": "station",
          "station": "subway",
          "subway": "yes"
        }
      },
      {
        "type": "node",
        "id": 10992500545,
        "lat": 17.4324529,
        "lon": 78.4865033,
        "tags": {
          "amenity": "bus_station",
          "bus": "yes",
          "name": "TSRTC BUS DEPOT, RANIGUNJ",
          "public_transport": "station"
        }
      },
      {
        "type": "node",
        "id": 11770988863,
        "lat": 17.4617134,
        "lon": 78.4690961,
        "tags": {
          "amenity": "fuel",
          "brand": "Bharat Petroleum",
          "brand:wikidata": "Q854826",
          "check_date": "2024-03-29",
          "name": "Bharat Petroleum"
        }
      },
      {
        "type": "node",
        "id": 12114475129,
        "lat": 17.435725,
        "lon": 78.4764076,
        "tags": {
          "name": "Sanjeevaiah Park",
          "public_transport": "stop_position",
          "railway": "stop",
          "ref": "1",
          "train": "yes"
        }
      },
      {
        "type": "node",
        "id": 12231561141,
        "lat": 17.4356998,
        "lon": 78.4764022,
        "tags": {
          "internet_access": "no",
          "name": "Sanjeevaiah Park",
          "name:te": "\u0c38\u0c02\u0c1c\u0c40\u0c35\u0c2f\u0c4d\u0c2f \u0c2a\u0c3e\u0c30\u0c4d\u0c15\u0c4d",
          "name:ur": "\u0633\u0646\u062c\u06cc\u0648\u06cc\u0627 \u067e\u0627\u0631\u06a9",
          "network": "Indian Railways",
          "operator": "South Central Railway",
          "platforms": "2",
          "public_transport": "station",
          "railway": "station",
          "ref": "SJVP",
          "train": "yes",
          "wikidata": "Q7418525",
          "wikipedia": "en:Sanjeevaiah Park railway station"
        }
      }
    ]
  }
}