{
  "pois_1km": {
    "version": 0.6,
    "generator": "Overpass API 0.7.62.8 e802775f",
    "osm3s": {
      "timestamp_osm_base": "2025-09-06T08:35:59Z",
      "copyright": "The data included in this document is from www.openstreetmap.org. The data is made available under ODbL."
    },
    "elements": [
      {
        "type": "node",
        "id": 513010279,
        "lat": 17.426299,
        "lon": 78.4382663,
        "tags": {
          "amenity": "restaurant",
          "name": "Hyderabad House",
          "name:te": "\u0c39\u0c48\u0c26\u0c30\u0c3e\u0c2c\u0c3e\u0c26\u0c4d \u0c39\u0c4c\u0c1c\u0c4d"
        }
      },
      {
        "type": "node",
        "id": 513016922,
        "lat": 17.4263318,
        "lon": 78.4475017,
        "tags": {
          "amenity": "restaurant",
          "cuisine": "south_indian",
          "name": "Chutneys",
          "name:te": "\u0c1a\u0c1f\u0c4d\u0c28\u0c40\u0c38\u0c4d"
        }
      },
      {
        "type": "node",
        "id": 660540421,
        "lat": 17.4245414,
        "lon": 78.4315999,
        "tags": {
          "amenity": "atm",
          "brand": "Citibank",
          "brand:wikidata": "Q857063",
          "name": "citibank",
          "name:te": "\u0c38\u0c3f\u0c1f\u0c40 \u0c2c\u0c4d\u0c2f\u0c3e\u0c02\u0c15\u0c41",
          "operator": "Citibank",
          "operator:wikidata": "Q857063"
        }
      },
      {
        "type": "node",
        "id": 662721790,
        "lat": 17.4271464,
        "lon": 78.4443444,
        "tags": {
          "amenity": "restaurant",
          "cuisine": "regional",
          "name": "Southern Spice",
          "name:te": "\u0c38\u0c25\u0c30\u0c28\u0c4d \u0c38\u0c4d\u0c2a\u0c48\u0c38\u0c4d"
        }
      },
      {
        "type": "node",
        "id": 813570814,
        "lat": 17.4262926,
        "lon": 78.4480231,
        "tags": {
          "amenity": "fast_food",
          "brand": "Subway",
          "brand:pa": "\u0a38\u0a2c\u0a35\u0a47\u0a05",
          "brand:ur": "\u0633\u0628 \u0648\u06d2",
          "brand:wikidata": "Q244457",
          "brand:wikipedia": "en:Subway (restaurant)",
          "cuisine": "sandwich",
          "name": "Subway",
          "name:pa": "\u0a38\u0a2c\u0a35\u0a47\u0a05",
          "name:te": "\u0c38\u0c2c\u0c4d\u0c35\u0c47",
          "name:ur": "\u0633\u0628 \u0648\u06d2",
          "takeaway": "yes"
        }
      },
      {
        "type": "node",
        "id": 817354197,
        "lat": 17.4270696,
        "lon": 78.4433431,
        "tags": {
          "amenity": "fast_food",
          "cuisine": "pizza",
          "name": "Pizza Corner",
          "name:te": "\u0c2a\u0c3f\u0c1c\u0c4d\u0c1c\u0c3e \u0c15\u0c3e\u0c30\u0c4d\u0c28\u0c46\u0c30\u0c4d"
        }
      },
      {
        "type": "node",
        "id": 1883470320,
        "lat": 17.4300426,
        "lon": 78.4388525,
        "tags": {
          "amenity": "atm",
          "operator": "Axis Bank"
        }
      },
      {
        "type": "node",
        "id": 1883470586,
        "lat": 17.4300286,
        "lon": 78.4389088,
        "tags": {
          "amenity": "atm",
          "operator": "Bank Of Baroda"
        }
      },
      {
        "type": "node",
        "id": 1883470893,
        "lat": 17.4299684,
        "lon": 78.4389048,
        "tags": {
          "amenity": "atm",
          "operator": "ICICI"
        }
      },
      {
        "type": "node",
        "id": 1883471333,
        "lat": 17.4299415,
        "lon": 78.4391362,
        "tags": {
          "amenity": "atm",
          "operator": "Andhra Bank"
        }
      },
      {
        "type": "node",
        "id": 1883471859,
        "lat": 17.4300426,
        "lon": 78.4387975,
        "tags": {
          "amenity": "pharmacy",
          "dispensing": "yes",
          "name": "Med Plus Medical Store"
        }
      },
      {
        "type": "node",
        "id": 1883474652,
        "lat": 17.4302409,
        "lon": 78.4408394,
        "tags": {
          "amenity": "bank",
          "atm": "yes",
          "brand:wikidata": "Q2003789",
          "brand:wikipedia": "en:Indian Bank",
          "name": "Indian Bank",
          "name:en": "Indian Bank",
          "website": "https://www.indianbank.in/"
        }
      },
      {
        "type": "node",
        "id": 1883475016,
        "lat": 17.4305838,
        "lon": 78.4410218,
        "tags": {
          "amenity": "atm",
          "operator": "Indian Bank"
        }
      },
      {
        "type": "node",
        "id": 1883475067,
        "lat": 17.430205,
        "lon": 78.4418828,
        "tags": {
          "amenity": "restaurant",
          "cuisine": "chinese",
          "name": "Noodles King"
        }
      },
      {
        "type": "node",
        "id": 1883475384,
        "lat": 17.4299798,
        "lon": 78.4412927,
        "tags": {
          "amenity": "bank",
          "brand:wikidata": "Q2003476",
          "brand:wikipedia": "en:Andhra Bank",
          "name": "Andhra Bank",
          "name:en": "Andhra Bank",
          "website": "https://www.andhrabank.in"
        }
      },
      {
        "type": "node",
        "id": 1883475677,
        "lat": 17.4299491,
        "lon": 78.4422422,
        "tags": {
          "amenity": "bank",
          "atm": "yes",
          "brand": "HDFC",
          "brand:wikidata": "Q631047",
          "brand:wikipedia": "en:HDFC Bank",
          "name": "HDFC Bank",
          "short_name": "HDFC",
          "website": "https://www.hdfcbank.com"
        }
      },
      {
        "type": "node",
        "id": 1883487156,
        "lat": 17.425911,
        "lon": 78.4354774,
        "tags": {
          "amenity": "restaurant",
          "cuisine": "indian",
          "name": "Basil",
          "name:te": "\u0c2c\u0c47\u0c38\u0c3f\u0c32\u0c4d"
        }
      },
      {
        "type": "node",
        "id": 1883488179,
        "lat": 17.4266813,
        "lon": 78.4384278,
        "tags": {
          "name": "Q Mart",
          "name:te": "\u0c15\u0c4d\u0c2f\u0c42 \u0c2e\u0c3e\u0c30\u0c4d\u0c1f\u0c4d",
          "shop": "supermarket"
        }
      },
      {
        "type": "node",
        "id": 1883490650,
        "lat": 17.425371,
        "lon": 78.4331814,
        "tags": {
          "amenity": "bank",
          "atm": "yes",
          "branch": "Koninoor",
          "brand": "State Bank of India",
          "brand:wikidata": "Q1340361",
          "brand:wikipedia": "en:State Bank of India",
          "name": "State Bank of India",
          "name:te": "\u0c2d\u0c3e\u0c30\u0c24\u0c40\u0c2f \u0c38\u0c4d\u0c1f\u0c47\u0c1f\u0c4d \u0c2c\u0c4d\u0c2f\u0c3e\u0c02\u0c15\u0c41",
          "short_name": "SBI"
        }
      },
      {
        "type": "node",
        "id": 1885686786,
        "lat": 17.4288307,
        "lon": 78.4396942,
        "tags": {
          "name": "Ratnadeep",
          "shop": "supermarket"
        }
      },
      {
        "type": "node",
        "id": 1885686996,
        "lat": 17.4285594,
        "lon": 78.4394528,
        "tags": {
          "amenity": "bank",
          "brand": "Karnataka Bank",
          "brand:wikidata": "Q2042632",
          "name": "Karnataka Bank"
        }
      },
      {
        "type": "node",
        "id": 1885687073,
        "lat": 17.4284545,
        "lon": 78.4396807,
        "tags": {
          "amenity": "atm",
          "brand": "Bank of India",
          "brand:wikidata": "Q2004439",
          "operator": "Bank of India",
          "operator:wikidata": "Q2004439"
        }
      },
      {
        "type": "node",
        "id": 1885688137,
        "lat": 17.4301844,
        "lon": 78.4443344,
        "tags": {
          "amenity": "bank",
          "atm": "yes",
          "brand": "State Bank of India",
          "brand:wikidata": "Q1340361",
          "brand:wikipedia": "en:State Bank of India",
          "name": "State Bank of India",
          "short_name": "SBI"
        }
      },
      {
        "type": "node",
        "id": 1948590601,
        "lat": 17.4265983,
        "lon": 78.4382251,
        "tags": {
          "amenity": "restaurant",
          "name": "Thai Express",
          "name:te": "\u0c25\u0c3e\u0c2f\u0c4d \u0c0e\u0c15\u0c4d\u0c38\u0c2a\u0c4d\u0c30\u0c46\u0c38\u0c4d"
        }
      },
      {
        "type": "node",
        "id": 2606351757,
        "lat": 17.4209782,
        "lon": 78.4424101,
        "tags": {
          "amenity": "restaurant",
          "name": "Rock Castle"
        }
      },
      {
        "type": "node",
        "id": 2713841650,
        "lat": 17.4299016,
        "lon": 78.4428358,
        "tags": {
          "leisure": "park",
          "name": "ghmc park"
        }
      },
      {
        "type": "node",
        "id": 2713841739,
        "lat": 17.4304216,
        "lon": 78.4424111,
        "tags": {
          "leisure": "park",
          "name": "park"
        }
      },
      {
        "type": "node",
        "id": 2713845600,
        "lat": 17.4320942,
        "lon": 78.4385866,
        "tags": {
          "leisure": "park",
          "name": "mch park"
        }
      },
      {
        "type": "node",
        "id": 2713850928,
        "lat": 17.4315818,
        "lon": 78.4349726,
        "tags": {
          "leisure": "park",
          "name": "sbi colony park"
        }
      },
      {
        "type": "node",
        "id": 3155674867,
        "lat": 17.4348781,
        "lon": 78.4351878,
        "tags": {
          "amenity": "atm",
          "brand": "State Bank of India",
          "brand:wikidata": "Q1340361",
          "name": "SBI ATM",
          "operator": "State Bank of India",
          "operator:wikidata": "Q1340361"
        }
      },
      {
        "type": "node",
        "id": 3159027222,
        "lat": 17.4359881,
        "lon": 78.4386654,
        "tags": {
          "addr:street": "Yousufguda Main Road",
          "amenity": "bank",
          "atm": "yes",
          "brand": "State Bank of India",
          "brand:wikidata": "Q1340361",
          "brand:wikipedia": "en:State Bank of India",
          "name": "State Bank of India",
          "opening_hours": "10:30-16:00",
          "operator": "State Bank Of India",
          "short_name": "SBI"
        }
      },
      {
        "type": "node",
        "id": 3474702622,
        "lat": 17.4318064,
        "lon": 78.4468436,
        "tags": {
          "amenity": "restaurant",
          "name": "Godavari ruchulu"
        }
      },
      {
        "type": "node",
        "id": 5324874933,
        "lat": 17.4297764,
        "lon": 78.4340161,
        "tags": {
          "addr:district": "Hyderabad",
          "addr:full": "# 8-3-833, Plot No:100, Phase 1, Kamalapuri Colony, Sri Nagar Colony",
          "addr:postcode": "500073",
          "addr:state": "Telangana",
          "amenity": "hospital",
          "contact:email": "hospitaltanvir@gmail.com",
          "healthcare": "hospital",
          "name": "Tanvir Hospital",
          "phone": "+91 9951911155",
          "source": "OpenGovernmentData",
          "website": "https://tanvirhospital.com/",
          "wikidata": "Q52843710"
        }
      },
      {
        "type": "node",
        "id": 5867186858,
        "lat": 17.4303405,
        "lon": 78.4381599,
        "tags": {
          "addr:city": "Hyderabad",
          "addr:housenumber": "Country Oven Bakery",
          "addr:postcode": "500073",
          "addr:street": "Sri Nagar Colony Main Road",
          "amenity": "restaurant",
          "capacity": "40",
          "cuisine": "pizza;burger;sandwich",
          "delivery": "yes",
          "name": "Country Oven",
          "opening_hours": "Mo-Su 09:00-22:00",
          "outdoor_seating": "yes",
          "smoking": "no",
          "takeaway": "yes"
        }
      },
      {
        "type": "node",
        "id": 6089840786,
        "lat": 17.4204876,
        "lon": 78.4410872,
        "tags": {
          "amenity": "cafe",
          "internet_access": "wlan",
          "name": "Terrasen Cafe"
        }
      },
      {
        "type": "node",
        "id": 6212803088,
        "lat": 17.4275672,
        "lon": 78.4422612,
        "tags": {
          "amenity": "bank",
          "brand": "State Bank of India",
          "brand:wikidata": "Q1340361",
          "name": "State Bank of India",
          "short_name": "SBI"
        }
      },
      {
        "type": "node",
        "id": 6340136985,
        "lat": 17.4301054,
        "lon": 78.4457025,
        "tags": {
          "amenity": "fast_food",
          "cuisine": "chinese",
          "name": "Chop Stick",
          "name:en": "Chop Sticks"
        }
      },
      {
        "type": "node",
        "id": 6485325429,
        "lat": 17.4240881,
        "lon": 78.4317076,
        "tags": {
          "addr:district": "Hyderabad",
          "addr:full": "8-2-120/86/1, Road No. 3, Banjara Hills",
          "addr:postcode": "500034",
          "addr:state": "Telangana",
          "amenity": "hospital",
          "healthcare": "hospital",
          "name": "Maternal Health and Research Trust",
          "source": "OpenGovernmentData"
        }
      },
      {
        "type": "node",
        "id": 6487127620,
        "lat": 17.4352974,
        "lon": 78.4365799,
        "tags": {
          "addr:district": "Hyderabad",
          "addr:full": "8-3-667/1, Near K.K. Towers, Lane Opposite Allahabad Bank, Engineer's Colony, Yousufguda Road",
          "addr:postcode": "500073",
          "addr:state": "Telangana",
          "amenity": "hospital",
          "healthcare": "hospital",
          "name": "Susheela Hospital",
          "phone": "040 23730020",
          "source": "OpenGovernmentData"
        }
      },
      {
        "type": "node",
        "id": 6489591500,
        "lat": 17.4281872,
        "lon": 78.432519,
        "tags": {
          "addr:district": "Hyderabad",
          "addr:full": "Lane Beside Harley Davidson Showroom, Sagar Soceity Main Road, Road Number 2, Banjara Hills",
          "addr:postcode": "500034",
          "addr:state": "Telangana",
          "amenity": "hospital",
          "contact:mobile": "9849204178; 040-40137750",
          "email": "challaeyecare@gmail.com",
          "healthcare": "hospital",
          "name": "Challa Eye Care Centre",
          "operator:type": "private",
          "phone": "040-40137750; 040-40171180",
          "source": "OpenGovernmentData",
          "website": "https://challaeyecare.com"
        }
      },
      {
        "type": "node",
        "id": 6510356260,
        "lat": 17.4306004,
        "lon": 78.4388973,
        "tags": {
          "addr:district": "Hyderabad",
          "addr:full": "8-3-978/1, Shree Nursing Home, Srinagar Colony",
          "addr:postcode": "500073",
          "addr:state": "Telangana",
          "amenity": "hospital",
          "email": "shreenursinghome@gmail.com",
          "fax": "040-23757737",
          "name": "Shree Hospital",
          "phone": "040-66756493; 040-23734898",
          "source": "OpenGovernmentData",
          "website": "http://www.shreenursinghome.com"
        }
      },
      {
        "type": "node",
        "id": 6513323438,
        "lat": 17.4314653,
        "lon": 78.4466797,
        "tags": {
          "addr:district": "Hyderabad",
          "addr:full": "8-3-903/F/12&13, Image House, Behind Chermas, Ameerpet",
          "addr:postcode": "500073",
          "addr:state": "Telangana",
          "amenity": "hospital",
          "fax": "2375555; 23746616",
          "name": "Image Hospital",
          "source": "OpenGovernmentData"
        }
      },
      {
        "type": "node",
        "id": 6549047002,
        "lat": 17.425154,
        "lon": 78.4366462,
        "tags": {
          "addr:district": "Hyderabad",
          "addr:full": "IPP-VIII Showkath Nagar, Jubilee Hills, Near P S Road",
          "addr:postcode": "500034",
          "addr:state": "Telangana",
          "addr:street": "opp Masjid",
          "addr:subdistrict": "Shaikpet",
          "amenity": "clinic",
          "healthcare": "clinic",
          "name": "Urban Primary Health Centre, Showkath Nagar",
          "source": "OpenGovernmentData"
        }
      },
      {
        "type": "node",
        "id": 6549145506,
        "lat": 17.4205712,
        "lon": 78.4416855,
        "tags": {
          "addr:district": "Hyderabad",
          "addr:full": "8-2-413/B, ROAD NO. 4, BANJARA HILLS",
          "addr:postcode": "500034",
          "addr:state": "Telangana",
          "amenity": "hospital",
          "contact:phone": "4023351144",
          "healthcare": "hospital",
          "name": "Times Hospital",
          "operator:type": "private",
          "source": "OpenGovernmentData"
        }
      },
      {
        "type": "node",
        "id": 6549162107,
        "lat": 17.4246755,
        "lon": 78.433091,
        "tags": {
          "addr:city": "Hyderabad",
          "addr:full": "H.No: 8-2-277/A/1, ROAD NO.2, BANJARA HILLS",
          "addr:postcode": "500034",
          "addr:state": "Telangana",
          "amenity": "hospital",
          "contact:phone": "4067139999",
          "healthcare": "hospital",
          "name": "THE BIRTHPLACE",
          "operator:type": "private",
          "source": "OpenGovernmentData"
        }
      },
      {
        "type": "node",
        "id": 6549219226,
        "lat": 17.4288986,
        "lon": 78.4398817,
        "tags": {
          "addr:city": "Hyderabad",
          "addr:full": "Plot No. 143, Sagar Society, Venkateshwara Colony, Srinagar Colony, Near Ratnadeep Super Market,",
          "addr:postcode": "500073",
          "addr:state": "Telangana",
          "amenity": "hospital",
          "contact:phone": "48563344",
          "healthcare": "hospital",
          "name": "SMART VISION EYE SPECIALITIES PRIVATE LIMITED",
          "operator:type": "private",
          "source": "OpenGovernmentData"
        }
      },
      {
        "type": "node",
        "id": 6561161964,
        "lat": 17.43034,
        "lon": 78.4370834,
        "tags": {
          "addr:district": "Hyderabad",
          "addr:full": "8-3-982, Srinagar Colony Main Road, Near Satya Sai Kalyana Mandapam",
          "addr:postcode": "500073",
          "addr:state": "Telangana",
          "amenity": "hospital",
          "name": "Nikhil Hospital",
          "source": "OpenGovernmentData"
        }
      },
      {
        "type": "node",
        "id": 6811749047,
        "lat": 17.4329564,
        "lon": 78.4461388,
        "tags": {
          "addr:district": "Hyderabad",
          "addr:full": "Shop No.2, Yaseen Complex, Opposite Chennai Shopping Mall, Ameerpet",
          "addr:state": "Telangana",
          "amenity": "hospital",
          "name": "Gutta Eye Clinic",
          "source": "OpenGovernmentData"
        }
      },
      {
        "type": "node",
        "id": 6811749102,
        "lat": 17.431901,
        "lon": 78.446376,
        "tags": {
          "addr:district": "Hyderabad",
          "addr:full": "F-8, Wureka Court, Lane Adj To Bata Showroom, Ameerpet",
          "addr:postcode": "500073",
          "addr:state": "Telangana",
          "amenity": "clinic",
          "name": "Alavi Eye Clinic",
          "source": "OpenGovernmentData"
        }
      },
      {
        "type": "node",
        "id": 6811749172,
        "lat": 17.432609,
        "lon": 78.446198,
        "tags": {
          "addr:district": "Hyderabad",
          "addr:full": "8-3-945, Shop No.4, New Science College Lane, Nagarjuna Nagar colony, Ameerpet",
          "addr:postcode": "500073",
          "addr:state": "Telangana",
          "amenity": "clinic",
          "name": "G.K.Poly Clinic",
          "source": "OpenGovernmentData"
        }
      },
      {
        "type": "node",
        "id": 6822126525,
        "lat": 17.4325622,
        "lon": 78.4460138,
        "tags": {
          "amenity": "restaurant",
          "name": "SHIVANYA RESTAURANT",
          "source": "survey"
        }
      },
      {
        "type": "node",
        "id": 6822126533,
        "lat": 17.4192438,
        "lon": 78.4418493,
        "tags": {
          "amenity": "cafe",
          "name": "Telangana tea stall",
          "source": "survey"
        }
      },
      {
        "type": "node",
        "id": 8341875302,
        "lat": 17.429555,
        "lon": 78.4316903,
        "tags": {
          "addr:city": "Hyderabad",
          "addr:housenumber": "Tanvir Hospital 8-3-833",
          "addr:postcode": "500073",
          "addr:street": "Plot Number 100, Phase 1, Kamalapuri Colony Landmark: Near Satya Sai Kalyana Mandapam, Srinagar Colony",
          "amenity": "clinic",
          "healthcare": "clinic",
          "healthcare:speciality": "Orthopedic_Surgery",
          "name": "Dr. K Saketh",
          "website": "https://www.drksaketh.com/"
        }
      },
      {
        "type": "node",
        "id": 8891813163,
        "lat": 17.4255085,
        "lon": 78.4331953,
        "tags": {
          "amenity": "bank",
          "branch": "Premium Banking Centre",
          "brand": "State Bank of India",
          "brand:wikidata": "Q1340361",
          "name": "State Bank of India",
          "short_name": "SBI"
        }
      },
      {
        "type": "node",
        "id": 8891813164,
        "lat": 17.4258118,
        "lon": 78.4329873,
        "tags": {
          "amenity": "pharmacy",
          "dispensing": "yes",
          "healthcare": "pharmacy",
          "name": "Venkat Pharma Limited"
        }
      },
      {
        "type": "node",
        "id": 8891813166,
        "lat": 17.4263539,
        "lon": 78.4326055,
        "tags": {
          "amenity": "bank",
          "brand": "Allahabad Bank",
          "brand:wikidata": "Q2018840",
          "brand:wikipedia": "en:Allahabad Bank",
          "name": "Allahabad Bank"
        }
      },
      {
        "type": "node",
        "id": 8891813172,
        "lat": 17.4274056,
        "lon": 78.4321671,
        "tags": {
          "amenity": "hospital",
          "healthcare": "hospital",
          "name": "Ferticare IVF Asist"
        }
      },
      {
        "type": "node",
        "id": 11021368402,
        "lat": 17.4254925,
        "lon": 78.4359361,
        "tags": {
          "addr:district": "Hyderabad",
          "addr:place": "Jubilee Hills",
          "addr:state": "Telangana",
          "addr:street": "opp Masjid",
          "addr:subdistrict": "Shaikpet",
          "amenity": "clinic",
          "healthcare": "clinic",
          "name": "Urban Primary Health Centre, Showkath Nagar",
          "operational_status": "operational",
          "operator:type": "government",
          "source": "OpenDataTelangana"
        }
      },
      {
        "type": "node",
        "id": 11027534546,
        "lat": 17.4321204,
        "lon": 78.4461681,
        "tags": {
          "amenity": "cafe",
          "name": "Rose land cafe"
        }
      },
      {
        "type": "node",
        "id": 11027534547,
        "lat": 17.432146,
        "lon": 78.4460541,
        "tags": {
          "amenity": "food_court",
          "name": "Lassi shop"
        }
      },
      {
        "type": "node",
        "id": 11027534549,
        "lat": 17.432148,
        "lon": 78.4458335,
        "tags": {
          "amenity": "bank",
          "brand": "Karur Vysya Bank",
          "brand:wikidata": "Q6373724",
          "name": "Karur Vysya Bank"
        }
      },
      {
        "type": "node",
        "id": 11027534551,
        "lat": 17.4317985,
        "lon": 78.445258,
        "tags": {
          "amenity": "atm",
          "brand": "State Bank of India",
          "brand:wikidata": "Q1340361",
          "name": "State Bank of India",
          "operator": "State Bank of India",
          "operator:wikidata": "Q1340361",
          "short_name": "SBI"
        }
      },
      {
        "type": "node",
        "id": 11027534552,
        "lat": 17.4317717,
        "lon": 78.4455728,
        "tags": {
          "amenity": "hospital",
          "healthcare": "hospital",
          "name": "Shishira hospitals"
        }
      },
      {
        "type": "node",
        "id": 11027534558,
        "lat": 17.4319921,
        "lon": 78.446036,
        "tags": {
          "amenity": "clinic",
          "healthcare": "clinic",
          "name": "Pareena Eye care center"
        }
      },
      {
        "type": "node",
        "id": 11027534561,
        "lat": 17.431799,
        "lon": 78.4468438,
        "tags": {
          "amenity": "restaurant",
          "name": "Hotel Sarovar"
        }
      },
      {
        "type": "node",
        "id": 11597323663,
        "lat": 17.4232807,
        "lon": 78.4315491,
        "tags": {
          "addr:housenumber": "418",
          "addr:street": "Rd 14",
          "amenity": "cafe",
          "name": "Roastery",
          "opening_hours": "Mo-Su 08:00-23:30"
        }
      },
      {
        "type": "node",
        "id": 12410053301,
        "lat": 17.4192631,
        "lon": 78.4427505,
        "tags": {
          "amenity": "restaurant",
          "cuisine": "asian",
          "name": "Hibacci - Asian Fusion Restaurant",
          "website:menu": "https://www.zomato.com/hyderabad/hibacci-north-east-asian-kitchen-4-banjara-hills/menu"
        }
      },
      {
        "type": "node",
        "id": 12413099402,
        "lat": 17.4192638,
        "lon": 78.442749,
        "tags": {
          "amenity": "restaurant",
          "name": "Hibacci Asian Fusion Restaurant"
        }
      }
    ]
  },
  "pois_2_5km": {
    "version": 0.6,
    "generator": "Overpass API 0.7.62.8 e802775f",
    "osm3s": {
      "timestamp_osm_base": "2025-09-06T08:35:59Z",
      "copyright": "The data included in this document is from www.openstreetmap.org. The data is made available under ODbL."
    },
    "elements": [
      {
        "type": "node",
        "id": 343319245,
        "lat": 17.4456571,
        "lon": 78.4521487,
        "tags": {
          "internet_access": "no",
          "name": "Nature Cure Hospital",
          "name:te": "\u0c2a\u0c4d\u0c30\u0c15\u0c43\u0c24\u0c3f \u0c1a\u0c3f\u0c15\u0c3f\u0c24\u0c4d\u0c38\u0c3e\u0c32\u0c2f \u0c30\u0c48\u0c32\u0c4d\u0c35\u0c47 \u0c38\u0c4d\u0c1f\u0c47\u0c37\u0c28\u0c4d",
          "network": "IR",
          "operator": "SCR",
          "platforms": "2",
          "public_transport": "station",
          "railway": "station",
          "ref": "NCHS",
          "train": "yes",
          "wikidata": "Q6980906",
          "wikipedia": "en:Nature Cure Hospital railway station"
        }
      },
      {
        "type": "node",
        "id": 343641073,
        "lat": 17.4386951,
        "lon": 78.4580969,
        "tags": {
          "internet_access": "no",
          "name": "Begumpet",
          "name:te": "\u0c2c\u0c47\u0c17\u0c02\u0c2a\u0c47\u0c1f\u0c4d",
          "name:ur": "\u0628\u06cc\u06af\u0645 \u067e\u06cc\u0679",
          "network": "IR",
          "operator": "SCR",
          "platforms": "2",
          "public_transport": "station",
          "railway": "station",
          "ref": "BMT",
          "train": "yes",
          "wikidata": "Q4880629",
          "wikipedia": "en:Begumpet railway station"
        }
      },
      {
        "type": "node",
        "id": 344033748,
        "lat": 17.4233743,
        "lon": 78.4278935,
        "tags": {
          "amenity": "cinema",
          "brand": "PVR Cinemas",
          "brand:short": "PVR",
          "brand:wikidata": "Q3359908",
          "name": "PVR Cinemas",
          "name:te": "\u0c38\u0c3f\u0c28\u0c40 \u0c2e\u0c3e\u0c15\u0c4d\u0c38\u0c4d"
        }
      },
      {
        "type": "node",
        "id": 813570842,
        "lat": 17.4263594,
        "lon": 78.451396,
        "tags": {
          "amenity": "fuel",
          "brand": "Indian Oil",
          "brand:wikidata": "Q1289348",
          "brand:wikipedia": "en:Indian Oil Corporation",
          "name": "Indian Oil"
        }
      },
      {
        "type": "node",
        "id": 814748141,
        "lat": 17.4273769,
        "lon": 78.4395446,
        "tags": {
          "amenity": "fuel",
          "brand": "Indian Oil",
          "brand:wikidata": "Q1289348",
          "brand:wikipedia": "en:Indian Oil Corporation",
          "name": "Indian Oil"
        }
      },
      {
        "type": "node",
        "id": 890312487,
        "lat": 17.418803,
        "lon": 78.4484007,
        "tags": {
          "amenity": "cinema",
          "brand": "INOX Leisure",
          "brand:wikidata": "Q5972349",
          "name": "INOX Cinema",
          "name:te": "\u0c10\u0c28\u0c3e\u0c15\u0c4d\u0c38\u0c4d \u0c38\u0c3f\u0c28\u0c3f\u0c2e\u0c3e",
          "short_name": "INOX"
        }
      },
      {
        "type": "node",
        "id": 1534935432,
        "lat": 17.4238,
        "lon": 78.4263912,
        "tags": {
          "amenity": "cinema",
          "name": "Prasads Lab preview Theatre"
        }
      },
      {
        "type": "node",
        "id": 1666010778,
        "lat": 17.4232572,
        "lon": 78.4589653,
        "tags": {
          "amenity": "fuel",
          "brand": "Shell",
          "brand:wikidata": "Q110716465",
          "fuel:diesel": "yes",
          "fuel:octane_91": "yes",
          "name": "Shell Petrol Bunk",
          "operator": "Shell"
        }
      },
      {
        "type": "node",
        "id": 1883484106,
        "lat": 17.4302638,
        "lon": 78.4484072,
        "tags": {
          "addr:city": "Hyderabad",
          "addr:state": "Telangana",
          "addr:street": "Ameerpet Road",
          "air_conditioning": "yes",
          "amenity": "cinema",
          "name": "Platinum Cinemas"
        }
      },
      {
        "type": "node",
        "id": 1883501408,
        "lat": 17.4298122,
        "lon": 78.4321238,
        "tags": {
          "amenity": "fuel",
          "brand": "IBP"
        }
      },
      {
        "type": "node",
        "id": 2177960405,
        "lat": 17.4362628,
        "lon": 78.4291105,
        "tags": {
          "amenity": "fuel"
        }
      },
      {
        "type": "node",
        "id": 2352099065,
        "lat": 17.4211261,
        "lon": 78.4559994,
        "tags": {
          "amenity": "fuel",
          "brand": "Indian Oil",
          "brand:wikidata": "Q1289348",
          "brand:wikipedia": "en:Indian Oil Corporation",
          "fuel:diesel": "yes",
          "fuel:petrol": "yes",
          "name": "Indian Oil Fuel Station"
        }
      },
      {
        "type": "node",
        "id": 2352100154,
        "lat": 17.4206051,
        "lon": 78.4563468,
        "tags": {
          "amenity": "fuel",
          "brand": "Bharat Petroleum",
          "brand:wikidata": "Q854826",
          "building": "yes",
          "name": "Bharat Petroleum"
        }
      },
      {
        "type": "node",
        "id": 2422172970,
        "lat": 17.4375661,
        "lon": 78.4569341,
        "tags": {
          "name": "Begumpet",
          "name:ml": "\u0d2c\u0d47\u0d17\u0d02\u0d2a\u0d47\u0d1f\u0d4d\u0d1f\u0d4d",
          "name:te": "\u0c2c\u0c47\u0c17\u0c02\u0c2a\u0c47\u0c1f\u0c4d",
          "name:ur": "\u0628\u06cc\u06af\u0645 \u067e\u06cc\u0679",
          "network": "Hyderabad Metro",
          "note": "Contributors are requested to not edit the \"network\" and the \"operator\" tags. (2023/11/08)",
          "operator": "Hyderabad Metro Rail Limited",
          "public_transport": "station",
          "railway": "station",
          "station": "subway",
          "subway": "yes"
        }
      },
      {
        "type": "node",
        "id": 2422172987,
        "lat": 17.4375612,
        "lon": 78.4569588,
        "tags": {
          "name": "Begumpet",
          "name:te": "\u0c2c\u0c47\u0c17\u0c02\u0c2a\u0c47\u0c1f\u0c4d",
          "network": "Hyderabad Metro",
          "note": "Contributors are requested to not edit the \"network\" and the \"operator\" tags. (2023/11/08)",
          "operator": "Hyderabad Metro Rail Limited",
          "public_transport": "stop_position",
          "railway": "stop",
          "subway": "yes",
          "wikidata": "Q84301996",
          "wikipedia": "en:Begumpet metro station"
        }
      },
      {
        "type": "node",
        "id": 2422172989,
        "lat": 17.436951,
        "lon": 78.4391108,
        "tags": {
          "alt_name": "Taruni Madhura Nagar",
          "name": "Madhura Nagar",
          "name:te": "\u0c2e\u0c27\u0c41\u0c30 \u0c28\u0c17\u0c30\u0c4d",
          "network": "Hyderabad Metro",
          "note": "Contributors are requested to not edit the \"network\" and the \"operator\" tags. (2023/11/08)",
          "operator": "Hyderabad Metro Rail Limited",
          "public_transport": "stop_position",
          "railway": "stop",
          "subway": "yes"
        }
      },
      {
        "type": "node",
        "id": 2422173110,
        "lat": 17.4353341,
        "lon": 78.4446031,
        "tags": {
          "name": "Ameerpet",
          "name:te": "\u0c05\u0c2e\u0c40\u0c30\u0c4d\u200c\u0c2a\u0c47\u0c1f\u0c4d",
          "network": "Hyderabad Metro",
          "note": "Contributors are requested to not edit the \"network\" and the \"operator\" tags. (2023/11/08)",
          "operator": "Hyderabad Metro Rail Limited",
          "public_transport": "stop_position",
          "public_transport:version": "2",
          "railway": "stop",
          "subway": "yes",
          "wikidata": "Q56701862",
          "wikipedia": "en:Ameerpet metro station"
        }
      },
      {
        "type": "node",
        "id": 2422988997,
        "lat": 17.4355002,
        "lon": 78.4447343,
        "tags": {
          "addr:city": "Hyderabad",
          "addr:city:ar": "\u062d\u064a\u062f\u0631 \u0622\u0628\u0627\u062f",
          "addr:city:ur": "\u062d\u06cc\u062f\u0631\u0622\u0628\u0627\u062f",
          "name": "Ameerpet",
          "name:te": "\u0c05\u0c2e\u0c40\u0c30\u0c4d\u200c\u0c2a\u0c47\u0c1f\u0c4d",
          "network": "Hyderabad Metro",
          "note": "Contributors are requested to not edit the \"network\" and the \"operator\" tags. (2023/11/08)",
          "operator": "Hyderabad Metro Rail Limited",
          "public_transport": "stop_position",
          "public_transport:version": "2",
          "railway": "stop",
          "subway": "yes",
          "wikidata": "Q56701862",
          "wikipedia": "en:Ameerpet metro station"
        }
      },
      {
        "type": "node",
        "id": 2422989191,
        "lat": 17.4202292,
        "lon": 78.4563489,
        "tags": {
          "addr:city": "Hyderabad",
          "addr:city:ar": "\u062d\u064a\u062f\u0631 \u0622\u0628\u0627\u062f",
          "addr:city:ur": "\u062d\u06cc\u062f\u0631\u0622\u0628\u0627\u062f",
          "name": "Irrum Manzil",
          "name:ml": "\u0d0e\u0d31\u0d02 \u0d2e\u0d7b\u0d38\u0d3f\u0d7d",
          "name:te": "\u0c07\u0c31\u0c02 \u0c2e\u0c02\u0c1c\u0c3f\u0c32\u0c4d",
          "network": "Hyderabad Metro",
          "note": "Contributors are requested to not edit the \"network\" and the \"operator\" tags. (2023/11/08)",
          "operator": "Hyderabad Metro Rail Limited",
          "public_transport": "stop_position",
          "public_transport:version": "2",
          "railway": "stop",
          "subway": "yes"
        }
      },
      {
        "type": "node",
        "id": 2422989193,
        "lat": 17.443146,
        "lon": 78.4408077,
        "tags": {
          "addr:city": "Hyderabad",
          "addr:city:ar": "\u062d\u064a\u062f\u0631 \u0622\u0628\u0627\u062f",
          "addr:city:ur": "\u062d\u06cc\u062f\u0631\u0622\u0628\u0627\u062f",
          "name": "S. R. Nagar",
          "name:te": "\u0c0e\u0c38\u0c4d.\u0c06\u0c30\u0c4d. \u0c28\u0c17\u0c30\u0c4d",
          "network": "Hyderabad Metro",
          "note": "Contributors are requested to not edit the \"network\" and the \"operator\" tags. (2023/11/08)",
          "operator": "Hyderabad Metro Rail Limited",
          "public_transport": "stop_position",
          "public_transport:version": "2",
          "railway": "stop",
          "subway": "yes"
        }
      },
      {
        "type": "node",
        "id": 2424019772,
        "lat": 17.4284456,
        "lon": 78.4513095,
        "tags": {
          "addr:city": "Hyderabad",
          "addr:city:ar": "\u062d\u064a\u062f\u0631 \u0622\u0628\u0627\u062f",
          "addr:city:ur": "\u062d\u06cc\u062f\u0631\u0622\u0628\u0627\u062f",
          "name": "Panjagutta",
          "name:ml": "\u0d2a\u0d1e\u0d4d\u0d1a\u0d17\u0d41\u0d1f\u0d4d\u0d1f",
          "name:te": "\u0c2a\u0c02\u0c1c\u0c3e\u0c17\u0c41\u0c1f\u0c4d\u0c1f",
          "network": "Hyderabad Metro",
          "note": "Contributors are requested to not edit the \"network\" and the \"operator\" tags. (2023/11/08)",
          "operator": "Hyderabad Metro Rail Limited",
          "public_transport": "stop_position",
          "public_transport:version": "2",
          "railway": "stop",
          "subway": "yes"
        }
      },
      {
        "type": "node",
        "id": 2425474186,
        "lat": 17.4470156,
        "lon": 78.438567,
        "tags": {
          "addr:city": "Hyderabad",
          "addr:city:ar": "\u062d\u064a\u062f\u0631 \u0622\u0628\u0627\u062f",
          "addr:city:ur": "\u062d\u06cc\u062f\u0631\u0622\u0628\u0627\u062f",
          "name": "ESI Hospital",
          "name:ml": "\u0d07.\u0d0e\u0d38\u0d4d.\u0d10 \u0d06\u0d36\u0d41\u0d2a\u0d24\u0d4d\u0d30\u0d3f",
          "name:te": "\u0c08.\u0c0e\u0c38\u0c4d.\u0c10 \u0c06\u0c38\u0c4d\u0c2a\u0c24\u0c4d\u0c30\u0c3f",
          "network": "Hyderabad Metro",
          "note": "Contributors are requested to not edit the \"network\" and the \"operator\" tags. (2023/11/08)",
          "operator": "Hyderabad Metro Rail Limited",
          "public_transport": "stop_position",
          "public_transport:version": "2",
          "railway": "stop",
          "subway": "yes"
        }
      },
      {
        "type": "node",
        "id": 2461447890,
        "lat": 17.4385942,
        "lon": 78.458062,
        "tags": {
          "name": "Begumpet",
          "name:kn": "\u0cac\u0cc7\u0c97\u0c82\u0caa\u0cc7\u0c9f\u0cc6",
          "name:ur": "\u0628\u06cc\u06af\u0645 \u067e\u06cc\u0679",
          "public_transport": "station",
          "railway": "station",
          "ref": "2",
          "train": "yes",
          "wikidata": "Q4880629",
          "wikipedia": "en:Begumpet railway station"
        }
      },
      {
        "type": "node",
        "id": 2461447891,
        "lat": 17.4386323,
        "lon": 78.4580666,
        "tags": {
          "name": "Begumpet",
          "name:kn": "\u0cac\u0cc7\u0c97\u0c82\u0caa\u0cc7\u0c9f\u0cc6",
          "public_transport": "stop_position",
          "railway": "stop",
          "ref": "1",
          "train": "yes"
        }
      },
      {
        "type": "node",
        "id": 3159027221,
        "lat": 17.4362648,
        "lon": 78.4381583,
        "tags": {
          "addr:street": "Yousufguda Main Road",
          "amenity": "fuel",
          "brand": "Indian Oil",
          "brand:wikidata": "Q1289348",
          "brand:wikipedia": "en:Indian Oil Corporation",
          "name": "Indian Oil",
          "opening_hours": "11:00-22:00",
          "operator": "Indian oil"
        }
      },
      {
        "type": "node",
        "id": 4407581196,
        "lat": 17.42008,
        "lon": 78.4308367,
        "tags": {
          "amenity": "bus_station",
          "bus": "yes",
          "name": "Nandi Nagar bus stand",
          "name:en": "Nandi Nagar bus stand",
          "public_transport": "station"
        }
      },
      {
        "type": "node",
        "id": 4556707782,
        "lat": 17.4457469,
        "lon": 78.4522785,
        "tags": {
          "local_ref": "1",
          "name": "Nature Cure Hospital",
          "name:te": "\u0c2a\u0c4d\u0c30\u0c15\u0c43\u0c24\u0c3f \u0c1a\u0c3f\u0c15\u0c3f\u0c24\u0c4d\u0c38\u0c3e\u0c32\u0c2f \u0c30\u0c48\u0c32\u0c4d\u0c35\u0c47 \u0c38\u0c4d\u0c1f\u0c47\u0c37\u0c28\u0c4d",
          "public_transport": "stop_position",
          "railway": "stop",
          "ref": "2",
          "train": "yes"
        }
      },
      {
        "type": "node",
        "id": 4915906017,
        "lat": 17.4306214,
        "lon": 78.4556721,
        "tags": {
          "amenity": "fuel",
          "compressed_air": "yes",
          "name": "Petrol Pump"
        }
      },
      {
        "type": "node",
        "id": 5620024293,
        "lat": 17.4195272,
        "lon": 78.4486519,
        "tags": {
          "amenity": "cinema",
          "brand": "INOX Leisure",
          "brand:wikidata": "Q5972349",
          "name": "INOX",
          "name:te": "\u0c10\u0c28\u0c3e\u0c15\u0c4d\u0c38\u0c4d",
          "short_name": "INOX"
        }
      },
      {
        "type": "node",
        "id": 5787787938,
        "lat": 17.4300702,
        "lon": 78.4232137,
        "tags": {
          "name": "Road No 5 Jubilee Hills",
          "name:te": "\u0c30\u0c4b\u0c21\u0c4d \u0c28\u0c02 5 \u0c1c\u0c42\u0c2c\u0c3f\u0c32\u0c40 \u0c39\u0c3f\u0c32\u0c4d\u0c38\u0c4d",
          "network": "Hyderabad Metro",
          "note": "Contributors are requested to not edit the \"network\" and the \"operator\" tags. (2023/11/08)",
          "operator": "Hyderabad Metro Rail Limited",
          "public_transport": "stop_position",
          "railway": "stop",
          "subway": "yes"
        }
      },
      {
        "type": "node",
        "id": 5787787982,
        "lat": 17.4353528,
        "lon": 78.4446353,
        "tags": {
          "name": "Ameerpet",
          "name:te": "\u0c05\u0c2e\u0c40\u0c30\u0c4d\u200c\u0c2a\u0c47\u0c1f\u0c4d",
          "network": "Hyderabad Metro",
          "note": "Contributors are requested to not edit the \"network\" and the \"operator\" tags. (2023/11/08)",
          "operator": "Hyderabad Metro Rail Limited",
          "public_transport": "stop_position",
          "public_transport:version": "2",
          "railway": "stop",
          "subway": "yes",
          "wikidata": "Q56701862",
          "wikipedia": "en:Ameerpet metro station"
        }
      },
      {
        "type": "node",
        "id": 5787787991,
        "lat": 17.4354849,
        "lon": 78.4447024,
        "tags": {
          "addr:city": "Hyderabad",
          "addr:city:ar": "\u062d\u064a\u062f\u0631 \u0622\u0628\u0627\u062f",
          "addr:city:ur": "\u062d\u06cc\u062f\u0631\u0622\u0628\u0627\u062f",
          "name": "Ameerpet",
          "name:te": "\u0c05\u0c2e\u0c40\u0c30\u0c4d\u200c\u0c2a\u0c47\u0c1f\u0c4d",
          "network": "Hyderabad Metro",
          "note": "Contributors are requested to not edit the \"network\" and the \"operator\" tags. (2023/11/08)",
          "operator": "Hyderabad Metro Rail Limited",
          "public_transport": "stop_position",
          "public_transport:version": "2",
          "railway": "stop",
          "subway": "yes",
          "wikidata": "Q56701862",
          "wikipedia": "en:Ameerpet metro station"
        }
      },
      {
        "type": "node",
        "id": 5787787993,
        "lat": 17.4431312,
        "lon": 78.4407689,
        "tags": {
          "addr:city": "Hyderabad",
          "addr:city:ar": "\u062d\u064a\u062f\u0631 \u0622\u0628\u0627\u062f",
          "addr:city:ur": "\u062d\u06cc\u062f\u0631\u0622\u0628\u0627\u062f",
          "name": "S. R. Nagar",
          "network": "Hyderabad Metro",
          "note": "Contributors are requested to not edit the \"network\" and the \"operator\" tags. (2023/11/08)",
          "operator": "Hyderabad Metro Rail Limited",
          "public_transport": "stop_position",
          "public_transport:version": "2",
          "railway": "stop",
          "subway": "yes"
        }
      },
      {
        "type": "node",
        "id": 5787788011,
        "lat": 17.4289005,
        "lon": 78.4508989,
        "tags": {
          "addr:city": "Hyderabad",
          "addr:city:ar": "\u062d\u064a\u062f\u0631 \u0622\u0628\u0627\u062f",
          "addr:city:ur": "\u062d\u06cc\u062f\u0631\u0622\u0628\u0627\u062f",
          "name": "Panjagutta",
          "name:ml": "\u0d2a\u0d1e\u0d4d\u0d1a\u0d17\u0d41\u0d1f\u0d4d\u0d1f",
          "name:te": "\u0c2a\u0c02\u0c1c\u0c3e\u0c17\u0c41\u0c1f\u0c4d\u0c1f",
          "network": "Hyderabad Metro",
          "note": "Contributors are requested to not edit the \"network\" and the \"operator\" tags. (2023/11/08)",
          "operator": "Hyderabad Metro Rail Limited",
          "public_transport": "stop_position",
          "public_transport:version": "2",
          "railway": "stop",
          "subway": "yes"
        }
      },
      {
        "type": "node",
        "id": 5787788712,
        "lat": 17.4300272,
        "lon": 78.4231997,
        "tags": {
          "name": "Road No 5 Jubilee Hills",
          "name:te": "\u0c30\u0c4b\u0c21\u0c4d \u0c28\u0c02 5 \u0c1c\u0c42\u0c2c\u0c3f\u0c32\u0c40 \u0c39\u0c3f\u0c32\u0c4d\u0c38\u0c4d",
          "network": "Hyderabad Metro",
          "note": "Contributors are requested to not edit the \"network\" and the \"operator\" tags. (2023/11/08)",
          "operator": "Hyderabad Metro Rail Limited",
          "public_transport": "stop_position",
          "railway": "stop",
          "subway": "yes"
        }
      },
      {
        "type": "node",
        "id": 5787788719,
        "lat": 17.435108,
        "lon": 78.4273374,
        "tags": {
          "name": "Yusufguda",
          "name:te": "\u0c2f\u0c42\u0c38\u0c41\u0c2b\u0c4d\u200c\u0c17\u0c42\u0c21",
          "network": "Hyderabad Metro",
          "note": "Contributors are requested to not edit the \"network\" and the \"operator\" tags. (2023/11/08)",
          "operator": "Hyderabad Metro Rail Limited",
          "public_transport": "stop_position",
          "railway": "stop",
          "subway": "yes"
        }
      },
      {
        "type": "node",
        "id": 5787788969,
        "lat": 17.4375841,
        "lon": 78.456906,
        "tags": {
          "name": "Begumpet",
          "name:te": "\u0c2c\u0c47\u0c17\u0c02\u0c2a\u0c47\u0c1f\u0c4d",
          "network": "Hyderabad Metro",
          "note": "Contributors are requested to not edit the \"network\" and the \"operator\" tags. (2023/11/08)",
          "operator": "Hyderabad Metro Rail Limited",
          "public_transport": "stop_position",
          "railway": "stop",
          "subway": "yes",
          "wikidata": "Q84301996",
          "wikipedia": "en:Begumpet metro station"
        }
      },
      {
        "type": "node",
        "id": 6444553238,
        "lat": 17.4431396,
        "lon": 78.4407903,
        "tags": {
          "name": "S. R. Nagar",
          "name:ml": "\u0d0e\u0d38\u0d4d \u0d06\u0d7c \u0d28\u0d17\u0d7c",
          "name:te": "\u0c0e\u0c38\u0c4d.\u0c06\u0c30\u0c4d. \u0c28\u0c17\u0c30\u0c4d",
          "network": "Hyderabad Metro",
          "note": "Contributors are requested to not edit the \"network\" and the \"operator\" tags. (2023/11/08)",
          "operator": "Hyderabad Metro Rail Limited",
          "public_transport": "station",
          "public_transport:version": "2",
          "railway": "station",
          "station": "subway",
          "subway": "yes",
          "wikidata": "Q83175963"
        }
      },
      {
        "type": "node",
        "id": 6447191882,
        "lat": 17.4357214,
        "lon": 78.4447933,
        "tags": {
          "name": "Ameerpet (Red Line)",
          "name:ml": "\u0d05\u0d2e\u0d40\u0d7c\u0d2a\u0d47\u0d1f\u0d4d\u0d1f\u0d4d",
          "name:te": "\u0c05\u0c2e\u0c40\u0c30\u0c4d\u200c\u0c2a\u0c47\u0c1f\u0c4d",
          "network": "Hyderabad Metro",
          "note": "Contributors are requested to not edit the \"network\" and the \"operator\" tags. (2023/11/08)",
          "operator": "Hyderabad Metro Rail Limited",
          "public_transport": "station",
          "public_transport:version": "2",
          "railway": "station",
          "station": "subway",
          "subway": "yes",
          "wikidata": "Q56701862",
          "wikipedia": "en:Ameerpet metro station"
        }
      },
      {
        "type": "node",
        "id": 6672440858,
        "lat": 17.4351132,
        "lon": 78.4273216,
        "tags": {
          "name": "Yusufguda",
          "name:ml": "\u0d2f\u0d42\u0d38\u0d41\u0d2b\u0d4d\u0d17\u0d41\u0d21",
          "name:te": "\u0c2f\u0c42\u0c38\u0c41\u0c2b\u0c4d\u200c\u0c17\u0c42\u0c21",
          "name:ur": "\u06cc\u0648\u0633\u0641 \u06af\u0648\u0691\u06c1",
          "network": "Hyderabad Metro",
          "note": "Contributors are requested to not edit the \"network\" and the \"operator\" tags. (2023/11/08)",
          "operator": "Hyderabad Metro Rail Limited",
          "public_transport": "station",
          "railway": "station",
          "station": "subway",
          "subway": "yes",
          "wikidata": "Q85518572"
        }
      },
      {
        "type": "node",
        "id": 6700511122,
        "lat": 17.4352864,
        "lon": 78.4447834,
        "tags": {
          "name": "Ameerpet (Blue Line)",
          "name:ml": "\u0d05\u0d2e\u0d40\u0d7c\u0d2a\u0d47\u0d1f\u0d4d\u0d1f\u0d4d",
          "name:te": "\u0c05\u0c2e\u0c40\u0c30\u0c4d\u200c\u0c2a\u0c47\u0c1f\u0c4d",
          "network": "Hyderabad Metro",
          "note": "Contributors are requested to not edit the \"network\" and the \"operator\" tags. (2023/11/08)",
          "operator": "Hyderabad Metro Rail Limited",
          "public_transport": "station",
          "public_transport:version": "2",
          "railway": "station",
          "station": "subway",
          "subway": "yes",
          "wikidata": "Q56701862",
          "wikipedia": "en:Ameerpet metro station"
        }
      },
      {
        "type": "node",
        "id": 6771713701,
        "lat": 17.4267669,
        "lon": 78.4531002,
        "tags": {
          "addr:city": "Hyderabad",
          "addr:state": "Telangana",
          "addr:street": "Punjagutta",
          "air_conditioning": "yes",
          "amenity": "cinema",
          "brand": "PVR Cinemas",
          "brand:wikidata": "Q3359908",
          "description": "it is a place for wa\ntching movies",
          "name": "PVR Cinemas",
          "short_name": "PVR"
        }
      },
      {
        "type": "node",
        "id": 7052069769,
        "lat": 17.4369785,
        "lon": 78.4390865,
        "tags": {
          "alt_name": "Taruni Madhura Nagar",
          "name": "Madhura Nagar",
          "name:te": "\u0c2e\u0c27\u0c41\u0c30 \u0c28\u0c17\u0c30\u0c4d",
          "network": "Hyderabad Metro",
          "note": "Contributors are requested to not edit the \"network\" and the \"operator\" tags. (2023/11/08)",
          "operator": "Hyderabad Metro Rail Limited",
          "public_transport": "stop_position",
          "railway": "stop",
          "subway": "yes"
        }
      },
      {
        "type": "node",
        "id": 7052069770,
        "lat": 17.4369652,
        "lon": 78.4390993,
        "tags": {
          "alt_name": "Taruni Madhura Nagar",
          "name": "Madhura Nagar",
          "name:ml": "\u0d2e\u0d27\u0d41\u0d30 \u0d28\u0d17\u0d7c",
          "name:te": "\u0c2e\u0c27\u0c41\u0c30 \u0c28\u0c17\u0c30\u0c4d",
          "name:ur": "\u0645\u062f\u06be\u0648\u0631\u0627 \u0646\u06af\u0631",
          "network": "Hyderabad Metro",
          "note": "Contributors are requested to not edit the \"network\" and the \"operator\" tags. (2023/11/08)",
          "operator": "Hyderabad Metro Rail Limited",
          "public_transport": "station",
          "railway": "station",
          "station": "subway",
          "subway": "yes",
          "wikidata": "Q63250572"
        }
      },
      {
        "type": "node",
        "id": 7052069771,
        "lat": 17.4351156,
        "lon": 78.4273014,
        "tags": {
          "name": "Yusufguda",
          "name:te": "\u0c2f\u0c42\u0c38\u0c41\u0c2b\u0c4d\u200c\u0c17\u0c42\u0c21",
          "network": "Hyderabad Metro",
          "note": "Contributors are requested to not edit the \"network\" and the \"operator\" tags. (2023/11/08)",
          "operator": "Hyderabad Metro Rail Limited",
          "public_transport": "stop_position",
          "railway": "stop",
          "subway": "yes"
        }
      },
      {
        "type": "node",
        "id": 7052069772,
        "lat": 17.4300489,
        "lon": 78.4232069,
        "tags": {
          "name": "Road No 5 Jubilee Hills",
          "name:ml": "\u0d31\u0d4b\u0d21\u0d4d \u0d28\u0d2e\u0d4d\u0d2a\u0d7c 5 \u0d1c\u0d42\u0d2c\u0d3f\u0d32\u0d3f \u0d39\u0d3f\u0d7d\u0d38\u0d4d",
          "name:te": "\u0c30\u0c4b\u0c21\u0c4d \u0c28\u0c02 5 \u0c1c\u0c42\u0c2c\u0c3f\u0c32\u0c40 \u0c39\u0c3f\u0c32\u0c4d\u0c38\u0c4d",
          "network": "Hyderabad Metro",
          "note": "Contributors are requested to not edit the \"network\" and the \"operator\" tags. (2023/11/08)",
          "operator": "Hyderabad Metro Rail Limited",
          "public_transport": "station",
          "railway": "station",
          "station": "subway",
          "subway": "yes",
          "wikidata": "Q108874431"
        }
      },
      {
        "type": "node",
        "id": 7180086061,
        "lat": 17.435901,
        "lon": 78.4273843,
        "tags": {
          "amenity": "fuel",
          "brand": "Hindustan Petroleum",
          "brand:wikidata": "Q1619375",
          "brand:wikipedia": "en:Hindustan Petroleum",
          "name": "HP",
          "official_name": "Hindustan Petroleum"
        }
      },
      {
        "type": "node",
        "id": 7180107457,
        "lat": 17.4370042,
        "lon": 78.4200862,
        "tags": {
          "amenity": "theatre",
          "name": "open air theater police line"
        }
      },
      {
        "type": "node",
        "id": 10789422582,
        "lat": 17.4346495,
        "lon": 78.448776,
        "tags": {
          "addr:city": "Hyderabad",
          "addr:state": "Telangana",
          "air_conditioning": "yes",
          "amenity": "cinema",
          "min_age": "18",
          "name": "Sheesh Mahal"
        }
      },
      {
        "type": "node",
        "id": 10789422583,
        "lat": 17.4371929,
        "lon": 78.448703,
        "tags": {
          "addr:city": "Hyderabad",
          "addr:state": "Telangana",
          "addr:street": "Ameerpet",
          "air_conditioning": "yes",
          "amenity": "cinema",
          "branch": "Ameerpet",
          "brand": "Asian",
          "name": "AAA Cinemas"
        }
      },
      {
        "type": "node",
        "id": 10789477897,
        "lat": 17.4286801,
        "lon": 78.4504275,
        "tags": {
          "addr:city": "Hyderabad",
          "addr:state": "Telangana",
          "addr:street": "Punjagutta",
          "air_conditioning": "yes",
          "amenity": "cinema",
          "branch": "Punjagutta",
          "brand": "PVR Cinemas",
          "brand:wikidata": "Q3359908",
          "name": "PVR Next Galleria",
          "short_name": "PVR",
          "wheelchair": "yes"
        }
      },
      {
        "type": "node",
        "id": 10789488362,
        "lat": 17.4208001,
        "lon": 78.4554217,
        "tags": {
          "addr:city": "Hyderabad",
          "addr:state": "Telangana",
          "addr:street": "Irrum manzil Road",
          "air_conditioning": "yes",
          "amenity": "cinema",
          "branch": "Irrum Manzil",
          "brand": "PVR Cinemas",
          "brand:wikidata": "Q3359908",
          "name": "PVR Next premia",
          "short_name": "PVR",
          "wheelchair": "yes"
        }
      },
      {
        "type": "node",
        "id": 11027534565,
        "lat": 17.4304735,
        "lon": 78.4483917,
        "tags": {
          "amenity": "cinema"
        }
      },
      {
        "type": "node",
        "id": 11738179192,
        "lat": 17.4209654,
        "lon": 78.4558011,
        "tags": {
          "addr:city": "Hyderabad",
          "addr:city:ar": "\u062d\u064a\u062f\u0631 \u0622\u0628\u0627\u062f",
          "addr:city:ur": "\u062d\u06cc\u062f\u0631\u0622\u0628\u0627\u062f",
          "name": "Irrum Manzil",
          "name:ml": "\u0d0e\u0d31\u0d02 \u0d2e\u0d7b\u0d38\u0d3f\u0d7d",
          "name:te": "\u0c07\u0c31\u0c02 \u0c2e\u0c02\u0c1c\u0c3f\u0c32\u0c4d",
          "network": "Hyderabad Metro",
          "note": "Contributors are requested to not edit the \"network\" and the \"operator\" tags. (2023/11/08)",
          "operator": "Hyderabad Metro Rail Limited",
          "public_transport": "stop_position",
          "public_transport:version": "2",
          "railway": "stop",
          "subway": "yes"
        }
      },
      {
        "type": "node",
        "id": 11738179193,
        "lat": 17.4205559,
        "lon": 78.456101,
        "tags": {
          "internet_access": "no",
          "name": "Irrum Manzil",
          "name:ml": "\u0d0e\u0d31\u0d02 \u0d2e\u0d7b\u0d38\u0d3f\u0d7d",
          "name:te": "\u0c07\u0c31\u0c02 \u0c2e\u0c02\u0c1c\u0c3f\u0c32\u0c4d",
          "name:ur": "\u0627\u0631\u0645 \u0645\u0646\u0632\u0644",
          "network": "Hyderabad Metro",
          "note": "Contributors are requested to not edit the \"network\" and the \"operator\" tags. (2023/11/08)",
          "operator": "Hyderabad Metro Rail Limited",
          "public_transport": "station",
          "railway": "station",
          "station": "subway",
          "subway": "yes",
          "website": "https://hmrl.co.in",
          "wheelchair": "yes",
          "wikidata": "Q85770033"
        }
      },
      {
        "type": "node",
        "id": 11738179195,
        "lat": 17.4474042,
        "lon": 78.4383501,
        "tags": {
          "internet_access": "no",
          "name": "ESI Hospital",
          "name:ml": "\u0d07.\u0d0e\u0d38\u0d4d.\u0d10 \u0d06\u0d36\u0d41\u0d2a\u0d24\u0d4d\u0d30\u0d3f",
          "name:te": "\u0c08.\u0c0e\u0c38\u0c4d.\u0c10 \u0c06\u0c38\u0c4d\u0c2a\u0c24\u0c4d\u0c30\u0c3f",
          "network": "Hyderabad Metro",
          "note": "Contributors are requested to not edit the \"network\" and the \"operator\" tags. (2023/11/08)",
          "operator": "Hyderabad Metro Rail Limited",
          "public_transport": "station",
          "railway": "station",
          "station": "subway",
          "subway": "yes",
          "website": "https://hmrl.co.in",
          "wheelchair": "yes",
          "wikidata": "Q83008743"
        }
      },
      {
        "type": "node",
        "id": 11738179216,
        "lat": 17.4477279,
        "lon": 78.4381333,
        "tags": {
          "addr:city": "Hyderabad",
          "addr:city:ar": "\u062d\u064a\u062f\u0631 \u0622\u0628\u0627\u062f",
          "addr:city:ur": "\u062d\u06cc\u062f\u0631\u0622\u0628\u0627\u062f",
          "name": "ESI Hospital",
          "name:ml": "\u0d07.\u0d0e\u0d38\u0d4d.\u0d10 \u0d06\u0d36\u0d41\u0d2a\u0d24\u0d4d\u0d30\u0d3f",
          "name:te": "\u0c08.\u0c0e\u0c38\u0c4d.\u0c10 \u0c06\u0c38\u0c4d\u0c2a\u0c24\u0c4d\u0c30\u0c3f",
          "network": "Hyderabad Metro",
          "note": "Contributors are requested to not edit the \"network\" and the \"operator\" tags. (2023/11/08)",
          "operator": "Hyderabad Metro Rail Limited",
          "public_transport": "stop_position",
          "public_transport:version": "2",
          "railway": "stop",
          "subway": "yes"
        }
      },
      {
        "type": "node",
        "id": 11738663633,
        "lat": 17.4286312,
        "lon": 78.4511322,
        "tags": {
          "internet_access": "no",
          "name": "Panjagutta",
          "name:ml": "\u0d2a\u0d1e\u0d4d\u0d1a\u0d17\u0d41\u0d1f\u0d4d\u0d1f",
          "name:te": "\u0c2a\u0c02\u0c1c\u0c3e\u0c17\u0c41\u0c1f\u0c4d\u0c1f",
          "name:ur": "\u067e\u0646\u062c\u06c1 \u06af\u0679\u06c1",
          "network": "Hyderabad Metro",
          "note": "Contributors are requested to not edit the \"network\" and the \"operator\" tags. (2023/11/08)",
          "operator": "Hyderabad Metro Rail Limited",
          "public_transport": "station",
          "railway": "station",
          "station": "subway",
          "subway": "yes",
          "website": "https://hmrl.co.in",
          "wheelchair": "yes"
        }
      },
      {
        "type": "node",
        "id": 12028767314,
        "lat": 17.4087339,
        "lon": 78.4388344,
        "tags": {
          "amenity": "fuel",
          "brand": "Indian Oil",
          "brand:wikidata": "Q1289348",
          "name": "Indian Oil"
        }
      }
    ]
  }
}