{
  "pois_1km": {
    "version": 0.6,
    "generator": "Overpass API 0.7.62.8 e802775f",
    "osm3s": {
      "timestamp_osm_base": "2025-09-06T08:32:47Z",
      "copyright": "The data included in this document is from www.openstreetmap.org. The data is made available under ODbL."
    },
    "elements": [
      {
        "type": "node",
        "id": 3372041135,
        "lat": 17.4240182,
        "lon": 78.3442736,
        "tags": {
          "amenity": "fast_food",
          "brand": "Domino's",
          "brand:ks": "\u0688\u0648\u0645\u06cc\u0646\u0648\u0632",
          "brand:pa": "\u0a21\u0a4b\u0a2e\u0a40\u0a28\u0a4b\u0a1c\u0a3c",
          "brand:ur": "\u0688\u0648\u0645\u06cc\u0646\u0648\u0632",
          "brand:wikidata": "Q839466",
          "brand:wikipedia": "en:Domino's Pizza",
          "cuisine": "pizza",
          "name": "Domino's",
          "name:ks": "\u0688\u0648\u0645\u06cc\u0646\u0648\u0632",
          "name:pa": "\u0a21\u0a4b\u0a2e\u0a40\u0a28\u0a4b\u0a1c\u0a3c",
          "name:ur": "\u0688\u0648\u0645\u06cc\u0646\u0648\u0632",
          "takeaway": "yes"
        }
      },
      {
        "type": "node",
        "id": 3375924739,
        "lat": 17.421895,
        "lon": 78.3383773,
        "tags": {
          "amenity": "atm",
          "brand": "Citibank",
          "brand:wikidata": "Q857063",
          "operator": "Citibank",
          "operator:wikidata": "Q857063"
        }
      },
      {
        "type": "node",
        "id": 4508556289,
        "lat": 17.4217717,
        "lon": 78.3387768,
        "tags": {
          "amenity": "fast_food",
          "cuisine": "pizza;indian;american;italian;juice",
          "name": "Kapil Towers Food Court",
          "name:en": "Kapil Towers Food Court"
        }
      },
      {
        "type": "node",
        "id": 4773253021,
        "lat": 17.4269665,
        "lon": 78.343947,
        "tags": {
          "addr:city": "Hyderabad,Telangana",
          "addr:housenumber": "203/1",
          "addr:postcode": "500032",
          "addr:street": "Manikonda Village, Gatchibowli SEZ, Madhava Reddy Colony, Gachibowli",
          "amenity": "restaurant",
          "cuisine": "chinese",
          "level": "0",
          "name": "Bowl-O-China",
          "smoking": "no",
          "takeaway": "no"
        }
      },
      {
        "type": "node",
        "id": 5877511806,
        "lat": 17.4219679,
        "lon": 78.3386411,
        "tags": {
          "amenity": "cafe",
          "name": "Driven Cafe"
        }
      },
      {
        "type": "node",
        "id": 5905914156,
        "lat": 17.4220887,
        "lon": 78.3389987,
        "tags": {
          "amenity": "bank",
          "brand": "Axis Bank",
          "brand:wikidata": "Q2003549",
          "name": "Axis Bank",
          "wikidata": "Q73764584"
        }
      },
      {
        "type": "node",
        "id": 5905914157,
        "lat": 17.4219675,
        "lon": 78.3389589,
        "tags": {
          "amenity": "fast_food",
          "brand": "Subway",
          "brand:pa": "\u0a38\u0a2c\u0a35\u0a47\u0a05",
          "brand:ur": "\u0633\u0628 \u0648\u06d2",
          "brand:wikidata": "Q244457",
          "brand:wikipedia": "en:Subway (restaurant)",
          "cuisine": "sandwich",
          "name": "Subway",
          "name:pa": "\u0a38\u0a2c\u0a35\u0a47\u0a05",
          "name:ur": "\u0633\u0628 \u0648\u06d2",
          "takeaway": "yes"
        }
      },
      {
        "type": "node",
        "id": 6261235082,
        "lat": 17.41867,
        "lon": 78.3388973,
        "tags": {
          "amenity": "fast_food"
        }
      },
      {
        "type": "node",
        "id": 6594823489,
        "lat": 17.4242094,
        "lon": 78.3439979,
        "tags": {
          "air_conditioning": "yes",
          "amenity": "restaurant",
          "bar": "yes",
          "level": "3",
          "name": "The English Cafe",
          "outdoor_seating": "no"
        }
      },
      {
        "type": "node",
        "id": 6594823490,
        "lat": 17.4241728,
        "lon": 78.3440842,
        "tags": {
          "amenity": "restaurant",
          "level": "0",
          "name": "Deli 9"
        }
      },
      {
        "type": "node",
        "id": 6594823491,
        "lat": 17.4241883,
        "lon": 78.3439964,
        "tags": {
          "amenity": "restaurant",
          "brand": "Barbeque Nation",
          "brand:wikidata": "Q4859568",
          "cuisine": "barbecue",
          "name": "Barbeque Nation"
        }
      },
      {
        "type": "node",
        "id": 10603326041,
        "lat": 17.4220548,
        "lon": 78.3388013,
        "tags": {
          "amenity": "bank",
          "atm": "yes",
          "brand": "HDFC Bank",
          "brand:wikidata": "Q631047",
          "name": "HDFC Bank",
          "short_name": "HDFC"
        }
      },
      {
        "type": "node",
        "id": 11341063146,
        "lat": 17.4155088,
        "lon": 78.3407077,
        "tags": {
          "name": "Ratnadeep Supermarket",
          "payment:cards": "yes",
          "payment:cash": "yes",
          "payment:credit_cards": "yes",
          "payment:debit_cards": "yes",
          "payment:upi": "yes",
          "shop": "supermarket",
          "wheelchair": "yes"
        }
      },
      {
        "type": "node",
        "id": 12951131218,
        "lat": 17.4228398,
        "lon": 78.3375475,
        "tags": {
          "addr:city": "Hyderabad",
          "addr:district": "Telangana",
          "addr:housenumber": "Plot No 12 Nanakramguda",
          "addr:postcode": "500032",
          "addr:street": "Gachibowli",
          "amenity": "bank",
          "branch": "Hyderabad Gachibowli Financial District",
          "brand": "ICICI Bank",
          "brand:wikidata": "Q1653258",
          "name": "ICICI Bank",
          "short_name": "ICICI"
        }
      }
    ]
  },
  "pois_2_5km": {
    "version": 0.6,
    "generator": "Overpass API 0.7.62.8 e802775f",
    "osm3s": {
      "timestamp_osm_base": "2025-09-06T08:33:55Z",
      "copyright": "The data included in this document is from www.openstreetmap.org. The data is made available under ODbL."
    },
    "elements": [
      {
        "type": "node",
        "id": 1528724057,
        "lat": 17.4218292,
        "lon": 78.338227,
        "tags": {
          "amenity": "fuel",
          "brand": "Essar",
          "brand:wikidata": "Q5399372",
          "compressed_air": "yes",
          "name": "Essar Petrol Pump"
        }
      }
    ]
  }
}