{
  "pois_1km": {
    "version": 0.6,
    "generator": "Overpass API 0.7.62.8 e802775f",
    "osm3s": {
      "timestamp_osm_base": "2025-09-06T08:31:51Z",
      "copyright": "The data included in this document is from www.openstreetmap.org. The data is made available under ODbL."
    },
    "elements": [
      {
        "type": "node",
        "id": 813570962,
        "lat": 17.4452017,
        "lon": 78.4641516,
        "tags": {
          "amenity": "atm",
          "operator": "RBS"
        }
      },
      {
        "type": "node",
        "id": 813570986,
        "lat": 17.4452093,
        "lon": 78.4645808,
        "tags": {
          "amenity": "atm",
          "operator": "ING"
        }
      },
      {
        "type": "node",
        "id": 813571022,
        "lat": 17.4447551,
        "lon": 78.4645902,
        "tags": {
          "amenity": "atm",
          "operator": "Bank of India"
        }
      },
      {
        "type": "node",
        "id": 813571052,
        "lat": 17.4447424,
        "lon": 78.464743,
        "tags": {
          "amenity": "bank",
          "atm": "yes",
          "brand": "HDFC",
          "brand:wikidata": "Q631047",
          "brand:wikipedia": "en:HDFC Bank",
          "name": "HDFC Bank",
          "short_name": "HDFC",
          "website": "https://www.hdfcbank.com"
        }
      },
      {
        "type": "node",
        "id": 813571102,
        "lat": 17.4433171,
        "lon": 78.4768552,
        "tags": {
          "amenity": "bank",
          "atm": "yes",
          "branch": "SP Road",
          "brand": "SBI",
          "brand:wikidata": "Q1340361",
          "brand:wikipedia": "en:State Bank of India",
          "name": "State Bank of India",
          "operator": "State Bank of India",
          "short_name": "SBI"
        }
      },
      {
        "type": "node",
        "id": 813571150,
        "lat": 17.4436222,
        "lon": 78.4802638,
        "tags": {
          "amenity": "atm",
          "operator": "Citibank"
        }
      },
      {
        "type": "node",
        "id": 817353632,
        "lat": 17.4432794,
        "lon": 78.4798416,
        "tags": {
          "amenity": "fast_food",
          "cuisine": "pizza",
          "name": "Pizza Hut"
        }
      },
      {
        "type": "node",
        "id": 817354436,
        "lat": 17.444522,
        "lon": 78.4631239,
        "tags": {
          "name": "Foodworld",
          "name:te": "\u0c2b\u0c41\u0c21\u0c4d \u0c35\u0c30\u0c32\u0c4d\u0c21\u0c4d",
          "shop": "supermarket"
        }
      },
      {
        "type": "node",
        "id": 817354437,
        "lat": 17.4451726,
        "lon": 78.4654438,
        "tags": {
          "amenity": "bank",
          "brand:wikidata": "Q2004088",
          "name": "Syndicate Bank",
          "name:en": "Syndicate Bank",
          "website": "https://www.syndicatebank.in",
          "wikidata": "Q2004088",
          "wikimedia_commons": "Category:Syndicate Bank",
          "wikipedia": "en:Syndicate Bank"
        }
      },
      {
        "type": "node",
        "id": 817354478,
        "lat": 17.4445563,
        "lon": 78.4670675,
        "tags": {
          "amenity": "atm",
          "operator": "CitiBank"
        }
      },
      {
        "type": "node",
        "id": 902311097,
        "lat": 17.4432714,
        "lon": 78.4787687,
        "tags": {
          "amenity": "restaurant",
          "brand": "Subway",
          "brand:pa": "\u0a38\u0a2c\u0a35\u0a47\u0a05",
          "brand:ur": "\u0633\u0628 \u0648\u06d2",
          "brand:wikidata": "Q244457",
          "brand:wikipedia": "en:Subway (restaurant)",
          "cuisine": "sandwich",
          "name": "Subway",
          "name:pa": "\u0a38\u0a2c\u0a35\u0a47\u0a05",
          "name:ur": "\u0633\u0628 \u0648\u06d2"
        }
      },
      {
        "type": "node",
        "id": 902311098,
        "lat": 17.4432919,
        "lon": 78.4790047,
        "tags": {
          "amenity": "fast_food",
          "cuisine": "pizza",
          "name": "Pizza Corner"
        }
      },
      {
        "type": "node",
        "id": 902311099,
        "lat": 17.4432817,
        "lon": 78.4788867,
        "tags": {
          "amenity": "restaurant",
          "cuisine": "coffee_shop",
          "name": "Barista"
        }
      },
      {
        "type": "node",
        "id": 2014860754,
        "lat": 17.4432367,
        "lon": 78.4795372,
        "tags": {
          "amenity": "fast_food",
          "brand": "Domino's",
          "brand:ks": "\u0688\u0648\u0645\u06cc\u0646\u0648\u0632",
          "brand:pa": "\u0a21\u0a4b\u0a2e\u0a40\u0a28\u0a4b\u0a1c\u0a3c",
          "brand:ur": "\u0688\u0648\u0645\u06cc\u0646\u0648\u0632",
          "brand:wikidata": "Q839466",
          "brand:wikipedia": "en:Domino's Pizza",
          "cuisine": "pizza",
          "name": "Domino's",
          "name:ks": "\u0688\u0648\u0645\u06cc\u0646\u0648\u0632",
          "name:pa": "\u0a21\u0a4b\u0a2e\u0a40\u0a28\u0a4b\u0a1c\u0a3c",
          "name:ur": "\u0688\u0648\u0645\u06cc\u0646\u0648\u0632"
        }
      },
      {
        "type": "node",
        "id": 2014860758,
        "lat": 17.4431928,
        "lon": 78.4800077,
        "tags": {
          "amenity": "restaurant",
          "cuisine": "indian",
          "name": "Chutneys"
        }
      },
      {
        "type": "node",
        "id": 2712512903,
        "lat": 17.4421937,
        "lon": 78.4634506,
        "tags": {
          "leisure": "park",
          "name": "Alam Thota Park"
        }
      },
      {
        "type": "node",
        "id": 2712512999,
        "lat": 17.4433487,
        "lon": 78.4648412,
        "tags": {
          "leisure": "park",
          "name": "celebrity club park"
        }
      },
      {
        "type": "node",
        "id": 3010475742,
        "lat": 17.4440891,
        "lon": 78.4695349,
        "tags": {
          "amenity": "bank",
          "atm": "yes",
          "brand:wikidata": "Q2003476",
          "brand:wikipedia": "en:Andhra Bank",
          "name": "Andhra Bank",
          "name:en": "Andhra Bank",
          "website": "https://www.andhrabank.in"
        }
      },
      {
        "type": "node",
        "id": 3010475761,
        "lat": 17.444512,
        "lon": 78.4672736,
        "tags": {
          "amenity": "fast_food",
          "cuisine": "regional",
          "name": "Cafe Nandini"
        }
      },
      {
        "type": "node",
        "id": 3010475766,
        "lat": 17.4444022,
        "lon": 78.467713,
        "tags": {
          "amenity": "atm",
          "name": "Central Bank of India"
        }
      },
      {
        "type": "node",
        "id": 3010475767,
        "lat": 17.444399,
        "lon": 78.4677425,
        "tags": {
          "amenity": "bank",
          "atm": "yes",
          "brand": "SBI",
          "brand:wikidata": "Q1340361",
          "brand:wikipedia": "en:State Bank of India",
          "name": "State Bank of India",
          "short_name": "SBI"
        }
      },
      {
        "type": "node",
        "id": 3010475772,
        "lat": 17.4440522,
        "lon": 78.4691906,
        "tags": {
          "addr:street": "Airport Flyover",
          "amenity": "cafe",
          "name": "HeartCup Coffee"
        }
      },
      {
        "type": "node",
        "id": 3847458511,
        "lat": 17.4439245,
        "lon": 78.470823,
        "tags": {
          "amenity": "clinic",
          "name": "Dr. Prakash Bhatia, Dr. Chandra Bhatia",
          "opening_hours": "Mo-Sa 10:00-12:00,19:00-21:00; Su 10:00-12:00"
        }
      },
      {
        "type": "node",
        "id": 4389398990,
        "lat": 17.4449576,
        "lon": 78.4704074,
        "tags": {
          "addr:street": "street number 1",
          "amenity": "bank",
          "brand": "ICICI",
          "brand:wikidata": "Q1653258",
          "name": "ICICI Bank",
          "name:en": "ICICI Bank",
          "short_name": "ICICI",
          "website": "https://www.icicibank.com",
          "wikidata": "Q1653258",
          "wikipedia": "en:ICICI Bank"
        }
      },
      {
        "type": "node",
        "id": 4614311358,
        "lat": 17.4444782,
        "lon": 78.469498,
        "tags": {
          "addr:district": "Hyderabad",
          "addr:full": "SP Road, Near Begumpet Old Airport, Begumpet",
          "addr:postcode": "500016",
          "addr:state": "Telangana",
          "amenity": "hospital",
          "medical_system": "Allopathic",
          "name": "Pace Hospital",
          "operator:type": "private",
          "phone": "040 66171717; 040 27764646",
          "source": "OpenGovernmentData"
        }
      },
      {
        "type": "node",
        "id": 4614311359,
        "lat": 17.4432496,
        "lon": 78.4777365,
        "tags": {
          "amenity": "restaurant",
          "cuisine": "chinese",
          "name": "Bowl O'China"
        }
      },
      {
        "type": "node",
        "id": 4614311389,
        "lat": 17.4432617,
        "lon": 78.4756997,
        "tags": {
          "amenity": "bank",
          "atm": "yes",
          "name": "Citibank"
        }
      },
      {
        "type": "node",
        "id": 4614311393,
        "lat": 17.4437546,
        "lon": 78.47364,
        "tags": {
          "amenity": "bank",
          "atm": "yes",
          "brand:wikidata": "Q2040323",
          "brand:wikipedia": "en:IndusInd Bank",
          "name": "IndusInd Bank",
          "name:en": "IndusInd Bank",
          "website": "https://www.indusind.com"
        }
      },
      {
        "type": "node",
        "id": 6212803090,
        "lat": 17.4443541,
        "lon": 78.4625019,
        "tags": {
          "amenity": "restaurant",
          "name": "Paradise Biryani"
        }
      },
      {
        "type": "node",
        "id": 6477257408,
        "lat": 17.4451684,
        "lon": 78.4721151,
        "tags": {
          "addr:district": "Hyderabad",
          "addr:full": "K.S.Bhawan, Begumpet",
          "addr:state": "Telangana",
          "amenity": "clinic",
          "health_facility:type": "dispensary",
          "healthcare": "centre",
          "medical_system": "Allopathic",
          "name": "CGHS Dispensary No.IV,Begumpet",
          "operator:type": "public; government",
          "phone": "040 27904259",
          "source": "OpenGovernmentData",
          "website": "http://nb.bsf.gov.in/CGHS%20DIspenseries.pdf"
        }
      },
      {
        "type": "node",
        "id": 6480130350,
        "lat": 17.4444929,
        "lon": 78.4662196,
        "tags": {
          "addr:district": "Hyderabad",
          "addr:full": "1-10-44/1, Near Prakash Nagar Metro Station, Begumpet Main Road",
          "addr:postcode": "500016",
          "addr:state": "Telangana",
          "amenity": "hospital",
          "fax": "040 30137299",
          "health_facility:type": "Separate Divisions for Each Speciality;State Of The Art Operation Theatres;Post Op Lounge with Beds;Advanced Eye Care Equipment;Complete Range of Optical Frames and Lenses;Exclusive Childrens Eye Care;24 7 Pharmacy;Ambulance Services",
          "healthcare:speciality": "Cataract Services;Refractive Surgery;Cornea Services;Glaucoma Services;Retina Services;Paediatric Ophthalmology and Squint Services;Oculoplasty Services;UVEITIS;Neuro Ophthalmology;Vision Rehabilitation Services;Computer Vision Syndrome;Contact Lenses",
          "medical_system": "Allopathic",
          "name": "Vasan Healthcare Private Limited",
          "operator:type": "Private",
          "phone": "040 30137200",
          "source": "OpenGovernmentData",
          "website": "https://vasaneye.com/"
        }
      },
      {
        "type": "node",
        "id": 6482108938,
        "lat": 17.4432007,
        "lon": 78.4796964,
        "tags": {
          "addr:district": "Hyderabad",
          "addr:full": "Above Agrawala Sweets, Opp to Metro Pillar No 18, S.P. Road, Begumpet",
          "addr:postcode": "500003",
          "addr:state": "Telangana",
          "amenity": "hospital",
          "contact:mobile": "+91-9550003399; +91-9177550066.",
          "health_facility:type": "Arthritis;Sexual Problems;Thyroid Disorders;Respiratory Disorders;Skin Disorders;Female DisordersInfertility;Gastric Disorders;Kidney Problems;Auto Immune;Disorders",
          "healthcare:speciality": "homeopathy",
          "medical_system": "Ayush;Homeopathy",
          "name": "Homeocare International",
          "operator:type": "private",
          "source": "OpenGovernmentData",
          "website": "www.homeocares.com"
        }
      },
      {
        "type": "node",
        "id": 6531332945,
        "lat": 17.4458529,
        "lon": 78.4663644,
        "tags": {
          "addr:district": "Hyderabad",
          "addr:full": "1-11-252/1A-1D, Alladin Mansion, Near Shoppers Stop, Street Number 3, Begumpet",
          "addr:postcode": "500016",
          "addr:state": "Telangana",
          "amenity": "hospital",
          "contact:email": "info@maxivisioneyehospital.com",
          "contact:tollfree": "1800 425 6294",
          "healthcare:speciality": "Cataract;Refractive;Laser;Cornea;Retina;Glaucoma;Pediatric",
          "medical_system": "Allopathic",
          "name": "Maxivision Eye Hospital",
          "operator:type": "private",
          "phone": "040 27763677",
          "source": "OpenGovernmentData",
          "website": "https://www.maxivisioneyehospital.com"
        }
      },
      {
        "type": "node",
        "id": 6544062164,
        "lat": 17.4375378,
        "lon": 78.4758085,
        "tags": {
          "addr:district": "Hyderabad",
          "addr:full": "A qtrs Patigadda, Patigadda, Near Sanjeevaiah Park Railway Station",
          "addr:postcode": "500003",
          "addr:state": "Telangana",
          "addr:street": "Near Sanjeevaiah Park Railway Station",
          "addr:subdistrict": "Secunderabad",
          "amenity": "clinic",
          "name": "Urban Primary Health Centre, Gareeb Nagar",
          "source": "OpenGovernmentData"
        }
      },
      {
        "type": "node",
        "id": 6811749114,
        "lat": 17.4452339,
        "lon": 78.4617537,
        "tags": {
          "addr:district": "Hyderabad",
          "addr:full": "1-11-240/2D, Shyamalal Building, Near Ganesh Temple,Begumpet",
          "addr:state": "Telangana",
          "amenity": "hospital",
          "name": "Sri Sai Rama Clinic",
          "source": "survey"
        }
      },
      {
        "type": "node",
        "id": 8557123066,
        "lat": 17.4429633,
        "lon": 78.4771217,
        "tags": {
          "addr:housenumber": "kamala towers",
          "amenity": "bank",
          "name": "Tvs finance"
        }
      },
      {
        "type": "node",
        "id": 8760933526,
        "lat": 17.444713,
        "lon": 78.4691593,
        "tags": {
          "addr:district": "Medchal",
          "addr:full": "1-11-254, 2nd Floor, Rama Mansion Besides Pace Hospital, Motilal Nehru Nagar, Begumpet, Hyderabad",
          "addr:postcode": "500016",
          "addr:state": "Telangana",
          "amenity": "hospital",
          "name": "Pathcare Labs Pvt Ltd",
          "source": "Local Knowledge"
        }
      }
    ]
  },
  "pois_2_5km": {
    "version": 0.6,
    "generator": "Overpass API 0.7.62.8 e802775f",
    "osm3s": {
      "timestamp_osm_base": "2025-09-06T08:31:51Z",
      "copyright": "The data included in this document is from www.openstreetmap.org. The data is made available under ODbL."
    },
    "elements": [
      {
        "type": "node",
        "id": 289582012,
        "lat": 17.4245107,
        "lon": 78.4626514,
        "tags": {
          "name": "Necklace Road",
          "name:te": "\u0c28\u0c46\u0c15\u0c4d\u0c32\u0c46\u0c38\u0c4d \u0c30\u0c4b\u0c21\u0c4d\u0c21\u0c41",
          "public_transport": "stop_position",
          "railway": "stop",
          "ref": "1",
          "train": "yes"
        }
      },
      {
        "type": "node",
        "id": 343319245,
        "lat": 17.4456571,
        "lon": 78.4521487,
        "tags": {
          "internet_access": "no",
          "name": "Nature Cure Hospital",
          "name:te": "\u0c2a\u0c4d\u0c30\u0c15\u0c43\u0c24\u0c3f \u0c1a\u0c3f\u0c15\u0c3f\u0c24\u0c4d\u0c38\u0c3e\u0c32\u0c2f \u0c30\u0c48\u0c32\u0c4d\u0c35\u0c47 \u0c38\u0c4d\u0c1f\u0c47\u0c37\u0c28\u0c4d",
          "network": "IR",
          "operator": "SCR",
          "platforms": "2",
          "public_transport": "station",
          "railway": "station",
          "ref": "NCHS",
          "train": "yes",
          "wikidata": "Q6980906",
          "wikipedia": "en:Nature Cure Hospital railway station"
        }
      },
      {
        "type": "node",
        "id": 343641073,
        "lat": 17.4386951,
        "lon": 78.4580969,
        "tags": {
          "internet_access": "no",
          "name": "Begumpet",
          "name:te": "\u0c2c\u0c47\u0c17\u0c02\u0c2a\u0c47\u0c1f\u0c4d",
          "name:ur": "\u0628\u06cc\u06af\u0645 \u067e\u06cc\u0679",
          "network": "IR",
          "operator": "SCR",
          "platforms": "2",
          "public_transport": "station",
          "railway": "station",
          "ref": "BMT",
          "train": "yes",
          "wikidata": "Q4880629",
          "wikipedia": "en:Begumpet railway station"
        }
      },
      {
        "type": "node",
        "id": 582824598,
        "lat": 17.4404726,
        "lon": 78.4935719,
        "tags": {
          "amenity": "cinema",
          "name": "Manju Cinema",
          "name:te": "\u0c2e\u0c02\u0c1c\u0c41 \u0c38\u0c3f\u0c28\u0c3f\u0c2e\u0c3e"
        }
      },
      {
        "type": "node",
        "id": 813571228,
        "lat": 17.4435568,
        "lon": 78.4877615,
        "tags": {
          "amenity": "fuel",
          "brand": "Indian Oil",
          "brand:wikidata": "Q1289348",
          "brand:wikipedia": "en:Indian Oil Corporation",
          "name": "Indian Oil"
        }
      },
      {
        "type": "node",
        "id": 813571286,
        "lat": 17.4430364,
        "lon": 78.4905722,
        "tags": {
          "amenity": "fuel",
          "name": "Bharat Petroleum"
        }
      },
      {
        "type": "node",
        "id": 817353703,
        "lat": 17.4449593,
        "lon": 78.4671058,
        "tags": {
          "amenity": "fuel",
          "brand": "Indian Oil",
          "brand:wikidata": "Q1289348",
          "brand:wikipedia": "en:Indian Oil Corporation",
          "name": "Indian Oil",
          "operator": "Indian Oil"
        }
      },
      {
        "type": "node",
        "id": 817354434,
        "lat": 17.4445955,
        "lon": 78.4616641,
        "tags": {
          "amenity": "fuel",
          "brand": "Indian Oil",
          "brand:wikidata": "Q1289348",
          "brand:wikipedia": "en:Indian Oil Corporation",
          "name": "Indian Oil"
        }
      },
      {
        "type": "node",
        "id": 893170355,
        "lat": 17.4329515,
        "lon": 78.4873218,
        "tags": {
          "internet_access": "no",
          "name": "James Street",
          "name:te": "\u0c1c\u0c47\u0c2e\u0c4d\u0c38\u0c4d \u0c38\u0c4d\u0c1f\u0c4d\u0c30\u0c40\u0c1f\u0c4d",
          "name:ur": "\u062c\u06cc\u0645\u0632 \u0627\u0633\u0679\u0631\u06cc\u0679",
          "network": "IR",
          "operator": "SCR",
          "platforms": "2",
          "public_transport": "station",
          "railway": "station",
          "ref": "JET",
          "train": "yes",
          "wikidata": "Q6143758",
          "wikipedia": "en:James Street railway station, Hyderabad"
        }
      },
      {
        "type": "node",
        "id": 928699174,
        "lat": 17.4550905,
        "lon": 78.4855131,
        "tags": {
          "amenity": "fuel",
          "brand": "Indian Oil",
          "brand:wikidata": "Q1289348",
          "brand:wikipedia": "en:Indian Oil Corporation",
          "name": "Indian Oil",
          "operator": "Indian Oil Corporation"
        }
      },
      {
        "type": "node",
        "id": 1038397148,
        "lat": 17.439912,
        "lon": 78.4880414,
        "tags": {
          "amenity": "fuel"
        }
      },
      {
        "type": "node",
        "id": 1050856274,
        "lat": 17.4634786,
        "lon": 78.4736466,
        "tags": {
          "amenity": "fuel",
          "diesel": "yes",
          "fuel:octane_100": "yes",
          "name": "HP fuel station",
          "operator": "Hindustan Petroleum",
          "source": "self"
        }
      },
      {
        "type": "node",
        "id": 2422172970,
        "lat": 17.4375661,
        "lon": 78.4569341,
        "tags": {
          "name": "Begumpet",
          "name:ml": "\u0d2c\u0d47\u0d17\u0d02\u0d2a\u0d47\u0d1f\u0d4d\u0d1f\u0d4d",
          "name:te": "\u0c2c\u0c47\u0c17\u0c02\u0c2a\u0c47\u0c1f\u0c4d",
          "name:ur": "\u0628\u06cc\u06af\u0645 \u067e\u06cc\u0679",
          "network": "Hyderabad Metro",
          "note": "Contributors are requested to not edit the \"network\" and the \"operator\" tags. (2023/11/08)",
          "operator": "Hyderabad Metro Rail Limited",
          "public_transport": "station",
          "railway": "station",
          "station": "subway",
          "subway": "yes"
        }
      },
      {
        "type": "node",
        "id": 2422172987,
        "lat": 17.4375612,
        "lon": 78.4569588,
        "tags": {
          "name": "Begumpet",
          "name:te": "\u0c2c\u0c47\u0c17\u0c02\u0c2a\u0c47\u0c1f\u0c4d",
          "network": "Hyderabad Metro",
          "note": "Contributors are requested to not edit the \"network\" and the \"operator\" tags. (2023/11/08)",
          "operator": "Hyderabad Metro Rail Limited",
          "public_transport": "stop_position",
          "railway": "stop",
          "subway": "yes",
          "wikidata": "Q84301996",
          "wikipedia": "en:Begumpet metro station"
        }
      },
      {
        "type": "node",
        "id": 2422172990,
        "lat": 17.4448686,
        "lon": 78.4658736,
        "tags": {
          "name": "Prakash Nagar",
          "name:te": "\u0c2a\u0c4d\u0c30\u0c15\u0c3e\u0c36\u0c4d\u200c\u0c28\u0c17\u0c30\u0c4d",
          "network": "Hyderabad Metro",
          "note": "Contributors are requested to not edit the \"network\" and the \"operator\" tags. (2023/11/08)",
          "operator": "Hyderabad Metro Rail Limited",
          "public_transport": "stop_position",
          "subway": "yes"
        }
      },
      {
        "type": "node",
        "id": 2422173010,
        "lat": 17.4435921,
        "lon": 78.4764056,
        "tags": {
          "name": "Rasoolpura",
          "name:te": "\u0c30\u0c38\u0c42\u0c32\u0c4d\u200c\u0c2a\u0c41\u0c30",
          "network": "Hyderabad Metro",
          "note": "Contributors are requested to not edit the \"network\" and the \"operator\" tags. (2023/11/08)",
          "operator": "Hyderabad Metro Rail Limited",
          "public_transport": "stop_position",
          "subway": "yes"
        }
      },
      {
        "type": "node",
        "id": 2422173063,
        "lat": 17.4434398,
        "lon": 78.4862445,
        "tags": {
          "name": "Paradise",
          "name:te": "\u0c2a\u0c4d\u0c2f\u0c3e\u0c30\u0c21\u0c48\u0c1c\u0c4d",
          "network": "Hyderabad Metro",
          "note": "Contributors are requested to not edit the \"network\" and the \"operator\" tags. (2023/11/08)",
          "operator": "Hyderabad Metro Rail Limited",
          "public_transport": "stop_position",
          "subway": "yes"
        }
      },
      {
        "type": "node",
        "id": 2446524797,
        "lat": 17.4432701,
        "lon": 78.4905593,
        "tags": {
          "amenity": "fuel",
          "name": "Paradise Cross Roads"
        }
      },
      {
        "type": "node",
        "id": 2461447890,
        "lat": 17.4385942,
        "lon": 78.458062,
        "tags": {
          "name": "Begumpet",
          "name:kn": "\u0cac\u0cc7\u0c97\u0c82\u0caa\u0cc7\u0c9f\u0cc6",
          "name:ur": "\u0628\u06cc\u06af\u0645 \u067e\u06cc\u0679",
          "public_transport": "station",
          "railway": "station",
          "ref": "2",
          "train": "yes",
          "wikidata": "Q4880629",
          "wikipedia": "en:Begumpet railway station"
        }
      },
      {
        "type": "node",
        "id": 2461447891,
        "lat": 17.4386323,
        "lon": 78.4580666,
        "tags": {
          "name": "Begumpet",
          "name:kn": "\u0cac\u0cc7\u0c97\u0c82\u0caa\u0cc7\u0c9f\u0cc6",
          "public_transport": "stop_position",
          "railway": "stop",
          "ref": "1",
          "train": "yes"
        }
      },
      {
        "type": "node",
        "id": 2528192948,
        "lat": 17.4328721,
        "lon": 78.4868199,
        "tags": {
          "name": "James Street",
          "public_transport": "stop_position",
          "ref": "2",
          "train": "yes"
        }
      },
      {
        "type": "node",
        "id": 2528192961,
        "lat": 17.4356742,
        "lon": 78.4763981,
        "tags": {
          "name": "Sanjeevaiah Park",
          "public_transport": "stop_position",
          "railway": "stop",
          "ref": "2",
          "train": "yes"
        }
      },
      {
        "type": "node",
        "id": 3784388218,
        "lat": 17.4245006,
        "lon": 78.4626111,
        "tags": {
          "name": "Necklace Road",
          "name:te": "\u0c28\u0c46\u0c15\u0c4d\u0c32\u0c46\u0c38\u0c4d \u0c30\u0c4b\u0c21\u0c4d\u0c21\u0c41",
          "public_transport": "stop_position",
          "railway": "stop",
          "ref": "2",
          "train": "yes"
        }
      },
      {
        "type": "node",
        "id": 4556707782,
        "lat": 17.4457469,
        "lon": 78.4522785,
        "tags": {
          "local_ref": "1",
          "name": "Nature Cure Hospital",
          "name:te": "\u0c2a\u0c4d\u0c30\u0c15\u0c43\u0c24\u0c3f \u0c1a\u0c3f\u0c15\u0c3f\u0c24\u0c4d\u0c38\u0c3e\u0c32\u0c2f \u0c30\u0c48\u0c32\u0c4d\u0c35\u0c47 \u0c38\u0c4d\u0c1f\u0c47\u0c37\u0c28\u0c4d",
          "public_transport": "stop_position",
          "railway": "stop",
          "ref": "2",
          "train": "yes"
        }
      },
      {
        "type": "node",
        "id": 4556707783,
        "lat": 17.445761,
        "lon": 78.4523207,
        "tags": {
          "local_ref": "2",
          "name": "Nature Cure Hospital",
          "name:te": "\u0c2a\u0c4d\u0c30\u0c15\u0c43\u0c24\u0c3f \u0c1a\u0c3f\u0c15\u0c3f\u0c24\u0c4d\u0c38\u0c3e\u0c32\u0c2f \u0c30\u0c48\u0c32\u0c4d\u0c35\u0c47 \u0c38\u0c4d\u0c1f\u0c47\u0c37\u0c28\u0c4d",
          "public_transport": "stop_position",
          "railway": "stop",
          "ref": "1",
          "train": "yes"
        }
      },
      {
        "type": "node",
        "id": 4915906017,
        "lat": 17.4306214,
        "lon": 78.4556721,
        "tags": {
          "amenity": "fuel",
          "compressed_air": "yes",
          "name": "Petrol Pump"
        }
      },
      {
        "type": "node",
        "id": 5787788969,
        "lat": 17.4375841,
        "lon": 78.456906,
        "tags": {
          "name": "Begumpet",
          "name:te": "\u0c2c\u0c47\u0c17\u0c02\u0c2a\u0c47\u0c1f\u0c4d",
          "network": "Hyderabad Metro",
          "note": "Contributors are requested to not edit the \"network\" and the \"operator\" tags. (2023/11/08)",
          "operator": "Hyderabad Metro Rail Limited",
          "public_transport": "stop_position",
          "railway": "stop",
          "subway": "yes",
          "wikidata": "Q84301996",
          "wikipedia": "en:Begumpet metro station"
        }
      },
      {
        "type": "node",
        "id": 5787788980,
        "lat": 17.4434911,
        "lon": 78.4862461,
        "tags": {
          "name": "Paradise",
          "name:te": "\u0c2a\u0c4d\u0c2f\u0c3e\u0c30\u0c21\u0c48\u0c1c\u0c4d",
          "network": "Hyderabad Metro",
          "note": "Contributors are requested to not edit the \"network\" and the \"operator\" tags. (2023/11/08)",
          "operator": "Hyderabad Metro Rail Limited",
          "public_transport": "stop_position",
          "subway": "yes"
        }
      },
      {
        "type": "node",
        "id": 5787788982,
        "lat": 17.4449044,
        "lon": 78.465879,
        "tags": {
          "name": "Prakash Nagar",
          "name:te": "\u0c2a\u0c4d\u0c30\u0c15\u0c3e\u0c36\u0c4d\u200c\u0c28\u0c17\u0c30\u0c4d",
          "network": "Hyderabad Metro",
          "note": "Contributors are requested to not edit the \"network\" and the \"operator\" tags. (2023/11/08)",
          "operator": "Hyderabad Metro Rail Limited",
          "public_transport": "stop_position",
          "subway": "yes"
        }
      },
      {
        "type": "node",
        "id": 6594733962,
        "lat": 17.4329035,
        "lon": 78.4868305,
        "tags": {
          "name": "James Street",
          "public_transport": "stop_position",
          "ref": "1",
          "train": "yes"
        }
      },
      {
        "type": "node",
        "id": 7052069759,
        "lat": 17.4434668,
        "lon": 78.4862436,
        "tags": {
          "name": "Paradise",
          "name:ml": "\u0d2a\u0d3e\u0d30\u0d21\u0d48\u0d38\u0d4d",
          "name:te": "\u0c2a\u0c4d\u0c2f\u0c3e\u0c30\u0c21\u0c48\u0c1c\u0c4d",
          "network": "Hyderabad Metro",
          "note": "Contributors are requested to not edit the \"network\" and the \"operator\" tags. (2023/11/08)",
          "operator": "Hyderabad Metro Rail Limited",
          "public_transport": "station",
          "railway": "station",
          "station": "subway",
          "subway": "yes"
        }
      },
      {
        "type": "node",
        "id": 7052069760,
        "lat": 17.443612,
        "lon": 78.4764053,
        "tags": {
          "name": "Rasoolpura",
          "name:ml": "\u0d31\u0d38\u0d42\u0d7d\u0d2a\u0d41\u0d30",
          "name:te": "\u0c30\u0c38\u0c42\u0c32\u0c4d\u200c\u0c2a\u0c41\u0c30",
          "network": "Hyderabad Metro",
          "note": "Contributors are requested to not edit the \"network\" and the \"operator\" tags. (2023/11/08)",
          "operator": "Hyderabad Metro Rail Limited",
          "railway": "station",
          "station": "subway",
          "subway": "yes",
          "wikidata": "Q84358120"
        }
      },
      {
        "type": "node",
        "id": 7052069761,
        "lat": 17.443638,
        "lon": 78.4764095,
        "tags": {
          "name": "Rasoolpura",
          "name:te": "\u0c30\u0c38\u0c42\u0c32\u0c4d\u200c\u0c2a\u0c41\u0c30",
          "network": "Hyderabad Metro",
          "note": "Contributors are requested to not edit the \"network\" and the \"operator\" tags. (2023/11/08)",
          "operator": "Hyderabad Metro Rail Limited",
          "public_transport": "stop_position",
          "railway": "stop",
          "subway": "yes"
        }
      },
      {
        "type": "node",
        "id": 7052069766,
        "lat": 17.4448889,
        "lon": 78.4658749,
        "tags": {
          "name": "Prakash Nagar",
          "name:ml": "\u0d2a\u0d4d\u0d30\u0d15\u0d3e\u0d36\u0d4d \u0d28\u0d17\u0d7c",
          "name:te": "\u0c2a\u0c4d\u0c30\u0c15\u0c3e\u0c36\u0c4d\u200c\u0c28\u0c17\u0c30\u0c4d",
          "name:ur": "\u067e\u0631\u06a9\u0627\u0634 \u0646\u06af\u0631",
          "network": "Hyderabad Metro",
          "note": "Contributors are requested to not edit the \"network\" and the \"operator\" tags. (2023/11/08)",
          "operator": "Hyderabad Metro Rail Limited",
          "public_transport": "station",
          "railway": "station",
          "station": "subway",
          "subway": "yes",
          "wikidata": "Q84499965"
        }
      },
      {
        "type": "node",
        "id": 8113828150,
        "lat": 17.449229,
        "lon": 78.4496696,
        "tags": {
          "addr:city": "Hyderabad",
          "addr:postcode": "500018",
          "addr:street": "Balakampet",
          "amenity": "fuel",
          "brand": "Bharat Petroleum",
          "brand:wikidata": "Q854826",
          "brand:wikipedia": "en:Bharat Petroleum",
          "name": "Bharat Petroleum"
        }
      },
      {
        "type": "node",
        "id": 10992500545,
        "lat": 17.4324529,
        "lon": 78.4865033,
        "tags": {
          "amenity": "bus_station",
          "bus": "yes",
          "name": "TSRTC BUS DEPOT, RANIGUNJ",
          "public_transport": "station"
        }
      },
      {
        "type": "node",
        "id": 11770988863,
        "lat": 17.4617134,
        "lon": 78.4690961,
        "tags": {
          "amenity": "fuel",
          "brand": "Bharat Petroleum",
          "brand:wikidata": "Q854826",
          "check_date": "2024-03-29",
          "name": "Bharat Petroleum"
        }
      },
      {
        "type": "node",
        "id": 11770988864,
        "lat": 17.4626973,
        "lon": 78.462813,
        "tags": {
          "amenity": "fuel",
          "brand": "Bharat Petroleum",
          "brand:wikidata": "Q854826",
          "check_date": "2024-03-29",
          "name": "Bharat Petroleum"
        }
      },
      {
        "type": "node",
        "id": 12114475129,
        "lat": 17.435725,
        "lon": 78.4764076,
        "tags": {
          "name": "Sanjeevaiah Park",
          "public_transport": "stop_position",
          "railway": "stop",
          "ref": "1",
          "train": "yes"
        }
      },
      {
        "type": "node",
        "id": 12115521168,
        "lat": 17.4648917,
        "lon": 78.4603057,
        "tags": {
          "name": "Ferozguda",
          "name:ur": "\u0641\u06cc\u0631\u0648\u0632 \u06af\u0648\u0688\u0627",
          "operator": "South Central Railway",
          "public_transport": "station",
          "railway": "station"
        }
      },
      {
        "type": "node",
        "id": 12115521169,
        "lat": 17.4649039,
        "lon": 78.4602832,
        "tags": {
          "name": "Ferozguda",
          "public_transport": "stop_position",
          "railway": "stop",
          "train": "yes"
        }
      },
      {
        "type": "node",
        "id": 12115521170,
        "lat": 17.4648795,
        "lon": 78.4603282,
        "tags": {
          "name": "Ferozguda",
          "public_transport": "stop_position",
          "railway": "stop",
          "train": "yes"
        }
      },
      {
        "type": "node",
        "id": 12231561141,
        "lat": 17.4356998,
        "lon": 78.4764022,
        "tags": {
          "internet_access": "no",
          "name": "Sanjeevaiah Park",
          "name:te": "\u0c38\u0c02\u0c1c\u0c40\u0c35\u0c2f\u0c4d\u0c2f \u0c2a\u0c3e\u0c30\u0c4d\u0c15\u0c4d",
          "name:ur": "\u0633\u0646\u062c\u06cc\u0648\u06cc\u0627 \u067e\u0627\u0631\u06a9",
          "network": "Indian Railways",
          "operator": "South Central Railway",
          "platforms": "2",
          "public_transport": "station",
          "railway": "station",
          "ref": "SJVP",
          "train": "yes",
          "wikidata": "Q7418525",
          "wikipedia": "en:Sanjeevaiah Park railway station"
        }
      }
    ]
  }
}