{
  "pois_1km": {
    "version": 0.6,
    "generator": "Overpass API 0.7.62.8 e802775f",
    "osm3s": {
      "timestamp_osm_base": "2025-09-06T08:42:02Z",
      "copyright": "The data included in this document is from www.openstreetmap.org. The data is made available under ODbL."
    },
    "elements": [
      {
        "type": "node",
        "id": 349212202,
        "lat": 17.422978,
        "lon": 78.4110743,
        "tags": {
          "amenity": "bank",
          "atm": "yes",
          "brand": "HDFC Bank",
          "brand:wikidata": "Q631047",
          "brand:wikipedia": "en:HDFC Bank",
          "name": "HDFC Bank",
          "short_name": "HDFC",
          "website": "https://www.hdfcbank.com"
        }
      },
      {
        "type": "node",
        "id": 698705213,
        "lat": 17.4172588,
        "lon": 78.4118211,
        "tags": {
          "amenity": "pharmacy",
          "brand": "MedPlus",
          "brand:wikidata": "Q65684234",
          "dispensing": "no",
          "healthcare": "pharmacy",
          "name": "MedPlus"
        }
      },
      {
        "type": "node",
        "id": 1610991383,
        "lat": 17.4152669,
        "lon": 78.4088878,
        "tags": {
          "amenity": "cafe",
          "brand": "Cafe Coffee Day",
          "brand:wikidata": "Q5017235",
          "cuisine": "coffee_shop",
          "name": "Cafe Coffee Day",
          "takeaway": "yes"
        }
      },
      {
        "type": "node",
        "id": 2466611427,
        "lat": 17.42367,
        "lon": 78.4125626,
        "tags": {
          "amenity": "cafe",
          "name": "Barista Lavazza"
        }
      },
      {
        "type": "node",
        "id": 3638711628,
        "lat": 17.4160322,
        "lon": 78.4168158,
        "tags": {
          "addr:housenumber": "550",
          "addr:postcode": "500033",
          "addr:street": "Road No-92",
          "amenity": "restaurant",
          "name": "Little Italy",
          "opening_hours": "12:00-15:00, 19:00-23:00",
          "phone": "+40 2355 8001"
        }
      },
      {
        "type": "node",
        "id": 4422249978,
        "lat": 17.4248111,
        "lon": 78.4140951,
        "tags": {
          "amenity": "restaurant"
        }
      },
      {
        "type": "node",
        "id": 4422254585,
        "lat": 17.4249205,
        "lon": 78.4139937,
        "tags": {
          "amenity": "hospital",
          "healthcare": "hospital",
          "name": "Blood Bank"
        }
      },
      {
        "type": "node",
        "id": 4609472472,
        "lat": 17.4215149,
        "lon": 78.4096971,
        "tags": {
          "amenity": "bank",
          "atm": "yes",
          "brand": "Syndicate Bank",
          "brand:wikidata": "Q2004088",
          "name": "Syndicate Bank",
          "name:en": "Syndicate Bank",
          "website": "https://www.syndicatebank.in",
          "wikimedia_commons": "Category:Syndicate Bank"
        }
      },
      {
        "type": "node",
        "id": 4670761890,
        "lat": 17.4171713,
        "lon": 78.412363,
        "tags": {
          "amenity": "pharmacy",
          "brand": "MedPlus",
          "brand:wikidata": "Q65684234",
          "healthcare": "pharmacy",
          "name": "MedPlus",
          "name:en": "MedPlus Mart",
          "website": "https://www.medplusmart.com/"
        }
      },
      {
        "type": "node",
        "id": 4670788289,
        "lat": 17.4170898,
        "lon": 78.4122806,
        "tags": {
          "amenity": "restaurant",
          "cuisine": "chinese;indian",
          "name": "Godavari Ruchulu",
          "name:en": "Godavari Ruchulu"
        }
      },
      {
        "type": "node",
        "id": 4670797289,
        "lat": 17.4167901,
        "lon": 78.4102927,
        "tags": {
          "amenity": "bank",
          "branch": "Film Nagar",
          "brand": "Bank of India",
          "brand:wikidata": "Q2004439",
          "brand:wikipedia": "en:Bank of India",
          "name": "Bank of India",
          "name:en": "Bank of India",
          "short_name": "BoI",
          "website": "https://www.bankofindia.co.in/"
        }
      },
      {
        "type": "node",
        "id": 4670797589,
        "lat": 17.4166582,
        "lon": 78.4102663,
        "tags": {
          "amenity": "atm",
          "brand": "Bank of India",
          "brand:wikidata": "Q2004439",
          "operator": "Bank of India",
          "operator:wikidata": "Q2004439"
        }
      },
      {
        "type": "node",
        "id": 4676142991,
        "lat": 17.4173025,
        "lon": 78.4125036,
        "tags": {
          "amenity": "restaurant",
          "name": "Lakshmi Priya Restaurant",
          "name:en": "Lakshmi Priya Restaurant",
          "phone": "9849007930"
        }
      },
      {
        "type": "node",
        "id": 4677877511,
        "lat": 17.417626,
        "lon": 78.411422,
        "tags": {
          "amenity": "pharmacy",
          "brand": "Apollo Pharmacy",
          "brand:wikidata": "Q62562612",
          "healthcare": "pharmacy",
          "name": "Apollo Pharmacy",
          "name:en": "Apollo Pharmacy"
        }
      },
      {
        "type": "node",
        "id": 4688921194,
        "lat": 17.4162253,
        "lon": 78.4106974,
        "tags": {
          "amenity": "atm",
          "operator": "Andhra Bank"
        }
      },
      {
        "type": "node",
        "id": 4690209689,
        "lat": 17.4157916,
        "lon": 78.4106379,
        "tags": {
          "amenity": "bank",
          "branch": "Film Nagar",
          "brand": "Andhra Bank",
          "brand:wikidata": "Q2003476",
          "brand:wikipedia": "en:Andhra Bank",
          "name": "Andhra Bank",
          "name:en": "Andhra Bank",
          "website": "https://www.andhrabank.in"
        }
      },
      {
        "type": "node",
        "id": 4691764097,
        "lat": 17.4171189,
        "lon": 78.4119627,
        "tags": {
          "name": "Food Bazaar",
          "name:en": "Food Bazaar",
          "operator": "Future Group",
          "phone": "04044249590",
          "shop": "supermarket"
        }
      },
      {
        "type": "node",
        "id": 4711409192,
        "lat": 17.4163119,
        "lon": 78.4111321,
        "tags": {
          "amenity": "bank",
          "email": "jubileehillsbank@gmail.com",
          "name": "Jubilee Hills Mercantile Co-Operative Urban Bank Limited",
          "name:en": "Jubilee Hills Mercantile Co-Operative Urban Bank Limited",
          "phone": "040-23541239"
        }
      },
      {
        "type": "node",
        "id": 4711420089,
        "lat": 17.4162429,
        "lon": 78.4112628,
        "tags": {
          "amenity": "atm",
          "brand": "Bank of Baroda",
          "brand:wikidata": "Q2003797",
          "operator": "Bank of Baroda",
          "operator:wikidata": "Q2003797"
        }
      },
      {
        "type": "node",
        "id": 4711427791,
        "lat": 17.4162141,
        "lon": 78.4113325,
        "tags": {
          "amenity": "bank",
          "branch": "Jubilee Hills",
          "brand": "Bank of Baroda",
          "brand:wikidata": "Q2003797",
          "name": "Bank of Baroda",
          "name:en": "Vijaya Bank"
        }
      },
      {
        "type": "node",
        "id": 4711427792,
        "lat": 17.4160054,
        "lon": 78.4108236,
        "tags": {
          "amenity": "restaurant",
          "name": "Swagath Restaurant",
          "name:en": "Swagath Restaurant"
        }
      },
      {
        "type": "node",
        "id": 4716858191,
        "lat": 17.4142515,
        "lon": 78.4087631,
        "tags": {
          "amenity": "fast_food",
          "name": "Sirisha Hotel",
          "name:en": "Sirisha Hotel"
        }
      },
      {
        "type": "node",
        "id": 4716873492,
        "lat": 17.4145022,
        "lon": 78.4089445,
        "tags": {
          "amenity": "pharmacy",
          "brand": "Apollo Pharmacy",
          "brand:wikidata": "Q62562612",
          "healthcare": "pharmacy",
          "name": "Apollo Pharmacy",
          "name:en": "Apollo Pharmacy"
        }
      },
      {
        "type": "node",
        "id": 4716915296,
        "lat": 17.4143783,
        "lon": 78.408852,
        "tags": {
          "amenity": "fast_food",
          "name": "Sri Sankar Vilas",
          "name:en": "Sri Sankar Vilas"
        }
      },
      {
        "type": "node",
        "id": 4769488726,
        "lat": 17.4141729,
        "lon": 78.4086668,
        "tags": {
          "amenity": "atm",
          "brand": "Punjab National Bank",
          "brand:wikidata": "Q2743499",
          "operator": "Punjab National Bank",
          "operator:wikidata": "Q2743499"
        }
      },
      {
        "type": "node",
        "id": 4769496362,
        "lat": 17.4178327,
        "lon": 78.4103814,
        "tags": {
          "amenity": "atm",
          "operator": "State Bank"
        }
      },
      {
        "type": "node",
        "id": 4769496363,
        "lat": 17.4181998,
        "lon": 78.4097309,
        "tags": {
          "amenity": "bank",
          "branch": "Jubilee Hills",
          "brand": "Axis Bank",
          "brand:wikidata": "Q2003549",
          "brand:wikipedia": "en:Axis Bank",
          "name": "Axis Bank",
          "name:en": "Axis Bank",
          "website": "https://www.axisbank.com"
        }
      },
      {
        "type": "node",
        "id": 4769499104,
        "lat": 17.4178485,
        "lon": 78.4103453,
        "tags": {
          "amenity": "bank",
          "branch": "P.B.B. Film Nagar",
          "brand": "State Bank of India",
          "brand:wikidata": "Q1340361",
          "brand:wikipedia": "en:State Bank of India",
          "name": "State Bank of India",
          "short_name": "SBI"
        }
      },
      {
        "type": "node",
        "id": 4769499105,
        "lat": 17.4182409,
        "lon": 78.4097132,
        "tags": {
          "amenity": "atm",
          "brand": "Axis Bank",
          "brand:wikidata": "Q2003549",
          "operator": "Axis Bank",
          "operator:wikidata": "Q2003549"
        }
      },
      {
        "type": "node",
        "id": 4769501689,
        "lat": 17.4141844,
        "lon": 78.4087003,
        "tags": {
          "amenity": "bank",
          "branch": "Film Nagar",
          "brand": "Punjab National Bank",
          "brand:wikidata": "Q2743499",
          "name": "Punjab National Bank",
          "name:en": "Punjab National Bank",
          "short_name": "PNB",
          "website": "https://www.pnbindia.in",
          "wikimedia_commons": "Category:Punjab National Bank"
        }
      },
      {
        "type": "node",
        "id": 4769501963,
        "lat": 17.4137026,
        "lon": 78.4070873,
        "tags": {
          "amenity": "restaurant",
          "name": "Brundavan"
        }
      },
      {
        "type": "node",
        "id": 4877901696,
        "lat": 17.4173194,
        "lon": 78.4120996,
        "tags": {
          "amenity": "bank",
          "brand": "Kotak Mahindra Bank",
          "brand:wikidata": "Q2040404",
          "brand:wikipedia": "en:Kotak Mahindra Bank",
          "name": "Kotak Mahindra Bank",
          "name:en": "Kotak Mahindra Bank",
          "name:te": "\u0c15\u0c4b\u0c1f\u0c15\u0c4d \u0c2e\u0c39\u0c3f\u0c02\u0c26\u0c4d\u0c30 \u0c2c\u0c4d\u0c2f\u0c3e\u0c02\u0c15\u0c4d",
          "website": "http://www.kotak.com"
        }
      },
      {
        "type": "node",
        "id": 4877901697,
        "lat": 17.4173469,
        "lon": 78.4121488,
        "tags": {
          "amenity": "atm",
          "brand": "Kotak Mahindra Bank",
          "brand:wikidata": "Q2040404",
          "opening_hours": "24/7",
          "operator": "Kotak Mahindra Bank",
          "operator:wikidata": "Q2040404"
        }
      },
      {
        "type": "node",
        "id": 5980853188,
        "lat": 17.4240217,
        "lon": 78.4120683,
        "tags": {
          "amenity": "restaurant",
          "cuisine": "indian",
          "name": "Ulavucharu"
        }
      },
      {
        "type": "node",
        "id": 5994099219,
        "lat": 17.4183652,
        "lon": 78.4102473,
        "tags": {
          "amenity": "fast_food",
          "name": "Canteen"
        }
      },
      {
        "type": "node",
        "id": 7243983826,
        "lat": 17.4153883,
        "lon": 78.4086766,
        "tags": {
          "addr:city": "Hyderabad",
          "addr:street": "Road No 78, Jubilee Hills",
          "amenity": "restaurant",
          "cuisine": "regional",
          "name": "Dhivija's Take away"
        }
      },
      {
        "type": "node",
        "id": 7533426345,
        "lat": 17.4172233,
        "lon": 78.4105069,
        "tags": {
          "addr:city": "Hyderabad",
          "addr:housenumber": "Plot No 11, Road No 82",
          "addr:postcode": "500033",
          "addr:street": "Film Nagar Main Road",
          "name": "Ratnadeep Supermarket",
          "operator": "Ratnadeep Retail Pvt. Ltd",
          "payment:cash": "yes",
          "payment:credit_cards": "yes",
          "payment:debit_cards": "yes",
          "payment:maestro": "yes",
          "payment:mastercard": "yes",
          "payment:rupay": "yes",
          "payment:visa": "yes",
          "shop": "supermarket"
        }
      },
      {
        "type": "node",
        "id": 8113625318,
        "lat": 17.4125495,
        "lon": 78.4091311,
        "tags": {
          "amenity": "food_court"
        }
      },
      {
        "type": "node",
        "id": 8113625322,
        "lat": 17.4196586,
        "lon": 78.4120777,
        "tags": {
          "amenity": "cafe"
        }
      },
      {
        "type": "node",
        "id": 10795095588,
        "lat": 17.4128381,
        "lon": 78.4066158,
        "tags": {
          "amenity": "restaurant",
          "name": "Aaromale"
        }
      },
      {
        "type": "node",
        "id": 11021399428,
        "lat": 17.4163204,
        "lon": 78.4084757,
        "tags": {
          "addr:district": "Hyderabad",
          "addr:place": "Shaikpet",
          "addr:state": "Telangana",
          "addr:street": "BGR Nagar, Near Sheikpet, Nala, Film Nagar",
          "addr:subdistrict": "Shaikpet",
          "amenity": "clinic",
          "healthcare": "clinic",
          "name": "Urban Primary Health Centre, Film Nagar",
          "operational_status": "operational",
          "operator:type": "government",
          "source": "OpenDataTelangana"
        }
      },
      {
        "type": "node",
        "id": 11597256218,
        "lat": 17.4161279,
        "lon": 78.416848,
        "tags": {
          "addr:street": "Rd 92",
          "amenity": "restaurant",
          "name": "SO - The Sky Kitchen",
          "phone": "+91-40-23558004",
          "website": "https://dinein.petpooja.com/qr/yjcop2n4/11"
        }
      },
      {
        "type": "node",
        "id": 11771783702,
        "lat": 17.4148455,
        "lon": 78.4214259,
        "tags": {
          "amenity": "bank",
          "brand": "Federal Bank",
          "brand:wikidata": "Q2044983",
          "check_date": "2024-03-29",
          "name": "Federal Bank"
        }
      },
      {
        "type": "node",
        "id": 11771783707,
        "lat": 17.414109,
        "lon": 78.423172,
        "tags": {
          "amenity": "bank",
          "brand": "IDFC First Bank",
          "brand:wikidata": "Q22031467",
          "check_date": "2024-03-29",
          "name": "IDFC First Bank"
        }
      },
      {
        "type": "node",
        "id": 12695800228,
        "lat": 17.4226437,
        "lon": 78.4109735,
        "tags": {
          "addr:city": "Hyderabad",
          "addr:district": "Hyderabad",
          "addr:housenumber": "303, Road No. 1",
          "addr:postcode": "500033",
          "addr:street": "Nandagiri Hills, Jubilee Hills",
          "amenity": "restaurant",
          "cuisine": "american;italian;bakery;asian;cafe;burger;pizza",
          "name": "Stellar Reserve",
          "opening_hours": "Mo-Su 07:00-24:00",
          "phone": "+919030187773",
          "website": "https://g.co/kgs/cVeFMcB"
        }
      }
    ]
  },
  "pois_2_5km": {
    "version": 0.6,
    "generator": "Overpass API 0.7.62.8 e802775f",
    "osm3s": {
      "timestamp_osm_base": "2025-09-06T08:42:02Z",
      "copyright": "The data included in this document is from www.openstreetmap.org. The data is made available under ODbL."
    },
    "elements": [
      {
        "type": "node",
        "id": 344033748,
        "lat": 17.4233743,
        "lon": 78.4278935,
        "tags": {
          "amenity": "cinema",
          "brand": "PVR Cinemas",
          "brand:short": "PVR",
          "brand:wikidata": "Q3359908",
          "name": "PVR Cinemas",
          "name:te": "\u0c38\u0c3f\u0c28\u0c40 \u0c2e\u0c3e\u0c15\u0c4d\u0c38\u0c4d"
        }
      },
      {
        "type": "node",
        "id": 1534935432,
        "lat": 17.4238,
        "lon": 78.4263912,
        "tags": {
          "amenity": "cinema",
          "name": "Prasads Lab preview Theatre"
        }
      },
      {
        "type": "node",
        "id": 1883501408,
        "lat": 17.4298122,
        "lon": 78.4321238,
        "tags": {
          "amenity": "fuel",
          "brand": "IBP"
        }
      },
      {
        "type": "node",
        "id": 2217968819,
        "lat": 17.4067918,
        "lon": 78.4024824,
        "tags": {
          "amenity": "fuel",
          "brand": "Indian Oil"
        }
      },
      {
        "type": "node",
        "id": 2217968821,
        "lat": 17.4072576,
        "lon": 78.4013693,
        "tags": {
          "amenity": "fuel",
          "brand": "Indian Oil"
        }
      },
      {
        "type": "node",
        "id": 2422172978,
        "lat": 17.4306371,
        "lon": 78.4083638,
        "tags": {
          "name": "Peddamma Gudi",
          "name:te": "\u0c2a\u0c46\u0c26\u0c4d\u0c26\u0c2e\u0c4d\u0c2e \u0c17\u0c41\u0c21\u0c3f",
          "network": "Hyderabad Metro",
          "note": "Contributors are requested to not edit the \"network\" and the \"operator\" tags. (2023/11/08)",
          "operator": "Hyderabad Metro Rail Limited",
          "public_transport": "stop_position",
          "railway": "stop",
          "subway": "yes"
        }
      },
      {
        "type": "node",
        "id": 2422173139,
        "lat": 17.4282098,
        "lon": 78.4136829,
        "tags": {
          "name": "Jubilee Hills Checkpost",
          "network": "Hyderabad Metro",
          "note": "Contributors are requested to not edit the \"network\" and the \"operator\" tags. (2023/11/08)",
          "operator": "Hyderabad Metro Rail Limited",
          "platforms": "2",
          "public_transport": "stop_position",
          "public_transport:version": "2",
          "railway": "stop",
          "subway": "yes",
          "wheelchair": "yes"
        }
      },
      {
        "type": "node",
        "id": 2466611001,
        "lat": 17.4234953,
        "lon": 78.4120322,
        "tags": {
          "amenity": "fuel",
          "brand": "Indian Oil",
          "brand:wikidata": "Q1289348",
          "brand:wikipedia": "en:Indian Oil Corporation",
          "name": "Indian Oil"
        }
      },
      {
        "type": "node",
        "id": 2710628568,
        "lat": 17.3968121,
        "lon": 78.423568,
        "tags": {
          "amenity": "fuel",
          "brand": "HP",
          "check_date": "2024-03-29"
        }
      },
      {
        "type": "node",
        "id": 3663146401,
        "lat": 17.4081352,
        "lon": 78.4012362,
        "tags": {
          "amenity": "fuel",
          "brand": "HP",
          "check_date": "2024-03-29"
        }
      },
      {
        "type": "node",
        "id": 4407581196,
        "lat": 17.42008,
        "lon": 78.4308367,
        "tags": {
          "amenity": "bus_station",
          "bus": "yes",
          "name": "Nandi Nagar bus stand",
          "name:en": "Nandi Nagar bus stand",
          "public_transport": "station"
        }
      },
      {
        "type": "node",
        "id": 4670740390,
        "lat": 17.4150869,
        "lon": 78.3941554,
        "tags": {
          "amenity": "fuel",
          "check_date": "2024-03-29",
          "name": "Bharat Petroleum",
          "name:en": "Bharat Petroleum"
        }
      },
      {
        "type": "node",
        "id": 4670797189,
        "lat": 17.41703,
        "lon": 78.4102784,
        "tags": {
          "amenity": "fuel",
          "brand": "Indian Oil",
          "brand:wikidata": "Q1289348",
          "brand:wikipedia": "en:Indian Oil Corporation",
          "name": "IndianOil",
          "name:en": "IndianOil",
          "operator": "Friends Filling Station"
        }
      },
      {
        "type": "node",
        "id": 5787787938,
        "lat": 17.4300702,
        "lon": 78.4232137,
        "tags": {
          "name": "Road No 5 Jubilee Hills",
          "name:te": "\u0c30\u0c4b\u0c21\u0c4d \u0c28\u0c02 5 \u0c1c\u0c42\u0c2c\u0c3f\u0c32\u0c40 \u0c39\u0c3f\u0c32\u0c4d\u0c38\u0c4d",
          "network": "Hyderabad Metro",
          "note": "Contributors are requested to not edit the \"network\" and the \"operator\" tags. (2023/11/08)",
          "operator": "Hyderabad Metro Rail Limited",
          "public_transport": "stop_position",
          "railway": "stop",
          "subway": "yes"
        }
      },
      {
        "type": "node",
        "id": 5787788712,
        "lat": 17.4300272,
        "lon": 78.4231997,
        "tags": {
          "name": "Road No 5 Jubilee Hills",
          "name:te": "\u0c30\u0c4b\u0c21\u0c4d \u0c28\u0c02 5 \u0c1c\u0c42\u0c2c\u0c3f\u0c32\u0c40 \u0c39\u0c3f\u0c32\u0c4d\u0c38\u0c4d",
          "network": "Hyderabad Metro",
          "note": "Contributors are requested to not edit the \"network\" and the \"operator\" tags. (2023/11/08)",
          "operator": "Hyderabad Metro Rail Limited",
          "public_transport": "stop_position",
          "railway": "stop",
          "subway": "yes"
        }
      },
      {
        "type": "node",
        "id": 5787788719,
        "lat": 17.435108,
        "lon": 78.4273374,
        "tags": {
          "name": "Yusufguda",
          "name:te": "\u0c2f\u0c42\u0c38\u0c41\u0c2b\u0c4d\u200c\u0c17\u0c42\u0c21",
          "network": "Hyderabad Metro",
          "note": "Contributors are requested to not edit the \"network\" and the \"operator\" tags. (2023/11/08)",
          "operator": "Hyderabad Metro Rail Limited",
          "public_transport": "stop_position",
          "railway": "stop",
          "subway": "yes"
        }
      },
      {
        "type": "node",
        "id": 6672440858,
        "lat": 17.4351132,
        "lon": 78.4273216,
        "tags": {
          "name": "Yusufguda",
          "name:ml": "\u0d2f\u0d42\u0d38\u0d41\u0d2b\u0d4d\u0d17\u0d41\u0d21",
          "name:te": "\u0c2f\u0c42\u0c38\u0c41\u0c2b\u0c4d\u200c\u0c17\u0c42\u0c21",
          "name:ur": "\u06cc\u0648\u0633\u0641 \u06af\u0648\u0691\u06c1",
          "network": "Hyderabad Metro",
          "note": "Contributors are requested to not edit the \"network\" and the \"operator\" tags. (2023/11/08)",
          "operator": "Hyderabad Metro Rail Limited",
          "public_transport": "station",
          "railway": "station",
          "station": "subway",
          "subway": "yes",
          "wikidata": "Q85518572"
        }
      },
      {
        "type": "node",
        "id": 6777782857,
        "lat": 17.4282348,
        "lon": 78.4137054,
        "tags": {
          "name": "Jubilee Hills Checkpost",
          "network": "Hyderabad Metro",
          "note": "Contributors are requested to not edit the \"network\" and the \"operator\" tags. (2023/11/08)",
          "operator": "Hyderabad Metro Rail Limited",
          "platforms": "2",
          "public_transport": "stop_position",
          "public_transport:version": "2",
          "railway": "stop",
          "subway": "yes",
          "wheelchair": "yes"
        }
      },
      {
        "type": "node",
        "id": 6777782858,
        "lat": 17.4281969,
        "lon": 78.4137145,
        "tags": {
          "layer": "1",
          "lit": "yes",
          "name": "Jubilee Hills Checkpost",
          "name:ml": "\u0d1c\u0d42\u0d2c\u0d3f\u0d32\u0d3f \u0d39\u0d3f\u0d7d\u0d38\u0d4d \u0d1a\u0d46\u0d15\u0d4d\u0d15\u0d4d\u0d2a\u0d4b\u0d38\u0d4d\u0d31\u0d4d\u0d31\u0d4d",
          "name:te": "\u0c1c\u0c42\u0c2c\u0c4d\u0c32\u0c40 \u0c39\u0c3f\u0c32\u0c4d\u0c38\u0c4d \u0c1a\u0c46\u0c15\u0c4d\u200c\u0c2a\u0c4b\u0c38\u0c4d\u0c1f\u0c4d",
          "network": "Hyderabad Metro",
          "note": "Contributors are requested to not edit the \"network\" and the \"operator\" tags. (2023/11/08)",
          "operator": "Hyderabad Metro Rail Limited",
          "platforms": "2",
          "public_transport": "station",
          "public_transport:version": "2",
          "railway": "station",
          "shelter": "yes",
          "station": "subway",
          "subway": "yes",
          "wheelchair": "yes",
          "wikidata": "Q64038090"
        }
      },
      {
        "type": "node",
        "id": 7052069771,
        "lat": 17.4351156,
        "lon": 78.4273014,
        "tags": {
          "name": "Yusufguda",
          "name:te": "\u0c2f\u0c42\u0c38\u0c41\u0c2b\u0c4d\u200c\u0c17\u0c42\u0c21",
          "network": "Hyderabad Metro",
          "note": "Contributors are requested to not edit the \"network\" and the \"operator\" tags. (2023/11/08)",
          "operator": "Hyderabad Metro Rail Limited",
          "public_transport": "stop_position",
          "railway": "stop",
          "subway": "yes"
        }
      },
      {
        "type": "node",
        "id": 7052069772,
        "lat": 17.4300489,
        "lon": 78.4232069,
        "tags": {
          "name": "Road No 5 Jubilee Hills",
          "name:ml": "\u0d31\u0d4b\u0d21\u0d4d \u0d28\u0d2e\u0d4d\u0d2a\u0d7c 5 \u0d1c\u0d42\u0d2c\u0d3f\u0d32\u0d3f \u0d39\u0d3f\u0d7d\u0d38\u0d4d",
          "name:te": "\u0c30\u0c4b\u0c21\u0c4d \u0c28\u0c02 5 \u0c1c\u0c42\u0c2c\u0c3f\u0c32\u0c40 \u0c39\u0c3f\u0c32\u0c4d\u0c38\u0c4d",
          "network": "Hyderabad Metro",
          "note": "Contributors are requested to not edit the \"network\" and the \"operator\" tags. (2023/11/08)",
          "operator": "Hyderabad Metro Rail Limited",
          "public_transport": "station",
          "railway": "station",
          "station": "subway",
          "subway": "yes",
          "wikidata": "Q108874431"
        }
      },
      {
        "type": "node",
        "id": 7052069773,
        "lat": 17.4306677,
        "lon": 78.4083833,
        "tags": {
          "name": "Peddamma Gudi",
          "name:te": "\u0c2a\u0c46\u0c26\u0c4d\u0c26\u0c2e\u0c4d\u0c2e \u0c17\u0c41\u0c21\u0c3f",
          "network": "Hyderabad Metro",
          "note": "Contributors are requested to not edit the \"network\" and the \"operator\" tags. (2023/11/08)",
          "operator": "Hyderabad Metro Rail Limited",
          "public_transport": "stop_position",
          "railway": "stop",
          "subway": "yes"
        }
      },
      {
        "type": "node",
        "id": 7052069774,
        "lat": 17.4306512,
        "lon": 78.4083721,
        "tags": {
          "name": "Peddamma Gudi",
          "name:ml": "\u0d2a\u0d46\u0d26\u0d4d\u0d26\u0d2e\u0d4d\u0d2e \u0d17\u0d41\u0d21\u0d3f",
          "name:te": "\u0c2a\u0c46\u0c26\u0c4d\u0c26\u0c2e\u0c4d\u0c2e \u0c17\u0c41\u0c21\u0c3f",
          "name:ur": "\u067e\u06cc\u062f\u0645\u0627 \u06af\u0688\u06cc",
          "network": "Hyderabad Metro",
          "note": "Contributors are requested to not edit the \"network\" and the \"operator\" tags. (2023/11/08)",
          "operator": "Hyderabad Metro Rail Limited",
          "public_transport": "station",
          "railway": "station",
          "station": "subway",
          "subway": "yes",
          "wikidata": "Q84028775"
        }
      },
      {
        "type": "node",
        "id": 7180107457,
        "lat": 17.4370042,
        "lon": 78.4200862,
        "tags": {
          "amenity": "theatre",
          "name": "open air theater police line"
        }
      },
      {
        "type": "node",
        "id": 7243983823,
        "lat": 17.4036256,
        "lon": 78.409811,
        "tags": {
          "addr:city": "Hyderabad",
          "addr:postcode": "500008",
          "addr:street": "Old Bombay Highway",
          "amenity": "cinema",
          "name": "Galaxy Theatre",
          "opening_hours": "Mo-Su 11:00-23:00",
          "payment:cash": "yes",
          "screen": "1"
        }
      },
      {
        "type": "node",
        "id": 7243983835,
        "lat": 17.4088996,
        "lon": 78.4001889,
        "tags": {
          "addr:city": "Hyderabad",
          "addr:street": "Old Bombay Highway",
          "amenity": "fuel",
          "brand": "Indian Oil",
          "brand:wikidata": "Q1289348",
          "brand:wikipedia": "en:Indian Oil Corporation",
          "check_date": "2024-03-29",
          "name": "Bharat Petroleum"
        }
      },
      {
        "type": "node",
        "id": 10795095589,
        "lat": 17.4127917,
        "lon": 78.4065527,
        "tags": {
          "amenity": "theatre",
          "name": "Aaromale"
        }
      }
    ]
  }
}