{
  "pois_1km": {
    "version": 0.6,
    "generator": "Overpass API 0.7.62.8 e802775f",
    "osm3s": {
      "timestamp_osm_base": "2025-09-06T08:52:16Z",
      "copyright": "The data included in this document is from www.openstreetmap.org. The data is made available under ODbL."
    },
    "elements": [
      {
        "type": "node",
        "id": 704475632,
        "lat": 17.410736,
        "lon": 78.4497929,
        "tags": {
          "amenity": "fast_food",
          "name": "Bikanervala"
        }
      },
      {
        "type": "node",
        "id": 878278853,
        "lat": 17.4128658,
        "lon": 78.4497203,
        "tags": {
          "amenity": "restaurant",
          "cuisine": "regional;indian;kebab",
          "name": "Sarvi Cafe"
        }
      },
      {
        "type": "node",
        "id": 888520029,
        "lat": 17.4131908,
        "lon": 78.44904,
        "tags": {
          "amenity": "cafe",
          "brand": "Cafe Coffee Day",
          "brand:wikidata": "Q5017235",
          "cuisine": "coffee_shop",
          "name": "Cafe Coffee Day",
          "takeaway": "yes"
        }
      },
      {
        "type": "node",
        "id": 890303724,
        "lat": 17.413531,
        "lon": 78.445005,
        "tags": {
          "amenity": "restaurant",
          "description": "Blue Fox",
          "name": "Grand Minerva"
        }
      },
      {
        "type": "node",
        "id": 890308905,
        "lat": 17.4151382,
        "lon": 78.4493609,
        "tags": {
          "amenity": "restaurant",
          "cuisine": "american",
          "name": "Indijoe"
        }
      },
      {
        "type": "node",
        "id": 890310144,
        "lat": 17.4150666,
        "lon": 78.4494682,
        "tags": {
          "amenity": "restaurant",
          "cuisine": "chinese",
          "name": "Aromas of China"
        }
      },
      {
        "type": "node",
        "id": 890311840,
        "lat": 17.415128,
        "lon": 78.4492107,
        "tags": {
          "amenity": "restaurant",
          "cuisine": "indian",
          "name": "Sahib Sindh Sultan"
        }
      },
      {
        "type": "node",
        "id": 894082495,
        "lat": 17.4156911,
        "lon": 78.4454609,
        "tags": {
          "addr:district": "Hyderabad",
          "addr:full": "8-2-596/5, Road No 10, Banjara Hills",
          "addr:postcode": "500034",
          "addr:state": "Telangana",
          "amenity": "hospital",
          "email": "info@starhospitals.in",
          "fax": "040-2335 6188",
          "name": "Star Hospital",
          "phone": "040-44 777 777",
          "source": "OpenGovernmentData",
          "website": "https://www.starhospitals.in/"
        }
      },
      {
        "type": "node",
        "id": 894082503,
        "lat": 17.4148145,
        "lon": 78.4475692,
        "tags": {
          "amenity": "hospital",
          "name": "Rainbow Hospitals"
        }
      },
      {
        "type": "node",
        "id": 894082505,
        "lat": 17.4151831,
        "lon": 78.4464856,
        "tags": {
          "amenity": "atm",
          "brand": "Bank of Baroda",
          "brand:wikidata": "Q2003797",
          "name": "Bank of Baroda",
          "operator": "Bank of Baroda",
          "operator:wikidata": "Q2003797"
        }
      },
      {
        "type": "node",
        "id": 2294789394,
        "lat": 17.4044012,
        "lon": 78.4550885,
        "tags": {
          "amenity": "restaurant",
          "cuisine": "international",
          "name": "Deccan Orchid Restaurant"
        }
      },
      {
        "type": "node",
        "id": 2352106017,
        "lat": 17.4071411,
        "lon": 78.440372,
        "tags": {
          "amenity": "restaurant",
          "cuisine": "indian",
          "name": "Sitara"
        }
      },
      {
        "type": "node",
        "id": 2352107992,
        "lat": 17.407262,
        "lon": 78.4405874,
        "tags": {
          "addr:housename": "road no 12",
          "addr:postcode": "500034",
          "addr:street": "banjara hills",
          "amenity": "bank",
          "brand": "SBI",
          "brand:wikidata": "Q1340361",
          "brand:wikipedia": "en:State Bank of India",
          "name": "State Bank of India",
          "short_name": "SBI",
          "website": "https://www.sbi.co.in"
        }
      },
      {
        "type": "node",
        "id": 2352108916,
        "lat": 17.4083441,
        "lon": 78.4390226,
        "tags": {
          "amenity": "restaurant",
          "name": "Ohris"
        }
      },
      {
        "type": "node",
        "id": 2352123652,
        "lat": 17.416347,
        "lon": 78.4479294,
        "tags": {
          "amenity": "cafe",
          "brand": "Cafe Coffee Day",
          "brand:wikidata": "Q5017235",
          "cuisine": "coffee_shop",
          "internet_access": "yes",
          "name": "Cafe Coffee Day",
          "takeaway": "yes"
        }
      },
      {
        "type": "node",
        "id": 2496730519,
        "lat": 17.4038833,
        "lon": 78.4528537,
        "tags": {
          "amenity": "restaurant",
          "cuisine": "regional",
          "name": "Paradise Takeaway"
        }
      },
      {
        "type": "node",
        "id": 2713838147,
        "lat": 17.4129971,
        "lon": 78.4481588,
        "tags": {
          "leisure": "park",
          "name": "park"
        }
      },
      {
        "type": "node",
        "id": 3784353141,
        "lat": 17.4046213,
        "lon": 78.4542955,
        "tags": {
          "addr:city": "Masab Tank, Hyderabad",
          "addr:housenumber": "Opposite JNTU Beside Golconda Hotel",
          "amenity": "restaurant",
          "capacity": "75",
          "cuisine": "Fast_Food",
          "name": "Empala Hotel"
        }
      },
      {
        "type": "node",
        "id": 4419091498,
        "lat": 17.4072675,
        "lon": 78.4442572,
        "tags": {
          "amenity": "hospital",
          "name": "Century hospital",
          "name:en": "Century hospital"
        }
      },
      {
        "type": "node",
        "id": 4432377490,
        "lat": 17.4072495,
        "lon": 78.4447338,
        "tags": {
          "addr:district": "Hyderabad",
          "addr:full": "8-2-703, ROAD NO 12, BANJARA HILLS",
          "addr:postcode": "500034",
          "addr:state": "Telangana",
          "amenity": "hospital",
          "contact:email": "info@centuryhospital.in",
          "contact:phone": "33133333",
          "name": "CENTURY SUPER SPECIALITY HOSPITAL",
          "name:en": "Century hospital",
          "operator:type": "private",
          "source": "OpenGovernmentData",
          "website": "http://www.centuryhospital.in"
        }
      },
      {
        "type": "node",
        "id": 5022221723,
        "lat": 17.4138816,
        "lon": 78.448766,
        "tags": {
          "name": "\u0643\u0627\u0638\u0645 \u0645\u0648\u0644 \u0633\u0646\u062a\u0631",
          "name:ar": "\u0643\u0627\u0638\u0645 \u0645\u0648\u0644 \u0633\u0646\u062a\u0631",
          "name:en": "\u0643\u0627\u0638\u0645 \u0645\u0648\u0644 \u0633\u0646\u062a\u0631",
          "name:hi": "\u0643\u0627\u0638\u0645 \u0645\u0648\u0644 \u0633\u0646\u062a\u0631",
          "shop": "supermarket"
        }
      },
      {
        "type": "node",
        "id": 5358760122,
        "lat": 17.4147537,
        "lon": 78.4482967,
        "tags": {
          "amenity": "cafe",
          "brand": "Cafe Coffee Day",
          "brand:wikidata": "Q5017235",
          "cuisine": "coffee_shop",
          "internet_access": "wlan",
          "name": "Cafe Coffee Day",
          "takeaway": "yes"
        }
      },
      {
        "type": "node",
        "id": 5578141622,
        "lat": 17.4037672,
        "lon": 78.4531849,
        "tags": {
          "amenity": "atm",
          "operator": "canara bank atm"
        }
      },
      {
        "type": "node",
        "id": 5578141721,
        "lat": 17.4039011,
        "lon": 78.4533155,
        "tags": {
          "amenity": "atm",
          "operator": "syndicate bank and atm"
        }
      },
      {
        "type": "node",
        "id": 5595935142,
        "lat": 17.4149877,
        "lon": 78.4430288,
        "tags": {
          "leisure": "park",
          "name": "Sarvat Bari Park"
        }
      },
      {
        "type": "node",
        "id": 5595940128,
        "lat": 17.4150519,
        "lon": 78.446731,
        "tags": {
          "amenity": "bank",
          "brand": "State Bank of India",
          "brand:wikidata": "Q1340361",
          "name": "State Bank of India",
          "short_name": "SBI"
        }
      },
      {
        "type": "node",
        "id": 6209822886,
        "lat": 17.4029924,
        "lon": 78.4512671,
        "tags": {
          "amenity": "cafe",
          "name": "Cafe 555"
        }
      },
      {
        "type": "node",
        "id": 6209876085,
        "lat": 17.4051966,
        "lon": 78.451429,
        "tags": {
          "amenity": "restaurant",
          "name": "Dine Hill"
        }
      },
      {
        "type": "node",
        "id": 6218822186,
        "lat": 17.40827,
        "lon": 78.4464787,
        "tags": {
          "amenity": "restaurant",
          "name": "Paya House"
        }
      },
      {
        "type": "node",
        "id": 6218850786,
        "lat": 17.4057018,
        "lon": 78.4508868,
        "tags": {
          "addr:district": "Hyderabad",
          "addr:full": "House Number: 10-5-13/2/A, Road Number 1, Near Khaja Function Hall, Banjara Hills",
          "addr:postcode": "500028",
          "addr:state": "Telangana",
          "amenity": "hospital",
          "healthcare:speciality": "Urology;Nephrology and Other Surgical Procedures",
          "medical_system": "Allopathic",
          "name": "Goodwill Kidney and Surgical Centre",
          "operator:type": "private",
          "phone": "040 23314561",
          "source": "OpenGovernmentData",
          "website": "https://www.goodwillhospitals.com/"
        }
      },
      {
        "type": "node",
        "id": 6218852885,
        "lat": 17.4085358,
        "lon": 78.4510399,
        "tags": {
          "amenity": "bank",
          "brand": "HDFC Bank",
          "brand:wikidata": "Q631047",
          "name": "HDFC Bank",
          "short_name": "HDFC"
        }
      },
      {
        "type": "node",
        "id": 6218852886,
        "lat": 17.4059604,
        "lon": 78.4513702,
        "tags": {
          "name": "Balaji Grand Bazar",
          "shop": "supermarket"
        }
      },
      {
        "type": "node",
        "id": 6218855685,
        "lat": 17.4062952,
        "lon": 78.4512832,
        "tags": {
          "amenity": "fast_food",
          "brand": "Domino's",
          "brand:ks": "\u0688\u0648\u0645\u06cc\u0646\u0648\u0632",
          "brand:pa": "\u0a21\u0a4b\u0a2e\u0a40\u0a28\u0a4b\u0a1c\u0a3c",
          "brand:ur": "\u0688\u0648\u0645\u06cc\u0646\u0648\u0632",
          "brand:wikidata": "Q839466",
          "brand:wikipedia": "en:Domino's Pizza",
          "cuisine": "pizza",
          "name": "Domino's",
          "name:ks": "\u0688\u0648\u0645\u06cc\u0646\u0648\u0632",
          "name:pa": "\u0a21\u0a4b\u0a2e\u0a40\u0a28\u0a4b\u0a1c\u0a3c",
          "name:ur": "\u0688\u0648\u0645\u06cc\u0646\u0648\u0632",
          "takeaway": "yes"
        }
      },
      {
        "type": "node",
        "id": 6220436488,
        "lat": 17.4062281,
        "lon": 78.4517258,
        "tags": {
          "amenity": "atm",
          "operator": "Oriental Bank Of Commerce"
        }
      },
      {
        "type": "node",
        "id": 6224968487,
        "lat": 17.4085779,
        "lon": 78.4505108,
        "tags": {
          "amenity": "atm",
          "brand": "State Bank of India",
          "brand:wikidata": "Q1340361",
          "name": "State Bank of India",
          "operator": "State Bank of India",
          "operator:wikidata": "Q1340361",
          "short_name": "SBI"
        }
      },
      {
        "type": "node",
        "id": 6314120386,
        "lat": 17.4132036,
        "lon": 78.4504727,
        "tags": {
          "alt_name": "Dunkin' Donuts",
          "amenity": "fast_food",
          "brand": "Dunkin'",
          "brand:wikidata": "Q847743",
          "brand:wikipedia": "en:Dunkin' Donuts",
          "contact:website": "https://www.dunkindonuts.com/",
          "cuisine": "donut;coffee_shop",
          "name": "Dunkin'",
          "shop": "bakery",
          "takeaway": "yes"
        }
      },
      {
        "type": "node",
        "id": 6485645255,
        "lat": 17.4073909,
        "lon": 78.4559655,
        "tags": {
          "addr:district": "Hyderabad",
          "addr:full": "H.No. 10-673/1, Near Hanuman Temple, Veernagar, Saifabad",
          "addr:postcode": "500004",
          "addr:state": "Telangana",
          "amenity": "hospital",
          "fax": "040 23314995",
          "health_facility:type": "OP and IP Billing Services;Central Sterile SupplyService;Linen and Laundry Service;Canteen;Housekeeping Services;Bio Medical Waste Management;Security Services",
          "healthcare:speciality": "Obstetrics and Gynaecology;Infertility Clinic;General Medicine;General Surgery;Orthopaedics;Paediatrics;Neonatology;Immunization Clinic;Urology;ENT;Dermatology;Casuality",
          "medical_system": "Allopathic",
          "name": "Vijay Marie Hospital",
          "operator:type": "private",
          "phone": "040 23307350",
          "source": "OpenGovernmentData",
          "website": "https://www.vijaymariehospital.org/"
        }
      },
      {
        "type": "node",
        "id": 6494384142,
        "lat": 17.4078913,
        "lon": 78.4426578,
        "tags": {
          "addr:district": "Hyderabad",
          "addr:full": "2-681, 1st Floor, Vishal Vaibhav Complex, Road No. 12, Banjara Hills",
          "addr:postcode": "500034",
          "addr:state": "Telangana",
          "amenity": "hospital",
          "name": "Eva Care The Every Woman's Clinic",
          "source": "OpenGovernmentData"
        }
      },
      {
        "type": "node",
        "id": 6503747239,
        "lat": 17.4075461,
        "lon": 78.4496157,
        "tags": {
          "addr:district": "Hyderabad",
          "addr:full": "Road Number 12, Banjara Hills",
          "addr:postcode": "500034",
          "addr:state": "Telangana",
          "amenity": "hospital",
          "name": "Banjara 12 Hospital",
          "source": "OpenGovernmentData"
        }
      },
      {
        "type": "node",
        "id": 6549211440,
        "lat": 17.4160331,
        "lon": 78.4473536,
        "tags": {
          "addr:full": "H.No: .8-2-595/3, Opp: CARE CONVERGENCE, ROAD No.10, BANJARAHILLS",
          "addr:postcode": "500034",
          "addr:state": "Telangana",
          "amenity": "hospital",
          "contact:phone": "4023350733",
          "name": "HIGH SIGHT SUPER SPECILAITY EYE HOSPITAL",
          "operator:type": "private",
          "source": "OpenGovernmentData"
        }
      },
      {
        "type": "node",
        "id": 6549420102,
        "lat": 17.4070512,
        "lon": 78.4412871,
        "tags": {
          "addr:district": "Hyderabad",
          "addr:full": "8-2 698, ROAD NO 12, BANJARA HILLS",
          "addr:postcode": "500034",
          "addr:state": "Telangana",
          "amenity": "hospital",
          "contact:phone": "47807300",
          "name": "STORK HOME FERNANDEZ HOSPITAL",
          "operator:type": "private",
          "source": "OpenGovernmentData"
        }
      },
      {
        "type": "node",
        "id": 6563250152,
        "lat": 17.4074076,
        "lon": 78.4428254,
        "tags": {
          "addr:district": "Hyderabad",
          "addr:full": "4th Floor, Anushka Pride, Opposite Ratnadeep Supermarket, Road Number 12, Banjara Hills",
          "addr:postcode": "500034",
          "addr:state": "Telangana",
          "amenity": "hospital",
          "fax": "040 6736 9900",
          "health_facility:type": "Intensive Care Unit ICU ;Acute Medical Care unit AMC ;Neonatal Intensive Care Unit NICU ;Pediatric Intensive Care Unit PICU ;Post Operative Ward P O W ;Suite Rooms;Deluxe Rooms;A C and Non A C Cubicle;General Ward for Male and Female",
          "healthcare:speciality": "multi specialty",
          "medical_system": "Allopathic",
          "name": "Omni Hospital - Banjara Hills",
          "operator:type": "private",
          "phone": "040 67369999",
          "source": "OpenGovernmentData",
          "website": "https://www.omnihospitals.in/"
        }
      },
      {
        "type": "node",
        "id": 6652949088,
        "lat": 17.4075029,
        "lon": 78.4432022,
        "tags": {
          "amenity": "bank",
          "name": "SBI"
        }
      },
      {
        "type": "node",
        "id": 6652949191,
        "lat": 17.4055008,
        "lon": 78.4517971,
        "tags": {
          "amenity": "restaurant",
          "cuisine": "kebab",
          "name": "Khan Saheb"
        }
      },
      {
        "type": "node",
        "id": 6652949192,
        "lat": 17.4073307,
        "lon": 78.4453263,
        "tags": {
          "name": "Star Market",
          "shop": "supermarket"
        }
      },
      {
        "type": "node",
        "id": 6652949193,
        "lat": 17.4075353,
        "lon": 78.4423439,
        "tags": {
          "amenity": "restaurant",
          "cuisine": "pizza;american",
          "name": "Pizza Hut"
        }
      },
      {
        "type": "node",
        "id": 7023081189,
        "lat": 17.4138326,
        "lon": 78.4536907,
        "tags": {
          "amenity": "restaurant",
          "name": "Indira veg non veg"
        }
      },
      {
        "type": "node",
        "id": 9093559317,
        "lat": 17.4039774,
        "lon": 78.4515963,
        "tags": {
          "addr:housenumber": "Shop No.5",
          "addr:postcode": "500028",
          "addr:street": "Road Number 1",
          "amenity": "restaurant",
          "cuisine": "indian",
          "name": "Aqeeq Multi Cuisine Restaurant & Cafe 555",
          "opening_hours": "Mo-Su 10:00-23:00",
          "phone": "+917419869184"
        }
      },
      {
        "type": "node",
        "id": 9605987726,
        "lat": 17.4161363,
        "lon": 78.449655,
        "tags": {
          "amenity": "atm",
          "brand": "HDFC Bank",
          "brand:wikidata": "Q631047",
          "level": "H",
          "name": "HDFC Bank",
          "operator": "HDFC Bank",
          "operator:wikidata": "Q631047",
          "short_name": "HDFC"
        }
      },
      {
        "type": "node",
        "id": 10280159817,
        "lat": 17.4153075,
        "lon": 78.4498881,
        "tags": {
          "addr:city": "Hyderabad",
          "addr:street": "Road Number 1",
          "amenity": "restaurant",
          "name": "Mandi 36"
        }
      },
      {
        "type": "node",
        "id": 10280159819,
        "lat": 17.4151736,
        "lon": 78.4501743,
        "tags": {
          "addr:city": "Hyderabad",
          "addr:street": "Road Number 1",
          "amenity": "restaurant",
          "cuisine": "pizza",
          "name": "Onesta Pizza"
        }
      },
      {
        "type": "node",
        "id": 10280159820,
        "lat": 17.4151573,
        "lon": 78.450071,
        "tags": {
          "addr:city": "Hyderabad",
          "addr:street": "Road Number 1",
          "amenity": "restaurant",
          "cuisine": "barbecue",
          "name": "Barbeque Nation"
        }
      },
      {
        "type": "node",
        "id": 10300324812,
        "lat": 17.4070548,
        "lon": 78.4516599,
        "tags": {
          "addr:city": "hyderabad",
          "addr:housenumber": "banjara hills",
          "addr:postcode": "500034",
          "addr:street": "Road Number 1",
          "air_conditioning": "yes",
          "amenity": "restaurant",
          "capacity": "100",
          "cuisine": "multi-cuisine",
          "delivery": "yes",
          "internet_access": "yes",
          "name": "Banjara 9",
          "opening_hours": "mo-su 12:00- 24:00",
          "outdoor_seating": "yes",
          "payment:app": "yes",
          "payment:cards": "yes",
          "payment:cash": "yes",
          "payment:contactless": "yes",
          "payment:credit_cards": "yes",
          "payment:debit_cards": "yes",
          "payment:google_pay": "yes",
          "payment:mastercard": "yes",
          "payment:visa": "yes",
          "payment:visa_debit": "yes",
          "phone": "7674052917",
          "takeaway": "yes",
          "toilets": "yes"
        }
      },
      {
        "type": "node",
        "id": 10300324818,
        "lat": 17.4069087,
        "lon": 78.4516766,
        "tags": {
          "amenity": "restaurant"
        }
      },
      {
        "type": "node",
        "id": 10707719605,
        "lat": 17.4146159,
        "lon": 78.4539247,
        "tags": {
          "addr:postcode": "500004",
          "addr:street": "Venkataramana Colony",
          "amenity": "hospital",
          "name": "Avinash child hospital"
        }
      },
      {
        "type": "node",
        "id": 11940114883,
        "lat": 17.4073576,
        "lon": 78.4567152,
        "tags": {
          "addr:district": "Hyderabad",
          "addr:place": "Khairtabad",
          "addr:state": "Telangana",
          "addr:street": "MCH WARD OFFICE NEAR P.G COLLAGE",
          "addr:subdistrict": "Asif Nagar",
          "amenity": "clinic",
          "healthcare": "clinic",
          "name": "Urban Primary Health Centre, Chintal Basthi",
          "operational_status": "operational",
          "operator:type": "government",
          "source": "OpenDataTelangana"
        }
      },
      {
        "type": "node",
        "id": 12422483853,
        "lat": 17.4051691,
        "lon": 78.4518056,
        "tags": {
          "amenity": "restaurant",
          "check_date": "2024-12-13",
          "name": "Sarvi Restaurant"
        }
      },
      {
        "type": "node",
        "id": 12422483854,
        "lat": 17.4061379,
        "lon": 78.4513106,
        "tags": {
          "amenity": "fast_food",
          "brand": "Domino's",
          "brand:wikidata": "Q839466",
          "check_date": "2024-12-13",
          "cuisine": "pizza",
          "name": "Domino's",
          "takeaway": "yes"
        }
      },
      {
        "type": "node",
        "id": 12581496078,
        "lat": 17.4143356,
        "lon": 78.4465237,
        "tags": {
          "addr:city": "Hyderabad",
          "addr:district": "Hyderabad",
          "addr:postcode": "500034",
          "addr:street": "Care Outpatient Centre, Road No. 10, Avenue 4, Banjara Hills",
          "amenity": "clinic",
          "healthcare": "clinic",
          "healthcare:speciality": "spine_surgery",
          "name": "KL Spine Surgeon",
          "operator": "Novosalus Technology",
          "operator:type": "private"
        }
      }
    ]
  },
  "pois_2_5km": {
    "version": 0.6,
    "generator": "Overpass API 0.7.62.8 e802775f",
    "osm3s": {
      "timestamp_osm_base": "2025-09-06T08:52:16Z",
      "copyright": "The data included in this document is from www.openstreetmap.org. The data is made available under ODbL."
    },
    "elements": [
      {
        "type": "node",
        "id": 289582012,
        "lat": 17.4245107,
        "lon": 78.4626514,
        "tags": {
          "name": "Necklace Road",
          "name:te": "\u0c28\u0c46\u0c15\u0c4d\u0c32\u0c46\u0c38\u0c4d \u0c30\u0c4b\u0c21\u0c4d\u0c21\u0c41",
          "public_transport": "stop_position",
          "railway": "stop",
          "ref": "1",
          "train": "yes"
        }
      },
      {
        "type": "node",
        "id": 289582025,
        "lat": 17.4129744,
        "lon": 78.4610582,
        "tags": {
          "internet_access": "no",
          "name": "Khairatabad",
          "name:te": "\u0c16\u0c48\u0c30\u0c24\u0c3e\u0c2c\u0c3e\u0c26\u0c4d",
          "name:ur": "\u062e\u06cc\u0631\u062a \u0622\u0628\u0627\u062f",
          "network": "IR",
          "operator": "SCR",
          "platforms": "2",
          "public_transport": "station",
          "railway": "station",
          "ref": "KQD",
          "train": "yes",
          "wikidata": "Q6399082",
          "wikipedia": "en:Khairatabad railway station"
        }
      },
      {
        "type": "node",
        "id": 289582401,
        "lat": 17.4233355,
        "lon": 78.4631857,
        "tags": {
          "internet_access": "no",
          "name": "Necklace Road",
          "name:te": "\u0c28\u0c46\u0c15\u0c4d\u0c32\u0c46\u0c38\u0c4d \u0c30\u0c4b\u0c21\u0c4d\u0c21\u0c41",
          "name:ur": "\u0646\u06a9\u0644\u06cc\u0633 \u0631\u0648\u0688",
          "network": "IR",
          "operator": "SCR",
          "platforms": "2",
          "public_transport": "station",
          "railway": "station",
          "ref": "NLRD",
          "train": "yes",
          "wikidata": "Q6985575",
          "wikipedia": "en:Necklace Road railway station"
        }
      },
      {
        "type": "node",
        "id": 308792901,
        "lat": 17.4080669,
        "lon": 78.4697587,
        "tags": {
          "amenity": "fuel",
          "name": "HP",
          "name:te": "\u0c39\u0c46\u0c1a\u0c4d \u0c2a\u0c3f",
          "operator": "Telangana Civil Supplies"
        }
      },
      {
        "type": "node",
        "id": 813570842,
        "lat": 17.4263594,
        "lon": 78.451396,
        "tags": {
          "amenity": "fuel",
          "brand": "Indian Oil",
          "brand:wikidata": "Q1289348",
          "brand:wikipedia": "en:Indian Oil Corporation",
          "name": "Indian Oil"
        }
      },
      {
        "type": "node",
        "id": 814748141,
        "lat": 17.4273769,
        "lon": 78.4395446,
        "tags": {
          "amenity": "fuel",
          "brand": "Indian Oil",
          "brand:wikidata": "Q1289348",
          "brand:wikipedia": "en:Indian Oil Corporation",
          "name": "Indian Oil"
        }
      },
      {
        "type": "node",
        "id": 890312487,
        "lat": 17.418803,
        "lon": 78.4484007,
        "tags": {
          "amenity": "cinema",
          "brand": "INOX Leisure",
          "brand:wikidata": "Q5972349",
          "name": "INOX Cinema",
          "name:te": "\u0c10\u0c28\u0c3e\u0c15\u0c4d\u0c38\u0c4d \u0c38\u0c3f\u0c28\u0c3f\u0c2e\u0c3e",
          "short_name": "INOX"
        }
      },
      {
        "type": "node",
        "id": 1152688354,
        "lat": 17.4073584,
        "lon": 78.4555516,
        "tags": {
          "amenity": "theatre"
        }
      },
      {
        "type": "node",
        "id": 1259088726,
        "lat": 17.4115781,
        "lon": 78.4610668,
        "tags": {
          "amenity": "fuel"
        }
      },
      {
        "type": "node",
        "id": 1666010778,
        "lat": 17.4232572,
        "lon": 78.4589653,
        "tags": {
          "amenity": "fuel",
          "brand": "Shell",
          "brand:wikidata": "Q110716465",
          "fuel:diesel": "yes",
          "fuel:octane_91": "yes",
          "name": "Shell Petrol Bunk",
          "operator": "Shell"
        }
      },
      {
        "type": "node",
        "id": 1779029058,
        "lat": 17.4040544,
        "lon": 78.4638899,
        "tags": {
          "amenity": "fuel"
        }
      },
      {
        "type": "node",
        "id": 1883484106,
        "lat": 17.4302638,
        "lon": 78.4484072,
        "tags": {
          "addr:city": "Hyderabad",
          "addr:state": "Telangana",
          "addr:street": "Ameerpet Road",
          "air_conditioning": "yes",
          "amenity": "cinema",
          "name": "Platinum Cinemas"
        }
      },
      {
        "type": "node",
        "id": 2052621892,
        "lat": 17.4031013,
        "lon": 78.4624993,
        "tags": {
          "amenity": "fuel"
        }
      },
      {
        "type": "node",
        "id": 2174747681,
        "lat": 17.4047659,
        "lon": 78.4627335,
        "tags": {
          "name": "Lakdi-ka-pul",
          "public_transport": "stop_position",
          "railway": "stop",
          "ref": "1",
          "train": "yes"
        }
      },
      {
        "type": "node",
        "id": 2217968817,
        "lat": 17.3955353,
        "lon": 78.4308307,
        "tags": {
          "amenity": "fuel",
          "brand": "Indian Oil",
          "check_date": "2024-03-29"
        }
      },
      {
        "type": "node",
        "id": 2352099065,
        "lat": 17.4211261,
        "lon": 78.4559994,
        "tags": {
          "amenity": "fuel",
          "brand": "Indian Oil",
          "brand:wikidata": "Q1289348",
          "brand:wikipedia": "en:Indian Oil Corporation",
          "fuel:diesel": "yes",
          "fuel:petrol": "yes",
          "name": "Indian Oil Fuel Station"
        }
      },
      {
        "type": "node",
        "id": 2352100154,
        "lat": 17.4206051,
        "lon": 78.4563468,
        "tags": {
          "amenity": "fuel",
          "brand": "Bharat Petroleum",
          "brand:wikidata": "Q854826",
          "building": "yes",
          "name": "Bharat Petroleum"
        }
      },
      {
        "type": "node",
        "id": 2422989191,
        "lat": 17.4202292,
        "lon": 78.4563489,
        "tags": {
          "addr:city": "Hyderabad",
          "addr:city:ar": "\u062d\u064a\u062f\u0631 \u0622\u0628\u0627\u062f",
          "addr:city:ur": "\u062d\u06cc\u062f\u0631\u0622\u0628\u0627\u062f",
          "name": "Irrum Manzil",
          "name:ml": "\u0d0e\u0d31\u0d02 \u0d2e\u0d7b\u0d38\u0d3f\u0d7d",
          "name:te": "\u0c07\u0c31\u0c02 \u0c2e\u0c02\u0c1c\u0c3f\u0c32\u0c4d",
          "network": "Hyderabad Metro",
          "note": "Contributors are requested to not edit the \"network\" and the \"operator\" tags. (2023/11/08)",
          "operator": "Hyderabad Metro Rail Limited",
          "public_transport": "stop_position",
          "public_transport:version": "2",
          "railway": "stop",
          "subway": "yes"
        }
      },
      {
        "type": "node",
        "id": 2424019772,
        "lat": 17.4284456,
        "lon": 78.4513095,
        "tags": {
          "addr:city": "Hyderabad",
          "addr:city:ar": "\u062d\u064a\u062f\u0631 \u0622\u0628\u0627\u062f",
          "addr:city:ur": "\u062d\u06cc\u062f\u0631\u0622\u0628\u0627\u062f",
          "name": "Panjagutta",
          "name:ml": "\u0d2a\u0d1e\u0d4d\u0d1a\u0d17\u0d41\u0d1f\u0d4d\u0d1f",
          "name:te": "\u0c2a\u0c02\u0c1c\u0c3e\u0c17\u0c41\u0c1f\u0c4d\u0c1f",
          "network": "Hyderabad Metro",
          "note": "Contributors are requested to not edit the \"network\" and the \"operator\" tags. (2023/11/08)",
          "operator": "Hyderabad Metro Rail Limited",
          "public_transport": "stop_position",
          "public_transport:version": "2",
          "railway": "stop",
          "subway": "yes"
        }
      },
      {
        "type": "node",
        "id": 2712437769,
        "lat": 17.4038328,
        "lon": 78.4635019,
        "tags": {
          "internet_access": "no",
          "name": "Lakdi-ka-pul",
          "name:te": "\u0c32\u0c15\u0c4d\u0c21\u0c3f\u0c15\u0c2a\u0c42\u0c32\u0c4d",
          "name:ur": "\u0644\u06a9\u0691\u06cc \u06a9\u0627 \u067e\u0644",
          "network": "IR",
          "operator": "SCR",
          "platforms": "2",
          "public_transport": "station",
          "railway": "station",
          "ref": "LKPL",
          "train": "yes",
          "wikidata": "Q6474590",
          "wikipedia": "en:Lakdi-ka-pul railway station"
        }
      },
      {
        "type": "node",
        "id": 2817388352,
        "lat": 17.3916438,
        "lon": 78.4414025,
        "tags": {
          "addr:city": "Hyderabad",
          "addr:postcode": "500028",
          "addr:street": "Gudimalkapur Rd, Mehedipatnam",
          "amenity": "theatre",
          "name": "Amba Theater"
        }
      },
      {
        "type": "node",
        "id": 3249112572,
        "lat": 17.4069137,
        "lon": 78.4635188,
        "tags": {
          "amenity": "cinema",
          "name": "Sensation Insomnia"
        }
      },
      {
        "type": "node",
        "id": 3249112573,
        "lat": 17.40713,
        "lon": 78.4635409,
        "tags": {
          "amenity": "cinema",
          "name": "Sensation Sunshine"
        }
      },
      {
        "type": "node",
        "id": 3249112574,
        "lat": 17.4074371,
        "lon": 78.4630567,
        "tags": {
          "amenity": "cinema",
          "name": "Shaam Theatre"
        }
      },
      {
        "type": "node",
        "id": 3390802020,
        "lat": 17.3932909,
        "lon": 78.4321143,
        "tags": {
          "amenity": "fuel",
          "name": "Bharat Petroleum"
        }
      },
      {
        "type": "node",
        "id": 3784388166,
        "lat": 17.4047517,
        "lon": 78.4626985,
        "tags": {
          "name": "Lakdi-ka-pul",
          "public_transport": "stop_position",
          "railway": "stop",
          "ref": "2",
          "train": "yes"
        }
      },
      {
        "type": "node",
        "id": 3784388184,
        "lat": 17.4143528,
        "lon": 78.4609816,
        "tags": {
          "name": "Khairatabad",
          "name:te": "\u0c16\u0c48\u0c30\u0c24\u0c3e\u0c2c\u0c3e\u0c26\u0c4d",
          "public_transport": "stop_position",
          "railway": "stop",
          "ref": "2",
          "train": "yes"
        }
      },
      {
        "type": "node",
        "id": 3784388185,
        "lat": 17.4143598,
        "lon": 78.4610957,
        "tags": {
          "name": "Khairatabad",
          "name:te": "\u0c16\u0c48\u0c30\u0c24\u0c3e\u0c2c\u0c3e\u0c26\u0c4d",
          "public_transport": "stop_position",
          "railway": "stop",
          "ref": "1",
          "train": "yes"
        }
      },
      {
        "type": "node",
        "id": 3784388218,
        "lat": 17.4245006,
        "lon": 78.4626111,
        "tags": {
          "name": "Necklace Road",
          "name:te": "\u0c28\u0c46\u0c15\u0c4d\u0c32\u0c46\u0c38\u0c4d \u0c30\u0c4b\u0c21\u0c4d\u0c21\u0c41",
          "public_transport": "stop_position",
          "railway": "stop",
          "ref": "2",
          "train": "yes"
        }
      },
      {
        "type": "node",
        "id": 4407581196,
        "lat": 17.42008,
        "lon": 78.4308367,
        "tags": {
          "amenity": "bus_station",
          "bus": "yes",
          "name": "Nandi Nagar bus stand",
          "name:en": "Nandi Nagar bus stand",
          "public_transport": "station"
        }
      },
      {
        "type": "node",
        "id": 5425191914,
        "lat": 17.3959857,
        "lon": 78.4307454,
        "tags": {
          "bus": "yes",
          "public_transport": "stop_position"
        }
      },
      {
        "type": "node",
        "id": 5620024293,
        "lat": 17.4195272,
        "lon": 78.4486519,
        "tags": {
          "amenity": "cinema",
          "brand": "INOX Leisure",
          "brand:wikidata": "Q5972349",
          "name": "INOX",
          "name:te": "\u0c10\u0c28\u0c3e\u0c15\u0c4d\u0c38\u0c4d",
          "short_name": "INOX"
        }
      },
      {
        "type": "node",
        "id": 5787788011,
        "lat": 17.4289005,
        "lon": 78.4508989,
        "tags": {
          "addr:city": "Hyderabad",
          "addr:city:ar": "\u062d\u064a\u062f\u0631 \u0622\u0628\u0627\u062f",
          "addr:city:ur": "\u062d\u06cc\u062f\u0631\u0622\u0628\u0627\u062f",
          "name": "Panjagutta",
          "name:ml": "\u0d2a\u0d1e\u0d4d\u0d1a\u0d17\u0d41\u0d1f\u0d4d\u0d1f",
          "name:te": "\u0c2a\u0c02\u0c1c\u0c3e\u0c17\u0c41\u0c1f\u0c4d\u0c1f",
          "network": "Hyderabad Metro",
          "note": "Contributors are requested to not edit the \"network\" and the \"operator\" tags. (2023/11/08)",
          "operator": "Hyderabad Metro Rail Limited",
          "public_transport": "stop_position",
          "public_transport:version": "2",
          "railway": "stop",
          "subway": "yes"
        }
      },
      {
        "type": "node",
        "id": 5961188254,
        "lat": 17.4111614,
        "lon": 78.4609532,
        "tags": {
          "addr:city": "Hyderabad",
          "addr:city:ar": "\u062d\u064a\u062f\u0631 \u0622\u0628\u0627\u062f",
          "addr:city:ur": "\u062d\u06cc\u062f\u0631\u0622\u0628\u0627\u062f",
          "name": "Khairatabad",
          "name:ml": "\u0d16\u0d48\u0d30\u0d24\u0d3e\u0d2c\u0d3e\u0d26\u0d4d",
          "name:te": "\u0c16\u0c48\u0c30\u0c24\u0c3e\u0c2c\u0c3e\u0c26\u0c4d",
          "network": "Hyderabad Metro",
          "note": "Contributors are requested to not edit the \"network\" and the \"operator\" tags. (2023/11/08)",
          "operator": "Hyderabad Metro Rail Limited",
          "public_transport": "stop_position",
          "public_transport:version": "2",
          "railway": "stop",
          "subway": "yes"
        }
      },
      {
        "type": "node",
        "id": 5968369025,
        "lat": 17.4036398,
        "lon": 78.4653197,
        "tags": {
          "addr:city": "Hyderabad",
          "addr:city:ar": "\u062d\u064a\u062f\u0631 \u0622\u0628\u0627\u062f",
          "addr:city:ur": "\u062d\u06cc\u062f\u0631\u0622\u0628\u0627\u062f",
          "name": "Lakdi-ka-pul",
          "name:ml": "\u0d32\u0d15\u0d4d\u0d21\u0d3f-\u0d15\u0d3e-\u0d2a\u0d41\u0d7d",
          "name:te": "\u0c32\u0c15\u0c4d\u0c21\u0c3f-\u0c15\u0c3e-\u0c2a\u0c41\u0c32\u0c4d",
          "network": "Hyderabad Metro",
          "note": "Contributors are requested to not edit the \"network\" and the \"operator\" tags. (2023/11/08)",
          "operator": "Hyderabad Metro Rail Limited",
          "public_transport": "stop_position",
          "public_transport:version": "2",
          "railway": "stop",
          "subway": "yes",
          "wheelchair": "yes"
        }
      },
      {
        "type": "node",
        "id": 6162823090,
        "lat": 17.4139112,
        "lon": 78.4646316,
        "tags": {
          "amenity": "ferry_terminal",
          "ferry": "yes",
          "name": "Boating",
          "public_transport": "station"
        }
      },
      {
        "type": "node",
        "id": 6209973385,
        "lat": 17.4040258,
        "lon": 78.4618329,
        "tags": {
          "amenity": "fuel",
          "name": "Auto Gas"
        }
      },
      {
        "type": "node",
        "id": 6771713701,
        "lat": 17.4267669,
        "lon": 78.4531002,
        "tags": {
          "addr:city": "Hyderabad",
          "addr:state": "Telangana",
          "addr:street": "Punjagutta",
          "air_conditioning": "yes",
          "amenity": "cinema",
          "brand": "PVR Cinemas",
          "brand:wikidata": "Q3359908",
          "description": "it is a place for wa\ntching movies",
          "name": "PVR Cinemas",
          "short_name": "PVR"
        }
      },
      {
        "type": "node",
        "id": 9732099995,
        "lat": 17.390678,
        "lon": 78.4502828,
        "tags": {
          "amenity": "fuel",
          "brand": "Indian Oil Petrol Pump",
          "brand:wikidata": "Q1289348",
          "name": "Indian Oil Petrol Pump"
        }
      },
      {
        "type": "node",
        "id": 9732100001,
        "lat": 17.3887447,
        "lon": 78.4552104,
        "tags": {
          "amenity": "fuel",
          "brand": "Hindustan Petroleum",
          "brand:wikidata": "Q1619375",
          "name": "HP",
          "official_name": "Hindustan Petroleum"
        }
      },
      {
        "type": "node",
        "id": 10789477897,
        "lat": 17.4286801,
        "lon": 78.4504275,
        "tags": {
          "addr:city": "Hyderabad",
          "addr:state": "Telangana",
          "addr:street": "Punjagutta",
          "air_conditioning": "yes",
          "amenity": "cinema",
          "branch": "Punjagutta",
          "brand": "PVR Cinemas",
          "brand:wikidata": "Q3359908",
          "name": "PVR Next Galleria",
          "short_name": "PVR",
          "wheelchair": "yes"
        }
      },
      {
        "type": "node",
        "id": 10789488362,
        "lat": 17.4208001,
        "lon": 78.4554217,
        "tags": {
          "addr:city": "Hyderabad",
          "addr:state": "Telangana",
          "addr:street": "Irrum manzil Road",
          "air_conditioning": "yes",
          "amenity": "cinema",
          "branch": "Irrum Manzil",
          "brand": "PVR Cinemas",
          "brand:wikidata": "Q3359908",
          "name": "PVR Next premia",
          "short_name": "PVR",
          "wheelchair": "yes"
        }
      },
      {
        "type": "node",
        "id": 10789496134,
        "lat": 17.4127019,
        "lon": 78.4657508,
        "tags": {
          "addr:city": "Hyderabad",
          "addr:neighbourhood": "Khairtabad",
          "addr:state": "Telangana",
          "air_conditioning": "yes",
          "amenity": "cinema",
          "name": "Prasads Imax",
          "wheelchair": "yes",
          "wikidata": "Q7238450",
          "wikipedia": "en:Prasads Multiplex"
        }
      },
      {
        "type": "node",
        "id": 10992500529,
        "lat": 17.3922572,
        "lon": 78.4405896,
        "tags": {
          "amenity": "bus_station",
          "bus": "yes",
          "name": "TSRTC BUS DEPOT , MEHADIPATANM",
          "public_transport": "station"
        }
      },
      {
        "type": "node",
        "id": 10992500530,
        "lat": 17.3921581,
        "lon": 78.4418493,
        "tags": {
          "amenity": "bus_station",
          "bus": "yes",
          "name": "Mehdipatnam  Bus Stop",
          "public_transport": "station"
        }
      },
      {
        "type": "node",
        "id": 11027534565,
        "lat": 17.4304735,
        "lon": 78.4483917,
        "tags": {
          "amenity": "cinema"
        }
      },
      {
        "type": "node",
        "id": 11738179190,
        "lat": 17.4039063,
        "lon": 78.4650247,
        "tags": {
          "internet_access": "no",
          "name": "Lakdi-ka-pul",
          "name:ml": "\u0d32\u0d15\u0d4d\u0d21\u0d3f-\u0d15\u0d3e-\u0d2a\u0d41\u0d7d",
          "name:te": "\u0c32\u0c15\u0c4d\u0c21\u0c3f-\u0c15\u0c3e-\u0c2a\u0c41\u0c32\u0c4d",
          "name:ur": "\u0644\u06a9\u0691\u06cc \u06a9\u0627 \u067e\u0644",
          "network": "Hyderabad Metro",
          "note": "Contributors are requested to not edit the \"network\" and the \"operator\" tags. (2023/11/08)",
          "operator": "Hyderabad Metro Rail Limited",
          "public_transport": "station",
          "railway": "station",
          "station": "subway",
          "subway": "yes",
          "website": "https://hmrl.co.in",
          "wheelchair": "yes"
        }
      },
      {
        "type": "node",
        "id": 11738179191,
        "lat": 17.4115319,
        "lon": 78.4608458,
        "tags": {
          "internet_access": "no",
          "name": "Khairatabad",
          "name:ml": "\u0d16\u0d48\u0d30\u0d24\u0d3e\u0d2c\u0d3e\u0d26\u0d4d",
          "name:te": "\u0c16\u0c48\u0c30\u0c24\u0c3e\u0c2c\u0c3e\u0c26\u0c4d",
          "name:ur": "\u062e\u06cc\u0631\u062a \u0622\u0628\u0627\u062f",
          "network": "Hyderabad Metro",
          "note": "Contributors are requested to not edit the \"network\" and the \"operator\" tags. (2023/11/08)",
          "operator": "Hyderabad Metro Rail Limited",
          "public_transport": "station",
          "railway": "station",
          "station": "subway",
          "subway": "yes",
          "website": "https://hmrl.co.in",
          "wheelchair": "yes"
        }
      },
      {
        "type": "node",
        "id": 11738179192,
        "lat": 17.4209654,
        "lon": 78.4558011,
        "tags": {
          "addr:city": "Hyderabad",
          "addr:city:ar": "\u062d\u064a\u062f\u0631 \u0622\u0628\u0627\u062f",
          "addr:city:ur": "\u062d\u06cc\u062f\u0631\u0622\u0628\u0627\u062f",
          "name": "Irrum Manzil",
          "name:ml": "\u0d0e\u0d31\u0d02 \u0d2e\u0d7b\u0d38\u0d3f\u0d7d",
          "name:te": "\u0c07\u0c31\u0c02 \u0c2e\u0c02\u0c1c\u0c3f\u0c32\u0c4d",
          "network": "Hyderabad Metro",
          "note": "Contributors are requested to not edit the \"network\" and the \"operator\" tags. (2023/11/08)",
          "operator": "Hyderabad Metro Rail Limited",
          "public_transport": "stop_position",
          "public_transport:version": "2",
          "railway": "stop",
          "subway": "yes"
        }
      },
      {
        "type": "node",
        "id": 11738179193,
        "lat": 17.4205559,
        "lon": 78.456101,
        "tags": {
          "internet_access": "no",
          "name": "Irrum Manzil",
          "name:ml": "\u0d0e\u0d31\u0d02 \u0d2e\u0d7b\u0d38\u0d3f\u0d7d",
          "name:te": "\u0c07\u0c31\u0c02 \u0c2e\u0c02\u0c1c\u0c3f\u0c32\u0c4d",
          "name:ur": "\u0627\u0631\u0645 \u0645\u0646\u0632\u0644",
          "network": "Hyderabad Metro",
          "note": "Contributors are requested to not edit the \"network\" and the \"operator\" tags. (2023/11/08)",
          "operator": "Hyderabad Metro Rail Limited",
          "public_transport": "station",
          "railway": "station",
          "station": "subway",
          "subway": "yes",
          "website": "https://hmrl.co.in",
          "wheelchair": "yes",
          "wikidata": "Q85770033"
        }
      },
      {
        "type": "node",
        "id": 11738179217,
        "lat": 17.4119664,
        "lon": 78.4607387,
        "tags": {
          "addr:city": "Hyderabad",
          "addr:city:ar": "\u062d\u064a\u062f\u0631 \u0622\u0628\u0627\u062f",
          "addr:city:ur": "\u062d\u06cc\u062f\u0631\u0622\u0628\u0627\u062f",
          "name": "Khairatabad",
          "name:ml": "\u0d16\u0d48\u0d30\u0d24\u0d3e\u0d2c\u0d3e\u0d26\u0d4d",
          "name:te": "\u0c16\u0c48\u0c30\u0c24\u0c3e\u0c2c\u0c3e\u0c26\u0c4d",
          "network": "Hyderabad Metro",
          "note": "Contributors are requested to not edit the \"network\" and the \"operator\" tags. (2023/11/08)",
          "operator": "Hyderabad Metro Rail Limited",
          "public_transport": "stop_position",
          "public_transport:version": "2",
          "railway": "stop",
          "subway": "yes"
        }
      },
      {
        "type": "node",
        "id": 11738179218,
        "lat": 17.4042288,
        "lon": 78.4646895,
        "tags": {
          "addr:city": "Hyderabad",
          "addr:city:ar": "\u062d\u064a\u062f\u0631 \u0622\u0628\u0627\u062f",
          "addr:city:ur": "\u062d\u06cc\u062f\u0631\u0622\u0628\u0627\u062f",
          "name": "Lakdi-ka-pul",
          "name:ml": "\u0d32\u0d15\u0d4d\u0d21\u0d3f-\u0d15\u0d3e-\u0d2a\u0d41\u0d7d",
          "name:te": "\u0c32\u0c15\u0c4d\u0c21\u0c3f-\u0c15\u0c3e-\u0c2a\u0c41\u0c32\u0c4d",
          "network": "Hyderabad Metro",
          "note": "Contributors are requested to not edit the \"network\" and the \"operator\" tags. (2023/11/08)",
          "operator": "Hyderabad Metro Rail Limited",
          "public_transport": "stop_position",
          "public_transport:version": "2",
          "railway": "stop",
          "subway": "yes",
          "wheelchair": "yes"
        }
      },
      {
        "type": "node",
        "id": 11738663633,
        "lat": 17.4286312,
        "lon": 78.4511322,
        "tags": {
          "internet_access": "no",
          "name": "Panjagutta",
          "name:ml": "\u0d2a\u0d1e\u0d4d\u0d1a\u0d17\u0d41\u0d1f\u0d4d\u0d1f",
          "name:te": "\u0c2a\u0c02\u0c1c\u0c3e\u0c17\u0c41\u0c1f\u0c4d\u0c1f",
          "name:ur": "\u067e\u0646\u062c\u06c1 \u06af\u0679\u06c1",
          "network": "Hyderabad Metro",
          "note": "Contributors are requested to not edit the \"network\" and the \"operator\" tags. (2023/11/08)",
          "operator": "Hyderabad Metro Rail Limited",
          "public_transport": "station",
          "railway": "station",
          "station": "subway",
          "subway": "yes",
          "website": "https://hmrl.co.in",
          "wheelchair": "yes"
        }
      },
      {
        "type": "node",
        "id": 12028767314,
        "lat": 17.4087339,
        "lon": 78.4388344,
        "tags": {
          "amenity": "fuel",
          "brand": "Indian Oil",
          "brand:wikidata": "Q1289348",
          "name": "Indian Oil"
        }
      }
    ]
  }
}