{
  "pois_1km": {
    "version": 0.6,
    "generator": "Overpass API 0.7.62.8 e802775f",
    "osm3s": {
      "timestamp_osm_base": "2025-09-06T08:36:59Z",
      "copyright": "The data included in this document is from www.openstreetmap.org. The data is made available under ODbL."
    },
    "elements": [
      {
        "type": "node",
        "id": 813570962,
        "lat": 17.4452017,
        "lon": 78.4641516,
        "tags": {
          "amenity": "atm",
          "operator": "RBS"
        }
      },
      {
        "type": "node",
        "id": 813570986,
        "lat": 17.4452093,
        "lon": 78.4645808,
        "tags": {
          "amenity": "atm",
          "operator": "ING"
        }
      },
      {
        "type": "node",
        "id": 813571022,
        "lat": 17.4447551,
        "lon": 78.4645902,
        "tags": {
          "amenity": "atm",
          "operator": "Bank of India"
        }
      },
      {
        "type": "node",
        "id": 813571052,
        "lat": 17.4447424,
        "lon": 78.464743,
        "tags": {
          "amenity": "bank",
          "atm": "yes",
          "brand": "HDFC",
          "brand:wikidata": "Q631047",
          "brand:wikipedia": "en:HDFC Bank",
          "name": "HDFC Bank",
          "short_name": "HDFC",
          "website": "https://www.hdfcbank.com"
        }
      },
      {
        "type": "node",
        "id": 817354436,
        "lat": 17.444522,
        "lon": 78.4631239,
        "tags": {
          "name": "Foodworld",
          "name:te": "\u0c2b\u0c41\u0c21\u0c4d \u0c35\u0c30\u0c32\u0c4d\u0c21\u0c4d",
          "shop": "supermarket"
        }
      },
      {
        "type": "node",
        "id": 817354437,
        "lat": 17.4451726,
        "lon": 78.4654438,
        "tags": {
          "amenity": "bank",
          "brand:wikidata": "Q2004088",
          "name": "Syndicate Bank",
          "name:en": "Syndicate Bank",
          "website": "https://www.syndicatebank.in",
          "wikidata": "Q2004088",
          "wikimedia_commons": "Category:Syndicate Bank",
          "wikipedia": "en:Syndicate Bank"
        }
      },
      {
        "type": "node",
        "id": 817354478,
        "lat": 17.4445563,
        "lon": 78.4670675,
        "tags": {
          "amenity": "atm",
          "operator": "CitiBank"
        }
      },
      {
        "type": "node",
        "id": 889650690,
        "lat": 17.4362425,
        "lon": 78.457117,
        "tags": {
          "amenity": "restaurant",
          "cuisine": "indian",
          "name": "Haveli"
        }
      },
      {
        "type": "node",
        "id": 2590035130,
        "lat": 17.4354982,
        "lon": 78.4577331,
        "tags": {
          "amenity": "restaurant",
          "cuisine": "regional",
          "name": "Ohri's Restaurant",
          "note": "Vegeterian Restaurant"
        }
      },
      {
        "type": "node",
        "id": 2712512903,
        "lat": 17.4421937,
        "lon": 78.4634506,
        "tags": {
          "leisure": "park",
          "name": "Alam Thota Park"
        }
      },
      {
        "type": "node",
        "id": 2712512999,
        "lat": 17.4433487,
        "lon": 78.4648412,
        "tags": {
          "leisure": "park",
          "name": "celebrity club park"
        }
      },
      {
        "type": "node",
        "id": 3010475742,
        "lat": 17.4440891,
        "lon": 78.4695349,
        "tags": {
          "amenity": "bank",
          "atm": "yes",
          "brand:wikidata": "Q2003476",
          "brand:wikipedia": "en:Andhra Bank",
          "name": "Andhra Bank",
          "name:en": "Andhra Bank",
          "website": "https://www.andhrabank.in"
        }
      },
      {
        "type": "node",
        "id": 3010475761,
        "lat": 17.444512,
        "lon": 78.4672736,
        "tags": {
          "amenity": "fast_food",
          "cuisine": "regional",
          "name": "Cafe Nandini"
        }
      },
      {
        "type": "node",
        "id": 3010475766,
        "lat": 17.4444022,
        "lon": 78.467713,
        "tags": {
          "amenity": "atm",
          "name": "Central Bank of India"
        }
      },
      {
        "type": "node",
        "id": 3010475767,
        "lat": 17.444399,
        "lon": 78.4677425,
        "tags": {
          "amenity": "bank",
          "atm": "yes",
          "brand": "SBI",
          "brand:wikidata": "Q1340361",
          "brand:wikipedia": "en:State Bank of India",
          "name": "State Bank of India",
          "short_name": "SBI"
        }
      },
      {
        "type": "node",
        "id": 3010475772,
        "lat": 17.4440522,
        "lon": 78.4691906,
        "tags": {
          "addr:street": "Airport Flyover",
          "amenity": "cafe",
          "name": "HeartCup Coffee"
        }
      },
      {
        "type": "node",
        "id": 4614311358,
        "lat": 17.4444782,
        "lon": 78.469498,
        "tags": {
          "addr:district": "Hyderabad",
          "addr:full": "SP Road, Near Begumpet Old Airport, Begumpet",
          "addr:postcode": "500016",
          "addr:state": "Telangana",
          "amenity": "hospital",
          "medical_system": "Allopathic",
          "name": "Pace Hospital",
          "operator:type": "private",
          "phone": "040 66171717; 040 27764646",
          "source": "OpenGovernmentData"
        }
      },
      {
        "type": "node",
        "id": 4615723290,
        "lat": 17.4363559,
        "lon": 78.4565678,
        "tags": {
          "name": "Lifestyle",
          "shop": "mall"
        }
      },
      {
        "type": "node",
        "id": 6212803089,
        "lat": 17.4379741,
        "lon": 78.4563758,
        "tags": {
          "addr:district": "Hyderabad",
          "addr:full": "7-1-21, RAILWAY STATION ROAD, UMA NAGAR, BEGUMPET",
          "addr:postcode": "500016",
          "addr:state": "Telangana",
          "amenity": "hospital",
          "contact:phone": "9000387345",
          "healthcare": "hospital",
          "name": "VINN Hospital",
          "operator:type": "private",
          "source": "OpenGovernmentData"
        }
      },
      {
        "type": "node",
        "id": 6212803090,
        "lat": 17.4443541,
        "lon": 78.4625019,
        "tags": {
          "amenity": "restaurant",
          "name": "Paradise Biryani"
        }
      },
      {
        "type": "node",
        "id": 6480130350,
        "lat": 17.4444929,
        "lon": 78.4662196,
        "tags": {
          "addr:district": "Hyderabad",
          "addr:full": "1-10-44/1, Near Prakash Nagar Metro Station, Begumpet Main Road",
          "addr:postcode": "500016",
          "addr:state": "Telangana",
          "amenity": "hospital",
          "fax": "040 30137299",
          "health_facility:type": "Separate Divisions for Each Speciality;State Of The Art Operation Theatres;Post Op Lounge with Beds;Advanced Eye Care Equipment;Complete Range of Optical Frames and Lenses;Exclusive Childrens Eye Care;24 7 Pharmacy;Ambulance Services",
          "healthcare:speciality": "Cataract Services;Refractive Surgery;Cornea Services;Glaucoma Services;Retina Services;Paediatric Ophthalmology and Squint Services;Oculoplasty Services;UVEITIS;Neuro Ophthalmology;Vision Rehabilitation Services;Computer Vision Syndrome;Contact Lenses",
          "medical_system": "Allopathic",
          "name": "Vasan Healthcare Private Limited",
          "operator:type": "Private",
          "phone": "040 30137200",
          "source": "OpenGovernmentData",
          "website": "https://vasaneye.com/"
        }
      },
      {
        "type": "node",
        "id": 6531332945,
        "lat": 17.4458529,
        "lon": 78.4663644,
        "tags": {
          "addr:district": "Hyderabad",
          "addr:full": "1-11-252/1A-1D, Alladin Mansion, Near Shoppers Stop, Street Number 3, Begumpet",
          "addr:postcode": "500016",
          "addr:state": "Telangana",
          "amenity": "hospital",
          "contact:email": "info@maxivisioneyehospital.com",
          "contact:tollfree": "1800 425 6294",
          "healthcare:speciality": "Cataract;Refractive;Laser;Cornea;Retina;Glaucoma;Pediatric",
          "medical_system": "Allopathic",
          "name": "Maxivision Eye Hospital",
          "operator:type": "private",
          "phone": "040 27763677",
          "source": "OpenGovernmentData",
          "website": "https://www.maxivisioneyehospital.com"
        }
      },
      {
        "type": "node",
        "id": 6811749114,
        "lat": 17.4452339,
        "lon": 78.4617537,
        "tags": {
          "addr:district": "Hyderabad",
          "addr:full": "1-11-240/2D, Shyamalal Building, Near Ganesh Temple,Begumpet",
          "addr:state": "Telangana",
          "amenity": "hospital",
          "name": "Sri Sai Rama Clinic",
          "source": "survey"
        }
      },
      {
        "type": "node",
        "id": 6850830333,
        "lat": 17.4455149,
        "lon": 78.4613656,
        "tags": {
          "name": "Vegetable And Fruit Market",
          "shop": "supermarket",
          "source": "survey"
        }
      },
      {
        "type": "node",
        "id": 6935611887,
        "lat": 17.4410591,
        "lon": 78.4626247,
        "tags": {
          "shop": "supermarket"
        }
      },
      {
        "type": "node",
        "id": 7088200303,
        "lat": 17.4476829,
        "lon": 78.4584753,
        "tags": {
          "leisure": "playground",
          "name": "Begumpet Community Hall"
        }
      },
      {
        "type": "node",
        "id": 7174145047,
        "lat": 17.4377437,
        "lon": 78.4621371,
        "tags": {
          "amenity": "atm",
          "cash_in": "yes",
          "currency:INR": "yes",
          "network": "State bank of India"
        }
      },
      {
        "type": "node",
        "id": 7174406403,
        "lat": 17.4386462,
        "lon": 78.4596617,
        "tags": {
          "amenity": "restaurant",
          "name": "Diners Restaurant",
          "opening_hours": "Mo-Su 09:00-23:00"
        }
      },
      {
        "type": "node",
        "id": 8386162493,
        "lat": 17.4364234,
        "lon": 78.4596158,
        "tags": {
          "air_conditioning": "yes",
          "amenity": "bank",
          "atm": "yes",
          "branch": "Uma Nagar",
          "brand": "Karnataka Bank",
          "brand:wikidata": "Q2042632",
          "brand:wikipedia": "en:Karnataka Bank",
          "name": "Karnataka Bank",
          "wheelchair": "no"
        }
      },
      {
        "type": "node",
        "id": 8760933526,
        "lat": 17.444713,
        "lon": 78.4691593,
        "tags": {
          "addr:district": "Medchal",
          "addr:full": "1-11-254, 2nd Floor, Rama Mansion Besides Pace Hospital, Motilal Nehru Nagar, Begumpet, Hyderabad",
          "addr:postcode": "500016",
          "addr:state": "Telangana",
          "amenity": "hospital",
          "name": "Pathcare Labs Pvt Ltd",
          "source": "Local Knowledge"
        }
      },
      {
        "type": "node",
        "id": 9611895277,
        "lat": 17.438001,
        "lon": 78.4563763,
        "tags": {
          "amenity": "hospital",
          "emergency": "yes",
          "healthcare": "hospital"
        }
      }
    ]
  },
  "pois_2_5km": {
    "version": 0.6,
    "generator": "Overpass API 0.7.62.8 e802775f",
    "osm3s": {
      "timestamp_osm_base": "2025-09-06T08:36:59Z",
      "copyright": "The data included in this document is from www.openstreetmap.org. The data is made available under ODbL."
    },
    "elements": [
      {
        "type": "node",
        "id": 289582012,
        "lat": 17.4245107,
        "lon": 78.4626514,
        "tags": {
          "name": "Necklace Road",
          "name:te": "\u0c28\u0c46\u0c15\u0c4d\u0c32\u0c46\u0c38\u0c4d \u0c30\u0c4b\u0c21\u0c4d\u0c21\u0c41",
          "public_transport": "stop_position",
          "railway": "stop",
          "ref": "1",
          "train": "yes"
        }
      },
      {
        "type": "node",
        "id": 289582401,
        "lat": 17.4233355,
        "lon": 78.4631857,
        "tags": {
          "internet_access": "no",
          "name": "Necklace Road",
          "name:te": "\u0c28\u0c46\u0c15\u0c4d\u0c32\u0c46\u0c38\u0c4d \u0c30\u0c4b\u0c21\u0c4d\u0c21\u0c41",
          "name:ur": "\u0646\u06a9\u0644\u06cc\u0633 \u0631\u0648\u0688",
          "network": "IR",
          "operator": "SCR",
          "platforms": "2",
          "public_transport": "station",
          "railway": "station",
          "ref": "NLRD",
          "train": "yes",
          "wikidata": "Q6985575",
          "wikipedia": "en:Necklace Road railway station"
        }
      },
      {
        "type": "node",
        "id": 343319245,
        "lat": 17.4456571,
        "lon": 78.4521487,
        "tags": {
          "internet_access": "no",
          "name": "Nature Cure Hospital",
          "name:te": "\u0c2a\u0c4d\u0c30\u0c15\u0c43\u0c24\u0c3f \u0c1a\u0c3f\u0c15\u0c3f\u0c24\u0c4d\u0c38\u0c3e\u0c32\u0c2f \u0c30\u0c48\u0c32\u0c4d\u0c35\u0c47 \u0c38\u0c4d\u0c1f\u0c47\u0c37\u0c28\u0c4d",
          "network": "IR",
          "operator": "SCR",
          "platforms": "2",
          "public_transport": "station",
          "railway": "station",
          "ref": "NCHS",
          "train": "yes",
          "wikidata": "Q6980906",
          "wikipedia": "en:Nature Cure Hospital railway station"
        }
      },
      {
        "type": "node",
        "id": 343641073,
        "lat": 17.4386951,
        "lon": 78.4580969,
        "tags": {
          "internet_access": "no",
          "name": "Begumpet",
          "name:te": "\u0c2c\u0c47\u0c17\u0c02\u0c2a\u0c47\u0c1f\u0c4d",
          "name:ur": "\u0628\u06cc\u06af\u0645 \u067e\u06cc\u0679",
          "network": "IR",
          "operator": "SCR",
          "platforms": "2",
          "public_transport": "station",
          "railway": "station",
          "ref": "BMT",
          "train": "yes",
          "wikidata": "Q4880629",
          "wikipedia": "en:Begumpet railway station"
        }
      },
      {
        "type": "node",
        "id": 813570842,
        "lat": 17.4263594,
        "lon": 78.451396,
        "tags": {
          "amenity": "fuel",
          "brand": "Indian Oil",
          "brand:wikidata": "Q1289348",
          "brand:wikipedia": "en:Indian Oil Corporation",
          "name": "Indian Oil"
        }
      },
      {
        "type": "node",
        "id": 817353703,
        "lat": 17.4449593,
        "lon": 78.4671058,
        "tags": {
          "amenity": "fuel",
          "brand": "Indian Oil",
          "brand:wikidata": "Q1289348",
          "brand:wikipedia": "en:Indian Oil Corporation",
          "name": "Indian Oil",
          "operator": "Indian Oil"
        }
      },
      {
        "type": "node",
        "id": 817354434,
        "lat": 17.4445955,
        "lon": 78.4616641,
        "tags": {
          "amenity": "fuel",
          "brand": "Indian Oil",
          "brand:wikidata": "Q1289348",
          "brand:wikipedia": "en:Indian Oil Corporation",
          "name": "Indian Oil"
        }
      },
      {
        "type": "node",
        "id": 1242158851,
        "lat": 17.4637221,
        "lon": 78.451276,
        "tags": {
          "amenity": "cinema",
          "designation": "Talkies",
          "name": "Vimal Theater"
        }
      },
      {
        "type": "node",
        "id": 1666010778,
        "lat": 17.4232572,
        "lon": 78.4589653,
        "tags": {
          "amenity": "fuel",
          "brand": "Shell",
          "brand:wikidata": "Q110716465",
          "fuel:diesel": "yes",
          "fuel:octane_91": "yes",
          "name": "Shell Petrol Bunk",
          "operator": "Shell"
        }
      },
      {
        "type": "node",
        "id": 1883484106,
        "lat": 17.4302638,
        "lon": 78.4484072,
        "tags": {
          "addr:city": "Hyderabad",
          "addr:state": "Telangana",
          "addr:street": "Ameerpet Road",
          "air_conditioning": "yes",
          "amenity": "cinema",
          "name": "Platinum Cinemas"
        }
      },
      {
        "type": "node",
        "id": 2422172970,
        "lat": 17.4375661,
        "lon": 78.4569341,
        "tags": {
          "name": "Begumpet",
          "name:ml": "\u0d2c\u0d47\u0d17\u0d02\u0d2a\u0d47\u0d1f\u0d4d\u0d1f\u0d4d",
          "name:te": "\u0c2c\u0c47\u0c17\u0c02\u0c2a\u0c47\u0c1f\u0c4d",
          "name:ur": "\u0628\u06cc\u06af\u0645 \u067e\u06cc\u0679",
          "network": "Hyderabad Metro",
          "note": "Contributors are requested to not edit the \"network\" and the \"operator\" tags. (2023/11/08)",
          "operator": "Hyderabad Metro Rail Limited",
          "public_transport": "station",
          "railway": "station",
          "station": "subway",
          "subway": "yes"
        }
      },
      {
        "type": "node",
        "id": 2422172987,
        "lat": 17.4375612,
        "lon": 78.4569588,
        "tags": {
          "name": "Begumpet",
          "name:te": "\u0c2c\u0c47\u0c17\u0c02\u0c2a\u0c47\u0c1f\u0c4d",
          "network": "Hyderabad Metro",
          "note": "Contributors are requested to not edit the \"network\" and the \"operator\" tags. (2023/11/08)",
          "operator": "Hyderabad Metro Rail Limited",
          "public_transport": "stop_position",
          "railway": "stop",
          "subway": "yes",
          "wikidata": "Q84301996",
          "wikipedia": "en:Begumpet metro station"
        }
      },
      {
        "type": "node",
        "id": 2422172989,
        "lat": 17.436951,
        "lon": 78.4391108,
        "tags": {
          "alt_name": "Taruni Madhura Nagar",
          "name": "Madhura Nagar",
          "name:te": "\u0c2e\u0c27\u0c41\u0c30 \u0c28\u0c17\u0c30\u0c4d",
          "network": "Hyderabad Metro",
          "note": "Contributors are requested to not edit the \"network\" and the \"operator\" tags. (2023/11/08)",
          "operator": "Hyderabad Metro Rail Limited",
          "public_transport": "stop_position",
          "railway": "stop",
          "subway": "yes"
        }
      },
      {
        "type": "node",
        "id": 2422172990,
        "lat": 17.4448686,
        "lon": 78.4658736,
        "tags": {
          "name": "Prakash Nagar",
          "name:te": "\u0c2a\u0c4d\u0c30\u0c15\u0c3e\u0c36\u0c4d\u200c\u0c28\u0c17\u0c30\u0c4d",
          "network": "Hyderabad Metro",
          "note": "Contributors are requested to not edit the \"network\" and the \"operator\" tags. (2023/11/08)",
          "operator": "Hyderabad Metro Rail Limited",
          "public_transport": "stop_position",
          "subway": "yes"
        }
      },
      {
        "type": "node",
        "id": 2422173010,
        "lat": 17.4435921,
        "lon": 78.4764056,
        "tags": {
          "name": "Rasoolpura",
          "name:te": "\u0c30\u0c38\u0c42\u0c32\u0c4d\u200c\u0c2a\u0c41\u0c30",
          "network": "Hyderabad Metro",
          "note": "Contributors are requested to not edit the \"network\" and the \"operator\" tags. (2023/11/08)",
          "operator": "Hyderabad Metro Rail Limited",
          "public_transport": "stop_position",
          "subway": "yes"
        }
      },
      {
        "type": "node",
        "id": 2422173110,
        "lat": 17.4353341,
        "lon": 78.4446031,
        "tags": {
          "name": "Ameerpet",
          "name:te": "\u0c05\u0c2e\u0c40\u0c30\u0c4d\u200c\u0c2a\u0c47\u0c1f\u0c4d",
          "network": "Hyderabad Metro",
          "note": "Contributors are requested to not edit the \"network\" and the \"operator\" tags. (2023/11/08)",
          "operator": "Hyderabad Metro Rail Limited",
          "public_transport": "stop_position",
          "public_transport:version": "2",
          "railway": "stop",
          "subway": "yes",
          "wikidata": "Q56701862",
          "wikipedia": "en:Ameerpet metro station"
        }
      },
      {
        "type": "node",
        "id": 2422988997,
        "lat": 17.4355002,
        "lon": 78.4447343,
        "tags": {
          "addr:city": "Hyderabad",
          "addr:city:ar": "\u062d\u064a\u062f\u0631 \u0622\u0628\u0627\u062f",
          "addr:city:ur": "\u062d\u06cc\u062f\u0631\u0622\u0628\u0627\u062f",
          "name": "Ameerpet",
          "name:te": "\u0c05\u0c2e\u0c40\u0c30\u0c4d\u200c\u0c2a\u0c47\u0c1f\u0c4d",
          "network": "Hyderabad Metro",
          "note": "Contributors are requested to not edit the \"network\" and the \"operator\" tags. (2023/11/08)",
          "operator": "Hyderabad Metro Rail Limited",
          "public_transport": "stop_position",
          "public_transport:version": "2",
          "railway": "stop",
          "subway": "yes",
          "wikidata": "Q56701862",
          "wikipedia": "en:Ameerpet metro station"
        }
      },
      {
        "type": "node",
        "id": 2422989193,
        "lat": 17.443146,
        "lon": 78.4408077,
        "tags": {
          "addr:city": "Hyderabad",
          "addr:city:ar": "\u062d\u064a\u062f\u0631 \u0622\u0628\u0627\u062f",
          "addr:city:ur": "\u062d\u06cc\u062f\u0631\u0622\u0628\u0627\u062f",
          "name": "S. R. Nagar",
          "name:te": "\u0c0e\u0c38\u0c4d.\u0c06\u0c30\u0c4d. \u0c28\u0c17\u0c30\u0c4d",
          "network": "Hyderabad Metro",
          "note": "Contributors are requested to not edit the \"network\" and the \"operator\" tags. (2023/11/08)",
          "operator": "Hyderabad Metro Rail Limited",
          "public_transport": "stop_position",
          "public_transport:version": "2",
          "railway": "stop",
          "subway": "yes"
        }
      },
      {
        "type": "node",
        "id": 2424019772,
        "lat": 17.4284456,
        "lon": 78.4513095,
        "tags": {
          "addr:city": "Hyderabad",
          "addr:city:ar": "\u062d\u064a\u062f\u0631 \u0622\u0628\u0627\u062f",
          "addr:city:ur": "\u062d\u06cc\u062f\u0631\u0622\u0628\u0627\u062f",
          "name": "Panjagutta",
          "name:ml": "\u0d2a\u0d1e\u0d4d\u0d1a\u0d17\u0d41\u0d1f\u0d4d\u0d1f",
          "name:te": "\u0c2a\u0c02\u0c1c\u0c3e\u0c17\u0c41\u0c1f\u0c4d\u0c1f",
          "network": "Hyderabad Metro",
          "note": "Contributors are requested to not edit the \"network\" and the \"operator\" tags. (2023/11/08)",
          "operator": "Hyderabad Metro Rail Limited",
          "public_transport": "stop_position",
          "public_transport:version": "2",
          "railway": "stop",
          "subway": "yes"
        }
      },
      {
        "type": "node",
        "id": 2425474186,
        "lat": 17.4470156,
        "lon": 78.438567,
        "tags": {
          "addr:city": "Hyderabad",
          "addr:city:ar": "\u062d\u064a\u062f\u0631 \u0622\u0628\u0627\u062f",
          "addr:city:ur": "\u062d\u06cc\u062f\u0631\u0622\u0628\u0627\u062f",
          "name": "ESI Hospital",
          "name:ml": "\u0d07.\u0d0e\u0d38\u0d4d.\u0d10 \u0d06\u0d36\u0d41\u0d2a\u0d24\u0d4d\u0d30\u0d3f",
          "name:te": "\u0c08.\u0c0e\u0c38\u0c4d.\u0c10 \u0c06\u0c38\u0c4d\u0c2a\u0c24\u0c4d\u0c30\u0c3f",
          "network": "Hyderabad Metro",
          "note": "Contributors are requested to not edit the \"network\" and the \"operator\" tags. (2023/11/08)",
          "operator": "Hyderabad Metro Rail Limited",
          "public_transport": "stop_position",
          "public_transport:version": "2",
          "railway": "stop",
          "subway": "yes"
        }
      },
      {
        "type": "node",
        "id": 2461447890,
        "lat": 17.4385942,
        "lon": 78.458062,
        "tags": {
          "name": "Begumpet",
          "name:kn": "\u0cac\u0cc7\u0c97\u0c82\u0caa\u0cc7\u0c9f\u0cc6",
          "name:ur": "\u0628\u06cc\u06af\u0645 \u067e\u06cc\u0679",
          "public_transport": "station",
          "railway": "station",
          "ref": "2",
          "train": "yes",
          "wikidata": "Q4880629",
          "wikipedia": "en:Begumpet railway station"
        }
      },
      {
        "type": "node",
        "id": 2461447891,
        "lat": 17.4386323,
        "lon": 78.4580666,
        "tags": {
          "name": "Begumpet",
          "name:kn": "\u0cac\u0cc7\u0c97\u0c82\u0caa\u0cc7\u0c9f\u0cc6",
          "public_transport": "stop_position",
          "railway": "stop",
          "ref": "1",
          "train": "yes"
        }
      },
      {
        "type": "node",
        "id": 2528192961,
        "lat": 17.4356742,
        "lon": 78.4763981,
        "tags": {
          "name": "Sanjeevaiah Park",
          "public_transport": "stop_position",
          "railway": "stop",
          "ref": "2",
          "train": "yes"
        }
      },
      {
        "type": "node",
        "id": 2528193014,
        "lat": 17.4562011,
        "lon": 78.4499241,
        "tags": {
          "internet_access": "no",
          "name": "Fateh Nagar",
          "name:ur": "\u0641\u062a\u062d \u0646\u06af\u0631",
          "network": "IR",
          "operator": "SCR",
          "platforms": "2",
          "public_transport": "station",
          "railway": "station",
          "ref": "FNB",
          "train": "yes",
          "wikidata": "Q5437396",
          "wikipedia": "en:Fateh Nagar railway station"
        }
      },
      {
        "type": "node",
        "id": 3272863814,
        "lat": 17.45498,
        "lon": 78.4478717,
        "tags": {
          "addr:city": "Hyderabad",
          "addr:postcode": "500018",
          "addr:street": "Sanath Nagar Main Road",
          "amenity": "bus_station",
          "bus": "yes",
          "internet_access": "no",
          "name": "Sanath Nagar Bus Depot",
          "operator": "Government",
          "public_transport": "station"
        }
      },
      {
        "type": "node",
        "id": 3784388218,
        "lat": 17.4245006,
        "lon": 78.4626111,
        "tags": {
          "name": "Necklace Road",
          "name:te": "\u0c28\u0c46\u0c15\u0c4d\u0c32\u0c46\u0c38\u0c4d \u0c30\u0c4b\u0c21\u0c4d\u0c21\u0c41",
          "public_transport": "stop_position",
          "railway": "stop",
          "ref": "2",
          "train": "yes"
        }
      },
      {
        "type": "node",
        "id": 4556707782,
        "lat": 17.4457469,
        "lon": 78.4522785,
        "tags": {
          "local_ref": "1",
          "name": "Nature Cure Hospital",
          "name:te": "\u0c2a\u0c4d\u0c30\u0c15\u0c43\u0c24\u0c3f \u0c1a\u0c3f\u0c15\u0c3f\u0c24\u0c4d\u0c38\u0c3e\u0c32\u0c2f \u0c30\u0c48\u0c32\u0c4d\u0c35\u0c47 \u0c38\u0c4d\u0c1f\u0c47\u0c37\u0c28\u0c4d",
          "public_transport": "stop_position",
          "railway": "stop",
          "ref": "2",
          "train": "yes"
        }
      },
      {
        "type": "node",
        "id": 4556707783,
        "lat": 17.445761,
        "lon": 78.4523207,
        "tags": {
          "local_ref": "2",
          "name": "Nature Cure Hospital",
          "name:te": "\u0c2a\u0c4d\u0c30\u0c15\u0c43\u0c24\u0c3f \u0c1a\u0c3f\u0c15\u0c3f\u0c24\u0c4d\u0c38\u0c3e\u0c32\u0c2f \u0c30\u0c48\u0c32\u0c4d\u0c35\u0c47 \u0c38\u0c4d\u0c1f\u0c47\u0c37\u0c28\u0c4d",
          "public_transport": "stop_position",
          "railway": "stop",
          "ref": "1",
          "train": "yes"
        }
      },
      {
        "type": "node",
        "id": 4915906017,
        "lat": 17.4306214,
        "lon": 78.4556721,
        "tags": {
          "amenity": "fuel",
          "compressed_air": "yes",
          "name": "Petrol Pump"
        }
      },
      {
        "type": "node",
        "id": 5787787982,
        "lat": 17.4353528,
        "lon": 78.4446353,
        "tags": {
          "name": "Ameerpet",
          "name:te": "\u0c05\u0c2e\u0c40\u0c30\u0c4d\u200c\u0c2a\u0c47\u0c1f\u0c4d",
          "network": "Hyderabad Metro",
          "note": "Contributors are requested to not edit the \"network\" and the \"operator\" tags. (2023/11/08)",
          "operator": "Hyderabad Metro Rail Limited",
          "public_transport": "stop_position",
          "public_transport:version": "2",
          "railway": "stop",
          "subway": "yes",
          "wikidata": "Q56701862",
          "wikipedia": "en:Ameerpet metro station"
        }
      },
      {
        "type": "node",
        "id": 5787787991,
        "lat": 17.4354849,
        "lon": 78.4447024,
        "tags": {
          "addr:city": "Hyderabad",
          "addr:city:ar": "\u062d\u064a\u062f\u0631 \u0622\u0628\u0627\u062f",
          "addr:city:ur": "\u062d\u06cc\u062f\u0631\u0622\u0628\u0627\u062f",
          "name": "Ameerpet",
          "name:te": "\u0c05\u0c2e\u0c40\u0c30\u0c4d\u200c\u0c2a\u0c47\u0c1f\u0c4d",
          "network": "Hyderabad Metro",
          "note": "Contributors are requested to not edit the \"network\" and the \"operator\" tags. (2023/11/08)",
          "operator": "Hyderabad Metro Rail Limited",
          "public_transport": "stop_position",
          "public_transport:version": "2",
          "railway": "stop",
          "subway": "yes",
          "wikidata": "Q56701862",
          "wikipedia": "en:Ameerpet metro station"
        }
      },
      {
        "type": "node",
        "id": 5787787993,
        "lat": 17.4431312,
        "lon": 78.4407689,
        "tags": {
          "addr:city": "Hyderabad",
          "addr:city:ar": "\u062d\u064a\u062f\u0631 \u0622\u0628\u0627\u062f",
          "addr:city:ur": "\u062d\u06cc\u062f\u0631\u0622\u0628\u0627\u062f",
          "name": "S. R. Nagar",
          "network": "Hyderabad Metro",
          "note": "Contributors are requested to not edit the \"network\" and the \"operator\" tags. (2023/11/08)",
          "operator": "Hyderabad Metro Rail Limited",
          "public_transport": "stop_position",
          "public_transport:version": "2",
          "railway": "stop",
          "subway": "yes"
        }
      },
      {
        "type": "node",
        "id": 5787788011,
        "lat": 17.4289005,
        "lon": 78.4508989,
        "tags": {
          "addr:city": "Hyderabad",
          "addr:city:ar": "\u062d\u064a\u062f\u0631 \u0622\u0628\u0627\u062f",
          "addr:city:ur": "\u062d\u06cc\u062f\u0631\u0622\u0628\u0627\u062f",
          "name": "Panjagutta",
          "name:ml": "\u0d2a\u0d1e\u0d4d\u0d1a\u0d17\u0d41\u0d1f\u0d4d\u0d1f",
          "name:te": "\u0c2a\u0c02\u0c1c\u0c3e\u0c17\u0c41\u0c1f\u0c4d\u0c1f",
          "network": "Hyderabad Metro",
          "note": "Contributors are requested to not edit the \"network\" and the \"operator\" tags. (2023/11/08)",
          "operator": "Hyderabad Metro Rail Limited",
          "public_transport": "stop_position",
          "public_transport:version": "2",
          "railway": "stop",
          "subway": "yes"
        }
      },
      {
        "type": "node",
        "id": 5787788969,
        "lat": 17.4375841,
        "lon": 78.456906,
        "tags": {
          "name": "Begumpet",
          "name:te": "\u0c2c\u0c47\u0c17\u0c02\u0c2a\u0c47\u0c1f\u0c4d",
          "network": "Hyderabad Metro",
          "note": "Contributors are requested to not edit the \"network\" and the \"operator\" tags. (2023/11/08)",
          "operator": "Hyderabad Metro Rail Limited",
          "public_transport": "stop_position",
          "railway": "stop",
          "subway": "yes",
          "wikidata": "Q84301996",
          "wikipedia": "en:Begumpet metro station"
        }
      },
      {
        "type": "node",
        "id": 5787788982,
        "lat": 17.4449044,
        "lon": 78.465879,
        "tags": {
          "name": "Prakash Nagar",
          "name:te": "\u0c2a\u0c4d\u0c30\u0c15\u0c3e\u0c36\u0c4d\u200c\u0c28\u0c17\u0c30\u0c4d",
          "network": "Hyderabad Metro",
          "note": "Contributors are requested to not edit the \"network\" and the \"operator\" tags. (2023/11/08)",
          "operator": "Hyderabad Metro Rail Limited",
          "public_transport": "stop_position",
          "subway": "yes"
        }
      },
      {
        "type": "node",
        "id": 6444553238,
        "lat": 17.4431396,
        "lon": 78.4407903,
        "tags": {
          "name": "S. R. Nagar",
          "name:ml": "\u0d0e\u0d38\u0d4d \u0d06\u0d7c \u0d28\u0d17\u0d7c",
          "name:te": "\u0c0e\u0c38\u0c4d.\u0c06\u0c30\u0c4d. \u0c28\u0c17\u0c30\u0c4d",
          "network": "Hyderabad Metro",
          "note": "Contributors are requested to not edit the \"network\" and the \"operator\" tags. (2023/11/08)",
          "operator": "Hyderabad Metro Rail Limited",
          "public_transport": "station",
          "public_transport:version": "2",
          "railway": "station",
          "station": "subway",
          "subway": "yes",
          "wikidata": "Q83175963"
        }
      },
      {
        "type": "node",
        "id": 6447191882,
        "lat": 17.4357214,
        "lon": 78.4447933,
        "tags": {
          "name": "Ameerpet (Red Line)",
          "name:ml": "\u0d05\u0d2e\u0d40\u0d7c\u0d2a\u0d47\u0d1f\u0d4d\u0d1f\u0d4d",
          "name:te": "\u0c05\u0c2e\u0c40\u0c30\u0c4d\u200c\u0c2a\u0c47\u0c1f\u0c4d",
          "network": "Hyderabad Metro",
          "note": "Contributors are requested to not edit the \"network\" and the \"operator\" tags. (2023/11/08)",
          "operator": "Hyderabad Metro Rail Limited",
          "public_transport": "station",
          "public_transport:version": "2",
          "railway": "station",
          "station": "subway",
          "subway": "yes",
          "wikidata": "Q56701862",
          "wikipedia": "en:Ameerpet metro station"
        }
      },
      {
        "type": "node",
        "id": 6700511122,
        "lat": 17.4352864,
        "lon": 78.4447834,
        "tags": {
          "name": "Ameerpet (Blue Line)",
          "name:ml": "\u0d05\u0d2e\u0d40\u0d7c\u0d2a\u0d47\u0d1f\u0d4d\u0d1f\u0d4d",
          "name:te": "\u0c05\u0c2e\u0c40\u0c30\u0c4d\u200c\u0c2a\u0c47\u0c1f\u0c4d",
          "network": "Hyderabad Metro",
          "note": "Contributors are requested to not edit the \"network\" and the \"operator\" tags. (2023/11/08)",
          "operator": "Hyderabad Metro Rail Limited",
          "public_transport": "station",
          "public_transport:version": "2",
          "railway": "station",
          "station": "subway",
          "subway": "yes",
          "wikidata": "Q56701862",
          "wikipedia": "en:Ameerpet metro station"
        }
      },
      {
        "type": "node",
        "id": 6771713701,
        "lat": 17.4267669,
        "lon": 78.4531002,
        "tags": {
          "addr:city": "Hyderabad",
          "addr:state": "Telangana",
          "addr:street": "Punjagutta",
          "air_conditioning": "yes",
          "amenity": "cinema",
          "brand": "PVR Cinemas",
          "brand:wikidata": "Q3359908",
          "description": "it is a place for wa\ntching movies",
          "name": "PVR Cinemas",
          "short_name": "PVR"
        }
      },
      {
        "type": "node",
        "id": 7052069760,
        "lat": 17.443612,
        "lon": 78.4764053,
        "tags": {
          "name": "Rasoolpura",
          "name:ml": "\u0d31\u0d38\u0d42\u0d7d\u0d2a\u0d41\u0d30",
          "name:te": "\u0c30\u0c38\u0c42\u0c32\u0c4d\u200c\u0c2a\u0c41\u0c30",
          "network": "Hyderabad Metro",
          "note": "Contributors are requested to not edit the \"network\" and the \"operator\" tags. (2023/11/08)",
          "operator": "Hyderabad Metro Rail Limited",
          "railway": "station",
          "station": "subway",
          "subway": "yes",
          "wikidata": "Q84358120"
        }
      },
      {
        "type": "node",
        "id": 7052069761,
        "lat": 17.443638,
        "lon": 78.4764095,
        "tags": {
          "name": "Rasoolpura",
          "name:te": "\u0c30\u0c38\u0c42\u0c32\u0c4d\u200c\u0c2a\u0c41\u0c30",
          "network": "Hyderabad Metro",
          "note": "Contributors are requested to not edit the \"network\" and the \"operator\" tags. (2023/11/08)",
          "operator": "Hyderabad Metro Rail Limited",
          "public_transport": "stop_position",
          "railway": "stop",
          "subway": "yes"
        }
      },
      {
        "type": "node",
        "id": 7052069766,
        "lat": 17.4448889,
        "lon": 78.4658749,
        "tags": {
          "name": "Prakash Nagar",
          "name:ml": "\u0d2a\u0d4d\u0d30\u0d15\u0d3e\u0d36\u0d4d \u0d28\u0d17\u0d7c",
          "name:te": "\u0c2a\u0c4d\u0c30\u0c15\u0c3e\u0c36\u0c4d\u200c\u0c28\u0c17\u0c30\u0c4d",
          "name:ur": "\u067e\u0631\u06a9\u0627\u0634 \u0646\u06af\u0631",
          "network": "Hyderabad Metro",
          "note": "Contributors are requested to not edit the \"network\" and the \"operator\" tags. (2023/11/08)",
          "operator": "Hyderabad Metro Rail Limited",
          "public_transport": "station",
          "railway": "station",
          "station": "subway",
          "subway": "yes",
          "wikidata": "Q84499965"
        }
      },
      {
        "type": "node",
        "id": 7052069769,
        "lat": 17.4369785,
        "lon": 78.4390865,
        "tags": {
          "alt_name": "Taruni Madhura Nagar",
          "name": "Madhura Nagar",
          "name:te": "\u0c2e\u0c27\u0c41\u0c30 \u0c28\u0c17\u0c30\u0c4d",
          "network": "Hyderabad Metro",
          "note": "Contributors are requested to not edit the \"network\" and the \"operator\" tags. (2023/11/08)",
          "operator": "Hyderabad Metro Rail Limited",
          "public_transport": "stop_position",
          "railway": "stop",
          "subway": "yes"
        }
      },
      {
        "type": "node",
        "id": 7052069770,
        "lat": 17.4369652,
        "lon": 78.4390993,
        "tags": {
          "alt_name": "Taruni Madhura Nagar",
          "name": "Madhura Nagar",
          "name:ml": "\u0d2e\u0d27\u0d41\u0d30 \u0d28\u0d17\u0d7c",
          "name:te": "\u0c2e\u0c27\u0c41\u0c30 \u0c28\u0c17\u0c30\u0c4d",
          "name:ur": "\u0645\u062f\u06be\u0648\u0631\u0627 \u0646\u06af\u0631",
          "network": "Hyderabad Metro",
          "note": "Contributors are requested to not edit the \"network\" and the \"operator\" tags. (2023/11/08)",
          "operator": "Hyderabad Metro Rail Limited",
          "public_transport": "station",
          "railway": "station",
          "station": "subway",
          "subway": "yes",
          "wikidata": "Q63250572"
        }
      },
      {
        "type": "node",
        "id": 7636066509,
        "lat": 17.4568537,
        "lon": 78.4500012,
        "tags": {
          "name": "Fateh Nagar",
          "public_transport": "stop_position",
          "railway": "stop",
          "ref": "1",
          "train": "yes"
        }
      },
      {
        "type": "node",
        "id": 7636066510,
        "lat": 17.456849,
        "lon": 78.4499607,
        "tags": {
          "name": "Fateh Nagar",
          "public_transport": "stop_position",
          "railway": "stop",
          "ref": "2",
          "train": "yes"
        }
      },
      {
        "type": "node",
        "id": 8113828150,
        "lat": 17.449229,
        "lon": 78.4496696,
        "tags": {
          "addr:city": "Hyderabad",
          "addr:postcode": "500018",
          "addr:street": "Balakampet",
          "amenity": "fuel",
          "brand": "Bharat Petroleum",
          "brand:wikidata": "Q854826",
          "brand:wikipedia": "en:Bharat Petroleum",
          "name": "Bharat Petroleum"
        }
      },
      {
        "type": "node",
        "id": 10789422582,
        "lat": 17.4346495,
        "lon": 78.448776,
        "tags": {
          "addr:city": "Hyderabad",
          "addr:state": "Telangana",
          "air_conditioning": "yes",
          "amenity": "cinema",
          "min_age": "18",
          "name": "Sheesh Mahal"
        }
      },
      {
        "type": "node",
        "id": 10789422583,
        "lat": 17.4371929,
        "lon": 78.448703,
        "tags": {
          "addr:city": "Hyderabad",
          "addr:state": "Telangana",
          "addr:street": "Ameerpet",
          "air_conditioning": "yes",
          "amenity": "cinema",
          "branch": "Ameerpet",
          "brand": "Asian",
          "name": "AAA Cinemas"
        }
      },
      {
        "type": "node",
        "id": 10789477897,
        "lat": 17.4286801,
        "lon": 78.4504275,
        "tags": {
          "addr:city": "Hyderabad",
          "addr:state": "Telangana",
          "addr:street": "Punjagutta",
          "air_conditioning": "yes",
          "amenity": "cinema",
          "branch": "Punjagutta",
          "brand": "PVR Cinemas",
          "brand:wikidata": "Q3359908",
          "name": "PVR Next Galleria",
          "short_name": "PVR",
          "wheelchair": "yes"
        }
      },
      {
        "type": "node",
        "id": 11027534565,
        "lat": 17.4304735,
        "lon": 78.4483917,
        "tags": {
          "amenity": "cinema"
        }
      },
      {
        "type": "node",
        "id": 11738179195,
        "lat": 17.4474042,
        "lon": 78.4383501,
        "tags": {
          "internet_access": "no",
          "name": "ESI Hospital",
          "name:ml": "\u0d07.\u0d0e\u0d38\u0d4d.\u0d10 \u0d06\u0d36\u0d41\u0d2a\u0d24\u0d4d\u0d30\u0d3f",
          "name:te": "\u0c08.\u0c0e\u0c38\u0c4d.\u0c10 \u0c06\u0c38\u0c4d\u0c2a\u0c24\u0c4d\u0c30\u0c3f",
          "network": "Hyderabad Metro",
          "note": "Contributors are requested to not edit the \"network\" and the \"operator\" tags. (2023/11/08)",
          "operator": "Hyderabad Metro Rail Limited",
          "public_transport": "station",
          "railway": "station",
          "station": "subway",
          "subway": "yes",
          "website": "https://hmrl.co.in",
          "wheelchair": "yes",
          "wikidata": "Q83008743"
        }
      },
      {
        "type": "node",
        "id": 11738179216,
        "lat": 17.4477279,
        "lon": 78.4381333,
        "tags": {
          "addr:city": "Hyderabad",
          "addr:city:ar": "\u062d\u064a\u062f\u0631 \u0622\u0628\u0627\u062f",
          "addr:city:ur": "\u062d\u06cc\u062f\u0631\u0622\u0628\u0627\u062f",
          "name": "ESI Hospital",
          "name:ml": "\u0d07.\u0d0e\u0d38\u0d4d.\u0d10 \u0d06\u0d36\u0d41\u0d2a\u0d24\u0d4d\u0d30\u0d3f",
          "name:te": "\u0c08.\u0c0e\u0c38\u0c4d.\u0c10 \u0c06\u0c38\u0c4d\u0c2a\u0c24\u0c4d\u0c30\u0c3f",
          "network": "Hyderabad Metro",
          "note": "Contributors are requested to not edit the \"network\" and the \"operator\" tags. (2023/11/08)",
          "operator": "Hyderabad Metro Rail Limited",
          "public_transport": "stop_position",
          "public_transport:version": "2",
          "railway": "stop",
          "subway": "yes"
        }
      },
      {
        "type": "node",
        "id": 11738663633,
        "lat": 17.4286312,
        "lon": 78.4511322,
        "tags": {
          "internet_access": "no",
          "name": "Panjagutta",
          "name:ml": "\u0d2a\u0d1e\u0d4d\u0d1a\u0d17\u0d41\u0d1f\u0d4d\u0d1f",
          "name:te": "\u0c2a\u0c02\u0c1c\u0c3e\u0c17\u0c41\u0c1f\u0c4d\u0c1f",
          "name:ur": "\u067e\u0646\u062c\u06c1 \u06af\u0679\u06c1",
          "network": "Hyderabad Metro",
          "note": "Contributors are requested to not edit the \"network\" and the \"operator\" tags. (2023/11/08)",
          "operator": "Hyderabad Metro Rail Limited",
          "public_transport": "station",
          "railway": "station",
          "station": "subway",
          "subway": "yes",
          "website": "https://hmrl.co.in",
          "wheelchair": "yes"
        }
      },
      {
        "type": "node",
        "id": 11770988863,
        "lat": 17.4617134,
        "lon": 78.4690961,
        "tags": {
          "amenity": "fuel",
          "brand": "Bharat Petroleum",
          "brand:wikidata": "Q854826",
          "check_date": "2024-03-29",
          "name": "Bharat Petroleum"
        }
      },
      {
        "type": "node",
        "id": 11770988864,
        "lat": 17.4626973,
        "lon": 78.462813,
        "tags": {
          "amenity": "fuel",
          "brand": "Bharat Petroleum",
          "brand:wikidata": "Q854826",
          "check_date": "2024-03-29",
          "name": "Bharat Petroleum"
        }
      },
      {
        "type": "node",
        "id": 12114475129,
        "lat": 17.435725,
        "lon": 78.4764076,
        "tags": {
          "name": "Sanjeevaiah Park",
          "public_transport": "stop_position",
          "railway": "stop",
          "ref": "1",
          "train": "yes"
        }
      },
      {
        "type": "node",
        "id": 12115521168,
        "lat": 17.4648917,
        "lon": 78.4603057,
        "tags": {
          "name": "Ferozguda",
          "name:ur": "\u0641\u06cc\u0631\u0648\u0632 \u06af\u0648\u0688\u0627",
          "operator": "South Central Railway",
          "public_transport": "station",
          "railway": "station"
        }
      },
      {
        "type": "node",
        "id": 12115521169,
        "lat": 17.4649039,
        "lon": 78.4602832,
        "tags": {
          "name": "Ferozguda",
          "public_transport": "stop_position",
          "railway": "stop",
          "train": "yes"
        }
      },
      {
        "type": "node",
        "id": 12115521170,
        "lat": 17.4648795,
        "lon": 78.4603282,
        "tags": {
          "name": "Ferozguda",
          "public_transport": "stop_position",
          "railway": "stop",
          "train": "yes"
        }
      },
      {
        "type": "node",
        "id": 12231561141,
        "lat": 17.4356998,
        "lon": 78.4764022,
        "tags": {
          "internet_access": "no",
          "name": "Sanjeevaiah Park",
          "name:te": "\u0c38\u0c02\u0c1c\u0c40\u0c35\u0c2f\u0c4d\u0c2f \u0c2a\u0c3e\u0c30\u0c4d\u0c15\u0c4d",
          "name:ur": "\u0633\u0646\u062c\u06cc\u0648\u06cc\u0627 \u067e\u0627\u0631\u06a9",
          "network": "Indian Railways",
          "operator": "South Central Railway",
          "platforms": "2",
          "public_transport": "station",
          "railway": "station",
          "ref": "SJVP",
          "train": "yes",
          "wikidata": "Q7418525",
          "wikipedia": "en:Sanjeevaiah Park railway station"
        }
      }
    ]
  }
}