{
  "pois_1km": {
    "version": 0.6,
    "generator": "Overpass API 0.7.62.8 e802775f",
    "osm3s": {
      "timestamp_osm_base": "2025-09-06T08:53:16Z",
      "copyright": "The data included in this document is from www.openstreetmap.org. The data is made available under ODbL."
    },
    "elements": [
      {
        "type": "node",
        "id": 487802460,
        "lat": 17.4005731,
        "lon": 78.4897936,
        "tags": {
          "amenity": "bank",
          "brand": "IDBI",
          "brand:wikidata": "Q3633485",
          "brand:wikipedia": "en:IDBI Bank",
          "name": "IDBI Bank",
          "name:en": "IDBI Bank",
          "old_name": "Industrial Development Bank of India",
          "short_name": "IDBI",
          "website": "https://www.idbi.com"
        }
      },
      {
        "type": "node",
        "id": 487804834,
        "lat": 17.4030548,
        "lon": 78.4764469,
        "tags": {
          "amenity": "restaurant",
          "name": "Shanbhag Restaurant",
          "name:te": "\u0c37\u0c3e\u0c28\u0c4d \u0c2c\u0c3e\u0c17\u0c4d \u0c30\u0c46\u0c38\u0c4d\u0c1f\u0c3e\u0c30\u0c02\u0c1f\u0c4d"
        }
      },
      {
        "type": "node",
        "id": 613410619,
        "lat": 17.4013136,
        "lon": 78.4853821,
        "tags": {
          "amenity": "cafe",
          "name": "Minerva Coffee House",
          "name:te": "\u0c2e\u0c3f\u0c28\u0c30\u0c4d\u0c35 \u0c15\u0c3e\u0c2b\u0c40 \u0c39\u0c4c\u0c38\u0c4d"
        }
      },
      {
        "type": "node",
        "id": 675642470,
        "lat": 17.4092213,
        "lon": 78.4890195,
        "tags": {
          "amenity": "pharmacy",
          "name": "Apollo Pharmacy"
        }
      },
      {
        "type": "node",
        "id": 726706999,
        "lat": 17.4006107,
        "lon": 78.4884142,
        "tags": {
          "amenity": "fast_food",
          "name": "King & Cardinal"
        }
      },
      {
        "type": "node",
        "id": 726709518,
        "lat": 17.4009655,
        "lon": 78.4853499,
        "tags": {
          "amenity": "restaurant",
          "name": "Blue Fox Restaurant",
          "name:te": "\u0c2c\u0c4d\u0c32\u0c41 \u0c2b\u0c3e\u0c15\u0c4d\u0c38\u0c4d \u0c30\u0c46\u0c38\u0c4d\u0c1f\u0c3e\u0c30\u0c02\u0c1f\u0c4d"
        }
      },
      {
        "type": "node",
        "id": 726711488,
        "lat": 17.4021361,
        "lon": 78.4842358,
        "tags": {
          "name": "More",
          "name:te": "\u0c2e\u0c4b\u0c30\u0c4d \u0c38\u0c42\u0c2a\u0c30\u0c4d \u0c2e\u0c3e\u0c30\u0c4d\u0c15\u0c46\u0c1f\u0c4d",
          "shop": "supermarket"
        }
      },
      {
        "type": "node",
        "id": 726712215,
        "lat": 17.4031461,
        "lon": 78.482496,
        "tags": {
          "name": "Food World",
          "shop": "supermarket"
        }
      },
      {
        "type": "node",
        "id": 726716833,
        "lat": 17.4025481,
        "lon": 78.4835044,
        "tags": {
          "name": "Nike Showroom",
          "operator": "Nike",
          "shop": "department_store"
        }
      },
      {
        "type": "node",
        "id": 726720120,
        "lat": 17.402194,
        "lon": 78.4833865,
        "tags": {
          "amenity": "pharmacy",
          "name": "Vasu Medical Store",
          "name:te": "\u0c35\u0c3e\u0c38\u0c41 \u0c2e\u0c46\u0c21\u0c3f\u0c15\u0c32\u0c4d \u0c38\u0c4d\u0c1f\u0c4b\u0c30\u0c4d"
        }
      },
      {
        "type": "node",
        "id": 727282352,
        "lat": 17.4026538,
        "lon": 78.4845254,
        "tags": {
          "amenity": "pharmacy",
          "name": "Medical Store"
        }
      },
      {
        "type": "node",
        "id": 727283253,
        "lat": 17.3985586,
        "lon": 78.4814113,
        "tags": {
          "amenity": "hospital",
          "name": "Old Apollo Hospital"
        }
      },
      {
        "type": "node",
        "id": 1447172192,
        "lat": 17.3991374,
        "lon": 78.4808419,
        "tags": {
          "amenity": "atm",
          "name": "Axis Bank ATM"
        }
      },
      {
        "type": "node",
        "id": 1447172214,
        "lat": 17.3984645,
        "lon": 78.4820951,
        "tags": {
          "amenity": "cafe",
          "name": "Cafe Coffee Day"
        }
      },
      {
        "type": "node",
        "id": 1447172232,
        "lat": 17.3977147,
        "lon": 78.4833926,
        "tags": {
          "amenity": "atm",
          "name": "SBI ATM (2 Nos)"
        }
      },
      {
        "type": "node",
        "id": 1447172235,
        "lat": 17.3968226,
        "lon": 78.4845047,
        "tags": {
          "amenity": "bank",
          "brand": "Canara Bank",
          "brand:pa": "\u0a15\u0a47\u0a28\u0a30\u0a3e \u0a2c\u0a48\u0a02\u0a15",
          "brand:ur": "\u06a9\u06cc\u0646\u0631\u0627 \u0628\u06cc\u0646\u06a9",
          "brand:wikidata": "Q2003777",
          "brand:wikipedia": "en:Canara Bank",
          "brand:wikipedia:pa": "\u0a15\u0a47\u0a28\u0a30\u0a3e \u0a2c\u0a48\u0a02\u0a15",
          "name": "Canara Bank",
          "name:pa": "\u0a15\u0a47\u0a28\u0a30\u0a3e \u0a2c\u0a48\u0a02\u0a15",
          "name:ur": "\u06a9\u06cc\u0646\u0631\u0627 \u0628\u06cc\u0646\u06a9",
          "website": "https://www.canarabank.com/"
        }
      },
      {
        "type": "node",
        "id": 1553576934,
        "lat": 17.3993955,
        "lon": 78.4792005,
        "tags": {
          "addr:district": "Hyderabad",
          "addr:full": "3-5-836/1 to 3-5-838, Old MLA Quarters Road, Hyderguda",
          "addr:postcode": "500029",
          "addr:state": "Telangana",
          "amenity": "hospital",
          "emergency": "yes",
          "fax": "23388399",
          "name": "Apollo Emergency Hospital",
          "name:te": "\u0c05\u0c2a\u0c4b\u0c32\u0c4b \u0c0e\u0c2e\u0c30\u0c4d\u0c1c\u0c46\u0c28\u0c4d\u0c38\u0c40 \u0c39\u0c3e\u0c38\u0c4d\u0c2a\u0c3f\u0c1f\u0c32\u0c4d",
          "source": "OpenGovernmentData"
        }
      },
      {
        "type": "node",
        "id": 1595853359,
        "lat": 17.4057534,
        "lon": 78.4789427,
        "tags": {
          "addr:street": "Liberty Road",
          "amenity": "fast_food",
          "name": "Universal Bakers",
          "name:te": "\u0c2f\u0c42\u0c28\u0c3f\u0c35\u0c30\u0c4d\u0c38\u0c32\u0c4d \u0c2c\u0c47\u0c15\u0c30\u0c4d\u0c38\u0c4d"
        }
      },
      {
        "type": "node",
        "id": 1693981449,
        "lat": 17.4085145,
        "lon": 78.4895355,
        "tags": {
          "amenity": "bank",
          "atm": "no",
          "brand:wikidata": "Q2003476",
          "brand:wikipedia": "en:Andhra Bank",
          "name": "Andhra Bank",
          "name:en": "Andhra Bank",
          "website": "https://www.andhrabank.in"
        }
      },
      {
        "type": "node",
        "id": 1932925761,
        "lat": 17.399719,
        "lon": 78.4785769,
        "tags": {
          "amenity": "restaurant",
          "cuisine": "indian",
          "designation": "Hyderabadi",
          "name": "Cafe Bahar",
          "wikidata": "Q5017090",
          "wikipedia": "en:Cafe Bahar"
        }
      },
      {
        "type": "node",
        "id": 2712508333,
        "lat": 17.4013517,
        "lon": 78.4950818,
        "tags": {
          "amenity": "bank",
          "name": "sigma corporation"
        }
      },
      {
        "type": "node",
        "id": 2712512661,
        "lat": 17.4047155,
        "lon": 78.4895389,
        "tags": {
          "amenity": "bank",
          "brand:wikidata": "Q2004088",
          "name": "Syndicate Bank",
          "name:en": "Syndicate Bank",
          "website": "https://www.syndicatebank.in",
          "wikidata": "Q2004088",
          "wikimedia_commons": "Category:Syndicate Bank",
          "wikipedia": "en:Syndicate Bank"
        }
      },
      {
        "type": "node",
        "id": 2712622751,
        "lat": 17.4088159,
        "lon": 78.4901106,
        "tags": {
          "amenity": "atm",
          "name": "ING ATM",
          "operator": "ING Vysya"
        }
      },
      {
        "type": "node",
        "id": 2712623077,
        "lat": 17.4089088,
        "lon": 78.4894972,
        "tags": {
          "amenity": "hospital",
          "name": "ramesh eye care"
        }
      },
      {
        "type": "node",
        "id": 2712626398,
        "lat": 17.4091385,
        "lon": 78.4891954,
        "tags": {
          "amenity": "atm",
          "name": "Punjab National Bank"
        }
      },
      {
        "type": "node",
        "id": 2712627410,
        "lat": 17.4090551,
        "lon": 78.4894985,
        "tags": {
          "amenity": "bank",
          "name": "icici securities"
        }
      },
      {
        "type": "node",
        "id": 2712648692,
        "lat": 17.4098439,
        "lon": 78.4885901,
        "tags": {
          "amenity": "atm",
          "name": "canara bank ATM"
        }
      },
      {
        "type": "node",
        "id": 2715282383,
        "lat": 17.4064817,
        "lon": 78.4848769,
        "tags": {
          "amenity": "pharmacy",
          "dispensing": "no",
          "name": "Hetero"
        }
      },
      {
        "type": "node",
        "id": 2715282529,
        "lat": 17.4064536,
        "lon": 78.4849788,
        "tags": {
          "amenity": "pharmacy"
        }
      },
      {
        "type": "node",
        "id": 2715299136,
        "lat": 17.4103182,
        "lon": 78.4855958,
        "tags": {
          "amenity": "cafe",
          "cuisine": "indian",
          "name": "Tiffin center",
          "name:te": "\u0c1f\u0c3f\u0c2b\u0c3f\u0c28\u0c4d \u0c38\u0c46\u0c02\u0c1f\u0c30\u0c4d",
          "wifi": "no"
        }
      },
      {
        "type": "node",
        "id": 2715307359,
        "lat": 17.4102721,
        "lon": 78.4857809,
        "tags": {
          "amenity": "fast_food",
          "cuisine": "chinese",
          "name": "Ritik Kitchen"
        }
      },
      {
        "type": "node",
        "id": 2715310633,
        "lat": 17.4073049,
        "lon": 78.4816422,
        "tags": {
          "amenity": "hospital",
          "healthcare": "hospital",
          "name": "K Prakash Rao (eye specialist)"
        }
      },
      {
        "type": "node",
        "id": 2715310996,
        "lat": 17.40696,
        "lon": 78.4821099,
        "tags": {
          "addr:district": "Hyderabad",
          "addr:full": "1-2-33/2, Domalguda",
          "addr:postcode": "500029",
          "addr:state": "Telangana",
          "amenity": "hospital",
          "name": "Radha Rani Nursing Home",
          "source": "OpenGovernmentData"
        }
      },
      {
        "type": "node",
        "id": 2729406949,
        "lat": 17.4091667,
        "lon": 78.4900649,
        "tags": {
          "amenity": "cafe",
          "name": "Cafe",
          "name:en": "Victoria cafe"
        }
      },
      {
        "type": "node",
        "id": 2779834584,
        "lat": 17.4103726,
        "lon": 78.485317,
        "tags": {
          "amenity": "pharmacy"
        }
      },
      {
        "type": "node",
        "id": 2779844594,
        "lat": 17.4103854,
        "lon": 78.4852768,
        "tags": {
          "amenity": "hospital",
          "name": "Dental Care",
          "name:te": "\u0c21\u0c46\u0c02\u0c1f\u0c32\u0c4d \u0c15\u0c47\u0c30\u0c4d"
        }
      },
      {
        "type": "node",
        "id": 2779870176,
        "lat": 17.4104596,
        "lon": 78.485199,
        "tags": {
          "amenity": "pharmacy",
          "name": "Amrutham Ayurveda Nilayam"
        }
      },
      {
        "type": "node",
        "id": 2779872511,
        "lat": 17.4070328,
        "lon": 78.482628,
        "tags": {
          "amenity": "atm",
          "operator": "Dena Bank ATM"
        }
      },
      {
        "type": "node",
        "id": 3244256004,
        "lat": 17.3937267,
        "lon": 78.4812179,
        "tags": {
          "addr:housenumber": "D.No:3-5-784/A/2",
          "addr:postcode": "500029",
          "addr:street": "Opp Parda Gate King Koti Road",
          "amenity": "bank",
          "atm": "yes",
          "brand": "SBI",
          "brand:wikidata": "Q1340361",
          "brand:wikipedia": "en:State Bank of India",
          "name": "State Bank of India",
          "operator": "State Bank of India",
          "phone": "040 2323 4848",
          "short_name": "SBI"
        }
      },
      {
        "type": "node",
        "id": 3395327470,
        "lat": 17.4070384,
        "lon": 78.4826422,
        "tags": {
          "amenity": "pharmacy",
          "name": "Pashupathi Medical store"
        }
      },
      {
        "type": "node",
        "id": 4415311591,
        "lat": 17.4049835,
        "lon": 78.4895863,
        "tags": {
          "amenity": "bank",
          "brand:wikidata": "Q1340361",
          "brand:wikipedia": "en:State Bank of India",
          "name": "State Bank of India",
          "name:en": "sbh bank,atm",
          "short_name": "SBI",
          "website": "https://www.sbi.co.in"
        }
      },
      {
        "type": "node",
        "id": 4416374790,
        "lat": 17.4012459,
        "lon": 78.4887819,
        "tags": {
          "name": "kirana ghar",
          "name:en": "kirana ghar",
          "shop": "supermarket"
        }
      },
      {
        "type": "node",
        "id": 4417125693,
        "lat": 17.4059666,
        "lon": 78.4894267,
        "tags": {
          "amenity": "bank",
          "brand:wikidata": "Q1340361",
          "brand:wikipedia": "en:State Bank of India",
          "name": "State Bank of India",
          "short_name": "SBI",
          "website": "https://www.sbi.co.in"
        }
      },
      {
        "type": "node",
        "id": 4417145293,
        "lat": 17.4045834,
        "lon": 78.4893402,
        "tags": {
          "amenity": "hospital",
          "name": "med plus",
          "name:en": "med plus"
        }
      },
      {
        "type": "node",
        "id": 4417155889,
        "lat": 17.4007653,
        "lon": 78.4895065,
        "tags": {
          "amenity": "cafe"
        }
      },
      {
        "type": "node",
        "id": 4417155890,
        "lat": 17.4012891,
        "lon": 78.4885841,
        "tags": {
          "amenity": "restaurant",
          "name": "Kabab restaurant",
          "name:en": "Kabab restaurant"
        }
      },
      {
        "type": "node",
        "id": 4418621799,
        "lat": 17.4009963,
        "lon": 78.4882133,
        "tags": {
          "amenity": "bank",
          "name": "Telangana Grameena Bank",
          "name:en": "Telangana Grameena Bank"
        }
      },
      {
        "type": "node",
        "id": 4418622813,
        "lat": 17.4009552,
        "lon": 78.4882964,
        "tags": {
          "amenity": "cafe"
        }
      },
      {
        "type": "node",
        "id": 4422081997,
        "lat": 17.4045441,
        "lon": 78.4895186,
        "tags": {
          "amenity": "bank",
          "name": "Indian bank, atm",
          "name:en": "Indian bank, atm"
        }
      },
      {
        "type": "node",
        "id": 4422081998,
        "lat": 17.4083807,
        "lon": 78.4897828,
        "tags": {
          "amenity": "bank",
          "name": "Corporation bank, atm",
          "name:en": "Corporation bank, atm"
        }
      },
      {
        "type": "node",
        "id": 4422090693,
        "lat": 17.4067264,
        "lon": 78.4896361,
        "tags": {
          "amenity": "clinic",
          "name": "Dishvitha dental clinic",
          "name:en": "Dishvitha dental clinic"
        }
      },
      {
        "type": "node",
        "id": 4425032194,
        "lat": 17.4058163,
        "lon": 78.4932532,
        "tags": {
          "amenity": "bank",
          "name": "Bank of Baroda bank, atm",
          "name:en": "Bank of Baroda bank, atm"
        }
      },
      {
        "type": "node",
        "id": 4428049396,
        "lat": 17.4009329,
        "lon": 78.4883621,
        "tags": {
          "amenity": "cafe"
        }
      },
      {
        "type": "node",
        "id": 4428976091,
        "lat": 17.4011413,
        "lon": 78.4887277,
        "tags": {
          "name": "Kirana ghar",
          "name:en": "Kirana ghar",
          "shop": "supermarket"
        }
      },
      {
        "type": "node",
        "id": 4431207291,
        "lat": 17.4012906,
        "lon": 78.4885491,
        "tags": {
          "amenity": "restaurant",
          "name": "Kabab",
          "name:en": "Kabab"
        }
      },
      {
        "type": "node",
        "id": 4431245490,
        "lat": 17.4010068,
        "lon": 78.4881937,
        "tags": {
          "amenity": "bank",
          "name": "Telangana Grameena Bank",
          "name:en": "Telangana Grameena Bank"
        }
      },
      {
        "type": "node",
        "id": 4431246389,
        "lat": 17.4019129,
        "lon": 78.4889337,
        "tags": {
          "amenity": "atm",
          "operator": "icici bank atm"
        }
      },
      {
        "type": "node",
        "id": 4431246390,
        "lat": 17.4007506,
        "lon": 78.4894433,
        "tags": {
          "amenity": "cafe"
        }
      },
      {
        "type": "node",
        "id": 4431246689,
        "lat": 17.4009592,
        "lon": 78.4884033,
        "tags": {
          "amenity": "cafe"
        }
      },
      {
        "type": "node",
        "id": 4431246690,
        "lat": 17.4044822,
        "lon": 78.4893121,
        "tags": {
          "amenity": "hospital",
          "name": "Med plus",
          "name:en": "Med plus"
        }
      },
      {
        "type": "node",
        "id": 4431912293,
        "lat": 17.4011249,
        "lon": 78.4887156,
        "tags": {
          "name": "Kirana ghar",
          "name:en": "Kirana ghar",
          "shop": "supermarket"
        }
      },
      {
        "type": "node",
        "id": 4432270596,
        "lat": 17.4044775,
        "lon": 78.4895371,
        "tags": {
          "amenity": "bank",
          "name": "Indian bank, atm",
          "name:en": "Indian bank, atm"
        }
      },
      {
        "type": "node",
        "id": 4432327792,
        "lat": 17.4067271,
        "lon": 78.4896048,
        "tags": {
          "amenity": "clinic",
          "name": "Dishvitha dental",
          "name:en": "Dishvitha dental"
        }
      },
      {
        "type": "node",
        "id": 4432327793,
        "lat": 17.40585,
        "lon": 78.4899879,
        "tags": {
          "amenity": "cafe"
        }
      },
      {
        "type": "node",
        "id": 4432327795,
        "lat": 17.4057852,
        "lon": 78.4932602,
        "tags": {
          "amenity": "bank",
          "name": "Bank of Baroda bank, atm",
          "name:en": "Bank of Baroda bank, atm"
        }
      },
      {
        "type": "node",
        "id": 4432328891,
        "lat": 17.4007951,
        "lon": 78.4894385,
        "tags": {
          "amenity": "cafe"
        }
      },
      {
        "type": "node",
        "id": 4432377389,
        "lat": 17.4009796,
        "lon": 78.4884261,
        "tags": {
          "amenity": "cafe"
        }
      },
      {
        "type": "node",
        "id": 4433014293,
        "lat": 17.4083614,
        "lon": 78.4897461,
        "tags": {
          "amenity": "bank",
          "name": "Corporation bank, atm",
          "name:en": "Corporation bank, atm"
        }
      },
      {
        "type": "node",
        "id": 4436525395,
        "lat": 17.4009037,
        "lon": 78.4875706,
        "tags": {
          "addr:district": "Hyderabad",
          "addr:full": "3-6-611, Street Number 8, Himayath Nagar",
          "addr:postcode": "500029",
          "addr:state": "Telangana",
          "amenity": "hospital",
          "fax": "040 30008222",
          "health_facility:type": "Separate Divisions for Each Speciality;State Of The Art Operation Theatres;Post Op Lounge with Beds;Advanced Eye Care Equipment;Complete Range of Optical Frames and Lenses;Exclusive Childrens Eye Care;24 7 Pharmacy;Ambulance Services",
          "healthcare:speciality": "Cataract Services;Refractive Surgery;Cornea Services;Glaucoma Services;Retina Services;Paediatric Ophthalmology and Squint Services;Oculoplasty Services;UVEITIS;Neuro Ophthalmology;Vision Rehabilitation Services;Computer Vision Syndrome Clinic",
          "medical_system": "Allopathic",
          "name": "Vasan Healthcare Private Limited, Himayath Nagar",
          "name:en": "Vasan eye care",
          "name:te": "\u0c35\u0c3e\u0c38\u0c28\u0c4d \u0c39\u0c46\u0c32\u0c4d\u0c24\u0c4d \u0c15\u0c47\u0c30\u0c4d \u0c2a\u0c4d\u0c30\u0c48\u0c35\u0c47\u0c1f\u0c4d \u0c32\u0c3f\u0c2e\u0c3f\u0c1f\u0c46\u0c21\u0c4d, \u0c39\u0c3f\u0c2e\u0c3e\u0c2f\u0c24\u0c4d \u0c28\u0c17\u0c30\u0c4d",
          "operator:type": "private",
          "phone": "040 30008299",
          "source": "OpenGovernmentData",
          "website": "https://vasaneye.com/"
        }
      },
      {
        "type": "node",
        "id": 4508429695,
        "lat": 17.4087261,
        "lon": 78.4904922,
        "tags": {
          "amenity": "cafe",
          "name": "Balaji darshan",
          "name:en": "Balaji darshan"
        }
      },
      {
        "type": "node",
        "id": 4508450990,
        "lat": 17.4088082,
        "lon": 78.4902875,
        "tags": {
          "amenity": "clinic",
          "name": "Med plus",
          "name:en": "Med plus"
        }
      },
      {
        "type": "node",
        "id": 4920193221,
        "lat": 17.396742,
        "lon": 78.4847267,
        "tags": {
          "amenity": "cafe",
          "name": "Heavenz",
          "name:en": "Heavenz"
        }
      },
      {
        "type": "node",
        "id": 5518037581,
        "lat": 17.3986952,
        "lon": 78.4935837,
        "tags": {
          "amenity": "restaurant",
          "name": "Mehfil hotel"
        }
      },
      {
        "type": "node",
        "id": 6289175986,
        "lat": 17.4025308,
        "lon": 78.4835829,
        "tags": {
          "amenity": "atm",
          "opening_hours": "24/7",
          "operator": "HDFC"
        }
      },
      {
        "type": "node",
        "id": 6289177285,
        "lat": 17.4025407,
        "lon": 78.4835531,
        "tags": {
          "amenity": "bank",
          "name": "HDFC Bank"
        }
      },
      {
        "type": "node",
        "id": 6308240124,
        "lat": 17.4079028,
        "lon": 78.4852418,
        "tags": {
          "name": "Balaji Super Market",
          "shop": "supermarket"
        }
      },
      {
        "type": "node",
        "id": 6308240125,
        "lat": 17.4068733,
        "lon": 78.4852244,
        "tags": {
          "name": "Balaji Kirana Store",
          "shop": "supermarket"
        }
      },
      {
        "type": "node",
        "id": 6308240126,
        "lat": 17.40789,
        "lon": 78.486198,
        "tags": {
          "name": "Shekar Super Market",
          "shop": "supermarket"
        }
      },
      {
        "type": "node",
        "id": 6308287072,
        "lat": 17.4103873,
        "lon": 78.4844653,
        "tags": {
          "amenity": "hospital",
          "name": "Sri Krishna",
          "name:te": "\u0c36\u0c4d\u0c30\u0c40 \u0c15\u0c43\u0c37\u0c4d\u0c23"
        }
      },
      {
        "type": "node",
        "id": 6484888144,
        "lat": 17.4073263,
        "lon": 78.492862,
        "tags": {
          "addr:district": "Hyderabad",
          "addr:full": "1-10-189, Near RTC Cross Road, SBH Colony, Ashok Nagar",
          "addr:postcode": "500020",
          "addr:state": "Telangana",
          "amenity": "hospital",
          "name": "Praja Sai Hospital",
          "source": "OpenGovernmentData"
        }
      },
      {
        "type": "node",
        "id": 6487452726,
        "lat": 17.4034853,
        "lon": 78.4924355,
        "tags": {
          "addr:district": "Hyderabad",
          "addr:full": "1-1-336/36A, Vivek Nagar, Lane Opp To Sri Tyagaraya Gana Sabha , Chikkadpally",
          "addr:postcode": "500020",
          "addr:state": "Telangana",
          "amenity": "hospital",
          "name": "Akira Eye Surgical Annexe",
          "source": "OpenGovernmentData"
        }
      },
      {
        "type": "node",
        "id": 6487663429,
        "lat": 17.4019445,
        "lon": 78.4776311,
        "tags": {
          "addr:district": "Hyderabad",
          "addr:full": "H.No.: 3-6-69/2&C, Avanthi Nagar Colony, Near Skyline Theater, Opp. Talwalkar's Fitness Centre, Basheerbagh",
          "addr:postcode": "500029",
          "addr:state": "Telangana",
          "amenity": "hospital",
          "name": "Sulochana Eye Centre",
          "name:te": "\u0c38\u0c41\u0c32\u0c4b\u0c1a\u0c28 \u0c10 \u0c38\u0c46\u0c02\u0c1f\u0c30\u0c4d",
          "source": "OpenGovernmentData"
        }
      },
      {
        "type": "node",
        "id": 6490004584,
        "lat": 17.4059203,
        "lon": 78.4793389,
        "tags": {
          "addr:district": "Hyderabad",
          "addr:full": "Plot No. 101, Skill Spectrum Complex, Near TTD Kalyana Mandapam, Liberty Circle, Himayat Nagar",
          "addr:postcode": "500029",
          "addr:state": "Telangana",
          "amenity": "hospital",
          "contact:mobile": "+91 - 8121991010",
          "email": "online@parthadental.com",
          "name": "Partha Dental Clinic",
          "name:te": "\u0c2a\u0c3e\u0c30\u0c4d\u0c25 \u0c21\u0c46\u0c02\u0c1f\u0c32\u0c4d \u0c15\u0c4d\u0c32\u0c3f\u0c28\u0c3f\u0c15\u0c4d",
          "phone": "040 - 23222200",
          "source": "OpenGovernmentData",
          "website": "https://www.parthadental.com/"
        }
      },
      {
        "type": "node",
        "id": 6490143313,
        "lat": 17.3979338,
        "lon": 78.492064,
        "tags": {
          "addr:district": "Hyderabad",
          "addr:full": "3-5-1082/A,Jaiswal Lane, Narayanaguda",
          "addr:postcode": "500029",
          "addr:state": "Telangana",
          "amenity": "hospital",
          "fax": "040 23226153",
          "name": "Sri Sai Srinivasa Speciality Hospitals Pvt. Ltd",
          "source": "OpenGovernmentData"
        }
      },
      {
        "type": "node",
        "id": 6493489981,
        "lat": 17.4047804,
        "lon": 78.4821191,
        "tags": {
          "addr:district": "Hyderabad",
          "addr:full": "3-6-426, Beside Ashish Residency, Tank Bund, Street Number 4, Devi Laxmi Bagh, Domalguda, Himayath Nagar",
          "addr:postcode": "500029",
          "addr:state": "Telangana",
          "amenity": "hospital",
          "healthcare": "hospital",
          "healthcare:speciality": "nephrology",
          "medical_system": "Allopathic",
          "name": "Sathya Kidney Centre and Super Speciality Hospital",
          "operator:type": "private",
          "phone": "040 27636444",
          "source": "OpenGovernmentData",
          "website": "https://www.sathyakidney.in/"
        }
      },
      {
        "type": "node",
        "id": 6494411875,
        "lat": 17.3962241,
        "lon": 78.4889916,
        "tags": {
          "addr:district": "Hyderabad",
          "addr:full": "3-5-170/G S, Near Shanti Theatre, Narayanaguda",
          "addr:postcode": "500029",
          "addr:state": "Telangana",
          "amenity": "hospital",
          "name": "Unity Centre For Orthopaedics And Trauma",
          "source": "OpenGovernmentData"
        }
      },
      {
        "type": "node",
        "id": 6495031117,
        "lat": 17.3995642,
        "lon": 78.4843923,
        "tags": {
          "addr:district": "Hyderabad",
          "addr:full": "3-6-217/1, Street Number 15, Near Vasavi Public School, Himayath Nagar",
          "addr:postcode": "500029",
          "addr:state": "Telangana",
          "amenity": "hospital",
          "emergency_telephone_code": "9849474173",
          "fax": "040 23228097",
          "healthcare:speciality": "Phacoemulsification Catract Surgery; LASIK Surgery; Age Related Macular Degenraration; Squint Correction; Glaucoma; Diabetic Retinopathy; Oculoplastic Clinic",
          "medical_system": "Allopathic",
          "name": "Hyderabad Eye Centre",
          "operator:type": "private",
          "phone": "040 23228181",
          "source": "OpenGovernmentData",
          "website": "https://www.hyderabadeyecentre.com/"
        }
      },
      {
        "type": "node",
        "id": 6495303036,
        "lat": 17.39863,
        "lon": 78.4849159,
        "tags": {
          "addr:district": "Hyderabad",
          "addr:full": "3-6-272, NVK Towers, Near Old MLA Quarters, Opposite Telugu Academy, Himayathnagar",
          "addr:postcode": "500029",
          "addr:state": "Telangana",
          "amenity": "hospital",
          "contact:mobile": "8008888511",
          "email": "info@clearvision.co.in",
          "health_facility:type": "Operation Theate;Medical and Diagnostic Services;Pharmacy;Ambulance",
          "healthcare:speciality": "Comprehensive Eye Check up;Cataract Clinic;Lasik and Laser Clinic;Blade Free Lasik Surgery;Cornea Clinic;Glaucoma Clinic;Retinal Clinic;Pediatric Ophthalmology;Squint Clinic;Oculoplasty Clinic;Opticals and Contact Lens",
          "medical_system": "Allopathic",
          "name": "Clear Vision Eye Hospital",
          "operator:type": "private",
          "phone": "040 23225386;040 23221522",
          "source": "OpenGovernmentData",
          "website": "https://www.clearvision.co.in/"
        }
      },
      {
        "type": "node",
        "id": 6496826427,
        "lat": 17.4055917,
        "lon": 78.4778255,
        "tags": {
          "addr:district": "Hyderabad",
          "addr:full": "Oilseeds Qtrs., Himayatnagar",
          "addr:state": "Telangana",
          "amenity": "clinic",
          "health_facility:type": "dispensary",
          "healthcare": "centre",
          "medical_system": "Allopathic",
          "name": "CGHS Dispensary No.V, Himayatnagar",
          "name:te": "\u0c38\u0c3f\u0c1c\u0c3f\u0c39\u0c46\u0c1a\u0c4d\u0c0e\u0c38\u0c4d \u0c21\u0c3f\u0c38\u0c4d\u0c2a\u0c46\u0c28\u0c4d\u0c38\u0c30\u0c40, \u0c28\u0c46\u0c02\u0c2c\u0c30\u0c4d \u0c10\u0c26\u0c41, \u0c39\u0c3f\u0c2e\u0c3e\u0c2f\u0c24\u0c4d\u0c28\u0c17\u0c30\u0c4d",
          "operator:type": "public;government",
          "phone": "040 23220454",
          "source": "OpenGovernmentData",
          "website": "http://nb.bsf.gov.in/CGHS%20DIspenseries.pdf"
        }
      },
      {
        "type": "node",
        "id": 6505184710,
        "lat": 17.3978302,
        "lon": 78.4842937,
        "tags": {
          "addr:district": "Hyderabad",
          "addr:full": "3-5-886, Opposite Blue Dart Courier Office, Near Old MLA Quarters, Himayat Nagar",
          "addr:postcode": "500029",
          "addr:state": "Telangana",
          "amenity": "hospital",
          "name": "Dr. P. Siva Reddy Eye Hospital",
          "source": "OpenGovernmentData"
        }
      },
      {
        "type": "node",
        "id": 6505528362,
        "lat": 17.3982154,
        "lon": 78.4843661,
        "tags": {
          "addr:district": "Hyderabad",
          "addr:full": "3-6-274, Near Telugu Academy, Opp. China Shop, MLA Quarters, Himayat Nagar",
          "addr:postcode": "500029",
          "addr:state": "Telangana",
          "amenity": "hospital",
          "fixme": "Please verify the accurate position of the hospital centre as I have mapped the facility based on the address provided in Open Government data",
          "name": "Desai Nursing Home",
          "source": "OpenGovernmentData"
        }
      },
      {
        "type": "node",
        "id": 6507797498,
        "lat": 17.4004729,
        "lon": 78.4914961,
        "tags": {
          "addr:district": "Hyderabad",
          "addr:full": "3-6-756, Street No. 13, Himayatnagar",
          "addr:postcode": "500029",
          "addr:state": "Telangana",
          "amenity": "hospital",
          "name": "Mahesh Hospital And Research Foundation",
          "source": "OpenGovernmentData"
        }
      },
      {
        "type": "node",
        "id": 6508501597,
        "lat": 17.3991381,
        "lon": 78.483151,
        "tags": {
          "addr:district": "Hyderabad",
          "addr:full": "3-6-287, Old MLA Quarters, Hyderguda",
          "addr:postcode": "500029",
          "addr:state": "Telangana",
          "amenity": "hospital",
          "name": "CDR Hospitals",
          "source": "OpenGovernmentData"
        }
      },
      {
        "type": "node",
        "id": 6513406843,
        "lat": 17.4002182,
        "lon": 78.4840006,
        "tags": {
          "addr:district": "Hyderabad",
          "addr:full": "No. 3-6-191/1/82, Urdu Hall Lane, Hyderguda, Himayath Nagar",
          "addr:postcode": "500029",
          "addr:state": "Telangana",
          "amenity": "hospital",
          "name": "Lakshmi Maternity and Nursing Home",
          "name:te": "\u0c32\u0c15\u0c4d\u0c37\u0c4d\u0c2e\u0c3f \u0c2e\u0c46\u0c1f\u0c30\u0c4d\u0c28\u0c3f\u0c1f\u0c40 \u0c05\u0c02\u0c21\u0c4d \u0c28\u0c30\u0c4d\u0c38\u0c3f\u0c02\u0c17\u0c4d \u0c39\u0c4b\u0c2e\u0c4d",
          "source": "OpenGovernmentData"
        }
      },
      {
        "type": "node",
        "id": 6543983153,
        "lat": 17.4060677,
        "lon": 78.4850715,
        "tags": {
          "addr:district": "Hyderabad",
          "addr:full": "1-2-153, Himayatha Nagar, Near Himayatha Nagar",
          "addr:postcode": "500029",
          "addr:state": "Telangana",
          "addr:street": "Himayatha Nagar",
          "addr:subdistrict": "Himayathnagar",
          "amenity": "clinic",
          "name": "Urban Primary Health Centre, Domalguda",
          "source": "OpenGovernmentData"
        }
      },
      {
        "type": "node",
        "id": 6549162110,
        "lat": 17.4055156,
        "lon": 78.4801617,
        "tags": {
          "addr:district": "Hyderabad",
          "addr:full": "3-6-369/A/25, 3RD FLOOR, SANDOZI BUILDING, STREET NO-1, HIMAYATH NAGAR",
          "addr:postcode": "500029",
          "addr:state": "Telangana",
          "amenity": "hospital",
          "contact:phone": "4027605559",
          "name": "MANKINDD HOSPITAL",
          "name:te": "\u0c2e\u0c3e\u0c28\u0c4d \u0c15\u0c48\u0c02\u0c21\u0c4d \u0c39\u0c3e\u0c38\u0c4d\u0c2a\u0c3f\u0c1f\u0c32\u0c4d",
          "operator:type": "private",
          "source": "OpenGovernmentData"
        }
      },
      {
        "type": "node",
        "id": 6549236738,
        "lat": 17.3985583,
        "lon": 78.4847268,
        "tags": {
          "addr:district": "Hyderabad",
          "addr:full": "3-6-273/274, III AND IV FLOOR, APURUPA L.N CHAMBERS, BESIDE RC REDDY IAS CIRCLE, NEAR OLD MLA QUARTERS, Opp TELANGANA TOURISM",
          "addr:postcode": "500029",
          "addr:state": "Telangana",
          "amenity": "hospital",
          "contact:phone": "23264353",
          "name": "RAMESH LASIK & LASER CENTRE",
          "operator:type": "private",
          "source": "OpenGovernmentData"
        }
      },
      {
        "type": "node",
        "id": 6562374170,
        "lat": 17.3944702,
        "lon": 78.4889225,
        "tags": {
          "addr:district": "Hyderabad",
          "addr:full": "Venkateshwara Colony, Opp. Central Blood Bank, Narayanaguda",
          "addr:postcode": "500029",
          "addr:state": "Telangana",
          "amenity": "hospital",
          "name": "Sri Venkateshwara Nursing Home - Narayanguda",
          "source": "OpenGovernmentData"
        }
      },
      {
        "type": "node",
        "id": 6690779948,
        "lat": 17.3950969,
        "lon": 78.4912393,
        "tags": {
          "amenity": "atm",
          "name": "APCOB-AP State Government Cooperative Bank"
        }
      },
      {
        "type": "node",
        "id": 6811749162,
        "lat": 17.395099,
        "lon": 78.480103,
        "tags": {
          "addr:district": "Hyderabad",
          "addr:full": "Raja Reddy Marg, King Koti, Basheer Bagh",
          "addr:postcode": "500001",
          "addr:state": "Telangana",
          "amenity": "doctors",
          "name": "Dr. Asha Khivsara's Clinic",
          "source": "OpenGovernmentData"
        }
      },
      {
        "type": "node",
        "id": 7010429408,
        "lat": 17.4056683,
        "lon": 78.4791361,
        "tags": {
          "amenity": "cafe",
          "cuisine": "chocolate;waffles;ice_cream",
          "level": "-1",
          "name": "the chocolate room",
          "name:te": "\u0c26\u0c3f \u0c1a\u0c3e\u0c15\u0c4d\u0c32\u0c46\u0c1f\u0c4d \u0c30\u0c42\u0c2e\u0c4d",
          "outdoor_seating": "no",
          "takeaway": "yes",
          "website": "http://theChocolateRoomIndia.com"
        }
      },
      {
        "type": "node",
        "id": 7244264222,
        "lat": 17.3992032,
        "lon": 78.4857694,
        "tags": {
          "amenity": "fast_food",
          "brand": "Domino's",
          "brand:ks": "\u0688\u0648\u0645\u06cc\u0646\u0648\u0632",
          "brand:pa": "\u0a21\u0a4b\u0a2e\u0a40\u0a28\u0a4b\u0a1c\u0a3c",
          "brand:ur": "\u0688\u0648\u0645\u06cc\u0646\u0648\u0632",
          "brand:wikidata": "Q839466",
          "brand:wikipedia": "en:Domino's Pizza",
          "cuisine": "pizza",
          "name": "Domino's",
          "name:ks": "\u0688\u0648\u0645\u06cc\u0646\u0648\u0632",
          "name:pa": "\u0a21\u0a4b\u0a2e\u0a40\u0a28\u0a4b\u0a1c\u0a3c",
          "name:ur": "\u0688\u0648\u0645\u06cc\u0646\u0648\u0632",
          "takeaway": "yes"
        }
      },
      {
        "type": "node",
        "id": 7244264230,
        "lat": 17.3995968,
        "lon": 78.4862354,
        "tags": {
          "name": "Ratnadeep supermarket",
          "name:te": "\u0c30\u0c24\u0c4d\u0c28\u0c26\u0c40\u0c2a\u0c4d \u0c38\u0c42\u0c2a\u0c30\u0c4d \u0c2e\u0c3e\u0c30\u0c4d\u0c15\u0c46\u0c1f\u0c4d",
          "shop": "supermarket"
        }
      },
      {
        "type": "node",
        "id": 7244264235,
        "lat": 17.3993051,
        "lon": 78.4867394,
        "tags": {
          "name": "vijetha supermarket",
          "name:te": "\u0c35\u0c3f\u0c1c\u0c47\u0c24 \u0c38\u0c42\u0c2a\u0c30\u0c4d \u0c2e\u0c3e\u0c30\u0c4d\u0c15\u0c46\u0c1f\u0c4d",
          "shop": "supermarket"
        }
      },
      {
        "type": "node",
        "id": 7244264241,
        "lat": 17.4002791,
        "lon": 78.4879081,
        "tags": {
          "amenity": "bank",
          "brand": "State Bank of India",
          "brand:wikidata": "Q1340361",
          "brand:wikipedia": "en:State Bank of India",
          "name": "State Bank of India"
        }
      },
      {
        "type": "node",
        "id": 7244264269,
        "lat": 17.4040662,
        "lon": 78.4882879,
        "tags": {
          "leisure": "playground",
          "name": "St.Anthony's High school play ground"
        }
      },
      {
        "type": "node",
        "id": 8082315379,
        "lat": 17.4044163,
        "lon": 78.4838359,
        "tags": {
          "addr:city": "Hyderabad",
          "addr:housenumber": "3-6-459/A",
          "addr:postcode": "500029",
          "addr:street": "Street No.5, Himayathnagar",
          "amenity": "hospital",
          "emergency": "yes",
          "healthcare": "hospital",
          "healthcare:speciality": "orthopaedics;ayurveda;multi_speciality",
          "image": "https://www.google.com/imgres?imgurl=https%3A%2F%2Fcontent3.jdmagicbox.com%2Fcomp%2Fhyderabad%2Fq3%2F040pxx40.xx40.170919150703.x7q3%2Fcatalogue%2Fraaj-hospital-himayat-nagar-hyderabad-hospitals-g96u8.jpg%3Fclr%3D224422&imgrefurl=https%3A%2F%2Fwww.justdia",
          "name": "Raaj Hospital",
          "operator": "Dr.Rajesh Kumar Soni",
          "operator:type": "private",
          "website": "http://raajhospital.com/"
        }
      },
      {
        "type": "node",
        "id": 8240054571,
        "lat": 17.4102345,
        "lon": 78.4844177,
        "tags": {
          "addr:city": "Hyderabad",
          "addr:housenumber": "Hno 1-2-288/34 Phoolbagh, Domalguda",
          "addr:postcode": "500029",
          "addr:street": "Street Number 6",
          "amenity": "restaurant",
          "cuisine": "breakfast",
          "diet:vegetarian": "yes",
          "name": "VV Tiffins",
          "name:te": "\u0c35\u0c40\u0c35\u0c40 \u0c1f\u0c3f\u0c2b\u0c3f\u0c28\u0c4d\u0c38\u0c4d",
          "opening_hours": "Mo-Su 08:00-23:00",
          "phone": "+91 90142 36043",
          "website": "https://vv-tiffins.business.site/"
        }
      },
      {
        "type": "node",
        "id": 8386117717,
        "lat": 17.4052122,
        "lon": 78.4935646,
        "tags": {
          "leisure": "park",
          "name": "People's park association"
        }
      },
      {
        "type": "node",
        "id": 8386123123,
        "lat": 17.4062387,
        "lon": 78.4935284,
        "tags": {
          "amenity": "bank",
          "brand": "Andhra Bank",
          "brand:wikidata": "Q2003476",
          "brand:wikipedia": "en:Andhra Bank",
          "name": "Andhra Bank labour commissioner office branch"
        }
      },
      {
        "type": "node",
        "id": 8759254022,
        "lat": 17.4041507,
        "lon": 78.479872,
        "tags": {
          "addr:district": "Hyderabad",
          "addr:full": "3-6-16 & 17, Street No.19, Chandra Nagar, Himayatnagar, Hyderabad",
          "addr:postcode": "500029",
          "addr:state": "Telangana",
          "amenity": "hospital",
          "name": "Vijaya Diagnostic Centre, Himayatnagar",
          "source": "Local Knowledge"
        }
      },
      {
        "type": "node",
        "id": 10181926246,
        "lat": 17.4039279,
        "lon": 78.4821265,
        "tags": {
          "addr:city": "Hyderabad",
          "addr:housenumber": "2A, Jamuna Plaza",
          "addr:postcode": "500029",
          "addr:street": "Himayath Nagar Main Road",
          "air_conditioning": "yes",
          "amenity": "fast_food",
          "cuisine": "pizza;mexican;italian",
          "delivery": "yes",
          "email": "lamilanohyderabad@gmail.com",
          "name": "La Milano Pizzeria",
          "opening_hours": "Mo-Su 10:00-00:00",
          "payment:american_express": "yes",
          "payment:cash": "yes",
          "payment:coins": "yes",
          "payment:contactless": "yes",
          "payment:credit_cards": "yes",
          "payment:debit_cards": "yes",
          "payment:mastercard": "yes",
          "payment:upi": "yes",
          "payment:visa": "yes",
          "phone": "+919985645001",
          "takeaway": "yes",
          "website": "https://www.lamilano.pizza"
        }
      },
      {
        "type": "node",
        "id": 11414945481,
        "lat": 17.409772,
        "lon": 78.4872348,
        "tags": {
          "addr:city": "Hyderabad",
          "addr:district": "Hyderabad",
          "addr:housenumber": "Indira park road",
          "addr:postcode": "500029",
          "addr:street": "Domalguda",
          "air_conditioning": "no",
          "amenity": "restaurant",
          "bar": "no",
          "capacity": "50",
          "cuisine": "regional",
          "delivery": "yes",
          "name": "SVR Grand Family Restaurant",
          "opening_hours": "Mo-Su 12:00-23:00",
          "outdoor_seating": "no",
          "payment:app": "yes",
          "payment:cards": "yes",
          "payment:cash": "yes",
          "payment:cheque": "no",
          "payment:credit_cards": "yes",
          "payment:debit_cards": "yes",
          "payment:google_pay": "yes",
          "phone": "+919550165172"
        }
      },
      {
        "type": "node",
        "id": 11936665895,
        "lat": 17.4087162,
        "lon": 78.4861473,
        "tags": {
          "addr:district": "Hyderabad",
          "addr:place": "Himayathanagar",
          "addr:state": "Telangana",
          "addr:street": "Himayatha Nagar",
          "addr:subdistrict": "Himayatnagar",
          "amenity": "clinic",
          "healthcare": "clinic",
          "name": "Urban Primary Health Centre, Gagan Mahal",
          "operational_status": "operational",
          "operator:type": "government",
          "source": "OpenDataTelangana"
        }
      }
    ]
  },
  "pois_2_5km": {
    "version": 0.6,
    "generator": "Overpass API 0.7.62.8 e802775f",
    "osm3s": {
      "timestamp_osm_base": "2025-09-06T08:53:16Z",
      "copyright": "The data included in this document is from www.openstreetmap.org. The data is made available under ODbL."
    },
    "elements": [
      {
        "type": "node",
        "id": 289656763,
        "lat": 17.3924223,
        "lon": 78.4675956,
        "tags": {
          "internet_access": "no",
          "name": "Hyderabad Deccan Nampally",
          "name:te": "\u0c39\u0c48\u0c26\u0c30\u0c3e\u0c2c\u0c3e\u0c26\u0c4d \u0c26\u0c15\u0c4d\u0c15\u0c28\u0c4d \u0c28\u0c3e\u0c02\u0c2a\u0c32\u0c4d\u0c32\u0c3f",
          "name:ur": "\u062d\u06cc\u062f\u0631\u0622\u0628\u0627\u062f \u062f\u06a9\u0646",
          "network": "IR",
          "operator": "SCR",
          "platforms": "6",
          "railway": "station",
          "ref": "HYB",
          "train": "yes",
          "wheelchair": "limited",
          "wikidata": "Q3633967",
          "wikipedia": "en:Hyderabad Deccan railway station"
        }
      },
      {
        "type": "node",
        "id": 307023348,
        "lat": 17.389311,
        "lon": 78.4992403,
        "tags": {
          "historic": "yes",
          "internet_access": "wlan",
          "name": "Kacheguda",
          "name:ml": "\u0d15\u0d3e\u0d1a\u0d4d\u0d1a\u0d3f\u0d17\u0d41\u0d21",
          "name:te": "\u0c15\u0c3e\u0c1a\u0c3f\u0c17\u0c42\u0c21",
          "name:ur": "\u06a9\u0627\u0686\u06cc \u06af\u0648\u0691\u06c1",
          "network": "IR",
          "operator": "SCR",
          "public_transport": "station",
          "railway": "station",
          "ref": "KCG",
          "train": "yes",
          "wikidata": "Q6344674",
          "wikipedia": "en:Kacheguda railway station"
        }
      },
      {
        "type": "node",
        "id": 308792901,
        "lat": 17.4080669,
        "lon": 78.4697587,
        "tags": {
          "amenity": "fuel",
          "name": "HP",
          "name:te": "\u0c39\u0c46\u0c1a\u0c4d \u0c2a\u0c3f",
          "operator": "Telangana Civil Supplies"
        }
      },
      {
        "type": "node",
        "id": 634135188,
        "lat": 17.4054697,
        "lon": 78.4965246,
        "tags": {
          "amenity": "cinema",
          "name": "Odeon complex"
        }
      },
      {
        "type": "node",
        "id": 636456848,
        "lat": 17.3992059,
        "lon": 78.4928268,
        "tags": {
          "amenity": "cinema",
          "name": "Venkatesa Cinema Theatre"
        }
      },
      {
        "type": "node",
        "id": 677300639,
        "lat": 17.3980757,
        "lon": 78.492579,
        "tags": {
          "amenity": "cinema",
          "name": "Deepak Theatre"
        }
      },
      {
        "type": "node",
        "id": 728853927,
        "lat": 17.3953109,
        "lon": 78.4690741,
        "tags": {
          "amenity": "theatre",
          "name": "Lalita Kala Thoranam",
          "name:te": "\u0c32\u0c32\u0c3f\u0c24 \u0c15\u0c33\u0c3e \u0c24\u0c4b\u0c30\u0c23\u0c02"
        }
      },
      {
        "type": "node",
        "id": 771240789,
        "lat": 17.4146824,
        "lon": 78.4981191,
        "tags": {
          "amenity": "cinema",
          "name": "Sri Sai Raja theatre"
        }
      },
      {
        "type": "node",
        "id": 1038351374,
        "lat": 17.3861153,
        "lon": 78.4763073,
        "tags": {
          "amenity": "cinema",
          "name": "Ramakrishna Theatre"
        }
      },
      {
        "type": "node",
        "id": 1779029058,
        "lat": 17.4040544,
        "lon": 78.4638899,
        "tags": {
          "amenity": "fuel"
        }
      },
      {
        "type": "node",
        "id": 2052621892,
        "lat": 17.4031013,
        "lon": 78.4624993,
        "tags": {
          "amenity": "fuel"
        }
      },
      {
        "type": "node",
        "id": 2174747681,
        "lat": 17.4047659,
        "lon": 78.4627335,
        "tags": {
          "name": "Lakdi-ka-pul",
          "public_transport": "stop_position",
          "railway": "stop",
          "ref": "1",
          "train": "yes"
        }
      },
      {
        "type": "node",
        "id": 2233018548,
        "lat": 17.3814163,
        "lon": 78.4828118,
        "tags": {
          "amenity": "fuel"
        }
      },
      {
        "type": "node",
        "id": 2390894256,
        "lat": 17.4070448,
        "lon": 78.4967721,
        "tags": {
          "name": "RTC Cross Roads",
          "name:te": "\u0c06\u0c30\u0c4d \u0c1f\u0c40 \u0c38\u0c3f \u0c15\u0c4d\u0c30\u0c3e\u0c38\u0c4d \u0c30\u0c4b\u0c21\u0c4d\u0c38\u0c4d",
          "network": "Hyderabad Metro",
          "note": "Contributors are requested to not edit the \"network\" and the \"operator\" tags. (2023/11/08)",
          "operator": "Hyderabad Metro Rail Limited",
          "public_transport": "stop_position",
          "subway": "yes"
        }
      },
      {
        "type": "node",
        "id": 2390894266,
        "lat": 17.4003684,
        "lon": 78.4948742,
        "tags": {
          "name": "Chikkadpally",
          "name:ml": "\u0d1a\u0d3f\u0d15\u0d4d\u0d15\u0d1f\u0d2a\u0d4d\u0d2a\u0d33\u0d4d\u0d33\u0d3f",
          "name:te": "\u0c1a\u0c3f\u0c15\u0c4d\u0c15\u0c21\u0c2a\u0c32\u0c4d\u0c32\u0c3f",
          "network": "Hyderabad Metro",
          "note": "Contributors are requested to not edit the \"network\" and the \"operator\" tags. (2023/11/08)",
          "operator": "Hyderabad Metro Rail Limited",
          "public_transport": "stop_position",
          "subway": "yes"
        }
      },
      {
        "type": "node",
        "id": 2422989049,
        "lat": 17.3821199,
        "lon": 78.4816145,
        "tags": {
          "addr:city": "Hyderabad",
          "addr:city:ar": "\u062d\u064a\u062f\u0631 \u0622\u0628\u0627\u062f",
          "addr:city:ur": "\u062d\u06cc\u062f\u0631\u0622\u0628\u0627\u062f",
          "alt_name": "OMC",
          "name": "Osmania Medical College",
          "name:ml": "\u0d09\u0d38\u0d4d\u0d2e\u0d3e\u0d28\u0d3f\u0d2f \u0d2e\u0d46\u0d21\u0d3f\u0d15\u0d4d\u0d15\u0d7d \u0d15\u0d4b\u0d33\u0d47\u0d1c\u0d4d",
          "name:te": "\u0c09\u0c38\u0c4d\u0c2e\u0c3e\u0c28\u0c3f\u0c2f\u0c3e \u0c35\u0c48\u0c26\u0c4d\u0c2f \u0c15\u0c33\u0c3e\u0c36\u0c3e\u0c32",
          "network": "Hyderabad Metro",
          "note": "Contributors are requested to not edit the \"network\" and the \"operator\" tags. (2023/11/08)",
          "operator": "Hyderabad Metro Rail Limited",
          "public_transport": "stop_position",
          "public_transport:version": "2",
          "railway": "stop",
          "subway": "yes"
        }
      },
      {
        "type": "node",
        "id": 2422989068,
        "lat": 17.3979907,
        "lon": 78.4708797,
        "tags": {
          "addr:city": "Hyderabad",
          "addr:city:ar": "\u062d\u064a\u062f\u0631 \u0622\u0628\u0627\u062f",
          "addr:city:ur": "\u062d\u06cc\u062f\u0631\u0622\u0628\u0627\u062f",
          "name": "Assembly",
          "name:ml": "\u0d05\u0d38\u0d02\u0d2c\u0d4d\u0d32\u0d3f",
          "name:te": "\u0c05\u0c38\u0c46\u0c02\u0c2c\u0c4d\u0c32\u0c40",
          "network": "Hyderabad Metro",
          "note": "Contributors are requested to not edit the \"network\" and the \"operator\" tags. (2023/11/08)",
          "operator": "Hyderabad Metro Rail Limited",
          "public_transport": "stop_position",
          "public_transport:version": "2",
          "railway": "stop",
          "subway": "yes"
        }
      },
      {
        "type": "node",
        "id": 2422989110,
        "lat": 17.3858253,
        "lon": 78.4733347,
        "tags": {
          "addr:city": "Hyderabad",
          "addr:city:ar": "\u062d\u064a\u062f\u0631 \u0622\u0628\u0627\u062f",
          "addr:city:ur": "\u062d\u06cc\u062f\u0631\u0622\u0628\u0627\u062f",
          "name": "Gandhi Bhavan",
          "name:ml": "\u0d17\u0d3e\u0d28\u0d4d\u0d27\u0d3f \u0d2d\u0d35\u0d7b",
          "name:te": "\u0c17\u0c3e\u0c02\u0c27\u0c40 \u0c2d\u0c35\u0c28\u0c4d",
          "network": "Hyderabad Metro",
          "note": "Contributors are requested to not edit the \"network\" and the \"operator\" tags. (2023/11/08)",
          "operator": "Hyderabad Metro Rail Limited",
          "public_transport": "stop_position",
          "public_transport:version": "2",
          "railway": "stop",
          "subway": "yes"
        }
      },
      {
        "type": "node",
        "id": 2422989207,
        "lat": 17.392222,
        "lon": 78.4701612,
        "tags": {
          "addr:city": "Hyderabad",
          "addr:city:ar": "\u062d\u064a\u062f\u0631 \u0622\u0628\u0627\u062f",
          "addr:city:ur": "\u062d\u06cc\u062f\u0631\u0622\u0628\u0627\u062f",
          "name": "Nampally",
          "name:ml": "\u0d28\u0d3e\u0d2e\u0d4d\u0d2a\u0d33\u0d4d\u0d33\u0d3f",
          "name:te": "\u0c28\u0c3e\u0c02\u0c2a\u0c32\u0c4d\u0c32\u0c3f",
          "network": "Hyderabad Metro",
          "note": "Contributors are requested to not edit the \"network\" and the \"operator\" tags. (2023/11/08)",
          "operator": "Hyderabad Metro Rail Limited",
          "public_transport": "stop_position",
          "public_transport:version": "2",
          "railway": "stop",
          "subway": "yes"
        }
      },
      {
        "type": "node",
        "id": 2422989260,
        "lat": 17.3798092,
        "lon": 78.486212,
        "tags": {
          "addr:city": "Hyderabad",
          "addr:city:ar": "\u062d\u064a\u062f\u0631 \u0622\u0628\u0627\u062f",
          "addr:city:ur": "\u062d\u06cc\u062f\u0631\u0622\u0628\u0627\u062f",
          "alt_name": "M. G. Bus Station (Red Line)",
          "name": "Mahatma Gandhi Bus Station (Red Line)",
          "name:te": "\u0c0e\u0c02.\u0c1c\u0c3f. \u0c2c\u0c38\u0c4d. \u0c38\u0c4d\u0c1f\u0c47\u0c37\u0c28\u0c4d",
          "name:ur": "\u0645\u06c1\u0627\u062a\u0645\u0627 \u06af\u0627\u0646\u062f\u06be\u06cc \u0628\u0633 \u0627\u0633\u0679\u06cc\u0634\u0646 (\u0631\u06cc\u0688 \u0644\u0627\u0626\u0646)",
          "network": "Hyderabad Metro",
          "note": "Contributors are requested to not edit the \"network\" and the \"operator\" tags. (2023/11/08)",
          "operator": "Hyderabad Metro Rail Limited",
          "public_transport": "stop_position",
          "public_transport:version": "2",
          "railway": "stop",
          "subway": "yes"
        }
      },
      {
        "type": "node",
        "id": 2445898820,
        "lat": 17.3905862,
        "lon": 78.4702853,
        "tags": {
          "amenity": "fuel",
          "name": "Public Gardens Petrol Pump",
          "name:en": "Bharat Petroleum"
        }
      },
      {
        "type": "node",
        "id": 2447310770,
        "lat": 17.3889362,
        "lon": 78.4962342,
        "tags": {
          "amenity": "cinema",
          "name": "Kumar 70 mm"
        }
      },
      {
        "type": "node",
        "id": 2578026375,
        "lat": 17.4066792,
        "lon": 78.4986216,
        "tags": {
          "amenity": "bus_station",
          "bus": "yes",
          "name": "TSRTC BUS BHAVAN",
          "public_transport": "station"
        }
      },
      {
        "type": "node",
        "id": 2712437769,
        "lat": 17.4038328,
        "lon": 78.4635019,
        "tags": {
          "internet_access": "no",
          "name": "Lakdi-ka-pul",
          "name:te": "\u0c32\u0c15\u0c4d\u0c21\u0c3f\u0c15\u0c2a\u0c42\u0c32\u0c4d",
          "name:ur": "\u0644\u06a9\u0691\u06cc \u06a9\u0627 \u067e\u0644",
          "network": "IR",
          "operator": "SCR",
          "platforms": "2",
          "public_transport": "station",
          "railway": "station",
          "ref": "LKPL",
          "train": "yes",
          "wikidata": "Q6474590",
          "wikipedia": "en:Lakdi-ka-pul railway station"
        }
      },
      {
        "type": "node",
        "id": 2779381745,
        "lat": 17.4125624,
        "lon": 78.4796126,
        "tags": {
          "amenity": "fuel",
          "name": "Hindustan Pertoleum"
        }
      },
      {
        "type": "node",
        "id": 3157201754,
        "lat": 17.3844647,
        "lon": 78.484,
        "tags": {
          "name": "Sultan Bazar",
          "name:te": "\u0c38\u0c41\u0c32\u0c4d\u0c24\u0c3e\u0c28\u0c4d \u0c2c\u0c1c\u0c3e\u0c30\u0c4d",
          "network": "Hyderabad Metro",
          "note": "Contributors are requested to not edit the \"network\" and the \"operator\" tags. (2023/11/08)",
          "operator": "Hyderabad Metro Rail Limited",
          "public_transport": "stop_position",
          "subway": "yes"
        }
      },
      {
        "type": "node",
        "id": 3249112572,
        "lat": 17.4069137,
        "lon": 78.4635188,
        "tags": {
          "amenity": "cinema",
          "name": "Sensation Insomnia"
        }
      },
      {
        "type": "node",
        "id": 3249112573,
        "lat": 17.40713,
        "lon": 78.4635409,
        "tags": {
          "amenity": "cinema",
          "name": "Sensation Sunshine"
        }
      },
      {
        "type": "node",
        "id": 3249112574,
        "lat": 17.4074371,
        "lon": 78.4630567,
        "tags": {
          "amenity": "cinema",
          "name": "Shaam Theatre"
        }
      },
      {
        "type": "node",
        "id": 3612573966,
        "lat": 17.4110069,
        "lon": 78.4733865,
        "tags": {
          "amenity": "ferry_terminal",
          "ferry": "yes",
          "name": "Boats to Budha Statue",
          "name:te": "\u0c2c\u0c41\u0c26\u0c4d\u0c27 \u0c35\u0c3f\u0c17\u0c4d\u0c30\u0c39\u0c02 \u0c15\u0c4a\u0c30\u0c15\u0c41 \u0c2c\u0c4b\u0c1f\u0c4d\u0c38\u0c4d",
          "public_transport": "station"
        }
      },
      {
        "type": "node",
        "id": 3784388166,
        "lat": 17.4047517,
        "lon": 78.4626985,
        "tags": {
          "name": "Lakdi-ka-pul",
          "public_transport": "stop_position",
          "railway": "stop",
          "ref": "2",
          "train": "yes"
        }
      },
      {
        "type": "node",
        "id": 3842496350,
        "lat": 17.3906881,
        "lon": 78.4883506,
        "tags": {
          "amenity": "cinema",
          "name": "Maheshwari Parmeshwari INOX Cinemas"
        }
      },
      {
        "type": "node",
        "id": 4187284391,
        "lat": 17.3987617,
        "lon": 78.4709627,
        "tags": {
          "amenity": "fuel",
          "brand": "Indian Oil",
          "brand:wikidata": "Q1289348",
          "brand:wikipedia": "en:Indian Oil Corporation",
          "name": "Indian Oil"
        }
      },
      {
        "type": "node",
        "id": 4187308293,
        "lat": 17.3909412,
        "lon": 78.467487,
        "tags": {
          "amenity": "fuel",
          "name": "HP"
        }
      },
      {
        "type": "node",
        "id": 4415288812,
        "lat": 17.3994754,
        "lon": 78.4920506,
        "tags": {
          "amenity": "fuel",
          "name": "petrol bunk",
          "name:en": "petrol bunk"
        }
      },
      {
        "type": "node",
        "id": 4415337591,
        "lat": 17.4005718,
        "lon": 78.4882961,
        "tags": {
          "amenity": "fuel"
        }
      },
      {
        "type": "node",
        "id": 4436525192,
        "lat": 17.3994358,
        "lon": 78.492022,
        "tags": {
          "amenity": "fuel"
        }
      },
      {
        "type": "node",
        "id": 4436525398,
        "lat": 17.4092721,
        "lon": 78.4979738,
        "tags": {
          "amenity": "fuel",
          "brand": "Bharat Petroleum",
          "brand:wikidata": "Q854826",
          "name": "Bharat Petroleum"
        }
      },
      {
        "type": "node",
        "id": 5536020505,
        "lat": 17.410965,
        "lon": 78.4729424,
        "tags": {
          "amenity": "ferry_terminal",
          "ferry": "yes",
          "name": "Boats to Budha Statue",
          "public_transport": "station"
        }
      },
      {
        "type": "node",
        "id": 5787787745,
        "lat": 17.4070193,
        "lon": 78.4968324,
        "tags": {
          "name": "RTC Cross Roads",
          "name:te": "\u0c06\u0c30\u0c4d \u0c1f\u0c40 \u0c38\u0c3f \u0c15\u0c4d\u0c30\u0c3e\u0c38\u0c4d \u0c30\u0c4b\u0c21\u0c4d\u0c38\u0c4d",
          "network": "Hyderabad Metro",
          "note": "Contributors are requested to not edit the \"network\" and the \"operator\" tags. (2023/11/08)",
          "operator": "Hyderabad Metro Rail Limited",
          "public_transport": "stop_position",
          "subway": "yes"
        }
      },
      {
        "type": "node",
        "id": 5787787751,
        "lat": 17.4003567,
        "lon": 78.4949221,
        "tags": {
          "name": "Chikkadpally",
          "name:ml": "\u0d1a\u0d3f\u0d15\u0d4d\u0d15\u0d1f\u0d2a\u0d4d\u0d2a\u0d33\u0d4d\u0d33\u0d3f",
          "name:te": "\u0c1a\u0c3f\u0c15\u0c4d\u0c15\u0c21\u0c2a\u0c32\u0c4d\u0c32\u0c3f",
          "network": "Hyderabad Metro",
          "note": "Contributors are requested to not edit the \"network\" and the \"operator\" tags. (2023/11/08)",
          "operator": "Hyderabad Metro Rail Limited",
          "public_transport": "stop_position",
          "subway": "yes"
        }
      },
      {
        "type": "node",
        "id": 5919924190,
        "lat": 17.4106646,
        "lon": 78.4821106,
        "tags": {
          "amenity": "theatre",
          "name": "Vivekananda Auditorium",
          "name:etymology:wikidata": "Q47478"
        }
      },
      {
        "type": "node",
        "id": 5968369025,
        "lat": 17.4036398,
        "lon": 78.4653197,
        "tags": {
          "addr:city": "Hyderabad",
          "addr:city:ar": "\u062d\u064a\u062f\u0631 \u0622\u0628\u0627\u062f",
          "addr:city:ur": "\u062d\u06cc\u062f\u0631\u0622\u0628\u0627\u062f",
          "name": "Lakdi-ka-pul",
          "name:ml": "\u0d32\u0d15\u0d4d\u0d21\u0d3f-\u0d15\u0d3e-\u0d2a\u0d41\u0d7d",
          "name:te": "\u0c32\u0c15\u0c4d\u0c21\u0c3f-\u0c15\u0c3e-\u0c2a\u0c41\u0c32\u0c4d",
          "network": "Hyderabad Metro",
          "note": "Contributors are requested to not edit the \"network\" and the \"operator\" tags. (2023/11/08)",
          "operator": "Hyderabad Metro Rail Limited",
          "public_transport": "stop_position",
          "public_transport:version": "2",
          "railway": "stop",
          "subway": "yes",
          "wheelchair": "yes"
        }
      },
      {
        "type": "node",
        "id": 6254336890,
        "lat": 17.3887027,
        "lon": 78.4753829,
        "tags": {
          "amenity": "fuel"
        }
      },
      {
        "type": "node",
        "id": 6255550788,
        "lat": 17.3887874,
        "lon": 78.4743368,
        "tags": {
          "amenity": "fuel",
          "name": "Hp petrol bunk"
        }
      },
      {
        "type": "node",
        "id": 6308287071,
        "lat": 17.4122959,
        "lon": 78.4792256,
        "tags": {
          "amenity": "fuel",
          "name": "Hindustan Pertoleum"
        }
      },
      {
        "type": "node",
        "id": 6652962785,
        "lat": 17.3808647,
        "lon": 78.4857081,
        "tags": {
          "amenity": "fuel",
          "brand": "Indian Oil",
          "brand:wikidata": "Q1289348",
          "brand:wikipedia": "en:Indian Oil Corporation",
          "name": "Indian Oil"
        }
      },
      {
        "type": "node",
        "id": 6652962786,
        "lat": 17.3873482,
        "lon": 78.4772332,
        "tags": {
          "amenity": "fuel",
          "brand": "Indian Oil",
          "brand:wikidata": "Q1289348",
          "brand:wikipedia": "en:Indian Oil Corporation",
          "name": "Indian Oil"
        }
      },
      {
        "type": "node",
        "id": 7195061312,
        "lat": 17.4178876,
        "lon": 78.4994715,
        "tags": {
          "name": "Musheerabad",
          "name:te": "\u0c2e\u0c41\u0c37\u0c40\u0c30\u0c3e\u0c2c\u0c3e\u0c26\u0c4d",
          "network": "Hyderabad Metro",
          "note": "Contributors are requested to not edit the \"network\" and the \"operator\" tags. (2023/11/08)",
          "operator": "Hyderabad Metro Rail Limited",
          "public_transport": "stop_position",
          "subway": "yes"
        }
      },
      {
        "type": "node",
        "id": 7195061317,
        "lat": 17.394371,
        "lon": 78.4899387,
        "tags": {
          "name": "Narayanaguda",
          "name:te": "\u0c28\u0c3e\u0c30\u0c3e\u0c2f\u0c23\u0c17\u0c42\u0c21",
          "network": "Hyderabad Metro",
          "note": "Contributors are requested to not edit the \"network\" and the \"operator\" tags. (2023/11/08)",
          "operator": "Hyderabad Metro Rail Limited",
          "public_transport": "stop_position",
          "subway": "yes"
        }
      },
      {
        "type": "node",
        "id": 7206794919,
        "lat": 17.4070321,
        "lon": 78.4968023,
        "tags": {
          "name": "RTC Cross Roads",
          "name:ml": "\u0d06\u0d7c \u0d1f\u0d3f \u0d38\u0d3f \u0d15\u0d4d\u0d30\u0d4b\u0d38\u0d4d \u0d31\u0d4b\u0d21\u0d4d\u0d38\u0d4d",
          "name:te": "\u0c06\u0c30\u0c4d \u0c1f\u0c40 \u0c38\u0c3f \u0c15\u0c4d\u0c30\u0c3e\u0c38\u0c4d \u0c30\u0c4b\u0c21\u0c4d\u0c38\u0c4d",
          "network": "Hyderabad Metro",
          "note": "Contributors are requested to not edit the \"network\" and the \"operator\" tags. (2023/11/08)",
          "operator": "Hyderabad Metro Rail Limited",
          "public_transport": "station",
          "railway": "station",
          "station": "subway",
          "subway": "yes",
          "wikidata": "Q108874753"
        }
      },
      {
        "type": "node",
        "id": 7206794945,
        "lat": 17.3797847,
        "lon": 78.4861805,
        "tags": {
          "addr:city": "Hyderabad",
          "addr:city:ar": "\u062d\u064a\u062f\u0631 \u0622\u0628\u0627\u062f",
          "addr:city:ur": "\u062d\u06cc\u062f\u0631\u0622\u0628\u0627\u062f",
          "alt_name": "M. G. Bus Station (Red Line)",
          "name": "Mahatma Gandhi Bus Station (Red Line)",
          "name:te": "\u0c0e\u0c02.\u0c1c\u0c3f. \u0c2c\u0c38\u0c4d. \u0c38\u0c4d\u0c1f\u0c47\u0c37\u0c28\u0c4d",
          "name:ur": "\u0645\u06c1\u0627\u062a\u0645\u0627 \u06af\u0627\u0646\u062f\u06be\u06cc \u0628\u0633 \u0627\u0633\u0679\u06cc\u0634\u0646 (\u0631\u06cc\u0688 \u0644\u0627\u0626\u0646)",
          "network": "Hyderabad Metro",
          "note": "Contributors are requested to not edit the \"network\" and the \"operator\" tags. (2023/11/08)",
          "operator": "Hyderabad Metro Rail Limited",
          "public_transport": "stop_position",
          "public_transport:version": "2",
          "railway": "stop",
          "subway": "yes"
        }
      },
      {
        "type": "node",
        "id": 7208768626,
        "lat": 17.3798572,
        "lon": 78.4862022,
        "tags": {
          "alt_name": "M. G. Bus Station (Red Line)",
          "name": "Mahatma Gandhi Bus Station (Red Line)",
          "name:ml": "\u0d2e\u0d39\u0d3e\u0d24\u0d4d\u0d2e\u0d3e\u0d17\u0d3e\u0d28\u0d4d\u0d27\u0d3f \u0d2c\u0d38\u0d4d \u0d38\u0d4d\u0d31\u0d4d\u0d31\u0d47\u0d37\u0d7b",
          "name:te": "\u0c0e\u0c02.\u0c1c\u0c3f. \u0c2c\u0c38\u0c4d. \u0c38\u0c4d\u0c1f\u0c47\u0c37\u0c28\u0c4d",
          "name:ur": "\u0645\u06c1\u0627\u062a\u0645\u0627 \u06af\u0627\u0646\u062f\u06be\u06cc \u0628\u0633 \u0627\u0633\u0679\u06cc\u0634\u0646 (\u0631\u06cc\u0688 \u0644\u0627\u0626\u0646)",
          "network": "Hyderabad Metro",
          "note": "Contributors are requested to not edit the \"network\" and the \"operator\" tags. (2023/11/08)",
          "operator": "Hyderabad Metro Rail Limited",
          "public_transport": "station",
          "railway": "station",
          "station": "subway",
          "subway": "yes"
        }
      },
      {
        "type": "node",
        "id": 7208768627,
        "lat": 17.3796948,
        "lon": 78.4858635,
        "tags": {
          "alt_name": "M. G. Bus Station (Green Line)",
          "name": "Mahatma Gandhi Bus Station (Green Line)",
          "name:ml": "\u0d2e\u0d39\u0d3e\u0d24\u0d4d\u0d2e\u0d3e\u0d17\u0d3e\u0d28\u0d4d\u0d27\u0d3f \u0d2c\u0d38\u0d4d \u0d38\u0d4d\u0d31\u0d4d\u0d31\u0d47\u0d37\u0d7b",
          "name:te": "\u0c0e\u0c02.\u0c1c\u0c3f. \u0c2c\u0c38\u0c4d. \u0c38\u0c4d\u0c1f\u0c47\u0c37\u0c28\u0c4d",
          "name:ur": "\u0645\u06c1\u0627\u062a\u0645\u0627 \u06af\u0627\u0646\u062f\u06be\u06cc \u0628\u0633 \u0627\u0633\u0679\u06cc\u0634\u0646 (\u06af\u0631\u06cc\u0646 \u0644\u0627\u0626\u0646",
          "network": "Hyderabad Metro",
          "note": "Contributors are requested to not edit the \"network\" and the \"operator\" tags. (2023/11/08)",
          "operator": "Hyderabad Metro Rail Limited",
          "public_transport": "station",
          "railway": "station",
          "station": "subway",
          "subway": "yes"
        }
      },
      {
        "type": "node",
        "id": 7358663498,
        "lat": 17.3844258,
        "lon": 78.4840519,
        "tags": {
          "name": "Sultan Bazar",
          "name:te": "\u0c38\u0c41\u0c32\u0c4d\u0c24\u0c3e\u0c28\u0c4d \u0c2c\u0c1c\u0c3e\u0c30\u0c4d",
          "network": "Hyderabad Metro",
          "note": "Contributors are requested to not edit the \"network\" and the \"operator\" tags. (2023/11/08)",
          "operator": "Hyderabad Metro Rail Limited",
          "public_transport": "stop_position",
          "subway": "yes"
        }
      },
      {
        "type": "node",
        "id": 7358663499,
        "lat": 17.3844473,
        "lon": 78.4840241,
        "tags": {
          "name": "Sultan Bazar",
          "name:ml": "\u0d38\u0d41\u0d7d\u0d24\u0d4d\u0d24\u0d3e\u0d7b \u0d2c\u0d38\u0d3e\u0d7c",
          "name:te": "\u0c38\u0c41\u0c32\u0c4d\u0c24\u0c3e\u0c28\u0c4d \u0c2c\u0c1c\u0c3e\u0c30\u0c4d",
          "network": "Hyderabad Metro",
          "note": "Contributors are requested to not edit the \"network\" and the \"operator\" tags. (2023/11/08)",
          "operator": "Hyderabad Metro Rail Limited",
          "railway": "station",
          "station": "subway",
          "subway": "yes"
        }
      },
      {
        "type": "node",
        "id": 7358663500,
        "lat": 17.3943607,
        "lon": 78.489976,
        "tags": {
          "name": "Narayanaguda",
          "name:te": "\u0c28\u0c3e\u0c30\u0c3e\u0c2f\u0c23\u0c17\u0c42\u0c21",
          "network": "Hyderabad Metro",
          "note": "Contributors are requested to not edit the \"network\" and the \"operator\" tags. (2023/11/08)",
          "operator": "Hyderabad Metro Rail Limited",
          "public_transport": "stop_position",
          "subway": "yes"
        }
      },
      {
        "type": "node",
        "id": 7358663501,
        "lat": 17.3943658,
        "lon": 78.4899578,
        "tags": {
          "name": "Narayanaguda",
          "name:ml": "\u0d28\u0d3e\u0d30\u0d3e\u0d2f\u0d23\u0d17\u0d41\u0d21",
          "name:te": "\u0c28\u0c3e\u0c30\u0c3e\u0c2f\u0c23\u0c17\u0c42\u0c21",
          "network": "Hyderabad Metro",
          "note": "Contributors are requested to not edit the \"network\" and the \"operator\" tags. (2023/11/08)",
          "operator": "Hyderabad Metro Rail Limited",
          "railway": "station",
          "station": "subway",
          "subway": "yes",
          "wikidata": "Q108874763"
        }
      },
      {
        "type": "node",
        "id": 7358663502,
        "lat": 17.4003634,
        "lon": 78.4948964,
        "tags": {
          "name": "Chikkadpally",
          "name:ml": "\u0d1a\u0d3f\u0d15\u0d4d\u0d15\u0d1f\u0d2a\u0d4d\u0d2a\u0d33\u0d4d\u0d33\u0d3f",
          "name:te": "\u0c1a\u0c3f\u0c15\u0c4d\u0c15\u0c21\u0c2a\u0c32\u0c4d\u0c32\u0c3f",
          "network": "Hyderabad Metro",
          "note": "Contributors are requested to not edit the \"network\" and the \"operator\" tags. (2023/11/08)",
          "operator": "Hyderabad Metro Rail Limited",
          "railway": "station",
          "station": "subway",
          "subway": "yes",
          "wikidata": "Q108874757"
        }
      },
      {
        "type": "node",
        "id": 7358663503,
        "lat": 17.4178744,
        "lon": 78.4995051,
        "tags": {
          "name": "Musheerabad",
          "name:ml": "\u0d2e\u0d41\u0d37\u0d40\u0d31\u0d3e\u0d2c\u0d3e\u0d26\u0d4d",
          "name:te": "\u0c2e\u0c41\u0c37\u0c40\u0c30\u0c3e\u0c2c\u0c3e\u0c26\u0c4d",
          "network": "Hyderabad Metro",
          "note": "Contributors are requested to not edit the \"network\" and the \"operator\" tags. (2023/11/08)",
          "operator": "Hyderabad Metro Rail Limited",
          "railway": "station",
          "station": "subway",
          "subway": "yes",
          "wikidata": "Q84890478"
        }
      },
      {
        "type": "node",
        "id": 7358663504,
        "lat": 17.4178644,
        "lon": 78.4995327,
        "tags": {
          "name": "Musheerabad",
          "name:te": "\u0c2e\u0c41\u0c37\u0c40\u0c30\u0c3e\u0c2c\u0c3e\u0c26\u0c4d",
          "network": "Hyderabad Metro",
          "note": "Contributors are requested to not edit the \"network\" and the \"operator\" tags. (2023/11/08)",
          "operator": "Hyderabad Metro Rail Limited",
          "public_transport": "stop_position",
          "subway": "yes"
        }
      },
      {
        "type": "node",
        "id": 7632550173,
        "lat": 17.3795945,
        "lon": 78.4858221,
        "tags": {
          "alt_name": "M. G. Bus Station (Green Line)",
          "name": "Mahatma Gandhi Bus Station (Green Line)",
          "name:te": "\u0c0e\u0c02.\u0c1c\u0c3f. \u0c2c\u0c38\u0c4d. \u0c38\u0c4d\u0c1f\u0c47\u0c37\u0c28\u0c4d",
          "name:ur": "\u0645\u06c1\u0627\u062a\u0645\u0627 \u06af\u0627\u0646\u062f\u06be\u06cc \u0628\u0633 \u0627\u0633\u0679\u06cc\u0634\u0646 (\u06af\u0631\u06cc\u0646 \u0644\u0627\u0626\u0646",
          "network": "Hyderabad Metro",
          "note": "Contributors are requested to not edit the \"network\" and the \"operator\" tags. (2023/11/08)",
          "operator": "Hyderabad Metro Rail Limited",
          "public_transport": "stop_position",
          "railway": "stop",
          "subway": "yes"
        }
      },
      {
        "type": "node",
        "id": 7632550174,
        "lat": 17.3796106,
        "lon": 78.4858581,
        "tags": {
          "alt_name": "M. G. Bus Station (Green Line)",
          "name": "Mahatma Gandhi Bus Station (Green Line)",
          "name:te": "\u0c0e\u0c02.\u0c1c\u0c3f. \u0c2c\u0c38\u0c4d. \u0c38\u0c4d\u0c1f\u0c47\u0c37\u0c28\u0c4d",
          "name:ur": "\u0645\u06c1\u0627\u062a\u0645\u0627 \u06af\u0627\u0646\u062f\u06be\u06cc \u0628\u0633 \u0627\u0633\u0679\u06cc\u0634\u0646 (\u06af\u0631\u06cc\u0646 \u0644\u0627\u0626\u0646",
          "network": "Hyderabad Metro",
          "note": "Contributors are requested to not edit the \"network\" and the \"operator\" tags. (2023/11/08)",
          "operator": "Hyderabad Metro Rail Limited",
          "public_transport": "stop_position",
          "railway": "stop",
          "subway": "yes"
        }
      },
      {
        "type": "node",
        "id": 7635652752,
        "lat": 17.3932537,
        "lon": 78.4673086,
        "tags": {
          "name": "Hyderabad Deccan Nampally",
          "name:ur": "\u062d\u06cc\u062f\u0631\u0622\u0628\u0627\u062f \u062f\u06a9\u0646",
          "public_transport": "stop_position",
          "railway": "stop",
          "ref": "6",
          "train": "yes"
        }
      },
      {
        "type": "node",
        "id": 7635652753,
        "lat": 17.393247,
        "lon": 78.467451,
        "tags": {
          "name": "Hyderabad Deccan Nampally",
          "name:ur": "\u062d\u06cc\u062f\u0631\u0622\u0628\u0627\u062f \u062f\u06a9\u0646",
          "public_transport": "stop_position",
          "railway": "stop",
          "ref": "5",
          "train": "yes"
        }
      },
      {
        "type": "node",
        "id": 7635652754,
        "lat": 17.3932459,
        "lon": 78.4674948,
        "tags": {
          "name": "Hyderabad Deccan Nampally",
          "name:ur": "\u062d\u06cc\u062f\u0631\u0622\u0628\u0627\u062f \u062f\u06a9\u0646",
          "public_transport": "stop_position",
          "railway": "stop",
          "ref": "4",
          "train": "yes"
        }
      },
      {
        "type": "node",
        "id": 7635652755,
        "lat": 17.3932426,
        "lon": 78.4675952,
        "tags": {
          "name": "Hyderabad Deccan Nampally",
          "name:ur": "\u062d\u06cc\u062f\u0631\u0622\u0628\u0627\u062f \u062f\u06a9\u0646",
          "public_transport": "stop_position",
          "railway": "stop",
          "ref": "3",
          "train": "yes"
        }
      },
      {
        "type": "node",
        "id": 7635652756,
        "lat": 17.3932435,
        "lon": 78.4676319,
        "tags": {
          "name": "Hyderabad Deccan Nampally",
          "name:ur": "\u062d\u06cc\u062f\u0631\u0622\u0628\u0627\u062f \u062f\u06a9\u0646",
          "public_transport": "stop_position",
          "railway": "stop",
          "ref": "2",
          "train": "yes"
        }
      },
      {
        "type": "node",
        "id": 7635652757,
        "lat": 17.3932391,
        "lon": 78.46779,
        "tags": {
          "name": "Hyderabad Deccan Nampally",
          "name:ur": "\u062d\u06cc\u062f\u0631\u0622\u0628\u0627\u062f \u062f\u06a9\u0646",
          "public_transport": "stop_position",
          "railway": "stop",
          "ref": "1",
          "train": "yes"
        }
      },
      {
        "type": "node",
        "id": 10789496134,
        "lat": 17.4127019,
        "lon": 78.4657508,
        "tags": {
          "addr:city": "Hyderabad",
          "addr:neighbourhood": "Khairtabad",
          "addr:state": "Telangana",
          "air_conditioning": "yes",
          "amenity": "cinema",
          "name": "Prasads Imax",
          "wheelchair": "yes",
          "wikidata": "Q7238450",
          "wikipedia": "en:Prasads Multiplex"
        }
      },
      {
        "type": "node",
        "id": 10789525452,
        "lat": 17.396027,
        "lon": 78.4898863,
        "tags": {
          "amenity": "cinema",
          "name": "Shanti Cinema Theatre"
        }
      },
      {
        "type": "node",
        "id": 10789553717,
        "lat": 17.4070181,
        "lon": 78.4973309,
        "tags": {
          "amenity": "cinema",
          "name": "Sandhya 70mm"
        }
      },
      {
        "type": "node",
        "id": 10992500541,
        "lat": 17.3921316,
        "lon": 78.5011455,
        "tags": {
          "amenity": "bus_station",
          "bus": "yes",
          "name": "TSRTC BUS DEPOT , BARKATPURA",
          "public_transport": "station"
        }
      },
      {
        "type": "node",
        "id": 10992500542,
        "lat": 17.4063252,
        "lon": 78.5001204,
        "tags": {
          "amenity": "bus_station",
          "bus": "yes",
          "name": "TSRTC WORKSHOP , RTC X ROADS",
          "public_transport": "station"
        }
      },
      {
        "type": "node",
        "id": 10992500543,
        "lat": 17.4081874,
        "lon": 78.5036561,
        "tags": {
          "amenity": "bus_station",
          "bus": "yes",
          "name": "TSRTC BUS DEPOT, MUSHEERABAD 2",
          "public_transport": "station"
        }
      },
      {
        "type": "node",
        "id": 10992500544,
        "lat": 17.4077647,
        "lon": 78.5018495,
        "tags": {
          "amenity": "bus_station",
          "bus": "yes",
          "name": "TSRTC BUS DEPOT, HYDERABAD",
          "public_transport": "station"
        }
      },
      {
        "type": "node",
        "id": 11738179187,
        "lat": 17.3823471,
        "lon": 78.4811327,
        "tags": {
          "alt_name": "OMC",
          "internet_access": "no",
          "name": "Osmania Medical College",
          "name:ml": "\u0d09\u0d38\u0d4d\u0d2e\u0d3e\u0d28\u0d3f\u0d2f \u0d2e\u0d46\u0d21\u0d3f\u0d15\u0d4d\u0d15\u0d7d \u0d15\u0d4b\u0d33\u0d47\u0d1c\u0d4d",
          "name:te": "\u0c09\u0c38\u0c4d\u0c2e\u0c3e\u0c28\u0c3f\u0c2f\u0c3e \u0c35\u0c48\u0c26\u0c4d\u0c2f \u0c15\u0c33\u0c3e\u0c36\u0c3e\u0c32",
          "name:ur": "\u0639\u062b\u0645\u0627\u0646\u06cc\u06c1 \u0645\u06cc\u0688\u06cc\u06a9\u0644 \u06a9\u0627\u0644\u062c",
          "network": "Hyderabad Metro",
          "note": "Contributors are requested to not edit the \"network\" and the \"operator\" tags. (2023/11/08)",
          "operator": "Hyderabad Metro Rail Limited",
          "public_transport": "station",
          "railway": "station",
          "station": "subway",
          "subway": "yes",
          "website": "https://hmrl.co.in",
          "wheelchair": "yes",
          "wikidata": "Q83859784"
        }
      },
      {
        "type": "node",
        "id": 11738179188,
        "lat": 17.3923995,
        "lon": 78.4701477,
        "tags": {
          "internet_access": "no",
          "name": "Nampally",
          "name:ml": "\u0d28\u0d3e\u0d2e\u0d4d\u0d2a\u0d33\u0d4d\u0d33\u0d3f",
          "name:te": "\u0c28\u0c3e\u0c02\u0c2a\u0c32\u0c4d\u0c32\u0c3f",
          "name:ur": "\u0646\u0627\u0645\u067e\u0644\u0651\u06cc",
          "network": "Hyderabad Metro",
          "note": "Contributors are requested to not edit the \"network\" and the \"operator\" tags. (2023/11/08)",
          "operator": "Hyderabad Metro Rail Limited",
          "public_transport": "station",
          "railway": "station",
          "station": "subway",
          "subway": "yes",
          "website": "https://hmrl.co.in",
          "wheelchair": "yes",
          "wikidata": "Q63346685"
        }
      },
      {
        "type": "node",
        "id": 11738179190,
        "lat": 17.4039063,
        "lon": 78.4650247,
        "tags": {
          "internet_access": "no",
          "name": "Lakdi-ka-pul",
          "name:ml": "\u0d32\u0d15\u0d4d\u0d21\u0d3f-\u0d15\u0d3e-\u0d2a\u0d41\u0d7d",
          "name:te": "\u0c32\u0c15\u0c4d\u0c21\u0c3f-\u0c15\u0c3e-\u0c2a\u0c41\u0c32\u0c4d",
          "name:ur": "\u0644\u06a9\u0691\u06cc \u06a9\u0627 \u067e\u0644",
          "network": "Hyderabad Metro",
          "note": "Contributors are requested to not edit the \"network\" and the \"operator\" tags. (2023/11/08)",
          "operator": "Hyderabad Metro Rail Limited",
          "public_transport": "station",
          "railway": "station",
          "station": "subway",
          "subway": "yes",
          "website": "https://hmrl.co.in",
          "wheelchair": "yes"
        }
      },
      {
        "type": "node",
        "id": 11738179194,
        "lat": 17.3861073,
        "lon": 78.4730995,
        "tags": {
          "internet_access": "no",
          "name": "Gandhi Bhavan",
          "name:ml": "\u0d17\u0d3e\u0d28\u0d4d\u0d27\u0d3f \u0d2d\u0d35\u0d7b",
          "name:te": "\u0c17\u0c3e\u0c02\u0c27\u0c40 \u0c2d\u0c35\u0c28\u0c4d",
          "name:ur": "\u06af\u0627\u0646\u062f\u06be\u06cc \u0628\u06be\u0648\u0646",
          "network": "Hyderabad Metro",
          "note": "Contributors are requested to not edit the \"network\" and the \"operator\" tags. (2023/11/08)",
          "operator": "Hyderabad Metro Rail Limited",
          "public_transport": "station",
          "railway": "station",
          "station": "subway",
          "subway": "yes",
          "website": "https://hmrl.co.in",
          "wheelchair": "yes",
          "wikidata": "Q62860405"
        }
      },
      {
        "type": "node",
        "id": 11738179200,
        "lat": 17.3981092,
        "lon": 78.4708176,
        "tags": {
          "internet_access": "no",
          "name": "Assembly",
          "name:ml": "\u0d05\u0d38\u0d02\u0d2c\u0d4d\u0d32\u0d3f",
          "name:te": "\u0c05\u0c38\u0c46\u0c02\u0c2c\u0c4d\u0c32\u0c40",
          "name:ur": "\u0627\u0633\u0645\u0628\u0644\u06cc",
          "network": "Hyderabad Metro",
          "note": "Contributors are requested to not edit the \"network\" and the \"operator\" tags. (2023/11/08)",
          "operator": "Hyderabad Metro Rail Limited",
          "public_transport": "station",
          "railway": "station",
          "station": "subway",
          "subway": "yes",
          "website": "https://hmrl.co.in",
          "wheelchair": "yes",
          "wikidata": "Q83718950"
        }
      },
      {
        "type": "node",
        "id": 11738179218,
        "lat": 17.4042288,
        "lon": 78.4646895,
        "tags": {
          "addr:city": "Hyderabad",
          "addr:city:ar": "\u062d\u064a\u062f\u0631 \u0622\u0628\u0627\u062f",
          "addr:city:ur": "\u062d\u06cc\u062f\u0631\u0622\u0628\u0627\u062f",
          "name": "Lakdi-ka-pul",
          "name:ml": "\u0d32\u0d15\u0d4d\u0d21\u0d3f-\u0d15\u0d3e-\u0d2a\u0d41\u0d7d",
          "name:te": "\u0c32\u0c15\u0c4d\u0c21\u0c3f-\u0c15\u0c3e-\u0c2a\u0c41\u0c32\u0c4d",
          "network": "Hyderabad Metro",
          "note": "Contributors are requested to not edit the \"network\" and the \"operator\" tags. (2023/11/08)",
          "operator": "Hyderabad Metro Rail Limited",
          "public_transport": "stop_position",
          "public_transport:version": "2",
          "railway": "stop",
          "subway": "yes",
          "wheelchair": "yes"
        }
      },
      {
        "type": "node",
        "id": 11738179219,
        "lat": 17.3982698,
        "lon": 78.4707738,
        "tags": {
          "addr:city": "Hyderabad",
          "addr:city:ar": "\u062d\u064a\u062f\u0631 \u0622\u0628\u0627\u062f",
          "addr:city:ur": "\u062d\u06cc\u062f\u0631\u0622\u0628\u0627\u062f",
          "name": "Assembly",
          "name:ml": "\u0d05\u0d38\u0d02\u0d2c\u0d4d\u0d32\u0d3f",
          "name:te": "\u0c05\u0c38\u0c46\u0c02\u0c2c\u0c4d\u0c32\u0c40",
          "network": "Hyderabad Metro",
          "note": "Contributors are requested to not edit the \"network\" and the \"operator\" tags. (2023/11/08)",
          "operator": "Hyderabad Metro Rail Limited",
          "public_transport": "stop_position",
          "public_transport:version": "2",
          "railway": "stop",
          "subway": "yes"
        }
      },
      {
        "type": "node",
        "id": 11738179220,
        "lat": 17.3927365,
        "lon": 78.4701615,
        "tags": {
          "addr:city": "Hyderabad",
          "addr:city:ar": "\u062d\u064a\u062f\u0631 \u0622\u0628\u0627\u062f",
          "addr:city:ur": "\u062d\u06cc\u062f\u0631\u0622\u0628\u0627\u062f",
          "name": "Nampally",
          "name:ml": "\u0d28\u0d3e\u0d2e\u0d4d\u0d2a\u0d33\u0d4d\u0d33\u0d3f",
          "name:te": "\u0c28\u0c3e\u0c02\u0c2a\u0c32\u0c4d\u0c32\u0c3f",
          "network": "Hyderabad Metro",
          "note": "Contributors are requested to not edit the \"network\" and the \"operator\" tags. (2023/11/08)",
          "operator": "Hyderabad Metro Rail Limited",
          "public_transport": "stop_position",
          "public_transport:version": "2",
          "railway": "stop",
          "subway": "yes"
        }
      },
      {
        "type": "node",
        "id": 11738179221,
        "lat": 17.3863645,
        "lon": 78.4728752,
        "tags": {
          "addr:city": "Hyderabad",
          "addr:city:ar": "\u062d\u064a\u062f\u0631 \u0622\u0628\u0627\u062f",
          "addr:city:ur": "\u062d\u06cc\u062f\u0631\u0622\u0628\u0627\u062f",
          "name": "Gandhi Bhavan",
          "name:ml": "\u0d17\u0d3e\u0d28\u0d4d\u0d27\u0d3f \u0d2d\u0d35\u0d7b",
          "name:te": "\u0c17\u0c3e\u0c02\u0c27\u0c40 \u0c2d\u0c35\u0c28\u0c4d",
          "network": "Hyderabad Metro",
          "note": "Contributors are requested to not edit the \"network\" and the \"operator\" tags. (2023/11/08)",
          "operator": "Hyderabad Metro Rail Limited",
          "public_transport": "stop_position",
          "public_transport:version": "2",
          "railway": "stop",
          "subway": "yes"
        }
      },
      {
        "type": "node",
        "id": 11738179222,
        "lat": 17.3824963,
        "lon": 78.4807152,
        "tags": {
          "addr:city": "Hyderabad",
          "addr:city:ar": "\u062d\u064a\u062f\u0631 \u0622\u0628\u0627\u062f",
          "addr:city:ur": "\u062d\u06cc\u062f\u0631\u0622\u0628\u0627\u062f",
          "alt_name": "OMC",
          "name": "Osmania Medical College",
          "name:ml": "\u0d09\u0d38\u0d4d\u0d2e\u0d3e\u0d28\u0d3f\u0d2f \u0d2e\u0d46\u0d21\u0d3f\u0d15\u0d4d\u0d15\u0d7d \u0d15\u0d4b\u0d33\u0d47\u0d1c\u0d4d",
          "name:te": "\u0c09\u0c38\u0c4d\u0c2e\u0c3e\u0c28\u0c3f\u0c2f\u0c3e \u0c35\u0c48\u0c26\u0c4d\u0c2f \u0c15\u0c33\u0c3e\u0c36\u0c3e\u0c32",
          "network": "Hyderabad Metro",
          "note": "Contributors are requested to not edit the \"network\" and the \"operator\" tags. (2023/11/08)",
          "operator": "Hyderabad Metro Rail Limited",
          "public_transport": "stop_position",
          "public_transport:version": "2",
          "railway": "stop",
          "subway": "yes"
        }
      },
      {
        "type": "node",
        "id": 11774365338,
        "lat": 17.3847326,
        "lon": 78.4743828,
        "tags": {
          "amenity": "fuel",
          "brand": "Bharat Petroleum",
          "brand:wikidata": "Q854826",
          "check_date": "2025-01-07",
          "check_date:compressed_air": "2025-01-07",
          "compressed_air": "yes",
          "name": "Bharat Petroleum"
        }
      },
      {
        "type": "node",
        "id": 11774365339,
        "lat": 17.3943492,
        "lon": 78.4700623,
        "tags": {
          "amenity": "fuel",
          "check_date": "2024-03-31",
          "fuel:cng": "yes",
          "name": "Extra Gas"
        }
      },
      {
        "type": "node",
        "id": 12114475167,
        "lat": 17.3900344,
        "lon": 78.5007123,
        "tags": {
          "name": "Kacheguda",
          "public_transport": "stop_position",
          "ref": "5",
          "train": "yes"
        }
      },
      {
        "type": "node",
        "id": 12114475168,
        "lat": 17.3901182,
        "lon": 78.5006124,
        "tags": {
          "name": "Kacheguda",
          "public_transport": "stop_position",
          "ref": "4",
          "train": "yes"
        }
      },
      {
        "type": "node",
        "id": 12114475169,
        "lat": 17.3901459,
        "lon": 78.5005747,
        "tags": {
          "name": "Kacheguda",
          "public_transport": "stop_position",
          "ref": "3",
          "train": "yes"
        }
      },
      {
        "type": "node",
        "id": 12114475170,
        "lat": 17.3902324,
        "lon": 78.5004753,
        "tags": {
          "name": "Kacheguda",
          "public_transport": "stop_position",
          "ref": "2",
          "train": "yes"
        }
      },
      {
        "type": "node",
        "id": 12114475171,
        "lat": 17.3902647,
        "lon": 78.5004391,
        "tags": {
          "name": "Kacheguda",
          "public_transport": "stop_position",
          "ref": "1",
          "train": "yes"
        }
      }
    ]
  }
}