{
  "pois_1km": {
    "version": 0.6,
    "generator": "Overpass API 0.7.62.8 e802775f",
    "osm3s": {
      "timestamp_osm_base": "2025-09-06T08:51:15Z",
      "copyright": "The data included in this document is from www.openstreetmap.org. The data is made available under ODbL."
    },
    "elements": [
      {
        "type": "node",
        "id": 355647266,
        "lat": 17.4393202,
        "lon": 78.4473624,
        "tags": {
          "amenity": "restaurant",
          "cuisine": "chinese",
          "name": "Bowl O China",
          "name:te": "\u0c2c\u0c4c\u0c32\u0c4d \u0c06' \u0c1a\u0c48\u0c28\u0c3e"
        }
      },
      {
        "type": "node",
        "id": 513016922,
        "lat": 17.4263318,
        "lon": 78.4475017,
        "tags": {
          "amenity": "restaurant",
          "cuisine": "south_indian",
          "name": "Chutneys",
          "name:te": "\u0c1a\u0c1f\u0c4d\u0c28\u0c40\u0c38\u0c4d"
        }
      },
      {
        "type": "node",
        "id": 538419187,
        "lat": 17.4380102,
        "lon": 78.4484466,
        "tags": {
          "amenity": "bank",
          "atm": "yes",
          "brand": "HDFC Bank",
          "brand:wikidata": "Q631047",
          "brand:wikipedia": "en:HDFC Bank",
          "name": "HDFC Bank",
          "short_name": "HDFC",
          "website": "https://www.hdfcbank.com"
        }
      },
      {
        "type": "node",
        "id": 538425757,
        "lat": 17.4376555,
        "lon": 78.4484419,
        "tags": {
          "addr:city": "Hyderabad",
          "addr:postcode": "500016",
          "addr:street": "Ameerpet-Fateh Nagar Road",
          "name": "Spenser's Supermarket",
          "name:te": "\u0c38\u0c4d\u0c2a\u0c46\u0c28\u0c4d\u0c38\u0c30\u0c4d\u0c38\u0c4d",
          "organic": "yes",
          "shop": "supermarket",
          "website": "https://www.spencers.in/"
        }
      },
      {
        "type": "node",
        "id": 538425758,
        "lat": 17.4385109,
        "lon": 78.4481174,
        "tags": {
          "brand": "Reliance Fresh",
          "brand:wikidata": "Q7311014",
          "brand:wikipedia": "en:Reliance Fresh",
          "name": "Reliance Fresh",
          "shop": "supermarket"
        }
      },
      {
        "type": "node",
        "id": 538425759,
        "lat": 17.4387093,
        "lon": 78.4503714,
        "tags": {
          "amenity": "pharmacy",
          "branch": "Dharam Karam Road",
          "brand": "Apollo Pharmacy",
          "brand:wikidata": "Q62562612",
          "dispensing": "yes",
          "drive_through": "no",
          "healthcare": "pharmacy",
          "loc_name": "Apollo pharmacy",
          "name": "Apollo Pharmacy",
          "name:te": "\u0c39\u0c46\u0c30\u0c3f\u0c1f\u0c47\u0c1c\u0c4d \u0c2b\u0c4d\u0c30\u0c46\u0c37\u0c4d",
          "opening_hours": "Mo-Su 07:00-23:00",
          "payment:credit_cards": "yes",
          "payment:debit_cards": "yes",
          "payment:upi": "yes",
          "payment:upi_qr": "yes"
        }
      },
      {
        "type": "node",
        "id": 538425766,
        "lat": 17.4362808,
        "lon": 78.4449429,
        "tags": {
          "amenity": "restaurant",
          "name": "Golden Cave Restaurant"
        }
      },
      {
        "type": "node",
        "id": 538425769,
        "lat": 17.4370495,
        "lon": 78.4446481,
        "tags": {
          "addr:city": "Hyderabad",
          "addr:housenumber": "Satyam Theatre road",
          "addr:postcode": "500082",
          "addr:street": "Satyam Theatre Road",
          "amenity": "restaurant",
          "cuisine": "regional",
          "name": "Mythri Restaurant and Bar"
        }
      },
      {
        "type": "node",
        "id": 662721790,
        "lat": 17.4271464,
        "lon": 78.4443444,
        "tags": {
          "amenity": "restaurant",
          "cuisine": "regional",
          "name": "Southern Spice",
          "name:te": "\u0c38\u0c25\u0c30\u0c28\u0c4d \u0c38\u0c4d\u0c2a\u0c48\u0c38\u0c4d"
        }
      },
      {
        "type": "node",
        "id": 813570814,
        "lat": 17.4262926,
        "lon": 78.4480231,
        "tags": {
          "amenity": "fast_food",
          "brand": "Subway",
          "brand:pa": "\u0a38\u0a2c\u0a35\u0a47\u0a05",
          "brand:ur": "\u0633\u0628 \u0648\u06d2",
          "brand:wikidata": "Q244457",
          "brand:wikipedia": "en:Subway (restaurant)",
          "cuisine": "sandwich",
          "name": "Subway",
          "name:pa": "\u0a38\u0a2c\u0a35\u0a47\u0a05",
          "name:te": "\u0c38\u0c2c\u0c4d\u0c35\u0c47",
          "name:ur": "\u0633\u0628 \u0648\u06d2",
          "takeaway": "yes"
        }
      },
      {
        "type": "node",
        "id": 817354197,
        "lat": 17.4270696,
        "lon": 78.4433431,
        "tags": {
          "amenity": "fast_food",
          "cuisine": "pizza",
          "name": "Pizza Corner",
          "name:te": "\u0c2a\u0c3f\u0c1c\u0c4d\u0c1c\u0c3e \u0c15\u0c3e\u0c30\u0c4d\u0c28\u0c46\u0c30\u0c4d"
        }
      },
      {
        "type": "node",
        "id": 817354267,
        "lat": 17.4261299,
        "lon": 78.4484993,
        "tags": {
          "amenity": "cafe",
          "brand": "Cafe Coffee Day",
          "brand:wikidata": "Q5017235",
          "cuisine": "coffee_shop",
          "name": "Cafe Coffee Day",
          "name:te": "\u0c15\u0c47\u0c2b\u0c4d \u0c15\u0c3e\u0c2b\u0c40 \u0c21\u0c47",
          "takeaway": "yes"
        }
      },
      {
        "type": "node",
        "id": 817354319,
        "lat": 17.4262584,
        "lon": 78.4498378,
        "tags": {
          "amenity": "bank",
          "atm": "yes",
          "name": "LVB",
          "name:te": "\u0c0e\u0c32\u0c4d \u0c35\u0c40\u0c2c\u0c3f"
        }
      },
      {
        "type": "node",
        "id": 817354361,
        "lat": 17.4289627,
        "lon": 78.4557226,
        "tags": {
          "amenity": "restaurant",
          "name": "Minerva Coffee Shop"
        }
      },
      {
        "type": "node",
        "id": 817354362,
        "lat": 17.43336,
        "lon": 78.45607,
        "tags": {
          "amenity": "atm",
          "cash_in": "no",
          "check_date": "2025-01-07",
          "name": "State Bank of India",
          "operator": "State Bank"
        }
      },
      {
        "type": "node",
        "id": 1779441445,
        "lat": 17.4271176,
        "lon": 78.4530481,
        "tags": {
          "name": "Hometown",
          "shop": "supermarket"
        }
      },
      {
        "type": "node",
        "id": 1883470320,
        "lat": 17.4300426,
        "lon": 78.4388525,
        "tags": {
          "amenity": "atm",
          "operator": "Axis Bank"
        }
      },
      {
        "type": "node",
        "id": 1883470586,
        "lat": 17.4300286,
        "lon": 78.4389088,
        "tags": {
          "amenity": "atm",
          "operator": "Bank Of Baroda"
        }
      },
      {
        "type": "node",
        "id": 1883470893,
        "lat": 17.4299684,
        "lon": 78.4389048,
        "tags": {
          "amenity": "atm",
          "operator": "ICICI"
        }
      },
      {
        "type": "node",
        "id": 1883471333,
        "lat": 17.4299415,
        "lon": 78.4391362,
        "tags": {
          "amenity": "atm",
          "operator": "Andhra Bank"
        }
      },
      {
        "type": "node",
        "id": 1883471859,
        "lat": 17.4300426,
        "lon": 78.4387975,
        "tags": {
          "amenity": "pharmacy",
          "dispensing": "yes",
          "name": "Med Plus Medical Store"
        }
      },
      {
        "type": "node",
        "id": 1883474652,
        "lat": 17.4302409,
        "lon": 78.4408394,
        "tags": {
          "amenity": "bank",
          "atm": "yes",
          "brand:wikidata": "Q2003789",
          "brand:wikipedia": "en:Indian Bank",
          "name": "Indian Bank",
          "name:en": "Indian Bank",
          "website": "https://www.indianbank.in/"
        }
      },
      {
        "type": "node",
        "id": 1883475016,
        "lat": 17.4305838,
        "lon": 78.4410218,
        "tags": {
          "amenity": "atm",
          "operator": "Indian Bank"
        }
      },
      {
        "type": "node",
        "id": 1883475067,
        "lat": 17.430205,
        "lon": 78.4418828,
        "tags": {
          "amenity": "restaurant",
          "cuisine": "chinese",
          "name": "Noodles King"
        }
      },
      {
        "type": "node",
        "id": 1883475384,
        "lat": 17.4299798,
        "lon": 78.4412927,
        "tags": {
          "amenity": "bank",
          "brand:wikidata": "Q2003476",
          "brand:wikipedia": "en:Andhra Bank",
          "name": "Andhra Bank",
          "name:en": "Andhra Bank",
          "website": "https://www.andhrabank.in"
        }
      },
      {
        "type": "node",
        "id": 1883475677,
        "lat": 17.4299491,
        "lon": 78.4422422,
        "tags": {
          "amenity": "bank",
          "atm": "yes",
          "brand": "HDFC",
          "brand:wikidata": "Q631047",
          "brand:wikipedia": "en:HDFC Bank",
          "name": "HDFC Bank",
          "short_name": "HDFC",
          "website": "https://www.hdfcbank.com"
        }
      },
      {
        "type": "node",
        "id": 1883482610,
        "lat": 17.4306001,
        "lon": 78.4487295,
        "tags": {
          "addr:city": "Hyderabad",
          "addr:street": "Ameerpet Road",
          "name": "Reliance Smart",
          "shop": "supermarket"
        }
      },
      {
        "type": "node",
        "id": 1885686786,
        "lat": 17.4288307,
        "lon": 78.4396942,
        "tags": {
          "name": "Ratnadeep",
          "shop": "supermarket"
        }
      },
      {
        "type": "node",
        "id": 1885686996,
        "lat": 17.4285594,
        "lon": 78.4394528,
        "tags": {
          "amenity": "bank",
          "brand": "Karnataka Bank",
          "brand:wikidata": "Q2042632",
          "name": "Karnataka Bank"
        }
      },
      {
        "type": "node",
        "id": 1885687073,
        "lat": 17.4284545,
        "lon": 78.4396807,
        "tags": {
          "amenity": "atm",
          "brand": "Bank of India",
          "brand:wikidata": "Q2004439",
          "operator": "Bank of India",
          "operator:wikidata": "Q2004439"
        }
      },
      {
        "type": "node",
        "id": 1885688137,
        "lat": 17.4301844,
        "lon": 78.4443344,
        "tags": {
          "amenity": "bank",
          "atm": "yes",
          "brand": "State Bank of India",
          "brand:wikidata": "Q1340361",
          "brand:wikipedia": "en:State Bank of India",
          "name": "State Bank of India",
          "short_name": "SBI"
        }
      },
      {
        "type": "node",
        "id": 2403426781,
        "lat": 17.4372598,
        "lon": 78.446093,
        "tags": {
          "amenity": "bank",
          "atm": "yes",
          "brand": "Oriental Bank of Commerce",
          "brand:wikidata": "Q367008",
          "brand:wikipedia": "en:Oriental Bank of Commerce",
          "name": "Oriental Bank of Commerce",
          "name:en": "Oriental Bank of Commerce",
          "name:te": "\u0c13\u0c30\u0c3f\u0c2f\u0c02\u0c1f\u0c32\u0c4d \u0c2c\u0c4d\u0c2f\u0c3e\u0c02\u0c15\u0c4d \u0c06\u0c2b\u0c4d \u0c15\u0c3e\u0c2e\u0c30\u0c4d\u0c38\u0c4d",
          "short_name": "OBC",
          "website": "https://www.obcindia.co.in"
        }
      },
      {
        "type": "node",
        "id": 2403426783,
        "lat": 17.4372461,
        "lon": 78.4459874,
        "tags": {
          "amenity": "cafe",
          "name": "Minerva"
        }
      },
      {
        "type": "node",
        "id": 2426818370,
        "lat": 17.436487,
        "lon": 78.4444207,
        "tags": {
          "amenity": "atm",
          "name": "OBC ATM",
          "operator": "Oriental Bank of Commerce"
        }
      },
      {
        "type": "node",
        "id": 2426818372,
        "lat": 17.4366712,
        "lon": 78.444992,
        "tags": {
          "amenity": "pharmacy",
          "healthcare": "pharmacy",
          "name": "Kodali Medicals"
        }
      },
      {
        "type": "node",
        "id": 2572745836,
        "lat": 17.4373148,
        "lon": 78.4459922,
        "tags": {
          "amenity": "restaurant",
          "cuisine": "indian",
          "name": "Blue Fox"
        }
      },
      {
        "type": "node",
        "id": 2713841650,
        "lat": 17.4299016,
        "lon": 78.4428358,
        "tags": {
          "leisure": "park",
          "name": "ghmc park"
        }
      },
      {
        "type": "node",
        "id": 2713841739,
        "lat": 17.4304216,
        "lon": 78.4424111,
        "tags": {
          "leisure": "park",
          "name": "park"
        }
      },
      {
        "type": "node",
        "id": 2713845600,
        "lat": 17.4320942,
        "lon": 78.4385866,
        "tags": {
          "leisure": "park",
          "name": "mch park"
        }
      },
      {
        "type": "node",
        "id": 3159027215,
        "lat": 17.4362402,
        "lon": 78.439368,
        "tags": {
          "addr:city": "Hyderabad",
          "name": "Value Mart",
          "shop": "supermarket"
        }
      },
      {
        "type": "node",
        "id": 3159027222,
        "lat": 17.4359881,
        "lon": 78.4386654,
        "tags": {
          "addr:street": "Yousufguda Main Road",
          "amenity": "bank",
          "atm": "yes",
          "brand": "State Bank of India",
          "brand:wikidata": "Q1340361",
          "brand:wikipedia": "en:State Bank of India",
          "name": "State Bank of India",
          "opening_hours": "10:30-16:00",
          "operator": "State Bank Of India",
          "short_name": "SBI"
        }
      },
      {
        "type": "node",
        "id": 3159027232,
        "lat": 17.437519,
        "lon": 78.4416304,
        "tags": {
          "addr:street": "Yousufguda Main Road",
          "amenity": "cafe",
          "brand": "Cafe Coffee Day",
          "brand:wikidata": "Q5017235",
          "cuisine": "coffee_shop",
          "internet_access": "yes",
          "name": "Cafe Coffee Day",
          "opening_hours": "10:00-22:00",
          "smoking": "no",
          "takeaway": "yes",
          "wheelchair": "no"
        }
      },
      {
        "type": "node",
        "id": 3159027234,
        "lat": 17.4372961,
        "lon": 78.4414105,
        "tags": {
          "addr:street": "Yousufguda Main Road",
          "amenity": "cafe",
          "cuisine": "burger;pizza;pastry;cake",
          "internet_access": "no",
          "name": "Cake Exotica",
          "opening_hours": "11:00-23:00",
          "wheelchair": "no"
        }
      },
      {
        "type": "node",
        "id": 3159027236,
        "lat": 17.4388238,
        "lon": 78.4420946,
        "tags": {
          "addr:district": "Hyderabad",
          "addr:full": "D.Number 8-3-214/18, Srinivasa Colony West, Ameerpet",
          "addr:postcode": "500038",
          "addr:state": "Telangana",
          "amenity": "hospital",
          "fax": "040 23732617",
          "healthcare": "hospital",
          "medical_system": "Allopathic",
          "name": "Raghava Multi Speciality Hospital",
          "operator:type": "private",
          "phone": "040 23732617; 040 23732453; 040 55108329",
          "source": "OpenGovernmentData",
          "wheelchair": "yes"
        }
      },
      {
        "type": "node",
        "id": 3159027237,
        "lat": 17.4386655,
        "lon": 78.442408,
        "tags": {
          "amenity": "atm"
        }
      },
      {
        "type": "node",
        "id": 3159027238,
        "lat": 17.4385124,
        "lon": 78.4425646,
        "tags": {
          "addr:district": "Hyderabad",
          "addr:full": "8-3-214/2, Maruthy Mansion, Srinivasa Colony (West), Ameerpet, Opposite S.R Nagar ICICI Bank",
          "addr:postcode": "500038",
          "addr:state": "Telangana",
          "amenity": "hospital",
          "contact:mobile": "9246800810",
          "emergency_telephone_code": "040 66771566",
          "health_facility:type": "24 Hours Ambulance Services; Diagnostic Center; Pharmacy",
          "healthcare": "hospital",
          "healthcare:speciality": "Cardiology; Dermatology; Diabetology; Orthopedics; Gynecology; Nephrology; Pulmonology; Oncology; General Surgery; ENT; Neurology; Paediatrics Urology; Physiotherapy",
          "medical_system": "Allopathic",
          "name": "VCARE Hospitals",
          "operator:type": "private",
          "phone": "040 66771566",
          "source": "OpenGovernmentData",
          "website": "https://www.vcarehospitals.in/"
        }
      },
      {
        "type": "node",
        "id": 3159027239,
        "lat": 17.4395391,
        "lon": 78.4424276,
        "tags": {
          "name": "Good Buy Supermarket",
          "opening_hours": "11:00-21:00",
          "shop": "supermarket"
        }
      },
      {
        "type": "node",
        "id": 3474702622,
        "lat": 17.4318064,
        "lon": 78.4468436,
        "tags": {
          "amenity": "restaurant",
          "name": "Godavari ruchulu"
        }
      },
      {
        "type": "node",
        "id": 3777423105,
        "lat": 17.4304083,
        "lon": 78.455843,
        "tags": {
          "addr:postcode": "500082",
          "addr:street": "Raj Bhavan Road",
          "amenity": "bank",
          "atm": "yes",
          "name": "Kotak Mahindra"
        }
      },
      {
        "type": "node",
        "id": 4214136895,
        "lat": 17.4395391,
        "lon": 78.4481,
        "tags": {
          "addr:street": "Ameerpet",
          "amenity": "restaurant",
          "name": "Roti Wala"
        }
      },
      {
        "type": "node",
        "id": 4320741194,
        "lat": 17.4303803,
        "lon": 78.4562201,
        "tags": {
          "addr:city": "Hyderabad",
          "addr:postcode": "500016",
          "addr:street": "Greenlands Road",
          "brand": "Spar",
          "brand:wikidata": "Q610492",
          "brand:wikipedia": "en:Spar (retailer)",
          "description": "it is a place where all groceries,electronic goods,children stuff,clothes and entertainment zone for kids\n",
          "name": "Spar",
          "organic": "yes",
          "shop": "supermarket",
          "website": "https://www.sparindia.com/"
        }
      },
      {
        "type": "node",
        "id": 4451580789,
        "lat": 17.4269993,
        "lon": 78.4488484,
        "tags": {
          "amenity": "hospital"
        }
      },
      {
        "type": "node",
        "id": 4486660717,
        "lat": 17.4396192,
        "lon": 78.450794,
        "tags": {
          "addr:district": "Hyderabad",
          "addr:full": "7-1-71/A/1, Dharam Karam Road, Ameerpet",
          "addr:postcode": "500016",
          "addr:state": "Telangana",
          "amenity": "hospital",
          "contact:email": "info@challahospital.com",
          "contact:mobile": "9441318181",
          "health_facility:type": "Multi Speciality OPD;Five Major Operation Theatres;Septic Operation Theatre;Post Op Ward;Neonatal ICU;Critical Care Unit;Critical Care Unit;Psychological Consultation",
          "healthcare:speciality": "multi specialty",
          "medical_system": "Allopathic",
          "name": "Challa Hospital",
          "name:te": "\u0c1a\u0c32\u0c4d\u0c32\u0c3e \u0c39\u0c38\u0c4d\u0c2a\u0c3f\u0c1f\u0c32\u0c4d",
          "operator:type": "private",
          "phone": "040 23744444;040 23731215;040 23731515;040 23734182",
          "source": "OpenGovernmentData",
          "website": "http://www.challahospital.com"
        }
      },
      {
        "type": "node",
        "id": 4526392727,
        "lat": 17.4375828,
        "lon": 78.4484518,
        "tags": {
          "amenity": "fast_food",
          "cuisine": "regional",
          "name": "Amoga",
          "name:te": "\u0c05\u0c2e\u0c4b\u0c17\u0c3e"
        }
      },
      {
        "type": "node",
        "id": 5867186858,
        "lat": 17.4303405,
        "lon": 78.4381599,
        "tags": {
          "addr:city": "Hyderabad",
          "addr:housenumber": "Country Oven Bakery",
          "addr:postcode": "500073",
          "addr:street": "Sri Nagar Colony Main Road",
          "amenity": "restaurant",
          "capacity": "40",
          "cuisine": "pizza;burger;sandwich",
          "delivery": "yes",
          "name": "Country Oven",
          "opening_hours": "Mo-Su 09:00-22:00",
          "outdoor_seating": "yes",
          "smoking": "no",
          "takeaway": "yes"
        }
      },
      {
        "type": "node",
        "id": 6212803088,
        "lat": 17.4275672,
        "lon": 78.4422612,
        "tags": {
          "amenity": "bank",
          "brand": "State Bank of India",
          "brand:wikidata": "Q1340361",
          "name": "State Bank of India",
          "short_name": "SBI"
        }
      },
      {
        "type": "node",
        "id": 6212822487,
        "lat": 17.4261994,
        "lon": 78.4498151,
        "tags": {
          "amenity": "bank",
          "brand": "ICICI Bank",
          "brand:wikidata": "Q1653258",
          "name": "ICICI Bank",
          "short_name": "ICICI"
        }
      },
      {
        "type": "node",
        "id": 6255631790,
        "lat": 17.4308673,
        "lon": 78.4478006,
        "tags": {
          "amenity": "restaurant",
          "name": "Sitara"
        }
      },
      {
        "type": "node",
        "id": 6340136985,
        "lat": 17.4301054,
        "lon": 78.4457025,
        "tags": {
          "amenity": "fast_food",
          "cuisine": "chinese",
          "name": "Chop Stick",
          "name:en": "Chop Sticks"
        }
      },
      {
        "type": "node",
        "id": 6370434382,
        "lat": 17.4374107,
        "lon": 78.4456459,
        "tags": {
          "addr:city": "hyderabad",
          "addr:housenumber": "mythrivanam",
          "addr:street": "meghamala apartments road",
          "amenity": "restaurant",
          "cuisine": "regional",
          "name": "Udipi Park Hotel"
        }
      },
      {
        "type": "node",
        "id": 6370709592,
        "lat": 17.4383511,
        "lon": 78.4412022,
        "tags": {
          "leisure": "park"
        }
      },
      {
        "type": "node",
        "id": 6477289985,
        "lat": 17.4238105,
        "lon": 78.449832,
        "tags": {
          "addr:district": "Hyderabad",
          "addr:full": "6-3-347/22B/1, Dwarakapuri Colony, Near Saibaba Temple",
          "addr:postcode": "500082",
          "addr:state": "Telangana",
          "amenity": "hospital",
          "contact:mobile": "9948889222",
          "fax": "040 23357979",
          "healthcare:speciality": "Pediatric ICU;Pediatric Neonatology;Pediatric Cardiology;Pediatric Surgery;Pediatric Dermatology;Pediatric Neurology;Cosmetic Surgery;ENT;Radiologist;Pediatric Audiology",
          "medical_system": "Allopathic",
          "name": "Pragna Hospital",
          "operator:type": "Private",
          "phone": "040 66827999;040 66666399",
          "source": "OpenGovernmentData",
          "website": "http://www.pragnahospital.com"
        }
      },
      {
        "type": "node",
        "id": 6484931583,
        "lat": 17.429802,
        "lon": 78.4487075,
        "tags": {
          "addr:district": "Hyderabad",
          "addr:full": "# 8-3-952/10/2 & 2/1, Srinagar Colony Road, Punjagutta, Nagarjuna Nagar Colony, Yella Reddy Guda",
          "addr:postcode": "500073",
          "addr:state": "Telangana",
          "amenity": "hospital",
          "contact:email": "info@smiline.com",
          "fax": "23747979; 237440775",
          "name": "Smiline Dental Hospital",
          "phone": "+919595853000",
          "source": "OpenGovernmentData",
          "website": "https://www.smiline.com"
        }
      },
      {
        "type": "node",
        "id": 6485566735,
        "lat": 17.4298167,
        "lon": 78.4506487,
        "tags": {
          "addr:district": "Hyderabad",
          "addr:full": "Datla Pride, Punjagutta Officers Colony, Punjagutta",
          "addr:postcode": "500082",
          "addr:state": "Telangana",
          "amenity": "hospital",
          "email": "panjagutta@dragarwal.com",
          "healthcare": "hospital",
          "healthcare:speciality": "Cataract Surgery;Cornea and Refractive;Retina;Oculoplastic;Glaucoma;Uvea;Neuro Ophthamology;Squint and Pediatric Opthalmology;Lasik",
          "medical_system": "Allopathic",
          "name": "Dr.Agarwal's Eye Hospital",
          "operator": "Dr. Agarwal's Eye Hospital",
          "operator:type": "private",
          "operator:wikidata": "Q17052044",
          "phone": "040 23400081",
          "source": "OpenGovernmentData",
          "website": "https://www.dragarwal.com/"
        }
      },
      {
        "type": "node",
        "id": 6488599602,
        "lat": 17.4354676,
        "lon": 78.4514661,
        "tags": {
          "addr:district": "Hyderabad",
          "addr:full": "7-1-59/4/8, Near Lal Bunglow, Ameerpet",
          "addr:postcode": "500016",
          "addr:state": "Telangana",
          "amenity": "hospital",
          "fax": "23735335",
          "name": "Sri Sai Kidney Centre",
          "source": "OpenGovernmentData"
        }
      },
      {
        "type": "node",
        "id": 6494235890,
        "lat": 17.4312043,
        "lon": 78.4553486,
        "tags": {
          "addr:district": "Hyderabad",
          "addr:full": "6-3-871/A, Greenlands Road, Behind Snehalata Complex, Begumpet",
          "addr:postcode": "500016",
          "addr:state": "Telangana",
          "amenity": "hospital",
          "check_date": "2025-01-07",
          "name": "Vivekananda Hospital",
          "source": "OpenGovernmentData"
        }
      },
      {
        "type": "node",
        "id": 6494952509,
        "lat": 17.4405861,
        "lon": 78.4503195,
        "tags": {
          "addr:district": "Hyderabad",
          "addr:full": "2nd Floor, Bhaskara Hospital, Shivbagh Colony, Balkampet Road, Ameerpet",
          "addr:postcode": "500016",
          "addr:state": "Telangana",
          "amenity": "hospital",
          "name": "Vatsalya Institute Of Pediatrics Hospital",
          "source": "OpenGovernmentData"
        }
      },
      {
        "type": "node",
        "id": 6496916240,
        "lat": 17.4376427,
        "lon": 78.4524706,
        "tags": {
          "addr:district": "Hyderabad",
          "addr:full": "7-1-57/B&C, Shyam Karan Road, Anandbagh, Ameerpet",
          "addr:postcode": "500016",
          "addr:state": "Telangana",
          "amenity": "hospital",
          "fax": "23782333",
          "healthcare": "hospital",
          "name": "Apollo Spectra Hospitals",
          "source": "OpenGovernmentData",
          "wikidata": "Q52856798"
        }
      },
      {
        "type": "node",
        "id": 6497138970,
        "lat": 17.4299888,
        "lon": 78.4508921,
        "tags": {
          "addr:district": "Hyderabad",
          "addr:full": "Vamsee Estates ,Opposite Big Bazar ,Ameerpet Main Road",
          "addr:postcode": "500016",
          "addr:state": "Telangana",
          "amenity": "clinic",
          "name": "L.V. Eye Care Centre",
          "source": "OpenGovernmentData"
        }
      },
      {
        "type": "node",
        "id": 6497362076,
        "lat": 17.4373484,
        "lon": 78.4462573,
        "tags": {
          "addr:district": "Hyderabad",
          "addr:full": "Plot No 4, Satyam Theatre Road, Beside Blue Fox Hotel, Mythrivanam, Ameerpet",
          "addr:postcode": "500038",
          "addr:state": "Telangana",
          "amenity": "hospital",
          "fax": "040 23755152",
          "health_facility:type": "Consultative;Diagnostic and Surgical Services",
          "healthcare": "hospital",
          "healthcare:speciality": "Anesthesiology;Cardiology;Diabetology;Dermatology;ENT Head and Neck Surgery;General Internal Medicine;General and Laparoscopic Surgery;Gynaecology and Obstetrics;Gastroenterology and Hematology;Neonatology and Paediatrics;Neurology and Neuro Surgery",
          "medical_system": "Allopathic",
          "name": "ASTER PRIME HOSPITALS (SRI SAINATHA MULTISPECIALITY HOSPITAL PVT.LTD.)",
          "operator:type": "private",
          "phone": "040 4959 4959",
          "source": "OpenGovernmentData",
          "website": "https://www.asterprime.com"
        }
      },
      {
        "type": "node",
        "id": 6497369555,
        "lat": 17.4292454,
        "lon": 78.4531264,
        "tags": {
          "addr:district": "Hyderabad",
          "addr:full": "Sapphire Block, Amrutha Hills, Punjagutta",
          "addr:postcode": "500082",
          "addr:state": "Telangana",
          "amenity": "hospital",
          "name": "Amrutha Diabetic Centre",
          "source": "OpenGovernmentData"
        }
      },
      {
        "type": "node",
        "id": 6504255627,
        "lat": 17.4407735,
        "lon": 78.4492117,
        "tags": {
          "addr:district": "Hyderabad",
          "addr:full": "7-1-212/5, Shiv Bagh, Balkampety Road, Ameerpet",
          "addr:postcode": "500016",
          "addr:state": "Telangana",
          "amenity": "hospital",
          "name": "Bhavika Nursing Home",
          "source": "OpenGovernmentData"
        }
      },
      {
        "type": "node",
        "id": 6504269305,
        "lat": 17.4251451,
        "lon": 78.4510457,
        "tags": {
          "addr:district": "Hyderabad",
          "addr:full": "6-3-663/7/5, Saibaba Temple Road, Dwarakapuri, Punjagutta",
          "addr:postcode": "500082",
          "addr:state": "Telangana",
          "amenity": "hospital",
          "health_facility:type": "Allergy and Headache Clinic;Vertigo Clinic;Sleep Lab;Audiology;Speech Therapy;Clinical Lab;X ray;ECG",
          "healthcare:speciality": "Radio Frequency Surgery;Micro Ear Surgery;Endoscopic Sinus Surgery;Micro Laryngeal Surgery;Phono Surgery for Voice Disorders;Surgery for Snoring;Head and Neck Surgery",
          "medical_system": "Allopathic",
          "name": "Sree Srinivasa ENT Care and Research Institute",
          "operator:type": "private",
          "phone": "040 2339 4995;040 66664995",
          "source": "OpenGovernmentData",
          "website": "http://www.secri.org/contactus.htm"
        }
      },
      {
        "type": "node",
        "id": 6505218409,
        "lat": 17.4305671,
        "lon": 78.4503329,
        "tags": {
          "addr:district": "Hyderabad",
          "addr:full": "Behind Durga Malleswara Swamy Temple, 1/2 RT, Housing Board Colony, Opposite Mosque, Panjagutta",
          "addr:postcode": "500008",
          "addr:state": "Telangana",
          "amenity": "hospital",
          "healthcare:speciality": "Laser; Storz Tricam; Storz Endoscopes; Storz Headcam; Storz Xenon Cold Light Sources; Xomed Micro Debrider; Xomed Skeeter Drill; Ventilating Bronchoscopes with Optical Forceps; Temporal Bone Dissection Laboratory",
          "medical_system": "Allopathic",
          "name": "Dr.Rao's ENT Super Speciality Hospital",
          "operator:type": "private",
          "phone": "040 45689977",
          "source": "OpenGovernmentData",
          "website": "https://raosentcare.com"
        }
      },
      {
        "type": "node",
        "id": 6510356260,
        "lat": 17.4306004,
        "lon": 78.4388973,
        "tags": {
          "addr:district": "Hyderabad",
          "addr:full": "8-3-978/1, Shree Nursing Home, Srinagar Colony",
          "addr:postcode": "500073",
          "addr:state": "Telangana",
          "amenity": "hospital",
          "email": "shreenursinghome@gmail.com",
          "fax": "040-23757737",
          "name": "Shree Hospital",
          "phone": "040-66756493; 040-23734898",
          "source": "OpenGovernmentData",
          "website": "http://www.shreenursinghome.com"
        }
      },
      {
        "type": "node",
        "id": 6510503879,
        "lat": 17.4270433,
        "lon": 78.450353,
        "tags": {
          "addr:district": "Hyderabad",
          "addr:full": "Plot No. 30, Nagarjuna Hills, Punjagutta",
          "addr:postcode": "500082",
          "addr:state": "Telangana",
          "amenity": "hospital",
          "email": "info@lsch.in",
          "name": "Little Star Children's Hospital (A Unit Of Thirumala Child Health Services Pvt. Ltd)",
          "phone": "040 6699 2345",
          "source": "OpenGovernmentData",
          "website": "www.lsch.in"
        }
      },
      {
        "type": "node",
        "id": 6513323438,
        "lat": 17.4314653,
        "lon": 78.4466797,
        "tags": {
          "addr:district": "Hyderabad",
          "addr:full": "8-3-903/F/12&13, Image House, Behind Chermas, Ameerpet",
          "addr:postcode": "500073",
          "addr:state": "Telangana",
          "amenity": "hospital",
          "fax": "2375555; 23746616",
          "name": "Image Hospital",
          "source": "OpenGovernmentData"
        }
      },
      {
        "type": "node",
        "id": 6527671224,
        "lat": 17.4322118,
        "lon": 78.4490681,
        "tags": {
          "addr:district": "Hyderabad",
          "addr:full": "Durga Nagar Colony, Opp Gold Spot, Ameerpet",
          "addr:postcode": "500016",
          "addr:state": "Telangana",
          "amenity": "hospital",
          "name": "Disneys Medi-Kid Hospitals Pvt. Ltd",
          "source": "OpenGovernmentData"
        }
      },
      {
        "type": "node",
        "id": 6548807629,
        "lat": 17.4391832,
        "lon": 78.4425692,
        "tags": {
          "addr:district": "Hyderabad",
          "addr:full": "8-3-215, Srinivas Nagar Colony West. Adjacent to Siva Reddy Sweets Opposite ICICI Bank Ameerpet",
          "addr:postcode": "500038",
          "addr:state": "Telangana",
          "amenity": "hospital",
          "contact:phone": "040 \u2013 66312345",
          "email": "nethrahyd@yahoo.com",
          "healthcare": "hospital",
          "name": "NETHRA EYE INSTITUE",
          "operator:type": "private",
          "source": "OpenGovernmentData",
          "website": "http://www.nethraeyeinstitute.com"
        }
      },
      {
        "type": "node",
        "id": 6549122751,
        "lat": 17.435904,
        "lon": 78.4499786,
        "tags": {
          "addr:district": "Hyderabad",
          "addr:full": "D.NO. 7-1-79/A & 79/B, DHARAM KARAM ROAD, AMEERPET",
          "addr:postcode": "500016",
          "addr:state": "Telangana",
          "amenity": "hospital",
          "contact:email": "info@wellnesshospital.in",
          "contact:phone": "040-66667779",
          "healthcare": "hospital",
          "name": "Wellness Hospital",
          "operator:type": "private",
          "source": "OpenGovernmentData",
          "website": "https://www.wellnesshospital.in/"
        }
      },
      {
        "type": "node",
        "id": 6549159475,
        "lat": 17.4366563,
        "lon": 78.4399192,
        "tags": {
          "addr:district": "Adilabad",
          "addr:full": "8-3-318/2/A/28, Opp State Home, Yousufguda Main Road, Ameerpet",
          "addr:postcode": "500073",
          "addr:state": "Telangana",
          "amenity": "hospital",
          "contact:phone": "4066025588",
          "healthcare": "hospital",
          "name": "RAJA HOSPITAL",
          "operator:type": "private",
          "source": "OpenGovernmentData"
        }
      },
      {
        "type": "node",
        "id": 6549219226,
        "lat": 17.4288986,
        "lon": 78.4398817,
        "tags": {
          "addr:city": "Hyderabad",
          "addr:full": "Plot No. 143, Sagar Society, Venkateshwara Colony, Srinagar Colony, Near Ratnadeep Super Market,",
          "addr:postcode": "500073",
          "addr:state": "Telangana",
          "amenity": "hospital",
          "contact:phone": "48563344",
          "healthcare": "hospital",
          "name": "SMART VISION EYE SPECIALITIES PRIVATE LIMITED",
          "operator:type": "private",
          "source": "OpenGovernmentData"
        }
      },
      {
        "type": "node",
        "id": 6697930152,
        "lat": 17.4342826,
        "lon": 78.4457999,
        "tags": {
          "amenity": "cafe",
          "cuisine": "regional",
          "name": "Imroze Cafe"
        }
      },
      {
        "type": "node",
        "id": 6771713700,
        "lat": 17.4296516,
        "lon": 78.4554308,
        "tags": {
          "amenity": "restaurant",
          "name": "Sri Kanya Comfort"
        }
      },
      {
        "type": "node",
        "id": 6811749002,
        "lat": 17.43393,
        "lon": 78.446511,
        "tags": {
          "addr:district": "Hyderabad",
          "addr:full": "Shop Number 5, Elephant House, 2nd Floor Ameerpet Cross Road, Opposite Swathi Medicals, Punjagutta Officers Colony, Punjagutta",
          "addr:postcode": "500016",
          "addr:state": "Telangana",
          "amenity": "doctors",
          "name": "Dr G Ram Mohan Reddy Clinic",
          "source": "OpenGovernmentData"
        }
      },
      {
        "type": "node",
        "id": 6811749047,
        "lat": 17.4329564,
        "lon": 78.4461388,
        "tags": {
          "addr:district": "Hyderabad",
          "addr:full": "Shop No.2, Yaseen Complex, Opposite Chennai Shopping Mall, Ameerpet",
          "addr:state": "Telangana",
          "amenity": "hospital",
          "name": "Gutta Eye Clinic",
          "source": "OpenGovernmentData"
        }
      },
      {
        "type": "node",
        "id": 6811749079,
        "lat": 17.4374808,
        "lon": 78.4402092,
        "tags": {
          "addr:district": "Hyderabad",
          "addr:full": "metro station, #301, SRK Apartment, Opp. Madura Nagar, Yousufguda Main Rd, Sai Sarathi Nagar, Padala Ramareddy Colony",
          "addr:postcode": "500073",
          "addr:state": "Telangana",
          "amenity": "clinic",
          "healthcare": "clinic",
          "name": "Positive Homeopathy clinic",
          "source": "OpenGovernmentData"
        }
      },
      {
        "type": "node",
        "id": 6811749102,
        "lat": 17.431901,
        "lon": 78.446376,
        "tags": {
          "addr:district": "Hyderabad",
          "addr:full": "F-8, Wureka Court, Lane Adj To Bata Showroom, Ameerpet",
          "addr:postcode": "500073",
          "addr:state": "Telangana",
          "amenity": "clinic",
          "name": "Alavi Eye Clinic",
          "source": "OpenGovernmentData"
        }
      },
      {
        "type": "node",
        "id": 6811749109,
        "lat": 17.434387,
        "lon": 78.445899,
        "tags": {
          "addr:district": "Hyderabad",
          "addr:full": "303, Above Vijaya Bank, Road Number 12, Banjara Hills, Ameerpet",
          "addr:postcode": "500034",
          "addr:state": "Telangana",
          "amenity": "clinic",
          "healthcare": "clinic",
          "name": "Best Clinics",
          "source": "OpenGovernmentData"
        }
      },
      {
        "type": "node",
        "id": 6811749129,
        "lat": 17.4393315,
        "lon": 78.4418317,
        "tags": {
          "addr:district": "Hyderabad",
          "addr:full": "no 1 & 3 plot, Hno: 58, Srinivasa Nagar W, Srinivasa Nagar West",
          "addr:postcode": "500038",
          "addr:state": "Telangana",
          "amenity": "clinic",
          "healthcare": "clinic",
          "name": "Genesis Clinics",
          "source": "OpenGovernmentData"
        }
      },
      {
        "type": "node",
        "id": 6811749172,
        "lat": 17.432609,
        "lon": 78.446198,
        "tags": {
          "addr:district": "Hyderabad",
          "addr:full": "8-3-945, Shop No.4, New Science College Lane, Nagarjuna Nagar colony, Ameerpet",
          "addr:postcode": "500073",
          "addr:state": "Telangana",
          "amenity": "clinic",
          "name": "G.K.Poly Clinic",
          "source": "OpenGovernmentData"
        }
      },
      {
        "type": "node",
        "id": 6821427385,
        "lat": 17.4408073,
        "lon": 78.4455707,
        "tags": {
          "addr:postcode": "500038",
          "addr:street": "6th Lane",
          "amenity": "fast_food",
          "name": "Ahwaanam Fast Food"
        }
      },
      {
        "type": "node",
        "id": 6822126487,
        "lat": 17.437544,
        "lon": 78.440502,
        "tags": {
          "amenity": "restaurant",
          "name": "Hotel Mourya's Restaurant",
          "source": "survey"
        }
      },
      {
        "type": "node",
        "id": 6822126525,
        "lat": 17.4325622,
        "lon": 78.4460138,
        "tags": {
          "amenity": "restaurant",
          "name": "SHIVANYA RESTAURANT",
          "source": "survey"
        }
      },
      {
        "type": "node",
        "id": 6822126623,
        "lat": 17.4377802,
        "lon": 78.4401942,
        "tags": {
          "amenity": "cafe",
          "name": "Sikander Irani Tea And Snacks Point",
          "source": "survey"
        }
      },
      {
        "type": "node",
        "id": 6853049366,
        "lat": 17.438803,
        "lon": 78.441979,
        "tags": {
          "amenity": "bank",
          "branch": "Madhura Nagar",
          "brand": "State Bank of India",
          "brand:wikidata": "Q1340361",
          "name": "State Bank of India",
          "short_name": "SBI",
          "source": "survey"
        }
      },
      {
        "type": "node",
        "id": 6997907785,
        "lat": 17.4360987,
        "lon": 78.4412212,
        "tags": {
          "amenity": "clinic",
          "healthcare": "clinic",
          "name": "Nirmalam Lifestyle Clinic",
          "note": "Whatsapp for appointments",
          "phone": "+919491886881"
        }
      },
      {
        "type": "node",
        "id": 7088365504,
        "lat": 17.4376637,
        "lon": 78.4484512,
        "tags": {
          "name": "Spencars",
          "shop": "supermarket"
        }
      },
      {
        "type": "node",
        "id": 7088365506,
        "lat": 17.4394005,
        "lon": 78.4483772,
        "tags": {
          "amenity": "restaurant",
          "name": "Ayyangar Bakery"
        }
      },
      {
        "type": "node",
        "id": 7113495585,
        "lat": 17.4386398,
        "lon": 78.4472845,
        "tags": {
          "amenity": "atm"
        }
      },
      {
        "type": "node",
        "id": 7113646686,
        "lat": 17.4366221,
        "lon": 78.4457432,
        "tags": {
          "amenity": "hospital",
          "healthcare": "hospital",
          "name": "Shresta hospital",
          "name:en": "Sreshta hospital"
        }
      },
      {
        "type": "node",
        "id": 7113657285,
        "lat": 17.4370833,
        "lon": 78.4452831,
        "tags": {
          "amenity": "bank",
          "name": "Ameerpet"
        }
      },
      {
        "type": "node",
        "id": 7113730487,
        "lat": 17.4386513,
        "lon": 78.4491007,
        "tags": {
          "amenity": "bank",
          "brand": "Indian Bank",
          "brand:wikidata": "Q2003789",
          "name": "Indian Bank"
        }
      },
      {
        "type": "node",
        "id": 7114512486,
        "lat": 17.4402997,
        "lon": 78.4471777,
        "tags": {
          "amenity": "pharmacy",
          "name": "Care medical shop"
        }
      },
      {
        "type": "node",
        "id": 7171348236,
        "lat": 17.437253,
        "lon": 78.4481274,
        "tags": {
          "addr:city": "Hyderabad",
          "addr:postcode": "500016",
          "addr:street": "sathyam theater road",
          "amenity": "fast_food",
          "name": "Midland",
          "opening_hours": "Mo-Su 09:00-21:00"
        }
      },
      {
        "type": "node",
        "id": 7244229677,
        "lat": 17.4349848,
        "lon": 78.4498652,
        "tags": {
          "branch": "Ameerpet",
          "check_date": "2025-01-02",
          "level": "0",
          "name": "Ratnadeep Supermarkets",
          "opening_hours": "Mo-Su 10:00-22:00",
          "operator": "Ratnadeep Retail Pvt. Ltd.",
          "payment:cash": "yes",
          "payment:credit_cards": "yes",
          "payment:debit_cards": "yes",
          "payment:rupay": "yes",
          "payment:upi": "yes",
          "payment:visa": "yes",
          "shop": "supermarket"
        }
      },
      {
        "type": "node",
        "id": 7244230209,
        "lat": 17.4389061,
        "lon": 78.448525,
        "tags": {
          "amenity": "atm"
        }
      },
      {
        "type": "node",
        "id": 7244498388,
        "lat": 17.4381507,
        "lon": 78.4427982,
        "tags": {
          "amenity": "restaurant"
        }
      },
      {
        "type": "node",
        "id": 7244498389,
        "lat": 17.4371885,
        "lon": 78.4434221,
        "tags": {
          "amenity": "atm"
        }
      },
      {
        "type": "node",
        "id": 8759356830,
        "lat": 17.438752,
        "lon": 78.4505019,
        "tags": {
          "addr:district": "Hyderabad",
          "addr:full": "7-1-201/2, Above Food World Supermarket, Preeth Complex, Dharam Karam Road, Ameerpet, Hyderabad",
          "addr:postcode": "500016",
          "addr:state": "Telangana",
          "amenity": "hospital",
          "name": "Partha Dental Skin Hair Clinic",
          "source": "Local Knowledge"
        }
      },
      {
        "type": "node",
        "id": 10279266075,
        "lat": 17.4338816,
        "lon": 78.4466747,
        "tags": {
          "addr:city": "Hyderabad",
          "addr:street": "Ameerpet Road",
          "name": "Elephant House",
          "shop": "mall"
        }
      },
      {
        "type": "node",
        "id": 10279582817,
        "lat": 17.4393701,
        "lon": 78.4430867,
        "tags": {
          "addr:city": "Hyderabad",
          "addr:street": "Sanjeeva Reddy Nagar Main Road",
          "amenity": "bank",
          "brand": "ICICI Bank",
          "brand:wikidata": "Q1653258",
          "name": "ICICI Bank",
          "short_name": "ICICI"
        }
      },
      {
        "type": "node",
        "id": 10279842268,
        "lat": 17.4271804,
        "lon": 78.4524443,
        "tags": {
          "amenity": "restaurant",
          "name": "Mehfil Restaurant"
        }
      },
      {
        "type": "node",
        "id": 10279842270,
        "lat": 17.4289831,
        "lon": 78.4503798,
        "tags": {
          "addr:city": "Hyderabad",
          "addr:street": "Ameerpet Road - Panjagutta Main Road",
          "amenity": "fast_food",
          "brand": "Taco Bell",
          "brand:wikidata": "Q752941",
          "cuisine": "tex-mex",
          "name": "Taco Bell",
          "takeaway": "yes"
        }
      },
      {
        "type": "node",
        "id": 10279842271,
        "lat": 17.4263366,
        "lon": 78.4530858,
        "tags": {
          "addr:city": "Hyderabad",
          "addr:street": "Punjagutta Junction",
          "amenity": "fast_food",
          "brand": "McDonald's",
          "brand:wikidata": "Q38076",
          "cuisine": "burger",
          "name": "McDonald's",
          "takeaway": "yes"
        }
      },
      {
        "type": "node",
        "id": 10279842272,
        "lat": 17.4264124,
        "lon": 78.4530515,
        "tags": {
          "alt_name": "Kentucky Fried Chicken",
          "alt_name:en": "Kentucky Fried Chicken",
          "alt_name:hi": "\u0915\u0947\u0902\u091f\u0941\u0915\u0940 \u092b\u094d\u0930\u093e\u0907\u0921 \u091a\u093f\u0915\u0928",
          "alt_name:pa": "\u0a15\u0a48\u0a02\u0a1f\u0a41\u0a15\u0a40 \u0a2b\u0a4d\u0a30\u0a3e\u0a08\u0a21 \u0a1a\u0a3f\u0a15\u0a28",
          "alt_name:pnb": "\u06a9\u06cc\u0646\u0679\u06a9\u06cc \u0641\u0631\u0627\u0626\u06cc\u0688 \u0686\u06a9\u0646",
          "alt_name:ur": "\u06a9\u06cc\u0646\u0679\u06a9\u06cc \u0641\u0631\u0627\u0626\u06cc\u0688 \u0686\u06a9\u0646",
          "amenity": "fast_food",
          "brand": "KFC",
          "brand:en": "KFC",
          "brand:hi": "\u0915\u0947\u090f\u092b\u0938\u0940",
          "brand:pa": "\u0a15\u0a47\u0a10\u0a2b\u0a38\u0a40",
          "brand:pnb": "\u06a9\u06d2 \u0627\u06cc\u0641 \u0633\u06cc",
          "brand:ur": "\u06a9\u06d2 \u0627\u06cc\u0641 \u0633\u06cc",
          "brand:wikidata": "Q524757",
          "cuisine": "chicken",
          "name": "KFC",
          "name:en": "KFC",
          "name:hi": "\u0915\u0947\u090f\u092b\u0938\u0940",
          "name:pa": "\u0a15\u0a47\u0a10\u0a2b\u0a38\u0a40",
          "name:pnb": "\u06a9\u06d2 \u0627\u06cc\u0641 \u0633\u06cc",
          "name:ur": "\u06a9\u06d2 \u0627\u06cc\u0641 \u0633\u06cc",
          "takeaway": "yes"
        }
      },
      {
        "type": "node",
        "id": 10280159809,
        "lat": 17.4333993,
        "lon": 78.4471765,
        "tags": {
          "addr:city": "Hyderabad",
          "addr:street": "Ameerpet Road",
          "amenity": "food_court",
          "name": "Kakatiya Mess- Take Away"
        }
      },
      {
        "type": "node",
        "id": 10280159814,
        "lat": 17.4335367,
        "lon": 78.447321,
        "tags": {
          "addr:city": "Hyderabad",
          "addr:street": "Ameerpet Road",
          "amenity": "food_court",
          "name": "Subbayya Gari Hotel"
        }
      },
      {
        "type": "node",
        "id": 10280159833,
        "lat": 17.4279218,
        "lon": 78.452497,
        "tags": {
          "addr:city": "Hyderabad",
          "addr:street": "Greenlands Road",
          "amenity": "restaurant",
          "name": "The Seventh Heaven Restuarant and Bar"
        }
      },
      {
        "type": "node",
        "id": 11027534546,
        "lat": 17.4321204,
        "lon": 78.4461681,
        "tags": {
          "amenity": "cafe",
          "name": "Rose land cafe"
        }
      },
      {
        "type": "node",
        "id": 11027534547,
        "lat": 17.432146,
        "lon": 78.4460541,
        "tags": {
          "amenity": "food_court",
          "name": "Lassi shop"
        }
      },
      {
        "type": "node",
        "id": 11027534549,
        "lat": 17.432148,
        "lon": 78.4458335,
        "tags": {
          "amenity": "bank",
          "brand": "Karur Vysya Bank",
          "brand:wikidata": "Q6373724",
          "name": "Karur Vysya Bank"
        }
      },
      {
        "type": "node",
        "id": 11027534551,
        "lat": 17.4317985,
        "lon": 78.445258,
        "tags": {
          "amenity": "atm",
          "brand": "State Bank of India",
          "brand:wikidata": "Q1340361",
          "name": "State Bank of India",
          "operator": "State Bank of India",
          "operator:wikidata": "Q1340361",
          "short_name": "SBI"
        }
      },
      {
        "type": "node",
        "id": 11027534552,
        "lat": 17.4317717,
        "lon": 78.4455728,
        "tags": {
          "amenity": "hospital",
          "healthcare": "hospital",
          "name": "Shishira hospitals"
        }
      },
      {
        "type": "node",
        "id": 11027534558,
        "lat": 17.4319921,
        "lon": 78.446036,
        "tags": {
          "amenity": "clinic",
          "healthcare": "clinic",
          "name": "Pareena Eye care center"
        }
      },
      {
        "type": "node",
        "id": 11027534561,
        "lat": 17.431799,
        "lon": 78.4468438,
        "tags": {
          "amenity": "restaurant",
          "name": "Hotel Sarovar"
        }
      },
      {
        "type": "node",
        "id": 11027534563,
        "lat": 17.4314966,
        "lon": 78.4473474,
        "tags": {
          "amenity": "hospital",
          "healthcare": "hospital",
          "name": "Image Hospital"
        }
      },
      {
        "type": "node",
        "id": 11027534564,
        "lat": 17.4302495,
        "lon": 78.4487075,
        "tags": {
          "amenity": "hospital",
          "healthcare": "hospital",
          "name": "Medkid children's hospital"
        }
      },
      {
        "type": "node",
        "id": 11420436685,
        "lat": 17.4283748,
        "lon": 78.4552907,
        "tags": {
          "amenity": "restaurant",
          "check_date": "2023-11-17",
          "cuisine": "indian",
          "name": "Kritugua"
        }
      }
    ]
  },
  "pois_2_5km": {
    "version": 0.6,
    "generator": "Overpass API 0.7.62.8 e802775f",
    "osm3s": {
      "timestamp_osm_base": "2025-09-06T08:51:15Z",
      "copyright": "The data included in this document is from www.openstreetmap.org. The data is made available under ODbL."
    },
    "elements": [
      {
        "type": "node",
        "id": 289582012,
        "lat": 17.4245107,
        "lon": 78.4626514,
        "tags": {
          "name": "Necklace Road",
          "name:te": "\u0c28\u0c46\u0c15\u0c4d\u0c32\u0c46\u0c38\u0c4d \u0c30\u0c4b\u0c21\u0c4d\u0c21\u0c41",
          "public_transport": "stop_position",
          "railway": "stop",
          "ref": "1",
          "train": "yes"
        }
      },
      {
        "type": "node",
        "id": 289582401,
        "lat": 17.4233355,
        "lon": 78.4631857,
        "tags": {
          "internet_access": "no",
          "name": "Necklace Road",
          "name:te": "\u0c28\u0c46\u0c15\u0c4d\u0c32\u0c46\u0c38\u0c4d \u0c30\u0c4b\u0c21\u0c4d\u0c21\u0c41",
          "name:ur": "\u0646\u06a9\u0644\u06cc\u0633 \u0631\u0648\u0688",
          "network": "IR",
          "operator": "SCR",
          "platforms": "2",
          "public_transport": "station",
          "railway": "station",
          "ref": "NLRD",
          "train": "yes",
          "wikidata": "Q6985575",
          "wikipedia": "en:Necklace Road railway station"
        }
      },
      {
        "type": "node",
        "id": 343319245,
        "lat": 17.4456571,
        "lon": 78.4521487,
        "tags": {
          "internet_access": "no",
          "name": "Nature Cure Hospital",
          "name:te": "\u0c2a\u0c4d\u0c30\u0c15\u0c43\u0c24\u0c3f \u0c1a\u0c3f\u0c15\u0c3f\u0c24\u0c4d\u0c38\u0c3e\u0c32\u0c2f \u0c30\u0c48\u0c32\u0c4d\u0c35\u0c47 \u0c38\u0c4d\u0c1f\u0c47\u0c37\u0c28\u0c4d",
          "network": "IR",
          "operator": "SCR",
          "platforms": "2",
          "public_transport": "station",
          "railway": "station",
          "ref": "NCHS",
          "train": "yes",
          "wikidata": "Q6980906",
          "wikipedia": "en:Nature Cure Hospital railway station"
        }
      },
      {
        "type": "node",
        "id": 343641073,
        "lat": 17.4386951,
        "lon": 78.4580969,
        "tags": {
          "internet_access": "no",
          "name": "Begumpet",
          "name:te": "\u0c2c\u0c47\u0c17\u0c02\u0c2a\u0c47\u0c1f\u0c4d",
          "name:ur": "\u0628\u06cc\u06af\u0645 \u067e\u06cc\u0679",
          "network": "IR",
          "operator": "SCR",
          "platforms": "2",
          "public_transport": "station",
          "railway": "station",
          "ref": "BMT",
          "train": "yes",
          "wikidata": "Q4880629",
          "wikipedia": "en:Begumpet railway station"
        }
      },
      {
        "type": "node",
        "id": 344033748,
        "lat": 17.4233743,
        "lon": 78.4278935,
        "tags": {
          "amenity": "cinema",
          "brand": "PVR Cinemas",
          "brand:short": "PVR",
          "brand:wikidata": "Q3359908",
          "name": "PVR Cinemas",
          "name:te": "\u0c38\u0c3f\u0c28\u0c40 \u0c2e\u0c3e\u0c15\u0c4d\u0c38\u0c4d"
        }
      },
      {
        "type": "node",
        "id": 813570842,
        "lat": 17.4263594,
        "lon": 78.451396,
        "tags": {
          "amenity": "fuel",
          "brand": "Indian Oil",
          "brand:wikidata": "Q1289348",
          "brand:wikipedia": "en:Indian Oil Corporation",
          "name": "Indian Oil"
        }
      },
      {
        "type": "node",
        "id": 814748141,
        "lat": 17.4273769,
        "lon": 78.4395446,
        "tags": {
          "amenity": "fuel",
          "brand": "Indian Oil",
          "brand:wikidata": "Q1289348",
          "brand:wikipedia": "en:Indian Oil Corporation",
          "name": "Indian Oil"
        }
      },
      {
        "type": "node",
        "id": 817354434,
        "lat": 17.4445955,
        "lon": 78.4616641,
        "tags": {
          "amenity": "fuel",
          "brand": "Indian Oil",
          "brand:wikidata": "Q1289348",
          "brand:wikipedia": "en:Indian Oil Corporation",
          "name": "Indian Oil"
        }
      },
      {
        "type": "node",
        "id": 890312487,
        "lat": 17.418803,
        "lon": 78.4484007,
        "tags": {
          "amenity": "cinema",
          "brand": "INOX Leisure",
          "brand:wikidata": "Q5972349",
          "name": "INOX Cinema",
          "name:te": "\u0c10\u0c28\u0c3e\u0c15\u0c4d\u0c38\u0c4d \u0c38\u0c3f\u0c28\u0c3f\u0c2e\u0c3e",
          "short_name": "INOX"
        }
      },
      {
        "type": "node",
        "id": 1534935432,
        "lat": 17.4238,
        "lon": 78.4263912,
        "tags": {
          "amenity": "cinema",
          "name": "Prasads Lab preview Theatre"
        }
      },
      {
        "type": "node",
        "id": 1666010778,
        "lat": 17.4232572,
        "lon": 78.4589653,
        "tags": {
          "amenity": "fuel",
          "brand": "Shell",
          "brand:wikidata": "Q110716465",
          "fuel:diesel": "yes",
          "fuel:octane_91": "yes",
          "name": "Shell Petrol Bunk",
          "operator": "Shell"
        }
      },
      {
        "type": "node",
        "id": 1883484106,
        "lat": 17.4302638,
        "lon": 78.4484072,
        "tags": {
          "addr:city": "Hyderabad",
          "addr:state": "Telangana",
          "addr:street": "Ameerpet Road",
          "air_conditioning": "yes",
          "amenity": "cinema",
          "name": "Platinum Cinemas"
        }
      },
      {
        "type": "node",
        "id": 1883501408,
        "lat": 17.4298122,
        "lon": 78.4321238,
        "tags": {
          "amenity": "fuel",
          "brand": "IBP"
        }
      },
      {
        "type": "node",
        "id": 2177960405,
        "lat": 17.4362628,
        "lon": 78.4291105,
        "tags": {
          "amenity": "fuel"
        }
      },
      {
        "type": "node",
        "id": 2352099065,
        "lat": 17.4211261,
        "lon": 78.4559994,
        "tags": {
          "amenity": "fuel",
          "brand": "Indian Oil",
          "brand:wikidata": "Q1289348",
          "brand:wikipedia": "en:Indian Oil Corporation",
          "fuel:diesel": "yes",
          "fuel:petrol": "yes",
          "name": "Indian Oil Fuel Station"
        }
      },
      {
        "type": "node",
        "id": 2352100154,
        "lat": 17.4206051,
        "lon": 78.4563468,
        "tags": {
          "amenity": "fuel",
          "brand": "Bharat Petroleum",
          "brand:wikidata": "Q854826",
          "building": "yes",
          "name": "Bharat Petroleum"
        }
      },
      {
        "type": "node",
        "id": 2422172970,
        "lat": 17.4375661,
        "lon": 78.4569341,
        "tags": {
          "name": "Begumpet",
          "name:ml": "\u0d2c\u0d47\u0d17\u0d02\u0d2a\u0d47\u0d1f\u0d4d\u0d1f\u0d4d",
          "name:te": "\u0c2c\u0c47\u0c17\u0c02\u0c2a\u0c47\u0c1f\u0c4d",
          "name:ur": "\u0628\u06cc\u06af\u0645 \u067e\u06cc\u0679",
          "network": "Hyderabad Metro",
          "note": "Contributors are requested to not edit the \"network\" and the \"operator\" tags. (2023/11/08)",
          "operator": "Hyderabad Metro Rail Limited",
          "public_transport": "station",
          "railway": "station",
          "station": "subway",
          "subway": "yes"
        }
      },
      {
        "type": "node",
        "id": 2422172987,
        "lat": 17.4375612,
        "lon": 78.4569588,
        "tags": {
          "name": "Begumpet",
          "name:te": "\u0c2c\u0c47\u0c17\u0c02\u0c2a\u0c47\u0c1f\u0c4d",
          "network": "Hyderabad Metro",
          "note": "Contributors are requested to not edit the \"network\" and the \"operator\" tags. (2023/11/08)",
          "operator": "Hyderabad Metro Rail Limited",
          "public_transport": "stop_position",
          "railway": "stop",
          "subway": "yes",
          "wikidata": "Q84301996",
          "wikipedia": "en:Begumpet metro station"
        }
      },
      {
        "type": "node",
        "id": 2422172989,
        "lat": 17.436951,
        "lon": 78.4391108,
        "tags": {
          "alt_name": "Taruni Madhura Nagar",
          "name": "Madhura Nagar",
          "name:te": "\u0c2e\u0c27\u0c41\u0c30 \u0c28\u0c17\u0c30\u0c4d",
          "network": "Hyderabad Metro",
          "note": "Contributors are requested to not edit the \"network\" and the \"operator\" tags. (2023/11/08)",
          "operator": "Hyderabad Metro Rail Limited",
          "public_transport": "stop_position",
          "railway": "stop",
          "subway": "yes"
        }
      },
      {
        "type": "node",
        "id": 2422172990,
        "lat": 17.4448686,
        "lon": 78.4658736,
        "tags": {
          "name": "Prakash Nagar",
          "name:te": "\u0c2a\u0c4d\u0c30\u0c15\u0c3e\u0c36\u0c4d\u200c\u0c28\u0c17\u0c30\u0c4d",
          "network": "Hyderabad Metro",
          "note": "Contributors are requested to not edit the \"network\" and the \"operator\" tags. (2023/11/08)",
          "operator": "Hyderabad Metro Rail Limited",
          "public_transport": "stop_position",
          "subway": "yes"
        }
      },
      {
        "type": "node",
        "id": 2422173110,
        "lat": 17.4353341,
        "lon": 78.4446031,
        "tags": {
          "name": "Ameerpet",
          "name:te": "\u0c05\u0c2e\u0c40\u0c30\u0c4d\u200c\u0c2a\u0c47\u0c1f\u0c4d",
          "network": "Hyderabad Metro",
          "note": "Contributors are requested to not edit the \"network\" and the \"operator\" tags. (2023/11/08)",
          "operator": "Hyderabad Metro Rail Limited",
          "public_transport": "stop_position",
          "public_transport:version": "2",
          "railway": "stop",
          "subway": "yes",
          "wikidata": "Q56701862",
          "wikipedia": "en:Ameerpet metro station"
        }
      },
      {
        "type": "node",
        "id": 2422988997,
        "lat": 17.4355002,
        "lon": 78.4447343,
        "tags": {
          "addr:city": "Hyderabad",
          "addr:city:ar": "\u062d\u064a\u062f\u0631 \u0622\u0628\u0627\u062f",
          "addr:city:ur": "\u062d\u06cc\u062f\u0631\u0622\u0628\u0627\u062f",
          "name": "Ameerpet",
          "name:te": "\u0c05\u0c2e\u0c40\u0c30\u0c4d\u200c\u0c2a\u0c47\u0c1f\u0c4d",
          "network": "Hyderabad Metro",
          "note": "Contributors are requested to not edit the \"network\" and the \"operator\" tags. (2023/11/08)",
          "operator": "Hyderabad Metro Rail Limited",
          "public_transport": "stop_position",
          "public_transport:version": "2",
          "railway": "stop",
          "subway": "yes",
          "wikidata": "Q56701862",
          "wikipedia": "en:Ameerpet metro station"
        }
      },
      {
        "type": "node",
        "id": 2422989191,
        "lat": 17.4202292,
        "lon": 78.4563489,
        "tags": {
          "addr:city": "Hyderabad",
          "addr:city:ar": "\u062d\u064a\u062f\u0631 \u0622\u0628\u0627\u062f",
          "addr:city:ur": "\u062d\u06cc\u062f\u0631\u0622\u0628\u0627\u062f",
          "name": "Irrum Manzil",
          "name:ml": "\u0d0e\u0d31\u0d02 \u0d2e\u0d7b\u0d38\u0d3f\u0d7d",
          "name:te": "\u0c07\u0c31\u0c02 \u0c2e\u0c02\u0c1c\u0c3f\u0c32\u0c4d",
          "network": "Hyderabad Metro",
          "note": "Contributors are requested to not edit the \"network\" and the \"operator\" tags. (2023/11/08)",
          "operator": "Hyderabad Metro Rail Limited",
          "public_transport": "stop_position",
          "public_transport:version": "2",
          "railway": "stop",
          "subway": "yes"
        }
      },
      {
        "type": "node",
        "id": 2422989193,
        "lat": 17.443146,
        "lon": 78.4408077,
        "tags": {
          "addr:city": "Hyderabad",
          "addr:city:ar": "\u062d\u064a\u062f\u0631 \u0622\u0628\u0627\u062f",
          "addr:city:ur": "\u062d\u06cc\u062f\u0631\u0622\u0628\u0627\u062f",
          "name": "S. R. Nagar",
          "name:te": "\u0c0e\u0c38\u0c4d.\u0c06\u0c30\u0c4d. \u0c28\u0c17\u0c30\u0c4d",
          "network": "Hyderabad Metro",
          "note": "Contributors are requested to not edit the \"network\" and the \"operator\" tags. (2023/11/08)",
          "operator": "Hyderabad Metro Rail Limited",
          "public_transport": "stop_position",
          "public_transport:version": "2",
          "railway": "stop",
          "subway": "yes"
        }
      },
      {
        "type": "node",
        "id": 2424019772,
        "lat": 17.4284456,
        "lon": 78.4513095,
        "tags": {
          "addr:city": "Hyderabad",
          "addr:city:ar": "\u062d\u064a\u062f\u0631 \u0622\u0628\u0627\u062f",
          "addr:city:ur": "\u062d\u06cc\u062f\u0631\u0622\u0628\u0627\u062f",
          "name": "Panjagutta",
          "name:ml": "\u0d2a\u0d1e\u0d4d\u0d1a\u0d17\u0d41\u0d1f\u0d4d\u0d1f",
          "name:te": "\u0c2a\u0c02\u0c1c\u0c3e\u0c17\u0c41\u0c1f\u0c4d\u0c1f",
          "network": "Hyderabad Metro",
          "note": "Contributors are requested to not edit the \"network\" and the \"operator\" tags. (2023/11/08)",
          "operator": "Hyderabad Metro Rail Limited",
          "public_transport": "stop_position",
          "public_transport:version": "2",
          "railway": "stop",
          "subway": "yes"
        }
      },
      {
        "type": "node",
        "id": 2425474186,
        "lat": 17.4470156,
        "lon": 78.438567,
        "tags": {
          "addr:city": "Hyderabad",
          "addr:city:ar": "\u062d\u064a\u062f\u0631 \u0622\u0628\u0627\u062f",
          "addr:city:ur": "\u062d\u06cc\u062f\u0631\u0622\u0628\u0627\u062f",
          "name": "ESI Hospital",
          "name:ml": "\u0d07.\u0d0e\u0d38\u0d4d.\u0d10 \u0d06\u0d36\u0d41\u0d2a\u0d24\u0d4d\u0d30\u0d3f",
          "name:te": "\u0c08.\u0c0e\u0c38\u0c4d.\u0c10 \u0c06\u0c38\u0c4d\u0c2a\u0c24\u0c4d\u0c30\u0c3f",
          "network": "Hyderabad Metro",
          "note": "Contributors are requested to not edit the \"network\" and the \"operator\" tags. (2023/11/08)",
          "operator": "Hyderabad Metro Rail Limited",
          "public_transport": "stop_position",
          "public_transport:version": "2",
          "railway": "stop",
          "subway": "yes"
        }
      },
      {
        "type": "node",
        "id": 2461447890,
        "lat": 17.4385942,
        "lon": 78.458062,
        "tags": {
          "name": "Begumpet",
          "name:kn": "\u0cac\u0cc7\u0c97\u0c82\u0caa\u0cc7\u0c9f\u0cc6",
          "name:ur": "\u0628\u06cc\u06af\u0645 \u067e\u06cc\u0679",
          "public_transport": "station",
          "railway": "station",
          "ref": "2",
          "train": "yes",
          "wikidata": "Q4880629",
          "wikipedia": "en:Begumpet railway station"
        }
      },
      {
        "type": "node",
        "id": 2461447891,
        "lat": 17.4386323,
        "lon": 78.4580666,
        "tags": {
          "name": "Begumpet",
          "name:kn": "\u0cac\u0cc7\u0c97\u0c82\u0caa\u0cc7\u0c9f\u0cc6",
          "public_transport": "stop_position",
          "railway": "stop",
          "ref": "1",
          "train": "yes"
        }
      },
      {
        "type": "node",
        "id": 3159027221,
        "lat": 17.4362648,
        "lon": 78.4381583,
        "tags": {
          "addr:street": "Yousufguda Main Road",
          "amenity": "fuel",
          "brand": "Indian Oil",
          "brand:wikidata": "Q1289348",
          "brand:wikipedia": "en:Indian Oil Corporation",
          "name": "Indian Oil",
          "opening_hours": "11:00-22:00",
          "operator": "Indian oil"
        }
      },
      {
        "type": "node",
        "id": 3784388184,
        "lat": 17.4143528,
        "lon": 78.4609816,
        "tags": {
          "name": "Khairatabad",
          "name:te": "\u0c16\u0c48\u0c30\u0c24\u0c3e\u0c2c\u0c3e\u0c26\u0c4d",
          "public_transport": "stop_position",
          "railway": "stop",
          "ref": "2",
          "train": "yes"
        }
      },
      {
        "type": "node",
        "id": 3784388185,
        "lat": 17.4143598,
        "lon": 78.4610957,
        "tags": {
          "name": "Khairatabad",
          "name:te": "\u0c16\u0c48\u0c30\u0c24\u0c3e\u0c2c\u0c3e\u0c26\u0c4d",
          "public_transport": "stop_position",
          "railway": "stop",
          "ref": "1",
          "train": "yes"
        }
      },
      {
        "type": "node",
        "id": 3784388218,
        "lat": 17.4245006,
        "lon": 78.4626111,
        "tags": {
          "name": "Necklace Road",
          "name:te": "\u0c28\u0c46\u0c15\u0c4d\u0c32\u0c46\u0c38\u0c4d \u0c30\u0c4b\u0c21\u0c4d\u0c21\u0c41",
          "public_transport": "stop_position",
          "railway": "stop",
          "ref": "2",
          "train": "yes"
        }
      },
      {
        "type": "node",
        "id": 4407581196,
        "lat": 17.42008,
        "lon": 78.4308367,
        "tags": {
          "amenity": "bus_station",
          "bus": "yes",
          "name": "Nandi Nagar bus stand",
          "name:en": "Nandi Nagar bus stand",
          "public_transport": "station"
        }
      },
      {
        "type": "node",
        "id": 4556707782,
        "lat": 17.4457469,
        "lon": 78.4522785,
        "tags": {
          "local_ref": "1",
          "name": "Nature Cure Hospital",
          "name:te": "\u0c2a\u0c4d\u0c30\u0c15\u0c43\u0c24\u0c3f \u0c1a\u0c3f\u0c15\u0c3f\u0c24\u0c4d\u0c38\u0c3e\u0c32\u0c2f \u0c30\u0c48\u0c32\u0c4d\u0c35\u0c47 \u0c38\u0c4d\u0c1f\u0c47\u0c37\u0c28\u0c4d",
          "public_transport": "stop_position",
          "railway": "stop",
          "ref": "2",
          "train": "yes"
        }
      },
      {
        "type": "node",
        "id": 4556707783,
        "lat": 17.445761,
        "lon": 78.4523207,
        "tags": {
          "local_ref": "2",
          "name": "Nature Cure Hospital",
          "name:te": "\u0c2a\u0c4d\u0c30\u0c15\u0c43\u0c24\u0c3f \u0c1a\u0c3f\u0c15\u0c3f\u0c24\u0c4d\u0c38\u0c3e\u0c32\u0c2f \u0c30\u0c48\u0c32\u0c4d\u0c35\u0c47 \u0c38\u0c4d\u0c1f\u0c47\u0c37\u0c28\u0c4d",
          "public_transport": "stop_position",
          "railway": "stop",
          "ref": "1",
          "train": "yes"
        }
      },
      {
        "type": "node",
        "id": 4915906017,
        "lat": 17.4306214,
        "lon": 78.4556721,
        "tags": {
          "amenity": "fuel",
          "compressed_air": "yes",
          "name": "Petrol Pump"
        }
      },
      {
        "type": "node",
        "id": 5620024293,
        "lat": 17.4195272,
        "lon": 78.4486519,
        "tags": {
          "amenity": "cinema",
          "brand": "INOX Leisure",
          "brand:wikidata": "Q5972349",
          "name": "INOX",
          "name:te": "\u0c10\u0c28\u0c3e\u0c15\u0c4d\u0c38\u0c4d",
          "short_name": "INOX"
        }
      },
      {
        "type": "node",
        "id": 5787787982,
        "lat": 17.4353528,
        "lon": 78.4446353,
        "tags": {
          "name": "Ameerpet",
          "name:te": "\u0c05\u0c2e\u0c40\u0c30\u0c4d\u200c\u0c2a\u0c47\u0c1f\u0c4d",
          "network": "Hyderabad Metro",
          "note": "Contributors are requested to not edit the \"network\" and the \"operator\" tags. (2023/11/08)",
          "operator": "Hyderabad Metro Rail Limited",
          "public_transport": "stop_position",
          "public_transport:version": "2",
          "railway": "stop",
          "subway": "yes",
          "wikidata": "Q56701862",
          "wikipedia": "en:Ameerpet metro station"
        }
      },
      {
        "type": "node",
        "id": 5787787991,
        "lat": 17.4354849,
        "lon": 78.4447024,
        "tags": {
          "addr:city": "Hyderabad",
          "addr:city:ar": "\u062d\u064a\u062f\u0631 \u0622\u0628\u0627\u062f",
          "addr:city:ur": "\u062d\u06cc\u062f\u0631\u0622\u0628\u0627\u062f",
          "name": "Ameerpet",
          "name:te": "\u0c05\u0c2e\u0c40\u0c30\u0c4d\u200c\u0c2a\u0c47\u0c1f\u0c4d",
          "network": "Hyderabad Metro",
          "note": "Contributors are requested to not edit the \"network\" and the \"operator\" tags. (2023/11/08)",
          "operator": "Hyderabad Metro Rail Limited",
          "public_transport": "stop_position",
          "public_transport:version": "2",
          "railway": "stop",
          "subway": "yes",
          "wikidata": "Q56701862",
          "wikipedia": "en:Ameerpet metro station"
        }
      },
      {
        "type": "node",
        "id": 5787787993,
        "lat": 17.4431312,
        "lon": 78.4407689,
        "tags": {
          "addr:city": "Hyderabad",
          "addr:city:ar": "\u062d\u064a\u062f\u0631 \u0622\u0628\u0627\u062f",
          "addr:city:ur": "\u062d\u06cc\u062f\u0631\u0622\u0628\u0627\u062f",
          "name": "S. R. Nagar",
          "network": "Hyderabad Metro",
          "note": "Contributors are requested to not edit the \"network\" and the \"operator\" tags. (2023/11/08)",
          "operator": "Hyderabad Metro Rail Limited",
          "public_transport": "stop_position",
          "public_transport:version": "2",
          "railway": "stop",
          "subway": "yes"
        }
      },
      {
        "type": "node",
        "id": 5787788011,
        "lat": 17.4289005,
        "lon": 78.4508989,
        "tags": {
          "addr:city": "Hyderabad",
          "addr:city:ar": "\u062d\u064a\u062f\u0631 \u0622\u0628\u0627\u062f",
          "addr:city:ur": "\u062d\u06cc\u062f\u0631\u0622\u0628\u0627\u062f",
          "name": "Panjagutta",
          "name:ml": "\u0d2a\u0d1e\u0d4d\u0d1a\u0d17\u0d41\u0d1f\u0d4d\u0d1f",
          "name:te": "\u0c2a\u0c02\u0c1c\u0c3e\u0c17\u0c41\u0c1f\u0c4d\u0c1f",
          "network": "Hyderabad Metro",
          "note": "Contributors are requested to not edit the \"network\" and the \"operator\" tags. (2023/11/08)",
          "operator": "Hyderabad Metro Rail Limited",
          "public_transport": "stop_position",
          "public_transport:version": "2",
          "railway": "stop",
          "subway": "yes"
        }
      },
      {
        "type": "node",
        "id": 5787788719,
        "lat": 17.435108,
        "lon": 78.4273374,
        "tags": {
          "name": "Yusufguda",
          "name:te": "\u0c2f\u0c42\u0c38\u0c41\u0c2b\u0c4d\u200c\u0c17\u0c42\u0c21",
          "network": "Hyderabad Metro",
          "note": "Contributors are requested to not edit the \"network\" and the \"operator\" tags. (2023/11/08)",
          "operator": "Hyderabad Metro Rail Limited",
          "public_transport": "stop_position",
          "railway": "stop",
          "subway": "yes"
        }
      },
      {
        "type": "node",
        "id": 5787788969,
        "lat": 17.4375841,
        "lon": 78.456906,
        "tags": {
          "name": "Begumpet",
          "name:te": "\u0c2c\u0c47\u0c17\u0c02\u0c2a\u0c47\u0c1f\u0c4d",
          "network": "Hyderabad Metro",
          "note": "Contributors are requested to not edit the \"network\" and the \"operator\" tags. (2023/11/08)",
          "operator": "Hyderabad Metro Rail Limited",
          "public_transport": "stop_position",
          "railway": "stop",
          "subway": "yes",
          "wikidata": "Q84301996",
          "wikipedia": "en:Begumpet metro station"
        }
      },
      {
        "type": "node",
        "id": 5787788982,
        "lat": 17.4449044,
        "lon": 78.465879,
        "tags": {
          "name": "Prakash Nagar",
          "name:te": "\u0c2a\u0c4d\u0c30\u0c15\u0c3e\u0c36\u0c4d\u200c\u0c28\u0c17\u0c30\u0c4d",
          "network": "Hyderabad Metro",
          "note": "Contributors are requested to not edit the \"network\" and the \"operator\" tags. (2023/11/08)",
          "operator": "Hyderabad Metro Rail Limited",
          "public_transport": "stop_position",
          "subway": "yes"
        }
      },
      {
        "type": "node",
        "id": 6444553238,
        "lat": 17.4431396,
        "lon": 78.4407903,
        "tags": {
          "name": "S. R. Nagar",
          "name:ml": "\u0d0e\u0d38\u0d4d \u0d06\u0d7c \u0d28\u0d17\u0d7c",
          "name:te": "\u0c0e\u0c38\u0c4d.\u0c06\u0c30\u0c4d. \u0c28\u0c17\u0c30\u0c4d",
          "network": "Hyderabad Metro",
          "note": "Contributors are requested to not edit the \"network\" and the \"operator\" tags. (2023/11/08)",
          "operator": "Hyderabad Metro Rail Limited",
          "public_transport": "station",
          "public_transport:version": "2",
          "railway": "station",
          "station": "subway",
          "subway": "yes",
          "wikidata": "Q83175963"
        }
      },
      {
        "type": "node",
        "id": 6447191882,
        "lat": 17.4357214,
        "lon": 78.4447933,
        "tags": {
          "name": "Ameerpet (Red Line)",
          "name:ml": "\u0d05\u0d2e\u0d40\u0d7c\u0d2a\u0d47\u0d1f\u0d4d\u0d1f\u0d4d",
          "name:te": "\u0c05\u0c2e\u0c40\u0c30\u0c4d\u200c\u0c2a\u0c47\u0c1f\u0c4d",
          "network": "Hyderabad Metro",
          "note": "Contributors are requested to not edit the \"network\" and the \"operator\" tags. (2023/11/08)",
          "operator": "Hyderabad Metro Rail Limited",
          "public_transport": "station",
          "public_transport:version": "2",
          "railway": "station",
          "station": "subway",
          "subway": "yes",
          "wikidata": "Q56701862",
          "wikipedia": "en:Ameerpet metro station"
        }
      },
      {
        "type": "node",
        "id": 6672440858,
        "lat": 17.4351132,
        "lon": 78.4273216,
        "tags": {
          "name": "Yusufguda",
          "name:ml": "\u0d2f\u0d42\u0d38\u0d41\u0d2b\u0d4d\u0d17\u0d41\u0d21",
          "name:te": "\u0c2f\u0c42\u0c38\u0c41\u0c2b\u0c4d\u200c\u0c17\u0c42\u0c21",
          "name:ur": "\u06cc\u0648\u0633\u0641 \u06af\u0648\u0691\u06c1",
          "network": "Hyderabad Metro",
          "note": "Contributors are requested to not edit the \"network\" and the \"operator\" tags. (2023/11/08)",
          "operator": "Hyderabad Metro Rail Limited",
          "public_transport": "station",
          "railway": "station",
          "station": "subway",
          "subway": "yes",
          "wikidata": "Q85518572"
        }
      },
      {
        "type": "node",
        "id": 6700511122,
        "lat": 17.4352864,
        "lon": 78.4447834,
        "tags": {
          "name": "Ameerpet (Blue Line)",
          "name:ml": "\u0d05\u0d2e\u0d40\u0d7c\u0d2a\u0d47\u0d1f\u0d4d\u0d1f\u0d4d",
          "name:te": "\u0c05\u0c2e\u0c40\u0c30\u0c4d\u200c\u0c2a\u0c47\u0c1f\u0c4d",
          "network": "Hyderabad Metro",
          "note": "Contributors are requested to not edit the \"network\" and the \"operator\" tags. (2023/11/08)",
          "operator": "Hyderabad Metro Rail Limited",
          "public_transport": "station",
          "public_transport:version": "2",
          "railway": "station",
          "station": "subway",
          "subway": "yes",
          "wikidata": "Q56701862",
          "wikipedia": "en:Ameerpet metro station"
        }
      },
      {
        "type": "node",
        "id": 6771713701,
        "lat": 17.4267669,
        "lon": 78.4531002,
        "tags": {
          "addr:city": "Hyderabad",
          "addr:state": "Telangana",
          "addr:street": "Punjagutta",
          "air_conditioning": "yes",
          "amenity": "cinema",
          "brand": "PVR Cinemas",
          "brand:wikidata": "Q3359908",
          "description": "it is a place for wa\ntching movies",
          "name": "PVR Cinemas",
          "short_name": "PVR"
        }
      },
      {
        "type": "node",
        "id": 7052069766,
        "lat": 17.4448889,
        "lon": 78.4658749,
        "tags": {
          "name": "Prakash Nagar",
          "name:ml": "\u0d2a\u0d4d\u0d30\u0d15\u0d3e\u0d36\u0d4d \u0d28\u0d17\u0d7c",
          "name:te": "\u0c2a\u0c4d\u0c30\u0c15\u0c3e\u0c36\u0c4d\u200c\u0c28\u0c17\u0c30\u0c4d",
          "name:ur": "\u067e\u0631\u06a9\u0627\u0634 \u0646\u06af\u0631",
          "network": "Hyderabad Metro",
          "note": "Contributors are requested to not edit the \"network\" and the \"operator\" tags. (2023/11/08)",
          "operator": "Hyderabad Metro Rail Limited",
          "public_transport": "station",
          "railway": "station",
          "station": "subway",
          "subway": "yes",
          "wikidata": "Q84499965"
        }
      },
      {
        "type": "node",
        "id": 7052069769,
        "lat": 17.4369785,
        "lon": 78.4390865,
        "tags": {
          "alt_name": "Taruni Madhura Nagar",
          "name": "Madhura Nagar",
          "name:te": "\u0c2e\u0c27\u0c41\u0c30 \u0c28\u0c17\u0c30\u0c4d",
          "network": "Hyderabad Metro",
          "note": "Contributors are requested to not edit the \"network\" and the \"operator\" tags. (2023/11/08)",
          "operator": "Hyderabad Metro Rail Limited",
          "public_transport": "stop_position",
          "railway": "stop",
          "subway": "yes"
        }
      },
      {
        "type": "node",
        "id": 7052069770,
        "lat": 17.4369652,
        "lon": 78.4390993,
        "tags": {
          "alt_name": "Taruni Madhura Nagar",
          "name": "Madhura Nagar",
          "name:ml": "\u0d2e\u0d27\u0d41\u0d30 \u0d28\u0d17\u0d7c",
          "name:te": "\u0c2e\u0c27\u0c41\u0c30 \u0c28\u0c17\u0c30\u0c4d",
          "name:ur": "\u0645\u062f\u06be\u0648\u0631\u0627 \u0646\u06af\u0631",
          "network": "Hyderabad Metro",
          "note": "Contributors are requested to not edit the \"network\" and the \"operator\" tags. (2023/11/08)",
          "operator": "Hyderabad Metro Rail Limited",
          "public_transport": "station",
          "railway": "station",
          "station": "subway",
          "subway": "yes",
          "wikidata": "Q63250572"
        }
      },
      {
        "type": "node",
        "id": 7052069771,
        "lat": 17.4351156,
        "lon": 78.4273014,
        "tags": {
          "name": "Yusufguda",
          "name:te": "\u0c2f\u0c42\u0c38\u0c41\u0c2b\u0c4d\u200c\u0c17\u0c42\u0c21",
          "network": "Hyderabad Metro",
          "note": "Contributors are requested to not edit the \"network\" and the \"operator\" tags. (2023/11/08)",
          "operator": "Hyderabad Metro Rail Limited",
          "public_transport": "stop_position",
          "railway": "stop",
          "subway": "yes"
        }
      },
      {
        "type": "node",
        "id": 7180086061,
        "lat": 17.435901,
        "lon": 78.4273843,
        "tags": {
          "amenity": "fuel",
          "brand": "Hindustan Petroleum",
          "brand:wikidata": "Q1619375",
          "brand:wikipedia": "en:Hindustan Petroleum",
          "name": "HP",
          "official_name": "Hindustan Petroleum"
        }
      },
      {
        "type": "node",
        "id": 8113828150,
        "lat": 17.449229,
        "lon": 78.4496696,
        "tags": {
          "addr:city": "Hyderabad",
          "addr:postcode": "500018",
          "addr:street": "Balakampet",
          "amenity": "fuel",
          "brand": "Bharat Petroleum",
          "brand:wikidata": "Q854826",
          "brand:wikipedia": "en:Bharat Petroleum",
          "name": "Bharat Petroleum"
        }
      },
      {
        "type": "node",
        "id": 10789422582,
        "lat": 17.4346495,
        "lon": 78.448776,
        "tags": {
          "addr:city": "Hyderabad",
          "addr:state": "Telangana",
          "air_conditioning": "yes",
          "amenity": "cinema",
          "min_age": "18",
          "name": "Sheesh Mahal"
        }
      },
      {
        "type": "node",
        "id": 10789422583,
        "lat": 17.4371929,
        "lon": 78.448703,
        "tags": {
          "addr:city": "Hyderabad",
          "addr:state": "Telangana",
          "addr:street": "Ameerpet",
          "air_conditioning": "yes",
          "amenity": "cinema",
          "branch": "Ameerpet",
          "brand": "Asian",
          "name": "AAA Cinemas"
        }
      },
      {
        "type": "node",
        "id": 10789477897,
        "lat": 17.4286801,
        "lon": 78.4504275,
        "tags": {
          "addr:city": "Hyderabad",
          "addr:state": "Telangana",
          "addr:street": "Punjagutta",
          "air_conditioning": "yes",
          "amenity": "cinema",
          "branch": "Punjagutta",
          "brand": "PVR Cinemas",
          "brand:wikidata": "Q3359908",
          "name": "PVR Next Galleria",
          "short_name": "PVR",
          "wheelchair": "yes"
        }
      },
      {
        "type": "node",
        "id": 10789488362,
        "lat": 17.4208001,
        "lon": 78.4554217,
        "tags": {
          "addr:city": "Hyderabad",
          "addr:state": "Telangana",
          "addr:street": "Irrum manzil Road",
          "air_conditioning": "yes",
          "amenity": "cinema",
          "branch": "Irrum Manzil",
          "brand": "PVR Cinemas",
          "brand:wikidata": "Q3359908",
          "name": "PVR Next premia",
          "short_name": "PVR",
          "wheelchair": "yes"
        }
      },
      {
        "type": "node",
        "id": 11027534565,
        "lat": 17.4304735,
        "lon": 78.4483917,
        "tags": {
          "amenity": "cinema"
        }
      },
      {
        "type": "node",
        "id": 11738179192,
        "lat": 17.4209654,
        "lon": 78.4558011,
        "tags": {
          "addr:city": "Hyderabad",
          "addr:city:ar": "\u062d\u064a\u062f\u0631 \u0622\u0628\u0627\u062f",
          "addr:city:ur": "\u062d\u06cc\u062f\u0631\u0622\u0628\u0627\u062f",
          "name": "Irrum Manzil",
          "name:ml": "\u0d0e\u0d31\u0d02 \u0d2e\u0d7b\u0d38\u0d3f\u0d7d",
          "name:te": "\u0c07\u0c31\u0c02 \u0c2e\u0c02\u0c1c\u0c3f\u0c32\u0c4d",
          "network": "Hyderabad Metro",
          "note": "Contributors are requested to not edit the \"network\" and the \"operator\" tags. (2023/11/08)",
          "operator": "Hyderabad Metro Rail Limited",
          "public_transport": "stop_position",
          "public_transport:version": "2",
          "railway": "stop",
          "subway": "yes"
        }
      },
      {
        "type": "node",
        "id": 11738179193,
        "lat": 17.4205559,
        "lon": 78.456101,
        "tags": {
          "internet_access": "no",
          "name": "Irrum Manzil",
          "name:ml": "\u0d0e\u0d31\u0d02 \u0d2e\u0d7b\u0d38\u0d3f\u0d7d",
          "name:te": "\u0c07\u0c31\u0c02 \u0c2e\u0c02\u0c1c\u0c3f\u0c32\u0c4d",
          "name:ur": "\u0627\u0631\u0645 \u0645\u0646\u0632\u0644",
          "network": "Hyderabad Metro",
          "note": "Contributors are requested to not edit the \"network\" and the \"operator\" tags. (2023/11/08)",
          "operator": "Hyderabad Metro Rail Limited",
          "public_transport": "station",
          "railway": "station",
          "station": "subway",
          "subway": "yes",
          "website": "https://hmrl.co.in",
          "wheelchair": "yes",
          "wikidata": "Q85770033"
        }
      },
      {
        "type": "node",
        "id": 11738179195,
        "lat": 17.4474042,
        "lon": 78.4383501,
        "tags": {
          "internet_access": "no",
          "name": "ESI Hospital",
          "name:ml": "\u0d07.\u0d0e\u0d38\u0d4d.\u0d10 \u0d06\u0d36\u0d41\u0d2a\u0d24\u0d4d\u0d30\u0d3f",
          "name:te": "\u0c08.\u0c0e\u0c38\u0c4d.\u0c10 \u0c06\u0c38\u0c4d\u0c2a\u0c24\u0c4d\u0c30\u0c3f",
          "network": "Hyderabad Metro",
          "note": "Contributors are requested to not edit the \"network\" and the \"operator\" tags. (2023/11/08)",
          "operator": "Hyderabad Metro Rail Limited",
          "public_transport": "station",
          "railway": "station",
          "station": "subway",
          "subway": "yes",
          "website": "https://hmrl.co.in",
          "wheelchair": "yes",
          "wikidata": "Q83008743"
        }
      },
      {
        "type": "node",
        "id": 11738179216,
        "lat": 17.4477279,
        "lon": 78.4381333,
        "tags": {
          "addr:city": "Hyderabad",
          "addr:city:ar": "\u062d\u064a\u062f\u0631 \u0622\u0628\u0627\u062f",
          "addr:city:ur": "\u062d\u06cc\u062f\u0631\u0622\u0628\u0627\u062f",
          "name": "ESI Hospital",
          "name:ml": "\u0d07.\u0d0e\u0d38\u0d4d.\u0d10 \u0d06\u0d36\u0d41\u0d2a\u0d24\u0d4d\u0d30\u0d3f",
          "name:te": "\u0c08.\u0c0e\u0c38\u0c4d.\u0c10 \u0c06\u0c38\u0c4d\u0c2a\u0c24\u0c4d\u0c30\u0c3f",
          "network": "Hyderabad Metro",
          "note": "Contributors are requested to not edit the \"network\" and the \"operator\" tags. (2023/11/08)",
          "operator": "Hyderabad Metro Rail Limited",
          "public_transport": "stop_position",
          "public_transport:version": "2",
          "railway": "stop",
          "subway": "yes"
        }
      },
      {
        "type": "node",
        "id": 11738663633,
        "lat": 17.4286312,
        "lon": 78.4511322,
        "tags": {
          "internet_access": "no",
          "name": "Panjagutta",
          "name:ml": "\u0d2a\u0d1e\u0d4d\u0d1a\u0d17\u0d41\u0d1f\u0d4d\u0d1f",
          "name:te": "\u0c2a\u0c02\u0c1c\u0c3e\u0c17\u0c41\u0c1f\u0c4d\u0c1f",
          "name:ur": "\u067e\u0646\u062c\u06c1 \u06af\u0679\u06c1",
          "network": "Hyderabad Metro",
          "note": "Contributors are requested to not edit the \"network\" and the \"operator\" tags. (2023/11/08)",
          "operator": "Hyderabad Metro Rail Limited",
          "public_transport": "station",
          "railway": "station",
          "station": "subway",
          "subway": "yes",
          "website": "https://hmrl.co.in",
          "wheelchair": "yes"
        }
      }
    ]
  }
}