{
  "pois_1km": {
    "version": 0.6,
    "generator": "Overpass API 0.7.62.8 e802775f",
    "osm3s": {
      "timestamp_osm_base": "2025-09-07T11:32:35Z",
      "copyright": "The data included in this document is from www.openstreetmap.org. The data is made available under ODbL."
    },
    "elements": [
      {
        "type": "node",
        "id": 283163978,
        "lat": 18.5167868,
        "lon": 73.8791405,
        "tags": {
          "address": "5 M. G. Road",
          "amenity": "restaurant",
          "name": "The Charcoal Pit"
        }
      },
      {
        "type": "node",
        "id": 669519722,
        "lat": 18.5191906,
        "lon": 73.877407,
        "tags": {
          "amenity": "fast_food",
          "brand": "McDonald's",
          "brand:pa": "\u0a2e\u0a48\u0a15\u0a21\u0a4b\u0a28\u0a32\u0a21\u2019\u0a1c\u0a3c",
          "brand:ur": "\u0645\u06a9\u0688\u0648\u0646\u0644\u0688\u0632",
          "brand:wikidata": "Q38076",
          "brand:wikipedia": "en:McDonald's",
          "brand:wikipedia:pa": "\u0a2e\u0a48\u0a15\u0a21\u0a4b\u0a28\u0a32\u0a21\u2019\u0a1c\u0a3c",
          "brand:wikipedia:ur": "\u0645\u06a9\u0688\u0648\u0646\u0644\u0688\u0632",
          "cuisine": "burger",
          "name": "McDonald's",
          "name:pa": "\u0a2e\u0a48\u0a15\u0a21\u0a4b\u0a28\u0a32\u0a21\u2019\u0a1c\u0a3c",
          "name:ur": "\u0645\u06a9\u0688\u0648\u0646\u0644\u0688\u0632",
          "takeaway": "yes"
        }
      },
      {
        "type": "node",
        "id": 671445777,
        "lat": 18.5104212,
        "lon": 73.8799164,
        "tags": {
          "addr:city": "Pune",
          "addr:country": "IN",
          "addr:postcode": "411001",
          "addr:state": "Maharashtra",
          "addr:street": "East Street",
          "amenity": "restaurant",
          "internet_access": "no",
          "name": "Thousand Oaks",
          "outdoor_seating": "no",
          "phone": "+91 20 26343194",
          "smoking": "no",
          "takeaway": "yes",
          "website": "1000oaksindia.com"
        }
      },
      {
        "type": "node",
        "id": 671446340,
        "lat": 18.5199422,
        "lon": 73.8804464,
        "tags": {
          "addr:city": "Pune",
          "addr:country": "IN",
          "addr:housenumber": "Virwani Plaza 11",
          "addr:postcode": "411001",
          "addr:state": "Maharashtra",
          "addr:street": "East Street",
          "amenity": "restaurant",
          "internet_access": "no",
          "name": "11 East Street Cafe",
          "outdoor_seating": "yes",
          "phone": "+91 20 41045500",
          "smoking": "yes",
          "takeaway": "yes"
        }
      },
      {
        "type": "node",
        "id": 671452972,
        "lat": 18.5140857,
        "lon": 73.8796502,
        "tags": {
          "amenity": "restaurant",
          "name": "Kareem's"
        }
      },
      {
        "type": "node",
        "id": 671455417,
        "lat": 18.5165106,
        "lon": 73.8790851,
        "tags": {
          "amenity": "cafe",
          "name": "Marz-O-Rin"
        }
      },
      {
        "type": "node",
        "id": 671465865,
        "lat": 18.5150767,
        "lon": 73.8799074,
        "tags": {
          "amenity": "restaurant",
          "name": "Kwality"
        }
      },
      {
        "type": "node",
        "id": 672119121,
        "lat": 18.5124763,
        "lon": 73.880839,
        "tags": {
          "amenity": "restaurant",
          "name": "Sheetal Arch"
        }
      },
      {
        "type": "node",
        "id": 672232247,
        "lat": 18.5187719,
        "lon": 73.8772441,
        "tags": {
          "amenity": "cafe",
          "name": "Coffee House"
        }
      },
      {
        "type": "node",
        "id": 672232340,
        "lat": 18.5191213,
        "lon": 73.8785611,
        "tags": {
          "amenity": "restaurant",
          "name": "Ram Krishna"
        }
      },
      {
        "type": "node",
        "id": 789623167,
        "lat": 18.5217526,
        "lon": 73.8774667,
        "tags": {
          "amenity": "restaurant",
          "name": "Blue Nile",
          "wheelchair": "limited"
        }
      },
      {
        "type": "node",
        "id": 789630715,
        "lat": 18.5173226,
        "lon": 73.8794126,
        "tags": {
          "amenity": "restaurant",
          "diet:non-vegetarian": "yes",
          "diet:vegetarian": "yes",
          "name": "George",
          "name:mr": "\u091c\u0949\u0930\u094d\u091c"
        }
      },
      {
        "type": "node",
        "id": 811226430,
        "lat": 18.5208896,
        "lon": 73.8725539,
        "tags": {
          "amenity": "restaurant",
          "name": "Mahesh Lunch Home"
        }
      },
      {
        "type": "node",
        "id": 824468982,
        "lat": 18.519486,
        "lon": 73.8772595,
        "tags": {
          "amenity": "fast_food",
          "name": "Yo! China"
        }
      },
      {
        "type": "node",
        "id": 824469199,
        "lat": 18.521763,
        "lon": 73.8763897,
        "tags": {
          "amenity": "fast_food",
          "brand": "KFC",
          "brand:pa": "\u0a15\u0a47\u0a10\u0a2b\u0a38\u0a40",
          "brand:ur": "\u06a9\u06cc\u0646\u0679\u06a9\u06cc \u0641\u0631\u0627\u0626\u06cc\u0688 \u0686\u06a9\u0646",
          "brand:wikidata": "Q524757",
          "brand:wikipedia": "en:KFC",
          "brand:wikipedia:pa": "\u0a15\u0a47\u0a10\u0a2b\u0a38\u0a40",
          "brand:wikipedia:ur": "\u06a9\u06cc\u0646\u0679\u06a9\u06cc \u0641\u0631\u0627\u0626\u06cc\u0688 \u0686\u06a9\u0646",
          "cuisine": "chicken",
          "name": "KFC",
          "name:pa": "\u0a15\u0a47\u0a10\u0a2b\u0a38\u0a40",
          "name:ur": "\u06a9\u06cc\u0646\u0679\u06a9\u06cc \u0641\u0631\u0627\u0626\u06cc\u0688 \u0686\u06a9\u0646",
          "takeaway": "yes"
        }
      },
      {
        "type": "node",
        "id": 824469850,
        "lat": 18.5181975,
        "lon": 73.8793295,
        "tags": {
          "amenity": "cafe",
          "name": "Barista Lavazza"
        }
      },
      {
        "type": "node",
        "id": 936411065,
        "lat": 18.5169144,
        "lon": 73.8794546,
        "tags": {
          "amenity": "restaurant",
          "name": "Chung Fa"
        }
      },
      {
        "type": "node",
        "id": 936411462,
        "lat": 18.5166042,
        "lon": 73.8795245,
        "tags": {
          "amenity": "restaurant",
          "name": "Mayur Thali"
        }
      },
      {
        "type": "node",
        "id": 1242067056,
        "lat": 18.5191455,
        "lon": 73.8775238,
        "tags": {
          "amenity": "restaurant",
          "brand": "Pizza Hut",
          "brand:wikidata": "Q191615",
          "brand:wikipedia": "en:Pizza Hut",
          "cuisine": "pizza",
          "name": "Pizza Hut"
        }
      },
      {
        "type": "node",
        "id": 1846908244,
        "lat": 18.5175183,
        "lon": 73.8748581,
        "tags": {
          "amenity": "restaurant",
          "name": "Eddie's Kitchen"
        }
      },
      {
        "type": "node",
        "id": 4084794551,
        "lat": 18.5114711,
        "lon": 73.8781232,
        "tags": {
          "amenity": "cafe",
          "name": "Kailash Cold Drink House"
        }
      },
      {
        "type": "node",
        "id": 4084800454,
        "lat": 18.5114771,
        "lon": 73.8782146,
        "tags": {
          "amenity": "pharmacy",
          "name": "Raj Chemist"
        }
      },
      {
        "type": "node",
        "id": 4886970322,
        "lat": 18.5150213,
        "lon": 73.8687272,
        "tags": {
          "amenity": "atm",
          "operator": "Cosmos Bank"
        }
      },
      {
        "type": "node",
        "id": 7043487688,
        "lat": 18.5160339,
        "lon": 73.8792372,
        "tags": {
          "addr:district": "Pune",
          "addr:full": "No. 1A, Kumar Plaza, Next To Wonder Land, 8 M G Road M G Road",
          "addr:postcode": "411004",
          "addr:state": "Maharashtra",
          "amenity": "clinic",
          "name": "Aditya Eye Clinic, Pune",
          "source": "OpenGovernmentData"
        }
      },
      {
        "type": "node",
        "id": 7046910543,
        "lat": 18.5122188,
        "lon": 73.8762961,
        "tags": {
          "addr:district": "Pune",
          "addr:full": "2009, Gaffar baig Street, Opposite Charbawadi Police Station, Camp",
          "addr:postcode": "411001",
          "addr:state": "Maharashtra",
          "amenity": "hospital",
          "name": "Indira Maternity Home",
          "source": "OpenGovernmentData"
        }
      },
      {
        "type": "node",
        "id": 7051943843,
        "lat": 18.5152906,
        "lon": 73.8754553,
        "tags": {
          "addr:district": "Pune",
          "addr:full": "903, Sachapir Street, Next To Covent Camp",
          "addr:postcode": "411001",
          "addr:state": "Maharashtra",
          "amenity": "hospital",
          "name": "Rahel Hospital",
          "source": "OpenGovernmentData"
        }
      },
      {
        "type": "node",
        "id": 7052818652,
        "lat": 18.5109382,
        "lon": 73.8799037,
        "tags": {
          "addr:district": "Pune",
          "addr:full": "Office No. 202, 2nd Floor, A Wing, Gulmohor Apartments, Above State Bank Of India, East Street, Camp.",
          "addr:postcode": "411001",
          "addr:state": "Maharashtra",
          "amenity": "hospital",
          "name": "Dada Laser Eye Institute",
          "source": "OpenGovernmentData"
        }
      },
      {
        "type": "node",
        "id": 7063805549,
        "lat": 18.5142815,
        "lon": 73.8689294,
        "tags": {
          "addr:district": "Pune",
          "addr:full": "368/1 Nana Pwth 1st, Floor Ram Prasad Appt.",
          "addr:postcode": "411002",
          "addr:state": "Maharashtra",
          "amenity": "clinic",
          "healthcare": "clinic",
          "name": "Namrata Clinic",
          "source": "OpenGovernmentData"
        }
      },
      {
        "type": "node",
        "id": 7066880010,
        "lat": 18.5074956,
        "lon": 73.8788523,
        "tags": {
          "addr:district": "Pune",
          "addr:full": "Sector No.149. M.G.Road",
          "addr:postcode": "411001",
          "addr:state": "Maharashtra",
          "amenity": "clinic",
          "healthcare": "clinic",
          "name": "Usha Nursing Home",
          "source": "OpenGovernmentData"
        }
      },
      {
        "type": "node",
        "id": 7073879401,
        "lat": 18.5139534,
        "lon": 73.8781965,
        "tags": {
          "addr:district": "Pune",
          "addr:full": "Camp",
          "addr:postcode": "411001",
          "addr:state": "Maharashtra",
          "amenity": "clinic",
          "name": "Dr Meenu Agarwal Clinic",
          "source": "OpenGovernmentData"
        }
      },
      {
        "type": "node",
        "id": 7085878707,
        "lat": 18.5070645,
        "lon": 73.8782608,
        "tags": {
          "addr:district": "Pune",
          "addr:full": "2144,New Modikhana, Opposite Poolgate Police Chowky, Camp",
          "addr:postcode": "411001",
          "addr:state": "Maharashtra",
          "amenity": "hospital",
          "healthcare": "hospital",
          "name": "Kawedia Hospital",
          "source": "OpenGovernmentData"
        }
      },
      {
        "type": "node",
        "id": 7086910751,
        "lat": 18.5076152,
        "lon": 73.8760802,
        "tags": {
          "addr:district": "Pune",
          "addr:full": "No. 742/A, Dinshaw Apts,Bhawani Peth",
          "addr:postcode": "411001",
          "addr:state": "Maharashtra",
          "amenity": "clinic",
          "healthcare": "clinic",
          "name": "Swayam Clinic Pvt. Ltd.",
          "source": "OpenGovernmentData"
        }
      },
      {
        "type": "node",
        "id": 7226727441,
        "lat": 18.521872,
        "lon": 73.873118,
        "tags": {
          "addr:district": "Pune",
          "addr:full": "Jay Prakash Narayan Road, Railway Station, Pune",
          "addr:postcode": "411001",
          "addr:state": "Maharashtra",
          "addr:subdistrict": "Pune City",
          "amenity": "hospital",
          "healthcare": "hospital",
          "name": "Sasoon Hospital",
          "source": "OpenGovernmentData"
        }
      },
      {
        "type": "node",
        "id": 7651453328,
        "lat": 18.51988,
        "lon": 73.872171,
        "tags": {
          "addr:district": "Pune",
          "addr:full": "B6 Mittal Court, 478, Rasta Peth, Pune",
          "addr:postcode": "411011",
          "addr:state": "Maharastra",
          "amenity": "clinic",
          "name": "Dr. Otiv Clinic",
          "source": "Local Knowledge"
        }
      },
      {
        "type": "node",
        "id": 7651453329,
        "lat": 18.512445,
        "lon": 73.869389,
        "tags": {
          "addr:district": "Pune",
          "addr:full": "Ratan Chambers, Shekh Madarasha Kadari Road, Bhawani Peth, Pune",
          "addr:postcode": "411002",
          "addr:state": "Maharastra",
          "amenity": "hospital",
          "healthcare": "hospital",
          "name": "Kamat Hospital",
          "source": "Local Knowledge"
        }
      },
      {
        "type": "node",
        "id": 7651453339,
        "lat": 18.5086317,
        "lon": 73.8744506,
        "tags": {
          "addr:district": "Pune",
          "addr:full": "804, Mahatma Phule Rasta, Agarwal Colony, Sadar Bazaar, Pune",
          "addr:postcode": "411042",
          "addr:state": "Maharashtra",
          "amenity": "hospital",
          "healthcare": "hospital",
          "healthcare:speciality": "palliative;radiology;cancer_treatment",
          "name": "Vishranti Hospital",
          "source": "Local Knowledge;survey"
        }
      },
      {
        "type": "node",
        "id": 7651453340,
        "lat": 18.516314,
        "lon": 73.871996,
        "tags": {
          "addr:district": "Pune",
          "addr:full": "407/5(Old) 665 (New) Nana Peth, Opposite Christ Church, Near YMCA, Pune",
          "addr:postcode": "411002",
          "addr:state": "Maharastra",
          "amenity": "hospital",
          "healthcare": "hospital",
          "name": "Matru Seva Hospital;Pacharne Hospital",
          "source": "Local Knowledge"
        }
      },
      {
        "type": "node",
        "id": 7651453373,
        "lat": 18.5166948,
        "lon": 73.8782288,
        "tags": {
          "addr:district": "Pune",
          "addr:full": "West Cottage, Taboot Street, Opposite Dabolkar Press, Pune",
          "addr:postcode": "411001",
          "addr:state": "Maharastra",
          "amenity": "doctors",
          "name": "Dr. Pradeep Divate",
          "source": "Local Knowledge"
        }
      },
      {
        "type": "node",
        "id": 7651453387,
        "lat": 18.5075529,
        "lon": 73.876507,
        "tags": {
          "addr:district": "Pune",
          "addr:full": "2158, Balanna Nimal Marg, New Modikhana, Katad Khana, Pune",
          "addr:postcode": "411001",
          "addr:state": "Maharastra",
          "amenity": "doctors",
          "healthcare": "doctor",
          "name": "Dr. Seema Shaikh",
          "source": "Local Knowledge"
        }
      },
      {
        "type": "node",
        "id": 7651453409,
        "lat": 18.5143478,
        "lon": 73.868913,
        "tags": {
          "addr:district": "Pune",
          "addr:full": "House No, 368, Jawaharlal Nehru Road, New Nana Peth, Ganesh Peth, Pune",
          "addr:postcode": "411002",
          "addr:state": "Maharashtra",
          "amenity": "hospital",
          "healthcare": "hospital",
          "name": "Kirad Hospital",
          "source": "Local Knowledge"
        }
      },
      {
        "type": "node",
        "id": 7651453415,
        "lat": 18.5126915,
        "lon": 73.869516,
        "tags": {
          "addr:district": "Pune",
          "addr:full": "New Nana Peth, Ganesh Peth, Pune",
          "addr:postcode": "411002",
          "addr:state": "Maharastra",
          "amenity": "hospital",
          "healthcare": "hospital",
          "name": "Hope Hospital",
          "source": "Local Knowledge"
        }
      },
      {
        "type": "node",
        "id": 8261226358,
        "lat": 18.5113271,
        "lon": 73.8765134,
        "tags": {
          "addr:city": "Pune",
          "addr:postcode": "411001",
          "addr:street": "Dr Bhupesh kumar kaware,oppo- camp education  society,oppo bajbarn chowk,camp",
          "amenity": "clinic",
          "healthcare": "clinic",
          "healthcare:speciality": "nephrology",
          "name": "Dr Bhupeshkumar Kaware",
          "website": "https://www.drkawarekidneycarepune.in/"
        }
      },
      {
        "type": "node",
        "id": 8261294865,
        "lat": 18.5180162,
        "lon": 73.8793029,
        "tags": {
          "addr:city": "Pune",
          "addr:housenumber": "214",
          "addr:postcode": "411001",
          "addr:street": "2nd floor, Sterling Tower, Opposite Hotel Arora Towers, Camp",
          "amenity": "clinic",
          "healthcare": "clinic",
          "healthcare:speciality": "endocrinology",
          "name": "Diabetologist Endocrinologist In Pune - Dr Milind Patil SHRI SWAMI DIABETES,& ENDOCRINE CENTER",
          "website": "https://www.swamiclinic.in/"
        }
      },
      {
        "type": "node",
        "id": 8261638091,
        "lat": 18.5199725,
        "lon": 73.8720724,
        "tags": {
          "addr:city": "Pune",
          "addr:housenumber": "478",
          "addr:postcode": "411011",
          "addr:street": "Mittal Court, 3rd Floor, near samarth police station, Rasta Peth",
          "amenity": "clinic",
          "healthcare": "clinic",
          "healthcare:speciality": "Consulting_Pediatrician_and_Neonatologist;Urologist",
          "name": "SNEH CHILD CARE CLINIC",
          "website": "https://www.drdesalechildclinic.in/"
        }
      },
      {
        "type": "node",
        "id": 8266067580,
        "lat": 18.5231703,
        "lon": 73.8766107,
        "tags": {
          "addr:city": "Pune",
          "addr:housenumber": "1st Floor",
          "addr:postcode": "411001",
          "addr:street": "Connaught Plaza, Above Sahara Dining Hall, Opposite G.P.O, Camp",
          "amenity": "clinic",
          "healthcare": "clinic",
          "healthcare:speciality": "paediatrics",
          "name": "Dr Leena Hiremath",
          "website": "https://www.drleenahiremath.com/"
        }
      },
      {
        "type": "node",
        "id": 8375570707,
        "lat": 18.5199427,
        "lon": 73.8721146,
        "tags": {
          "addr:city": "Pune",
          "addr:postcode": "411011",
          "addr:street": "SPINE CLINIC .Block No. -18, '\"B\"\" Wing, 3rd Floor,, MITTAL COURT,Near Shantai Hotel, Rastapeeth",
          "amenity": "clinic",
          "healthcare": "clinic",
          "healthcare:speciality": "spine;Spine_Specialist",
          "name": "Partly cloudy Dr. Sanjay Patil | Spine Surgeon",
          "website": "https://spinespecialistpune.in/"
        }
      },
      {
        "type": "node",
        "id": 9022991240,
        "lat": 18.5198011,
        "lon": 73.8712374,
        "tags": {
          "addr:city": "pune",
          "addr:housenumber": "Flat no 1,1st floor,",
          "addr:postcode": "411011",
          "addr:street": "Rajbharati building, opposite Hotel Shantai, Rasta Peth, Pune, Maharashtra 411011",
          "amenity": "clinic",
          "healthcare": "clinic",
          "healthcare:speciality": "paediatrics",
          "name": "Sneh Child Care Clinic",
          "website": "https://www.drdesalechildclinic.in/"
        }
      },
      {
        "type": "node",
        "id": 9055379286,
        "lat": 18.5211477,
        "lon": 73.872096,
        "tags": {
          "leisure": "park",
          "name": "J J Garden"
        }
      },
      {
        "type": "node",
        "id": 9090380090,
        "lat": 18.5191226,
        "lon": 73.8759631,
        "tags": {
          "amenity": "cafe",
          "name": "best cafe",
          "opening_hours": "Mo-Su 09:00-21:00"
        }
      },
      {
        "type": "node",
        "id": 9128917148,
        "lat": 18.5216088,
        "lon": 73.8792163,
        "tags": {
          "amenity": "cafe",
          "name": "cafe  coffee  day",
          "opening_hours": "Mo-Su 10:00-22:00"
        }
      },
      {
        "type": "node",
        "id": 9150715806,
        "lat": 18.5141427,
        "lon": 73.8796771,
        "tags": {
          "shop": "supermarket"
        }
      },
      {
        "type": "node",
        "id": 9314473941,
        "lat": 18.521665,
        "lon": 73.8717493,
        "tags": {
          "addr:city": "Pune",
          "addr:housenumber": "Camp",
          "addr:postcode": "411001",
          "addr:street": "Babasaheb Ambedkar Marg",
          "amenity": "restaurant",
          "cuisine": "pizza;italian",
          "diet:non-vegetarian": "yes",
          "name": "signature",
          "opening_hours": "Mo-Su 10:00-22:00"
        }
      },
      {
        "type": "node",
        "id": 9620616342,
        "lat": 18.5199582,
        "lon": 73.8721693,
        "tags": {
          "addr:city": "Pune",
          "addr:postcode": "411011",
          "addr:street": "Shop 13,14,15/B,#478 Ground floor , Mittal Court, Rasta Peth",
          "amenity": "clinic",
          "healthcare": "clinic",
          "healthcare:speciality": "general_practice;general",
          "name": "Dr. Bharat Patel Clinic",
          "opening_hours": "24/7",
          "operator": "Novosalus",
          "operator:type": "private",
          "website": "https://www.drbharatpatel.com/"
        }
      },
      {
        "type": "node",
        "id": 10172902304,
        "lat": 18.5157161,
        "lon": 73.8688388,
        "tags": {
          "amenity": "hospital",
          "healthcare": "hospital",
          "name": "Modern Hospital"
        }
      },
      {
        "type": "node",
        "id": 10172926367,
        "lat": 18.5152955,
        "lon": 73.8754518,
        "tags": {
          "amenity": "hospital",
          "healthcare": "hospital",
          "name": "kedari Hospital"
        }
      },
      {
        "type": "node",
        "id": 10172942165,
        "lat": 18.5140768,
        "lon": 73.8692464,
        "tags": {
          "amenity": "hospital",
          "healthcare": "hospital",
          "name": "Panchsheel Hospital"
        }
      },
      {
        "type": "node",
        "id": 10172942172,
        "lat": 18.508112,
        "lon": 73.8751436,
        "tags": {
          "amenity": "hospital",
          "healthcare": "hospital",
          "name": "G.M Babubbhai Memo Hospital"
        }
      },
      {
        "type": "node",
        "id": 10556239109,
        "lat": 18.5070106,
        "lon": 73.8785176,
        "tags": {
          "amenity": "restaurant",
          "name": "Tryluck"
        }
      },
      {
        "type": "node",
        "id": 11005408870,
        "lat": 18.5165134,
        "lon": 73.8794275,
        "tags": {
          "addr:floor": "1",
          "amenity": "restaurant",
          "check_date": "2023-06-25",
          "cuisine": "pizza;thali;indian",
          "diet:vegetarian": "yes",
          "level": "1",
          "name": "Sahana",
          "name:en": "Sahana",
          "name:mr": "\u0938\u0939\u093e\u0928\u093e",
          "wheelchair": "no"
        }
      },
      {
        "type": "node",
        "id": 11156965615,
        "lat": 18.5100718,
        "lon": 73.8834089,
        "tags": {
          "leisure": "park"
        }
      },
      {
        "type": "node",
        "id": 11157056411,
        "lat": 18.5100829,
        "lon": 73.8836888,
        "tags": {
          "leisure": "park"
        }
      },
      {
        "type": "node",
        "id": 11157056412,
        "lat": 18.5100645,
        "lon": 73.8836982,
        "tags": {
          "leisure": "park"
        }
      },
      {
        "type": "node",
        "id": 11157574367,
        "lat": 18.509665,
        "lon": 73.8836028,
        "tags": {
          "leisure": "park"
        }
      },
      {
        "type": "node",
        "id": 12140543530,
        "lat": 18.5167392,
        "lon": 73.8794616,
        "tags": {
          "amenity": "restaurant",
          "cuisine": "chinese;thai;asian",
          "diet:fish": "yes",
          "diet:halal": "yes",
          "diet:non-vegetarian": "yes",
          "diet:vegetarian": "yes",
          "name": "Chinese Room",
          "phone": "02026131336"
        }
      },
      {
        "type": "node",
        "id": 12688228858,
        "lat": 18.5075527,
        "lon": 73.8790934,
        "tags": {
          "addr:city": "Pune",
          "addr:district": "Pune",
          "addr:housenumber": "shop no 4,",
          "addr:postcode": "411001",
          "addr:street": "Pulgate Chowk, Radiant Prime Arcade, East St, Camp",
          "amenity": "restaurant",
          "cuisine": "cake",
          "diet:vegetarian": "yes",
          "name": "Cake Story Desserts",
          "opening_hours": "Mo-Su 09:00-23:00",
          "phone": "+91-9607-332727",
          "website": "https://maps.app.goo.gl/WbGgRxeb9bvxuAfp8"
        }
      },
      {
        "type": "node",
        "id": 13028616259,
        "lat": 18.5182802,
        "lon": 73.8800352,
        "tags": {
          "addr:city": "Pune",
          "addr:district": "Pune District",
          "addr:postcode": "411001",
          "amenity": "cafe",
          "cuisine": "irani;coffee_shop",
          "name": "Diamond Queen"
        }
      }
    ]
  },
  "pois_2_5km": {
    "version": 0.6,
    "generator": "Overpass API 0.7.62.8 e802775f",
    "osm3s": {
      "timestamp_osm_base": "2025-09-07T11:33:41Z",
      "copyright": "The data included in this document is from www.openstreetmap.org. The data is made available under ODbL."
    },
    "elements": [
      {
        "type": "node",
        "id": 343304315,
        "lat": 18.5288773,
        "lon": 73.8744146,
        "tags": {
          "addr:city": "Pune",
          "addr:housenumber": "Near Jahangir Hospital",
          "addr:street": "Sassoon Marg",
          "internet_access": "wlan",
          "name": "Pune Junction",
          "name:ta": "\u092a\u0941\u0923\u0947 \u091c\u0902\u0915\u094d\u0936\u0928",
          "network": "IR",
          "operator": "CR",
          "public_transport": "station",
          "railway": "station",
          "ref": "PUNE",
          "train": "yes",
          "wikidata": "Q3632576",
          "wikipedia": "en:Pune Junction railway station"
        }
      },
      {
        "type": "node",
        "id": 513129409,
        "lat": 18.5067839,
        "lon": 73.8979581,
        "tags": {
          "addr:city": "Pune",
          "addr:country": "IN",
          "addr:postcode": "411040",
          "addr:state": "Maharashtra",
          "addr:street": "Solapur Road",
          "amenity": "fuel",
          "atm": "no",
          "fuel": "yes"
        }
      },
      {
        "type": "node",
        "id": 633121822,
        "lat": 18.5211848,
        "lon": 73.8647837,
        "tags": {
          "bus": "yes",
          "highway": "bus_stop",
          "name": "Raste Wada",
          "name:mr": "\u0930\u093e\u0938\u094d\u0924\u0947 \u0935\u093e\u0921\u093e",
          "public_transport": "stop_position"
        }
      },
      {
        "type": "node",
        "id": 671453565,
        "lat": 18.5145465,
        "lon": 73.8794763,
        "tags": {
          "amenity": "cinema",
          "name": "Victory Cinema"
        }
      },
      {
        "type": "node",
        "id": 671463284,
        "lat": 18.5185312,
        "lon": 73.8779625,
        "tags": {
          "amenity": "cinema",
          "name": "West End"
        }
      },
      {
        "type": "node",
        "id": 672219354,
        "lat": 18.5244565,
        "lon": 73.8721359,
        "tags": {
          "bus": "yes",
          "highway": "bus_stop",
          "name": "Collector Kacheri",
          "name:mr": "\u0915\u0932\u0947\u0915\u094d\u091f\u0930 \u0915\u091a\u0947\u0930\u0940",
          "public_transport": "stop_position"
        }
      },
      {
        "type": "node",
        "id": 672220644,
        "lat": 18.5244012,
        "lon": 73.8716998,
        "tags": {
          "bus": "yes",
          "highway": "bus_stop",
          "name": "Collector Kacheri",
          "name:mr": "\u0915\u0932\u0947\u0915\u094d\u091f\u0930 \u0915\u091a\u0947\u0930\u0940",
          "public_transport": "stop_position"
        }
      },
      {
        "type": "node",
        "id": 672225961,
        "lat": 18.5268449,
        "lon": 73.8778583,
        "tags": {
          "amenity": "cinema",
          "name": "Inox",
          "name:mr": "\u0906\u092f\u0928\u0949\u0915\u094d\u0938"
        }
      },
      {
        "type": "node",
        "id": 811249554,
        "lat": 18.5265124,
        "lon": 73.877173,
        "tags": {
          "amenity": "bus_station",
          "bus": "yes",
          "internet_access": "no",
          "name": "Pune Railway Station Bus Depot",
          "network": "PMPML",
          "operator": "PMPML",
          "public_transport": "station"
        }
      },
      {
        "type": "node",
        "id": 1214683436,
        "lat": 18.5067845,
        "lon": 73.8855356,
        "tags": {
          "amenity": "fuel"
        }
      },
      {
        "type": "node",
        "id": 1223950732,
        "lat": 18.5257119,
        "lon": 73.8769058,
        "tags": {
          "amenity": "fuel"
        }
      },
      {
        "type": "node",
        "id": 2257797308,
        "lat": 18.528148,
        "lon": 73.8939317,
        "tags": {
          "internet_access": "no",
          "name": "Ghorpuri",
          "name:mr": "\u0918\u094b\u0930\u092a\u0921\u0940",
          "network": "IR",
          "operator": "CR",
          "public_transport": "station",
          "railway": "station",
          "ref": "GPR",
          "train": "yes",
          "wikidata": "Q18125106"
        }
      },
      {
        "type": "node",
        "id": 2257797322,
        "lat": 18.5281002,
        "lon": 73.8938934,
        "tags": {
          "public_transport": "stop_position"
        }
      },
      {
        "type": "node",
        "id": 2257797333,
        "lat": 18.5282168,
        "lon": 73.8939378,
        "tags": {
          "public_transport": "stop_position"
        }
      },
      {
        "type": "node",
        "id": 2257797395,
        "lat": 18.5290793,
        "lon": 73.8740372,
        "tags": {
          "name": "Pune Junction",
          "name:mr": "\u092a\u0941\u0923\u0947 \u091c\u0902\u0915\u094d\u0936\u0928",
          "public_transport": "stop_position",
          "ref": "1",
          "train": "yes"
        }
      },
      {
        "type": "node",
        "id": 2257797414,
        "lat": 18.5291657,
        "lon": 73.8733305,
        "tags": {
          "name": "Pune Junction",
          "name:mr": "\u092a\u0941\u0923\u0947 \u091c\u0902\u0915\u094d\u0936\u0928",
          "public_transport": "stop_position",
          "ref": "2",
          "train": "yes"
        }
      },
      {
        "type": "node",
        "id": 2257797442,
        "lat": 18.5293602,
        "lon": 73.8733199,
        "tags": {
          "name": "Pune Junction",
          "name:mr": "\u092a\u0941\u0923\u0947 \u091c\u0902\u0915\u094d\u0936\u0928",
          "public_transport": "stop_position",
          "ref": "3",
          "train": "yes"
        }
      },
      {
        "type": "node",
        "id": 2257797444,
        "lat": 18.52937,
        "lon": 73.8726619,
        "tags": {
          "name": "Pune Junction",
          "name:mr": "\u092a\u0941\u0923\u0947 \u091c\u0902\u0915\u094d\u0936\u0928",
          "public_transport": "stop_position",
          "ref": "4",
          "train": "yes"
        }
      },
      {
        "type": "node",
        "id": 2257797462,
        "lat": 18.5294921,
        "lon": 73.8726591,
        "tags": {
          "name": "Pune Junction",
          "name:mr": "\u092a\u0941\u0923\u0947 \u091c\u0902\u0915\u094d\u0936\u0928",
          "public_transport": "stop_position",
          "ref": "5",
          "train": "yes"
        }
      },
      {
        "type": "node",
        "id": 2257797466,
        "lat": 18.5295338,
        "lon": 73.8726575,
        "tags": {
          "name": "Pune Junction",
          "name:mr": "\u092a\u0941\u0923\u0947 \u091c\u0902\u0915\u094d\u0936\u0928",
          "public_transport": "stop_position",
          "ref": "6",
          "train": "yes"
        }
      },
      {
        "type": "node",
        "id": 2259729638,
        "lat": 18.5159878,
        "lon": 73.8591744,
        "tags": {
          "bus": "yes",
          "highway": "bus_stop",
          "name": "Sonya Maruti Chowk",
          "name:mr": "\u0938\u094b\u0928\u094d\u092f\u093e \u092e\u093e\u0930\u0941\u0924\u0940 \u091a\u094c\u0915",
          "public_transport": "stop_position"
        }
      },
      {
        "type": "node",
        "id": 2259729678,
        "lat": 18.5204468,
        "lon": 73.8674762,
        "tags": {
          "bus": "yes",
          "highway": "bus_stop",
          "name": "KEM Hospital",
          "name:mr": "\u0915\u0947\u0908\u090f\u092e \u0930\u0941\u0917\u094d\u0923\u093e\u0932\u092f",
          "public_transport": "stop_position"
        }
      },
      {
        "type": "node",
        "id": 2266620664,
        "lat": 18.5223321,
        "lon": 73.8663642,
        "tags": {
          "bus": "yes",
          "highway": "bus_stop",
          "name": "15 August Chowk",
          "name:mr": "\u0967\u096b \u0911\u0917\u0938\u094d\u091f \u091a\u094c\u0915",
          "public_transport": "stop_position"
        }
      },
      {
        "type": "node",
        "id": 2864314829,
        "lat": 18.5241044,
        "lon": 73.8674666,
        "tags": {
          "bus": "yes",
          "highway": "bus_stop",
          "name": "Ambedkar Bhavan",
          "name:mr": "\u0906\u0902\u092c\u0947\u0921\u0915\u0930 \u092d\u0935\u0928",
          "public_transport": "stop_position"
        }
      },
      {
        "type": "node",
        "id": 2864314835,
        "lat": 18.5194896,
        "lon": 73.8645808,
        "tags": {
          "bus": "yes",
          "highway": "bus_stop",
          "name": "Apollo Talkies",
          "name:mr": "\u0905\u092a\u094b\u0932\u094b \u091f\u0949\u0915\u0940\u091c",
          "public_transport": "stop_position"
        }
      },
      {
        "type": "node",
        "id": 2864314839,
        "lat": 18.5157161,
        "lon": 73.8566591,
        "tags": {
          "bus": "yes",
          "highway": "bus_stop",
          "name": "City Post",
          "name:mr": "\u0938\u093f\u091f\u0940 \u092a\u094b\u0938\u094d\u091f",
          "public_transport": "stop_position"
        }
      },
      {
        "type": "node",
        "id": 2864314843,
        "lat": 18.5235465,
        "lon": 73.8755291,
        "tags": {
          "bus": "yes",
          "highway": "bus_stop",
          "name": "GPO",
          "name:mr": "\u091c\u0940 \u092a\u0940 \u0913",
          "public_transport": "stop_position"
        }
      },
      {
        "type": "node",
        "id": 2864314847,
        "lat": 18.5149638,
        "lon": 73.8549032,
        "tags": {
          "bus": "yes",
          "highway": "bus_stop",
          "name": "Ganpati Chowk",
          "name:mr": "\u0917\u0923\u092a\u0924\u0940 \u091a\u094c\u0915",
          "public_transport": "stop_position"
        }
      },
      {
        "type": "node",
        "id": 2864314855,
        "lat": 18.5234025,
        "lon": 73.8692408,
        "tags": {
          "bus": "yes",
          "highway": "bus_stop",
          "name": "Jilha Parishad",
          "name:mr": "\u091c\u093f\u0932\u094d\u0939\u093e \u092a\u0930\u093f\u0937\u0926",
          "public_transport": "stop_position"
        }
      },
      {
        "type": "node",
        "id": 2864314856,
        "lat": 18.5205286,
        "lon": 73.8558408,
        "tags": {
          "bus": "yes",
          "highway": "bus_stop",
          "name": "Kasba Peth Police Chowki",
          "name:mr": "\u0915\u0938\u092c\u093e \u092a\u0947\u0920 \u092a\u094b\u0932\u0940\u0938 \u091a\u094c\u0915\u0940",
          "public_transport": "stop_position"
        }
      },
      {
        "type": "node",
        "id": 2864314858,
        "lat": 18.5185508,
        "lon": 73.8566475,
        "tags": {
          "bus": "yes",
          "highway": "bus_stop",
          "name": "Lal Mahal",
          "name:mr": "\u0932\u093e\u0932 \u092e\u0939\u093e\u0932",
          "public_transport": "stop_position"
        }
      },
      {
        "type": "node",
        "id": 2864314869,
        "lat": 18.5188684,
        "lon": 73.8601444,
        "tags": {
          "bus": "yes",
          "highway": "bus_stop",
          "name": "Phadke Houd",
          "name:mr": "\u092b\u0921\u0915\u0947 \u0939\u094c\u0926",
          "public_transport": "stop_position"
        }
      },
      {
        "type": "node",
        "id": 2864314871,
        "lat": 18.5276102,
        "lon": 73.872967,
        "tags": {
          "bus": "yes",
          "highway": "bus_stop",
          "name": "Pune Station Bus Stand",
          "name:mr": "\u092a\u0941\u0923\u0947 \u0938\u094d\u091f\u0947\u0936\u0928 \u092c\u0938 \u0938\u094d\u0925\u093e\u0928\u0915",
          "public_transport": "stop_position"
        }
      },
      {
        "type": "node",
        "id": 2864314875,
        "lat": 18.5255769,
        "lon": 73.8765892,
        "tags": {
          "bus": "yes",
          "highway": "bus_stop",
          "name": "Sadhu Vaswani Chowk",
          "name:mr": "\u0938\u093e\u0927\u0941 \u0935\u093e\u0938\u094d\u0935\u093e\u0923\u0940 \u091a\u094c\u0915",
          "public_transport": "stop_position"
        }
      },
      {
        "type": "node",
        "id": 2864314878,
        "lat": 18.525038,
        "lon": 73.8715737,
        "tags": {
          "bus": "yes",
          "highway": "bus_stop",
          "name": "Sassoon Hospital",
          "name:mr": "\u0938\u0938\u0942\u0928 \u0930\u0941\u0917\u094d\u0923\u093e\u0932\u092f",
          "public_transport": "stop_position"
        }
      },
      {
        "type": "node",
        "id": 2870389546,
        "lat": 18.5183421,
        "lon": 73.8562164,
        "tags": {
          "bus": "yes",
          "highway": "bus_stop",
          "name": "Nana Wada",
          "name:mr": "\u0928\u093e\u0928\u093e \u0935\u093e\u0921\u093e",
          "public_transport": "stop_position",
          "wheelchair": "yes"
        }
      },
      {
        "type": "node",
        "id": 2870389551,
        "lat": 18.5175013,
        "lon": 73.8562412,
        "tags": {
          "bus": "yes",
          "highway": "bus_stop",
          "name": "Vasant Talkies",
          "name:mr": "\u0935\u0938\u0902\u0924 \u091f\u0949\u0915\u0940\u091c",
          "public_transport": "stop_position"
        }
      },
      {
        "type": "node",
        "id": 2929239716,
        "lat": 18.5019555,
        "lon": 73.8700439,
        "tags": {
          "amenity": "fuel",
          "brand": "Indian Oil",
          "brand:wikidata": "Q1289348",
          "brand:wikipedia": "en:Indian Oil Corporation",
          "name": "Indian Oil"
        }
      },
      {
        "type": "node",
        "id": 4678212190,
        "lat": 18.5225285,
        "lon": 73.8666574,
        "tags": {
          "amenity": "fuel",
          "brand": "Indian Oil",
          "brand:wikidata": "Q1289348",
          "name": "Indian Oil"
        }
      },
      {
        "type": "node",
        "id": 5573156998,
        "lat": 18.5214448,
        "lon": 73.8595458,
        "tags": {
          "name": "\u0915\u0938\u092c\u093e \u092a\u0947\u0920",
          "name:en": "Kasba Peth",
          "name:mr": "\u0915\u0938\u092c\u093e \u092a\u0947\u0920",
          "operator": "MahaMetro",
          "public_transport": "stop_position",
          "railway": "stop",
          "subway": "yes"
        }
      },
      {
        "type": "node",
        "id": 7944584974,
        "lat": 18.5300875,
        "lon": 73.8654426,
        "tags": {
          "name": "Mangalwar Peth",
          "name:mr": "\u092e\u0902\u0917\u0933\u0935\u093e\u0930 \u092a\u0947\u0920",
          "network": "Pune Metro",
          "network:wikidata": "Q3595697",
          "operator": "Maha Metro",
          "public_transport": "station",
          "railway": "station",
          "station": "subway",
          "subway": "yes",
          "wikidata": "Q28179679",
          "wikipedia": "en:Maha Metro"
        }
      },
      {
        "type": "node",
        "id": 7944584984,
        "lat": 18.5327176,
        "lon": 73.8777486,
        "tags": {
          "name": "Ruby Hall Clinic",
          "name:mr": "\u0930\u0941\u092c\u0940 \u0939\u0949\u0932 \u0915\u094d\u0932\u093f\u0928\u093f\u0915",
          "network": "Pune Metro",
          "network:wikidata": "Q3595697",
          "public_transport": "station",
          "railway": "station",
          "station": "subway",
          "subway": "yes",
          "wikidata": "Q121161769"
        }
      },
      {
        "type": "node",
        "id": 7944597685,
        "lat": 18.5271448,
        "lon": 73.8580006,
        "tags": {
          "name": "District Court (Aqua Line)",
          "name:mr": "\u091c\u093f\u0932\u094d\u0939\u093e \u0928\u094d\u092f\u093e\u092f\u093e\u0932\u092f",
          "network": "Pune Metro",
          "network:wikidata": "Q3595697",
          "public_transport": "station",
          "railway": "station",
          "station": "subway",
          "subway": "yes"
        }
      },
      {
        "type": "node",
        "id": 7944597689,
        "lat": 18.529751,
        "lon": 73.872596,
        "tags": {
          "name": "Pune Railway Station",
          "name:mr": "\u092a\u0941\u0923\u0947 \u0930\u0947\u0932\u094d\u0935\u0947 \u0938\u094d\u091f\u0947\u0936\u0928",
          "network": "Pune Metro",
          "network:wikidata": "Q3595697",
          "public_transport": "station",
          "railway": "station",
          "station": "subway",
          "subway": "yes",
          "wikidata": "Q121161986"
        }
      },
      {
        "type": "node",
        "id": 7944597694,
        "lat": 18.5129081,
        "lon": 73.8569695,
        "tags": {
          "name": "\u092e\u0902\u0921\u0908",
          "name:en": "Mandai",
          "name:mr": "\u092e\u0902\u0921\u0908",
          "network": "Pune Metro",
          "network:wikidata": "Q3595697",
          "operator": "MahaMetro",
          "public_transport": "station",
          "railway": "station",
          "station": "subway",
          "subway": "yes",
          "wikidata": "Q130381236",
          "wikipedia": "en:Mandai metro station"
        }
      },
      {
        "type": "node",
        "id": 8945932610,
        "lat": 18.5204768,
        "lon": 73.8553024,
        "tags": {
          "air_conditioning": "no",
          "amenity": "theatre",
          "name": "Shaniwar Wada Amphitheatre",
          "name:mr": "\u0936\u0928\u093f\u0935\u093e\u0930\u0935\u093e\u0921\u093e \u0938\u092d\u093e\u0917\u0943\u0939",
          "theatre:type": "amphi"
        }
      },
      {
        "type": "node",
        "id": 10052958985,
        "lat": 18.5205159,
        "lon": 73.8787236,
        "tags": {
          "amenity": "theatre",
          "name": "Poona Music Society"
        }
      },
      {
        "type": "node",
        "id": 10246145056,
        "lat": 18.5270136,
        "lon": 73.864765,
        "tags": {
          "bus": "yes",
          "highway": "bus_stop",
          "name": "Mangalwar Peth Gadital",
          "public_transport": "stop_position"
        }
      },
      {
        "type": "node",
        "id": 10246145057,
        "lat": 18.5270289,
        "lon": 73.8645385,
        "tags": {
          "bus": "yes",
          "highway": "bus_stop",
          "name": "Mangalwar Peth Gadital",
          "public_transport": "stop_position"
        }
      },
      {
        "type": "node",
        "id": 10246254344,
        "lat": 18.5247685,
        "lon": 73.8748013,
        "tags": {
          "bus": "yes",
          "highway": "bus_stop",
          "name": "Hotel Woodland",
          "public_transport": "stop_position"
        }
      },
      {
        "type": "node",
        "id": 10246254373,
        "lat": 18.524777,
        "lon": 73.8779455,
        "tags": {
          "bus": "yes",
          "highway": "bus_stop",
          "name": "Council Hall",
          "public_transport": "stop_position"
        }
      },
      {
        "type": "node",
        "id": 10725622460,
        "lat": 18.5281331,
        "lon": 73.8722527,
        "tags": {
          "amenity": "bus_station",
          "bus": "yes",
          "name": "MSRTC ST Pune Sation Bus Stand.",
          "public_transport": "station"
        }
      },
      {
        "type": "node",
        "id": 11097527711,
        "lat": 18.5327068,
        "lon": 73.8777633,
        "tags": {
          "layer": "2",
          "name": "Ruby Hall Clinic",
          "name:mr": "\u0930\u0941\u092c\u0940 \u0939\u0949\u0932 \u0915\u094d\u0932\u093f\u0928\u093f\u0915",
          "operator": "MahaMetro",
          "public_transport": "stop_position",
          "railway": "stop",
          "subway": "yes"
        }
      },
      {
        "type": "node",
        "id": 11097527712,
        "lat": 18.5327359,
        "lon": 73.8777309,
        "tags": {
          "layer": "2",
          "name": "Ruby Hall Clinic",
          "name:mr": "\u0930\u0941\u092c\u0940 \u0939\u0949\u0932 \u0915\u094d\u0932\u093f\u0928\u093f\u0915",
          "operator": "MahaMetro",
          "public_transport": "stop_position",
          "railway": "stop",
          "subway": "yes"
        }
      },
      {
        "type": "node",
        "id": 11097527713,
        "lat": 18.5297234,
        "lon": 73.872597,
        "tags": {
          "name": "Pune Railway Station",
          "name:mr": "\u092a\u0941\u0923\u0947 \u0930\u0947\u0932\u094d\u0935\u0947 \u0938\u094d\u091f\u0947\u0936\u0928",
          "operator": "MahaMetro",
          "public_transport": "stop_position",
          "railway": "stop",
          "subway": "yes"
        }
      },
      {
        "type": "node",
        "id": 11097527714,
        "lat": 18.5297781,
        "lon": 73.8725976,
        "tags": {
          "name": "Pune Railway Station",
          "name:mr": "\u092a\u0941\u0923\u0947 \u0930\u0947\u0932\u094d\u0935\u0947 \u0938\u094d\u091f\u0947\u0936\u0928",
          "operator": "MahaMetro",
          "public_transport": "stop_position",
          "railway": "stop",
          "subway": "yes"
        }
      },
      {
        "type": "node",
        "id": 11097527715,
        "lat": 18.5301112,
        "lon": 73.86544,
        "tags": {
          "layer": "2",
          "name": "Mangalwar Peth",
          "name:mr": "\u092e\u0902\u0917\u0933\u0935\u093e\u0930 \u092a\u0947\u0920",
          "operator": "MahaMetro",
          "public_transport": "stop_position",
          "railway": "stop",
          "subway": "yes"
        }
      },
      {
        "type": "node",
        "id": 11097527716,
        "lat": 18.5300697,
        "lon": 73.8654446,
        "tags": {
          "layer": "2",
          "name": "Mangalwar Peth",
          "name:mr": "\u092e\u0902\u0917\u0933\u0935\u093e\u0930 \u092a\u0947\u0920",
          "operator": "MahaMetro",
          "public_transport": "stop_position",
          "railway": "stop",
          "subway": "yes"
        }
      },
      {
        "type": "node",
        "id": 11097527720,
        "lat": 18.5271277,
        "lon": 73.8580437,
        "tags": {
          "layer": "2",
          "name": "District Court (Aqua Line)",
          "name:fr": "Cour civile",
          "name:mr": "\u091c\u093f\u0932\u094d\u0939\u093e \u0928\u094d\u092f\u093e\u092f\u093e\u0932\u092f",
          "operator": "MahaMetro",
          "public_transport": "stop_position",
          "railway": "stop",
          "subway": "yes"
        }
      },
      {
        "type": "node",
        "id": 11097527721,
        "lat": 18.5271544,
        "lon": 73.8579657,
        "tags": {
          "layer": "2",
          "name": "District Court (Aqua Line)",
          "name:mr": "\u091c\u093f\u0932\u094d\u0939\u093e \u0928\u094d\u092f\u093e\u092f\u093e\u0932\u092f",
          "operator": "MahaMetro",
          "public_transport": "stop_position",
          "railway": "stop",
          "subway": "yes"
        }
      },
      {
        "type": "node",
        "id": 12211880200,
        "lat": 18.5214436,
        "lon": 73.8595779,
        "tags": {
          "name": "\u0915\u0938\u092c\u093e \u092a\u0947\u0920",
          "name:en": "Kasba Peth",
          "name:mr": "\u0915\u0938\u092c\u093e \u092a\u0947\u0920",
          "network": "Pune Metro",
          "network:wikidata": "Q3595697",
          "public_transport": "station",
          "railway": "station",
          "station": "subway",
          "subway": "yes",
          "wikidata": "Q130381226",
          "wikipedia": "en:Kasba Peth metro station"
        }
      },
      {
        "type": "node",
        "id": 12211960101,
        "lat": 18.5129087,
        "lon": 73.8569857,
        "tags": {
          "name": "\u092e\u0902\u0921\u0908",
          "name:en": "Mandai",
          "name:mr": "\u092e\u0902\u0921\u0908",
          "operator": "MahaMetro",
          "public_transport": "stop_position",
          "railway": "stop",
          "subway": "yes"
        }
      },
      {
        "type": "node",
        "id": 12211960102,
        "lat": 18.5129035,
        "lon": 73.8569526,
        "tags": {
          "name": "\u092e\u0902\u0921\u0908",
          "name:en": "Mandai",
          "name:mr": "\u092e\u0902\u0921\u0908",
          "operator": "MahaMetro",
          "public_transport": "stop_position",
          "railway": "stop",
          "subway": "yes"
        }
      },
      {
        "type": "node",
        "id": 12211960112,
        "lat": 18.5214296,
        "lon": 73.8596021,
        "tags": {
          "name": "\u0915\u0938\u092c\u093e \u092a\u0947\u0920",
          "name:en": "Kasba Peth",
          "name:mr": "\u0915\u0938\u092c\u093e \u092a\u0947\u0920",
          "operator": "MahaMetro",
          "public_transport": "stop_position",
          "railway": "stop",
          "subway": "yes"
        }
      }
    ]
  }
}