{
  "pois_1km": {
    "version": 0.6,
    "generator": "Overpass API 0.7.62.8 e802775f",
    "osm3s": {
      "timestamp_osm_base": "2025-09-07T11:17:14Z",
      "copyright": "The data included in this document is from www.openstreetmap.org. The data is made available under ODbL."
    },
    "elements": [
      {
        "type": "node",
        "id": 670298363,
        "lat": 18.5659084,
        "lon": 73.7715441,
        "tags": {
          "amenity": "bank",
          "branch": "Baner",
          "brand": "Bank of Baroda",
          "brand:wikidata": "Q2003797",
          "name": "Bank of Baroda",
          "name:mr": "\u0926\u0947\u0928\u093e \u092c\u0901\u0915",
          "operator": "Dena Bank"
        }
      },
      {
        "type": "node",
        "id": 2605733302,
        "lat": 18.5646448,
        "lon": 73.7743979,
        "tags": {
          "alt_name": "Kentucky Fried Chicken",
          "alt_name:en": "Kentucky Fried Chicken",
          "alt_name:hi": "\u0915\u0947\u0902\u091f\u0941\u0915\u0940 \u092b\u094d\u0930\u093e\u0907\u0921 \u091a\u093f\u0915\u0928",
          "alt_name:pa": "\u0a15\u0a48\u0a02\u0a1f\u0a41\u0a15\u0a40 \u0a2b\u0a4d\u0a30\u0a3e\u0a08\u0a21 \u0a1a\u0a3f\u0a15\u0a28",
          "alt_name:pnb": "\u06a9\u06cc\u0646\u0679\u06a9\u06cc \u0641\u0631\u0627\u0626\u06cc\u0688 \u0686\u06a9\u0646",
          "alt_name:ur": "\u06a9\u06cc\u0646\u0679\u06a9\u06cc \u0641\u0631\u0627\u0626\u06cc\u0688 \u0686\u06a9\u0646",
          "amenity": "fast_food",
          "brand": "KFC",
          "brand:en": "KFC",
          "brand:hi": "\u0915\u0947\u090f\u092b\u0938\u0940",
          "brand:pa": "\u0a15\u0a47\u0a10\u0a2b\u0a38\u0a40",
          "brand:pnb": "\u06a9\u06d2 \u0627\u06cc\u0641 \u0633\u06cc",
          "brand:ur": "\u06a9\u06d2 \u0627\u06cc\u0641 \u0633\u06cc",
          "brand:wikidata": "Q524757",
          "brand:wikipedia": "en:KFC",
          "brand:wikipedia:pa": "\u0a15\u0a47\u0a10\u0a2b\u0a38\u0a40",
          "brand:wikipedia:ur": "\u06a9\u06cc\u0646\u0679\u06a9\u06cc \u0641\u0631\u0627\u0626\u06cc\u0688 \u0686\u06a9\u0646",
          "check_date": "2022-12-21",
          "cuisine": "chicken",
          "name": "KFC",
          "name:en": "KFC",
          "name:hi": "\u0915\u0947\u090f\u092b\u0938\u0940",
          "name:mr": "KFC",
          "name:pa": "\u0a15\u0a47\u0a10\u0a2b\u0a38\u0a40",
          "name:pnb": "\u06a9\u06d2 \u0627\u06cc\u0641 \u0633\u06cc",
          "name:ur": "\u06a9\u06d2 \u0627\u06cc\u0641 \u0633\u06cc",
          "takeaway": "yes"
        }
      },
      {
        "type": "node",
        "id": 2973333090,
        "lat": 18.567225,
        "lon": 73.7689211,
        "tags": {
          "addr:neighbourhood": "Laxman Nagar",
          "addr:street": "Baner Road",
          "addr:suburb": "Baner",
          "amenity": "hospital",
          "healthcare": "hospital",
          "name": "Accord Hospital",
          "phone": "077740 98697",
          "website": "https://accordhospitals.com/"
        }
      },
      {
        "type": "node",
        "id": 2973334946,
        "lat": 18.5669885,
        "lon": 73.7696587,
        "tags": {
          "addr:street": "Gopal Hari Deshmukh Marg",
          "brand": "DMart",
          "brand:wikidata": "Q5203271",
          "name": "DMart",
          "name:mr": "\u0921\u0940\u092e\u093e\u0930\u094d\u091f",
          "organic": "yes",
          "shop": "supermarket",
          "website": "https://www.dmart.in/"
        }
      },
      {
        "type": "node",
        "id": 3523419263,
        "lat": 18.565198,
        "lon": 73.7740538,
        "tags": {
          "amenity": "bank",
          "brand:wikidata": "Q1340361",
          "brand:wikipedia": "en:State Bank of India",
          "name": "SBI InTouch",
          "name:mr": "\u090f\u0938\u092c\u0940\u0906\u092f \u0907\u0928\u091f\u091a",
          "website": "http://onlinesbi.in"
        }
      },
      {
        "type": "node",
        "id": 4519367791,
        "lat": 18.5591087,
        "lon": 73.7792851,
        "tags": {
          "name:en": "Farmers' & Grocers' Neighbourhood Market",
          "shop": "department_store"
        }
      },
      {
        "type": "node",
        "id": 6113753516,
        "lat": 18.5674994,
        "lon": 73.7760787,
        "tags": {
          "amenity": "bank",
          "atm": "no",
          "branch": "Baner",
          "brand": "Lokmanya Multipurpose Co-op Bank",
          "name": "Lokmanya Multipurpose Co-op Bank",
          "name:mr": "\u0932\u094b\u0915\u092e\u093e\u0928\u094d\u092f \u092e\u0932\u094d\u091f\u093f\u092a\u0930\u094d\u092a\u091c \u0938\u0939\u0915\u093e\u0930\u0940 \u092c\u0901\u0915",
          "operator": "Lokmanya Multipurpose Co-op Bank"
        }
      },
      {
        "type": "node",
        "id": 6113753517,
        "lat": 18.5675534,
        "lon": 73.7755792,
        "tags": {
          "amenity": "restaurant",
          "name": "Mavala Darbar",
          "name:mr": "\u092e\u093e\u0935\u0933\u093e \u0926\u0930\u092c\u093e\u0930",
          "opening_hours": "Tu-Su 11:00-15:00,19:00-23:00"
        }
      },
      {
        "type": "node",
        "id": 6116153820,
        "lat": 18.5659579,
        "lon": 73.7728608,
        "tags": {
          "amenity": "restaurant",
          "name": "Orion",
          "name:mr": "\u0913\u0930\u093e\u092f\u0928"
        }
      },
      {
        "type": "node",
        "id": 6116153821,
        "lat": 18.5656884,
        "lon": 73.7728178,
        "tags": {
          "amenity": "restaurant",
          "name": "Cabaret",
          "name:mr": "\u0915\u0945\u092c\u0930\u0947"
        }
      },
      {
        "type": "node",
        "id": 6116153822,
        "lat": 18.565307,
        "lon": 73.7737043,
        "tags": {
          "amenity": "bank",
          "atm": "yes",
          "brand": "ICICI Bank",
          "brand:wikidata": "Q1653258",
          "brand:wikipedia": "en:ICICI Bank",
          "name": "ICICI Bank",
          "name:mr": "\u0906\u092f\u0938\u0940\u0906\u092f\u0938\u0940\u0906\u092f \u092c\u0901\u0915",
          "opening_hours": "24/7",
          "operator": "ICICI Bank",
          "short_name": "ICICI"
        }
      },
      {
        "type": "node",
        "id": 6116153823,
        "lat": 18.5652905,
        "lon": 73.7741442,
        "tags": {
          "amenity": "restaurant",
          "name": "Post 91",
          "name:mr": "\u092a\u094b\u0938\u094d\u091f \u096f\u0967"
        }
      },
      {
        "type": "node",
        "id": 6116153824,
        "lat": 18.5651824,
        "lon": 73.7742622,
        "tags": {
          "amenity": "atm",
          "brand": "IndusInd Bank",
          "brand:wikidata": "Q2040323",
          "brand:wikipedia": "en:IndusInd Bank",
          "check_date": "2022-01-03",
          "name": "IndusInd Bank",
          "opening_hours": "24/7",
          "operator": "IndusInd Bank",
          "operator:wikidata": "Q2040323",
          "operator:wikipedia": "en:IndusInd Bank"
        }
      },
      {
        "type": "node",
        "id": 6116153825,
        "lat": 18.5651875,
        "lon": 73.774218,
        "tags": {
          "amenity": "bank",
          "atm": "no",
          "brand": "IndusInd Bank",
          "brand:wikidata": "Q2040323",
          "brand:wikipedia": "en:IndusInd Bank",
          "name": "IndusInd Bank",
          "name:mr": "\u0907\u0902\u0921\u0938\u0907\u0902\u0921 \u092c\u0901\u0915",
          "operator": "IndusInd Bank"
        }
      },
      {
        "type": "node",
        "id": 6116153828,
        "lat": 18.5674237,
        "lon": 73.7715042,
        "tags": {
          "amenity": "restaurant",
          "name": "The Poona Canteen",
          "name:mr": "\u0926 \u092a\u0942\u0928\u093e \u0915\u0901\u091f\u0940\u0928"
        }
      },
      {
        "type": "node",
        "id": 6116153829,
        "lat": 18.5675463,
        "lon": 73.7715074,
        "tags": {
          "amenity": "restaurant",
          "name": "Elora Artisan Kitchen",
          "name:mr": "\u090f\u0932\u094b\u0930\u093e \u0906\u0930\u094d\u091f\u093f\u0938\u0928 \u0915\u093f\u091a\u0928"
        }
      },
      {
        "type": "node",
        "id": 6116153830,
        "lat": 18.5674835,
        "lon": 73.7714472,
        "tags": {
          "amenity": "restaurant",
          "name": "No Strings Attached",
          "name:mr": "\u0928\u094b \u0938\u094d\u091f\u094d\u0930\u093f\u0902\u0917\u094d\u091c \u0905\u091f\u0945\u091a\u094d\u0921"
        }
      },
      {
        "type": "node",
        "id": 6116153831,
        "lat": 18.5676329,
        "lon": 73.7715096,
        "tags": {
          "amenity": "restaurant",
          "name": "1BHK Superbar",
          "name:mr": "\u0967\u092c\u0940\u090f\u091a\u0915\u0947 \u0938\u0941\u092a\u0930\u092c\u093e\u0930"
        }
      },
      {
        "type": "node",
        "id": 6116153847,
        "lat": 18.566277,
        "lon": 73.7713547,
        "tags": {
          "amenity": "restaurant",
          "name": "Nirvana",
          "name:mr": "\u0928\u093f\u0930\u094d\u0935\u093e\u0923"
        }
      },
      {
        "type": "node",
        "id": 6128879905,
        "lat": 18.5642989,
        "lon": 73.7812936,
        "tags": {
          "amenity": "bank",
          "brand": "State Bank of India",
          "brand:wikidata": "Q1340361",
          "brand:wikipedia": "en:State Bank of India",
          "name": "State Bank of India",
          "name:mr": "\u090f\u0938\u092c\u0940\u0906\u092f",
          "operator": "SBI",
          "short_name": "SBI"
        }
      },
      {
        "type": "node",
        "id": 6128879908,
        "lat": 18.5643484,
        "lon": 73.7799311,
        "tags": {
          "amenity": "bank",
          "atm": "no",
          "brand": "Pune Sahakari Bank Ltd.",
          "name": "Pune Sahakari Bank Ltd.",
          "name:mr": "\u092a\u0941\u0923\u0947 \u0938\u0939\u0915\u093e\u0930\u0940 \u092c\u0901\u0915 \u0932\u093f.",
          "operator": "Pune Sahakari Bank Ltd."
        }
      },
      {
        "type": "node",
        "id": 6128879919,
        "lat": 18.5662338,
        "lon": 73.7713031,
        "tags": {
          "amenity": "bank",
          "brand": "Equitas Small Finance Bank",
          "brand:wikidata": "Q29467249",
          "name": "Equitas Small Finance Bank",
          "name:mr": "\u090f\u0915\u094d\u0935\u093f\u0902\u091f\u093e\u0938 \u0938\u094d\u092e\u0949\u0932 \u092b\u093e\u092f\u0928\u093e\u0928\u094d\u0938 \u092c\u0901\u0915",
          "operator": "Equitas Small Finance Bank"
        }
      },
      {
        "type": "node",
        "id": 6327225488,
        "lat": 18.555879,
        "lon": 73.7667497,
        "tags": {
          "brand": "lays; Britania; Cadbury; Amul; Coca Cola; Parle",
          "name": "Platinum Super Market",
          "payment:cash": "yes",
          "payment:credit_cards": "yes",
          "payment:debit_cards": "yes",
          "payment:electronic_purses": "yes",
          "shop": "supermarket"
        }
      },
      {
        "type": "node",
        "id": 9348595002,
        "lat": 18.5659175,
        "lon": 73.7762913,
        "tags": {
          "addr:city": "Pune",
          "addr:postcode": "411045",
          "addr:street": "Balewadi High Street",
          "air_conditioning": "yes",
          "amenity": "restaurant",
          "bar": "yes",
          "contact:facebook": "https://www.facebook.com/theoldmansion.pune/",
          "contact:instagram": "https://www.instagram.com/the_old_mansion/",
          "cuisine": "indian;asian;western",
          "delivery": "yes",
          "delivery:partner": "Swiggy;Zomato",
          "name": "The Old Mansion",
          "name:mr": "\u0926 \u0913\u0932\u094d\u0921 \u092e\u0945\u0928\u094d\u0936\u0928",
          "opening_hours": "Mo-Su 12:00-24:00",
          "outdoor_seating": "yes",
          "phone": "+918010908457",
          "reservation": "accepted",
          "takeaway": "yes",
          "website": "http://casdis.co.in/chat/oldmansion"
        }
      },
      {
        "type": "node",
        "id": 9394475543,
        "lat": 18.5646221,
        "lon": 73.7744673,
        "tags": {
          "addr:suburb": "Baner",
          "amenity": "restaurant",
          "brand": "Pizza Hut",
          "brand:wikidata": "Q191615",
          "brand:wikipedia": "en:Pizza Hut",
          "check_date": "2022-12-21",
          "cuisine": "pizza",
          "name": "Pizza Hut",
          "name:en": "Pizza Hut",
          "name:mr": "\u092a\u093f\u091d\u094d\u091d\u093e \u0939\u091f"
        }
      },
      {
        "type": "node",
        "id": 9401996399,
        "lat": 18.5639378,
        "lon": 73.7775452,
        "tags": {
          "addr:city": "Pune",
          "addr:country": "IN",
          "addr:neighbourhood": "Baner",
          "addr:postcode": "411045",
          "addr:state": "Maharashtra",
          "addr:street": "Gopal Hari Deshmukh Marg",
          "amenity": "fast_food",
          "contact:phone": "+919067766065",
          "name": "Chahachi Tallaf"
        }
      },
      {
        "type": "node",
        "id": 9403075422,
        "lat": 18.5639725,
        "lon": 73.777019,
        "tags": {
          "addr:city": "Pune",
          "addr:country": "IN",
          "addr:postcode": "411045",
          "addr:state": "Maharashtra",
          "amenity": "hospital",
          "healthcare": "hospital",
          "healthcare:speciality": "fertility;maternity",
          "name": "Benecare Superspeciality Hospital"
        }
      },
      {
        "type": "node",
        "id": 10010729790,
        "lat": 18.5663598,
        "lon": 73.7695757,
        "tags": {
          "addr:city": "Pune",
          "addr:housenumber": "Survey No 111, 11/1",
          "addr:postcode": "411045",
          "addr:street": "Veerbhadra Nagar Rd, opposite D-MART, Veerbhadra Nagar, Baner,",
          "amenity": "hospital",
          "healthcare": "hospital",
          "healthcare:speciality": "general",
          "name": "Manipal Hospital",
          "opening_hours": "24/7",
          "operator": "Novosalus",
          "operator:type": "private"
        }
      },
      {
        "type": "node",
        "id": 10278530165,
        "lat": 18.5645201,
        "lon": 73.7747709,
        "tags": {
          "amenity": "fast_food",
          "check_date": "2022-12-22",
          "cuisine": "paan",
          "name": "Paan shop",
          "name:en": "Paan shop",
          "name:mr": "\u092a\u093e\u0928 \u0926\u0941\u0915\u093e\u0928",
          "opening_hours": "11:00-24:30"
        }
      },
      {
        "type": "node",
        "id": 10686342276,
        "lat": 18.5597322,
        "lon": 73.7811959,
        "tags": {
          "addr:city": "Pune",
          "addr:housenumber": "Caffee Delicioso, Pride Valencia Apartment,",
          "addr:postcode": "411045",
          "addr:street": "Pancard Club Road, Baner",
          "amenity": "cafe",
          "cuisine": "coffee_shop;ice_cream;chocolate",
          "delivery": "yes",
          "name": "Caffee Delicioso",
          "opening_hours": "24/7",
          "outdoor_seating": "yes",
          "phone": "+917507657070"
        }
      },
      {
        "type": "node",
        "id": 10692759689,
        "lat": 18.564267,
        "lon": 73.7768838,
        "tags": {
          "amenity": "bank",
          "name": "Seva Vikas Co-operative bank"
        }
      },
      {
        "type": "node",
        "id": 10692785979,
        "lat": 18.5643905,
        "lon": 73.7807913,
        "tags": {
          "amenity": "bank",
          "name": "Pune Sahakari Bank Ltd."
        }
      },
      {
        "type": "node",
        "id": 10692796478,
        "lat": 18.5680055,
        "lon": 73.7698855,
        "tags": {
          "amenity": "atm",
          "brand": "Axis Bank",
          "brand:wikidata": "Q2003549",
          "name": "Axis Bank",
          "operator": "Axis Bank",
          "operator:wikidata": "Q2003549"
        }
      },
      {
        "type": "node",
        "id": 10692810830,
        "lat": 18.5666451,
        "lon": 73.7714749,
        "tags": {
          "amenity": "bank",
          "brand": "CSB Bank",
          "brand:wikidata": "Q5053244",
          "name": "CSB Bank",
          "official_name": "Catholic Syrian Bank"
        }
      },
      {
        "type": "node",
        "id": 10712226560,
        "lat": 18.5636485,
        "lon": 73.7661263,
        "tags": {
          "amenity": "cafe"
        }
      },
      {
        "type": "node",
        "id": 11111717277,
        "lat": 18.5585132,
        "lon": 73.7772183,
        "tags": {
          "amenity": "fast_food",
          "brand": "McDonald's",
          "brand:wikidata": "Q38076",
          "cuisine": "burger",
          "name": "McDonald's",
          "takeaway": "yes"
        }
      },
      {
        "type": "node",
        "id": 11115851138,
        "lat": 18.5598886,
        "lon": 73.7698585,
        "tags": {
          "addr:city": "PUNE",
          "addr:district": "pune",
          "addr:postcode": "411045",
          "addr:street": "Katraj - Dehu Road Bypass",
          "air_conditioning": "yes",
          "amenity": "restaurant",
          "cuisine": "regional;chinese;chicken;indian",
          "delivery": "yes",
          "diet:non-vegetarian": "yes",
          "level": "1",
          "name": "Spice Court",
          "name:mr": "\u0938\u094d\u092a\u093e\u0908\u0938 \u0915\u094b\u0930\u094d\u091f",
          "opening_hours": "Mo-Su 10:00-22:00"
        }
      },
      {
        "type": "node",
        "id": 11245293888,
        "lat": 18.5638816,
        "lon": 73.7749848,
        "tags": {
          "amenity": "pharmacy",
          "healthcare": "pharmacy",
          "name": "Prince Medico"
        }
      },
      {
        "type": "node",
        "id": 11299739784,
        "lat": 18.5664874,
        "lon": 73.7707133,
        "tags": {
          "addr:postcode": "411045",
          "amenity": "restaurant",
          "check_date": "2023-10-30",
          "cuisine": "konkani;south Indian",
          "name": "Way Down South",
          "name:en": "Way Down South",
          "name:mr": "\u0935\u0947 \u0921\u093e\u0909\u0928 \u0938\u093e\u0909\u0925",
          "phone": "+91 20 4677 9131"
        }
      },
      {
        "type": "node",
        "id": 11581428805,
        "lat": 18.5576766,
        "lon": 73.7712894,
        "tags": {
          "addr:city": "PUNE",
          "addr:district": "pune",
          "addr:housenumber": "pmc garden",
          "addr:postcode": "411045",
          "addr:street": "Pancard Club Road oppo baner",
          "amenity": "hospital",
          "emergency": "yes",
          "healthcare": "hospital",
          "healthcare:speciality": "general;gynaecology",
          "name": "elite hospital"
        }
      },
      {
        "type": "node",
        "id": 11581434774,
        "lat": 18.5572502,
        "lon": 73.7705692,
        "tags": {
          "addr:city": "PUNE",
          "addr:housenumber": "brewmerchant",
          "addr:postcode": "411045",
          "addr:street": "Pancard Club Road",
          "amenity": "restaurant",
          "cuisine": "coffee_shop;italian",
          "diet:non-vegetarian": "yes",
          "diet:vegan": "yes",
          "diet:vegetarian": "yes",
          "name": "brew merchant",
          "opening_hours": "Mo-Su 08:00-01:30",
          "phone": "9028425515",
          "website": "https://brewmerchant.co.in/"
        }
      },
      {
        "type": "node",
        "id": 11586139853,
        "lat": 18.5536853,
        "lon": 73.7795983,
        "tags": {
          "addr:city": "Pune",
          "addr:district": "Pune",
          "addr:housenumber": "Shop No. 9-10, Athashri Society,",
          "addr:postcode": "411045",
          "addr:street": "Pan Card Club Rd",
          "air_conditioning": "yes",
          "amenity": "restaurant",
          "bar": "yes",
          "capacity": "200",
          "cuisine": "pizza;coffee_shop;regional;burger;italian;sandwich;chicken;indian;asian",
          "diet:meat": "yes",
          "diet:vegetarian": "yes",
          "name": "Neighbourhud",
          "phone": "90281 04800"
        }
      },
      {
        "type": "node",
        "id": 12040210202,
        "lat": 18.5591862,
        "lon": 73.7792551,
        "tags": {
          "amenity": "pharmacy",
          "check_date": "2024-07-07",
          "healthcare": "pharmacy",
          "name": "R K Medical Store"
        }
      },
      {
        "type": "node",
        "id": 12104074785,
        "lat": 18.5579753,
        "lon": 73.7748801,
        "tags": {
          "amenity": "bank",
          "brand": "HDFC Bank",
          "brand:wikidata": "Q631047",
          "name": "HDFC Bank",
          "short_name": "HDFC"
        }
      },
      {
        "type": "node",
        "id": 12104074791,
        "lat": 18.5678435,
        "lon": 73.7683866,
        "tags": {
          "amenity": "bank",
          "brand": "Karnataka Bank",
          "brand:wikidata": "Q2042632",
          "name": "Karnataka Bank"
        }
      },
      {
        "type": "node",
        "id": 12104074792,
        "lat": 18.5678031,
        "lon": 73.7683812,
        "tags": {
          "amenity": "atm",
          "brand": "Karnataka Bank",
          "brand:wikidata": "Q2042632",
          "name": "Karnataka Bank",
          "operator": "Karnataka Bank",
          "operator:wikidata": "Q2042632"
        }
      },
      {
        "type": "node",
        "id": 12307079665,
        "lat": 18.5642748,
        "lon": 73.7780655,
        "tags": {
          "amenity": "fast_food",
          "name": "Agastya Pavbhaji Misal Pav",
          "name:en": "Agastya Pavbhaji Misal Pav",
          "name:mr": "\u0905\u0917\u0938\u094d\u0924\u094d\u092f \u092a\u093e\u0935\u092d\u093e\u091c\u0940 \u092e\u093f\u0938\u0933\u092a\u093e\u0935"
        }
      },
      {
        "type": "node",
        "id": 12307314917,
        "lat": 18.5687621,
        "lon": 73.7717719,
        "tags": {
          "addr:floor": "1",
          "amenity": "restaurant",
          "check_date": "2024-11-02",
          "level": "1",
          "name": "Maratha Samrat",
          "name:mr": "\u092e\u0930\u093e\u0920\u093e \u0938\u092e\u094d\u0930\u093e\u091f",
          "payment:cash": "yes",
          "payment:upi": "yes"
        }
      },
      {
        "type": "node",
        "id": 12770261254,
        "lat": 18.5665855,
        "lon": 73.7692255,
        "tags": {
          "amenity": "fast_food",
          "brand": "Domino's",
          "brand:wikidata": "Q839466",
          "cuisine": "pizza",
          "name": "Domino's",
          "takeaway": "yes"
        }
      },
      {
        "type": "node",
        "id": 12770261255,
        "lat": 18.5643864,
        "lon": 73.7791054,
        "tags": {
          "amenity": "cafe",
          "name": "The Work Sip Cafe",
          "name:en": "The Work Sip Cafe"
        }
      },
      {
        "type": "node",
        "id": 12778336525,
        "lat": 18.5573694,
        "lon": 73.7764125,
        "tags": {
          "addr:city": "PUNE",
          "addr:district": "Pune",
          "addr:postcode": "411045",
          "addr:street": "IIMS Indian Institute of Metabolic Sciences , Dr. Todkars multispeciality Hospital, Pan Card Club Road, Baner",
          "amenity": "clinic",
          "healthcare": "clinic",
          "healthcare:speciality": "urologist_&_andrologist",
          "name": "Dr. S K Palash",
          "operator": "Novosalus Technology",
          "operator:type": "private"
        }
      },
      {
        "type": "node",
        "id": 12861335419,
        "lat": 18.5674308,
        "lon": 73.7756355,
        "tags": {
          "amenity": "bank",
          "brand": "IDFC First Bank",
          "brand:wikidata": "Q22031467",
          "name": "IDFC First Bank"
        }
      },
      {
        "type": "node",
        "id": 12861335420,
        "lat": 18.5673816,
        "lon": 73.7756355,
        "tags": {
          "amenity": "atm",
          "brand": "IDFC First Bank",
          "brand:wikidata": "Q22031467",
          "name": "IDFC First Bank",
          "operator": "IDFC First Bank",
          "operator:wikidata": "Q22031467"
        }
      },
      {
        "type": "node",
        "id": 12863141189,
        "lat": 18.5687438,
        "lon": 73.775275,
        "tags": {
          "amenity": "cafe",
          "name": "The Belgian Waffle Company",
          "name:en": "The Belgian Waffle Company",
          "name:mr": "\u0926 \u092c\u0947\u0932\u094d\u091c\u093f\u092f\u0928 \u0935\u0949\u092b\u0932 \u0915\u0902\u092a\u0928\u0940"
        }
      }
    ]
  },
  "pois_2_5km": {
    "version": 0.6,
    "generator": "Overpass API 0.7.62.8 e802775f",
    "osm3s": {
      "timestamp_osm_base": "2025-09-07T11:17:14Z",
      "copyright": "The data included in this document is from www.openstreetmap.org. The data is made available under ODbL."
    },
    "elements": [
      {
        "type": "node",
        "id": 6116153836,
        "lat": 18.567214,
        "lon": 73.7719864,
        "tags": {
          "amenity": "charging_station",
          "brand": "PowerUP"
        }
      },
      {
        "type": "node",
        "id": 7826201632,
        "lat": 18.5416115,
        "lon": 73.7790762,
        "tags": {
          "bus": "yes",
          "name": "Sutarwadi Bus Stand",
          "network": "PMPML",
          "operator": "PMPML",
          "public_transport": "stop_position",
          "wikidata": "Q7260109",
          "wikimedia_commons": "Category:Pune Mahanagar Parivahan Mahamandal Limited",
          "wikipedia": "en:Pune Mahanagar Parivahan Mahamandal Limited"
        }
      },
      {
        "type": "node",
        "id": 9194870255,
        "lat": 18.5522808,
        "lon": 73.7559139,
        "tags": {
          "addr:city": "Pune",
          "addr:postcode": "411021",
          "addr:street": "Sus Road, Sus",
          "amenity": "fuel",
          "brand": "Hindustan Petroleum",
          "brand:wikidata": "Q1619375",
          "brand:wikipedia": "en:Hindustan Petroleum",
          "fuel:petrol": "yes",
          "name": "Hindustan Petroleum Petrol Pump",
          "official_name": "Hindustan Petroleum",
          "operator": "Hindustan Petroleum Corporation Ltd",
          "self_service": "no"
        }
      },
      {
        "type": "node",
        "id": 10290789663,
        "lat": 18.5788787,
        "lon": 73.7624887,
        "tags": {
          "amenity": "charging_station",
          "brand": "Go Ego"
        }
      },
      {
        "type": "node",
        "id": 10603598575,
        "lat": 18.552645,
        "lon": 73.7574904,
        "tags": {
          "addr:city": "Pune",
          "addr:housenumber": "sus",
          "addr:postcode": "411021",
          "addr:street": "Sus Road",
          "amenity": "fuel",
          "brand": "MNGL",
          "fuel:cng": "yes",
          "name": "CHANDERE CNG Station",
          "operator": "CHANDERE CNG Station",
          "self_service": "no"
        }
      },
      {
        "type": "node",
        "id": 11436625766,
        "lat": 18.5443616,
        "lon": 73.780834,
        "tags": {
          "bus": "yes",
          "highway": "bus_stop",
          "name": "Vitbhatti Pashan",
          "public_transport": "stop_position"
        }
      },
      {
        "type": "node",
        "id": 11436625767,
        "lat": 18.5444681,
        "lon": 73.780867,
        "tags": {
          "bus": "yes",
          "highway": "bus_stop",
          "name": "Vitbhatti Pashan",
          "public_transport": "stop_position"
        }
      },
      {
        "type": "node",
        "id": 12484089401,
        "lat": 18.5517365,
        "lon": 73.7609474,
        "tags": {
          "amenity": "fuel",
          "name": "Shell Petrol Pump - Sus",
          "opening_hours": "24/7",
          "website": "https://find.shell.com/"
        }
      }
    ]
  }
}