{
  "pois_1km": {
    "version": 0.6,
    "generator": "Overpass API 0.7.62.8 e802775f",
    "osm3s": {
      "timestamp_osm_base": "2025-09-07T11:14:15Z",
      "copyright": "The data included in this document is from www.openstreetmap.org. The data is made available under ODbL."
    },
    "elements": [
      {
        "type": "node",
        "id": 1792866642,
        "lat": 18.6003507,
        "lon": 73.7757061,
        "tags": {
          "amenity": "restaurant",
          "diet:vegetarian": "only",
          "name": "Namah"
        }
      },
      {
        "type": "node",
        "id": 6665702819,
        "lat": 18.5987622,
        "lon": 73.7638272,
        "tags": {
          "addr:floor": "G",
          "amenity": "fast_food",
          "check_date": "2023-01-24",
          "level": "1",
          "name": "\u0936\u094d\u0930\u0940\u0930\u093e\u092e \u0935\u0921\u093e\u092a\u093e\u0935",
          "name:en": "Shri Ram vadapav",
          "name:mr": "\u0936\u094d\u0930\u0940\u0930\u093e\u092e \u0935\u0921\u093e\u092a\u093e\u0935"
        }
      },
      {
        "type": "node",
        "id": 6769546871,
        "lat": 18.6007211,
        "lon": 73.7751811,
        "tags": {
          "amenity": "hospital",
          "name": "NRS hospital"
        }
      },
      {
        "type": "node",
        "id": 7053870877,
        "lat": 18.6047183,
        "lon": 73.7761981,
        "tags": {
          "addr:district": "Pune",
          "addr:full": "Kalewadi Phata, Opp Rhythm Society, Thergaon",
          "addr:postcode": "411039",
          "addr:state": "Maharashtra",
          "amenity": "hospital",
          "healthcare": "hospital",
          "name": "Phoenix Hospital, Pune",
          "source": "OpenGovernmentData"
        }
      },
      {
        "type": "node",
        "id": 7064929849,
        "lat": 18.6062334,
        "lon": 73.7729748,
        "tags": {
          "addr:district": "Nanded",
          "addr:full": "Near Ashwini Hospital, Shivaji Nagar",
          "addr:postcode": "431601",
          "addr:state": "Maharashtra",
          "amenity": "hospital",
          "name": "Ankur Hospital, Shivaji Nagar",
          "source": "OpenGovernmentData"
        }
      },
      {
        "type": "node",
        "id": 7070279104,
        "lat": 18.6026821,
        "lon": 73.7772542,
        "tags": {
          "addr:district": "Pune",
          "addr:full": "Sai Plaza, Rahatani Phata , Kalewadi Road, Kalewadi Road",
          "addr:postcode": "411033",
          "addr:state": "Maharashtra",
          "amenity": "hospital",
          "check_date": "2023-01-03",
          "healthcare": "hospital",
          "name": "Global Multi Speciality Hospital, Pune",
          "operator:type": "private",
          "source": "OpenGovernmentData"
        }
      },
      {
        "type": "node",
        "id": 7082518997,
        "lat": 18.5994905,
        "lon": 73.7636078,
        "tags": {
          "addr:district": "Pune",
          "addr:full": "Wakad -Dange Chowk Road ,Near Datta Mandir , Wakad",
          "addr:postcode": "411057",
          "addr:state": "Maharashtra",
          "amenity": "hospital",
          "name": "Polaris Health Care",
          "source": "OpenGovernmentData"
        }
      },
      {
        "type": "node",
        "id": 8814550418,
        "lat": 18.6048925,
        "lon": 73.7785403,
        "tags": {
          "addr:district": "Pune",
          "addr:full": "Pune",
          "addr:postcode": "411017",
          "addr:state": "Maharashtra",
          "amenity": "hospital",
          "healthcare": "hospital",
          "name": "Jeevanjyoti Hospital",
          "source": "Local Knowledge"
        }
      },
      {
        "type": "node",
        "id": 9864881917,
        "lat": 18.5952914,
        "lon": 73.769299,
        "tags": {
          "amenity": "pharmacy",
          "name": "\u092e\u0947\u0921\u093f\u092a\u094d\u0932\u0938",
          "name:en": "Mediplus"
        }
      },
      {
        "type": "node",
        "id": 9864893717,
        "lat": 18.5983735,
        "lon": 73.7694434,
        "tags": {
          "addr:floor": "G",
          "air_conditioning": "yes",
          "amenity": "restaurant",
          "branch": "Wakad",
          "check_date": "2023-03-04",
          "cuisine": "pizza;burger;coffee_shop;sandwich;italian;indian",
          "drive_through": "no",
          "level": "0",
          "name": "Tea villa cafe",
          "name:en": "Tea villa cafe",
          "name:mr": "\u091f\u0940 \u0935\u093f\u0932\u093e \u0915\u0945\u092b\u0947",
          "opening_hours": "11:00-23:00",
          "outdoor_seating": "yes",
          "phone": "+91 74998 53621",
          "source": "survey"
        }
      },
      {
        "type": "node",
        "id": 9864905317,
        "lat": 18.5965035,
        "lon": 73.7687197,
        "tags": {
          "addr:floor": "G",
          "addr:housenumber": "Survey no. 192/6",
          "check_date": "2023-06-06",
          "level": "0",
          "name": "\u0938\u094d\u091f\u093e\u0930 \u092c\u093e\u091c\u093e\u0930",
          "name:en": "Star bazaar",
          "name:mr": "\u0938\u094d\u091f\u093e\u0930 \u092c\u093e\u091c\u093e\u0930",
          "opening_hours": "Mo-Su 07:00-22:00",
          "shop": "supermarket"
        }
      },
      {
        "type": "node",
        "id": 9864911217,
        "lat": 18.5955841,
        "lon": 73.7689848,
        "tags": {
          "addr:floor": "G",
          "addr:housenumber": "shop no.1-3",
          "addr:postcode": "411057",
          "addr:street": "K Rambhau Dada Kalate Marg",
          "addr:unit": "Riddhi siddhi heights",
          "amenity": "restaurant",
          "check_date": "2022-12-22",
          "level": "0",
          "name": "\u0917\u094d\u0932\u094b\u092c\u0932 \u092a\u0902\u091c\u093e\u092c",
          "name:en": "Global Punjab",
          "name:mr": "\u0917\u094d\u0932\u094b\u092c\u0932 \u092a\u0902\u091c\u093e\u092c",
          "outdoor_seating": "no",
          "phone": "+91 77988 11553",
          "source": "survey",
          "website": "https://globalpunjab.in"
        }
      },
      {
        "type": "node",
        "id": 9864913817,
        "lat": 18.5955331,
        "lon": 73.7687435,
        "tags": {
          "amenity": "fast_food",
          "branch": "Wakad",
          "brand": "Subway",
          "brand:wikidata": "Q244457",
          "check_date": "2022-11-28",
          "cuisine": "sandwich",
          "drive_through": "no",
          "name": "Subway",
          "name:en": "Subway",
          "name:mr": "\u0938\u092c\u0935\u0947",
          "opening_hours": "Mo-Su 10:00-23:00",
          "phone": "+91 90283 40000",
          "source": "survey",
          "takeaway": "yes"
        }
      },
      {
        "type": "node",
        "id": 9864913917,
        "lat": 18.5955581,
        "lon": 73.768883,
        "tags": {
          "addr:floor": "G",
          "addr:housenumber": "shop no.4-5",
          "addr:postcode": "411057",
          "addr:street": "K Rambhau Dada Kalate Marg",
          "addr:unit": "Riddhi siddhi heights",
          "amenity": "pharmacy",
          "check_date": "2023-10-10",
          "dispensing": "yes",
          "drive_through": "no",
          "level": "0",
          "name": "Wellness forever",
          "name:en": "Wellness forever",
          "name:mr": "\u0935\u0947\u0932\u0928\u0947\u0938 \u092b\u094b\u0930\u090f\u0935\u094d\u0939\u0930",
          "opening_hours": "24/7",
          "payment:cash": "yes",
          "payment:credit_cards": "yes",
          "payment:debit_cards": "yes",
          "payment:upi": "yes",
          "phone": "+91 20 2986 0041; +91 20 2986 0042",
          "source": "local knowledge",
          "wheelchair": "no"
        }
      },
      {
        "type": "node",
        "id": 9864914617,
        "lat": 18.5950168,
        "lon": 73.7685,
        "tags": {
          "amenity": "restaurant",
          "check_date": "2022-09-09",
          "diet:vegetarian": "yes",
          "name": "Oh Deli",
          "name:en": "Oh Deli",
          "name:mr": "\u0913\u0939 \u0921\u0947\u0932\u0940"
        }
      },
      {
        "type": "node",
        "id": 9872242993,
        "lat": 18.5977308,
        "lon": 73.7638132,
        "tags": {
          "addr:housenumber": "shop no2, Kalate COmplex, Mauli Chowk",
          "addr:street": "Datta Mandir Road",
          "name": "Creamy Slice By Anu",
          "opening_hours": "Mo-Su 09:00-21:00",
          "operator": "Anushri Sarang Bhagwat",
          "shop": "supermarket"
        }
      },
      {
        "type": "node",
        "id": 9875713617,
        "lat": 18.5976186,
        "lon": 73.7697285,
        "tags": {
          "amenity": "fast_food",
          "name": "\u0915\u0928\u094d\u0928\u0942 \u0915\u0940 \u091a\u093e",
          "name:en": "Kannu ki chai",
          "name:mr": "\u0915\u0928\u094d\u0928\u0942 \u0915\u0940 \u091a\u093e\u092f",
          "opening_hours": "Mo-Su 07:30-23:00"
        }
      },
      {
        "type": "node",
        "id": 9880901217,
        "lat": 18.5958771,
        "lon": 73.770991,
        "tags": {
          "amenity": "fast_food",
          "check_date": "2023-03-09",
          "cuisine": "chat",
          "diet:vegetarian": "yes",
          "drive_through": "no",
          "name": "\u092c\u093e\u0932\u093e\u091c\u0940 \u092d\u0947\u0933",
          "name:en": "Balaji Bhel",
          "name:mr": "\u092c\u093e\u0932\u093e\u091c\u0940 \u092d\u0947\u0933",
          "opening_hours": "Mo-Su 16:00-22:30",
          "phone": "+91 90219 96108",
          "website": "https://link.zomato.com/xqzv/rshare?id=16546538cc7b9437"
        }
      },
      {
        "type": "node",
        "id": 9918467754,
        "lat": 18.5982119,
        "lon": 73.7741954,
        "tags": {
          "addr:floor": "G",
          "amenity": "atm",
          "check_date": "2023-06-28",
          "level": "0",
          "natural": "tree",
          "network": "HDFC"
        }
      },
      {
        "type": "node",
        "id": 9918496087,
        "lat": 18.5984352,
        "lon": 73.7742369,
        "tags": {
          "addr:city": "Pune",
          "addr:floor": "G",
          "addr:housename": "KPS avenue",
          "addr:street": "Kaspate Vasti Road",
          "amenity": "fast_food",
          "check_date": "2022-07-29",
          "cuisine": "kachori",
          "diet:vegetarian": "yes",
          "level": "0",
          "name": "\u0936\u0947\u0917\u093e\u0902\u0935 \u0915\u091a\u094b\u0930\u0940",
          "name:en": "Shegav Kachori",
          "name:mr": "\u0936\u0947\u0917\u093e\u0902\u0935 \u0915\u091a\u094b\u0930\u0940",
          "phone": "+91 94200 05554"
        }
      },
      {
        "type": "node",
        "id": 9918506440,
        "lat": 18.5984123,
        "lon": 73.7745457,
        "tags": {
          "addr:floor": "G",
          "amenity": "restaurant",
          "check_date": "2022-07-29",
          "level": "0",
          "name": "\u0936\u094d\u0930\u0940 \u0906\u0936\u093e \u092a\u0941\u0930\u0940 \u092d\u094b\u091c\u0928\u093e\u0932\u092f",
          "name:en": "Shri Ashapuri Bhojanalay",
          "name:mr": "\u0936\u094d\u0930\u0940 \u0906\u0936\u093e \u092a\u0941\u0930\u0940 \u092d\u094b\u091c\u0928\u093e\u0932\u092f"
        }
      },
      {
        "type": "node",
        "id": 9921845595,
        "lat": 18.5961527,
        "lon": 73.7719111,
        "tags": {
          "addr:floor": "G",
          "amenity": "atm",
          "check_date": "2024-07-18",
          "level": "0",
          "operator": "HDFC"
        }
      },
      {
        "type": "node",
        "id": 9924598652,
        "lat": 18.5961963,
        "lon": 73.7720889,
        "tags": {
          "addr:floor": "G",
          "amenity": "pharmacy",
          "check_date": "2024-07-18",
          "healthcare": "pharmacy",
          "level": "0",
          "name": "\u0905\u092a\u094b\u0932\u094b \u092b\u093e\u0930\u094d\u092e\u0938\u0940",
          "name:en": "Apollo pharmacy",
          "name:mr": "\u0905\u092a\u094b\u0932\u094b \u092b\u093e\u0930\u094d\u092e\u0938\u0940",
          "opening_hours": "07:00-23:00",
          "operator": "Apollo pharmacy",
          "phone": "+91 73044 41203"
        }
      },
      {
        "type": "node",
        "id": 9924598653,
        "lat": 18.5958053,
        "lon": 73.7719249,
        "tags": {
          "addr:floor": "G",
          "amenity": "pharmacy",
          "check_date": "2022-08-01",
          "healthcare": "pharmacy",
          "level": "0",
          "name": "\u0938\u093e\u0908 \u092e\u0947\u0921\u093f\u0915\u094b",
          "name:en": "Sai Medico",
          "name:mr": "\u0938\u093e\u0908 \u092e\u0947\u0921\u093f\u0915\u094b"
        }
      },
      {
        "type": "node",
        "id": 9924598654,
        "lat": 18.5958207,
        "lon": 73.7719831,
        "tags": {
          "addr:floor": "G",
          "amenity": "clinic",
          "check_date": "2022-08-01",
          "healthcare": "clinic",
          "healthcare:speciality": "paediatrics;dentist",
          "level": "0",
          "name": "\u092a\u0947\u091f\u0932\u094d\u0938 \u0932\u0939\u093e\u0928 \u092e\u0941\u0932\u093e\u0902\u091a\u093e \u0935 \u0926\u093e\u0924\u093e\u0902\u091a\u093e \u0926\u0935\u093e\u0916\u093e\u0928\u093e",
          "name:en": "Petals child care and dental clinic",
          "name:mr": "\u092a\u0947\u091f\u0932\u094d\u0938 \u0932\u0939\u093e\u0928 \u092e\u0941\u0932\u093e\u0902\u091a\u093e \u0935 \u0926\u093e\u0924\u093e\u0902\u091a\u093e \u0926\u0935\u093e\u0916\u093e\u0928\u093e"
        }
      },
      {
        "type": "node",
        "id": 9924623067,
        "lat": 18.5958456,
        "lon": 73.7721098,
        "tags": {
          "amenity": "clinic",
          "check_date": "2022-08-01",
          "healthcare": "clinic",
          "healthcare:speciality": "ayurvedic",
          "name": "\u0906\u0930\u094b\u0917\u094d\u092f\u092e \u0906\u092f\u0941\u0930\u094d\u0935\u0947\u0926 \u092a\u0902\u091a\u0915\u0930\u094d\u092e",
          "name:en": "Arogyam ayurved panchkarma",
          "name:mr": "\u0906\u0930\u094b\u0917\u094d\u092f\u092e \u0906\u092f\u0941\u0930\u094d\u0935\u0947\u0926 \u092a\u0902\u091a\u0915\u0930\u094d\u092e"
        }
      },
      {
        "type": "node",
        "id": 9924626861,
        "lat": 18.5958367,
        "lon": 73.7720497,
        "tags": {
          "amenity": "restaurant",
          "check_date": "2022-08-01",
          "diet:vegetarian": "yes",
          "name": "\u0930\u093e\u0927\u093e",
          "name:en": "Radha",
          "name:mr": "\u0930\u093e\u0927\u093e"
        }
      },
      {
        "type": "node",
        "id": 9933176428,
        "lat": 18.5980311,
        "lon": 73.7740941,
        "tags": {
          "amenity": "fast_food",
          "check_date": "2022-08-05",
          "cuisine": "chips",
          "name": "\u0939\u0949\u091f \u091a\u093f\u092a\u094d\u0938",
          "name:en": "Hot chips",
          "name:mr": "\u0939\u0949\u091f \u091a\u093f\u092a\u094d\u0938"
        }
      },
      {
        "type": "node",
        "id": 9943153970,
        "lat": 18.5947058,
        "lon": 73.7688817,
        "tags": {
          "amenity": "clinic",
          "check_date": "2022-12-20",
          "healthcare": "clinic",
          "name": "Dr Patil\u2019s dental hospital",
          "name:en": "Dr Patil\u2019s dental hospital",
          "name:mr": "\u092a\u093e\u091f\u0940\u0932 \u0926\u093e\u0924\u093e\u0902\u091a\u0947 \u091a\u093f\u0915\u093f\u0924\u094d\u0938\u093e\u0932\u092f",
          "phone": "+91 77099 46076; +91 84464 55063"
        }
      },
      {
        "type": "node",
        "id": 9949603898,
        "lat": 18.599153,
        "lon": 73.7731198,
        "tags": {
          "addr:floor": "G",
          "amenity": "clinic",
          "check_date": "2022-08-12",
          "healthcare": "clinic",
          "healthcare:speciality": "general",
          "level": "0",
          "name": "Holistic health clinic",
          "name:en": "Holistic health clinic",
          "opening_hours": "Mo,We,Fr off; Tu,Th 17:00-19:00; Sa-Su 10:00-13:00"
        }
      },
      {
        "type": "node",
        "id": 9957330125,
        "lat": 18.5988426,
        "lon": 73.7639936,
        "tags": {
          "addr:floor": "3",
          "addr:street": "Datta Mandir Road",
          "addr:unit": "Health Plaza",
          "alt_name": "Dr Anay Deshmukh clinic",
          "alt_name:mr": "\u0921\u0949 \u0905\u0928\u092f \u0926\u0947\u0936\u092e\u0941\u0916 \u091a\u093f\u0915\u093f\u0924\u094d\u0938\u093e\u0932\u092f",
          "amenity": "clinic",
          "check_date": "2023-07-14",
          "healthcare": "clinic",
          "healthcare:speciality": "paediatrics",
          "level": "3",
          "name": "Tiny steps childcare and vaccination clinic",
          "name:en": "Tiny steps childcare and vaccination clinic",
          "name:mr": "\u091f\u093e\u0907\u0928\u0940 \u0938\u094d\u091f\u0947\u092a\u094d\u0938 \u092c\u093e\u0932\u0930\u094b\u0917 \u0935 \u0932\u0938\u0940\u0915\u0930\u0923 \u0915\u0947\u0902\u0926\u094d\u0930",
          "opening_hours": "Mo-Sa 10:00-14:00,18:00-20:30; Su off",
          "operator": "Dr Anay Deshmukh",
          "operator:mr": "\u0921\u0949 \u0905\u0928\u092f \u0926\u0947\u0936\u092e\u0941\u0916",
          "operator:type": "private",
          "payment:upi": "yes",
          "phone": "+91 77440 88440"
        }
      },
      {
        "type": "node",
        "id": 9961472515,
        "lat": 18.5954484,
        "lon": 73.7681213,
        "tags": {
          "addr:floor": "G",
          "addr:housename": "Riddhi Siddhi heights",
          "addr:housenumber": "Shop 25-26",
          "addr:postcode": "411057",
          "addr:street": "K Rambhau Dada Kalate Marg",
          "amenity": "restaurant",
          "check_date": "2023-06-19",
          "cuisine": "pizza;pasta;ramen;japanese;coffee_shop;thai",
          "description": "dining desert coffee",
          "level": "0",
          "name": "Cafe Peter",
          "name:en": "Cafe Peter",
          "name:mr": "\u0915\u0945\u092b\u0947 \u092a\u0940\u091f\u0930",
          "opening_hours": "07:00-23:00",
          "source": "survey;gps",
          "wheelchair": "limited"
        }
      },
      {
        "type": "node",
        "id": 9961484838,
        "lat": 18.5986822,
        "lon": 73.7698404,
        "tags": {
          "addr:floor": "G",
          "amenity": "cafe",
          "check_date": "2022-08-18",
          "internet_access": "no",
          "level": "0",
          "name": "\u0936\u094d\u0930\u0940 \u0938\u094d\u0935\u093e\u092e\u0940 \u0938\u092e\u0930\u094d\u0925 \u0905\u092e\u0943\u0924\u0924\u0941\u0932\u094d\u092f",
          "name:en": "Shri Swami Samarth Amruttulya",
          "name:mr": "\u0936\u094d\u0930\u0940 \u0938\u094d\u0935\u093e\u092e\u0940 \u0938\u092e\u0930\u094d\u0925 \u0905\u092e\u0943\u0924\u0924\u0941\u0932\u094d\u092f",
          "phone": "70711457777",
          "source": "survey;gps"
        }
      },
      {
        "type": "node",
        "id": 9964024486,
        "lat": 18.5962751,
        "lon": 73.7740191,
        "tags": {
          "amenity": "fast_food",
          "check_date": "2022-08-19",
          "cuisine": "juice;sugarcane juice",
          "name": "\u0936\u094d\u0930\u0940 \u0917\u0923\u0947\u0936 \u0930\u0938\u0935\u0902\u0924\u0940 \u0917\u0943\u0939",
          "name:en": "Shri Ganesh sugarcane juice",
          "name:mr": "\u0936\u094d\u0930\u0940 \u0917\u0923\u0947\u0936 \u0930\u0938\u0935\u0902\u0924\u0940 \u0917\u0943\u0939"
        }
      },
      {
        "type": "node",
        "id": 9981925165,
        "lat": 18.5945809,
        "lon": 73.7687807,
        "tags": {
          "addr:floor": "3",
          "air_conditioning": "yes",
          "amenity": "hospital",
          "check_date": "2023-06-09",
          "healthcare": "hospital",
          "healthcare:speciality": "paediatrics",
          "level": "3",
          "name": "Little miracle childrens hospital",
          "name:en": "Little miracle childrens hospital",
          "name:mr": "\u0932\u093f\u091f\u093f\u0932 \u092e\u093f\u0930\u0945\u0915\u0932 \u091a\u093f\u0932\u094d\u0921\u0930\u094d\u0938\u0902 \u0939\u0949\u0938\u094d\u092a\u093f\u091f\u0932",
          "operator:type": "private",
          "phone": "+91 77579 33138",
          "source": "local knowledge",
          "wheelchair": "yes"
        }
      },
      {
        "type": "node",
        "id": 9989065922,
        "lat": 18.5984154,
        "lon": 73.7634439,
        "tags": {
          "name": "\u0938\u094d\u091f\u093e\u0930 \u092c\u093e\u091c\u093e\u0930",
          "name:en": "Star Bazaar",
          "name:mr": "\u0938\u094d\u091f\u093e\u0930 \u092c\u093e\u091c\u093e\u0930",
          "shop": "supermarket"
        }
      },
      {
        "type": "node",
        "id": 9994019936,
        "lat": 18.598837,
        "lon": 73.764061,
        "tags": {
          "addr:housenumber": "3rd floor",
          "addr:street": "Datta Mandir Road",
          "addr:unit": "Health Plaza",
          "amenity": "clinic",
          "check_date": "2022-09-02",
          "healthcare": "clinic",
          "healthcare:speciality": "gastroenterology",
          "name": "Liver and gastro clinic",
          "name:en": "Liver and gastro clinic",
          "name:mr": "\u092f\u0915\u0943\u0924 \u0935 \u091c\u0920\u0930\u093e\u091a\u093e \u0926\u0935\u093e\u0916\u093e\u0928\u093e",
          "operator": "Dr Sachin Palnitkar"
        }
      },
      {
        "type": "node",
        "id": 9994019937,
        "lat": 18.5988097,
        "lon": 73.7640696,
        "tags": {
          "addr:floor": "3",
          "addr:housenumber": "3rd floor",
          "addr:street": "Datta Mandir Road",
          "addr:unit": "Health Plaza",
          "amenity": "clinic",
          "check_date": "2022-09-02",
          "healthcare": "clinic",
          "healthcare:speciality": "ayurved",
          "level": "3",
          "name": "\u0930\u094b\u0939\u093f\u0923\u0940 \u0906\u092f\u0941\u0930\u094d\u0935\u0947\u0926",
          "name:en": "Rohini Ayurved",
          "name:mr": "\u0930\u094b\u0939\u093f\u0923\u0940 \u0906\u092f\u0941\u0930\u094d\u0935\u0947\u0926",
          "operator": "Dr Priya"
        }
      },
      {
        "type": "node",
        "id": 10011614805,
        "lat": 18.5955251,
        "lon": 73.7686891,
        "tags": {
          "addr:floor": "G",
          "addr:housenumber": "shop 10-11",
          "addr:street": "Mhatoba road",
          "addr:unit": "Riddhi siddhi heights",
          "amenity": "restaurant",
          "check_date": "2023-02-28",
          "cuisine": "indian",
          "email": "amritsari.sahibdairy@gmail.com",
          "level": "0",
          "name": "Amritsari",
          "name:en": "Amritsari",
          "name:mr": "\u0905\u092e\u0943\u0924\u0938\u0930\u0940",
          "opening_hours": "11:00-16:00,19:00-23:00; Mo[-1] off",
          "phone": "+91 91683 80000",
          "wheelchair": "yes"
        }
      },
      {
        "type": "node",
        "id": 10035430818,
        "lat": 18.5975042,
        "lon": 73.7742432,
        "tags": {
          "addr:floor": "G",
          "amenity": "pharmacy",
          "brand": "MedPlus",
          "check_date": "2022-09-19",
          "healthcare": "pharmacy",
          "level": "0",
          "name": "MedPlus",
          "name:en": "MedPlus",
          "name:mr": "\u092e\u0947\u0921\u092a\u094d\u0932\u0938"
        }
      },
      {
        "type": "node",
        "id": 10040996876,
        "lat": 18.5975605,
        "lon": 73.7697014,
        "tags": {
          "amenity": "fast_food",
          "check_date": "2022-09-21",
          "drive_through": "no",
          "name": "Fluffy egg",
          "name:en": "Fluffy egg",
          "name:mr": "\u092b\u094d\u0932\u092b\u0940 \u090f\u0917\u094d",
          "source": "local knowledge"
        }
      },
      {
        "type": "node",
        "id": 10060203053,
        "lat": 18.5974816,
        "lon": 73.7638371,
        "tags": {
          "amenity": "atm",
          "check_date": "2022-09-29",
          "operator": "IndusInd Bank"
        }
      },
      {
        "type": "node",
        "id": 10060203054,
        "lat": 18.5973778,
        "lon": 73.763958,
        "tags": {
          "amenity": "atm",
          "check_date": "2022-09-29",
          "operator": "Saraswat Bank"
        }
      },
      {
        "type": "node",
        "id": 10060203055,
        "lat": 18.5974151,
        "lon": 73.7639848,
        "tags": {
          "amenity": "bank",
          "branch": "Wakad",
          "branch:mr": "\u0935\u093e\u0915\u0921",
          "check_date": "2022-09-29",
          "name": "Saraswat Bank",
          "name:en": "Saraswat Bank",
          "name:mr": "\u0938\u093e\u0930\u0938\u094d\u0935\u0924 \u092c\u0945\u0902\u0915",
          "wheelchair": "no"
        }
      },
      {
        "type": "node",
        "id": 10079717837,
        "lat": 18.5953913,
        "lon": 73.7674474,
        "tags": {
          "addr:floor": "G",
          "amenity": "clinic",
          "check_date": "2022-12-28",
          "healthcare": "clinic",
          "healthcare:speciality": "paediatrics;vaccination",
          "level": "0",
          "name": "Mamta child care",
          "name:en": "Mamta child care",
          "name:mr": "\u092e\u092e\u0924\u093e \u091a\u093e\u0907\u0932\u094d\u0921 \u0915\u0947\u0905\u0930",
          "opening_hours": "Mo-Sa 10:00-13:00,18:00-21:00; Su off",
          "operator": "Dr Mamta Verma",
          "operator:type": "private",
          "phone": "+91 86689 93901"
        }
      },
      {
        "type": "node",
        "id": 10079750897,
        "lat": 18.5953696,
        "lon": 73.7668194,
        "tags": {
          "amenity": "restaurant",
          "check_date": "2022-10-06",
          "name": "Momo panda",
          "name:en": "Momo panda",
          "name:mr": "\u092e\u094b\u092e\u094b \u092a\u093e\u0902\u0921\u093e"
        }
      },
      {
        "type": "node",
        "id": 10123120130,
        "lat": 18.5985965,
        "lon": 73.7638013,
        "tags": {
          "amenity": "fast_food",
          "check_date": "2022-10-23",
          "cuisine": "juice",
          "diet:vegetarian": "sugarcane juice",
          "name": "\u0915\u093e\u0928\u093f\u092b\u0928\u093e\u0925 \u0930\u0938\u0935\u093e\u0902\u0924\u0940\u0917\u0943\u0939",
          "name:en": "Rasavanti gruha",
          "name:mr": "\u0915\u093e\u0928\u093f\u092b\u0928\u093e\u0925 \u0930\u0938\u0935\u093e\u0902\u0924\u0940\u0917\u0943\u0939"
        }
      },
      {
        "type": "node",
        "id": 10123970382,
        "lat": 18.596399,
        "lon": 73.7738041,
        "tags": {
          "addr:floor": "G",
          "amenity": "pharmacy",
          "check_date": "2024-01-19",
          "healthcare": "pharmacy",
          "level": "0",
          "name": "Krishna medical",
          "name:en": "Krishna medical",
          "name:mr": "\u0915\u0943\u0937\u094d\u0923\u093e \u092e\u0947\u0921\u093f\u0915\u0932",
          "opening_hours": "08:30-23:00",
          "phone": "+91 99606 24460"
        }
      },
      {
        "type": "node",
        "id": 10125611466,
        "lat": 18.5982864,
        "lon": 73.7638665,
        "tags": {
          "branch": "Wakad",
          "check_date": "2022-10-24",
          "name": "The Superstore",
          "name:en": "The Superstore",
          "name:mr": "\u0926 \u0938\u0941\u092a\u0930\u0938\u094d\u091f\u094b\u0905\u0930",
          "shop": "supermarket"
        }
      },
      {
        "type": "node",
        "id": 10132643653,
        "lat": 18.5980621,
        "lon": 73.7634988,
        "tags": {
          "addr:floor": "G",
          "amenity": "restaurant",
          "check_date": "2023-01-24",
          "level": "1",
          "name": "Green ways",
          "name:en": "Green ways",
          "name:mr": "\u0917\u094d\u0930\u0940\u0928 \u0935\u0947\u091d"
        }
      },
      {
        "type": "node",
        "id": 10139641469,
        "lat": 18.5960302,
        "lon": 73.7736568,
        "tags": {
          "amenity": "cafe",
          "check_date": "2022-10-30",
          "name": "Mauli tea center",
          "name:en": "Mauli tea center",
          "name:mr": "\u092e\u093e\u090a\u0932\u0940 \u091f\u0940 \u0938\u0947\u0902\u091f\u0930"
        }
      },
      {
        "type": "node",
        "id": 10184830871,
        "lat": 18.5946149,
        "lon": 73.7688923,
        "tags": {
          "addr:housenumber": "109",
          "addr:street": "\u0930\u093e\u092e\u092d\u093e\u090a \u0915\u0932\u093e\u091f\u0947 \u092e\u093e\u0930\u094d\u0917",
          "addr:unit": "Westwood estates",
          "amenity": "clinic",
          "check_date": "2022-11-15",
          "healthcare": "clinic",
          "name": "Able speciality clinic",
          "name:en": "Able speciality clinic",
          "name:mr": "\u090f\u092c\u0947\u0932\u094d \u0915\u094d\u0932\u093f\u0928\u093f\u0915",
          "opening_hours": "Mo-Sa 16:00-18:00; Su off",
          "operator": "DR. MUNISH CHHABRA",
          "phone": "+91 89992 03675; +91 89993 32758"
        }
      },
      {
        "type": "node",
        "id": 10235421239,
        "lat": 18.5984144,
        "lon": 73.766591,
        "tags": {
          "addr:floor": "G",
          "amenity": "cafe",
          "check_date": "2023-10-08",
          "level": "0",
          "name": "Bombay culture",
          "name:en": "Bombay culture",
          "name:mr": "\u092c\u0949\u092e\u094d\u092c\u0947 \u0915\u0932\u094d\u091a\u0930",
          "opening_hours": "09:00-23:45"
        }
      },
      {
        "type": "node",
        "id": 10236598050,
        "lat": 18.5983844,
        "lon": 73.7679863,
        "tags": {
          "amenity": "cafe",
          "check_date": "2025-03-09",
          "name": "\u0905\u092e\u0942\u0932",
          "name:en": "Amul",
          "name:mr": "\u0905\u092e\u0942\u0932"
        }
      },
      {
        "type": "node",
        "id": 10245115749,
        "lat": 18.5977232,
        "lon": 73.7693156,
        "tags": {
          "name": "\u0905\u0926\u0943\u0936\u094d\u092f",
          "name:en": "Adrish",
          "name:mr": "\u0905\u0926\u0943\u0936\u094d\u092f",
          "organic": "only",
          "shop": "supermarket"
        }
      },
      {
        "type": "node",
        "id": 10245849761,
        "lat": 18.5960161,
        "lon": 73.7733576,
        "tags": {
          "addr:floor": "G",
          "amenity": "fast_food",
          "check_date": "2022-12-08",
          "cuisine": "juice;ice_cream",
          "level": "0",
          "name": "\u092e\u093e\u092f \u090a\u0930\u094d\u091c\u093e",
          "name:en": "My urja",
          "name:mr": "\u092e\u093e\u092f \u090a\u0930\u094d\u091c\u093e"
        }
      },
      {
        "type": "node",
        "id": 10245868486,
        "lat": 18.5965173,
        "lon": 73.7726692,
        "tags": {
          "addr:floor": "G",
          "amenity": "cafe",
          "brand": "Cafe Durga (by Shashank Mengade)",
          "check_date": "2022-12-23",
          "description": "Brand by Shashank mengade",
          "internet_access": "no",
          "level": "0",
          "name": "\u0915\u0945\u092b\u0947 \u0926\u0941\u0930\u094d\u0917\u093e",
          "name:en": "Cafe Durga",
          "name:mr": "\u0915\u0945\u092b\u0947 \u0926\u0941\u0930\u094d\u0917\u093e",
          "opening_hours": "09:00-22:00",
          "outdoor_seating": "yes",
          "wheelchair": "no"
        }
      },
      {
        "type": "node",
        "id": 10245874537,
        "lat": 18.5960288,
        "lon": 73.7735822,
        "tags": {
          "addr:floor": "G",
          "amenity": "atm",
          "check_date": "2022-12-08",
          "level": "0",
          "operator": "Bank of Baroda"
        }
      },
      {
        "type": "node",
        "id": 10245874538,
        "lat": 18.5960266,
        "lon": 73.7735517,
        "tags": {
          "amenity": "atm",
          "check_date": "2022-12-08",
          "operator": "Axis bank"
        }
      },
      {
        "type": "node",
        "id": 10255150045,
        "lat": 18.5958885,
        "lon": 73.7690588,
        "tags": {
          "addr:floor": "G",
          "amenity": "cafe",
          "check_date": "2023-09-02",
          "level": "0",
          "name": "Read and brew",
          "name:en": "Read and brew",
          "name:mr": "\u0930\u0940\u0921 \u0905\u0901\u0921 \u092c\u094d\u0930\u0942"
        }
      },
      {
        "type": "node",
        "id": 10258370974,
        "lat": 18.5963402,
        "lon": 73.7729173,
        "tags": {
          "addr:floor": "1",
          "amenity": "restaurant",
          "check_date": "2022-12-13",
          "cuisine": "Marathi",
          "level": "1",
          "name": "\u0930\u093e\u091c\u0927\u093e\u0928\u0940",
          "name:en": "Rajdhani",
          "name:mr": "\u0930\u093e\u091c\u0927\u093e\u0928\u0940"
        }
      },
      {
        "type": "node",
        "id": 10275170977,
        "lat": 18.5946752,
        "lon": 73.7686549,
        "tags": {
          "addr:floor": "G",
          "addr:housenumber": "shop 9",
          "addr:street": "Mont vert Tropez road",
          "addr:unit": "Westwood Estates",
          "air_conditioning": "yes",
          "amenity": "restaurant",
          "bar": "no",
          "branch": "Wakad",
          "brand": "Chicago pizza",
          "capacity": "30",
          "check_date": "2023-06-09",
          "cuisine": "pizza",
          "level": "0",
          "name": "Chicago pizza",
          "name:en": "Chicago pizza",
          "name:mr": "\u0936\u093f\u0915\u093e\u0917\u094b \u092a\u093f\u091d\u094d\u091d\u093e",
          "outdoor_seating": "no",
          "phone": "+91 96322 08283",
          "source": "survey",
          "takeaway": "yes",
          "wheelchair": "no"
        }
      },
      {
        "type": "node",
        "id": 10277830602,
        "lat": 18.597659,
        "lon": 73.7698229,
        "tags": {
          "addr:floor": "G",
          "amenity": "restaurant",
          "check_date": "2022-12-21",
          "level": "0",
          "name": "\u0917\u091c\u092c",
          "name:en": "Gajab",
          "name:mr": "\u0917\u091c\u092c",
          "wheelchair": "limited"
        }
      },
      {
        "type": "node",
        "id": 10281885660,
        "lat": 18.5962746,
        "lon": 73.7733774,
        "tags": {
          "addr:floor": "G",
          "amenity": "fast_food",
          "check_date": "2022-12-23",
          "level": "0",
          "name": "\u092c\u093e\u0932\u093e\u091c\u0940 \u0935\u0921\u0947\u0935\u093e\u0932\u0947",
          "name:en": "Balaji vadewale",
          "name:mr": "\u092c\u093e\u0932\u093e\u091c\u0940 \u0935\u0921\u0947\u0935\u093e\u0932\u0947",
          "opening_hours": "09:00-21:00"
        }
      },
      {
        "type": "node",
        "id": 10281885661,
        "lat": 18.5960182,
        "lon": 73.7734486,
        "tags": {
          "addr:floor": "G",
          "amenity": "clinic",
          "check_date": "2022-12-23",
          "healthcare": "clinic",
          "healthcare:speciality": "paediatrics",
          "level": "0",
          "name": "Little star",
          "name:en": "Little star",
          "name:mr": "\u0932\u093f\u091f\u0932 \u0938\u094d\u091f\u093e\u0930"
        }
      },
      {
        "type": "node",
        "id": 10282260008,
        "lat": 18.596549,
        "lon": 73.7726751,
        "tags": {
          "addr:floor": "G",
          "amenity": "cafe",
          "check_date": "2022-12-23",
          "level": "0",
          "name": "Mystic cafe",
          "name:en": "Mystic cafe",
          "name:mr": "\u092e\u093f\u0938\u094d\u091f\u093f\u0915 \u0915\u0945\u092b\u0947",
          "outdoor_seating": "yes",
          "wheelchair": "no"
        }
      },
      {
        "type": "node",
        "id": 10282274310,
        "lat": 18.5964743,
        "lon": 73.7726606,
        "tags": {
          "addr:floor": "G",
          "amenity": "restaurant",
          "check_date": "2022-12-23",
          "cuisine": "Marathi",
          "level": "0",
          "name": "\u092e\u0939\u093e \u0916\u0935\u092f\u094d\u092f\u0947",
          "name:en": "Maha khavayye",
          "name:mr": "\u092e\u0939\u093e \u0916\u0935\u092f\u094d\u092f\u0947",
          "wheelchair": "no"
        }
      },
      {
        "type": "node",
        "id": 10282274312,
        "lat": 18.5964016,
        "lon": 73.772654,
        "tags": {
          "amenity": "restaurant",
          "check_date": "2022-12-23",
          "cuisine": "Kashmiri",
          "name": "Chouk Modur",
          "name:en": "Chouk Modur",
          "name:mr": "\u091a\u094c\u0915 \u092e\u094b\u0926\u0942\u0930",
          "takeaway": "yes"
        }
      },
      {
        "type": "node",
        "id": 10285556158,
        "lat": 18.6010007,
        "lon": 73.7621575,
        "tags": {
          "addr:floor": "1",
          "amenity": "cafe",
          "check_date": "2022-12-25",
          "level": "1",
          "name": "Urja Studio",
          "name:en": "Urja Studio",
          "name:mr": "\u0909\u0930\u094d\u091c\u093e \u0938\u094d\u091f\u0942\u0921\u093f\u092f\u094b",
          "office": "coworking",
          "phone": "+91 97305 57776",
          "website": "https://www.urja-studiocafe.com"
        }
      },
      {
        "type": "node",
        "id": 10285635094,
        "lat": 18.5984899,
        "lon": 73.7647008,
        "tags": {
          "addr:floor": "G",
          "air_conditioning": "no",
          "amenity": "restaurant",
          "capacity": "22",
          "check_date": "2023-05-21",
          "cuisine": "fish;seafood",
          "diet:non-vegetarian": "yes",
          "level": "1",
          "name": "\u092e\u093e\u0932\u0935\u0923 \u0938\u092e\u0941\u0926\u094d\u0930",
          "name:en": "Malvan samudra",
          "name:mr": "\u092e\u093e\u0932\u0935\u0923 \u0938\u092e\u0941\u0926\u094d\u0930",
          "opening_hours": "Mo-We,Fr-Su 11:30-15:00,19:00-23:15; Th 11:30-15:00",
          "payment:cards": "no",
          "payment:cash": "yes",
          "payment:credit_cards": "no",
          "payment:debit_cards": "no",
          "payment:upi": "yes",
          "phone": "+91 73787 77000",
          "wheelchair": "no"
        }
      },
      {
        "type": "node",
        "id": 10285672361,
        "lat": 18.5953785,
        "lon": 73.7669359,
        "tags": {
          "addr:floor": "G",
          "addr:housename": "shop no. 5 & 6",
          "addr:street": "Mhatoba Road",
          "addr:unit": "Riddhi Siddhi avenue",
          "check_date": "2023-03-25",
          "level": "0",
          "name": "Orgpick",
          "name:en": "Orgpick",
          "name:mr": "\u0911\u0930\u094d\u0917\u092a\u093f\u0915\u094d",
          "opening_hours": "07:30-20:00; Mo[-1] off",
          "organic": "yes",
          "phone": "+91 90280 49567",
          "shop": "supermarket",
          "website": "https://www.orgpick.com",
          "wheelchair": "no"
        }
      },
      {
        "type": "node",
        "id": 10286143181,
        "lat": 18.6025799,
        "lon": 73.7700037,
        "tags": {
          "amenity": "fast_food",
          "check_date": "2022-12-25",
          "cuisine": "paan",
          "name": "The paan cafe",
          "name:en": "The paan cafe",
          "name:mr": "\u0926 \u092a\u093e\u0928 \u0915\u0945\u092b\u0947",
          "opening_hours": "07:30-24:00",
          "wheelchair": "yes"
        }
      },
      {
        "type": "node",
        "id": 10286887123,
        "lat": 18.6026332,
        "lon": 73.7699961,
        "tags": {
          "amenity": "restaurant",
          "check_date": "2022-12-26",
          "name": "Saffron",
          "name:en": "Saffron",
          "name:mr": "\u0938\u0948\u092b\u094d\u0930\u0949\u0928"
        }
      },
      {
        "type": "node",
        "id": 10296602408,
        "lat": 18.6029178,
        "lon": 73.7770734,
        "tags": {
          "addr:floor": "G",
          "amenity": "bank",
          "branch": "PBB Wakad",
          "brand": "State Bank of India",
          "brand:wikidata": "Q1340361",
          "check_date": "2022-12-31",
          "level": "0",
          "name": "State Bank of India",
          "name:en": "State Bank of India",
          "name:mr": "\u0938\u094d\u091f\u0947\u091f \u092c\u0901\u0915 \u0911\u092b \u0907\u0902\u0921\u093f\u092f\u093e",
          "short_name": "SBI",
          "wheelchair": "no"
        }
      },
      {
        "type": "node",
        "id": 10300636345,
        "lat": 18.6027309,
        "lon": 73.7774085,
        "tags": {
          "addr:floor": "G",
          "amenity": "clinic",
          "check_date": "2023-01-02",
          "healthcare": "clinic",
          "healthcare:speciality": "paediatrics",
          "level": "0",
          "name": "Sunshine children clinic",
          "name:en": "Sunshine children clinic",
          "name:mr": "\u0938\u0928\u0936\u093e\u0907\u0928 \u091a\u093f\u0932\u094d\u0921\u094d\u0930\u0928 \u0915\u094d\u0932\u093f\u0928\u093f\u0915",
          "operator:type": "private"
        }
      },
      {
        "type": "node",
        "id": 10300636347,
        "lat": 18.6025763,
        "lon": 73.7773987,
        "tags": {
          "amenity": "hospital",
          "check_date": "2023-01-02",
          "healthcare": "hospital",
          "healthcare:speciality": "oncology",
          "name": "Lakshya cancer hospital",
          "name:en": "Lakshya cancer hospital",
          "name:mr": "\u0932\u0915\u094d\u0937\u094d\u092f \u0915\u0945\u0928\u094d\u0938\u0930 \u0939\u0949\u0938\u094d\u092a\u093f\u091f\u0932",
          "operator:type": "private",
          "phone": "+91 80072 41918"
        }
      },
      {
        "type": "node",
        "id": 10310521656,
        "lat": 18.6007078,
        "lon": 73.7636984,
        "tags": {
          "addr:floor": "G",
          "amenity": "cafe",
          "check_date": "2023-01-04",
          "level": "1",
          "name": "\u091a\u093e\u092f \u0921\u0947\u0938\u094d\u091f\u093f\u0928\u0947\u0936\u0928",
          "name:en": "Chai destination",
          "name:mr": "\u091a\u093e\u092f \u0921\u0947\u0938\u094d\u091f\u093f\u0928\u0947\u0936\u0928",
          "opening_hours": "Mo-Su 09:00-21:00"
        }
      },
      {
        "type": "node",
        "id": 10538414659,
        "lat": 18.597049,
        "lon": 73.7640799,
        "tags": {
          "addr:floor": "G",
          "amenity": "restaurant",
          "check_date": "2023-01-11",
          "level": "0",
          "name": "\u0924\u0924\u094d\u0935",
          "name:en": "Tatva",
          "name:mr": "\u0924\u0924\u094d\u0935"
        }
      },
      {
        "type": "node",
        "id": 10579277150,
        "lat": 18.5984803,
        "lon": 73.7640386,
        "tags": {
          "amenity": "hospital",
          "check_date": "2023-01-24",
          "healthcare": "hospital",
          "name": "Alpha hospital",
          "name:en": "Alpha hospital",
          "name:mr": "\u0905\u0932\u094d\u092b\u093e \u0939\u0949\u0938\u094d\u092a\u093f\u091f\u0932"
        }
      },
      {
        "type": "node",
        "id": 10579277153,
        "lat": 18.5984301,
        "lon": 73.7638913,
        "tags": {
          "addr:floor": "G",
          "amenity": "cafe",
          "check_date": "2023-01-24",
          "level": "1",
          "name": "Big bean cafe",
          "name:en": "Big bean cafe",
          "name:mr": "\u092c\u093f\u0917 \u092c\u0940\u0928 \u0915\u0945\u092b\u0947"
        }
      },
      {
        "type": "node",
        "id": 10579277154,
        "lat": 18.5982697,
        "lon": 73.7638062,
        "tags": {
          "addr:floor": "G",
          "amenity": "cafe",
          "check_date": "2023-01-24",
          "level": "1",
          "name": "The Irish coffee",
          "name:en": "The Irish coffee",
          "name:mr": "\u0926 \u0906\u092f\u0930\u093f\u0936 \u0915\u0949\u092b\u0940",
          "outdoor_seating": "no"
        }
      },
      {
        "type": "node",
        "id": 10603809536,
        "lat": 18.6049878,
        "lon": 73.7719363,
        "tags": {
          "addr:city": "Pune",
          "addr:floor": "G",
          "addr:housenumber": "Wakad",
          "addr:postcode": "411057",
          "addr:street": "Shri Chatrapati Shivaji Maharaj Road",
          "amenity": "pharmacy",
          "check_date": "2025-03-08",
          "dispensing": "no",
          "healthcare": "pharmacy",
          "level": "0",
          "name": "Well Care Chemist",
          "name:en": "Well Care Chemist",
          "name:mr": "\u0935\u0947\u0932\u0915\u0947\u0905\u0930 \u0915\u0947\u092e\u093f\u0938\u094d\u091f",
          "opening_hours": "Mo-Su 09:00-21:00"
        }
      },
      {
        "type": "node",
        "id": 10604463437,
        "lat": 18.594669,
        "lon": 73.7687726,
        "tags": {
          "addr:housenumber": "shop 11",
          "addr:street": "Mont vert Tropez road",
          "addr:unit": "Westwood Estates",
          "amenity": "clinic",
          "check_date": "2023-06-09",
          "healthcare": "clinic",
          "name": "Skin spirit clinic",
          "name:en": "Skin spirit clinic",
          "name:mr": "\u0938\u094d\u0915\u093f\u0928 \u0938\u094d\u092a\u093f\u0930\u093f\u091f \u0915\u094d\u0932\u093f\u0928\u093f\u0915",
          "phone": "+91 94228 89866",
          "wheelchair": "no"
        }
      },
      {
        "type": "node",
        "id": 10605386917,
        "lat": 18.5942963,
        "lon": 73.7685558,
        "tags": {
          "addr:floor": "G",
          "amenity": "fast_food",
          "check_date": "2023-02-04",
          "cuisine": "paan",
          "level": "0",
          "name": "\u092e\u094b\u0930\u092f\u093e \u092a\u093e\u0928 \u0936\u0949\u092a",
          "name:en": "Morya paan shop",
          "name:mr": "\u092e\u094b\u0930\u092f\u093e \u092a\u093e\u0928 \u0936\u0949\u092a"
        }
      },
      {
        "type": "node",
        "id": 10605508973,
        "lat": 18.6029022,
        "lon": 73.7770059,
        "tags": {
          "addr:floor": "G",
          "amenity": "atm",
          "brand": "State Bank of India",
          "brand:wikidata": "Q1340361",
          "check_date": "2023-02-04",
          "drive_through": "no",
          "level": "0",
          "name": "State Bank of India",
          "operator": "State Bank of India",
          "operator:wikidata": "Q1340361",
          "short_name": "SBI"
        }
      },
      {
        "type": "node",
        "id": 10647847899,
        "lat": 18.5973308,
        "lon": 73.7743225,
        "tags": {
          "addr:floor": "G",
          "amenity": "atm",
          "brand": "State Bank of India",
          "brand:wikidata": "Q1340361",
          "check_date": "2023-02-11",
          "level": "0",
          "name": "State Bank of India",
          "operator": "State Bank of India",
          "operator:wikidata": "Q1340361",
          "short_name": "SBI"
        }
      },
      {
        "type": "node",
        "id": 10647847903,
        "lat": 18.5977407,
        "lon": 73.7742995,
        "tags": {
          "addr:floor": "G",
          "amenity": "atm",
          "check_date": "2023-02-11",
          "level": "0",
          "operator": "IDFC bank"
        }
      },
      {
        "type": "node",
        "id": 10647847904,
        "lat": 18.5977853,
        "lon": 73.7743035,
        "tags": {
          "addr:floor": "G",
          "amenity": "atm",
          "check_date": "2023-02-11",
          "drive_through": "no",
          "level": "0",
          "operator": "IndusInd bank"
        }
      },
      {
        "type": "node",
        "id": 10650790483,
        "lat": 18.6003207,
        "lon": 73.7697081,
        "tags": {
          "addr:floor": "1",
          "amenity": "fast_food",
          "check_date": "2025-05-11",
          "cuisine": "juice",
          "level": "1",
          "name": "\u092b\u0933\u093e\u0939\u093e\u0930",
          "name:en": "Falahar",
          "name:mr": "\u092b\u0933\u093e\u0939\u093e\u0930",
          "wheelchair": "no"
        }
      },
      {
        "type": "node",
        "id": 10654184123,
        "lat": 18.6084525,
        "lon": 73.7772728,
        "tags": {
          "amenity": "hospital",
          "healthcare": "hospital"
        }
      },
      {
        "type": "node",
        "id": 10672053371,
        "lat": 18.6085196,
        "lon": 73.7706231,
        "tags": {
          "amenity": "fast_food",
          "brand": "McDonald's",
          "brand:wikidata": "Q38076",
          "check_date": "2023-02-17",
          "cuisine": "burger",
          "drive_through": "yes",
          "name": "McDonald's",
          "name:en": "McDonald's",
          "name:mr": "\u092e\u0945\u0915\u0921\u094b\u0928\u0932\u094d\u0921\u0938\u094d",
          "takeaway": "yes"
        }
      },
      {
        "type": "node",
        "id": 10679643672,
        "lat": 18.6003542,
        "lon": 73.7636529,
        "tags": {
          "addr:floor": "G",
          "amenity": "pharmacy",
          "check_date": "2023-02-20",
          "healthcare": "pharmacy",
          "level": "1",
          "name": "Wellness healthcare",
          "name:en": "Wellness healthcare",
          "name:mr": "\u0935\u0947\u0932\u0928\u0947\u0938 \u0939\u0947\u0932\u094d\u0925\u0915\u0947\u0905\u0930"
        }
      },
      {
        "type": "node",
        "id": 10679656824,
        "lat": 18.6001101,
        "lon": 73.7634111,
        "tags": {
          "amenity": "hospital",
          "check_date": "2023-02-20",
          "emergency": "yes",
          "healthcare": "hospital",
          "name": "Orion hospital",
          "name:en": "Orion hospital",
          "name:mr": "\u0913\u0930\u093e\u092f\u0928 \u0930\u0941\u0917\u094d\u0923\u093e\u0932\u092f",
          "operator:type": "private"
        }
      },
      {
        "type": "node",
        "id": 10679656826,
        "lat": 18.5999218,
        "lon": 73.7634297,
        "tags": {
          "amenity": "hospital",
          "check_date": "2023-02-20",
          "healthcare": "hospital",
          "healthcare:speciality": "optometry",
          "name": "Nakshatra eye hospital",
          "name:en": "Nakshatra eye hospital",
          "name:mr": "\u0928\u0915\u094d\u0937\u0924\u094d\u0930 \u0928\u0947\u0924\u094d\u0930 \u0930\u0941\u0917\u094d\u0923\u093e\u0932\u092f",
          "operator:type": "private"
        }
      },
      {
        "type": "node",
        "id": 10679700961,
        "lat": 18.6006775,
        "lon": 73.7636589,
        "tags": {
          "addr:floor": "1",
          "amenity": "clinic",
          "check_date": "2023-02-20",
          "healthcare": "clinic",
          "healthcare:speciality": "gastroenterology",
          "level": "1",
          "name": "Kaizen gastro care",
          "name:en": "Kaizen gastro care",
          "name:mr": "\u0915\u093e\u0907\u091d\u0947\u0928 \u0917\u0945\u0938\u094d\u091f\u094d\u0930\u094b \u0915\u0947\u0905\u0930",
          "operator:type": "private"
        }
      },
      {
        "type": "node",
        "id": 10679700962,
        "lat": 18.6006117,
        "lon": 73.7636409,
        "tags": {
          "addr:floor": "1",
          "amenity": "clinic",
          "check_date": "2023-02-20",
          "healthcare": "clinic",
          "healthcare:speciality": "cardiology",
          "level": "1",
          "name": "Dr. Kartik Bhosale cardiology clinic",
          "name:en": "Dr. Kartik Bhosale cardiology clinic",
          "name:mr": "\u0921\u0949. \u0915\u093e\u0930\u094d\u0924\u093f\u0915 \u092d\u094b\u0938\u0932\u0947 \u0939\u0943\u0926\u092f\u0935\u093f\u0915\u093e\u0930 \u0926\u0935\u093e\u0916\u093e\u0928\u093e",
          "operator": "Dr. Kartik Bhosale",
          "operator:type": "private"
        }
      },
      {
        "type": "node",
        "id": 10679700963,
        "lat": 18.6005197,
        "lon": 73.7636319,
        "tags": {
          "addr:floor": "1",
          "amenity": "clinic",
          "check_date": "2023-02-20",
          "healthcare": "clinic",
          "healthcare:speciality": "general;gynaecology;dentist",
          "level": "1",
          "name": "Uresta speciality clinic",
          "name:en": "Uresta speciality clinic",
          "name:mr": "\u092f\u0941\u0930\u0947\u0938\u094d\u091f\u093e \u0938\u094d\u092a\u0947\u0936\u0940\u092f\u0932\u093f\u091f\u0940 \u0915\u094d\u0932\u093f\u0928\u093f\u0915",
          "operator:type": "private"
        }
      },
      {
        "type": "node",
        "id": 10692572241,
        "lat": 18.6050758,
        "lon": 73.7701261,
        "tags": {
          "amenity": "fast_food"
        }
      },
      {
        "type": "node",
        "id": 10698847213,
        "lat": 18.6002309,
        "lon": 73.7697069,
        "tags": {
          "addr:floor": "1",
          "amenity": "restaurant",
          "check_date": "2025-05-11",
          "cuisine": "Marathi",
          "diet:non-vegetarian": "yes",
          "level": "1",
          "name": "Sukhkarta",
          "name:en": "Sukhkarta",
          "name:mr": "\u0938\u0941\u0916\u0915\u0930\u094d\u0924\u093e",
          "wheelchair": "no"
        }
      },
      {
        "type": "node",
        "id": 10727125125,
        "lat": 18.5984873,
        "lon": 73.7649554,
        "tags": {
          "amenity": "restaurant",
          "name": "Hobbit",
          "name:mr": "\u0939\u0949\u092c\u094d\u092c\u0940\u0924"
        }
      },
      {
        "type": "node",
        "id": 10727125136,
        "lat": 18.5981183,
        "lon": 73.7639672,
        "tags": {
          "addr:housename": "Sai crest",
          "addr:street": "Datta Mandir Road",
          "amenity": "hospital",
          "check_date": "2022-10-24",
          "email": "chirayuhospitalpune@gmail.com",
          "emergency": "yes",
          "healthcare": "hospital",
          "healthcare:speciality": "paediatrics",
          "name": "Chirayu hospital",
          "name:en": "Chirayu hospital",
          "name:mr": "\u091a\u093f\u0930\u093e\u092f\u0942 \u0930\u0941\u0917\u094d\u0923\u093e\u0932\u092f",
          "opening_hours": "24/7",
          "phone": "+91 83800 55444; +91 84469 55444",
          "source": "survey",
          "wheelchair": "yes"
        }
      },
      {
        "type": "node",
        "id": 10766271510,
        "lat": 18.5990523,
        "lon": 73.7730972,
        "tags": {
          "amenity": "clinic",
          "healthcare": "clinic"
        }
      },
      {
        "type": "node",
        "id": 10833486380,
        "lat": 18.5994891,
        "lon": 73.7750596,
        "tags": {
          "addr:floor": "G",
          "amenity": "restaurant",
          "check_date": "2023-04-23",
          "diet:vegetarian": "yes",
          "level": "0",
          "name": "\u0930\u093e\u092e\u0926\u0947\u0935 \u092c\u093e\u092c\u093e",
          "name:en": "Ramdev baba",
          "name:mr": "\u0930\u093e\u092e\u0926\u0947\u0935 \u092c\u093e\u092c\u093e"
        }
      },
      {
        "type": "node",
        "id": 10901014333,
        "lat": 18.6010425,
        "lon": 73.7701489,
        "tags": {
          "amenity": "restaurant",
          "check_date": "2023-05-16",
          "cuisine": "kebab;indian;chicken;Mughal",
          "name": "Taaareef",
          "name:en": "Taaareef",
          "name:mr": "\u0924\u093e\u0930\u0940\u092b",
          "phone": "+91 788 799 6799; +91 788 799 6767; +91 788 799 5858",
          "wheelchair": "no"
        }
      },
      {
        "type": "node",
        "id": 10913847268,
        "lat": 18.5969538,
        "lon": 73.7687064,
        "tags": {
          "amenity": "fast_food",
          "cuisine": "seafood",
          "name": "Sea food",
          "name:en": "Sea food",
          "name:mr": "\u0938\u0940 \u092b\u0942\u0921",
          "outdoor_seating": "yes"
        }
      },
      {
        "type": "node",
        "id": 10913847269,
        "lat": 18.5968874,
        "lon": 73.768705,
        "tags": {
          "amenity": "fast_food",
          "cuisine": "mexican",
          "name": "The crazy taco",
          "name:en": "The crazy taco",
          "name:mr": "\u0926 \u0915\u094d\u0930\u0947\u091d\u0940 \u091f\u093e\u0915\u094b",
          "outdoor_seating": "yes"
        }
      },
      {
        "type": "node",
        "id": 10913847270,
        "lat": 18.596888,
        "lon": 73.7687295,
        "tags": {
          "amenity": "fast_food",
          "cuisine": "thaali",
          "name": "\u0930\u093e\u091c\u0927\u093e\u0928\u0940",
          "name:en": "Rajdhaani",
          "name:mr": "\u0930\u093e\u091c\u0927\u093e\u0928\u0940",
          "outdoor_seating": "yes"
        }
      },
      {
        "type": "node",
        "id": 10913847271,
        "lat": 18.5968885,
        "lon": 73.7687506,
        "tags": {
          "amenity": "fast_food",
          "cuisine": "egg",
          "name": "\u0905\u0902\u0921\u093e \u0935\u0902\u0921\u093e",
          "name:en": "Anda vanda",
          "name:mr": "\u0905\u0902\u0921\u093e \u0935\u0902\u0921\u093e",
          "outdoor_seating": "yes"
        }
      },
      {
        "type": "node",
        "id": 10913847272,
        "lat": 18.5968889,
        "lon": 73.7687707,
        "tags": {
          "amenity": "fast_food",
          "cuisine": "pizza",
          "name": "Slice factory",
          "name:en": "Slice factory",
          "name:mr": "\u0938\u094d\u0932\u093e\u0908\u0938 \u092b\u0945\u0915\u094d\u091f\u0930\u0940",
          "outdoor_seating": "yes"
        }
      },
      {
        "type": "node",
        "id": 10913847273,
        "lat": 18.5968895,
        "lon": 73.7687931,
        "tags": {
          "amenity": "fast_food",
          "cuisine": "burger",
          "name": "Burgerita",
          "name:en": "Burgerita",
          "name:mr": "\u092c\u0930\u094d\u0917\u0930\u093f\u091f\u093e",
          "outdoor_seating": "yes"
        }
      },
      {
        "type": "node",
        "id": 10913847274,
        "lat": 18.59689,
        "lon": 73.7688172,
        "tags": {
          "amenity": "fast_food",
          "cuisine": "momo",
          "name": "Mighty momos",
          "name:en": "Mighty momos",
          "name:mr": "\u092e\u093e\u0907\u091f\u0940 \u092e\u094b\u092e\u094b\u091d",
          "outdoor_seating": "yes"
        }
      },
      {
        "type": "node",
        "id": 10913847275,
        "lat": 18.5968906,
        "lon": 73.7688398,
        "tags": {
          "amenity": "fast_food",
          "cuisine": "asian",
          "name": "Asian panda",
          "name:en": "Asian panda",
          "name:mr": "\u090f\u0936\u093f\u092f\u0928 \u092a\u093e\u0902\u0921\u093e",
          "outdoor_seating": "yes"
        }
      },
      {
        "type": "node",
        "id": 10913847276,
        "lat": 18.5968912,
        "lon": 73.7688646,
        "tags": {
          "amenity": "fast_food",
          "cuisine": "chicken",
          "name": "Charcoal chiken",
          "name:en": "Charcoal chiken",
          "name:mr": "\u091a\u093e\u0930\u094d\u0915\u094b\u0932 \u091a\u093f\u0915\u0928",
          "outdoor_seating": "yes"
        }
      },
      {
        "type": "node",
        "id": 10913847279,
        "lat": 18.5968922,
        "lon": 73.7689072,
        "tags": {
          "amenity": "fast_food",
          "name": "Global Shawarma",
          "name:en": "Global Shawarma",
          "name:mr": "\u0917\u094d\u0932\u094b\u092c\u0932 \u0936\u094d\u0935\u0930\u094d\u092e\u093e",
          "outdoor_seating": "yes"
        }
      },
      {
        "type": "node",
        "id": 10913847280,
        "lat": 18.5968927,
        "lon": 73.7689284,
        "tags": {
          "amenity": "fast_food",
          "cuisine": "south_indian",
          "name": "D for dosa",
          "name:en": "D for dosa",
          "name:mr": "\u0921\u0940 \u092b\u0949\u0930 \u0926\u094b\u0938\u093e",
          "outdoor_seating": "yes"
        }
      },
      {
        "type": "node",
        "id": 10913847281,
        "lat": 18.5968933,
        "lon": 73.7689542,
        "tags": {
          "amenity": "fast_food",
          "cuisine": "pav_bhaji",
          "name": "Swami's Pav Bhaji",
          "name:en": "Swami's Pav Bhaji",
          "name:mr": "\u0938\u094d\u0935\u093e\u092e\u0940\u091c \u092a\u093e\u0935 \u092d\u093e\u091c\u0940",
          "outdoor_seating": "yes"
        }
      },
      {
        "type": "node",
        "id": 10913847282,
        "lat": 18.5968939,
        "lon": 73.768979,
        "tags": {
          "amenity": "fast_food",
          "name": "North Indies",
          "name:en": "North Indies",
          "name:mr": "\u0928\u0949\u0930\u094d\u0925 \u0907\u0902\u0921\u0940\u091c",
          "outdoor_seating": "yes"
        }
      },
      {
        "type": "node",
        "id": 10913847283,
        "lat": 18.5968944,
        "lon": 73.7690021,
        "tags": {
          "amenity": "fast_food",
          "cuisine": "juice",
          "name": "Nectar & nature",
          "name:en": "Nectar & nature",
          "name:mr": "\u0928\u0947\u0915\u094d\u091f\u0930 \u0905\u0901\u0921 \u0928\u0947\u091a\u0930",
          "outdoor_seating": "yes"
        }
      },
      {
        "type": "node",
        "id": 10913847284,
        "lat": 18.596895,
        "lon": 73.7690256,
        "tags": {
          "amenity": "fast_food",
          "name": "The curry leaf",
          "name:en": "The curry leaf",
          "name:mr": "\u0926 \u0915\u0930\u0940 \u0932\u0940\u092b",
          "outdoor_seating": "yes"
        }
      },
      {
        "type": "node",
        "id": 10913847285,
        "lat": 18.5968955,
        "lon": 73.7690474,
        "tags": {
          "amenity": "fast_food",
          "cuisine": "sandwich",
          "name": "Rolls N sandwich",
          "name:en": "Rolls N sandwich",
          "name:mr": "\u0930\u094b\u0932\u094d\u0938 \u090f\u0928 \u0938\u0901\u0921\u0935\u093f\u091a",
          "outdoor_seating": "yes"
        }
      },
      {
        "type": "node",
        "id": 10913847286,
        "lat": 18.5968961,
        "lon": 73.7690718,
        "tags": {
          "amenity": "fast_food",
          "cuisine": "soya",
          "name": "Just chaap",
          "name:en": "Just chaap",
          "name:mr": "\u091c\u0938\u094d\u091f \u091a\u093e\u092a",
          "outdoor_seating": "yes"
        }
      },
      {
        "type": "node",
        "id": 10913847287,
        "lat": 18.5968966,
        "lon": 73.7690939,
        "tags": {
          "amenity": "fast_food",
          "cuisine": "coffee_shop",
          "name": "Caffeine addict",
          "name:en": "Caffeine addict",
          "name:mr": "\u0915\u0949\u092b\u0940\u0928 \u090f\u0921\u0940\u0915\u094d\u091f",
          "outdoor_seating": "yes"
        }
      },
      {
        "type": "node",
        "id": 10913847288,
        "lat": 18.5969814,
        "lon": 73.768989,
        "tags": {
          "amenity": "fast_food",
          "check_date": "2023-07-16",
          "cuisine": "bhel;Marathi",
          "name": "Kranti Bhel",
          "name:en": "Kranti Bhel",
          "name:mr": "\u0915\u094d\u0930\u093e\u0902\u0924\u0940 \u092d\u0947\u0933",
          "opening_hours": "12:00-23:00",
          "outdoor_seating": "yes"
        }
      },
      {
        "type": "node",
        "id": 10913847290,
        "lat": 18.5969829,
        "lon": 73.7690379,
        "tags": {
          "amenity": "fast_food",
          "cuisine": "Maharashtra",
          "name": "\u0906\u092a\u0932\u093e \u0905\u0921\u094d\u0921\u093e",
          "name:en": "Aaplaa Addaa",
          "name:mr": "\u0906\u092a\u0932\u093e \u0905\u0921\u094d\u0921\u093e",
          "outdoor_seating": "yes"
        }
      },
      {
        "type": "node",
        "id": 10913847291,
        "lat": 18.5969837,
        "lon": 73.7690634,
        "tags": {
          "amenity": "fast_food",
          "cuisine": "misal",
          "name": "Misal house",
          "name:en": "Misal house",
          "name:mr": "\u092e\u093f\u0938\u0933 \u0939\u093e\u090a\u0938",
          "outdoor_seating": "yes"
        }
      },
      {
        "type": "node",
        "id": 10913847292,
        "lat": 18.5969843,
        "lon": 73.7690852,
        "tags": {
          "amenity": "fast_food",
          "cuisine": "coffee_shop",
          "name": "\u0917\u094b\u0932\u094d\u0921\u0928 \u091f\u0940 \u0905\u0901\u0921 \u0915\u0949\u092b\u0940",
          "name:en": "Golden tea and coffee",
          "name:mr": "\u0917\u094b\u0932\u094d\u0921\u0928 \u091f\u0940 \u0905\u0901\u0921 \u0915\u0949\u092b\u0940",
          "outdoor_seating": "yes"
        }
      },
      {
        "type": "node",
        "id": 10927940657,
        "lat": 18.5945537,
        "lon": 73.7688268,
        "tags": {
          "addr:floor": "G",
          "amenity": "cafe",
          "check_date": "2023-06-09",
          "level": "0",
          "name": "Leafy green cafe",
          "name:en": "Leafy green cafe",
          "name:mr": "\u0932\u093f\u092b\u0940 \u0917\u094d\u0930\u0940\u0928 \u0915\u0945\u092b\u0947",
          "wheelchair": "no"
        }
      },
      {
        "type": "node",
        "id": 11017129345,
        "lat": 18.5946609,
        "lon": 73.7688963,
        "tags": {
          "amenity": "fast_food",
          "check_date": "2023-07-01",
          "cuisine": "sandwich",
          "name": "Sandwich con",
          "name:en": "Sandwich con",
          "name:mr": "\u0938\u0901\u0921\u0935\u093f\u091a \u0915\u0949\u0928"
        }
      },
      {
        "type": "node",
        "id": 11038517796,
        "lat": 18.6009253,
        "lon": 73.7754562,
        "tags": {
          "addr:floor": "1",
          "amenity": "bank",
          "atm": "yes",
          "branch": "\u0935\u093e\u0915\u0921",
          "brand": "HDFC",
          "check_date": "2023-09-18",
          "level": "1",
          "name": "HDFC",
          "wheelchair": "no"
        }
      },
      {
        "type": "node",
        "id": 11038517797,
        "lat": 18.6009837,
        "lon": 73.775502,
        "tags": {
          "addr:floor": "1",
          "amenity": "bank",
          "atm": "yes",
          "branch": "Wakad",
          "brand": "ICICI",
          "check_date": "2023-07-11",
          "level": "1",
          "name": "ICICI",
          "wheelchair": "no"
        }
      },
      {
        "type": "node",
        "id": 11038517798,
        "lat": 18.6007117,
        "lon": 73.7753464,
        "tags": {
          "addr:floor": "1",
          "amenity": "bank",
          "atm": "yes",
          "branch": "Wakad",
          "brand": "IndusInd bank",
          "check_date": "2023-11-13",
          "level": "1",
          "name": "IndusInd bank",
          "name:mr": "\u0907\u0902\u0921\u0938\u0907\u0902\u0921 \u092c\u0901\u0915",
          "opening_hours": "Mo-Sa 09:30-17:00; Su,Sa[2,4] off",
          "wheelchair": "no"
        }
      },
      {
        "type": "node",
        "id": 11065531169,
        "lat": 18.5956929,
        "lon": 73.771597,
        "tags": {
          "addr:housenumber": "\u0926\u0941\u0915\u093e\u0928 \u096a",
          "addr:street": "Rambhau Kalate path",
          "addr:unit": "\u0928\u0902\u0926\u093e\u0926\u0940\u092a \u0968",
          "alt_name:mr": "\u0917\u094d\u0930\u0940\u0936\u094d\u092e\u093e \u092d\u0902\u0921\u093e\u0930\u0940 \u091a\u093f\u0915\u093f\u0924\u094d\u0938\u093e\u0932\u092f",
          "amenity": "clinic",
          "check_date": "2023-07-24",
          "healthcare": "clinic",
          "healthcare:speciality": "general",
          "name": "Siddhi Clinic",
          "name:en": "Siddhi Clinic",
          "name:mr": "\u0938\u093f\u0926\u094d\u0927\u0940 \u0915\u094d\u0932\u093f\u0928\u093f\u0915",
          "opening_hours": "Mo-Sa 10:30-13:00,18:30-21:00; Su off",
          "operator": "\u0917\u094d\u0930\u0940\u0936\u094d\u092e\u093e \u092d\u0902\u0921\u093e\u0930\u0940",
          "operator:type": "private",
          "phone": "+91 95456 37474"
        }
      },
      {
        "type": "node",
        "id": 11065531170,
        "lat": 18.5957297,
        "lon": 73.7716621,
        "tags": {
          "addr:floor": "G",
          "addr:housenumber": "\u0926\u0941\u0915\u093e\u0928 \u0969",
          "addr:street": "Rambhau Kalate path",
          "addr:unit": "\u0928\u0902\u0926\u093e\u0926\u0940\u092a \u0968",
          "amenity": "pharmacy",
          "check_date": "2023-07-24",
          "dispensing": "yes",
          "drive_through": "no",
          "healthcare": "pharmacy",
          "level": "0",
          "name": "Ganesh medical",
          "name:en": "Ganesh medical",
          "name:mr": "\u0917\u0923\u0947\u0936 \u092e\u0947\u0921\u093f\u0915\u0932",
          "phone": "+91 74107 16699"
        }
      },
      {
        "type": "node",
        "id": 11118630755,
        "lat": 18.5990508,
        "lon": 73.7700277,
        "tags": {
          "addr:city": "Wakad",
          "addr:district": "Pune",
          "amenity": "restaurant",
          "cuisine": "kashmiri",
          "diet:vegetarian": "yes",
          "name": "Chouk-Modur",
          "opening_hours": "Mo-Su 11:00-19:00",
          "phone": "8237314949"
        }
      },
      {
        "type": "node",
        "id": 11192926674,
        "lat": 18.5988307,
        "lon": 73.7748372,
        "tags": {
          "addr:floor": "G",
          "amenity": "restaurant",
          "check_date": "2023-09-15",
          "diet:non-vegetarian": "yes",
          "level": "0",
          "name": "\u091c\u0917\u0926\u0902\u092c",
          "name:en": "Jagdamba",
          "name:mr": "\u091c\u0917\u0926\u0902\u092c",
          "wheelchair": "no"
        }
      },
      {
        "type": "node",
        "id": 11199303751,
        "lat": 18.597647,
        "lon": 73.7738811,
        "tags": {
          "addr:floor": "1",
          "amenity": "bank",
          "atm": "no",
          "brand": "HDFC Bank",
          "brand:wikidata": "Q631047",
          "check_date": "2023-09-18",
          "fixme": "this branch has only home loan services. need to update with suitable tag.",
          "level": "1",
          "name": "HDFC Bank",
          "short_name": "HDFC",
          "wheelchair": "no"
        }
      },
      {
        "type": "node",
        "id": 11199312962,
        "lat": 18.6008452,
        "lon": 73.7754132,
        "tags": {
          "addr:floor": "1",
          "amenity": "bank",
          "brand": "AU Small Finance Bank",
          "brand:wikidata": "Q48729722",
          "check_date": "2023-09-18",
          "level": "1",
          "name": "AU Small Finance Bank",
          "name:mr": "\u090f\u092f\u0942 \u0938\u094d\u092e\u0949\u0932 \u092b\u093e\u092f\u0928\u093e\u0902\u0938 \u092c\u0901\u0915",
          "wheelchair": "no"
        }
      },
      {
        "type": "node",
        "id": 11199332753,
        "lat": 18.6024805,
        "lon": 73.7642624,
        "tags": {
          "amenity": "bank",
          "brand": "Axis Bank",
          "brand:wikidata": "Q2003549",
          "check_date": "2023-09-18",
          "name": "Axis Bank",
          "name:mr": "\u090f\u0915\u094d\u0938\u093f\u0938 \u092c\u0901\u0915"
        }
      },
      {
        "type": "node",
        "id": 11234176906,
        "lat": 18.5979323,
        "lon": 73.7697226,
        "tags": {
          "amenity": "fast_food",
          "check_date": "2023-10-01",
          "name": "\u092e\u093e\u0927\u0935 \u092a\u093e\u0928 \u0936\u0949\u092a",
          "name:en": "Madhav paan shop",
          "name:mr": "\u092e\u093e\u0927\u0935 \u092a\u093e\u0928 \u0936\u0949\u092a"
        }
      },
      {
        "type": "node",
        "id": 11252368165,
        "lat": 18.5999333,
        "lon": 73.7635897,
        "tags": {
          "addr:floor": "G",
          "amenity": "pharmacy",
          "check_date": "2023-10-10",
          "dispensing": "yes",
          "drive_through": "no",
          "healthcare": "pharmacy",
          "level": "1",
          "name": "Drushti Medical",
          "name:en": "Drushti Medical",
          "name:mr": "\u0926\u0943\u0937\u094d\u091f\u0940 \u092e\u0947\u0921\u093f\u0915\u0932"
        }
      },
      {
        "type": "node",
        "id": 11323273120,
        "lat": 18.6020748,
        "lon": 73.7702875,
        "tags": {
          "addr:floor": "G",
          "amenity": "cafe",
          "check_date": "2025-02-02",
          "level": "0",
          "name": "Big burp cafe",
          "name:en": "Big burp cafe",
          "name:mr": "\u092c\u093f\u0917 \u092c\u0930\u094d\u092a \u0915\u0945\u092b\u0947"
        }
      },
      {
        "type": "node",
        "id": 11348664977,
        "lat": 18.6017242,
        "lon": 73.7702322,
        "tags": {
          "amenity": "cafe",
          "check_date": "2023-11-14",
          "name": "Cheesy Crazy Cafe",
          "name:en": "Cheesy Crazy Cafe",
          "name:mr": "\u091a\u0940\u091c\u0940 \u0915\u094d\u0930\u0947\u091d\u0940 \u0915\u0945\u092b\u0947"
        }
      },
      {
        "type": "node",
        "id": 11348664978,
        "lat": 18.6015827,
        "lon": 73.7702131,
        "tags": {
          "addr:floor": "G",
          "amenity": "cafe",
          "check_date": "2023-11-14",
          "level": "0",
          "name": "Sweet Bengal"
        }
      },
      {
        "type": "node",
        "id": 11411586787,
        "lat": 18.5962254,
        "lon": 73.7724053,
        "tags": {
          "addr:city": "Wakad",
          "addr:district": "Pune",
          "addr:postcode": "411057",
          "addr:street": "FeverCare-Centre for Infectious Diseases, 303, Sonigara Landmark",
          "amenity": "clinic",
          "healthcare": "clinic",
          "healthcare:speciality": "infectious_diseases;hiv_physician",
          "name": "FeverCare Centre for Infectious Diseases",
          "operator": "Novosalus Technology",
          "operator:type": "private"
        }
      },
      {
        "type": "node",
        "id": 11449108462,
        "lat": 18.5980311,
        "lon": 73.7697486,
        "tags": {
          "addr:floor": "G",
          "amenity": "fast_food",
          "check_date": "2023-12-23",
          "cuisine": "bhel;pani puri;chaat",
          "level": "0",
          "name": "Ganesh Bhel",
          "name:mr": "\u0917\u0923\u0947\u0936 \u092d\u0947\u0933",
          "phone": "+91 72187 76985",
          "wheelchair": "limited"
        }
      },
      {
        "type": "node",
        "id": 11507852355,
        "lat": 18.6064811,
        "lon": 73.7731144,
        "tags": {
          "addr:city": "Pune",
          "addr:district": "Pune",
          "addr:street": "Kaverinagar Police Line Road",
          "amenity": "clinic",
          "healthcare": "clinic",
          "healthcare:speciality": "general",
          "name": "Waghmare Clinic",
          "opening_hours": "Mon-Fri, Morning 11.30am-1pm, Evening 7pm-9pm",
          "operator": "Dr. Pradny Waghmare",
          "operator:type": "private"
        }
      },
      {
        "type": "node",
        "id": 11530751353,
        "lat": 18.5963685,
        "lon": 73.7737938,
        "tags": {
          "addr:floor": "G",
          "amenity": "fast_food",
          "check_date": "2024-01-19",
          "level": "0",
          "name": "Samarth Wadewale",
          "name:en": "Samarth Wadewale",
          "name:mr": "\u0938\u092e\u0930\u094d\u0925 \u0935\u0921\u0947\u0935\u093e\u0932\u0947",
          "opening_hours": "08:30-22:00",
          "wheelchair": "no"
        }
      },
      {
        "type": "node",
        "id": 11530751354,
        "lat": 18.5964119,
        "lon": 73.7737786,
        "tags": {
          "addr:floor": "1",
          "amenity": "doctors",
          "check_date": "2024-01-19",
          "healthcare": "doctor",
          "healthcare:speciality": "otolaryngology",
          "level": "1",
          "name": "Shaurya Clinic",
          "name:en": "Shaurya Clinic",
          "name:mr": "\u0936\u094c\u0930\u094d\u092f \u0915\u094d\u0932\u093f\u0928\u093f\u0915",
          "phone": "+91 99703 17439",
          "wheelchair": "no"
        }
      },
      {
        "type": "node",
        "id": 11534753119,
        "lat": 18.59467,
        "lon": 73.7686784,
        "tags": {
          "addr:floor": "1",
          "addr:housenumber": "shop 109",
          "addr:street": "Mont vert Tropez road",
          "addr:unit": "Westwood Estates",
          "amenity": "doctors",
          "check_date": "2024-01-26",
          "healthcare": "doctor",
          "healthcare:speciality": "orthopaedics",
          "level": "1",
          "name": "Total Spine",
          "name:en": "Total Spine",
          "name:mr": "\u091f\u094b\u091f\u0932 \u0938\u094d\u092a\u093e\u0908\u0928",
          "opening_hours": "Mo-Sa 10:30-12:00,18:30-20:30; Su off",
          "operator": "Dr Pallav Bhatia",
          "operator:mr": "\u0921\u0949 \u092a\u0932\u094d\u0932\u0935 \u092d\u093e\u091f\u093f\u092f\u093e",
          "phone": "+91 97111 85045; +91 85548 55410; +91 89993 32758",
          "website": "https://totalspinesolutions.com",
          "wheelchair": "yes"
        }
      },
      {
        "type": "node",
        "id": 11575703848,
        "lat": 18.6060833,
        "lon": 73.7732503,
        "tags": {
          "amenity": "atm",
          "brand": "Kotak Mahindra Bank",
          "brand:wikidata": "Q2040404",
          "check_date": "2024-02-01",
          "operator": "Kotak Mahindra Bank",
          "operator:wikidata": "Q2040404"
        }
      },
      {
        "type": "node",
        "id": 11575703849,
        "lat": 18.6052404,
        "lon": 73.7766055,
        "tags": {
          "amenity": "atm",
          "brand": "HDFC Bank",
          "brand:wikidata": "Q631047",
          "check_date": "2024-02-01",
          "operator": "HDFC Bank",
          "operator:wikidata": "Q631047",
          "short_name": "HDFC"
        }
      },
      {
        "type": "node",
        "id": 11700041807,
        "lat": 18.6058476,
        "lon": 73.7728181,
        "tags": {
          "addr:city": "Pune",
          "addr:district": "Pune",
          "addr:postcode": "411057",
          "addr:street": "Shri Chatrapati Shivaji Maharaj Road",
          "amenity": "cafe",
          "cuisine": "burger;sandwich;rolls;donut",
          "name": "16 No Ki Chai"
        }
      },
      {
        "type": "node",
        "id": 11700177276,
        "lat": 18.6071004,
        "lon": 73.7733769,
        "tags": {
          "addr:city": "Pune",
          "addr:district": "Pune",
          "amenity": "clinic",
          "healthcare": "clinic",
          "healthcare:speciality": "general",
          "name": "Dr Makarand Dani Clinic",
          "operator": "Dr Makarand Dani",
          "operator:type": "private"
        }
      },
      {
        "type": "node",
        "id": 11831057914,
        "lat": 18.6013695,
        "lon": 73.7639263,
        "tags": {
          "addr:floor": "G",
          "amenity": "restaurant",
          "check_date": "2024-04-19",
          "cuisine": "Rajasthani;thali",
          "diet:vegetarian": "yes",
          "level": "1",
          "name": "Rajwadi Gaurav",
          "name:en": "Rajwadi Gaurav",
          "name:mr": "\u0930\u091c\u0935\u093e\u0921\u0940 \u0917\u094c\u0930\u0935"
        }
      },
      {
        "type": "node",
        "id": 11913344433,
        "lat": 18.6022235,
        "lon": 73.7695789,
        "tags": {
          "amenity": "restaurant",
          "check_date": "2024-05-17",
          "name": "Sai Darshini",
          "name:en": "Sai Darshini",
          "name:mr": "\u0938\u093e\u0908 \u0926\u0930\u094d\u0936\u093f\u0928\u0940"
        }
      },
      {
        "type": "node",
        "id": 12301605389,
        "lat": 18.6057768,
        "lon": 73.7719906,
        "tags": {
          "addr:floor": "G",
          "amenity": "fast_food",
          "check_date": "2024-10-31",
          "cuisine": "paan",
          "level": "0",
          "name": "Rolex Paan",
          "name:mr": "\u0930\u094b\u0932\u0947\u0915\u094d\u0938 \u092a\u093e\u0928"
        }
      },
      {
        "type": "node",
        "id": 12590123952,
        "lat": 18.6021831,
        "lon": 73.7702978,
        "tags": {
          "amenity": "cafe",
          "check_date": "2025-02-02",
          "name": "Opera House",
          "name:en": "Opera House",
          "name:mr": "\u0913\u092a\u0947\u0930\u093e \u0939\u093e\u090a\u0938"
        }
      },
      {
        "type": "node",
        "id": 12590123954,
        "lat": 18.6109054,
        "lon": 73.7692152,
        "tags": {
          "addr:floor": "G",
          "amenity": "pharmacy",
          "check_date": "2025-02-15",
          "healthcare": "pharmacy",
          "level": "0",
          "name": "Rajveer medical",
          "name:en": "Rajveer medical",
          "name:mr": "\u0930\u093e\u091c\u0935\u0940\u0930 \u092e\u0947\u0921\u093f\u0915\u0932"
        }
      },
      {
        "type": "node",
        "id": 12647553312,
        "lat": 18.5983793,
        "lon": 73.7677973,
        "tags": {
          "addr:floor": "G",
          "amenity": "clinic",
          "check_date": "2025-03-09",
          "healthcare": "clinic",
          "level": "0",
          "name": "My Doctor",
          "name:en": "My Doctor",
          "name:mr": "\u092e\u093e\u092f \u0921\u0949\u0915\u094d\u091f\u0930"
        }
      },
      {
        "type": "node",
        "id": 12647555595,
        "lat": 18.598381,
        "lon": 73.7678539,
        "tags": {
          "addr:floor": "G",
          "amenity": "cafe",
          "check_date": "2025-03-09",
          "level": "0",
          "name": "V K Cafe",
          "name:en": "V K Cafe",
          "name:mr": "\u0935\u094d\u0939\u0940 \u0915\u0947 \u0915\u0945\u092b\u0947",
          "wheelchair": "yes"
        }
      }
    ]
  },
  "pois_2_5km": {
    "version": 0.6,
    "generator": "Overpass API 0.7.62.8 e802775f",
    "osm3s": {
      "timestamp_osm_base": "2025-09-07T11:14:15Z",
      "copyright": "The data included in this document is from www.openstreetmap.org. The data is made available under ODbL."
    },
    "elements": [
      {
        "type": "node",
        "id": 1684953195,
        "lat": 18.5920603,
        "lon": 73.7611058,
        "tags": {
          "amenity": "fuel",
          "brand": "Indian Oil",
          "brand:wikidata": "Q1289348",
          "brand:wikipedia": "en:Indian Oil Corporation",
          "fuel:diesel": "yes"
        }
      },
      {
        "type": "node",
        "id": 2680535548,
        "lat": 18.5968638,
        "lon": 73.7911733,
        "tags": {
          "bus": "yes",
          "highway": "bus_stop",
          "name": "Kokane Chowk",
          "name:mr": "\u0915\u094b\u0915\u0923\u0947 \u091a\u094c\u0915",
          "public_transport": "stop_position"
        }
      },
      {
        "type": "node",
        "id": 7837166086,
        "lat": 18.6112182,
        "lon": 73.7604376,
        "tags": {
          "amenity": "fuel",
          "check_date": "2024-12-21",
          "name": "HP Fuel Station"
        }
      },
      {
        "type": "node",
        "id": 7837166116,
        "lat": 18.6106386,
        "lon": 73.7602941,
        "tags": {
          "amenity": "fuel",
          "name": "Rahul Auto Service"
        }
      },
      {
        "type": "node",
        "id": 7944597702,
        "lat": 18.5905891,
        "lon": 73.7575185,
        "tags": {
          "construction": "subway",
          "name": "Wakad Chowk\u00a0metro Station",
          "name:en": "Wakad Chowk\u00a0metro Station",
          "name:mr": "\u0935\u093e\u0915\u0921 \u091a\u094c\u0915 \u092e\u0947\u091f\u094d\u0930\u094b \u0938\u094d\u0925\u093e\u0928\u0915",
          "public_transport": "station",
          "railway": "station"
        }
      },
      {
        "type": "node",
        "id": 9887954431,
        "lat": 18.5897385,
        "lon": 73.774282,
        "tags": {
          "addr:street": "Mankar chowk",
          "bus": "yes",
          "name": "Mankar chowk",
          "name:en": "Mankar chowk",
          "name:mr": "\u092e\u093e\u0928\u0915\u0930 \u091a\u094c\u0915",
          "public_transport": "stop_position"
        }
      },
      {
        "type": "node",
        "id": 9950727513,
        "lat": 18.6127584,
        "lon": 73.7660083,
        "tags": {
          "amenity": "fuel"
        }
      },
      {
        "type": "node",
        "id": 10013758817,
        "lat": 18.6111535,
        "lon": 73.7831554,
        "tags": {
          "addr:street": "Kalewadi Phata-Auto Cluster BRTS Road",
          "amenity": "charging_station",
          "brand": "Tata power",
          "capacity": "2",
          "covered": "no",
          "fee": "yes",
          "operator": "Tata power"
        }
      },
      {
        "type": "node",
        "id": 10230168179,
        "lat": 18.5934033,
        "lon": 73.7843602,
        "tags": {
          "bus": "yes",
          "name": "\u091c\u0917\u0924\u093e\u092a \u0921\u0947\u0905\u0930\u0940",
          "name:en": "Jagtap Dairy",
          "name:mr": "\u091c\u0917\u0924\u093e\u092a \u0921\u0947\u0905\u0930\u0940",
          "public_transport": "stop_position"
        }
      },
      {
        "type": "node",
        "id": 10230168181,
        "lat": 18.596249,
        "lon": 73.7891939,
        "tags": {
          "bus": "yes",
          "name": "Shivar Chowk",
          "name:mr": "\u0936\u093f\u0935\u093e\u0930 \u091a\u094c\u0915",
          "public_transport": "stop_position"
        }
      },
      {
        "type": "node",
        "id": 10230168184,
        "lat": 18.5997459,
        "lon": 73.7802329,
        "tags": {
          "bus": "yes",
          "name": "Shivraj Nagar",
          "name:mr": "\u0936\u093f\u0935\u0930\u093e\u091c \u0928\u0917\u0930",
          "public_transport": "stop_position"
        }
      },
      {
        "type": "node",
        "id": 10230168185,
        "lat": 18.6026434,
        "lon": 73.7766737,
        "tags": {
          "bus": "yes",
          "departures_board": "no",
          "highway": "bus_stop",
          "name": "Kalewadi Phata",
          "name:mr": "\u0915\u093e\u0933\u0947\u0935\u093e\u0921\u0940 \u092b\u093e\u091f\u093e",
          "operator": "PMPML",
          "public_transport": "stop_position",
          "shelter": "yes"
        }
      },
      {
        "type": "node",
        "id": 10301032058,
        "lat": 18.5920188,
        "lon": 73.7827318,
        "tags": {
          "bus": "yes",
          "name": "Savitri Phule Udyan",
          "name:en": "Savitri Phule Udyan",
          "name:mr": "\u0938\u093e\u0935\u093f\u0924\u094d\u0930\u0940\u092c\u093e\u0908 \u092b\u0941\u0932\u0947 \u0909\u0926\u094d\u092f\u093e\u0928",
          "public_transport": "stop_position"
        }
      },
      {
        "type": "node",
        "id": 10301032059,
        "lat": 18.5896862,
        "lon": 73.7784749,
        "tags": {
          "bus": "yes",
          "name": "\u0915\u0938\u094d\u092a\u091f\u0947 \u091a\u094c\u0915",
          "name:en": "Kaspate chowk",
          "name:mr": "\u0915\u0938\u094d\u092a\u091f\u0947 \u091a\u094c\u0915",
          "public_transport": "stop_position"
        }
      },
      {
        "type": "node",
        "id": 10590934028,
        "lat": 18.59443,
        "lon": 73.7735725,
        "tags": {
          "bench": "yes",
          "bin": "no",
          "bus": "yes",
          "departures_board": "no",
          "highway": "bus_stop",
          "lit": "no",
          "name": "Kaspate Vasti Shala",
          "name:mr": "\u0915\u0938\u094d\u092a\u091f\u0947 \u0935\u0938\u094d\u0924\u0940 \u0936\u093e\u0933\u093e",
          "public_transport": "stop_position",
          "shelter": "yes",
          "tactile_paving": "no"
        }
      },
      {
        "type": "node",
        "id": 10590934031,
        "lat": 18.5944711,
        "lon": 73.7737076,
        "tags": {
          "bench": "no",
          "bin": "no",
          "bus": "yes",
          "departures_board": "no",
          "highway": "bus_stop",
          "lit": "no",
          "name": "Kaspate Vasti Shala",
          "name:mr": "\u0915\u0938\u094d\u092a\u091f\u0947 \u0935\u0938\u094d\u0924\u0940 \u0936\u093e\u0933\u093e",
          "public_transport": "stop_position",
          "shelter": "no",
          "tactile_paving": "no"
        }
      },
      {
        "type": "node",
        "id": 10671202586,
        "lat": 18.5857278,
        "lon": 73.7817517,
        "tags": {
          "access": "yes",
          "amenity": "charging_station",
          "brand": "Shell",
          "brand:en": "Shell",
          "brand:mr": "\u0936\u0947\u0932",
          "brand:wikidata": "Q110716465",
          "capacity": "3",
          "fee": "yes",
          "operator": "Shell",
          "operator:wikidata": "Q110716465"
        }
      },
      {
        "type": "node",
        "id": 10719100420,
        "lat": 18.6170757,
        "lon": 73.7673099,
        "tags": {
          "amenity": "charging_station",
          "brand": "goEgo Charging Station",
          "capacity": "1"
        }
      },
      {
        "type": "node",
        "id": 10725542119,
        "lat": 18.5917027,
        "lon": 73.7561869,
        "tags": {
          "amenity": "fuel",
          "name": "Kaspte Bharat Gas Agency"
        }
      },
      {
        "type": "node",
        "id": 10745044185,
        "lat": 18.5858816,
        "lon": 73.7817171,
        "tags": {
          "amenity": "fuel",
          "brand": "Shell",
          "brand:wikidata": "Q110716465",
          "name": "Shell",
          "name:en": "Shell",
          "name:mr": "\u0936\u0947\u0932"
        }
      },
      {
        "type": "node",
        "id": 10797010207,
        "lat": 18.5998693,
        "lon": 73.7548665,
        "tags": {
          "amenity": "charging_station",
          "brand": "Tata power",
          "operator": "Tata power",
          "socket:type2": "1"
        }
      },
      {
        "type": "node",
        "id": 10797010208,
        "lat": 18.5995979,
        "lon": 73.7548745,
        "tags": {
          "amenity": "charging_station",
          "brand": "Tata power",
          "operator": "Tata power",
          "socket:type2_combo": "1"
        }
      },
      {
        "type": "node",
        "id": 10841782157,
        "lat": 18.5887644,
        "lon": 73.7827295,
        "tags": {
          "access": "yes",
          "addr:floor": "G",
          "amenity": "charging_station",
          "branch": "Copacabana",
          "brand": "Ather Energy",
          "brand:en": "Ather Energy",
          "brand:mr": "\u090f\u0925\u0930 \u090f\u0928\u0930\u094d\u091c\u0940",
          "capacity": "1",
          "covered": "no",
          "fee": "yes",
          "level": "0",
          "operator": "Ather Energy",
          "source": "survey;local knowledge"
        }
      },
      {
        "type": "node",
        "id": 11700219151,
        "lat": 18.6201265,
        "lon": 73.7702091,
        "tags": {
          "addr:city": "Pune",
          "addr:district": "Pune",
          "amenity": "fuel",
          "brand": "Hindustan Petroleum",
          "fuel:diesel": "yes",
          "fuel:petrol": "yes",
          "name": "HP Petrol Pump- Sarita Services",
          "operator": "Sarita Services"
        }
      },
      {
        "type": "node",
        "id": 11922645612,
        "lat": 18.6091804,
        "lon": 73.7822155,
        "tags": {
          "amenity": "fuel",
          "check_date": "2024-05-21"
        }
      }
    ]
  }
}