{
  "pois_1km": {
    "version": 0.6,
    "generator": "Overpass API 0.7.62.8 e802775f",
    "osm3s": {
      "timestamp_osm_base": "2025-09-07T11:26:30Z",
      "copyright": "The data included in this document is from www.openstreetmap.org. The data is made available under ODbL."
    },
    "elements": [
      {
        "type": "node",
        "id": 1730061011,
        "lat": 18.4926639,
        "lon": 73.8574632,
        "tags": {
          "amenity": "restaurant",
          "diet:vegetarian": "only",
          "name": "Panchami"
        }
      },
      {
        "type": "node",
        "id": 1730061022,
        "lat": 18.4919816,
        "lon": 73.8574616,
        "tags": {
          "amenity": "fast_food",
          "brand": "Smokin' Joe's",
          "brand:wikidata": "Q7546011",
          "cuisine": "pizza",
          "name": "Smokin' Joe's",
          "takeaway": "yes"
        }
      },
      {
        "type": "node",
        "id": 1738337108,
        "lat": 18.4889832,
        "lon": 73.8563144,
        "tags": {
          "addr:street": "Satara Road",
          "amenity": "bank",
          "atm": "yes",
          "brand": "ICICI Bank",
          "brand:wikidata": "Q1653258",
          "name": "ICICI Bank",
          "name:en": "ICICI Bank",
          "short_name": "ICICI",
          "website": "https://www.icicibank.com"
        }
      },
      {
        "type": "node",
        "id": 1738338368,
        "lat": 18.4887519,
        "lon": 73.8571728,
        "tags": {
          "addr:street": "Satara Road",
          "amenity": "restaurant",
          "diet:vegetarian": "only",
          "name": "Vedant"
        }
      },
      {
        "type": "node",
        "id": 1807637657,
        "lat": 18.4922365,
        "lon": 73.8559341,
        "tags": {
          "amenity": "restaurant"
        }
      },
      {
        "type": "node",
        "id": 3973927417,
        "lat": 18.4973177,
        "lon": 73.8539536,
        "tags": {
          "addr:city": "Pune",
          "addr:country": "IN",
          "addr:housenumber": "454/5",
          "addr:postcode": "411009",
          "addr:street": "Mitramandal Chowk",
          "amenity": "restaurant",
          "contact:phone": "02024423809",
          "contact:website": "http://naivedyampune.com",
          "name": "Naivedyam",
          "opening_hours": "Mo-Su 11:00-23:30"
        }
      },
      {
        "type": "node",
        "id": 4129787590,
        "lat": 18.4972204,
        "lon": 73.8510308,
        "tags": {
          "amenity": "atm",
          "opening_hours": "24/7"
        }
      },
      {
        "type": "node",
        "id": 5600220865,
        "lat": 18.48626,
        "lon": 73.8567026,
        "tags": {
          "amenity": "atm",
          "brand": "Central Bank",
          "opening_hours": "24/7"
        }
      },
      {
        "type": "node",
        "id": 5600220866,
        "lat": 18.4862606,
        "lon": 73.8567408,
        "tags": {
          "amenity": "bank",
          "atm": "no",
          "name": "Central Bank",
          "name:mr": "\u0938\u0947\u0902\u091f\u094d\u0930\u0932 \u092c\u0901\u0915"
        }
      },
      {
        "type": "node",
        "id": 5600220872,
        "lat": 18.4859534,
        "lon": 73.8555392,
        "tags": {
          "amenity": "bank",
          "atm": "no",
          "brand": "Yes Bank",
          "brand:wikidata": "Q2040394",
          "name": "Yes Bank",
          "name:mr": "\u092f\u0947\u0938 \u092c\u0901\u0915",
          "operator": "Yes Bank"
        }
      },
      {
        "type": "node",
        "id": 5600220873,
        "lat": 18.4859515,
        "lon": 73.8555104,
        "tags": {
          "amenity": "atm",
          "brand": "Yes Bank",
          "brand:wikidata": "Q2040394",
          "name:mr": "\u092f\u0947\u0938 \u092c\u0901\u0915",
          "opening_hours": "24/7",
          "operator": "Yes Bank",
          "operator:wikidata": "Q2040394"
        }
      },
      {
        "type": "node",
        "id": 5600220874,
        "lat": 18.4859414,
        "lon": 73.8553052,
        "tags": {
          "amenity": "atm",
          "brand": "Punjab National Bank",
          "brand:wikidata": "Q2743499",
          "name:mr": "\u092a\u0902\u091c\u093e\u092c \u0928\u0945\u0936\u0928\u0932 \u092c\u0901\u0915",
          "opening_hours": "24/7",
          "operator": "Punjab National Bank",
          "operator:wikidata": "Q2743499"
        }
      },
      {
        "type": "node",
        "id": 5600220875,
        "lat": 18.4859433,
        "lon": 73.8553253,
        "tags": {
          "amenity": "bank",
          "branch": "Satara Road Branch",
          "brand": "Punjab National Bank",
          "brand:wikidata": "Q2743499",
          "name": "Punjab National Bank",
          "name:mr": "\u092a\u0902\u091c\u093e\u092c \u0928\u0945\u0936\u0928\u0932 \u092c\u0901\u0915"
        }
      },
      {
        "type": "node",
        "id": 5600220877,
        "lat": 18.4858498,
        "lon": 73.8543275,
        "tags": {
          "amenity": "bank",
          "atm": "yes",
          "brand": "HDFC Bank",
          "brand:wikidata": "Q631047",
          "name": "HDFC Bank",
          "name:mr": "\u090f\u091a\u0921\u0940\u090f\u092b\u0938\u0940 \u092c\u0901\u0915",
          "short_name": "HDFC"
        }
      },
      {
        "type": "node",
        "id": 5600220879,
        "lat": 18.4858896,
        "lon": 73.8537591,
        "tags": {
          "amenity": "bank",
          "atm": "no",
          "branch": "Sahakanagar Branch",
          "brand": "Indian Overseas Bank",
          "brand:wikidata": "Q2003611",
          "name": "Indian Overseas Bank",
          "name:mr": "\u0907\u0902\u0921\u093f\u092f\u0928 \u0913\u0935\u094d\u0939\u0930\u0938\u0940\u091c \u092c\u0901\u0915, \u0938\u0939\u0915\u093e\u0930\u0928\u0917\u0930 \u0936\u093e\u0916\u093e",
          "operator": "Indian Overseas Bank"
        }
      },
      {
        "type": "node",
        "id": 6541990365,
        "lat": 18.4923919,
        "lon": 73.8542599,
        "tags": {
          "addr:city": "Pune",
          "addr:housenumber": "477",
          "addr:postcode": "411009",
          "addr:street": "Shiv Darshan chowk",
          "air_conditioning": "yes",
          "amenity": "restaurant",
          "cuisine": "indian",
          "delivery": "yes",
          "name": "Pradnya Resturant",
          "opening_hours": "Mo-Su 09:00-21:00"
        }
      },
      {
        "type": "node",
        "id": 7043026430,
        "lat": 18.4892153,
        "lon": 73.8621201,
        "tags": {
          "addr:district": "Pune",
          "addr:full": "Market yard, Gultekdi,Bank Of Maharashtra,Talera Garden",
          "addr:postcode": "411037",
          "addr:state": "Maharashtra",
          "amenity": "clinic",
          "name": "Kamal Nursing Home, Pune",
          "source": "OpenGovernmentData"
        }
      },
      {
        "type": "node",
        "id": 7043763362,
        "lat": 18.4910283,
        "lon": 73.8581684,
        "tags": {
          "addr:district": "Pune",
          "addr:full": "114, Adinath Shopping Complex 1st Floor, Poona Satara Road",
          "addr:postcode": "411037",
          "addr:state": "Maharashtra",
          "amenity": "hospital",
          "name": "Shree Balaji Eye Hospital",
          "source": "OpenGovernmentData"
        }
      },
      {
        "type": "node",
        "id": 7047946884,
        "lat": 18.4950117,
        "lon": 73.861886,
        "tags": {
          "addr:district": "Pune",
          "addr:full": "157/5 Opp Cpwd Office Mukund Nagar",
          "addr:postcode": "411037",
          "addr:state": "Maharashtra",
          "amenity": "hospital",
          "name": "Ranka Hospital",
          "source": "OpenGovernmentData"
        }
      },
      {
        "type": "node",
        "id": 7047954931,
        "lat": 18.4945971,
        "lon": 73.8599226,
        "tags": {
          "addr:district": "Pune",
          "addr:full": "Swasthya Sadan, Mukund Nagar",
          "addr:postcode": "411037",
          "addr:state": "Maharashtra",
          "amenity": "clinic",
          "name": "CGHS Polyclinic, Mukund Nagar",
          "operator:type": "government",
          "source": "OpenGovernmentData",
          "website": "http://nb.bsf.gov.in/CGHS%20DIspenseries.pdf"
        }
      },
      {
        "type": "node",
        "id": 7047962182,
        "lat": 18.4871465,
        "lon": 73.8570687,
        "tags": {
          "addr:district": "Pune",
          "addr:full": "Ashoka Centre, 2nd Floor, Next To Bata Showroom, Pune- Satara Road",
          "addr:postcode": "411009",
          "addr:state": "Maharashtra",
          "amenity": "doctors",
          "name": "Dr. Ashok Parakh",
          "source": "OpenGovernmentData"
        }
      },
      {
        "type": "node",
        "id": 7049842800,
        "lat": 18.4953513,
        "lon": 73.8583679,
        "tags": {
          "addr:district": "Pune",
          "addr:full": "Krishna Chambers, Near Laxmi Narayan Theatre, Pune - Satara Road",
          "addr:postcode": "411037",
          "addr:state": "Maharashtra",
          "amenity": "clinic",
          "name": "Dr. Tekawade Eye Clinic",
          "source": "OpenGovernmentData"
        }
      },
      {
        "type": "node",
        "id": 7051137468,
        "lat": 18.4886651,
        "lon": 73.8502412,
        "tags": {
          "addr:district": "Pune",
          "addr:full": "83/1, Sarang Society, Sahakar Nagar",
          "addr:postcode": "411009",
          "addr:state": "Maharashtra",
          "amenity": "hospital",
          "name": "Yashashree Maternity and Nursing Home",
          "source": "OpenGovernmentData"
        }
      },
      {
        "type": "node",
        "id": 7051344982,
        "lat": 18.4970609,
        "lon": 73.8537818,
        "tags": {
          "addr:district": "Pune",
          "addr:full": "Mitramandal Sabhagraha Bldg, Parvati",
          "addr:postcode": "411009",
          "addr:state": "Maharashtra",
          "amenity": "clinic",
          "name": "Yeshwant Eye Clinic and Hospital",
          "source": "OpenGovernmentData"
        }
      },
      {
        "type": "node",
        "id": 7052815781,
        "lat": 18.4978682,
        "lon": 73.8537562,
        "tags": {
          "addr:district": "Pune",
          "addr:full": "494/13, Mitra Mandal Colony Pazvati Pazvati",
          "addr:postcode": "411009",
          "addr:state": "Maharashtra",
          "amenity": "hospital",
          "name": "Shahade Hospital",
          "source": "OpenGovernmentData"
        }
      },
      {
        "type": "node",
        "id": 7055682925,
        "lat": 18.4840672,
        "lon": 73.857003,
        "tags": {
          "addr:district": "Pune",
          "addr:full": "49/2B, Maharashtra Hsg Soc, Pune - Satara Road, Opposite Big Bazar",
          "addr:postcode": "411009",
          "addr:state": "Maharashtra",
          "amenity": "hospital",
          "name": "Mahajan Hospital",
          "source": "OpenGovernmentData"
        }
      },
      {
        "type": "node",
        "id": 7068429388,
        "lat": 18.4954696,
        "lon": 73.8583709,
        "tags": {
          "addr:district": "Pune",
          "addr:full": "Krishna Chambers Laxmi Narayan Theatre Satara Road",
          "addr:postcode": "411037",
          "addr:state": "Maharashtra",
          "amenity": "hospital",
          "name": "Karne Hospital Pvt Ltd",
          "source": "OpenGovernmentData"
        }
      },
      {
        "type": "node",
        "id": 7081093852,
        "lat": 18.4846599,
        "lon": 73.8586137,
        "tags": {
          "addr:district": "Pune",
          "addr:full": "Suvery No.691A-1A-1, Ctb No. 1897-B,Beside Big Bazaar,Aaranyeshwar Corner,Pune Satara Road",
          "addr:postcode": "411037",
          "addr:state": "Maharashtra",
          "amenity": "clinic",
          "name": "Rao Nursing Home",
          "source": "OpenGovernmentData"
        }
      },
      {
        "type": "node",
        "id": 7085422867,
        "lat": 18.4856367,
        "lon": 73.8511303,
        "tags": {
          "addr:district": "Pune",
          "addr:full": "Flat No. D/2, 2nd Floor, Aranyeshwar Park, Near Aranyeshwar Temple, Sahakarnagar",
          "addr:postcode": "411009",
          "addr:state": "Maharashtra",
          "amenity": "clinic",
          "name": "Walimbe Eye Clinic",
          "source": "OpenGovernmentData",
          "website": "walimbeeyeclinic.com"
        }
      },
      {
        "type": "node",
        "id": 7087636861,
        "lat": 18.4909481,
        "lon": 73.8580129,
        "tags": {
          "addr:district": "Pune",
          "addr:full": "Adinath Shopping Centre, 1st Floor, Pune Satra Road",
          "addr:postcode": "411011",
          "addr:state": "Maharashtra",
          "amenity": "hospital",
          "name": "Dugad Hospital Pvt Ltd",
          "source": "OpenGovernmentData"
        }
      },
      {
        "type": "node",
        "id": 7651453323,
        "lat": 18.492348,
        "lon": 73.853457,
        "tags": {
          "addr:district": "Pune",
          "addr:full": "64, Shahu College Road, Anurag Society, Parvati Industrial Estate, Parvati Paytha, Pune",
          "addr:postcode": "411009",
          "addr:state": "Maharastra",
          "amenity": "hospital",
          "name": "Suman Hospital",
          "source": "Local Knowledge"
        }
      },
      {
        "type": "node",
        "id": 7651453349,
        "lat": 18.4975587,
        "lon": 73.8513176,
        "tags": {
          "addr:district": "Pune",
          "addr:full": "Shivaji Road, Near Maharashtra Bank, Parvati Gaon, Pune",
          "addr:postcode": "411009",
          "addr:state": "Maharashtra",
          "amenity": "hospital",
          "name": "Purohit Hospital",
          "source": "Local Knowledge"
        }
      },
      {
        "type": "node",
        "id": 7651453357,
        "lat": 18.4916654,
        "lon": 73.8562042,
        "tags": {
          "addr:district": "Pune",
          "addr:full": "1st Floor, Pentagon , Next To Kaka Halwai Satara Road, Shahu College Road, Pune",
          "addr:postcode": "411009",
          "addr:state": "Maharastra",
          "amenity": "clinic",
          "name": "Express Clinics Pvt Ltd",
          "source": "Local Knowledge"
        }
      },
      {
        "type": "node",
        "id": 7651453365,
        "lat": 18.4891725,
        "lon": 73.8571698,
        "tags": {
          "addr:district": "Pune",
          "addr:full": "Satara Road, Above Cosmos Bank, Adinath Society, Parvati Industrial Estate, Pune",
          "addr:postcode": "411009",
          "addr:state": "Maharastra",
          "amenity": "hospital",
          "name": "Kothari Orthopaedic Hospital",
          "source": "Local Knowledge"
        }
      },
      {
        "type": "node",
        "id": 8256715247,
        "lat": 18.4854593,
        "lon": 73.8518384,
        "tags": {
          "amenity": "pharmacy",
          "name": "Shree Medical",
          "shop": "beauty"
        }
      },
      {
        "type": "node",
        "id": 8257587510,
        "lat": 18.4852917,
        "lon": 73.8514295,
        "tags": {
          "addr:city": "Pune",
          "addr:housenumber": "Shop no29",
          "addr:postcode": "411009",
          "addr:street": "Ashoka Centre, Near Bata Showroom, Pune -Satara Rd",
          "amenity": "hospital",
          "healthcare": "hospital",
          "healthcare:speciality": "Neonatology;Allergy_and_Asthma;Pediatrics;Allergy_and_Immunology;pulmonology;Ophthalmology",
          "name": "Sai Allergy asthma Eye Children Hospital",
          "website": "https://www.allergyasthmaindia.com/saieyecentre"
        }
      },
      {
        "type": "node",
        "id": 8266880870,
        "lat": 18.4914878,
        "lon": 73.8580871,
        "tags": {
          "addr:city": "Pune",
          "addr:housenumber": "1038",
          "addr:postcode": "413308",
          "addr:street": "Pune satara road",
          "amenity": "clinic",
          "healthcare": "clinic",
          "healthcare:speciality": "Interventional_Cardiology",
          "name": "HRIDAYASTH HEART CLINIC",
          "website": "https://www.hridayasthheartclinic.in/"
        }
      },
      {
        "type": "node",
        "id": 8269748766,
        "lat": 18.4966795,
        "lon": 73.8623419,
        "tags": {
          "addr:city": "Pune",
          "addr:housenumber": "C 201-202",
          "addr:postcode": "411037",
          "addr:street": "Business court, Mukundnagar",
          "amenity": "clinic",
          "healthcare": "clinic",
          "healthcare:speciality": "Ophthalmologist",
          "name": "Vardhaman Eye Care",
          "website": "https://www.vardhamaneyecare.in/"
        }
      },
      {
        "type": "node",
        "id": 8813660507,
        "lat": 18.4925761,
        "lon": 73.8665946,
        "tags": {
          "addr:district": "Pune",
          "addr:full": "Indira Nagar, Mukund Nagar, Pune",
          "addr:postcode": "411037",
          "addr:state": "Maharashtra",
          "amenity": "hospital",
          "name": "G B Indumati Manilal Khanna Hospital",
          "source": "Local Knowledge"
        }
      },
      {
        "type": "node",
        "id": 8817855241,
        "lat": 18.4983171,
        "lon": 73.8544993,
        "tags": {
          "addr:city": "pune",
          "addr:housenumber": "Office 135,",
          "addr:postcode": "411009",
          "addr:street": "Patil Plaza, Opposite Pudhari Office, Mitramandal Chowk, Near Swargate",
          "amenity": "clinic",
          "healthcare": "clinic",
          "healthcare:speciality": "Gastroenterology;Hepatology",
          "name": "Gastro and Liver Care",
          "website": "https://www.drvarunkhandagale.com/"
        }
      },
      {
        "type": "node",
        "id": 9247492749,
        "lat": 18.4897121,
        "lon": 73.8499352,
        "tags": {
          "addr:street": "Parvati Sahakar Nagar, Vrindavan Society, Sivadarshan Poorgrasta Vasahat, Parvati Paytha, Pune, Maharashtra 411009",
          "amenity": "cafe",
          "name": "Neha's Cafe",
          "opening_hours": "Mo-Su 10:00-23:45",
          "phone": "090287 38585"
        }
      },
      {
        "type": "node",
        "id": 9323450479,
        "lat": 18.4871931,
        "lon": 73.8570132,
        "tags": {
          "addr:city": "Pune",
          "addr:postcode": "411037",
          "addr:street": "Satara Rd, Vasant Baug, Prem Nagar, Vasant Baug Society, Bibvewadi",
          "amenity": "clinic",
          "healthcare": "clinic",
          "healthcare:speciality": "obstetrics_&_gynecology.;orthopedics_and_joint_replacement.",
          "name": "Dr. Jagdish Dhake",
          "opening_hours": "Mo-Sa 11:00-13:00,18:00-20:00",
          "operator": "Novosalus",
          "operator:type": "private",
          "website": "https://www.asperiaclinicpune.in/"
        }
      },
      {
        "type": "node",
        "id": 9337256259,
        "lat": 18.4927152,
        "lon": 73.8567317,
        "tags": {
          "addr:city": "pune",
          "addr:postcode": "411009",
          "addr:street": "3rd floor Seraph Center Building, Next to hotel Panchami, Opp. axis bank Above suburban diagnostic Center, Near swargate, off pune- satara road",
          "amenity": "clinic",
          "healthcare": "clinic",
          "healthcare:speciality": "interventional_cardiology",
          "name": "Dr. Hasmukh Gujar",
          "opening_hours": "Mo-Su 16:00-20:00",
          "operator": "Novosalus",
          "operator:type": "private",
          "website": "https://www.drhasmukhgujar.com"
        }
      },
      {
        "type": "node",
        "id": 9549711684,
        "lat": 18.4971906,
        "lon": 73.8554839,
        "tags": {
          "addr:city": "Pune",
          "addr:postcode": "411009",
          "addr:street": "Netaji Palkar Chowk",
          "amenity": "clinic",
          "healthcare": "clinic",
          "name": "Suhrud clinic",
          "operator": "Dr. Karne",
          "phone": "8888893925"
        }
      },
      {
        "type": "node",
        "id": 10172986715,
        "lat": 18.4949578,
        "lon": 73.8619001,
        "tags": {
          "addr:city": "Pune",
          "amenity": "hospital",
          "healthcare": "hospital",
          "healthcare:speciality": "chiropractic;general",
          "name": "RANKA HOSPITAL"
        }
      },
      {
        "type": "node",
        "id": 10313160454,
        "lat": 18.4894343,
        "lon": 73.8491202,
        "tags": {
          "amenity": "restaurant",
          "name": "Relax",
          "opening_hours": "Mo-Su 11:00-23:00"
        }
      },
      {
        "type": "node",
        "id": 10709245125,
        "lat": 18.4967019,
        "lon": 73.8591168,
        "tags": {
          "addr:city": "Pune",
          "addr:postcode": "411037",
          "addr:street": "Shankarrao Lahane Marg",
          "amenity": "restaurant",
          "cuisine": "pizza;regional;italian;burger;chinese",
          "diet:vegetarian": "yes",
          "name": "Laa Unico Restaurant"
        }
      },
      {
        "type": "node",
        "id": 12411472107,
        "lat": 18.4920489,
        "lon": 73.8571608,
        "tags": {
          "addr:city": "pune",
          "addr:district": "Pune",
          "addr:housenumber": "30",
          "addr:postcode": "411009",
          "addr:street": "First Floor, Lotus Court Above PH Diagnostic Center Near Panchami Hotel",
          "amenity": "clinic",
          "healthcare": "clinic",
          "healthcare:speciality": "gastroenterologst;_hepatologist_and_interventional_endoscopist",
          "name": "RL GASTRO CARE",
          "operator": "Novosalus Technology",
          "operator:type": "private"
        }
      },
      {
        "type": "node",
        "id": 13055758303,
        "lat": 18.4923944,
        "lon": 73.8530199,
        "tags": {
          "amenity": "bank",
          "name": "PDCC Bank"
        }
      }
    ]
  },
  "pois_2_5km": {
    "version": 0.6,
    "generator": "Overpass API 0.7.62.8 e802775f",
    "osm3s": {
      "timestamp_osm_base": "2025-09-07T11:26:30Z",
      "copyright": "The data included in this document is from www.openstreetmap.org. The data is made available under ODbL."
    },
    "elements": [
      {
        "type": "node",
        "id": 1045902130,
        "lat": 18.4886957,
        "lon": 73.857908,
        "tags": {
          "addr:city": "Pune",
          "addr:street": "Satara Road",
          "amenity": "cinema",
          "name": "City Pride Multiplex",
          "payment:app": "yes",
          "payment:cash": "yes",
          "payment:credit_cards": "yes",
          "screen": "4"
        }
      },
      {
        "type": "node",
        "id": 1534841981,
        "lat": 18.5010323,
        "lon": 73.8463028,
        "tags": {
          "amenity": "fuel",
          "brand": "Indian Oil",
          "brand:wikidata": "Q1289348",
          "brand:wikipedia": "en:Indian Oil Corporation",
          "name": "Indian Oil",
          "operator": "Indian Oil (IOCL)",
          "website": "https://www.iocl.com/"
        }
      },
      {
        "type": "node",
        "id": 2929239716,
        "lat": 18.5019555,
        "lon": 73.8700439,
        "tags": {
          "amenity": "fuel",
          "brand": "Indian Oil",
          "brand:wikidata": "Q1289348",
          "brand:wikipedia": "en:Indian Oil Corporation",
          "name": "Indian Oil"
        }
      },
      {
        "type": "node",
        "id": 7635224855,
        "lat": 18.4994601,
        "lon": 73.8581505,
        "tags": {
          "bus": "yes",
          "name": "Swargate",
          "network": "PMPML",
          "operator": "PMPML",
          "public_transport": "stop_position",
          "ref": "4349",
          "wikidata": "Q7260109",
          "wikimedia_commons": "Category:Pune Mahanagar Parivahan Mahamandal Limited",
          "wikipedia": "en:Pune Mahanagar Parivahan Mahamandal Limited"
        }
      },
      {
        "type": "node",
        "id": 7635224857,
        "lat": 18.4989486,
        "lon": 73.8584488,
        "tags": {
          "bus": "yes",
          "name": "Swargate",
          "network": "PMPML",
          "operator": "PMPML",
          "public_transport": "stop_position",
          "ref": "4350",
          "wikidata": "Q7260109",
          "wikimedia_commons": "Category:Pune Mahanagar Parivahan Mahamandal Limited",
          "wikipedia": "en:Pune Mahanagar Parivahan Mahamandal Limited"
        }
      },
      {
        "type": "node",
        "id": 7944597694,
        "lat": 18.5129081,
        "lon": 73.8569695,
        "tags": {
          "name": "\u092e\u0902\u0921\u0908",
          "name:en": "Mandai",
          "name:mr": "\u092e\u0902\u0921\u0908",
          "network": "Pune Metro",
          "network:wikidata": "Q3595697",
          "operator": "MahaMetro",
          "public_transport": "station",
          "railway": "station",
          "station": "subway",
          "subway": "yes",
          "wikidata": "Q130381236",
          "wikipedia": "en:Mandai metro station"
        }
      },
      {
        "type": "node",
        "id": 7944597710,
        "lat": 18.4997453,
        "lon": 73.8574604,
        "tags": {
          "name": "\u0938\u094d\u0935\u093e\u0930\u0917\u0947\u091f",
          "name:en": "Swargate",
          "name:mr": "\u0938\u094d\u0935\u093e\u0930\u0917\u0947\u091f",
          "network": "Pune Metro",
          "network:wikidata": "Q3595697",
          "public_transport": "station",
          "railway": "station",
          "station": "subway",
          "subway": "yes",
          "wikidata": "Q130381241",
          "wikipedia": "en:Swargate metro station"
        }
      },
      {
        "type": "node",
        "id": 10097434144,
        "lat": 18.4844962,
        "lon": 73.8496753,
        "tags": {
          "amenity": "charging_station",
          "brand": "Ather Energy",
          "capacity": "1",
          "fee": "yes",
          "operator": "Ather Energy"
        }
      },
      {
        "type": "node",
        "id": 12211960101,
        "lat": 18.5129087,
        "lon": 73.8569857,
        "tags": {
          "name": "\u092e\u0902\u0921\u0908",
          "name:en": "Mandai",
          "name:mr": "\u092e\u0902\u0921\u0908",
          "operator": "MahaMetro",
          "public_transport": "stop_position",
          "railway": "stop",
          "subway": "yes"
        }
      },
      {
        "type": "node",
        "id": 12211960102,
        "lat": 18.5129035,
        "lon": 73.8569526,
        "tags": {
          "name": "\u092e\u0902\u0921\u0908",
          "name:en": "Mandai",
          "name:mr": "\u092e\u0902\u0921\u0908",
          "operator": "MahaMetro",
          "public_transport": "stop_position",
          "railway": "stop",
          "subway": "yes"
        }
      },
      {
        "type": "node",
        "id": 12211960136,
        "lat": 18.4997302,
        "lon": 73.8575193,
        "tags": {
          "name": "\u0938\u094d\u0935\u093e\u0930\u0917\u0947\u091f",
          "name:en": "Swargate",
          "name:mr": "\u0938\u094d\u0935\u093e\u0930\u0917\u0947\u091f",
          "operator": "MahaMetro",
          "public_transport": "stop_position",
          "railway": "stop",
          "subway": "yes"
        }
      },
      {
        "type": "node",
        "id": 12211960138,
        "lat": 18.49975,
        "lon": 73.8574064,
        "tags": {
          "name": "\u0938\u094d\u0935\u093e\u0930\u0917\u0947\u091f",
          "name:en": "Swargate",
          "name:mr": "\u0938\u094d\u0935\u093e\u0930\u0917\u0947\u091f",
          "operator": "MahaMetro",
          "public_transport": "stop_position",
          "railway": "stop",
          "subway": "yes"
        }
      }
    ]
  }
}