{
  "pois_1km": {
    "version": 0.6,
    "generator": "Overpass API 0.7.62.8 e802775f",
    "osm3s": {
      "timestamp_osm_base": "2025-09-07T11:15:14Z",
      "copyright": "The data included in this document is from www.openstreetmap.org. The data is made available under ODbL."
    },
    "elements": [
      {
        "type": "node",
        "id": 1532852998,
        "lat": 18.5099291,
        "lon": 73.9285868,
        "tags": {
          "addr:housename": "Destination Center",
          "amenity": "bank",
          "atm": "yes",
          "brand": "HDFC",
          "brand:wikidata": "Q631047",
          "brand:wikipedia": "en:HDFC Bank",
          "name": "HDFC Bank",
          "short_name": "HDFC",
          "website": "https://www.hdfcbank.com"
        }
      },
      {
        "type": "node",
        "id": 1532852999,
        "lat": 18.5096188,
        "lon": 73.9283508,
        "tags": {
          "addr:city": "Magarpatta City",
          "addr:housename": "Destination Center",
          "addr:postcode": "411028",
          "addr:street": "Destination Centre",
          "amenity": "restaurant",
          "cuisine": "indian",
          "name": "Global Punjab",
          "phone": "+9102067225957",
          "website": "http://www.global-punjab.com"
        }
      },
      {
        "type": "node",
        "id": 1532853001,
        "lat": 18.5094711,
        "lon": 73.9286247,
        "tags": {
          "addr:housename": "Destination Center",
          "amenity": "bank",
          "atm": "yes",
          "brand": "Punjab National Bank",
          "brand:wikidata": "Q2743499",
          "name": "Punjab National Bank",
          "name:en": "Punjab National Bank",
          "short_name": "PNB",
          "website": "https://www.pnbindia.in",
          "wikidata": "Q2743499",
          "wikimedia_commons": "Category:Punjab National Bank",
          "wikipedia": "en:Punjab National Bank"
        }
      },
      {
        "type": "node",
        "id": 1710015241,
        "lat": 18.5050823,
        "lon": 73.9279049,
        "tags": {
          "amenity": "restaurant",
          "name": "Shamli"
        }
      },
      {
        "type": "node",
        "id": 1710015243,
        "lat": 18.5032866,
        "lon": 73.9277976,
        "tags": {
          "amenity": "restaurant",
          "diet:vegetarian": "only",
          "name": "Bashri"
        }
      },
      {
        "type": "node",
        "id": 2827466755,
        "lat": 18.5098183,
        "lon": 73.9281935,
        "tags": {
          "amenity": "pharmacy",
          "atm": "no",
          "name": "Ranveer Medical"
        }
      },
      {
        "type": "node",
        "id": 2827466758,
        "lat": 18.5096072,
        "lon": 73.9281761,
        "tags": {
          "amenity": "restaurant",
          "name": "Marrakesh"
        }
      },
      {
        "type": "node",
        "id": 2827467014,
        "lat": 18.5099987,
        "lon": 73.9281637,
        "tags": {
          "addr:city": "Magarpatta City",
          "addr:housenumber": "1st Floor",
          "addr:postcode": "411028",
          "addr:street": "Destination Centre",
          "amenity": "doctors",
          "name": "Omkar Clinic & Sonography Center",
          "website": "http://www.omkarxray.com"
        }
      },
      {
        "type": "node",
        "id": 2827467019,
        "lat": 18.5093984,
        "lon": 73.9281865,
        "tags": {
          "amenity": "restaurant",
          "name": "Chennai Express"
        }
      },
      {
        "type": "node",
        "id": 4154605789,
        "lat": 18.5029092,
        "lon": 73.9277341,
        "tags": {
          "amenity": "hospital",
          "name": "Sahyadri Hospital"
        }
      },
      {
        "type": "node",
        "id": 4666486136,
        "lat": 18.5098623,
        "lon": 73.9286042,
        "tags": {
          "amenity": "hospital",
          "name": "NON",
          "operator": "BLNOBN"
        }
      },
      {
        "type": "node",
        "id": 6262931930,
        "lat": 18.5012035,
        "lon": 73.9379293,
        "tags": {
          "addr:city": "Pune",
          "addr:district": "Pune",
          "addr:full": "Laxmi Angan, Shatanand Complex, Hadapsar",
          "addr:housenumber": "226, Shatanand complex, Near PMT Bus Depot, Next to pearl towers, Gadital, Hadapsar",
          "addr:postcode": "411028",
          "addr:state": "Maharashtra",
          "addr:street": "Pune Solapur Road",
          "amenity": "hospital",
          "emergency": "yes",
          "healthcare": "hospital",
          "healthcare:speciality": "laparoscopic_and_general_surgery;Urology;gastroenterology;paediatrics;piles_surgery",
          "name": "Pawar Surgical Hospital",
          "operator": "Dr Vijay Pawar",
          "operator:type": "private",
          "start_date": "2006-08-14",
          "website": "https://www.pawarsurgicalhospital.com/",
          "wheelchair": "yes"
        }
      },
      {
        "type": "node",
        "id": 7042945051,
        "lat": 18.5006535,
        "lon": 73.936556,
        "tags": {
          "addr:district": "Pune",
          "addr:full": "106, Ramanand Complex, Near Gadital, Sofapur Road, Hadapsar",
          "addr:postcode": "411028",
          "addr:state": "Maharashtra",
          "amenity": "hospital",
          "name": "Mohite Eye Hospital",
          "source": "OpenGovernmentData"
        }
      },
      {
        "type": "node",
        "id": 7044437265,
        "lat": 18.503468,
        "lon": 73.9292309,
        "tags": {
          "addr:district": "Pune",
          "addr:full": "84 Placino Behind Vaibhav Theatre Hadapsar Behind Vaibhav Theatre Hadapsar",
          "addr:postcode": "411028",
          "addr:state": "Maharashtra",
          "amenity": "hospital",
          "name": "Welfare Medical Foundatios, Mohintara Hospital",
          "source": "OpenGovernmentData"
        }
      },
      {
        "type": "node",
        "id": 7045304709,
        "lat": 18.5019965,
        "lon": 73.9348286,
        "tags": {
          "addr:district": "Pune",
          "addr:full": "Sr No 229/A 1, Kamdhenu Estate, Hadapsar",
          "addr:postcode": "411028",
          "addr:state": "Maharashtra",
          "amenity": "hospital",
          "name": "Ushakiran General Hospital",
          "source": "OpenGovernmentData"
        }
      },
      {
        "type": "node",
        "id": 7045518177,
        "lat": 18.5025879,
        "lon": 73.9294803,
        "tags": {
          "addr:district": "Pune",
          "addr:full": "15/2A/2A, Opp Vaibhav Theatre, Pune Solapur Road,Hadapsar",
          "addr:postcode": "411028",
          "addr:state": "Maharashtra",
          "amenity": "hospital",
          "name": "Zenith Hospital, Pune",
          "source": "OpenGovernmentData"
        }
      },
      {
        "type": "node",
        "id": 7047804836,
        "lat": 18.5018572,
        "lon": 73.9322779,
        "tags": {
          "addr:district": "Pune",
          "addr:full": "# 163/A,Bhosale Garden, Iii Pmc Stop, ,Hadapsar",
          "addr:postcode": "411028",
          "addr:state": "Maharashtra",
          "amenity": "hospital",
          "name": "Alatkar Hospital",
          "source": "OpenGovernmentData"
        }
      },
      {
        "type": "node",
        "id": 7048498777,
        "lat": 18.5005568,
        "lon": 73.9365077,
        "tags": {
          "addr:district": "Pune",
          "addr:full": "228, Ramanand Complex,Poona Sholapur, Road, Near Jenaseva Bank",
          "addr:postcode": "411028",
          "addr:state": "Maharashtra",
          "amenity": "hospital",
          "name": "Remedy Hospital",
          "source": "OpenGovernmentData"
        }
      },
      {
        "type": "node",
        "id": 7049007104,
        "lat": 18.5019482,
        "lon": 73.9315805,
        "tags": {
          "addr:district": "Pune",
          "addr:full": "1st Floor L P Classic, Hadapsar, Pune",
          "addr:postcode": "411028",
          "addr:state": "Maharashtra",
          "addr:subdistrict": "Pune City",
          "amenity": "hospital",
          "name": "Shraddha Hospital",
          "source": "OpenGovernmentData"
        }
      },
      {
        "type": "node",
        "id": 7051906956,
        "lat": 18.4994516,
        "lon": 73.9377093,
        "tags": {
          "addr:city": "Pune",
          "addr:district": "Pune",
          "addr:full": "Parmar Complex, Ground Floor, Behind Lokseva Hanuman Mandir, Gadital, Hadapsar",
          "addr:housenumber": "Ground Floor",
          "addr:postcode": "411028",
          "addr:state": "Maharashtra",
          "addr:street": "Parmar Complex, Landmark: Behind Lokseva Hanuman Mandir Gadital,Pune Solapur Road, Hadapsar",
          "amenity": "hospital",
          "healthcare:speciality": "OPHTHALMOLOGIST;orthodontics",
          "name": "Abane Hospital",
          "source": "OpenGovernmentData",
          "website": "https://www.abanehospital.com/abanehospital"
        }
      },
      {
        "type": "node",
        "id": 7053694039,
        "lat": 18.5031602,
        "lon": 73.9321491,
        "tags": {
          "addr:district": "Pune",
          "addr:full": "G & S Tower, Survey No.153/A, Hissa No.1 To 4/21, Magarpatta, Pune-Solapur Road, Hadapsar",
          "addr:postcode": "411028",
          "addr:state": "Maharashtra",
          "amenity": "hospital",
          "name": "Sahyadri Hospital Hadapsar",
          "source": "OpenGovernmentData"
        }
      },
      {
        "type": "node",
        "id": 7054524654,
        "lat": 18.5008462,
        "lon": 73.9305311,
        "tags": {
          "addr:district": "Pune",
          "addr:full": "84, Palacino Appartments, Behind Vaibhav Theatre, Pune-Solapur Road, Hadapsar, Pune-411028",
          "addr:postcode": "411028",
          "addr:state": "Maharashtra",
          "amenity": "hospital",
          "healthcare": "hospital",
          "healthcare:speciality": "general",
          "name": "Mohintara Hospital, Hadapsar",
          "source": "OpenGovernmentData"
        }
      },
      {
        "type": "node",
        "id": 7064364271,
        "lat": 18.5023551,
        "lon": 73.9288205,
        "tags": {
          "addr:district": "Pune",
          "addr:full": "Kanchanjunga Arcade, Off Pune, Solapur Road, Hadapsur",
          "addr:postcode": "411028",
          "addr:state": "Maharashtra",
          "amenity": "hospital",
          "name": "Pooja Hospital",
          "source": "OpenGovernmentData"
        }
      },
      {
        "type": "node",
        "id": 7074576510,
        "lat": 18.503632,
        "lon": 73.9381224,
        "tags": {
          "addr:district": "Pune",
          "addr:full": "Near Samidha Gas Agency, Malwadi, Hadapsar",
          "addr:postcode": "411028",
          "addr:state": "Maharashtra",
          "amenity": "hospital",
          "name": "Sane Guruji Arogya Kendra",
          "source": "OpenGovernmentData"
        }
      },
      {
        "type": "node",
        "id": 7157834581,
        "lat": 18.5006551,
        "lon": 73.9359616,
        "tags": {
          "amenity": "bank",
          "atm": "yes",
          "name": "Janaseva Sahakari Bank",
          "opening_hours": "Mo-Fr 10:00-13:30,14:30-15:00"
        }
      },
      {
        "type": "node",
        "id": 7157923284,
        "lat": 18.5004494,
        "lon": 73.9360535,
        "tags": {
          "addr:city": "Pune",
          "addr:postcode": "411028",
          "addr:street": "Solapur Road",
          "amenity": "hospital",
          "healthcare": "hospital",
          "healthcare:speciality": "general",
          "name": "Dhanvantari Hospital"
        }
      },
      {
        "type": "node",
        "id": 7649461724,
        "lat": 18.500617,
        "lon": 73.9364994,
        "tags": {
          "addr:district": "Pune",
          "addr:full": "1st Floor, Ramanand Complex, Hadapsar, Pune",
          "addr:postcode": "411028",
          "addr:state": "Maharastra",
          "amenity": "hospital",
          "name": "Shivam Hospital",
          "source": "Local Knowledge"
        }
      },
      {
        "type": "node",
        "id": 7649461774,
        "lat": 18.5035846,
        "lon": 73.9273481,
        "tags": {
          "addr:district": "Pune",
          "addr:full": "Magarpatta Road, North Hadapsar, Pune",
          "addr:postcode": "411028",
          "addr:state": "Maharastra",
          "amenity": "hospital",
          "name": "Noble Hospital",
          "source": "Local Knowledge"
        }
      },
      {
        "type": "node",
        "id": 7649461788,
        "lat": 18.5015481,
        "lon": 73.9357865,
        "tags": {
          "addr:district": "Pune",
          "addr:full": "Nitin Heights, Opp. Janaseva Bank, Pune - Solapur Road, Hadapsar, Pune",
          "addr:postcode": "411028",
          "addr:state": "Maharastra",
          "amenity": "hospital",
          "name": "Dharmadhikari Hospital",
          "source": "Local Knowledge"
        }
      },
      {
        "type": "node",
        "id": 7649461812,
        "lat": 18.503807,
        "lon": 73.933446,
        "tags": {
          "addr:district": "Pune",
          "addr:full": "R4-4, Laxmi Vihar, Bhosale Nagar, Hadapsar, Pune",
          "addr:postcode": "411028",
          "addr:state": "Maharastra",
          "amenity": "clinic",
          "name": "Madhavbaug Cardiac Care Clinic",
          "source": "Local Knowledge"
        }
      },
      {
        "type": "node",
        "id": 8266859601,
        "lat": 18.5041351,
        "lon": 73.9330393,
        "tags": {
          "addr:city": "Pune",
          "addr:housenumber": "First Floor",
          "addr:postcode": "411028",
          "addr:street": "Siyona Heights, Bhosale Nagar, Landmark: Above Roll Delight &amp;Laxmi Vihar, Kalyan Bhel, Opposite Brick Castle,, Hadapsar",
          "amenity": "clinic",
          "healthcare": "clinic",
          "healthcare:speciality": "ORTHODONTIST",
          "name": "Dr. Sahu's Dental & Orthodontic Care",
          "website": "https://www.drsahudentalclinic.com/"
        }
      },
      {
        "type": "node",
        "id": 9139421798,
        "lat": 18.504039,
        "lon": 73.9307918,
        "tags": {
          "addr:city": "Pune,Maharashtra, India",
          "addr:housenumber": "1st Floor",
          "addr:postcode": "411028",
          "addr:street": "Gandharva capital Bhosale nagar ,near Villoo Poonawala Hospital, Hadapsar",
          "amenity": "clinic",
          "healthcare": "clinic",
          "healthcare:speciality": "orthopaedic_surgeon",
          "name": "Oasis Orthopaedic & Sonography Clinic",
          "website": "https://www.oasisclinicpune.com/"
        }
      },
      {
        "type": "node",
        "id": 9158173333,
        "lat": 18.5040531,
        "lon": 73.9309888,
        "tags": {
          "addr:city": "Hadapsar, Pune,Maharashtra, India",
          "addr:housenumber": "1st Floor",
          "addr:postcode": "411028",
          "addr:street": "Gandharva Capital, Behind Sahayadri Hospital, Bhosale Nagar",
          "amenity": "clinic",
          "healthcare": "clinic",
          "healthcare:speciality": "orthopaedic_surgeon",
          "name": "Dr.Sampat Dumbre Patil, orthopaedic surgeon",
          "website": "https://www.drsampatdumbrepatil.com/"
        }
      },
      {
        "type": "node",
        "id": 11266114118,
        "lat": 18.5015689,
        "lon": 73.934946,
        "tags": {
          "addr:city": "Pune",
          "addr:district": "Pune",
          "addr:housenumber": "4-DEF",
          "addr:postcode": "411028",
          "addr:street": "Kamdhenu Estates, Solapaur Road,Hadapsar",
          "amenity": "clinic",
          "healthcare": "clinic",
          "healthcare:speciality": "homeopathy",
          "name": "The Harmony Clinic",
          "operator": "Novosalus",
          "operator:type": "private"
        }
      },
      {
        "type": "node",
        "id": 11436633896,
        "lat": 18.5048706,
        "lon": 73.9272792,
        "tags": {
          "addr:city": "Pune",
          "addr:district": "Pune",
          "addr:postcode": "411013",
          "addr:street": "Noble Hospital, Hadapsar,",
          "amenity": "clinic",
          "healthcare": "clinic",
          "healthcare:speciality": "orthopaedics",
          "name": "Dr. Siddharth Bhandari",
          "operator": "Novosalus Technology",
          "operator:type": "private"
        }
      },
      {
        "type": "node",
        "id": 11665192168,
        "lat": 18.5019472,
        "lon": 73.9302327,
        "tags": {
          "addr:city": "Pune",
          "addr:district": "Pune",
          "addr:housenumber": "Office no 110",
          "addr:postcode": "411028",
          "addr:street": "City Center, Opp. VAIBHAV THEATRE, Triveni Nagar, Hadapsar",
          "amenity": "clinic",
          "healthcare": "clinic",
          "healthcare:speciality": "urologist;andrologist;orthodontist",
          "name": "Dr. Gulhane's Urology & Dental Clinic",
          "operator": "Novosalus Technology",
          "operator:type": "private"
        }
      },
      {
        "type": "node",
        "id": 12323567372,
        "lat": 18.505647,
        "lon": 73.9255019,
        "tags": {
          "addr:city": "Pune",
          "addr:district": "Pune",
          "addr:postcode": "411028",
          "addr:street": "Spine Care Clinic, 301, 3rd floor, Polaris, Behind Noble Hospital, Magarpatta, Hadapsar",
          "amenity": "clinic",
          "healthcare": "clinic",
          "healthcare:speciality": "orthopaedics",
          "name": "Dr. Hrushikesh Mehata",
          "operator": "Novosalus Technology",
          "operator:type": "private"
        }
      },
      {
        "type": "node",
        "id": 12325408104,
        "lat": 18.502052,
        "lon": 73.9298115,
        "tags": {
          "addr:city": "Pune",
          "addr:district": "Pune",
          "addr:housenumber": "408A",
          "addr:postcode": "411028",
          "addr:street": "City Center OP, Vaibhav Complex, Triveni Nagar, Hadapsar",
          "amenity": "clinic",
          "healthcare": "clinic",
          "healthcare:speciality": "orthopedic;physiotherapy",
          "name": "Dr. Karkamkar's Orthopedic and Physiotherapy Clinic",
          "operator": "Novosalus Technology",
          "operator:type": "private"
        }
      },
      {
        "type": "node",
        "id": 12462513908,
        "lat": 18.5020288,
        "lon": 73.9298622,
        "tags": {
          "addr:city": "Pune",
          "addr:district": "Pune",
          "addr:housenumber": "Office no 207/208",
          "addr:postcode": "411028",
          "addr:street": "Second Floor, City Centre, opposite Vaibhav Complex, Laxmi Vihar, Hadapsar",
          "amenity": "clinic",
          "healthcare": "clinic",
          "name": "Callus Medhub",
          "operator": "Novosalus Technology",
          "operator:type": "private"
        }
      },
      {
        "type": "node",
        "id": 12641262080,
        "lat": 18.5032589,
        "lon": 73.9273693,
        "tags": {
          "amenity": "restaurant",
          "branch": "Hadapsar",
          "cuisine": "indian",
          "diet:vegetarian": "yes",
          "name": "NaadBrahma Idli",
          "website": "https://naadbramha.com/"
        }
      }
    ]
  },
  "pois_2_5km": {
    "version": 0.6,
    "generator": "Overpass API 0.7.62.8 e802775f",
    "osm3s": {
      "timestamp_osm_base": "2025-09-07T11:15:14Z",
      "copyright": "The data included in this document is from www.openstreetmap.org. The data is made available under ODbL."
    },
    "elements": [
      {
        "type": "node",
        "id": 278887458,
        "lat": 18.5152532,
        "lon": 73.9330133,
        "tags": {
          "addr:city": "Pune",
          "addr:country": "IN",
          "addr:postcode": "411013",
          "addr:state": "Maharashtra",
          "addr:street": "Mundwha Road",
          "amenity": "fuel",
          "atm": "no",
          "brand": "Pure For sure",
          "fuel": "yes",
          "name": "Magar Petrol Pump",
          "operator": "Bharat Petrolium"
        }
      }
    ]
  }
}