{
  "pois_1km": {
    "version": 0.6,
    "generator": "Overpass API 0.7.62.8 e802775f",
    "osm3s": {
      "timestamp_osm_base": "2025-09-07T11:21:26Z",
      "copyright": "The data included in this document is from www.openstreetmap.org. The data is made available under ODbL."
    },
    "elements": [
      {
        "type": "node",
        "id": 283152697,
        "lat": 18.5457237,
        "lon": 73.9062599,
        "tags": {
          "amenity": "fast_food",
          "brand": "McDonald's",
          "brand:pa": "\u0a2e\u0a48\u0a15\u0a21\u0a4b\u0a28\u0a32\u0a21\u2019\u0a1c\u0a3c",
          "brand:ur": "\u0645\u06a9\u0688\u0648\u0646\u0644\u0688\u0632",
          "brand:wikidata": "Q38076",
          "brand:wikipedia": "en:McDonald's",
          "brand:wikipedia:pa": "\u0a2e\u0a48\u0a15\u0a21\u0a4b\u0a28\u0a32\u0a21\u2019\u0a1c\u0a3c",
          "brand:wikipedia:ur": "\u0645\u06a9\u0688\u0648\u0646\u0644\u0688\u0632",
          "cuisine": "burger",
          "name": "McDonald's",
          "name:pa": "\u0a2e\u0a48\u0a15\u0a21\u0a4b\u0a28\u0a32\u0a21\u2019\u0a1c\u0a3c",
          "name:ur": "\u0645\u06a9\u0688\u0648\u0646\u0644\u0688\u0632",
          "takeaway": "yes"
        }
      },
      {
        "type": "node",
        "id": 283166318,
        "lat": 18.5391279,
        "lon": 73.9049627,
        "tags": {
          "amenity": "cafe",
          "name": "Shisha Jazz Cafe"
        }
      },
      {
        "type": "node",
        "id": 511975995,
        "lat": 18.5387955,
        "lon": 73.912781,
        "tags": {
          "amenity": "restaurant",
          "brand": "Hard Rock Cafe",
          "brand:wikidata": "Q918151",
          "cuisine": "american",
          "name": "Hard Rock Cafe"
        }
      },
      {
        "type": "node",
        "id": 511975996,
        "lat": 18.5383533,
        "lon": 73.9126684,
        "tags": {
          "amenity": "restaurant",
          "name": "Stone Water Grill"
        }
      },
      {
        "type": "node",
        "id": 546289209,
        "lat": 18.5459611,
        "lon": 73.9045987,
        "tags": {
          "name": "Megamart Shop",
          "shop": "supermarket"
        }
      },
      {
        "type": "node",
        "id": 622955570,
        "lat": 18.5391023,
        "lon": 73.9061842,
        "tags": {
          "amenity": "restaurant",
          "name": "Seasonal Tastes"
        }
      },
      {
        "type": "node",
        "id": 663592103,
        "lat": 18.5387882,
        "lon": 73.9052035,
        "tags": {
          "amenity": "cafe",
          "name": "Aroma's"
        }
      },
      {
        "type": "node",
        "id": 679044949,
        "lat": 18.5393141,
        "lon": 73.9061183,
        "tags": {
          "amenity": "restaurant",
          "name": "Prego"
        }
      },
      {
        "type": "node",
        "id": 679044987,
        "lat": 18.5399703,
        "lon": 73.9061077,
        "tags": {
          "amenity": "restaurant",
          "name": "Kangan"
        }
      },
      {
        "type": "node",
        "id": 831251526,
        "lat": 18.5540074,
        "lon": 73.9051438,
        "tags": {
          "addr:city": "Kalyani Nagar",
          "addr:postcode": "411006",
          "addr:street": "East Avenue",
          "amenity": "restaurant",
          "email": "toitpune@toit.in",
          "name": "Toit brewery and Resturant",
          "phone": "+91 7796694400",
          "source": "survey",
          "website": "https://toit.in/toit-on-tap/pune/"
        }
      },
      {
        "type": "node",
        "id": 831253313,
        "lat": 18.5452508,
        "lon": 73.9063531,
        "tags": {
          "amenity": "restaurant",
          "name": "Rajdhani"
        }
      },
      {
        "type": "node",
        "id": 1609994720,
        "lat": 18.5464794,
        "lon": 73.9065617,
        "tags": {
          "amenity": "restaurant",
          "cuisine": "indian",
          "name": "Tiger Trail"
        }
      },
      {
        "type": "node",
        "id": 1768859199,
        "lat": 18.5381475,
        "lon": 73.9068979,
        "tags": {
          "amenity": "cafe",
          "name": "Pesto Pesto",
          "opening_hours": "Mo-Su 09:00-23:00"
        }
      },
      {
        "type": "node",
        "id": 1804237966,
        "lat": 18.5487745,
        "lon": 73.9056726,
        "tags": {
          "amenity": "restaurant",
          "cuisine": "kebab",
          "name": "Marrakesh",
          "name:mr": "\u092e\u0930\u093e\u0915\u0947\u0936"
        }
      },
      {
        "type": "node",
        "id": 1899601536,
        "lat": 18.544444,
        "lon": 73.9111235,
        "tags": {
          "addr:housename": "B3 Cerebrum IT Park",
          "addr:street": "Kalyani Nagar",
          "name": "D mart",
          "shop": "supermarket",
          "source": "Local knowledge"
        }
      },
      {
        "type": "node",
        "id": 2263018409,
        "lat": 18.5490038,
        "lon": 73.9004452,
        "tags": {
          "addr:housename": "Nirvana Complex",
          "addr:postcode": "411006",
          "addr:street": "North Avenue",
          "amenity": "restaurant",
          "cuisine": "international",
          "name": "The Flour Works",
          "website": "https://theflourworks.com/"
        }
      },
      {
        "type": "node",
        "id": 2445378048,
        "lat": 18.5391378,
        "lon": 73.9046835,
        "tags": {
          "amenity": "fast_food",
          "brand": "Burger King",
          "brand:pa": "\u0a2c\u0a30\u0a17\u0a30 \u0a15\u0a3f\u0a70\u0a17",
          "brand:ur": "\u0628\u0631\u06af\u0631 \u06a9\u0646\u06af",
          "brand:wikidata": "Q177054",
          "brand:wikipedia": "en:Burger King",
          "brand:wikipedia:pa": "\u0a2c\u0a30\u0a17\u0a30 \u0a15\u0a3f\u0a70\u0a17",
          "brand:wikipedia:ur": "\u0628\u0631\u06af\u0631 \u06a9\u0646\u06af",
          "cuisine": "burger",
          "name": "Burger King",
          "name:pa": "\u0a2c\u0a30\u0a17\u0a30 \u0a15\u0a3f\u0a70\u0a17",
          "name:ru": "\u0411\u0443\u0440\u0433\u0435\u0440 \u041a\u0438\u043d\u0433",
          "name:ur": "\u0628\u0631\u06af\u0631 \u06a9\u0646\u06af",
          "takeaway": "yes"
        }
      },
      {
        "type": "node",
        "id": 2550695928,
        "lat": 18.5457379,
        "lon": 73.9058142,
        "tags": {
          "amenity": "restaurant",
          "cuisine": "indian",
          "name": "Kalyani Veg",
          "name:mr": "\u0915\u0932\u094d\u092f\u093e\u0923\u0940 \u0935\u094d\u0939\u0947\u091c"
        }
      },
      {
        "type": "node",
        "id": 2550695930,
        "lat": 18.5488016,
        "lon": 73.9054218,
        "tags": {
          "amenity": "restaurant",
          "name": "The Bounty Sizzlers",
          "name:mr": "\u0926 \u092c\u093e\u0909\u0902\u091f\u0940 \u0938\u093f\u091d\u0932\u0930\u094d\u0938"
        }
      },
      {
        "type": "node",
        "id": 3788763375,
        "lat": 18.549017,
        "lon": 73.9063415,
        "tags": {
          "amenity": "restaurant",
          "name": "Classic Rock Coffee Co."
        }
      },
      {
        "type": "node",
        "id": 5237312521,
        "lat": 18.5453435,
        "lon": 73.9062706,
        "tags": {
          "amenity": "restaurant",
          "name:en": "Domino's pizza",
          "name:ko": "\ub3c4\ubbf8\ub178\ud53c\uc790"
        }
      },
      {
        "type": "node",
        "id": 6186406656,
        "lat": 18.546563,
        "lon": 73.9009497,
        "tags": {
          "amenity": "cafe",
          "brand": "Starbucks",
          "brand:wikidata": "Q37158",
          "cuisine": "coffee_shop",
          "name": "Starbucks",
          "name:mr": "\u092a\u093f\u091d\u094d\u091d\u093e \u0939\u091f",
          "official_name": "Starbucks Coffee",
          "takeaway": "yes"
        }
      },
      {
        "type": "node",
        "id": 6186406657,
        "lat": 18.5469018,
        "lon": 73.9011931,
        "tags": {
          "amenity": "bank",
          "brand": "Indian Bank",
          "brand:wikidata": "Q2003789",
          "name": "Indian Bank",
          "name:mr": "\u0907\u0902\u0921\u093f\u092f\u0928 \u092c\u0901\u0915",
          "operator": "Indian Bank"
        }
      },
      {
        "type": "node",
        "id": 6186406658,
        "lat": 18.5464892,
        "lon": 73.9014338,
        "tags": {
          "amenity": "bank",
          "brand": "Bank of Baroda",
          "brand:wikidata": "Q2003797",
          "name": "Bank of Baroda",
          "name:mr": "\u092c\u0901\u0915 \u0911\u092b \u092c\u0921\u094b\u0926\u093e",
          "operator": "Bank of Baroda"
        }
      },
      {
        "type": "node",
        "id": 6186406665,
        "lat": 18.5460372,
        "lon": 73.9041247,
        "tags": {
          "amenity": "bank",
          "brand": "HDFC Bank",
          "brand:wikidata": "Q631047",
          "name": "HDFC Bank",
          "name:mr": "\u090f\u091a\u0921\u0940\u090f\u092b\u0938\u0940 \u092c\u0901\u0915",
          "operator": "HDFC Bank",
          "short_name": "HDFC"
        }
      },
      {
        "type": "node",
        "id": 6186406666,
        "lat": 18.5460101,
        "lon": 73.9041911,
        "tags": {
          "amenity": "restaurant",
          "name": "Mineority",
          "name:mr": "\u092e\u093e\u0908\u0928\u094b\u0930\u093f\u091f\u0940"
        }
      },
      {
        "type": "node",
        "id": 6186406667,
        "lat": 18.5459699,
        "lon": 73.9064354,
        "tags": {
          "amenity": "restaurant",
          "name": "Cream Craver",
          "name:mr": "\u0915\u094d\u0930\u0940\u092e \u0915\u094d\u0930\u0947\u0935\u094d\u0939\u0930"
        }
      },
      {
        "type": "node",
        "id": 6186406669,
        "lat": 18.5460379,
        "lon": 73.9063865,
        "tags": {
          "amenity": "atm",
          "brand": "Kotak Mahindra Bank",
          "brand:wikidata": "Q2040404",
          "check_date": "2022-09-11",
          "name": "Kotak Mahindra Bank",
          "name:mr": "\u0915\u094b\u091f\u0915 \u092e\u0939\u093f\u0902\u0926\u094d\u0930\u093e \u092c\u0901\u0915",
          "operator": "Kotak Mahindra Bank",
          "operator:wikidata": "Q2040404"
        }
      },
      {
        "type": "node",
        "id": 6186406673,
        "lat": 18.544769,
        "lon": 73.9115444,
        "tags": {
          "amenity": "bank",
          "brand": "Bandhan Bank",
          "brand:wikidata": "Q19882235",
          "name": "Bandhan Bank",
          "name:mr": "\u092c\u0902\u0927\u0928 \u092c\u0901\u0915",
          "operator": "Bandhan Bank"
        }
      },
      {
        "type": "node",
        "id": 6186406675,
        "lat": 18.5450945,
        "lon": 73.9098519,
        "tags": {
          "amenity": "bank",
          "brand": "State Bank of India",
          "brand:wikidata": "Q1340361",
          "name": "State Bank of India",
          "name:mr": "\u092d\u093e\u0930\u0924\u0940\u092f \u0938\u094d\u091f\u0947\u091f \u092c\u0901\u0915",
          "operator": "State Bank of India",
          "short_name": "SBI"
        }
      },
      {
        "type": "node",
        "id": 6186406676,
        "lat": 18.5450716,
        "lon": 73.9099538,
        "tags": {
          "amenity": "atm",
          "brand": "State Bank of India",
          "brand:wikidata": "Q1340361",
          "check_date": "2021-06-18",
          "name": "State Bank of India",
          "name:mr": "\u092d\u093e\u0930\u0924\u0940\u092f \u0938\u094d\u091f\u0947\u091f \u092c\u0901\u0915",
          "operator": "State Bank of India",
          "operator:wikidata": "Q1340361",
          "short_name": "SBI"
        }
      },
      {
        "type": "node",
        "id": 6186406677,
        "lat": 18.5449838,
        "lon": 73.9057971,
        "tags": {
          "amenity": "bank",
          "brand": "IndusInd Bank",
          "brand:wikidata": "Q2040323",
          "name": "IndusInd Bank",
          "name:mr": "\u0907\u0902\u0921\u0938\u0907\u0902\u0921 \u092c\u0901\u0915",
          "operator": "IndusInd Bank"
        }
      },
      {
        "type": "node",
        "id": 6186406678,
        "lat": 18.5450449,
        "lon": 73.9058132,
        "tags": {
          "amenity": "atm",
          "brand": "IndusInd Bank",
          "brand:wikidata": "Q2040323",
          "name": "IndusInd Bank",
          "name:mr": "\u0907\u0902\u0921\u0938\u0907\u0902\u0921 \u092c\u0901\u0915",
          "opening_hours": "24/7",
          "operator": "IndusInd Bank",
          "operator:wikidata": "Q2040323"
        }
      },
      {
        "type": "node",
        "id": 6186406680,
        "lat": 18.5436606,
        "lon": 73.9050465,
        "tags": {
          "amenity": "restaurant",
          "name": "Farzi Caf\u00e9",
          "name:mr": "\u092b\u0930\u094d\u091c\u0940 \u0915\u0945\u092b\u0947"
        }
      },
      {
        "type": "node",
        "id": 6226505409,
        "lat": 18.5488623,
        "lon": 73.9022208,
        "tags": {
          "addr:city": "Pune",
          "addr:housenumber": "Lane 13",
          "addr:postcode": "411014",
          "addr:street": "Opposite Joggers Park Entrance, Kalyani Nagar",
          "amenity": "restaurant",
          "name": "Cafe Pondi"
        }
      },
      {
        "type": "node",
        "id": 7021208122,
        "lat": 18.5465045,
        "lon": 73.9013733,
        "tags": {
          "amenity": "bank",
          "name": "Vijaya Bank"
        }
      },
      {
        "type": "node",
        "id": 8266348690,
        "lat": 18.5527073,
        "lon": 73.9151093,
        "tags": {
          "addr:city": "Pune",
          "addr:full": "Shop # F3, First Floor, F-Residences, Commercial Complex, Beside Bramha Suncity, Vadgaonsheri, New Kalyani Nagar,Pune-411014",
          "addr:postcode": "411014",
          "amenity": "clinic",
          "healthcare": "clinic",
          "healthcare:speciality": "endocrinology",
          "name": "Prime Care Clinic & Diagnostics",
          "website": "https://www.primecareclinicdiagnostics.com/"
        }
      },
      {
        "type": "node",
        "id": 8273627424,
        "lat": 18.5484717,
        "lon": 73.9062288,
        "tags": {
          "addr:city": "Pune",
          "addr:housenumber": "First floor",
          "addr:postcode": "411014",
          "addr:street": "Chinar Building, Silver Oak Society, kalyani nagar",
          "amenity": "clinic",
          "healthcare": "clinic",
          "healthcare:speciality": "Dentistry;Dental_Implantation_and_Cosmetic_Dentistry",
          "name": "THE SPECIALITY DENTAL CLINIC",
          "website": "https://www.specialitydentalcarepune.com/speciality-dental-clinic-pune"
        }
      },
      {
        "type": "node",
        "id": 9410145905,
        "lat": 18.5539234,
        "lon": 73.9039502,
        "tags": {
          "access": "employees",
          "amenity": "cafe",
          "brand": "Barista",
          "brand:wikidata": "Q644735",
          "brand:wikipedia": "en:Barista (company)",
          "check_date": "2023-12-18",
          "cuisine": "coffee_shop",
          "name": "Barista",
          "opening_hours": "Mo-Fr 09:00-18:00",
          "outdoor_seating": "no",
          "takeaway": "yes"
        }
      },
      {
        "type": "node",
        "id": 9847434087,
        "lat": 18.5471326,
        "lon": 73.9006668,
        "tags": {
          "addr:postcode": "411006",
          "addr:street": "Central Avenue",
          "amenity": "restaurant",
          "name": "Elephant & Co."
        }
      },
      {
        "type": "node",
        "id": 10704240214,
        "lat": 18.549033,
        "lon": 73.9172589,
        "tags": {
          "addr:city": "pune",
          "addr:housenumber": "F-23, First Floor",
          "addr:postcode": "411014",
          "addr:street": "F-Plaza, Next to Brahma Sun City, New Kalyani Nagar, Wadgaonsheri",
          "amenity": "clinic",
          "healthcare": "clinic",
          "healthcare:speciality": "gynaecology",
          "name": "THE GYNAE CLINIC",
          "operator": "Novosalus",
          "operator:type": "private"
        }
      },
      {
        "type": "node",
        "id": 12246275637,
        "lat": 18.5391273,
        "lon": 73.9079052,
        "tags": {
          "name": "The Kopa",
          "shop": "mall",
          "website": "https://kopapune.com/"
        }
      },
      {
        "type": "node",
        "id": 12246293675,
        "lat": 18.5393387,
        "lon": 73.9078762,
        "tags": {
          "amenity": "restaurant",
          "level": "2",
          "name": "Kyma"
        }
      },
      {
        "type": "node",
        "id": 12533783065,
        "lat": 18.5502821,
        "lon": 73.9029182,
        "tags": {
          "addr:city": "Pune",
          "addr:district": "Pune",
          "addr:housenumber": "Kalyani nagar",
          "addr:postcode": "411006",
          "addr:street": "North Avenue",
          "leisure": "park",
          "name": "Kalyani nagar joggers park",
          "opening_hours": "Mo-Su 06:00-11:00,16:00-20:00"
        }
      }
    ]
  },
  "pois_2_5km": {
    "version": 0.6,
    "generator": "Overpass API 0.7.62.8 e802775f",
    "osm3s": {
      "timestamp_osm_base": "2025-09-07T11:21:26Z",
      "copyright": "The data included in this document is from www.openstreetmap.org. The data is made available under ODbL."
    },
    "elements": [
      {
        "type": "node",
        "id": 11690681124,
        "lat": 18.5469569,
        "lon": 73.9294557,
        "tags": {
          "amenity": "cinema",
          "name": "Bollywood",
          "name:mr": "\u092c\u0949\u0932\u093f\u0935\u0942\u0921"
        }
      },
      {
        "type": "node",
        "id": 11699340494,
        "lat": 18.5571164,
        "lon": 73.9085719,
        "tags": {
          "layer": "2",
          "name": "Ramwadi",
          "name:mr": "\u0930\u093e\u092e\u0935\u093e\u0921\u0940",
          "operator": "MahaMetro",
          "public_transport": "stop_position",
          "railway": "stop",
          "subway": "yes"
        }
      },
      {
        "type": "node",
        "id": 11699340650,
        "lat": 18.5453203,
        "lon": 73.8866176,
        "tags": {
          "layer": "2",
          "name": "Yerwada",
          "name:hi": "\u092f\u0947\u0930\u0935\u0921\u093e",
          "name:mr": "\u092f\u0947\u0930\u0935\u0921\u093e",
          "operator": "MahaMetro",
          "public_transport": "stop_position",
          "railway": "stop",
          "subway": "yes"
        }
      },
      {
        "type": "node",
        "id": 11699340651,
        "lat": 18.5452822,
        "lon": 73.8866239,
        "tags": {
          "layer": "2",
          "name": "Yerwada",
          "name:hi": "\u092f\u0947\u0930\u0935\u0921\u093e",
          "name:mr": "\u092f\u0947\u0930\u0935\u0921\u093e",
          "operator": "MahaMetro",
          "public_transport": "stop_position",
          "railway": "stop",
          "subway": "yes"
        }
      },
      {
        "type": "node",
        "id": 11699340652,
        "lat": 18.5453173,
        "lon": 73.8866882,
        "tags": {
          "name": "Yerwada",
          "name:hi": "\u092f\u0947\u0930\u0935\u0921\u093e",
          "name:mr": "\u092f\u0947\u0930\u0935\u0921\u093e",
          "network": "Pune Metro",
          "network:wikidata": "Q3595697",
          "public_transport": "station",
          "railway": "station",
          "station": "subway",
          "subway": "yes",
          "wikipedia": "en:Yerwada metro station"
        }
      },
      {
        "type": "node",
        "id": 11699340653,
        "lat": 18.5444651,
        "lon": 73.9056677,
        "tags": {
          "layer": "2",
          "name": "Kalyani Nagar",
          "name:mr": "\u0915\u0932\u094d\u092f\u093e\u0923\u0940 \u0928\u0917\u0930",
          "operator": "MahaMetro",
          "public_transport": "stop_position",
          "railway": "stop",
          "subway": "yes"
        }
      },
      {
        "type": "node",
        "id": 11699340654,
        "lat": 18.5444493,
        "lon": 73.9057122,
        "tags": {
          "layer": "2",
          "name": "Kalyani Nagar",
          "name:mr": "\u0915\u0932\u094d\u092f\u093e\u0923\u0940 \u0928\u0917\u0930",
          "operator": "MahaMetro",
          "public_transport": "stop_position",
          "railway": "stop",
          "subway": "yes"
        }
      },
      {
        "type": "node",
        "id": 11699340655,
        "lat": 18.5444806,
        "lon": 73.9056979,
        "tags": {
          "name": "Kalyani Nagar",
          "name:mr": "\u0915\u0932\u094d\u092f\u093e\u0923\u0940 \u0928\u0917\u0930",
          "network": "Pune Metro",
          "network:wikidata": "Q3595697",
          "public_transport": "station",
          "railway": "station",
          "station": "subway",
          "subway": "yes",
          "wikipedia": "en:Kalyani Nagar metro station"
        }
      },
      {
        "type": "node",
        "id": 11699340656,
        "lat": 18.5570831,
        "lon": 73.9085916,
        "tags": {
          "layer": "2",
          "name": "Ramwadi",
          "name:mr": "\u0930\u093e\u092e\u0935\u093e\u0921\u0940",
          "operator": "MahaMetro",
          "public_transport": "stop_position",
          "railway": "stop",
          "subway": "yes"
        }
      },
      {
        "type": "node",
        "id": 11699340657,
        "lat": 18.5571183,
        "lon": 73.9086071,
        "tags": {
          "name": "Ramwadi",
          "name:mr": "\u0930\u093e\u092e\u0935\u093e\u0921\u0940",
          "network": "Pune Metro",
          "network:wikidata": "Q3595697",
          "public_transport": "station",
          "railway": "station",
          "station": "subway",
          "subway": "yes",
          "wikipedia": "en:Ramwadi metro station"
        }
      },
      {
        "type": "node",
        "id": 12863629710,
        "lat": 18.5795095,
        "lon": 73.9099537,
        "tags": {
          "aeroway": "terminal"
        }
      }
    ]
  }
}