{
  "pois_1km": {
    "version": 0.6,
    "generator": "Overpass API 0.7.62.8 e802775f",
    "osm3s": {
      "timestamp_osm_base": "2025-09-07T11:26:30Z",
      "copyright": "The data included in this document is from www.openstreetmap.org. The data is made available under ODbL."
    },
    "elements": [
      {
        "type": "node",
        "id": 4485079885,
        "lat": 18.5905147,
        "lon": 73.747098,
        "tags": {
          "amenity": "atm",
          "brand": "ICICI Bank",
          "brand:wikidata": "Q1653258",
          "currency:INR": "yes",
          "name": "ICICI Bank",
          "operator": "ICICI Bank",
          "operator:wikidata": "Q1653258",
          "short_name": "ICICI"
        }
      },
      {
        "type": "node",
        "id": 4485080991,
        "lat": 18.5904458,
        "lon": 73.7481756,
        "tags": {
          "amenity": "atm",
          "brand": "State Bank of India",
          "brand:wikidata": "Q1340361",
          "currency:INR": "yes",
          "name": "State Bank of India",
          "operator": "State Bank of India",
          "operator:wikidata": "Q1340361",
          "short_name": "SBI"
        }
      },
      {
        "type": "node",
        "id": 4485086052,
        "lat": 18.5914858,
        "lon": 73.7443951,
        "tags": {
          "brand": "DMart",
          "brand:wikidata": "Q5203271",
          "name": "DMart",
          "name:mr": "\u0921\u0940 \u092e\u093e\u0930\u094d\u091f",
          "opening_hours": "Mo-Su 10:00-22:00",
          "phone": "+91 99281 39489",
          "shop": "supermarket"
        }
      },
      {
        "type": "node",
        "id": 5518862577,
        "lat": 18.5920781,
        "lon": 73.7447483,
        "tags": {
          "name": "Big Bazaar",
          "shop": "mall"
        }
      },
      {
        "type": "node",
        "id": 5784322705,
        "lat": 18.590217,
        "lon": 73.7481242,
        "tags": {
          "amenity": "restaurant",
          "name": "Marine Drive"
        }
      },
      {
        "type": "node",
        "id": 5784324238,
        "lat": 18.5901739,
        "lon": 73.7481642,
        "tags": {
          "amenity": "fast_food",
          "brand": "Domino's",
          "brand:wikidata": "Q839466",
          "cuisine": "pizza",
          "name": "Domino's",
          "takeaway": "yes"
        }
      },
      {
        "type": "node",
        "id": 5784329121,
        "lat": 18.5911713,
        "lon": 73.7485116,
        "tags": {
          "amenity": "restaurant",
          "name": "Aarya Family Garden"
        }
      },
      {
        "type": "node",
        "id": 5807261098,
        "lat": 18.5922097,
        "lon": 73.7447673,
        "tags": {
          "amenity": "restaurant",
          "name": "Jonky",
          "name:mr": "\u091c\u0949\u0902\u0915\u0940"
        }
      },
      {
        "type": "node",
        "id": 5969145629,
        "lat": 18.591359,
        "lon": 73.7396326,
        "tags": {
          "amenity": "atm",
          "brand": "Kotak Mahindra Bank",
          "brand:wikidata": "Q2040404",
          "name": "Kotak Mahindra Bank",
          "operator": "Kotak Mahindra Bank",
          "operator:wikidata": "Q2040404"
        }
      },
      {
        "type": "node",
        "id": 5969148390,
        "lat": 18.5907185,
        "lon": 73.7419477,
        "tags": {
          "amenity": "bank",
          "brand": "Punjab National Bank",
          "brand:wikidata": "Q2743499",
          "name": "Punjab National Bank"
        }
      },
      {
        "type": "node",
        "id": 5969154918,
        "lat": 18.5904753,
        "lon": 73.7501506,
        "tags": {
          "amenity": "restaurant",
          "name": "Madhuban Restaurant",
          "name:mr": "\u092e\u0927\u0941\u092c\u0928"
        }
      },
      {
        "type": "node",
        "id": 6010154672,
        "lat": 18.5911165,
        "lon": 73.7413549,
        "tags": {
          "amenity": "atm",
          "name": "Yes Bank ATM"
        }
      },
      {
        "type": "node",
        "id": 6010173412,
        "lat": 18.5912497,
        "lon": 73.7489627,
        "tags": {
          "amenity": "atm",
          "name": "State Bank ATM"
        }
      },
      {
        "type": "node",
        "id": 6359614500,
        "lat": 18.5944344,
        "lon": 73.7398514,
        "tags": {
          "amenity": "atm",
          "brand": "HDFC Bank",
          "brand:wikidata": "Q631047",
          "currency:INR": "yes",
          "drive_through": "no",
          "level": "1",
          "name": "HDFC Bank ATM",
          "operator": "HDFC Bank",
          "operator:wikidata": "Q631047",
          "short_name": "HDFC",
          "wheelchair": "no"
        }
      },
      {
        "type": "node",
        "id": 6501795501,
        "lat": 18.5935946,
        "lon": 73.7571543,
        "tags": {
          "amenity": "restaurant",
          "cuisine": "pizza",
          "name": "Big Bang Pizza"
        }
      },
      {
        "type": "node",
        "id": 6501795502,
        "lat": 18.5939124,
        "lon": 73.7570927,
        "tags": {
          "amenity": "restaurant",
          "name": "Pattal"
        }
      },
      {
        "type": "node",
        "id": 6501795503,
        "lat": 18.5930786,
        "lon": 73.7571597,
        "tags": {
          "amenity": "cafe",
          "name": "Kunal Tea and Snacks"
        }
      },
      {
        "type": "node",
        "id": 6501795504,
        "lat": 18.5928955,
        "lon": 73.7571838,
        "tags": {
          "amenity": "restaurant",
          "name": "Eat Zip"
        }
      },
      {
        "type": "node",
        "id": 6501795507,
        "lat": 18.5923032,
        "lon": 73.7573904,
        "tags": {
          "amenity": "restaurant",
          "name": "Hotel Vaishnavi"
        }
      },
      {
        "type": "node",
        "id": 7649461785,
        "lat": 18.5914168,
        "lon": 73.7395295,
        "tags": {
          "addr:city": "Pune",
          "addr:district": "Pune",
          "addr:full": "Hinjewadi Road, Shivaji Chowk, Above IDBI Bank, Phase-I, Hinjawadi, Pune",
          "addr:postcode": "411057",
          "addr:state": "Maharastra",
          "addr:street": "Hinjawadi Road",
          "amenity": "hospital",
          "healthcare": "hospital",
          "healthcare:speciality": "general",
          "name": "Sanjeevani Hospital",
          "operator": "hospital",
          "operator:type": "public",
          "source": "Local Knowledge"
        }
      },
      {
        "type": "node",
        "id": 8266842313,
        "lat": 18.5918325,
        "lon": 73.7391917,
        "tags": {
          "addr:city": "Pune",
          "addr:housenumber": "HPRQ+MMJ, Shivaji Chowk Opp Police Chowki, Hinjawadi, Pune, Maharashtra 57",
          "addr:postcode": "411057",
          "addr:street": "Dange Chowk Road",
          "amenity": "clinic",
          "healthcare": "clinic",
          "healthcare:speciality": "CONSULTANT_DENTAL_SURGEON",
          "name": "Happy Dent",
          "website": "https://www.happydentclinic.in/"
        }
      },
      {
        "type": "node",
        "id": 8273662071,
        "lat": 18.5908381,
        "lon": 73.7529005,
        "tags": {
          "addr:city": "Pune",
          "addr:housenumber": "107-109",
          "addr:postcode": "411027",
          "addr:street": "First Floor, White Square, Hinjawadi - Wakad Rd, Hinjewadi",
          "amenity": "clinic",
          "healthcare": "clinic",
          "healthcare:speciality": "orthopaedics",
          "name": "Medinova Clinics",
          "website": "https://www.medinovaclinics.in/"
        }
      },
      {
        "type": "node",
        "id": 10059081542,
        "lat": 18.5908419,
        "lon": 73.7530731,
        "tags": {
          "amenity": "restaurant",
          "check_date": "2022-09-28",
          "cuisine": "barbecue",
          "name": "AB's - Absolute Barbecues",
          "name:en": "AB's - Absolute Barbecues",
          "name:mr": "\u0972\u092c\u0938\u094b\u0932\u094d\u092f\u0942\u091f\u094d \u092c\u093e\u0930\u094d\u092c\u0947\u0915\u094d\u092f\u0942"
        }
      },
      {
        "type": "node",
        "id": 10059081543,
        "lat": 18.590993,
        "lon": 73.7529479,
        "tags": {
          "amenity": "atm",
          "check_date": "2022-09-28",
          "operator": "Kotak"
        }
      },
      {
        "type": "node",
        "id": 10059081544,
        "lat": 18.5909503,
        "lon": 73.7528108,
        "tags": {
          "amenity": "fast_food",
          "brand": "Venky\u2019s",
          "brand:hi": "\u0915\u0947\u090f\u092b\u0938\u0940",
          "check_date": "2022-09-28",
          "cuisine": "chicken",
          "name": "Venky\u2019s xprs",
          "name:en": "Venky\u2019s xprs",
          "name:mr": "\u0935\u0947\u0902\u0915\u0940\u091c\u094d \u090f\u0915\u094d\u0938\u092a\u094d\u0930\u0947\u0938",
          "takeaway": "yes"
        }
      },
      {
        "type": "node",
        "id": 10159011474,
        "lat": 18.5909269,
        "lon": 73.7477097,
        "tags": {
          "amenity": "cafe",
          "name": "Tea Pea cafe"
        }
      },
      {
        "type": "node",
        "id": 10159016972,
        "lat": 18.5909457,
        "lon": 73.7478906,
        "tags": {
          "alt_name": "Kentucky Fried Chicken",
          "alt_name:en": "Kentucky Fried Chicken",
          "alt_name:hi": "\u0915\u0947\u0902\u091f\u0941\u0915\u0940 \u092b\u094d\u0930\u093e\u0907\u0921 \u091a\u093f\u0915\u0928",
          "alt_name:pa": "\u0a15\u0a48\u0a02\u0a1f\u0a41\u0a15\u0a40 \u0a2b\u0a4d\u0a30\u0a3e\u0a08\u0a21 \u0a1a\u0a3f\u0a15\u0a28",
          "alt_name:pnb": "\u06a9\u06cc\u0646\u0679\u06a9\u06cc \u0641\u0631\u0627\u0626\u06cc\u0688 \u0686\u06a9\u0646",
          "alt_name:ur": "\u06a9\u06cc\u0646\u0679\u06a9\u06cc \u0641\u0631\u0627\u0626\u06cc\u0688 \u0686\u06a9\u0646",
          "amenity": "fast_food",
          "brand": "KFC",
          "brand:en": "KFC",
          "brand:hi": "\u0915\u0947\u090f\u092b\u0938\u0940",
          "brand:pa": "\u0a15\u0a47\u0a10\u0a2b\u0a38\u0a40",
          "brand:pnb": "\u06a9\u06d2 \u0627\u06cc\u0641 \u0633\u06cc",
          "brand:ur": "\u06a9\u06d2 \u0627\u06cc\u0641 \u0633\u06cc",
          "brand:wikidata": "Q524757",
          "cuisine": "chicken",
          "name": "KFC",
          "name:en": "KFC",
          "name:hi": "\u0915\u0947\u090f\u092b\u0938\u0940",
          "name:pa": "\u0a15\u0a47\u0a10\u0a2b\u0a38\u0a40",
          "name:pnb": "\u06a9\u06d2 \u0627\u06cc\u0641 \u0633\u06cc",
          "name:ur": "\u06a9\u06d2 \u0627\u06cc\u0641 \u0633\u06cc",
          "takeaway": "yes"
        }
      },
      {
        "type": "node",
        "id": 10574932247,
        "lat": 18.5882878,
        "lon": 73.7416428,
        "tags": {
          "amenity": "atm",
          "brand": "ICICI Bank",
          "brand:wikidata": "Q1653258",
          "name": "ICICI Bank",
          "operator": "ICICI Bank",
          "operator:wikidata": "Q1653258",
          "short_name": "ICICI"
        }
      },
      {
        "type": "node",
        "id": 10574932248,
        "lat": 18.5910505,
        "lon": 73.7394865,
        "tags": {
          "amenity": "bank",
          "name": "PMC Bank"
        }
      },
      {
        "type": "node",
        "id": 10574937390,
        "lat": 18.5909885,
        "lon": 73.7392063,
        "tags": {
          "amenity": "bank",
          "brand": "Canara Bank",
          "brand:en": "Canara Bank",
          "brand:hi": "\u0915\u0947\u0928\u0930\u093e \u092c\u0948\u0902\u0915",
          "brand:kn": "\u0c95\u0cc6\u0ca8\u0cb0\u0cbe \u0cac\u0ccd\u0caf\u0cbe\u0c82\u0c95\u0ccd",
          "brand:pa": "\u0a15\u0a47\u0a28\u0a30\u0a3e \u0a2c\u0a48\u0a02\u0a15",
          "brand:pnb": "\u06a9\u06cc\u0646\u0631\u0627 \u0628\u06cc\u0646\u06a9",
          "brand:ur": "\u06a9\u06cc\u0646\u0631\u0627 \u0628\u06cc\u0646\u06a9",
          "brand:wikidata": "Q2003777",
          "name": "Canara Bank",
          "name:en": "Canara Bank",
          "name:hi": "\u0915\u0947\u0928\u0930\u093e \u092c\u0948\u0902\u0915",
          "name:kn": "\u0c95\u0cc6\u0ca8\u0cb0\u0cbe \u0cac\u0ccd\u0caf\u0cbe\u0c82\u0c95\u0ccd",
          "name:pa": "\u0a15\u0a47\u0a28\u0a30\u0a3e \u0a2c\u0a48\u0a02\u0a15",
          "name:pnb": "\u06a9\u06cc\u0646\u0631\u0627 \u0628\u06cc\u0646\u06a9",
          "name:ur": "\u06a9\u06cc\u0646\u0631\u0627 \u0628\u06cc\u0646\u06a9"
        }
      },
      {
        "type": "node",
        "id": 10709290552,
        "lat": 18.5917604,
        "lon": 73.7388369,
        "tags": {
          "addr:city": "Hinjawadi",
          "addr:housenumber": "7",
          "addr:postcode": "411057",
          "addr:street": "Dange Chowk Road",
          "amenity": "pharmacy",
          "healthcare": "pharmacy",
          "name": "Shree Swami Samartha Medical",
          "name:en": "Shree Swami Samartha Medical",
          "name:mr": "\u0936\u094d\u0930\u0940 \u0938\u094d\u0935\u093e\u092e\u0940 \u0938\u092e\u0930\u094d\u0925 \u092e\u0947\u0921\u093f\u0915\u0932",
          "opening_hours": "closes 11pm",
          "phone": "09822116003"
        }
      },
      {
        "type": "node",
        "id": 10709336704,
        "lat": 18.5958868,
        "lon": 73.7408138,
        "tags": {
          "addr:city": "hinjewadi,pune",
          "addr:housenumber": "bldg 275/1",
          "addr:postcode": "411057",
          "addr:street": "Times Square bldg Dange Chowk Road,bhatevra nagar",
          "amenity": "hospital",
          "emergency": "yes",
          "healthcare": "hospital",
          "healthcare:speciality": "multispeciality",
          "name": "Shatayu Hospital Hinjewadi",
          "phone": "08390900907",
          "website": "https://www.shatayuhospitals.com/"
        }
      },
      {
        "type": "node",
        "id": 10719628771,
        "lat": 18.5911831,
        "lon": 73.7419477,
        "tags": {
          "amenity": "bank",
          "branch": "Hinjawadi",
          "check_date": "2023-11-23",
          "name": "Central Bank of India",
          "name:en": "Central Bank of India",
          "name:mr": "\u0938\u0947\u0902\u091f\u094d\u0930\u0932 \u092c\u0901\u0915 \u0911\u092b \u0907\u0902\u0921\u093f\u092f\u093e"
        }
      },
      {
        "type": "node",
        "id": 10719641531,
        "lat": 18.5915925,
        "lon": 73.7435469,
        "tags": {
          "amenity": "hospital",
          "healthcare": "hospital",
          "name": "LifeTree Hospital Hinjawadi",
          "name:mr": "\u0932\u093e\u0908\u092b\u091f\u094d\u0930\u0940 \u0930\u0941\u0917\u094d\u0923\u093e\u0932\u092f"
        }
      },
      {
        "type": "node",
        "id": 10719655631,
        "lat": 18.5905681,
        "lon": 73.7456396,
        "tags": {
          "amenity": "restaurant",
          "name": "Local Gastro Bar Hinjawadi"
        }
      },
      {
        "type": "node",
        "id": 10719692405,
        "lat": 18.5904029,
        "lon": 73.7456214,
        "tags": {
          "amenity": "restaurant",
          "check_date": "2023-07-06",
          "cuisine": "bar;indian",
          "name": "Kiro",
          "name:en": "Kiro",
          "name:mr": "\u0915\u0940\u0930\u094b"
        }
      },
      {
        "type": "node",
        "id": 10725560939,
        "lat": 18.5919697,
        "lon": 73.7478542,
        "tags": {
          "amenity": "restaurant",
          "name": "Toastt"
        }
      },
      {
        "type": "node",
        "id": 10725597904,
        "lat": 18.5919522,
        "lon": 73.7480142,
        "tags": {
          "amenity": "restaurant",
          "name": "The Community Table."
        }
      },
      {
        "type": "node",
        "id": 10790276614,
        "lat": 18.5904392,
        "lon": 73.7406887,
        "tags": {
          "addr:city": "Hinjawadi",
          "addr:street": "Sakhare Vasti Road, Hinjewadi village",
          "amenity": "pharmacy",
          "healthcare": "pharmacy",
          "name": "Prime medical and general store",
          "opening_hours": "closes 11:30pm"
        }
      },
      {
        "type": "node",
        "id": 10806725311,
        "lat": 18.5854264,
        "lon": 73.7410426,
        "tags": {
          "addr:city": "Pune",
          "addr:postcode": "411057",
          "addr:street": "Hinjewadi Phase 1",
          "amenity": "restaurant",
          "name": "Magic Bottle Cafe"
        }
      },
      {
        "type": "node",
        "id": 11043697746,
        "lat": 18.590463,
        "lon": 73.748288,
        "tags": {
          "amenity": "cafe",
          "check_date": "2023-07-13",
          "name": "Cafe Peter",
          "name:en": "Cafe Peter",
          "name:mr": "\u0915\u0945\u092b\u0947 \u092a\u0940\u091f\u0930"
        }
      },
      {
        "type": "node",
        "id": 11117332912,
        "lat": 18.5920001,
        "lon": 73.7541044,
        "tags": {
          "amenity": "restaurant",
          "diet:vegetarian": "yes",
          "name": "Radha Krishna Pure Veg Restaurant"
        }
      },
      {
        "type": "node",
        "id": 11117347766,
        "lat": 18.5904741,
        "lon": 73.7482568,
        "tags": {
          "amenity": "fast_food",
          "brand": "Burger King",
          "brand:wikidata": "Q177054",
          "cuisine": "burger",
          "name": "Burger King",
          "takeaway": "yes"
        }
      },
      {
        "type": "node",
        "id": 11120895047,
        "lat": 18.589122,
        "lon": 73.7416318,
        "tags": {
          "amenity": "pharmacy",
          "healthcare": "pharmacy",
          "name": "Vedant Medical"
        }
      },
      {
        "type": "node",
        "id": 11120895048,
        "lat": 18.5894766,
        "lon": 73.7412784,
        "tags": {
          "amenity": "pharmacy",
          "healthcare": "pharmacy",
          "name": "Prashant Medical and General Stores"
        }
      },
      {
        "type": "node",
        "id": 11120895050,
        "lat": 18.5910174,
        "lon": 73.7391628,
        "tags": {
          "amenity": "fast_food",
          "name": "Rohit Wadewale",
          "name:en": "Rohit Wadewale",
          "name:mr": "\u0930\u094b\u0939\u093f\u0924 \u0935\u0921\u0947\u0935\u093e\u0932\u0947"
        }
      },
      {
        "type": "node",
        "id": 11372838144,
        "lat": 18.591125,
        "lon": 73.7419496,
        "tags": {
          "amenity": "pharmacy",
          "brand": "MedPlus",
          "brand:wikidata": "Q65684234",
          "check_date": "2023-11-23",
          "healthcare": "pharmacy",
          "name": "MedPlus",
          "name:mr": "\u092e\u0947\u0921\u092a\u094d\u0932\u0938",
          "wheelchair": "no"
        }
      },
      {
        "type": "node",
        "id": 12135341239,
        "lat": 18.5918291,
        "lon": 73.7388491,
        "tags": {
          "amenity": "pharmacy",
          "healthcare": "pharmacy",
          "name": "Prakash Medico",
          "name:en": "Prakash Medico"
        }
      }
    ]
  },
  "pois_2_5km": {
    "version": 0.6,
    "generator": "Overpass API 0.7.62.8 e802775f",
    "osm3s": {
      "timestamp_osm_base": "2025-09-07T11:26:30Z",
      "copyright": "The data included in this document is from www.openstreetmap.org. The data is made available under ODbL."
    },
    "elements": [
      {
        "type": "node",
        "id": 1624128500,
        "lat": 18.5939372,
        "lon": 73.7355357,
        "tags": {
          "amenity": "fuel",
          "brand": "Hindustan Petroleum",
          "brand:wikidata": "Q1619375",
          "brand:wikipedia": "en:Hindustan Petroleum",
          "name": "Hindustan Petroleum (HP)",
          "official_name": "Hindustan Petroleum",
          "operator": "Hindustan Petroleum",
          "wikipedia:en": "Hindustan Petroleum"
        }
      },
      {
        "type": "node",
        "id": 1684953195,
        "lat": 18.5920603,
        "lon": 73.7611058,
        "tags": {
          "amenity": "fuel",
          "brand": "Indian Oil",
          "brand:wikidata": "Q1289348",
          "brand:wikipedia": "en:Indian Oil Corporation",
          "fuel:diesel": "yes"
        }
      },
      {
        "type": "node",
        "id": 5518862552,
        "lat": 18.5920739,
        "lon": 73.7446669,
        "tags": {
          "amenity": "cinema",
          "name": "E-Square Xion"
        }
      },
      {
        "type": "node",
        "id": 5784328171,
        "lat": 18.5911995,
        "lon": 73.7489037,
        "tags": {
          "amenity": "fuel",
          "brand": "Indian Oil Petrol Pump",
          "brand:wikidata": "Q1289348",
          "brand:wikipedia": "en:Indian Oil Corporation",
          "name": "Indian Oil Petrol Pump"
        }
      },
      {
        "type": "node",
        "id": 7944597702,
        "lat": 18.5905891,
        "lon": 73.7575185,
        "tags": {
          "construction": "subway",
          "name": "Wakad Chowk\u00a0metro Station",
          "name:en": "Wakad Chowk\u00a0metro Station",
          "name:mr": "\u0935\u093e\u0915\u0921 \u091a\u094c\u0915 \u092e\u0947\u091f\u094d\u0930\u094b \u0938\u094d\u0925\u093e\u0928\u0915",
          "public_transport": "station",
          "railway": "station"
        }
      },
      {
        "type": "node",
        "id": 10271171705,
        "lat": 18.5938587,
        "lon": 73.7257399,
        "tags": {
          "addr:floor": "3",
          "amenity": "cinema",
          "brand": "PVR Cinemas",
          "brand:wikidata": "Q3359908",
          "check_date": "2022-12-18",
          "level": "3",
          "name": "PVR Cinemas",
          "name:en": "PVR Cinemas",
          "name:mr": "PVR \u0938\u093f\u0928\u0947\u092e\u093e",
          "short_name": "PVR"
        }
      },
      {
        "type": "node",
        "id": 10290789663,
        "lat": 18.5788787,
        "lon": 73.7624887,
        "tags": {
          "amenity": "charging_station",
          "brand": "Go Ego"
        }
      },
      {
        "type": "node",
        "id": 10708702902,
        "lat": 18.594327,
        "lon": 73.7294091,
        "tags": {
          "addr:city": "Pune",
          "addr:postcode": "411057",
          "addr:street": "Hinjawadi Phase 2 Road,phase 1",
          "amenity": "fuel",
          "brand": "MNG",
          "fuel:cng": "yes",
          "name": "Maharashtra Natural Gas Ltd CNg station"
        }
      },
      {
        "type": "node",
        "id": 10719666344,
        "lat": 18.591205,
        "lon": 73.7488195,
        "tags": {
          "amenity": "fuel",
          "brand": "Indian Oil",
          "brand:wikidata": "Q1289348",
          "name": "Indian Oil Petrol Pump"
        }
      },
      {
        "type": "node",
        "id": 10725542119,
        "lat": 18.5917027,
        "lon": 73.7561869,
        "tags": {
          "amenity": "fuel",
          "name": "Kaspte Bharat Gas Agency"
        }
      },
      {
        "type": "node",
        "id": 10797010207,
        "lat": 18.5998693,
        "lon": 73.7548665,
        "tags": {
          "amenity": "charging_station",
          "brand": "Tata power",
          "operator": "Tata power",
          "socket:type2": "1"
        }
      },
      {
        "type": "node",
        "id": 10797010208,
        "lat": 18.5995979,
        "lon": 73.7548745,
        "tags": {
          "amenity": "charging_station",
          "brand": "Tata power",
          "operator": "Tata power",
          "socket:type2_combo": "1"
        }
      },
      {
        "type": "node",
        "id": 10870849607,
        "lat": 18.5906635,
        "lon": 73.7457888,
        "tags": {
          "amenity": "charging_station",
          "brand": "GoEgo",
          "fee": "yes"
        }
      },
      {
        "type": "node",
        "id": 11033745938,
        "lat": 18.5897559,
        "lon": 73.7381716,
        "tags": {
          "amenity": "charging_station",
          "brand": "Tata Power",
          "brand:mr": "\u091f\u093e\u091f\u093e \u092a\u093e\u0935\u0930",
          "capacity": "2",
          "covered": "no",
          "fee": "yes",
          "source": "survey"
        }
      },
      {
        "type": "node",
        "id": 12350373268,
        "lat": 18.5857921,
        "lon": 73.734433,
        "tags": {
          "access": "customers",
          "amenity": "charging_station",
          "brand": "EV Dock charging station",
          "fee": "yes",
          "operator": "EV Dock"
        }
      },
      {
        "type": "node",
        "id": 12350440058,
        "lat": 18.5907601,
        "lon": 73.7410354,
        "tags": {
          "access": "customers",
          "amenity": "charging_station",
          "brand": "shell",
          "capacity": "30 kw",
          "fee": "yes",
          "operator": "shell"
        }
      },
      {
        "type": "node",
        "id": 12350467611,
        "lat": 18.5781719,
        "lon": 73.7368921,
        "tags": {
          "access": "customers",
          "amenity": "charging_station",
          "brand": "Bijlify",
          "capacity": "20 kw",
          "fee": "yes",
          "operator": "Bijlify"
        }
      }
    ]
  }
}