{
  "pois_1km": {
    "version": 0.6,
    "generator": "Overpass API 0.7.62.8 e802775f",
    "osm3s": {
      "timestamp_osm_base": "2025-09-07T11:13:15Z",
      "copyright": "The data included in this document is from www.openstreetmap.org. The data is made available under ODbL."
    },
    "elements": [
      {
        "type": "node",
        "id": 283152697,
        "lat": 18.5457237,
        "lon": 73.9062599,
        "tags": {
          "amenity": "fast_food",
          "brand": "McDonald's",
          "brand:pa": "\u0a2e\u0a48\u0a15\u0a21\u0a4b\u0a28\u0a32\u0a21\u2019\u0a1c\u0a3c",
          "brand:ur": "\u0645\u06a9\u0688\u0648\u0646\u0644\u0688\u0632",
          "brand:wikidata": "Q38076",
          "brand:wikipedia": "en:McDonald's",
          "brand:wikipedia:pa": "\u0a2e\u0a48\u0a15\u0a21\u0a4b\u0a28\u0a32\u0a21\u2019\u0a1c\u0a3c",
          "brand:wikipedia:ur": "\u0645\u06a9\u0688\u0648\u0646\u0644\u0688\u0632",
          "cuisine": "burger",
          "name": "McDonald's",
          "name:pa": "\u0a2e\u0a48\u0a15\u0a21\u0a4b\u0a28\u0a32\u0a21\u2019\u0a1c\u0a3c",
          "name:ur": "\u0645\u06a9\u0688\u0648\u0646\u0644\u0688\u0632",
          "takeaway": "yes"
        }
      },
      {
        "type": "node",
        "id": 283166314,
        "lat": 18.5364098,
        "lon": 73.8973015,
        "tags": {
          "amenity": "restaurant",
          "bar": "yes",
          "cuisine": "indian",
          "name": "The Great Punjab",
          "ramp": "yes"
        }
      },
      {
        "type": "node",
        "id": 283166318,
        "lat": 18.5391279,
        "lon": 73.9049627,
        "tags": {
          "amenity": "cafe",
          "name": "Shisha Jazz Cafe"
        }
      },
      {
        "type": "node",
        "id": 511975995,
        "lat": 18.5387955,
        "lon": 73.912781,
        "tags": {
          "amenity": "restaurant",
          "brand": "Hard Rock Cafe",
          "brand:wikidata": "Q918151",
          "cuisine": "american",
          "name": "Hard Rock Cafe"
        }
      },
      {
        "type": "node",
        "id": 511975996,
        "lat": 18.5383533,
        "lon": 73.9126684,
        "tags": {
          "amenity": "restaurant",
          "name": "Stone Water Grill"
        }
      },
      {
        "type": "node",
        "id": 546289209,
        "lat": 18.5459611,
        "lon": 73.9045987,
        "tags": {
          "name": "Megamart Shop",
          "shop": "supermarket"
        }
      },
      {
        "type": "node",
        "id": 622955570,
        "lat": 18.5391023,
        "lon": 73.9061842,
        "tags": {
          "amenity": "restaurant",
          "name": "Seasonal Tastes"
        }
      },
      {
        "type": "node",
        "id": 663592103,
        "lat": 18.5387882,
        "lon": 73.9052035,
        "tags": {
          "amenity": "cafe",
          "name": "Aroma's"
        }
      },
      {
        "type": "node",
        "id": 679044949,
        "lat": 18.5393141,
        "lon": 73.9061183,
        "tags": {
          "amenity": "restaurant",
          "name": "Prego"
        }
      },
      {
        "type": "node",
        "id": 679044987,
        "lat": 18.5399703,
        "lon": 73.9061077,
        "tags": {
          "amenity": "restaurant",
          "name": "Kangan"
        }
      },
      {
        "type": "node",
        "id": 831253313,
        "lat": 18.5452508,
        "lon": 73.9063531,
        "tags": {
          "amenity": "restaurant",
          "name": "Rajdhani"
        }
      },
      {
        "type": "node",
        "id": 1609994720,
        "lat": 18.5464794,
        "lon": 73.9065617,
        "tags": {
          "amenity": "restaurant",
          "cuisine": "indian",
          "name": "Tiger Trail"
        }
      },
      {
        "type": "node",
        "id": 1768859199,
        "lat": 18.5381475,
        "lon": 73.9068979,
        "tags": {
          "amenity": "cafe",
          "name": "Pesto Pesto",
          "opening_hours": "Mo-Su 09:00-23:00"
        }
      },
      {
        "type": "node",
        "id": 1796901377,
        "lat": 18.5374326,
        "lon": 73.8973367,
        "tags": {
          "amenity": "restaurant",
          "bar": "yes",
          "cuisine": "thai;asian",
          "name": "Malaka Spice",
          "ramp": "yes"
        }
      },
      {
        "type": "node",
        "id": 1899601536,
        "lat": 18.544444,
        "lon": 73.9111235,
        "tags": {
          "addr:housename": "B3 Cerebrum IT Park",
          "addr:street": "Kalyani Nagar",
          "name": "D mart",
          "shop": "supermarket",
          "source": "Local knowledge"
        }
      },
      {
        "type": "node",
        "id": 2445378048,
        "lat": 18.5391378,
        "lon": 73.9046835,
        "tags": {
          "amenity": "fast_food",
          "brand": "Burger King",
          "brand:pa": "\u0a2c\u0a30\u0a17\u0a30 \u0a15\u0a3f\u0a70\u0a17",
          "brand:ur": "\u0628\u0631\u06af\u0631 \u06a9\u0646\u06af",
          "brand:wikidata": "Q177054",
          "brand:wikipedia": "en:Burger King",
          "brand:wikipedia:pa": "\u0a2c\u0a30\u0a17\u0a30 \u0a15\u0a3f\u0a70\u0a17",
          "brand:wikipedia:ur": "\u0628\u0631\u06af\u0631 \u06a9\u0646\u06af",
          "cuisine": "burger",
          "name": "Burger King",
          "name:pa": "\u0a2c\u0a30\u0a17\u0a30 \u0a15\u0a3f\u0a70\u0a17",
          "name:ru": "\u0411\u0443\u0440\u0433\u0435\u0440 \u041a\u0438\u043d\u0433",
          "name:ur": "\u0628\u0631\u06af\u0631 \u06a9\u0646\u06af",
          "takeaway": "yes"
        }
      },
      {
        "type": "node",
        "id": 2550695928,
        "lat": 18.5457379,
        "lon": 73.9058142,
        "tags": {
          "amenity": "restaurant",
          "cuisine": "indian",
          "name": "Kalyani Veg",
          "name:mr": "\u0915\u0932\u094d\u092f\u093e\u0923\u0940 \u0935\u094d\u0939\u0947\u091c"
        }
      },
      {
        "type": "node",
        "id": 2955707706,
        "lat": 18.5346916,
        "lon": 73.9120424,
        "tags": {
          "amenity": "restaurant",
          "name": "Chillies"
        }
      },
      {
        "type": "node",
        "id": 3642844984,
        "lat": 18.5363996,
        "lon": 73.8986483,
        "tags": {
          "amenity": "bank",
          "brand": "Bank of India",
          "brand:wikidata": "Q2004439",
          "brand:wikipedia": "en:Bank of India",
          "name": "Bank of India",
          "name:en": "Bank of India",
          "short_name": "BoI",
          "website": "https://www.bankofindia.co.in/"
        }
      },
      {
        "type": "node",
        "id": 3642844986,
        "lat": 18.536566,
        "lon": 73.8991446,
        "tags": {
          "amenity": "restaurant",
          "cuisine": "american;burger;chicken",
          "name": "Mad House Grill"
        }
      },
      {
        "type": "node",
        "id": 3937245716,
        "lat": 18.5377222,
        "lon": 73.8989649,
        "tags": {
          "amenity": "restaurant",
          "cuisine": "pizza",
          "name": "Mia Cuccina"
        }
      },
      {
        "type": "node",
        "id": 4354672913,
        "lat": 18.536754,
        "lon": 73.8974099,
        "tags": {
          "name": "Godrej's Natures Basket",
          "organic": "yes",
          "shop": "supermarket"
        }
      },
      {
        "type": "node",
        "id": 4354672915,
        "lat": 18.5339401,
        "lon": 73.8987288,
        "tags": {
          "amenity": "restaurant",
          "name": "The Sassy Spoon Pune"
        }
      },
      {
        "type": "node",
        "id": 4583528602,
        "lat": 18.5370853,
        "lon": 73.8987605,
        "tags": {
          "amenity": "restaurant",
          "name": "One O Eight"
        }
      },
      {
        "type": "node",
        "id": 5237312521,
        "lat": 18.5453435,
        "lon": 73.9062706,
        "tags": {
          "amenity": "restaurant",
          "name:en": "Domino's pizza",
          "name:ko": "\ub3c4\ubbf8\ub178\ud53c\uc790"
        }
      },
      {
        "type": "node",
        "id": 5530188322,
        "lat": 18.5388706,
        "lon": 73.8990838,
        "tags": {
          "amenity": "restaurant",
          "cuisine": "indian;chinese",
          "name:en": "Rajput"
        }
      },
      {
        "type": "node",
        "id": 6184010099,
        "lat": 18.5392176,
        "lon": 73.8974601,
        "tags": {
          "amenity": "cafe",
          "name": "TGF Cafe",
          "name:mr": "\u091f\u0940\u091c\u0940\u090f\u092b \u0915\u0945\u092b\u0947"
        }
      },
      {
        "type": "node",
        "id": 6184010100,
        "lat": 18.539135,
        "lon": 73.8985947,
        "tags": {
          "amenity": "restaurant",
          "brand": "Pizza Hut",
          "brand:wikidata": "Q191615",
          "brand:wikipedia": "en:Pizza Hut",
          "cuisine": "pizza",
          "name": "Pizza Hut",
          "name:mr": "\u092a\u093f\u091d\u094d\u091d\u093e \u0939\u091f"
        }
      },
      {
        "type": "node",
        "id": 6184010101,
        "lat": 18.5391312,
        "lon": 73.8990439,
        "tags": {
          "amenity": "fast_food",
          "cuisine": "donut",
          "name": "Mad Over Donuts",
          "name:mr": "\u092e\u0945\u0921 \u0913\u0935\u094d\u0939\u0930 \u0921\u094b\u0928\u091f\u094d\u0938"
        }
      },
      {
        "type": "node",
        "id": 6184010102,
        "lat": 18.5393689,
        "lon": 73.8993953,
        "tags": {
          "amenity": "bank",
          "brand": "Axis Bank",
          "brand:wikidata": "Q2003549",
          "brand:wikipedia": "en:Axis Bank",
          "name": "Axis Bank",
          "name:mr": "\u0972\u0915\u094d\u0938\u093f\u0938 \u092c\u0901\u0915",
          "operator": "Axis Bank",
          "wikidata": "Q73762503"
        }
      },
      {
        "type": "node",
        "id": 6186406656,
        "lat": 18.546563,
        "lon": 73.9009497,
        "tags": {
          "amenity": "cafe",
          "brand": "Starbucks",
          "brand:wikidata": "Q37158",
          "cuisine": "coffee_shop",
          "name": "Starbucks",
          "name:mr": "\u092a\u093f\u091d\u094d\u091d\u093e \u0939\u091f",
          "official_name": "Starbucks Coffee",
          "takeaway": "yes"
        }
      },
      {
        "type": "node",
        "id": 6186406658,
        "lat": 18.5464892,
        "lon": 73.9014338,
        "tags": {
          "amenity": "bank",
          "brand": "Bank of Baroda",
          "brand:wikidata": "Q2003797",
          "name": "Bank of Baroda",
          "name:mr": "\u092c\u0901\u0915 \u0911\u092b \u092c\u0921\u094b\u0926\u093e",
          "operator": "Bank of Baroda"
        }
      },
      {
        "type": "node",
        "id": 6186406665,
        "lat": 18.5460372,
        "lon": 73.9041247,
        "tags": {
          "amenity": "bank",
          "brand": "HDFC Bank",
          "brand:wikidata": "Q631047",
          "name": "HDFC Bank",
          "name:mr": "\u090f\u091a\u0921\u0940\u090f\u092b\u0938\u0940 \u092c\u0901\u0915",
          "operator": "HDFC Bank",
          "short_name": "HDFC"
        }
      },
      {
        "type": "node",
        "id": 6186406666,
        "lat": 18.5460101,
        "lon": 73.9041911,
        "tags": {
          "amenity": "restaurant",
          "name": "Mineority",
          "name:mr": "\u092e\u093e\u0908\u0928\u094b\u0930\u093f\u091f\u0940"
        }
      },
      {
        "type": "node",
        "id": 6186406667,
        "lat": 18.5459699,
        "lon": 73.9064354,
        "tags": {
          "amenity": "restaurant",
          "name": "Cream Craver",
          "name:mr": "\u0915\u094d\u0930\u0940\u092e \u0915\u094d\u0930\u0947\u0935\u094d\u0939\u0930"
        }
      },
      {
        "type": "node",
        "id": 6186406669,
        "lat": 18.5460379,
        "lon": 73.9063865,
        "tags": {
          "amenity": "atm",
          "brand": "Kotak Mahindra Bank",
          "brand:wikidata": "Q2040404",
          "check_date": "2022-09-11",
          "name": "Kotak Mahindra Bank",
          "name:mr": "\u0915\u094b\u091f\u0915 \u092e\u0939\u093f\u0902\u0926\u094d\u0930\u093e \u092c\u0901\u0915",
          "operator": "Kotak Mahindra Bank",
          "operator:wikidata": "Q2040404"
        }
      },
      {
        "type": "node",
        "id": 6186406673,
        "lat": 18.544769,
        "lon": 73.9115444,
        "tags": {
          "amenity": "bank",
          "brand": "Bandhan Bank",
          "brand:wikidata": "Q19882235",
          "name": "Bandhan Bank",
          "name:mr": "\u092c\u0902\u0927\u0928 \u092c\u0901\u0915",
          "operator": "Bandhan Bank"
        }
      },
      {
        "type": "node",
        "id": 6186406675,
        "lat": 18.5450945,
        "lon": 73.9098519,
        "tags": {
          "amenity": "bank",
          "brand": "State Bank of India",
          "brand:wikidata": "Q1340361",
          "name": "State Bank of India",
          "name:mr": "\u092d\u093e\u0930\u0924\u0940\u092f \u0938\u094d\u091f\u0947\u091f \u092c\u0901\u0915",
          "operator": "State Bank of India",
          "short_name": "SBI"
        }
      },
      {
        "type": "node",
        "id": 6186406676,
        "lat": 18.5450716,
        "lon": 73.9099538,
        "tags": {
          "amenity": "atm",
          "brand": "State Bank of India",
          "brand:wikidata": "Q1340361",
          "check_date": "2021-06-18",
          "name": "State Bank of India",
          "name:mr": "\u092d\u093e\u0930\u0924\u0940\u092f \u0938\u094d\u091f\u0947\u091f \u092c\u0901\u0915",
          "operator": "State Bank of India",
          "operator:wikidata": "Q1340361",
          "short_name": "SBI"
        }
      },
      {
        "type": "node",
        "id": 6186406677,
        "lat": 18.5449838,
        "lon": 73.9057971,
        "tags": {
          "amenity": "bank",
          "brand": "IndusInd Bank",
          "brand:wikidata": "Q2040323",
          "name": "IndusInd Bank",
          "name:mr": "\u0907\u0902\u0921\u0938\u0907\u0902\u0921 \u092c\u0901\u0915",
          "operator": "IndusInd Bank"
        }
      },
      {
        "type": "node",
        "id": 6186406678,
        "lat": 18.5450449,
        "lon": 73.9058132,
        "tags": {
          "amenity": "atm",
          "brand": "IndusInd Bank",
          "brand:wikidata": "Q2040323",
          "name": "IndusInd Bank",
          "name:mr": "\u0907\u0902\u0921\u0938\u0907\u0902\u0921 \u092c\u0901\u0915",
          "opening_hours": "24/7",
          "operator": "IndusInd Bank",
          "operator:wikidata": "Q2040323"
        }
      },
      {
        "type": "node",
        "id": 6186406680,
        "lat": 18.5436606,
        "lon": 73.9050465,
        "tags": {
          "amenity": "restaurant",
          "name": "Farzi Caf\u00e9",
          "name:mr": "\u092b\u0930\u094d\u091c\u0940 \u0915\u0945\u092b\u0947"
        }
      },
      {
        "type": "node",
        "id": 7021208122,
        "lat": 18.5465045,
        "lon": 73.9013733,
        "tags": {
          "amenity": "bank",
          "name": "Vijaya Bank"
        }
      },
      {
        "type": "node",
        "id": 7603463230,
        "lat": 18.5436432,
        "lon": 73.8990145,
        "tags": {
          "amenity": "restaurant",
          "cuisine": "indian;chinese;chicken;tandoori;fish",
          "name": "Reddys Restaurant Kalyani Nagar",
          "opening_hours": "Mo-Su 12:00-22:00",
          "website": "https://www.reddysrestaurant.com/"
        }
      },
      {
        "type": "node",
        "id": 10032910251,
        "lat": 18.5317721,
        "lon": 73.9102836,
        "tags": {
          "amenity": "restaurant",
          "name": "Sorriso - Italian restaurant"
        }
      },
      {
        "type": "node",
        "id": 10054088273,
        "lat": 18.5391027,
        "lon": 73.9000346,
        "tags": {
          "amenity": "cafe",
          "name": "Third wave coffee"
        }
      },
      {
        "type": "node",
        "id": 10117678237,
        "lat": 18.536616,
        "lon": 73.8988097,
        "tags": {
          "amenity": "restaurant",
          "name": "Murphies"
        }
      },
      {
        "type": "node",
        "id": 10117684095,
        "lat": 18.5365931,
        "lon": 73.8990404,
        "tags": {
          "amenity": "cafe",
          "cuisine": "coffee_shop",
          "name": "Brew Culture",
          "outdoor_seating": "no"
        }
      },
      {
        "type": "node",
        "id": 10117686068,
        "lat": 18.5361966,
        "lon": 73.8998068,
        "tags": {
          "name": "Prem Supermarket",
          "shop": "supermarket"
        }
      },
      {
        "type": "node",
        "id": 10117689099,
        "lat": 18.5364425,
        "lon": 73.8993524,
        "tags": {
          "amenity": "cafe",
          "cuisine": "cake;pastry;coffee",
          "name": "Forennt\u00e9 Patisserie",
          "outdoor_seating": "no"
        }
      },
      {
        "type": "node",
        "id": 10117710443,
        "lat": 18.5364616,
        "lon": 73.8995909,
        "tags": {
          "amenity": "cafe",
          "cuisine": "italian",
          "name": "Naughty Angel Cafe"
        }
      },
      {
        "type": "node",
        "id": 10158935918,
        "lat": 18.5374881,
        "lon": 73.8988397,
        "tags": {
          "amenity": "cafe",
          "name": "Grey Soul"
        }
      },
      {
        "type": "node",
        "id": 11681074026,
        "lat": 18.5376129,
        "lon": 73.8979395,
        "tags": {
          "amenity": "cafe",
          "cuisine": "coffee_shop",
          "name": "The French Window Patisserie",
          "name:mr": "\u0926 \u092b\u094d\u0930\u0947\u0902\u091a \u0935\u093f\u0902\u0921\u094b \u092a\u0945\u091f\u093f\u0938\u0947\u0930\u0940"
        }
      },
      {
        "type": "node",
        "id": 11733094362,
        "lat": 18.5342106,
        "lon": 73.8993321,
        "tags": {
          "amenity": "restaurant",
          "name": "Kuai Kitchen",
          "name:mr": "\u0915\u0941\u0906 \u0915\u093f\u091a\u0928"
        }
      },
      {
        "type": "node",
        "id": 11733177765,
        "lat": 18.5330403,
        "lon": 73.8991022,
        "tags": {
          "amenity": "restaurant",
          "name": "PUBLIQ"
        }
      },
      {
        "type": "node",
        "id": 11733184074,
        "lat": 18.5343463,
        "lon": 73.8993561,
        "tags": {
          "amenity": "restaurant",
          "name": "Boteco - Tapas Bar & Grill",
          "name:mr": "\u092c\u094b\u0924\u0947\u091a\u094b",
          "phone": "09158749997"
        }
      },
      {
        "type": "node",
        "id": 11733188337,
        "lat": 18.5343119,
        "lon": 73.8992119,
        "tags": {
          "amenity": "restaurant",
          "name": "Great State Dive"
        }
      },
      {
        "type": "node",
        "id": 11733830067,
        "lat": 18.5363572,
        "lon": 73.8973584,
        "tags": {
          "amenity": "restaurant",
          "cuisine": "italian",
          "name": "Squisito - The Italian Ristorante"
        }
      },
      {
        "type": "node",
        "id": 11733843877,
        "lat": 18.53762,
        "lon": 73.8988147,
        "tags": {
          "amenity": "fast_food",
          "cuisine": "burger",
          "name": "The Burger Barn Cafe"
        }
      },
      {
        "type": "node",
        "id": 11733847507,
        "lat": 18.5366609,
        "lon": 73.9000834,
        "tags": {
          "amenity": "fast_food",
          "cuisine": "burger",
          "name": "The Burger House"
        }
      },
      {
        "type": "node",
        "id": 11733849418,
        "lat": 18.5365728,
        "lon": 73.9000822,
        "tags": {
          "amenity": "restaurant",
          "cuisine": "lebanese",
          "name": "The Doner Company"
        }
      },
      {
        "type": "node",
        "id": 11733856611,
        "lat": 18.5373891,
        "lon": 73.8988743,
        "tags": {
          "amenity": "restaurant",
          "name": "Donatella"
        }
      },
      {
        "type": "node",
        "id": 11733856725,
        "lat": 18.5366408,
        "lon": 73.9000863,
        "tags": {
          "amenity": "restaurant",
          "name": "Kebab Gunj"
        }
      },
      {
        "type": "node",
        "id": 11733859729,
        "lat": 18.5377435,
        "lon": 73.8988241,
        "tags": {
          "amenity": "restaurant",
          "cuisine": "barbecue",
          "name": "THE IMMORTALE BARBECUE"
        }
      },
      {
        "type": "node",
        "id": 11733869945,
        "lat": 18.536652,
        "lon": 73.9000834,
        "tags": {
          "amenity": "restaurant",
          "cuisine": "chinese",
          "name": "China Park"
        }
      },
      {
        "type": "node",
        "id": 11744761288,
        "lat": 18.5340315,
        "lon": 73.8985036,
        "tags": {
          "amenity": "restaurant",
          "cuisine": "pizza;regional;italian;kebab",
          "microbrewery": "yes",
          "name": "Effingut Koregaon Park"
        }
      },
      {
        "type": "node",
        "id": 11744803041,
        "lat": 18.5344126,
        "lon": 73.8997438,
        "tags": {
          "amenity": "restaurant",
          "name": "Chaurahe ke Paar"
        }
      },
      {
        "type": "node",
        "id": 11744837871,
        "lat": 18.5339777,
        "lon": 73.8982362,
        "tags": {
          "amenity": "restaurant",
          "cuisine": "italian",
          "name": "Pimlico"
        }
      },
      {
        "type": "node",
        "id": 12246275637,
        "lat": 18.5391273,
        "lon": 73.9079052,
        "tags": {
          "name": "The Kopa",
          "shop": "mall",
          "website": "https://kopapune.com/"
        }
      },
      {
        "type": "node",
        "id": 12246293675,
        "lat": 18.5393387,
        "lon": 73.9078762,
        "tags": {
          "amenity": "restaurant",
          "level": "2",
          "name": "Kyma"
        }
      },
      {
        "type": "node",
        "id": 13090591701,
        "lat": 18.5360287,
        "lon": 73.8985553,
        "tags": {
          "amenity": "fast_food",
          "cuisine": "indian"
        }
      }
    ]
  },
  "pois_2_5km": {
    "version": 0.6,
    "generator": "Overpass API 0.7.62.8 e802775f",
    "osm3s": {
      "timestamp_osm_base": "2025-09-07T11:14:15Z",
      "copyright": "The data included in this document is from www.openstreetmap.org. The data is made available under ODbL."
    },
    "elements": [
      {
        "type": "node",
        "id": 283204710,
        "lat": 18.539254,
        "lon": 73.885693,
        "tags": {
          "addr:city": "Pune",
          "addr:country": "IN",
          "addr:state": "MH",
          "amenity": "fuel",
          "brand": "BPCL",
          "compressed_air": "yes",
          "fuel:diesel": "yes",
          "fuel:octane_91": "yes",
          "fuel:octane_95": "yes",
          "name": "Roshini Petrol Pump",
          "wheelchair": "no"
        }
      },
      {
        "type": "node",
        "id": 518664242,
        "lat": 18.53956,
        "lon": 73.885683,
        "tags": {
          "addr:city": "Pune",
          "addr:country": "IN",
          "addr:province": "Koregaon Park",
          "addr:state": "MH",
          "addr:street": "North Main Road",
          "amenity": "fuel",
          "brand": "HPCL",
          "fuel:diesel": "yes",
          "fuel:octane_91": "yes",
          "fuel:octane_95": "yes",
          "name": "Mukul Petrol Pump",
          "wheelchair": "no"
        }
      },
      {
        "type": "node",
        "id": 2257797308,
        "lat": 18.528148,
        "lon": 73.8939317,
        "tags": {
          "internet_access": "no",
          "name": "Ghorpuri",
          "name:mr": "\u0918\u094b\u0930\u092a\u0921\u0940",
          "network": "IR",
          "operator": "CR",
          "public_transport": "station",
          "railway": "station",
          "ref": "GPR",
          "train": "yes",
          "wikidata": "Q18125106"
        }
      },
      {
        "type": "node",
        "id": 2257797322,
        "lat": 18.5281002,
        "lon": 73.8938934,
        "tags": {
          "public_transport": "stop_position"
        }
      },
      {
        "type": "node",
        "id": 2257797333,
        "lat": 18.5282168,
        "lon": 73.8939378,
        "tags": {
          "public_transport": "stop_position"
        }
      },
      {
        "type": "node",
        "id": 11699340494,
        "lat": 18.5571164,
        "lon": 73.9085719,
        "tags": {
          "layer": "2",
          "name": "Ramwadi",
          "name:mr": "\u0930\u093e\u092e\u0935\u093e\u0921\u0940",
          "operator": "MahaMetro",
          "public_transport": "stop_position",
          "railway": "stop",
          "subway": "yes"
        }
      },
      {
        "type": "node",
        "id": 11699340647,
        "lat": 18.540599,
        "lon": 73.8834176,
        "tags": {
          "layer": "2",
          "name": "Bund Garden",
          "name:mr": "\u092c\u0902\u0921 \u0917\u093e\u0930\u094d\u0921\u0928",
          "operator": "MahaMetro",
          "public_transport": "stop_position",
          "railway": "stop",
          "subway": "yes"
        }
      },
      {
        "type": "node",
        "id": 11699340648,
        "lat": 18.5405802,
        "lon": 73.8834544,
        "tags": {
          "layer": "2",
          "name": "Bund Garden",
          "name:mr": "\u092c\u0902\u0921 \u0917\u093e\u0930\u094d\u0921\u0928",
          "operator": "MahaMetro",
          "public_transport": "stop_position",
          "railway": "stop",
          "subway": "yes"
        }
      },
      {
        "type": "node",
        "id": 11699340649,
        "lat": 18.5405933,
        "lon": 73.8834394,
        "tags": {
          "name": "Bund Garden",
          "name:mr": "\u092c\u0902\u0921 \u0917\u093e\u0930\u094d\u0921\u0928",
          "network": "Pune Metro",
          "network:wikidata": "Q3595697",
          "public_transport": "station",
          "railway": "station",
          "station": "subway",
          "subway": "yes",
          "wikidata": "Q124762850",
          "wikipedia": "en:Bund Garden metro station"
        }
      },
      {
        "type": "node",
        "id": 11699340650,
        "lat": 18.5453203,
        "lon": 73.8866176,
        "tags": {
          "layer": "2",
          "name": "Yerwada",
          "name:hi": "\u092f\u0947\u0930\u0935\u0921\u093e",
          "name:mr": "\u092f\u0947\u0930\u0935\u0921\u093e",
          "operator": "MahaMetro",
          "public_transport": "stop_position",
          "railway": "stop",
          "subway": "yes"
        }
      },
      {
        "type": "node",
        "id": 11699340651,
        "lat": 18.5452822,
        "lon": 73.8866239,
        "tags": {
          "layer": "2",
          "name": "Yerwada",
          "name:hi": "\u092f\u0947\u0930\u0935\u0921\u093e",
          "name:mr": "\u092f\u0947\u0930\u0935\u0921\u093e",
          "operator": "MahaMetro",
          "public_transport": "stop_position",
          "railway": "stop",
          "subway": "yes"
        }
      },
      {
        "type": "node",
        "id": 11699340652,
        "lat": 18.5453173,
        "lon": 73.8866882,
        "tags": {
          "name": "Yerwada",
          "name:hi": "\u092f\u0947\u0930\u0935\u0921\u093e",
          "name:mr": "\u092f\u0947\u0930\u0935\u0921\u093e",
          "network": "Pune Metro",
          "network:wikidata": "Q3595697",
          "public_transport": "station",
          "railway": "station",
          "station": "subway",
          "subway": "yes",
          "wikipedia": "en:Yerwada metro station"
        }
      },
      {
        "type": "node",
        "id": 11699340653,
        "lat": 18.5444651,
        "lon": 73.9056677,
        "tags": {
          "layer": "2",
          "name": "Kalyani Nagar",
          "name:mr": "\u0915\u0932\u094d\u092f\u093e\u0923\u0940 \u0928\u0917\u0930",
          "operator": "MahaMetro",
          "public_transport": "stop_position",
          "railway": "stop",
          "subway": "yes"
        }
      },
      {
        "type": "node",
        "id": 11699340654,
        "lat": 18.5444493,
        "lon": 73.9057122,
        "tags": {
          "layer": "2",
          "name": "Kalyani Nagar",
          "name:mr": "\u0915\u0932\u094d\u092f\u093e\u0923\u0940 \u0928\u0917\u0930",
          "operator": "MahaMetro",
          "public_transport": "stop_position",
          "railway": "stop",
          "subway": "yes"
        }
      },
      {
        "type": "node",
        "id": 11699340655,
        "lat": 18.5444806,
        "lon": 73.9056979,
        "tags": {
          "name": "Kalyani Nagar",
          "name:mr": "\u0915\u0932\u094d\u092f\u093e\u0923\u0940 \u0928\u0917\u0930",
          "network": "Pune Metro",
          "network:wikidata": "Q3595697",
          "public_transport": "station",
          "railway": "station",
          "station": "subway",
          "subway": "yes",
          "wikipedia": "en:Kalyani Nagar metro station"
        }
      },
      {
        "type": "node",
        "id": 11699340656,
        "lat": 18.5570831,
        "lon": 73.9085916,
        "tags": {
          "layer": "2",
          "name": "Ramwadi",
          "name:mr": "\u0930\u093e\u092e\u0935\u093e\u0921\u0940",
          "operator": "MahaMetro",
          "public_transport": "stop_position",
          "railway": "stop",
          "subway": "yes"
        }
      },
      {
        "type": "node",
        "id": 11699340657,
        "lat": 18.5571183,
        "lon": 73.9086071,
        "tags": {
          "name": "Ramwadi",
          "name:mr": "\u0930\u093e\u092e\u0935\u093e\u0921\u0940",
          "network": "Pune Metro",
          "network:wikidata": "Q3595697",
          "public_transport": "station",
          "railway": "station",
          "station": "subway",
          "subway": "yes",
          "wikipedia": "en:Ramwadi metro station"
        }
      },
      {
        "type": "node",
        "id": 12863629710,
        "lat": 18.5795095,
        "lon": 73.9099537,
        "tags": {
          "aeroway": "terminal"
        }
      }
    ]
  }
}