{
  "pois_1km": {
    "version": 0.6,
    "generator": "Overpass API 0.7.62.8 e802775f",
    "osm3s": {
      "timestamp_osm_base": "2025-09-07T11:11:14Z",
      "copyright": "The data included in this document is from www.openstreetmap.org. The data is made available under ODbL."
    },
    "elements": [
      {
        "type": "node",
        "id": 3681734382,
        "lat": 18.458971,
        "lon": 73.9118785,
        "tags": {
          "amenity": "atm",
          "name": "SBI"
        }
      },
      {
        "type": "node",
        "id": 7086516364,
        "lat": 18.4685007,
        "lon": 73.920515,
        "tags": {
          "addr:district": "Pune",
          "addr:full": "At Post Yawat, Pune Solapu Highway",
          "addr:postcode": "412214",
          "addr:state": "Maharashtra",
          "amenity": "hospital",
          "name": "Om Shakti Chaya Hospital - Rsby",
          "source": "OpenGovernmentData"
        }
      },
      {
        "type": "node",
        "id": 8906220335,
        "lat": 18.4642224,
        "lon": 73.9231667,
        "tags": {
          "addr:city": "Pune",
          "addr:housenumber": "B1 Nimah Sq",
          "addr:postcode": "411060",
          "addr:street": "Nyati Estate Road",
          "email": "manager@quickbasket.store",
          "name": "Quick Basket",
          "opening_hours": "24/7",
          "operator": "Orbolo",
          "phone": "+91 930 791 0979",
          "shop": "supermarket",
          "website": "https://quickbasket.store"
        }
      },
      {
        "type": "node",
        "id": 12345146729,
        "lat": 18.4626,
        "lon": 73.9133018,
        "tags": {
          "amenity": "restaurant",
          "check_date": "2024-11-11",
          "name": "Vijayraj",
          "name:hi": "Vijayraj"
        }
      }
    ]
  },
  "pois_2_5km": {
    "version": 0.6,
    "generator": "Overpass API 0.7.62.8 e802775f",
    "osm3s": {
      "timestamp_osm_base": "2025-09-07T11:11:14Z",
      "copyright": "The data included in this document is from www.openstreetmap.org. The data is made available under ODbL."
    },
    "elements": []
  }
}