{
  "pois_1km": {
    "version": 0.6,
    "generator": "Overpass API 0.7.62.8 e802775f",
    "osm3s": {
      "timestamp_osm_base": "2025-09-07T11:20:24Z",
      "copyright": "The data included in this document is from www.openstreetmap.org. The data is made available under ODbL."
    },
    "elements": [
      {
        "type": "node",
        "id": 1690324169,
        "lat": 18.5306945,
        "lon": 73.8568225,
        "tags": {
          "name": "CoEP Department of Mathematics",
          "shop": "supermarket"
        }
      },
      {
        "type": "node",
        "id": 2203119229,
        "lat": 18.527138,
        "lon": 73.8416279,
        "tags": {
          "amenity": "cafe",
          "brand": "Sweet Chariot",
          "delivery": "yes",
          "name": "Sweet Chariot",
          "shop": "pastry",
          "takeaway": "yes"
        }
      },
      {
        "type": "node",
        "id": 2787023153,
        "lat": 18.5279415,
        "lon": 73.84293,
        "tags": {
          "amenity": "restaurant",
          "cuisine": "sizzlers",
          "name": "Yana Sizzlers",
          "name:mr": "\u092f\u093e\u0928\u093e \u0938\u093f\u091d\u0932\u0930\u094d\u0938",
          "opening_hours": "Mo-Su 12:00-23:00",
          "phone": "02066013897",
          "website": "https://www.yanasizzlers.com/",
          "wheelchair": "no"
        }
      },
      {
        "type": "node",
        "id": 2801208405,
        "lat": 18.5234997,
        "lon": 73.8468419,
        "tags": {
          "amenity": "bank",
          "atm": "yes",
          "brand": "Andhra Bank",
          "brand:wikidata": "Q2003476",
          "brand:wikipedia": "en:Andhra Bank",
          "name": "Andhra Bank",
          "name:en": "Andhra Bank",
          "name:mr": "\u0906\u0902\u0927\u094d\u0930\u093e \u092c\u0901\u0915",
          "operator": "Andhra Bank",
          "website": "https://www.andhrabank.in"
        }
      },
      {
        "type": "node",
        "id": 2859985523,
        "lat": 18.5233029,
        "lon": 73.8474353,
        "tags": {
          "amenity": "bank",
          "atm": "yes",
          "brand": "Federal Bank",
          "brand:wikidata": "Q2044983",
          "brand:wikipedia": "en:Federal Bank",
          "name": "Federal Bank",
          "name:en": "Federal Bank",
          "name:mr": "\u092b\u0947\u0921\u0930\u0932 \u092c\u0901\u0915",
          "operator": "Federal Bank",
          "website": "https://www.federalbank.co.in"
        }
      },
      {
        "type": "node",
        "id": 2859985585,
        "lat": 18.5236224,
        "lon": 73.8465515,
        "tags": {
          "amenity": "atm",
          "brand": "ICICI Bank",
          "brand:wikidata": "Q1653258",
          "operator": "ICICI Bank",
          "operator:wikidata": "Q1653258",
          "short_name": "ICICI"
        }
      },
      {
        "type": "node",
        "id": 3533206593,
        "lat": 18.5228996,
        "lon": 73.8483963,
        "tags": {
          "amenity": "cafe",
          "brand": "Cafe Coffee Day",
          "brand:wikidata": "Q5017235",
          "cuisine": "coffee_shop",
          "name": "Cafe Coffee Day",
          "opening_hours": "Mo-Su 09:00-23:00",
          "phone": "+919326877251",
          "takeaway": "yes",
          "website": "https://www.cafecoffeeday.com/"
        }
      },
      {
        "type": "node",
        "id": 3750411928,
        "lat": 18.5229314,
        "lon": 73.8484216,
        "tags": {
          "amenity": "atm",
          "brand": "Yes Bank",
          "brand:wikidata": "Q2040394",
          "check_date": "2022-09-11",
          "name": "Yes Bank",
          "operator": "Yes Bank",
          "operator:wikidata": "Q2040394"
        }
      },
      {
        "type": "node",
        "id": 4520464891,
        "lat": 18.5243666,
        "lon": 73.8436958,
        "tags": {
          "amenity": "cafe",
          "name:en": "Jivan"
        }
      },
      {
        "type": "node",
        "id": 5554773708,
        "lat": 18.5322712,
        "lon": 73.8492367,
        "tags": {
          "amenity": "atm",
          "brand": "Axis Bank",
          "brand:wikidata": "Q2003549",
          "operator": "Axis Bank",
          "operator:wikidata": "Q2003549"
        }
      },
      {
        "type": "node",
        "id": 5554773709,
        "lat": 18.5322477,
        "lon": 73.8492461,
        "tags": {
          "amenity": "atm",
          "brand": "HDFC Bank",
          "brand:wikidata": "Q631047",
          "operator": "HDFC Bank",
          "operator:wikidata": "Q631047",
          "short_name": "HDFC"
        }
      },
      {
        "type": "node",
        "id": 5554773710,
        "lat": 18.5321676,
        "lon": 73.8492715,
        "tags": {
          "amenity": "atm",
          "brand": "PDCC Bank",
          "operator": "PDCC Bank"
        }
      },
      {
        "type": "node",
        "id": 5554773711,
        "lat": 18.5322077,
        "lon": 73.8492595,
        "tags": {
          "amenity": "bank",
          "atm": "no",
          "brand": "PDCC Bank",
          "name": "PDCC Bank, Agricultural College Branch",
          "name:mr": "\u092a\u0941\u0923\u0947 \u091c\u093f\u0932\u094d\u0939\u093e \u092e\u0927\u094d\u092f\u0935\u0930\u094d\u0924\u0940 \u0938\u0939\u0915\u093e\u0930\u0940 \u092c\u0901\u0915, \u0915\u0943\u0937\u0940 \u092e\u0939\u093e\u0935\u093f\u0926\u094d\u092f\u093e\u0932\u092f \u0936\u093e\u0916\u093e",
          "operator": "PDCC Bank"
        }
      },
      {
        "type": "node",
        "id": 5554773712,
        "lat": 18.5253926,
        "lon": 73.8532647,
        "tags": {
          "amenity": "restaurant",
          "name": "Aalok",
          "name:mr": "\u0906\u0932\u094b\u0915"
        }
      },
      {
        "type": "node",
        "id": 6116290216,
        "lat": 18.5254288,
        "lon": 73.8496605,
        "tags": {
          "amenity": "restaurant",
          "name": "Surabhi",
          "name:mr": "\u0938\u0941\u0930\u092d\u093f"
        }
      },
      {
        "type": "node",
        "id": 6145662564,
        "lat": 18.5226465,
        "lon": 73.8490851,
        "tags": {
          "amenity": "restaurant",
          "name": "Gandharva",
          "name:mr": "\u0917\u0902\u0927\u0930\u094d\u0935"
        }
      },
      {
        "type": "node",
        "id": 6185529693,
        "lat": 18.523505,
        "lon": 73.8461991,
        "tags": {
          "addr:street": "Ghole Road",
          "amenity": "bank",
          "name": "Janata Sahakari Bank Ltd. Pune",
          "opening_hours": "Mo-Sa 09:30-18:30"
        }
      },
      {
        "type": "node",
        "id": 6250078438,
        "lat": 18.536419,
        "lon": 73.851137,
        "tags": {
          "amenity": "bank",
          "branch": "Shivajinagar Branch",
          "brand": "State Bank of India",
          "brand:wikidata": "Q1340361",
          "name": "State Bank of India",
          "name:mr": "\u092d\u093e\u0930\u0924\u0940\u092f \u0938\u094d\u091f\u0947\u091f \u092c\u0901\u0915, \u0936\u093f\u0935\u093e\u091c\u0940\u0928\u0917\u0930 \u0936\u093e\u0916\u093e",
          "operator": "State Bank of India",
          "short_name": "SBI"
        }
      },
      {
        "type": "node",
        "id": 6612854042,
        "lat": 18.5329215,
        "lon": 73.8468085,
        "tags": {
          "addr:city": "Pune",
          "addr:full": "near Hotel Pride",
          "addr:housenumber": "1671 - 75",
          "addr:neighbourhood": "Shivaji Nagar",
          "addr:postcode": "411005",
          "addr:street": "Ganeshkhind Road",
          "addr:suburb": "Narveer Tanaji Wadi",
          "amenity": "hospital",
          "healthcare": "hospital",
          "healthcare:speciality": "gynaecology",
          "name": "ONP Leela Hospital",
          "operator": "ONP Hospitals",
          "phone": "020 6721 6600;020 6721 6699;9373813199",
          "website": "https://onphospitals.com",
          "wikidata": "Q65057391",
          "wikipedia": "en:ONP Hospitals"
        }
      },
      {
        "type": "node",
        "id": 7045274083,
        "lat": 18.5284781,
        "lon": 73.8423179,
        "tags": {
          "addr:district": "Pune",
          "addr:full": "1123 B, Shanti-Prasad, Shivaji Nagar, Near Hotel Lalit Mahal, Model Colony",
          "addr:postcode": "411016",
          "addr:state": "Maharashtra",
          "amenity": "hospital",
          "healthcare": "hospital",
          "name": "Punarvasu Chikitsalaya",
          "source": "OpenGovernmentData"
        }
      },
      {
        "type": "node",
        "id": 7049516396,
        "lat": 18.5287757,
        "lon": 73.8479868,
        "tags": {
          "addr:district": "Pune",
          "addr:full": "1162/3, Crescent Exclusee, Shivaji Nagar",
          "addr:postcode": "411005",
          "addr:state": "Maharashtra",
          "amenity": "hospital",
          "healthcare": "hospital",
          "name": "Pune Fertility Center",
          "source": "OpenGovernmentData"
        }
      },
      {
        "type": "node",
        "id": 7051137462,
        "lat": 18.5252254,
        "lon": 73.8499763,
        "tags": {
          "addr:district": "Pune",
          "addr:full": "1233, Shivaji Nagar, J.M. Road",
          "addr:postcode": "411005",
          "addr:state": "Maharashtra",
          "amenity": "hospital",
          "healthcare": "hospital",
          "name": "Dr. Karve Childrens Hospital",
          "source": "OpenGovernmentData"
        }
      },
      {
        "type": "node",
        "id": 7068155283,
        "lat": 18.5226796,
        "lon": 73.8508487,
        "tags": {
          "addr:district": "Pune",
          "addr:full": "No. 562 / 1, Jada Bhuvan, Shivaji Nagaar, Opp Bal Gandharv Bridge;Survey No 1187/13, Chiroda Niwas, Ghole Road, Next to NIO, Pune",
          "addr:postcode": "411005",
          "addr:state": "Maharashtra;Maharastra",
          "amenity": "hospital",
          "healthcare": "hospital",
          "name": "Pungliya Hospital",
          "source": "OpenGovernmentData;Local Knowledge"
        }
      },
      {
        "type": "node",
        "id": 7075794341,
        "lat": 18.5252979,
        "lon": 73.8437355,
        "tags": {
          "addr:district": "Pune",
          "addr:full": "1194/24, Mugut Apartment, Ghole Road, Shivajinagar",
          "addr:postcode": "411005",
          "addr:state": "Maharashtra",
          "amenity": "clinic",
          "healthcare": "clinic",
          "name": "Wagh Eye Clinic",
          "source": "OpenGovernmentData"
        }
      },
      {
        "type": "node",
        "id": 7086499129,
        "lat": 18.5232989,
        "lon": 73.8496108,
        "tags": {
          "addr:district": "Pune",
          "addr:full": "Kamal 2nd Floor, 1306 Shivajinagar, Behind Bank Of Baroda",
          "addr:postcode": "411005",
          "addr:state": "Maharashtra",
          "amenity": "clinic",
          "healthcare": "clinic",
          "name": "Pandit Clinic",
          "source": "OpenGovernmentData"
        }
      },
      {
        "type": "node",
        "id": 7650321105,
        "lat": 18.5295693,
        "lon": 73.8564329,
        "tags": {
          "amenity": "fast_food",
          "name": "Fast food"
        }
      },
      {
        "type": "node",
        "id": 7651453332,
        "lat": 18.5262863,
        "lon": 73.8550284,
        "tags": {
          "addr:district": "Pune",
          "addr:full": "106/2, Old Tophakhana, Tophakhana, Shivajinagar, Pune",
          "addr:postcode": "411005",
          "addr:state": "Maharastra",
          "amenity": "clinic",
          "healthcare": "clinic",
          "name": "Shri Dattakrupa Clinic",
          "source": "Local Knowledge"
        }
      },
      {
        "type": "node",
        "id": 7651453353,
        "lat": 18.530365,
        "lon": 73.842063,
        "tags": {
          "addr:city": "Pune",
          "addr:district": "Pune",
          "addr:full": "1137/8, Lakaki Road, Rage Path, Model Colony, Shivajinagar, Pune",
          "addr:housenumber": "29",
          "addr:postcode": "411016",
          "addr:state": "Maharastra",
          "addr:street": "\u0932\u0915\u093e\u0915\u0940 \u0930\u0938\u094d\u0924\u093e",
          "amenity": "hospital",
          "healthcare": "hospital",
          "healthcare:speciality": "general",
          "name": "Bapat Hospital",
          "source": "Local Knowledge"
        }
      },
      {
        "type": "node",
        "id": 7651453362,
        "lat": 18.5258653,
        "lon": 73.850995,
        "tags": {
          "addr:district": "Pune",
          "addr:full": "Ayurvedic Rasashala Premises, Maharshi Karve Road, Khilarewadi, Erandwane, Pune",
          "addr:postcode": "411004",
          "addr:state": "Maharastra",
          "amenity": "doctors",
          "healthcare": "doctor",
          "name": "Dr. Shailesh Puntambekar",
          "source": "Local Knowledge"
        }
      },
      {
        "type": "node",
        "id": 7651453376,
        "lat": 18.5263592,
        "lon": 73.8430033,
        "tags": {
          "addr:district": "Pune",
          "addr:full": "Mandrindavn Building, Modern Engineering College Road, Sud Nagar, Shivajinagar, Pune",
          "addr:postcode": "411005",
          "addr:state": "Maharastra",
          "amenity": "clinic",
          "healthcare": "clinic",
          "name": "Shree Clinic",
          "source": "Local Knowledge"
        }
      },
      {
        "type": "node",
        "id": 7651453388,
        "lat": 18.5259463,
        "lon": 73.849329,
        "tags": {
          "addr:district": "Pune",
          "addr:full": "Revenue Colony, Shivajinagar, Pune",
          "addr:postcode": "411005",
          "addr:state": "Maharastra",
          "amenity": "doctors",
          "healthcare": "doctor",
          "name": "Dr. Shreerang Godbole",
          "source": "Local Knowledge"
        }
      },
      {
        "type": "node",
        "id": 7651453399,
        "lat": 18.528932,
        "lon": 73.8436351,
        "tags": {
          "addr:district": "Pune",
          "addr:full": "Plot No. 557 / 1, 2 &3, Fergusson College Road, Bhamburda, Shivajinagar, Pune",
          "addr:postcode": "411005",
          "addr:state": "Maharastra",
          "amenity": "hospital",
          "healthcare": "hospital",
          "name": "ASG Eye Hospital",
          "source": "Local Knowledge"
        }
      },
      {
        "type": "node",
        "id": 7651453410,
        "lat": 18.5232019,
        "lon": 73.8480644,
        "tags": {
          "addr:district": "Pune",
          "addr:full": "1187/67, Gruhalaxmi Building, Balgandharv Chowk, J M Road, Shivajinagar, Pune",
          "addr:postcode": "411005",
          "addr:state": "Maharastra",
          "amenity": "clinic",
          "healthcare": "clinic",
          "name": "Borawake Clinic",
          "source": "Local Knowledge"
        }
      },
      {
        "type": "node",
        "id": 7651453418,
        "lat": 18.5245059,
        "lon": 73.8438216,
        "tags": {
          "addr:district": "Pune",
          "addr:full": "Janardhan Sadan, 1194/23, Ghole Road, Sud Nagar, Shivajinagar, Pune",
          "addr:postcode": "411005",
          "addr:state": "Maharashtra",
          "amenity": "hospital",
          "healthcare": "hospital",
          "name": "MJM Hospital",
          "source": "Local Knowledge"
        }
      },
      {
        "type": "node",
        "id": 8246981659,
        "lat": 18.5281508,
        "lon": 73.8413978,
        "tags": {
          "addr:city": "Pune",
          "addr:housenumber": "1126/B",
          "addr:postcode": "411016",
          "addr:street": "Model Colony, Shivaji Nagar",
          "amenity": "clinic",
          "healthcare": "clinic",
          "healthcare:speciality": "cardiology;heart_care;cardiologist",
          "image": "https://www.mshiremath.com/images/displayimage/e9b6212653cf4f79c504524d556ac8bd558a8b07587c642575e28.jpeg?type=g&size=300",
          "name": "Dr. Shirish Hiremath - Cardiologist",
          "opening_hours": "Mo-Sa 16:00-19:00",
          "operator": "Dr. Shirish Hiremath",
          "operator:type": "private",
          "website": "https://www.mshiremath.com/mshiremath"
        }
      },
      {
        "type": "node",
        "id": 8266161946,
        "lat": 18.5258066,
        "lon": 73.8504215,
        "tags": {
          "addr:city": "Pune",
          "addr:housenumber": "400",
          "addr:postcode": "411005",
          "addr:street": "Near Jangali Maharaj Mandir, J M Road, Above Panchali Hotel, Shivajinagar",
          "amenity": "clinic",
          "healthcare": "clinic",
          "healthcare:speciality": "Diabetology;Diagnostic_Radiology;Abdominal_Radiology;Pediatric_Radiology;Vascular_and_Interventional_Radiology;Cardiothoracic_Radiology_and_General_physician_and_Diabetologist",
          "name": "J M Diagnostic Centre - Madhu - Meet Diabetes",
          "website": "https://www.jmdiagnostic.com/"
        }
      },
      {
        "type": "node",
        "id": 8266785678,
        "lat": 18.52733,
        "lon": 73.8421459,
        "tags": {
          "addr:city": "Pune",
          "addr:housenumber": "Office no.15",
          "addr:postcode": "411016",
          "addr:street": "4th Floor ,kamala Regency ,Near Dnyaneswar Paduka chowk,opp.Bharat Pertol Pump,FC road, Shivajinagar",
          "amenity": "clinic",
          "healthcare": "clinic",
          "healthcare:speciality": "Shoulder;Knee_and_Sport_Injuries_Surgeon",
          "name": "Aadhya Orthopaedic and Physiotherapy Care",
          "website": "https://www.jointsandphysiocare.in/"
        }
      },
      {
        "type": "node",
        "id": 8378425319,
        "lat": 18.5293438,
        "lon": 73.8580109,
        "tags": {
          "amenity": "bank",
          "branch": "COEP",
          "brand": "State Bank of India",
          "brand:wikidata": "Q1340361",
          "brand:wikipedia": "en:State Bank of India",
          "name": "State Bank of India",
          "short_name": "SBI"
        }
      },
      {
        "type": "node",
        "id": 8441743015,
        "lat": 18.5284491,
        "lon": 73.8427597,
        "tags": {
          "amenity": "restaurant",
          "cuisine": "indian",
          "name": "Lalit Mahal",
          "name:mr": "\u0932\u0932\u0940\u0924 \u092e\u0939\u093e\u0932"
        }
      },
      {
        "type": "node",
        "id": 9540524047,
        "lat": 18.5330242,
        "lon": 73.8473745,
        "tags": {
          "addr:city": "Pune",
          "addr:street": "K. B. Joshi Path",
          "amenity": "clinic",
          "healthcare": "clinic",
          "healthcare:speciality": "cardiology",
          "name": "Dr. Gadkari Cardiac clinic",
          "opening_hours": "Mo,We,Fr 12:00-14:30",
          "phone": "+919673338046"
        }
      },
      {
        "type": "node",
        "id": 10016387159,
        "lat": 18.5307236,
        "lon": 73.8443037,
        "tags": {
          "leisure": "playground"
        }
      },
      {
        "type": "node",
        "id": 10054090699,
        "lat": 18.5313119,
        "lon": 73.8443862,
        "tags": {
          "amenity": "bank",
          "brand": "State Bank of India",
          "brand:wikidata": "Q1340361",
          "name": "State Bank of India",
          "short_name": "SBI"
        }
      },
      {
        "type": "node",
        "id": 10172977859,
        "lat": 18.5318931,
        "lon": 73.8472769,
        "tags": {
          "amenity": "hospital",
          "healthcare": "hospital",
          "name": "Oyster and Pearl Hospital"
        }
      },
      {
        "type": "node",
        "id": 10564329793,
        "lat": 18.5262983,
        "lon": 73.8518531,
        "tags": {
          "addr:city": "Pune",
          "addr:housenumber": "403, Varun Capital, Off,",
          "addr:postcode": "411005",
          "addr:street": "Jangali Maharaj Rd, near Hotel Sudama, JM Road",
          "amenity": "clinic",
          "healthcare": "clinic",
          "healthcare:speciality": "cardiology",
          "name": "Ishwar Heart Clinic"
        }
      },
      {
        "type": "node",
        "id": 10956621505,
        "lat": 18.5285908,
        "lon": 73.8432854,
        "tags": {
          "amenity": "bank",
          "email": "bom1144@mahabank.co.in",
          "name:en": "Bank of Maharashtra Overseas Branch",
          "phone": "917030924113"
        }
      },
      {
        "type": "node",
        "id": 10956621605,
        "lat": 18.5302971,
        "lon": 73.8438489,
        "tags": {
          "addr:street": "Gopal Krushna Gokhale Path",
          "amenity": "restaurant",
          "name:en": "Yana Sizzlers & Wok"
        }
      },
      {
        "type": "node",
        "id": 11098863370,
        "lat": 18.5259864,
        "lon": 73.8539593,
        "tags": {
          "leisure": "park",
          "name": "test park"
        }
      },
      {
        "type": "node",
        "id": 11104697380,
        "lat": 18.525725,
        "lon": 73.8535881,
        "tags": {
          "amenity": "cafe",
          "name": "test cafe"
        }
      },
      {
        "type": "node",
        "id": 11104701792,
        "lat": 18.5255793,
        "lon": 73.8539506,
        "tags": {
          "amenity": "hospital",
          "healthcare": "hospital",
          "name": "test hospital"
        }
      },
      {
        "type": "node",
        "id": 11104739136,
        "lat": 18.5255917,
        "lon": 73.8540552,
        "tags": {
          "amenity": "restaurant",
          "name": "test rest"
        }
      },
      {
        "type": "node",
        "id": 11363285158,
        "lat": 18.5231358,
        "lon": 73.8476316,
        "tags": {
          "amenity": "fast_food",
          "check_date": "2023-11-20",
          "cuisine": "paan"
        }
      },
      {
        "type": "node",
        "id": 11363349548,
        "lat": 18.5229261,
        "lon": 73.8474846,
        "tags": {
          "air_conditioning": "yes",
          "amenity": "restaurant",
          "cuisine": "mutton",
          "name": "Sandeep",
          "name:mr": "\u0938\u0902\u0926\u0940\u092a",
          "outdoor_seating": "yes"
        }
      },
      {
        "type": "node",
        "id": 11766669869,
        "lat": 18.5225079,
        "lon": 73.849542,
        "tags": {
          "amenity": "restaurant",
          "name": "Joshi wadewale"
        }
      },
      {
        "type": "node",
        "id": 11819983331,
        "lat": 18.5289906,
        "lon": 73.8527179,
        "tags": {
          "addr:city": "Pune",
          "addr:district": "Pune",
          "addr:postcode": "411005",
          "addr:street": "Dr. Rajendra Prasad Path",
          "amenity": "bank",
          "branch": "Pune Main Branch",
          "brand": "Federal Bank",
          "brand:wikidata": "Q2044983",
          "name": "Federal Bank"
        }
      },
      {
        "type": "node",
        "id": 11909388851,
        "lat": 18.5376938,
        "lon": 73.8515302,
        "tags": {
          "addr:city": "Pune",
          "addr:district": "Wakadewadi",
          "addr:postcode": "411003",
          "addr:street": "Old Pune\u2013Mumbai Highway",
          "amenity": "hospital",
          "emergency": "yes",
          "healthcare": "hospital",
          "healthcare:speciality": "skin_specialties",
          "name": "Dr. Rajendra Mehata Hospital"
        }
      },
      {
        "type": "node",
        "id": 12802005129,
        "lat": 18.5232985,
        "lon": 73.8474067,
        "tags": {
          "amenity": "restaurant",
          "check_date": "2025-05-01",
          "cuisine": "indian",
          "diet:vegetarian": "yes",
          "name": "Athavale Silver Leaf",
          "payment:cash": "yes",
          "payment:credit_cards": "yes",
          "payment:debit_cards": "yes",
          "wheelchair": "no"
        }
      },
      {
        "type": "node",
        "id": 12802015306,
        "lat": 18.5233494,
        "lon": 73.8472044,
        "tags": {
          "amenity": "restaurant",
          "check_date": "2025-05-01",
          "cuisine": "indian",
          "diet:vegetarian": "yes",
          "name": "Naivaidya",
          "payment:cash": "yes",
          "payment:credit_cards": "yes",
          "payment:debit_cards": "yes",
          "wheelchair": "no"
        }
      },
      {
        "type": "node",
        "id": 12802031071,
        "lat": 18.5234836,
        "lon": 73.8470197,
        "tags": {
          "amenity": "restaurant",
          "cuisine": "indian",
          "diet:vegetarian": "yes",
          "name": "parampara"
        }
      },
      {
        "type": "node",
        "id": 13105293982,
        "lat": 18.5225423,
        "lon": 73.851787,
        "tags": {
          "addr:city": "Pune",
          "addr:district": "Pune",
          "addr:housenumber": "778/B-1",
          "addr:postcode": "411005",
          "addr:street": "Abhinav Apartments, Next to Congress House, Shivaji Nagar",
          "amenity": "clinic",
          "healthcare": "clinic",
          "name": "The Urology Clinic | Dr. Ketan Pai",
          "operator": "Novosalus Technology",
          "operator:type": "private"
        }
      }
    ]
  },
  "pois_2_5km": {
    "version": 0.6,
    "generator": "Overpass API 0.7.62.8 e802775f",
    "osm3s": {
      "timestamp_osm_base": "2025-09-07T11:20:24Z",
      "copyright": "The data included in this document is from www.openstreetmap.org. The data is made available under ODbL."
    },
    "elements": [
      {
        "type": "node",
        "id": 248156037,
        "lat": 18.5133826,
        "lon": 73.8411516,
        "tags": {
          "bus": "yes",
          "highway": "bus_stop",
          "name": "Deccan Corner",
          "name:mr": "\u0921\u0947\u0915\u094d\u0915\u0928 \u0915\u0949\u0930\u094d\u0928\u0930",
          "public_transport": "stop_position"
        }
      },
      {
        "type": "node",
        "id": 508047952,
        "lat": 18.5378515,
        "lon": 73.8355739,
        "tags": {
          "addr:city": "Pune",
          "addr:district": "Pune",
          "addr:postcode": "411016",
          "addr:street": "Ganeshkhind Road",
          "air_conditioning": "yes",
          "amenity": "cinema",
          "cinema:3D": "yes",
          "deaf:description:en": "This cinema regularily offers movies with subtitles",
          "description": "One of the very first multi-plex cinemas to open in Pune.",
          "drive_in": "no",
          "lift_gate:type": "double",
          "name": "E-Square Multiplex",
          "open_air": "no",
          "opening_hours": "Mo-Su 08:00-22:00",
          "operator": "E Square",
          "payment:cash": "yes",
          "payment:credit_cards": "yes",
          "payment:debit_cards": "yes",
          "payment:online_payment": "yes",
          "payment:online_wallet": "yes",
          "screen": "6",
          "website": "https://in.bookmyshow.com/pune/cinemas/esquare-carnival-university-road/CLAC",
          "wheelchair": "yes",
          "wikimedia_commons": "File:Esquare3.jpg"
        }
      },
      {
        "type": "node",
        "id": 633121822,
        "lat": 18.5211848,
        "lon": 73.8647837,
        "tags": {
          "bus": "yes",
          "highway": "bus_stop",
          "name": "Raste Wada",
          "name:mr": "\u0930\u093e\u0938\u094d\u0924\u0947 \u0935\u093e\u0921\u093e",
          "public_transport": "stop_position"
        }
      },
      {
        "type": "node",
        "id": 672219354,
        "lat": 18.5244565,
        "lon": 73.8721359,
        "tags": {
          "bus": "yes",
          "highway": "bus_stop",
          "name": "Collector Kacheri",
          "name:mr": "\u0915\u0932\u0947\u0915\u094d\u091f\u0930 \u0915\u091a\u0947\u0930\u0940",
          "public_transport": "stop_position"
        }
      },
      {
        "type": "node",
        "id": 672220644,
        "lat": 18.5244012,
        "lon": 73.8716998,
        "tags": {
          "bus": "yes",
          "highway": "bus_stop",
          "name": "Collector Kacheri",
          "name:mr": "\u0915\u0932\u0947\u0915\u094d\u091f\u0930 \u0915\u091a\u0947\u0930\u0940",
          "public_transport": "stop_position"
        }
      },
      {
        "type": "node",
        "id": 763549837,
        "lat": 18.5325915,
        "lon": 73.8513115,
        "tags": {
          "internet_access": "no",
          "name": "Shivajinagar",
          "name:mr": "\u0936\u093f\u0935\u093e\u091c\u0940\u0928\u0917\u0930",
          "network": "IR",
          "operator": "CR",
          "public_transport": "station",
          "railway": "station",
          "ref": "SVJR",
          "train": "yes",
          "wikidata": "Q14475834",
          "wikimedia_commons": "File:Shivajinagar Pune railway station illuminated.jpg",
          "wikipedia": "en:Shivajinagar railway station"
        }
      },
      {
        "type": "node",
        "id": 1455235579,
        "lat": 18.5123529,
        "lon": 73.838844,
        "tags": {
          "bus": "yes",
          "highway": "bus_stop",
          "name": "Garware Mahavidyalay",
          "name:mr": "\u0917\u0930\u0935\u093e\u0930\u0947 \u092e\u0939\u093e\u0935\u093f\u0926\u094d\u092f\u093e\u0932\u092f",
          "public_transport": "stop_position"
        }
      },
      {
        "type": "node",
        "id": 1534501626,
        "lat": 18.51645,
        "lon": 73.8423388,
        "tags": {
          "amenity": "cinema",
          "name": "R Deccan Multiplex",
          "source": "local"
        }
      },
      {
        "type": "node",
        "id": 1534503367,
        "lat": 18.517035,
        "lon": 73.8419687,
        "tags": {
          "amenity": "fuel",
          "brand": "Hindustan Petroleum",
          "brand:wikidata": "Q1619375",
          "name": "HP",
          "official_name": "Hindustan Petroleum",
          "operator": "HP"
        }
      },
      {
        "type": "node",
        "id": 1645621321,
        "lat": 18.5230248,
        "lon": 73.8534229,
        "tags": {
          "amenity": "bus_station",
          "bus": "yes",
          "internet_access": "no",
          "name": "Manapa Bhavan",
          "name:mr": "\u092e\u0928\u092a\u093e \u092d\u0935\u0928",
          "network": "PMPML",
          "operator": "PMPML",
          "public_transport": "station"
        }
      },
      {
        "type": "node",
        "id": 2085669844,
        "lat": 18.5128652,
        "lon": 73.8397526,
        "tags": {
          "bus": "yes",
          "highway": "bus_stop",
          "name": "Garware Mahavidyalay",
          "name:mr": "\u0917\u0930\u0935\u093e\u0930\u0947 \u092e\u0939\u093e\u0935\u093f\u0926\u094d\u092f\u093e\u0932\u092f",
          "public_transport": "stop_position"
        }
      },
      {
        "type": "node",
        "id": 2085669850,
        "lat": 18.513455,
        "lon": 73.8410905,
        "tags": {
          "bus": "yes",
          "highway": "bus_stop",
          "name": "Deccan Corner",
          "name:mr": "\u0921\u0947\u0915\u094d\u0915\u0928 \u0915\u0949\u0930\u094d\u0928\u0930",
          "public_transport": "stop_position"
        }
      },
      {
        "type": "node",
        "id": 2257797414,
        "lat": 18.5291657,
        "lon": 73.8733305,
        "tags": {
          "name": "Pune Junction",
          "name:mr": "\u092a\u0941\u0923\u0947 \u091c\u0902\u0915\u094d\u0936\u0928",
          "public_transport": "stop_position",
          "ref": "2",
          "train": "yes"
        }
      },
      {
        "type": "node",
        "id": 2257797442,
        "lat": 18.5293602,
        "lon": 73.8733199,
        "tags": {
          "name": "Pune Junction",
          "name:mr": "\u092a\u0941\u0923\u0947 \u091c\u0902\u0915\u094d\u0936\u0928",
          "public_transport": "stop_position",
          "ref": "3",
          "train": "yes"
        }
      },
      {
        "type": "node",
        "id": 2257797444,
        "lat": 18.52937,
        "lon": 73.8726619,
        "tags": {
          "name": "Pune Junction",
          "name:mr": "\u092a\u0941\u0923\u0947 \u091c\u0902\u0915\u094d\u0936\u0928",
          "public_transport": "stop_position",
          "ref": "4",
          "train": "yes"
        }
      },
      {
        "type": "node",
        "id": 2257797462,
        "lat": 18.5294921,
        "lon": 73.8726591,
        "tags": {
          "name": "Pune Junction",
          "name:mr": "\u092a\u0941\u0923\u0947 \u091c\u0902\u0915\u094d\u0936\u0928",
          "public_transport": "stop_position",
          "ref": "5",
          "train": "yes"
        }
      },
      {
        "type": "node",
        "id": 2257797466,
        "lat": 18.5295338,
        "lon": 73.8726575,
        "tags": {
          "name": "Pune Junction",
          "name:mr": "\u092a\u0941\u0923\u0947 \u091c\u0902\u0915\u094d\u0936\u0928",
          "public_transport": "stop_position",
          "ref": "6",
          "train": "yes"
        }
      },
      {
        "type": "node",
        "id": 2259729638,
        "lat": 18.5159878,
        "lon": 73.8591744,
        "tags": {
          "bus": "yes",
          "highway": "bus_stop",
          "name": "Sonya Maruti Chowk",
          "name:mr": "\u0938\u094b\u0928\u094d\u092f\u093e \u092e\u093e\u0930\u0941\u0924\u0940 \u091a\u094c\u0915",
          "public_transport": "stop_position"
        }
      },
      {
        "type": "node",
        "id": 2259729678,
        "lat": 18.5204468,
        "lon": 73.8674762,
        "tags": {
          "bus": "yes",
          "highway": "bus_stop",
          "name": "KEM Hospital",
          "name:mr": "\u0915\u0947\u0908\u090f\u092e \u0930\u0941\u0917\u094d\u0923\u093e\u0932\u092f",
          "public_transport": "stop_position"
        }
      },
      {
        "type": "node",
        "id": 2266620664,
        "lat": 18.5223321,
        "lon": 73.8663642,
        "tags": {
          "bus": "yes",
          "highway": "bus_stop",
          "name": "15 August Chowk",
          "name:mr": "\u0967\u096b \u0911\u0917\u0938\u094d\u091f \u091a\u094c\u0915",
          "public_transport": "stop_position"
        }
      },
      {
        "type": "node",
        "id": 2270270792,
        "lat": 18.5325687,
        "lon": 73.8513783,
        "tags": {
          "name": "Shivajinagar",
          "public_transport": "stop_position",
          "ref": "2",
          "train": "yes"
        }
      },
      {
        "type": "node",
        "id": 2270270796,
        "lat": 18.5326241,
        "lon": 73.8515102,
        "tags": {
          "name": "Shivajinagar",
          "public_transport": "stop_position",
          "railway": "stop",
          "ref": "1",
          "train": "yes"
        }
      },
      {
        "type": "node",
        "id": 2358247540,
        "lat": 18.5136511,
        "lon": 73.8528438,
        "tags": {
          "bus": "yes",
          "highway": "bus_stop",
          "name": "Vishrambag Wada",
          "name:mr": "\u0935\u093f\u0936\u094d\u0930\u093e\u092e\u092c\u093e\u0917\u0935\u093e\u0921\u093e",
          "operator": "PMPML",
          "public_transport": "stop_position"
        }
      },
      {
        "type": "node",
        "id": 2864314826,
        "lat": 18.5128912,
        "lon": 73.8447895,
        "tags": {
          "bus": "yes",
          "highway": "bus_stop",
          "name": "Alka Talkies",
          "name:mr": "\u0905\u0932\u0915\u093e \u091f\u0949\u0915\u0940\u091c",
          "public_transport": "stop_position"
        }
      },
      {
        "type": "node",
        "id": 2864314827,
        "lat": 18.5133175,
        "lon": 73.8449935,
        "tags": {
          "bus": "yes",
          "highway": "bus_stop",
          "name": "Alka Talkies",
          "name:mr": "\u0905\u0932\u0915\u093e \u091f\u0949\u0915\u0940\u091c",
          "public_transport": "stop_position"
        }
      },
      {
        "type": "node",
        "id": 2864314829,
        "lat": 18.5241044,
        "lon": 73.8674666,
        "tags": {
          "bus": "yes",
          "highway": "bus_stop",
          "name": "Ambedkar Bhavan",
          "name:mr": "\u0906\u0902\u092c\u0947\u0921\u0915\u0930 \u092d\u0935\u0928",
          "public_transport": "stop_position"
        }
      },
      {
        "type": "node",
        "id": 2864314835,
        "lat": 18.5194896,
        "lon": 73.8645808,
        "tags": {
          "bus": "yes",
          "highway": "bus_stop",
          "name": "Apollo Talkies",
          "name:mr": "\u0905\u092a\u094b\u0932\u094b \u091f\u0949\u0915\u0940\u091c",
          "public_transport": "stop_position"
        }
      },
      {
        "type": "node",
        "id": 2864314836,
        "lat": 18.5148942,
        "lon": 73.8537471,
        "tags": {
          "bus": "yes",
          "highway": "bus_stop",
          "name": "Appa Balwant Chowk (Hujurpaga)",
          "name:mr": "\u0905\u092a\u094d\u092a\u093e \u092c\u0933\u0935\u0902\u0924 \u091a\u094c\u0915 (\u0939\u0941\u091c\u0942\u0930\u092a\u093e\u0917\u093e)",
          "public_transport": "stop_position"
        }
      },
      {
        "type": "node",
        "id": 2864314837,
        "lat": 18.5130861,
        "lon": 73.8467444,
        "tags": {
          "bus": "yes",
          "highway": "bus_stop",
          "name": "Chitrashala",
          "name:mr": "\u091a\u093f\u0924\u094d\u0930\u0936\u093e\u0933\u093e",
          "public_transport": "stop_position"
        }
      },
      {
        "type": "node",
        "id": 2864314839,
        "lat": 18.5157161,
        "lon": 73.8566591,
        "tags": {
          "bus": "yes",
          "highway": "bus_stop",
          "name": "City Post",
          "name:mr": "\u0938\u093f\u091f\u0940 \u092a\u094b\u0938\u094d\u091f",
          "public_transport": "stop_position"
        }
      },
      {
        "type": "node",
        "id": 2864314840,
        "lat": 18.5143807,
        "lon": 73.8515993,
        "tags": {
          "bus": "yes",
          "highway": "bus_stop",
          "name": "Commonwealth",
          "name:mr": "\u0915\u0949\u092e\u0928\u0935\u0947\u0932\u094d\u0925",
          "public_transport": "stop_position"
        }
      },
      {
        "type": "node",
        "id": 2864314842,
        "lat": 18.517793,
        "lon": 73.8539774,
        "tags": {
          "bus": "yes",
          "highway": "bus_stop",
          "name": "Dakshinmukhi Maruti",
          "name:mr": "\u0926\u0915\u094d\u0937\u093f\u0923\u092e\u0941\u0916\u0940 \u092e\u093e\u0930\u0941\u0924\u0940",
          "public_transport": "stop_position"
        }
      },
      {
        "type": "node",
        "id": 2864314847,
        "lat": 18.5149638,
        "lon": 73.8549032,
        "tags": {
          "bus": "yes",
          "highway": "bus_stop",
          "name": "Ganpati Chowk",
          "name:mr": "\u0917\u0923\u092a\u0924\u0940 \u091a\u094c\u0915",
          "public_transport": "stop_position"
        }
      },
      {
        "type": "node",
        "id": 2864314849,
        "lat": 18.5140682,
        "lon": 73.8491322,
        "tags": {
          "bus": "yes",
          "highway": "bus_stop",
          "name": "Gokhale Hall",
          "name:mr": "\u0917\u094b\u0916\u0932\u0947 \u0939\u0949\u0932",
          "public_transport": "stop_position"
        }
      },
      {
        "type": "node",
        "id": 2864314855,
        "lat": 18.5234025,
        "lon": 73.8692408,
        "tags": {
          "bus": "yes",
          "highway": "bus_stop",
          "name": "Jilha Parishad",
          "name:mr": "\u091c\u093f\u0932\u094d\u0939\u093e \u092a\u0930\u093f\u0937\u0926",
          "public_transport": "stop_position"
        }
      },
      {
        "type": "node",
        "id": 2864314856,
        "lat": 18.5205286,
        "lon": 73.8558408,
        "tags": {
          "bus": "yes",
          "highway": "bus_stop",
          "name": "Kasba Peth Police Chowki",
          "name:mr": "\u0915\u0938\u092c\u093e \u092a\u0947\u0920 \u092a\u094b\u0932\u0940\u0938 \u091a\u094c\u0915\u0940",
          "public_transport": "stop_position"
        }
      },
      {
        "type": "node",
        "id": 2864314858,
        "lat": 18.5185508,
        "lon": 73.8566475,
        "tags": {
          "bus": "yes",
          "highway": "bus_stop",
          "name": "Lal Mahal",
          "name:mr": "\u0932\u093e\u0932 \u092e\u0939\u093e\u0932",
          "public_transport": "stop_position"
        }
      },
      {
        "type": "node",
        "id": 2864314869,
        "lat": 18.5188684,
        "lon": 73.8601444,
        "tags": {
          "bus": "yes",
          "highway": "bus_stop",
          "name": "Phadke Houd",
          "name:mr": "\u092b\u0921\u0915\u0947 \u0939\u094c\u0926",
          "public_transport": "stop_position"
        }
      },
      {
        "type": "node",
        "id": 2864314871,
        "lat": 18.5276102,
        "lon": 73.872967,
        "tags": {
          "bus": "yes",
          "highway": "bus_stop",
          "name": "Pune Station Bus Stand",
          "name:mr": "\u092a\u0941\u0923\u0947 \u0938\u094d\u091f\u0947\u0936\u0928 \u092c\u0938 \u0938\u094d\u0925\u093e\u0928\u0915",
          "public_transport": "stop_position"
        }
      },
      {
        "type": "node",
        "id": 2864314874,
        "lat": 18.5135108,
        "lon": 73.8506376,
        "tags": {
          "bus": "yes",
          "highway": "bus_stop",
          "name": "Sadashiv Peth Houd",
          "name:mr": "\u0938\u0926\u093e\u0936\u093f\u0935 \u092a\u0947\u0920 \u0939\u094c\u0926",
          "public_transport": "stop_position"
        }
      },
      {
        "type": "node",
        "id": 2864314878,
        "lat": 18.525038,
        "lon": 73.8715737,
        "tags": {
          "bus": "yes",
          "highway": "bus_stop",
          "name": "Sassoon Hospital",
          "name:mr": "\u0938\u0938\u0942\u0928 \u0930\u0941\u0917\u094d\u0923\u093e\u0932\u092f",
          "public_transport": "stop_position"
        }
      },
      {
        "type": "node",
        "id": 2864314879,
        "lat": 18.5196781,
        "lon": 73.8544934,
        "tags": {
          "bus": "yes",
          "highway": "bus_stop",
          "name": "Shaniwarwada",
          "name:mr": "\u0936\u0928\u093f\u0935\u093e\u0930\u0935\u093e\u0921\u093e",
          "public_transport": "stop_position"
        }
      },
      {
        "type": "node",
        "id": 2864314886,
        "lat": 18.5137283,
        "lon": 73.8461613,
        "tags": {
          "bus": "yes",
          "highway": "bus_stop",
          "name": "Vijay Talkies",
          "name:mr": "\u0935\u093f\u091c\u092f \u091f\u0949\u0915\u0940\u091c",
          "public_transport": "stop_position"
        }
      },
      {
        "type": "node",
        "id": 2870389529,
        "lat": 18.5134183,
        "lon": 73.8443831,
        "tags": {
          "bus": "yes",
          "highway": "bus_stop",
          "name": "Alka Talkies",
          "name:mr": "\u0905\u0932\u0915\u093e \u091f\u0949\u0915\u0940\u091c",
          "public_transport": "stop_position"
        }
      },
      {
        "type": "node",
        "id": 2870389530,
        "lat": 18.5164089,
        "lon": 73.8531058,
        "tags": {
          "bus": "yes",
          "highway": "bus_stop",
          "name": "Appa Balwant Chowk",
          "name:mr": "\u0905\u092a\u094d\u092a\u093e \u092c\u0933\u0935\u0902\u0924 \u091a\u094c\u0915",
          "public_transport": "stop_position"
        }
      },
      {
        "type": "node",
        "id": 2870389537,
        "lat": 18.5164014,
        "lon": 73.8508112,
        "tags": {
          "bus": "yes",
          "highway": "bus_stop",
          "name": "Kanyashala",
          "name:mr": "\u0915\u0928\u094d\u092f\u093e\u0936\u093e\u0933\u093e",
          "public_transport": "stop_position"
        }
      },
      {
        "type": "node",
        "id": 2870389540,
        "lat": 18.516199,
        "lon": 73.8490922,
        "tags": {
          "bus": "yes",
          "highway": "bus_stop",
          "name": "Kesariwada",
          "name:mr": "\u0915\u0947\u0938\u0930\u0940\u0935\u093e\u0921\u093e",
          "public_transport": "stop_position"
        }
      },
      {
        "type": "node",
        "id": 2870389543,
        "lat": 18.5157742,
        "lon": 73.8467218,
        "tags": {
          "bus": "yes",
          "highway": "bus_stop",
          "name": "Mati Ganapati",
          "name:mr": "\u092e\u093e\u0924\u0940 \u0917\u0923\u092a\u0924\u0940",
          "public_transport": "stop_position"
        }
      },
      {
        "type": "node",
        "id": 2870389545,
        "lat": 18.5160293,
        "lon": 73.8475116,
        "tags": {
          "bus": "yes",
          "highway": "bus_stop",
          "name": "Mati Ganapati",
          "name:mr": "\u092e\u093e\u0924\u0940 \u0917\u0923\u092a\u0924\u0940",
          "public_transport": "stop_position"
        }
      },
      {
        "type": "node",
        "id": 2870389546,
        "lat": 18.5183421,
        "lon": 73.8562164,
        "tags": {
          "bus": "yes",
          "highway": "bus_stop",
          "name": "Nana Wada",
          "name:mr": "\u0928\u093e\u0928\u093e \u0935\u093e\u0921\u093e",
          "public_transport": "stop_position",
          "wheelchair": "yes"
        }
      },
      {
        "type": "node",
        "id": 2870389551,
        "lat": 18.5175013,
        "lon": 73.8562412,
        "tags": {
          "bus": "yes",
          "highway": "bus_stop",
          "name": "Vasant Talkies",
          "name:mr": "\u0935\u0938\u0902\u0924 \u091f\u0949\u0915\u0940\u091c",
          "public_transport": "stop_position"
        }
      },
      {
        "type": "node",
        "id": 4678212190,
        "lat": 18.5225285,
        "lon": 73.8666574,
        "tags": {
          "amenity": "fuel",
          "brand": "Indian Oil",
          "brand:wikidata": "Q1289348",
          "name": "Indian Oil"
        }
      },
      {
        "type": "node",
        "id": 5573156998,
        "lat": 18.5214448,
        "lon": 73.8595458,
        "tags": {
          "name": "\u0915\u0938\u092c\u093e \u092a\u0947\u0920",
          "name:en": "Kasba Peth",
          "name:mr": "\u0915\u0938\u092c\u093e \u092a\u0947\u0920",
          "operator": "MahaMetro",
          "public_transport": "stop_position",
          "railway": "stop",
          "subway": "yes"
        }
      },
      {
        "type": "node",
        "id": 5573167974,
        "lat": 18.5120038,
        "lon": 73.8380406,
        "tags": {
          "layer": "2",
          "name": "Garware College",
          "name:mr": "\u0917\u0930\u0935\u093e\u0930\u0947 \u092e\u0939\u093e\u0935\u093f\u0926\u094d\u092f\u093e\u0932\u092f",
          "operator": "MahaMetro",
          "public_transport": "stop_position",
          "railway": "stop",
          "subway": "yes"
        }
      },
      {
        "type": "node",
        "id": 6377306150,
        "lat": 18.5311165,
        "lon": 73.8556592,
        "tags": {
          "amenity": "theatre",
          "name": "Mini Auditorium COEP"
        }
      },
      {
        "type": "node",
        "id": 7596799204,
        "lat": 18.5434148,
        "lon": 73.8523989,
        "tags": {
          "amenity": "bus_station",
          "bus": "yes",
          "name": "New Wakadewadi MSRTC Bus Stand",
          "network": "MSRTC",
          "operator": "MSRTC",
          "public_transport": "station"
        }
      },
      {
        "type": "node",
        "id": 7611940234,
        "lat": 18.5164368,
        "lon": 73.8429948,
        "tags": {
          "bus": "yes",
          "name": "Deccan Bus Stop Lane 1",
          "network": "PMPML",
          "operator": "PMPML",
          "public_transport": "stop_position",
          "ref": "1",
          "wikidata": "Q7260109",
          "wikimedia_commons": "Category:Pune Mahanagar Parivahan Mahamandal Limited",
          "wikipedia": "en:Pune Mahanagar Parivahan Mahamandal Limited"
        }
      },
      {
        "type": "node",
        "id": 7611940240,
        "lat": 18.5163631,
        "lon": 73.8431113,
        "tags": {
          "bus": "yes",
          "name": "Deccan Bus Stop Lane 2",
          "network": "PMPML",
          "operator": "PMPML",
          "public_transport": "stop_position",
          "ref": "2",
          "wikidata": "Q7260109",
          "wikimedia_commons": "Category:Pune Mahanagar Parivahan Mahamandal Limited",
          "wikipedia": "en:Pune Mahanagar Parivahan Mahamandal Limited"
        }
      },
      {
        "type": "node",
        "id": 7611940241,
        "lat": 18.5163263,
        "lon": 73.8431823,
        "tags": {
          "bus": "yes",
          "name": "Deccan Bus Stop Lane 3",
          "network": "PMPML",
          "operator": "PMPML",
          "public_transport": "stop_position",
          "ref": "3",
          "wikidata": "Q7260109",
          "wikimedia_commons": "Category:Pune Mahanagar Parivahan Mahamandal Limited",
          "wikipedia": "en:Pune Mahanagar Parivahan Mahamandal Limited"
        }
      },
      {
        "type": "node",
        "id": 7611940242,
        "lat": 18.5162657,
        "lon": 73.8432985,
        "tags": {
          "bus": "yes",
          "name": "Deccan Bus Stop Lane 4",
          "network": "PMPML",
          "operator": "PMPML",
          "public_transport": "stop_position",
          "ref": "4",
          "wikidata": "Q7260109",
          "wikimedia_commons": "Category:Pune Mahanagar Parivahan Mahamandal Limited",
          "wikipedia": "en:Pune Mahanagar Parivahan Mahamandal Limited"
        }
      },
      {
        "type": "node",
        "id": 7611940243,
        "lat": 18.5162088,
        "lon": 73.8433994,
        "tags": {
          "bus": "yes",
          "name": "Deccan Bus Stop Lane 5",
          "network": "PMPML",
          "operator": "PMPML",
          "public_transport": "stop_position",
          "ref": "5",
          "wikidata": "Q7260109",
          "wikimedia_commons": "Category:Pune Mahanagar Parivahan Mahamandal Limited",
          "wikipedia": "en:Pune Mahanagar Parivahan Mahamandal Limited"
        }
      },
      {
        "type": "node",
        "id": 7615324875,
        "lat": 18.5338511,
        "lon": 73.8602685,
        "tags": {
          "amenity": "bus_station",
          "bus": "yes",
          "internet_access": "no",
          "name": "PMPML Bus Parking",
          "network": "PMPML",
          "operator": "PMPML",
          "public_transport": "station",
          "wikidata": "Q7260109",
          "wikimedia_commons": "Category:Pune Mahanagar Parivahan Mahamandal Limited",
          "wikipedia": "en:Pune Mahanagar Parivahan Mahamandal Limited"
        }
      },
      {
        "type": "node",
        "id": 7822566346,
        "lat": 18.5317393,
        "lon": 73.8511513,
        "tags": {
          "bus": "yes",
          "name": "Shivajinagar Railway Station",
          "network": "PMPML",
          "operator": "PMPML",
          "public_transport": "stop_position",
          "wikidata": "Q7260109",
          "wikimedia_commons": "Category:Pune Mahanagar Parivahan Mahamandal Limited",
          "wikipedia": "en:Pune Mahanagar Parivahan Mahamandal Limited"
        }
      },
      {
        "type": "node",
        "id": 7822586029,
        "lat": 18.5317577,
        "lon": 73.8510245,
        "tags": {
          "bus": "yes",
          "name": "Shivajinagar Railway Station",
          "network": "PMPML",
          "operator": "PMPML",
          "public_transport": "stop_position",
          "wikidata": "Q7260109",
          "wikimedia_commons": "Category:Pune Mahanagar Parivahan Mahamandal Limited",
          "wikipedia": "en:Pune Mahanagar Parivahan Mahamandal Limited"
        }
      },
      {
        "type": "node",
        "id": 7944584968,
        "lat": 18.5164352,
        "lon": 73.8444017,
        "tags": {
          "layer": "2",
          "name": "Deccan Gymkhana",
          "name:mr": "\u0921\u0947\u0915\u094d\u0915\u0928 \u091c\u093f\u092e\u0916\u093e\u0928\u093e",
          "operator": "MahaMetro",
          "public_transport": "stop_position",
          "railway": "stop",
          "subway": "yes"
        }
      },
      {
        "type": "node",
        "id": 7944584974,
        "lat": 18.5300875,
        "lon": 73.8654426,
        "tags": {
          "name": "Mangalwar Peth",
          "name:mr": "\u092e\u0902\u0917\u0933\u0935\u093e\u0930 \u092a\u0947\u0920",
          "network": "Pune Metro",
          "network:wikidata": "Q3595697",
          "operator": "Maha Metro",
          "public_transport": "station",
          "railway": "station",
          "station": "subway",
          "subway": "yes",
          "wikidata": "Q28179679",
          "wikipedia": "en:Maha Metro"
        }
      },
      {
        "type": "node",
        "id": 7944584980,
        "lat": 18.5228092,
        "lon": 73.8533687,
        "tags": {
          "name": "PMC Bhavan",
          "name:mr": "\u092a\u0941\u0923\u0947 \u092e\u0928\u092a\u093e \u0938\u094d\u0925\u093e\u0928\u0915",
          "network": "Pune Metro",
          "network:wikidata": "Q3595697",
          "public_transport": "station",
          "railway": "station",
          "station": "subway",
          "subway": "yes"
        }
      },
      {
        "type": "node",
        "id": 7944597685,
        "lat": 18.5271448,
        "lon": 73.8580006,
        "tags": {
          "name": "District Court (Aqua Line)",
          "name:mr": "\u091c\u093f\u0932\u094d\u0939\u093e \u0928\u094d\u092f\u093e\u092f\u093e\u0932\u092f",
          "network": "Pune Metro",
          "network:wikidata": "Q3595697",
          "public_transport": "station",
          "railway": "station",
          "station": "subway",
          "subway": "yes"
        }
      },
      {
        "type": "node",
        "id": 7944597689,
        "lat": 18.529751,
        "lon": 73.872596,
        "tags": {
          "name": "Pune Railway Station",
          "name:mr": "\u092a\u0941\u0923\u0947 \u0930\u0947\u0932\u094d\u0935\u0947 \u0938\u094d\u091f\u0947\u0936\u0928",
          "network": "Pune Metro",
          "network:wikidata": "Q3595697",
          "public_transport": "station",
          "railway": "station",
          "station": "subway",
          "subway": "yes",
          "wikidata": "Q121161986"
        }
      },
      {
        "type": "node",
        "id": 7944597694,
        "lat": 18.5129081,
        "lon": 73.8569695,
        "tags": {
          "name": "\u092e\u0902\u0921\u0908",
          "name:en": "Mandai",
          "name:mr": "\u092e\u0902\u0921\u0908",
          "network": "Pune Metro",
          "network:wikidata": "Q3595697",
          "operator": "MahaMetro",
          "public_transport": "station",
          "railway": "station",
          "station": "subway",
          "subway": "yes",
          "wikidata": "Q130381236",
          "wikipedia": "en:Mandai metro station"
        }
      },
      {
        "type": "node",
        "id": 8945932610,
        "lat": 18.5204768,
        "lon": 73.8553024,
        "tags": {
          "air_conditioning": "no",
          "amenity": "theatre",
          "name": "Shaniwar Wada Amphitheatre",
          "name:mr": "\u0936\u0928\u093f\u0935\u093e\u0930\u0935\u093e\u0921\u093e \u0938\u092d\u093e\u0917\u0943\u0939",
          "theatre:type": "amphi"
        }
      },
      {
        "type": "node",
        "id": 9278157008,
        "lat": 18.5342436,
        "lon": 73.8296674,
        "tags": {
          "addr:city": "Pune",
          "addr:district": "Pune",
          "addr:postcode": "411016",
          "addr:street": "Senapati Bapat Marg",
          "air_conditioning": "yes",
          "amenity": "cinema",
          "brand": "PVR Cinemas",
          "brand:wikidata": "Q3359908",
          "brand:wikipedia": "en:PVR Cinemas",
          "check_date": "2023-01-03",
          "ele": "-1",
          "internet_access": "no",
          "name": "PVR Icon - Pavilion Mall",
          "name:en": "PVR Icon - Pavilion Mall",
          "opening_hours": "Mo-Su 09:00-21:00",
          "payment:electronic_purses": "yes",
          "payment:mastercard": "yes",
          "payment:visa": "yes",
          "phone": "0124 470 8100",
          "screen": "6",
          "short_name": "PVR",
          "website": "https://www.pvrcinemas.com/",
          "wheelchair": "yes"
        }
      },
      {
        "type": "node",
        "id": 9572608811,
        "lat": 18.5119737,
        "lon": 73.8380616,
        "tags": {
          "layer": "2",
          "name": "Garware College",
          "name:mr": "\u0917\u0930\u0935\u093e\u0930\u0947 \u092e\u0939\u093e\u0935\u093f\u0926\u094d\u092f\u093e\u0932\u092f",
          "operator": "MahaMetro",
          "public_transport": "stop_position",
          "railway": "stop",
          "subway": "yes"
        }
      },
      {
        "type": "node",
        "id": 9599243857,
        "lat": 18.5119886,
        "lon": 73.8380505,
        "tags": {
          "name": "Garware College",
          "name:mr": "\u0917\u0930\u0935\u093e\u0930\u0947 \u092e\u0939\u093e\u0935\u093f\u0926\u094d\u092f\u093e\u0932\u092f",
          "network": "Pune Metro",
          "network:wikidata": "Q3595697",
          "public_transport": "station",
          "railway": "station",
          "station": "subway",
          "subway": "yes"
        }
      },
      {
        "type": "node",
        "id": 10097460085,
        "lat": 18.5189771,
        "lon": 73.8304638,
        "tags": {
          "amenity": "charging_station",
          "brand": "Ather Energy",
          "operator": "Ather Energy",
          "scooter": "yes"
        }
      },
      {
        "type": "node",
        "id": 10246145056,
        "lat": 18.5270136,
        "lon": 73.864765,
        "tags": {
          "bus": "yes",
          "highway": "bus_stop",
          "name": "Mangalwar Peth Gadital",
          "public_transport": "stop_position"
        }
      },
      {
        "type": "node",
        "id": 10246145057,
        "lat": 18.5270289,
        "lon": 73.8645385,
        "tags": {
          "bus": "yes",
          "highway": "bus_stop",
          "name": "Mangalwar Peth Gadital",
          "public_transport": "stop_position"
        }
      },
      {
        "type": "node",
        "id": 10684809536,
        "lat": 18.5395958,
        "lon": 73.8296779,
        "tags": {
          "bus": "yes",
          "name": "Chaturshrungi Mandir",
          "network": "PMPML",
          "operator": "PMPML",
          "public_transport": "stop_position",
          "wikidata": "Q7260109",
          "wikimedia_commons": "Category:Pune Mahanagar Parivahan Mahamandal Limited",
          "wikipedia": "en:Pune Mahanagar Parivahan Mahamandal Limited"
        }
      },
      {
        "type": "node",
        "id": 10725622460,
        "lat": 18.5281331,
        "lon": 73.8722527,
        "tags": {
          "amenity": "bus_station",
          "bus": "yes",
          "name": "MSRTC ST Pune Sation Bus Stand.",
          "public_transport": "station"
        }
      },
      {
        "type": "node",
        "id": 11097510270,
        "lat": 18.5321548,
        "lon": 73.8496014,
        "tags": {
          "layer": "2",
          "name": "Shivaji Nagar",
          "name:mr": "\u0936\u093f\u0935\u093e\u091c\u0940 \u0928\u0917\u0930",
          "operator": "MahaMetro",
          "public_transport": "stop_position",
          "railway": "stop",
          "subway": "yes"
        }
      },
      {
        "type": "node",
        "id": 11097510271,
        "lat": 18.532172,
        "lon": 73.8496602,
        "tags": {
          "name": "Shivaji Nagar",
          "name:mr": "\u0936\u093f\u0935\u093e\u091c\u0940 \u0928\u0917\u0930",
          "network": "Pune Metro",
          "network:wikidata": "Q3595697",
          "public_transport": "station",
          "railway": "station",
          "station": "subway",
          "subway": "yes",
          "wikidata": "Q121139922"
        }
      },
      {
        "type": "node",
        "id": 11097510272,
        "lat": 18.5321825,
        "lon": 73.849726,
        "tags": {
          "layer": "2",
          "name": "Shivaji Nagar",
          "name:mr": "\u0936\u093f\u0935\u093e\u091c\u0940 \u0928\u0917\u0930",
          "operator": "MahaMetro",
          "public_transport": "stop_position",
          "railway": "stop",
          "subway": "yes"
        }
      },
      {
        "type": "node",
        "id": 11097510273,
        "lat": 18.5267307,
        "lon": 73.856888,
        "tags": {
          "layer": "2",
          "name": "District Court",
          "name:fr": "Cour civile",
          "name:mr": "\u091c\u093f\u0932\u094d\u0939\u093e \u0928\u094d\u092f\u093e\u092f\u093e\u0932\u092f",
          "operator": "MahaMetro",
          "public_transport": "stop_position",
          "railway": "stop",
          "subway": "yes"
        }
      },
      {
        "type": "node",
        "id": 11097510274,
        "lat": 18.5292042,
        "lon": 73.8570209,
        "tags": {
          "name": "District Court",
          "name:en": "District Court",
          "name:mr": "\u091c\u093f\u0932\u094d\u0939\u093e \u0928\u094d\u092f\u093e\u092f\u093e\u0932\u092f",
          "network": "Pune Metro",
          "network:wikidata": "Q3595697",
          "public_transport": "station",
          "railway": "station",
          "station": "subway",
          "subway": "yes"
        }
      },
      {
        "type": "node",
        "id": 11097510275,
        "lat": 18.5268495,
        "lon": 73.8569149,
        "tags": {
          "layer": "2",
          "name": "District Court",
          "name:en": "District Court",
          "name:mr": "\u091c\u093f\u0932\u094d\u0939\u093e \u0928\u094d\u092f\u093e\u092f\u093e\u0932\u092f",
          "operator": "MahaMetro",
          "public_transport": "stop_position",
          "railway": "stop",
          "subway": "yes"
        }
      },
      {
        "type": "node",
        "id": 11097527713,
        "lat": 18.5297234,
        "lon": 73.872597,
        "tags": {
          "name": "Pune Railway Station",
          "name:mr": "\u092a\u0941\u0923\u0947 \u0930\u0947\u0932\u094d\u0935\u0947 \u0938\u094d\u091f\u0947\u0936\u0928",
          "operator": "MahaMetro",
          "public_transport": "stop_position",
          "railway": "stop",
          "subway": "yes"
        }
      },
      {
        "type": "node",
        "id": 11097527714,
        "lat": 18.5297781,
        "lon": 73.8725976,
        "tags": {
          "name": "Pune Railway Station",
          "name:mr": "\u092a\u0941\u0923\u0947 \u0930\u0947\u0932\u094d\u0935\u0947 \u0938\u094d\u091f\u0947\u0936\u0928",
          "operator": "MahaMetro",
          "public_transport": "stop_position",
          "railway": "stop",
          "subway": "yes"
        }
      },
      {
        "type": "node",
        "id": 11097527715,
        "lat": 18.5301112,
        "lon": 73.86544,
        "tags": {
          "layer": "2",
          "name": "Mangalwar Peth",
          "name:mr": "\u092e\u0902\u0917\u0933\u0935\u093e\u0930 \u092a\u0947\u0920",
          "operator": "MahaMetro",
          "public_transport": "stop_position",
          "railway": "stop",
          "subway": "yes"
        }
      },
      {
        "type": "node",
        "id": 11097527716,
        "lat": 18.5300697,
        "lon": 73.8654446,
        "tags": {
          "layer": "2",
          "name": "Mangalwar Peth",
          "name:mr": "\u092e\u0902\u0917\u0933\u0935\u093e\u0930 \u092a\u0947\u0920",
          "operator": "MahaMetro",
          "public_transport": "stop_position",
          "railway": "stop",
          "subway": "yes"
        }
      },
      {
        "type": "node",
        "id": 11097527717,
        "lat": 18.520213,
        "lon": 73.8475183,
        "tags": {
          "layer": "2",
          "name": "Chhatrapati Sambhaji Udyan",
          "name:mr": "\u091b\u0924\u094d\u0930\u092a\u0924\u0940 \u0938\u0902\u092d\u093e\u091c\u0940 \u0909\u0926\u094d\u092f\u093e\u0928",
          "operator": "MahaMetro",
          "public_transport": "stop_position",
          "railway": "stop",
          "subway": "yes"
        }
      },
      {
        "type": "node",
        "id": 11097527718,
        "lat": 18.5202282,
        "lon": 73.8475065,
        "tags": {
          "name": "Chhatrapati Sambhaji Udyan",
          "name:mr": "\u091b\u0924\u094d\u0930\u092a\u0924\u0940 \u0938\u0902\u092d\u093e\u091c\u0940 \u0909\u0926\u094d\u092f\u093e\u0928",
          "network": "Pune Metro",
          "network:wikidata": "Q3595697",
          "public_transport": "station",
          "railway": "station",
          "station": "subway",
          "subway": "yes"
        }
      },
      {
        "type": "node",
        "id": 11097527719,
        "lat": 18.5202571,
        "lon": 73.8474837,
        "tags": {
          "layer": "2",
          "name": "Chhatrapati Sambhaji Udyan",
          "name:mr": "\u091b\u0924\u094d\u0930\u092a\u0924\u0940 \u0938\u0902\u092d\u093e\u091c\u0940 \u0909\u0926\u094d\u092f\u093e\u0928",
          "operator": "MahaMetro",
          "public_transport": "stop_position",
          "railway": "stop",
          "subway": "yes"
        }
      },
      {
        "type": "node",
        "id": 11097527720,
        "lat": 18.5271277,
        "lon": 73.8580437,
        "tags": {
          "layer": "2",
          "name": "District Court (Aqua Line)",
          "name:fr": "Cour civile",
          "name:mr": "\u091c\u093f\u0932\u094d\u0939\u093e \u0928\u094d\u092f\u093e\u092f\u093e\u0932\u092f",
          "operator": "MahaMetro",
          "public_transport": "stop_position",
          "railway": "stop",
          "subway": "yes"
        }
      },
      {
        "type": "node",
        "id": 11097527721,
        "lat": 18.5271544,
        "lon": 73.8579657,
        "tags": {
          "layer": "2",
          "name": "District Court (Aqua Line)",
          "name:mr": "\u091c\u093f\u0932\u094d\u0939\u093e \u0928\u094d\u092f\u093e\u092f\u093e\u0932\u092f",
          "operator": "MahaMetro",
          "public_transport": "stop_position",
          "railway": "stop",
          "subway": "yes"
        }
      },
      {
        "type": "node",
        "id": 11097527722,
        "lat": 18.5227795,
        "lon": 73.8533807,
        "tags": {
          "layer": "2",
          "name": "PMC Bhavan",
          "name:mr": "\u092a\u0941\u0923\u0947 \u092e\u0928\u092a\u093e \u0938\u094d\u0925\u093e\u0928\u0915",
          "operator": "MahaMetro",
          "public_transport": "stop_position",
          "railway": "stop",
          "subway": "yes"
        }
      },
      {
        "type": "node",
        "id": 11097527723,
        "lat": 18.5228341,
        "lon": 73.8533589,
        "tags": {
          "layer": "2",
          "name": "PMC Bhavan",
          "name:mr": "\u092a\u0941\u0923\u0947 \u092e\u0928\u092a\u093e \u0938\u094d\u0925\u093e\u0928\u0915",
          "operator": "MahaMetro",
          "public_transport": "stop_position",
          "railway": "stop",
          "subway": "yes"
        }
      },
      {
        "type": "node",
        "id": 11097527724,
        "lat": 18.5164733,
        "lon": 73.8443466,
        "tags": {
          "layer": "2",
          "name": "Deccan Gymkhana",
          "name:mr": "\u0921\u0947\u0915\u094d\u0915\u0928 \u091c\u093f\u092e\u0916\u093e\u0928\u093e",
          "operator": "MahaMetro",
          "public_transport": "stop_position",
          "railway": "stop",
          "subway": "yes"
        }
      },
      {
        "type": "node",
        "id": 11097527725,
        "lat": 18.5164599,
        "lon": 73.8443734,
        "tags": {
          "name": "Deccan Gymkhana",
          "name:mr": "\u0921\u0947\u0915\u094d\u0915\u0928 \u091c\u093f\u092e\u0916\u093e\u0928\u093e",
          "network": "Pune Metro",
          "network:wikidata": "Q3595697",
          "public_transport": "station",
          "railway": "station",
          "station": "subway",
          "subway": "yes"
        }
      },
      {
        "type": "node",
        "id": 12211880200,
        "lat": 18.5214436,
        "lon": 73.8595779,
        "tags": {
          "name": "\u0915\u0938\u092c\u093e \u092a\u0947\u0920",
          "name:en": "Kasba Peth",
          "name:mr": "\u0915\u0938\u092c\u093e \u092a\u0947\u0920",
          "network": "Pune Metro",
          "network:wikidata": "Q3595697",
          "public_transport": "station",
          "railway": "station",
          "station": "subway",
          "subway": "yes",
          "wikidata": "Q130381226",
          "wikipedia": "en:Kasba Peth metro station"
        }
      },
      {
        "type": "node",
        "id": 12211960101,
        "lat": 18.5129087,
        "lon": 73.8569857,
        "tags": {
          "name": "\u092e\u0902\u0921\u0908",
          "name:en": "Mandai",
          "name:mr": "\u092e\u0902\u0921\u0908",
          "operator": "MahaMetro",
          "public_transport": "stop_position",
          "railway": "stop",
          "subway": "yes"
        }
      },
      {
        "type": "node",
        "id": 12211960102,
        "lat": 18.5129035,
        "lon": 73.8569526,
        "tags": {
          "name": "\u092e\u0902\u0921\u0908",
          "name:en": "Mandai",
          "name:mr": "\u092e\u0902\u0921\u0908",
          "operator": "MahaMetro",
          "public_transport": "stop_position",
          "railway": "stop",
          "subway": "yes"
        }
      },
      {
        "type": "node",
        "id": 12211960112,
        "lat": 18.5214296,
        "lon": 73.8596021,
        "tags": {
          "name": "\u0915\u0938\u092c\u093e \u092a\u0947\u0920",
          "name:en": "Kasba Peth",
          "name:mr": "\u0915\u0938\u092c\u093e \u092a\u0947\u0920",
          "operator": "MahaMetro",
          "public_transport": "stop_position",
          "railway": "stop",
          "subway": "yes"
        }
      },
      {
        "type": "node",
        "id": 12473454969,
        "lat": 18.5228186,
        "lon": 73.8410529,
        "tags": {
          "access": "yes",
          "amenity": "charging_station",
          "brand": "Bijlify",
          "covered": "no",
          "fee": "yes",
          "source": "survey"
        }
      }
    ]
  }
}