{
  "pois_1km": {
    "version": 0.6,
    "generator": "Overpass API 0.7.62.8 e802775f",
    "osm3s": {
      "timestamp_osm_base": "2025-09-07T11:15:14Z",
      "copyright": "The data included in this document is from www.openstreetmap.org. The data is made available under ODbL."
    },
    "elements": [
      {
        "type": "node",
        "id": 636377478,
        "lat": 18.5665975,
        "lon": 73.9187056,
        "tags": {
          "amenity": "atm",
          "brand": "IDBI Bank",
          "brand:wikidata": "Q3633485",
          "operator": "IDBI Bank",
          "operator:wikidata": "Q3633485",
          "short_name": "IDBI"
        }
      },
      {
        "type": "node",
        "id": 1651542424,
        "lat": 18.5651701,
        "lon": 73.9113565,
        "tags": {
          "amenity": "restaurant",
          "name": "Punjabi Dhaba"
        }
      },
      {
        "type": "node",
        "id": 2183552812,
        "lat": 18.5614294,
        "lon": 73.9172036,
        "tags": {
          "addr:street": "Nagar Road",
          "brand": "Star Bazaar",
          "brand:wikidata": "Q124175958",
          "name": "Star Bazaar",
          "organic": "yes",
          "shop": "supermarket",
          "website": "https://starbazaarindia.com/"
        }
      },
      {
        "type": "node",
        "id": 2183569903,
        "lat": 18.5650297,
        "lon": 73.9161442,
        "tags": {
          "amenity": "bank",
          "atm": "yes",
          "brand": "Bank of India",
          "brand:wikidata": "Q2004439",
          "brand:wikipedia": "en:Bank of India",
          "name": "Bank of India",
          "name:en": "Bank of India",
          "short_name": "BoI",
          "website": "https://www.bankofindia.co.in/"
        }
      },
      {
        "type": "node",
        "id": 2183569906,
        "lat": 18.5657868,
        "lon": 73.918066,
        "tags": {
          "amenity": "cafe",
          "brand": "Cafe Coffee Day",
          "brand:wikidata": "Q5017235",
          "cuisine": "coffee_shop",
          "name": "Cafe Coffee Day",
          "takeaway": "yes"
        }
      },
      {
        "type": "node",
        "id": 2183569908,
        "lat": 18.5658586,
        "lon": 73.9180486,
        "tags": {
          "amenity": "bank",
          "atm": "yes",
          "branch": "Viman Nagar",
          "brand": "ICICI Bank",
          "brand:wikidata": "Q1653258",
          "name": "ICICI Bank",
          "short_name": "ICICI"
        }
      },
      {
        "type": "node",
        "id": 2183569910,
        "lat": 18.5650348,
        "lon": 73.916348,
        "tags": {
          "amenity": "atm",
          "brand": "Citibank",
          "brand:wikidata": "Q857063",
          "operator": "Citibank",
          "operator:wikidata": "Q857063",
          "short_name": "Citi"
        }
      },
      {
        "type": "node",
        "id": 4235777629,
        "lat": 18.5618317,
        "lon": 73.9180056,
        "tags": {
          "amenity": "restaurant",
          "name": "Rude Lounge",
          "website": "http://www.rudelounge.co.in"
        }
      },
      {
        "type": "node",
        "id": 5213712131,
        "lat": 18.5639031,
        "lon": 73.9138515,
        "tags": {
          "addr:housenumber": "209",
          "addr:postcode": "41104",
          "addr:street": "Viman Nagar Road",
          "amenity": "bank",
          "brand": "IndusInd Bank",
          "brand:wikidata": "Q2040323",
          "name": "IndusInd Bank",
          "name:en": "Indusind Bank"
        }
      },
      {
        "type": "node",
        "id": 5213712825,
        "lat": 18.5640691,
        "lon": 73.9138943,
        "tags": {
          "addr:housenumber": "209",
          "addr:postcode": "411014",
          "addr:street": "Viman Nagar Road",
          "amenity": "bank",
          "name:en": "Saraswat Bank viman nagar"
        }
      },
      {
        "type": "node",
        "id": 7226727387,
        "lat": 18.561134,
        "lon": 73.921412,
        "tags": {
          "addr:district": "Pune",
          "addr:full": "Vadgaonsheri, Next To Inorbit Mall, Nagar Road, Somnath Nagar, Pune",
          "addr:postcode": "411014",
          "addr:state": "Maharashtra",
          "addr:subdistrict": "Pune City",
          "amenity": "hospital",
          "name": "PMC Sangamnerkar Hospital (N. G. O.)",
          "source": "OpenGovernmentData"
        }
      },
      {
        "type": "node",
        "id": 8266703354,
        "lat": 18.5639901,
        "lon": 73.9146281,
        "tags": {
          "addr:city": "Pune",
          "addr:housenumber": "105",
          "addr:postcode": "411045",
          "addr:street": "1st Floor, Turning Point 2, Landmark: Above Amantra Spa, Lane And Opposite Saraswat Bank,Viman Nagar,",
          "amenity": "clinic",
          "healthcare": "clinic",
          "healthcare:speciality": "Dentist;Dental_Surgeon;Cosmetic/Aesthetic_Dentist;Associate_Dental_Surgeon",
          "name": "SWEET SMILES DENTAL CLINIC & IMPLANT CENTER",
          "website": "https://www.sweetsmiles.in/"
        }
      },
      {
        "type": "node",
        "id": 8829660545,
        "lat": 18.5633784,
        "lon": 73.9182844,
        "tags": {
          "amenity": "bank",
          "atm": "no",
          "brand": "State Bank of India",
          "brand:wikidata": "Q1340361",
          "name": "State Bank of India",
          "short_name": "SBI"
        }
      },
      {
        "type": "node",
        "id": 8829687877,
        "lat": 18.5652962,
        "lon": 73.9180346,
        "tags": {
          "amenity": "restaurant",
          "cuisine": "south_indian",
          "diet:vegetarian": "yes",
          "name": "Shree Krishna Veg Court",
          "name:en": "Sree Krishna Veg Court",
          "opening_hours": "Mo-Su 08:00-22:00"
        }
      },
      {
        "type": "node",
        "id": 8903544037,
        "lat": 18.5644673,
        "lon": 73.9139134,
        "tags": {
          "addr:city": "Pune",
          "addr:housenumber": "Apollo Clinic",
          "addr:street": "Sakore Nagar, Viman Nagar,",
          "amenity": "clinic",
          "healthcare": "clinic",
          "healthcare:speciality": "Orthopaedic_Surgeon",
          "name": "Apollo Clinic",
          "website": "https://drmayankpathak.com/"
        }
      },
      {
        "type": "node",
        "id": 10172914044,
        "lat": 18.5644671,
        "lon": 73.9139265,
        "tags": {
          "amenity": "hospital",
          "healthcare": "hospital",
          "name": "apollo clinic"
        }
      },
      {
        "type": "node",
        "id": 10567167410,
        "lat": 18.5697167,
        "lon": 73.9108986,
        "tags": {
          "amenity": "pharmacy",
          "healthcare": "pharmacy",
          "name": "Planet Chemist"
        }
      },
      {
        "type": "node",
        "id": 11065644757,
        "lat": 18.5678173,
        "lon": 73.9099372,
        "tags": {
          "addr:city": "Pune",
          "addr:district": "Pune",
          "addr:postcode": "411014",
          "addr:street": "Dei Gratia, Viman nagar",
          "amenity": "cafe",
          "cuisine": "coffee_shop;pizza;burger;italian;sandwich;chicken;french;pasta;indian;ice_cream;dessert;chocolate",
          "internet_access": "yes",
          "internet_access:fee": "no",
          "name": "Backseat Brews",
          "opening_hours": "Mo-Su 09:00-23:00",
          "phone": "+918888437374"
        }
      },
      {
        "type": "node",
        "id": 11949641361,
        "lat": 18.5619936,
        "lon": 73.9142216,
        "tags": {
          "addr:city": "Pune",
          "addr:district": "Pune",
          "addr:housenumber": "C 10",
          "addr:postcode": "411014",
          "addr:street": "Sakore Nagar Road",
          "air_conditioning": "yes",
          "amenity": "restaurant",
          "bar": "yes",
          "contact:facebook": "https://www.instagram.com/airbar.kitchen/",
          "cuisine": "indian;italian;chinese;sandwich",
          "delivery": "yes",
          "description": "Elevate Your Evenings!\n Bar & Restaurant",
          "diet:non-vegetarian": "yes",
          "diet:seafood": "yes",
          "diet:vegetarian": "yes",
          "highchair": "yes",
          "name": "AirBar || Lounge & Kitchen",
          "opening_hours": "Mo-Su 10:00-01:00",
          "phone": "+91743407777"
        }
      },
      {
        "type": "node",
        "id": 12383884204,
        "lat": 18.5668819,
        "lon": 73.9106949,
        "tags": {
          "addr:city": "Pune",
          "addr:postcode": "411014",
          "addr:street": "Viman Nagar Road",
          "amenity": "cafe",
          "cuisine": "coffee_shop",
          "internet_access": "no",
          "name": "Brew Culture",
          "opening_hours": "Mo-Su 09:00-21:00"
        }
      },
      {
        "type": "node",
        "id": 12383891002,
        "lat": 18.5697053,
        "lon": 73.910701,
        "tags": {
          "addr:city": "Pune",
          "addr:postcode": "411014",
          "addr:street": "Pratapkumar Path",
          "amenity": "cafe",
          "cuisine": "coffee_shop",
          "internet_access": "yes",
          "internet_access:fee": "yes",
          "name": "alag aasmaan",
          "opening_hours": "Mo-Su 09:00-21:00"
        }
      },
      {
        "type": "node",
        "id": 12942088174,
        "lat": 18.563916,
        "lon": 73.9186177,
        "tags": {
          "addr:city": "Pune",
          "addr:postcode": "411014",
          "addr:street": "Poona Super Speciality Clinic , Office-B409, B Wing, Nyati Empress (Reliance Mart), Opp sambar Restaurant, Near Gigaspace IT Park, VimanNagar",
          "amenity": "hospital",
          "healthcare": "hospital",
          "name": "Dr. Bhupeshkumar Kaware",
          "operator": "Novosalus Technology",
          "operator:type": "private"
        }
      }
    ]
  },
  "pois_2_5km": {
    "version": 0.6,
    "generator": "Overpass API 0.7.62.8 e802775f",
    "osm3s": {
      "timestamp_osm_base": "2025-09-07T11:15:14Z",
      "copyright": "The data included in this document is from www.openstreetmap.org. The data is made available under ODbL."
    },
    "elements": [
      {
        "type": "node",
        "id": 763513035,
        "lat": 18.5751841,
        "lon": 73.8995588,
        "tags": {
          "bus": "yes",
          "highway": "bus_stop",
          "name": "509",
          "public_transport": "stop_position"
        }
      },
      {
        "type": "node",
        "id": 763515722,
        "lat": 18.5751028,
        "lon": 73.8970804,
        "tags": {
          "amenity": "fuel",
          "name": "Kekan Petrol Pump (HP)"
        }
      },
      {
        "type": "node",
        "id": 9152005063,
        "lat": 18.5778259,
        "lon": 73.903067,
        "tags": {
          "amenity": "bus_station",
          "bus": "yes",
          "name": "Kendriya Vidyalaya Lohgaon",
          "operator": "PMPML",
          "public_transport": "station"
        }
      },
      {
        "type": "node",
        "id": 9152005064,
        "lat": 18.5778484,
        "lon": 73.9029879,
        "tags": {
          "amenity": "bus_station",
          "bus": "yes",
          "name": "Kendriya Vidyalaya Lohgaon",
          "operator": "PMPML",
          "public_transport": "station"
        }
      },
      {
        "type": "node",
        "id": 10844985580,
        "lat": 18.5778315,
        "lon": 73.9073489,
        "tags": {
          "access": "yes",
          "addr:floor": "1",
          "amenity": "charging_station",
          "capacity": "2",
          "description": "60kW charger. Space for 2 cars.",
          "fee": "yes",
          "level": "1",
          "source": "local knowledge"
        }
      },
      {
        "type": "node",
        "id": 11690681124,
        "lat": 18.5469569,
        "lon": 73.9294557,
        "tags": {
          "amenity": "cinema",
          "name": "Bollywood",
          "name:mr": "\u092c\u0949\u0932\u093f\u0935\u0942\u0921"
        }
      },
      {
        "type": "node",
        "id": 11699340494,
        "lat": 18.5571164,
        "lon": 73.9085719,
        "tags": {
          "layer": "2",
          "name": "Ramwadi",
          "name:mr": "\u0930\u093e\u092e\u0935\u093e\u0921\u0940",
          "operator": "MahaMetro",
          "public_transport": "stop_position",
          "railway": "stop",
          "subway": "yes"
        }
      },
      {
        "type": "node",
        "id": 11699340656,
        "lat": 18.5570831,
        "lon": 73.9085916,
        "tags": {
          "layer": "2",
          "name": "Ramwadi",
          "name:mr": "\u0930\u093e\u092e\u0935\u093e\u0921\u0940",
          "operator": "MahaMetro",
          "public_transport": "stop_position",
          "railway": "stop",
          "subway": "yes"
        }
      },
      {
        "type": "node",
        "id": 11699340657,
        "lat": 18.5571183,
        "lon": 73.9086071,
        "tags": {
          "name": "Ramwadi",
          "name:mr": "\u0930\u093e\u092e\u0935\u093e\u0921\u0940",
          "network": "Pune Metro",
          "network:wikidata": "Q3595697",
          "public_transport": "station",
          "railway": "station",
          "station": "subway",
          "subway": "yes",
          "wikipedia": "en:Ramwadi metro station"
        }
      },
      {
        "type": "node",
        "id": 12863629710,
        "lat": 18.5795095,
        "lon": 73.9099537,
        "tags": {
          "aeroway": "terminal"
        }
      }
    ]
  }
}