{
  "pois_1km": {
    "version": 0.6,
    "generator": "Overpass API 0.7.62.8 e802775f",
    "osm3s": {
      "timestamp_osm_base": "2025-09-07T11:33:41Z",
      "copyright": "The data included in this document is from www.openstreetmap.org. The data is made available under ODbL."
    },
    "elements": [
      {
        "type": "node",
        "id": 1730061011,
        "lat": 18.4926639,
        "lon": 73.8574632,
        "tags": {
          "amenity": "restaurant",
          "diet:vegetarian": "only",
          "name": "Panchami"
        }
      },
      {
        "type": "node",
        "id": 2618478635,
        "lat": 18.5020727,
        "lon": 73.8562922,
        "tags": {
          "amenity": "restaurant",
          "cuisine": "indian",
          "name": "Natraj",
          "name:mr": "\u0928\u091f\u0930\u093e\u091c"
        }
      },
      {
        "type": "node",
        "id": 2929239719,
        "lat": 18.5033467,
        "lon": 73.8558661,
        "tags": {
          "amenity": "bank",
          "branch": "Tilak Road",
          "brand": "State Bank of India",
          "brand:wikidata": "Q1340361",
          "brand:wikipedia": "en:State Bank of India",
          "name": "State Bank of India",
          "name:mr": "\u0938\u094d\u091f\u0947\u091f \u092c\u0901\u0915 \u0911\u092b \u0907\u0902\u0921\u093f\u092f\u093e",
          "operator": "State Bank of India",
          "short_name": "SBI"
        }
      },
      {
        "type": "node",
        "id": 3736424925,
        "lat": 18.4990512,
        "lon": 73.8508435,
        "tags": {
          "amenity": "restaurant",
          "name": "Durga Restaurant and Bar"
        }
      },
      {
        "type": "node",
        "id": 3973927417,
        "lat": 18.4973177,
        "lon": 73.8539536,
        "tags": {
          "addr:city": "Pune",
          "addr:country": "IN",
          "addr:housenumber": "454/5",
          "addr:postcode": "411009",
          "addr:street": "Mitramandal Chowk",
          "amenity": "restaurant",
          "contact:phone": "02024423809",
          "contact:website": "http://naivedyampune.com",
          "name": "Naivedyam",
          "opening_hours": "Mo-Su 11:00-23:30"
        }
      },
      {
        "type": "node",
        "id": 4129787590,
        "lat": 18.4972204,
        "lon": 73.8510308,
        "tags": {
          "amenity": "atm",
          "opening_hours": "24/7"
        }
      },
      {
        "type": "node",
        "id": 4355220190,
        "lat": 18.5005376,
        "lon": 73.8578015,
        "tags": {
          "amenity": "fast_food",
          "name": "Jijau upahar"
        }
      },
      {
        "type": "node",
        "id": 4730189289,
        "lat": 18.4999612,
        "lon": 73.854124,
        "tags": {
          "amenity": "bank",
          "brand": "Corporation Bank",
          "brand:wikidata": "Q2003387",
          "name": "Corporation Bank",
          "name:en": "Corporation Bank"
        }
      },
      {
        "type": "node",
        "id": 5104461624,
        "lat": 18.5004565,
        "lon": 73.8576637,
        "tags": {
          "amenity": "fast_food"
        }
      },
      {
        "type": "node",
        "id": 5832547678,
        "lat": 18.5031576,
        "lon": 73.8564652,
        "tags": {
          "amenity": "bank",
          "branch": "Tilak Road",
          "brand": "HDFC Bank",
          "brand:wikidata": "Q631047",
          "name": "HDFC Bank",
          "name:mr": "\u090f\u091a\u0921\u0940\u090f\u092b\u0938\u0940 \u092c\u0901\u0915",
          "operator": "HDFC Bank",
          "short_name": "HDFC"
        }
      },
      {
        "type": "node",
        "id": 5832547679,
        "lat": 18.5035347,
        "lon": 73.8556592,
        "tags": {
          "amenity": "bank",
          "branch": "Tilak Road",
          "brand": "Bank of India",
          "brand:wikidata": "Q2004439",
          "name": "Bank of India",
          "name:mr": "\u092c\u0901\u0915 \u0911\u092b \u0907\u0902\u0921\u093f\u092f\u093e",
          "operator": "Bank of India",
          "short_name": "BOI"
        }
      },
      {
        "type": "node",
        "id": 5832547680,
        "lat": 18.5042539,
        "lon": 73.8548358,
        "tags": {
          "addr:city": "Pune",
          "addr:country": "IN",
          "addr:postcode": "411030",
          "addr:state": "MH",
          "amenity": "atm",
          "brand": "ICICI Bank",
          "brand:wikidata": "Q1653258",
          "name": "ICICI Bank",
          "name:en": "ICICI Bank",
          "name:mr": "\u0906\u092f\u0938\u0940\u0906\u092f\u0938\u0940\u0906\u092f \u092c\u0901\u0915",
          "operator": "ICICI Bank",
          "operator:wikidata": "Q1653258",
          "short_name": "ICICI"
        }
      },
      {
        "type": "node",
        "id": 5832548485,
        "lat": 18.5067109,
        "lon": 73.8517231,
        "tags": {
          "addr:city": "Pune",
          "addr:country": "IN",
          "addr:postcode": "411030",
          "addr:state": "MH",
          "amenity": "bank",
          "branch": "Tilak Road",
          "brand": "Bank of Maharashtra",
          "brand:wikidata": "Q2004304",
          "name": "Bank of Maharashtra",
          "name:en": "Bank of Maharashtra",
          "name:mr": "\u092c\u0901\u0915 \u0911\u092b \u092e\u0939\u093e\u0930\u093e\u0937\u094d\u091f\u094d\u0930",
          "operator": "Bank of Maharashtra"
        }
      },
      {
        "type": "node",
        "id": 5832548487,
        "lat": 18.5070206,
        "lon": 73.8513139,
        "tags": {
          "addr:city": "Pune",
          "addr:country": "IN",
          "addr:postcode": "411030",
          "addr:state": "MH",
          "amenity": "atm",
          "brand": "ICICI Bank",
          "brand:wikidata": "Q1653258",
          "name": "ICICI Bank",
          "name:en": "ICICI Bank",
          "name:mr": "\u0906\u092f\u0938\u0940\u0906\u092f\u0938\u0940\u0906\u092f \u092c\u0901\u0915",
          "opening_hours": "24/7",
          "operator": "ICICI Bank",
          "operator:wikidata": "Q1653258",
          "short_name": "ICICI"
        }
      },
      {
        "type": "node",
        "id": 5832548488,
        "lat": 18.5070702,
        "lon": 73.8512493,
        "tags": {
          "addr:city": "Pune",
          "addr:country": "IN",
          "addr:postcode": "411030",
          "addr:state": "MH",
          "amenity": "bank",
          "branch": "Tilak Road",
          "brand": "ICICI Bank",
          "brand:wikidata": "Q1653258",
          "name": "ICICI Bank",
          "name:en": "ICICI Bank",
          "name:mr": "\u0906\u092f\u0938\u0940\u0906\u092f\u0938\u0940\u0906\u092f \u092c\u0901\u0915",
          "operator": "ICICI Bank",
          "short_name": "ICICI"
        }
      },
      {
        "type": "node",
        "id": 7044175339,
        "lat": 18.5000189,
        "lon": 73.8503981,
        "tags": {
          "addr:district": "Pune",
          "addr:full": "Rahi Sakha Apt., S.No.133, Pune - Sinhagad Road, Parvati",
          "addr:postcode": "411030",
          "addr:state": "Maharashtra",
          "amenity": "hospital",
          "email": "anantbagul@yahoo.com; chaitanyastemcell@gmail.com",
          "name": "Chaitanya Stem Cell Center",
          "operator:type": "private",
          "source": "OpenGovernmentData",
          "website": "https://chaitanyastemcell.com/"
        }
      },
      {
        "type": "node",
        "id": 7047946884,
        "lat": 18.4950117,
        "lon": 73.861886,
        "tags": {
          "addr:district": "Pune",
          "addr:full": "157/5 Opp Cpwd Office Mukund Nagar",
          "addr:postcode": "411037",
          "addr:state": "Maharashtra",
          "amenity": "hospital",
          "name": "Ranka Hospital",
          "source": "OpenGovernmentData"
        }
      },
      {
        "type": "node",
        "id": 7047954931,
        "lat": 18.4945971,
        "lon": 73.8599226,
        "tags": {
          "addr:district": "Pune",
          "addr:full": "Swasthya Sadan, Mukund Nagar",
          "addr:postcode": "411037",
          "addr:state": "Maharashtra",
          "amenity": "clinic",
          "name": "CGHS Polyclinic, Mukund Nagar",
          "operator:type": "government",
          "source": "OpenGovernmentData",
          "website": "http://nb.bsf.gov.in/CGHS%20DIspenseries.pdf"
        }
      },
      {
        "type": "node",
        "id": 7048871849,
        "lat": 18.5022916,
        "lon": 73.8586646,
        "tags": {
          "addr:district": "Pune",
          "addr:full": "972, Shukruwar Peth",
          "addr:postcode": "411002",
          "addr:state": "Maharashtra",
          "amenity": "hospital",
          "name": "Purandare Hospital, Pune",
          "source": "OpenGovernmentData"
        }
      },
      {
        "type": "node",
        "id": 7049292470,
        "lat": 18.502172,
        "lon": 73.857062,
        "tags": {
          "addr:district": "Pune",
          "addr:full": "996, Shukrawar Peth, Tilak Road, 996",
          "addr:postcode": "411002",
          "addr:state": "Maharashtra",
          "amenity": "hospital",
          "name": "Gokhale Hospital",
          "source": "OpenGovernmentData"
        }
      },
      {
        "type": "node",
        "id": 7049842800,
        "lat": 18.4953513,
        "lon": 73.8583679,
        "tags": {
          "addr:district": "Pune",
          "addr:full": "Krishna Chambers, Near Laxmi Narayan Theatre, Pune - Satara Road",
          "addr:postcode": "411037",
          "addr:state": "Maharashtra",
          "amenity": "clinic",
          "name": "Dr. Tekawade Eye Clinic",
          "source": "OpenGovernmentData"
        }
      },
      {
        "type": "node",
        "id": 7051070009,
        "lat": 18.5003686,
        "lon": 73.8542886,
        "tags": {
          "addr:district": "Pune",
          "addr:full": "500/B/1, Parvati, Opposite Sarasbaug, Pune",
          "addr:postcode": "411009",
          "addr:state": "Maharashtra",
          "addr:subdistrict": "Pune City",
          "amenity": "clinic",
          "name": "Patankar Nursing Home",
          "source": "OpenGovernmentData"
        }
      },
      {
        "type": "node",
        "id": 7051344982,
        "lat": 18.4970609,
        "lon": 73.8537818,
        "tags": {
          "addr:district": "Pune",
          "addr:full": "Mitramandal Sabhagraha Bldg, Parvati",
          "addr:postcode": "411009",
          "addr:state": "Maharashtra",
          "amenity": "clinic",
          "name": "Yeshwant Eye Clinic and Hospital",
          "source": "OpenGovernmentData"
        }
      },
      {
        "type": "node",
        "id": 7052815781,
        "lat": 18.4978682,
        "lon": 73.8537562,
        "tags": {
          "addr:district": "Pune",
          "addr:full": "494/13, Mitra Mandal Colony Pazvati Pazvati",
          "addr:postcode": "411009",
          "addr:state": "Maharashtra",
          "amenity": "hospital",
          "name": "Shahade Hospital",
          "source": "OpenGovernmentData"
        }
      },
      {
        "type": "node",
        "id": 7055499239,
        "lat": 18.5012309,
        "lon": 73.8663384,
        "tags": {
          "addr:district": "Pune",
          "addr:full": "408/1 Ghorpade Peth Shankar Seth Road",
          "addr:postcode": "411042",
          "addr:state": "Maharashtra",
          "amenity": "clinic",
          "name": "Sharda Clinic",
          "source": "OpenGovernmentData"
        }
      },
      {
        "type": "node",
        "id": 7066374692,
        "lat": 18.5059721,
        "lon": 73.8564974,
        "tags": {
          "addr:district": "Pune",
          "addr:full": "No. 1208, Shukravar Peth, Lane No 3, Near Shivaji Maratha High School",
          "addr:postcode": "411002",
          "addr:state": "Maharashtra",
          "amenity": "clinic",
          "name": "Pabalkar Nursing Home",
          "source": "OpenGovernmentData"
        }
      },
      {
        "type": "node",
        "id": 7068429388,
        "lat": 18.4954696,
        "lon": 73.8583709,
        "tags": {
          "addr:district": "Pune",
          "addr:full": "Krishna Chambers Laxmi Narayan Theatre Satara Road",
          "addr:postcode": "411037",
          "addr:state": "Maharashtra",
          "amenity": "hospital",
          "name": "Karne Hospital Pvt Ltd",
          "source": "OpenGovernmentData"
        }
      },
      {
        "type": "node",
        "id": 7069569120,
        "lat": 18.5040492,
        "lon": 73.8518391,
        "tags": {
          "addr:district": "Pune",
          "addr:full": "No. 2149, Above Axis Bank,Vijayanagar Colony,Opposite Kaveri Hotel,Sadashiv Peth",
          "addr:postcode": "411030",
          "addr:state": "Maharashtra",
          "amenity": "hospital",
          "name": "Vibhute Hospital",
          "source": "OpenGovernmentData"
        }
      },
      {
        "type": "node",
        "id": 7087491750,
        "lat": 18.5001435,
        "lon": 73.8542376,
        "tags": {
          "addr:district": "Pune",
          "addr:full": "Saras Baug Road,Aannabhau Sathe Chowk",
          "addr:postcode": "411002",
          "addr:state": "Maharashtra",
          "amenity": "hospital",
          "name": "Harijivan Hospital",
          "source": "OpenGovernmentData"
        }
      },
      {
        "type": "node",
        "id": 7651453349,
        "lat": 18.4975587,
        "lon": 73.8513176,
        "tags": {
          "addr:district": "Pune",
          "addr:full": "Shivaji Road, Near Maharashtra Bank, Parvati Gaon, Pune",
          "addr:postcode": "411009",
          "addr:state": "Maharashtra",
          "amenity": "hospital",
          "name": "Purohit Hospital",
          "source": "Local Knowledge"
        }
      },
      {
        "type": "node",
        "id": 7651453352,
        "lat": 18.503465,
        "lon": 73.856543,
        "tags": {
          "addr:district": "Pune",
          "addr:full": "Tejas Apartment, 1078, Lokmanya Bal Gangadhar Tilak Road, Opp. SBI, Pune",
          "addr:postcode": "411002",
          "addr:state": "Maharashtra",
          "amenity": "clinic",
          "name": "Lupus Clinic",
          "source": "Local Knowledge"
        }
      },
      {
        "type": "node",
        "id": 7651453367,
        "lat": 18.5046645,
        "lon": 73.8592129,
        "tags": {
          "addr:district": "Pune",
          "addr:full": "735, Rashtra Bhushan Chowk, Guruwar Peth, Pune",
          "addr:postcode": "411042",
          "addr:state": "Maharashtra",
          "amenity": "hospital",
          "name": "Kalyani Hospital",
          "source": "Local Knowledge"
        }
      },
      {
        "type": "node",
        "id": 7651453370,
        "lat": 18.502188,
        "lon": 73.857108,
        "tags": {
          "addr:district": "Pune",
          "addr:full": "996, Shukrawar Peth, Tilak Road, Dadawadi, Swargate, Pune",
          "addr:postcode": "411042",
          "addr:state": "Maharastra",
          "amenity": "hospital",
          "name": "Gokhale Hospital",
          "source": "Local Knowledge"
        }
      },
      {
        "type": "node",
        "id": 7651453412,
        "lat": 18.50451,
        "lon": 73.8628189,
        "tags": {
          "addr:district": "Pune",
          "addr:full": "297, Mominpura Road, Ghorpade Peth, Swargate, Pune",
          "addr:postcode": "411042",
          "addr:state": "Maharastra",
          "amenity": "hospital",
          "name": "Chajed Hospital",
          "source": "Local Knowledge"
        }
      },
      {
        "type": "node",
        "id": 7651453422,
        "lat": 18.502202,
        "lon": 73.8584592,
        "tags": {
          "addr:district": "Pune",
          "addr:full": "Chhatrapati Shivaji Maharaj Road, Subhash Nagar, Shukrawar Peth, Pune",
          "addr:postcode": "411002",
          "addr:state": "Maharastra",
          "amenity": "hospital",
          "name": "Chavan Hospital",
          "source": "Local Knowledge"
        }
      },
      {
        "type": "node",
        "id": 8204734780,
        "lat": 18.5062067,
        "lon": 73.8625971,
        "tags": {
          "amenity": "hospital",
          "healthcare": "hospital",
          "healthcare:speciality": "orthopaedics",
          "name": "dental health care",
          "operator": "dr. junid tamboli",
          "operator:type": "private"
        }
      },
      {
        "type": "node",
        "id": 8261333009,
        "lat": 18.5057324,
        "lon": 73.8501866,
        "tags": {
          "addr:city": "Pune",
          "addr:housenumber": "2079",
          "addr:postcode": "411030",
          "addr:street": "Madhav Laxmi Apt, Vijayanagar Colony, behind S. P. College, Near Dake Classes, Sadashiv Peth",
          "amenity": "clinic",
          "healthcare": "clinic",
          "healthcare:speciality": "ayurveda",
          "name": "Innoveda Dr Mehta",
          "website": "https://www.innovedaindia.com/"
        }
      },
      {
        "type": "node",
        "id": 8269748766,
        "lat": 18.4966795,
        "lon": 73.8623419,
        "tags": {
          "addr:city": "Pune",
          "addr:housenumber": "C 201-202",
          "addr:postcode": "411037",
          "addr:street": "Business court, Mukundnagar",
          "amenity": "clinic",
          "healthcare": "clinic",
          "healthcare:speciality": "Ophthalmologist",
          "name": "Vardhaman Eye Care",
          "website": "https://www.vardhamaneyecare.in/"
        }
      },
      {
        "type": "node",
        "id": 8502820800,
        "lat": 18.5059305,
        "lon": 73.8566978,
        "tags": {
          "addr:city": "Pune",
          "addr:housenumber": "202 and 204",
          "addr:postcode": "411030",
          "addr:street": "White House, Lokmanya Bal Gangadhar Tilak Rd, opp. Tilak Smarak Mandir, Sadashiv Peth",
          "amenity": "clinic",
          "healthcare": "clinic",
          "healthcare:speciality": "orthopaedics",
          "name": "Dr. Pramod Bhilare Orthopaedic Spine Clinic",
          "website": "https://www.spineexpertpune.in/"
        }
      },
      {
        "type": "node",
        "id": 8813394447,
        "lat": 18.502785,
        "lon": 73.8500051,
        "tags": {
          "addr:district": "Pune",
          "addr:full": "B Block, Municipal Colony, Pune",
          "addr:postcode": "411030",
          "addr:state": "Maharashtra",
          "amenity": "hospital",
          "name": "Matoshri Ramabai Ambedkar Prasutigriha",
          "name:etymology:wikidata": "Q19812241",
          "source": "Local Knowledge"
        }
      },
      {
        "type": "node",
        "id": 8813476678,
        "lat": 18.5048618,
        "lon": 73.8611993,
        "tags": {
          "addr:district": "Pune",
          "addr:full": "Guruwar Peth, Pune",
          "addr:postcode": "411041",
          "addr:state": "Maharashtra",
          "amenity": "hospital",
          "name": "Savitribai Phule Meternity Home",
          "source": "Local Knowledge"
        }
      },
      {
        "type": "node",
        "id": 8814103200,
        "lat": 18.5029796,
        "lon": 73.8520221,
        "tags": {
          "addr:district": "Pune",
          "addr:full": "Vijayanagar Colony, Sadashiv Peth, Pune",
          "addr:postcode": "411030",
          "addr:state": "Maharashtra",
          "amenity": "hospital",
          "name": "Apollo Spectra Hospitals",
          "source": "Local Knowledge"
        }
      },
      {
        "type": "node",
        "id": 8817855241,
        "lat": 18.4983171,
        "lon": 73.8544993,
        "tags": {
          "addr:city": "pune",
          "addr:housenumber": "Office 135,",
          "addr:postcode": "411009",
          "addr:street": "Patil Plaza, Opposite Pudhari Office, Mitramandal Chowk, Near Swargate",
          "amenity": "clinic",
          "healthcare": "clinic",
          "healthcare:speciality": "Gastroenterology;Hepatology",
          "name": "Gastro and Liver Care",
          "website": "https://www.drvarunkhandagale.com/"
        }
      },
      {
        "type": "node",
        "id": 9090385305,
        "lat": 18.5037932,
        "lon": 73.8562917,
        "tags": {
          "addr:city": "Pune,Maharashtra, India",
          "addr:housenumber": "1077, Office no 222",
          "addr:postcode": "411002",
          "addr:street": "Hirabaug Business Centre, 2nd floor,, Shukrawar Peth",
          "amenity": "clinic",
          "healthcare": "clinic",
          "healthcare:speciality": "consultant_maxillofacial_surgeon",
          "name": "Tapadiya's Dental Casa",
          "website": "https://www.tapadiyasdentalcasa.in/"
        }
      },
      {
        "type": "node",
        "id": 9128644997,
        "lat": 18.5041547,
        "lon": 73.8548551,
        "tags": {
          "addr:city": "Pune-,Maharashtra, India",
          "addr:housenumber": "303",
          "addr:postcode": "411002",
          "addr:street": "Mangalmurti Complex, Hirabaug Chowk, Opp Apsara Hotel, Tilak Road,",
          "amenity": "clinic",
          "healthcare": "clinic",
          "healthcare:speciality": "pediatrics_and_neurology",
          "name": "Jagtap Clinic and Research Centre",
          "website": "https://www.jagtapclinic.com/"
        }
      },
      {
        "type": "node",
        "id": 9229645115,
        "lat": 18.504806,
        "lon": 73.855013,
        "tags": {
          "addr:street": "GV34+W27, Subhash Nagar, Shukrawar Peth, Pune, Maharashtra 411002",
          "amenity": "restaurant",
          "description": "North Indian Restaurant",
          "name": "Hotel Peacock",
          "opening_hours": "Mo-Su 11:00-23:30",
          "phone": "020 2445 6203"
        }
      },
      {
        "type": "node",
        "id": 9229710106,
        "lat": 18.5060971,
        "lon": 73.8523384,
        "tags": {
          "addr:street": "Vijayanagar Colony, Sadashiv Peth, Pune, Maharashtra 411030",
          "amenity": "restaurant",
          "description": "Maharashtrian Restaurant",
          "name": "Girija Juice Bar",
          "opening_hours": "Mo-Su 12:00-00:00",
          "phone": "087969 69683"
        }
      },
      {
        "type": "node",
        "id": 9230274760,
        "lat": 18.5091877,
        "lon": 73.8539352,
        "tags": {
          "addr:street": "1348, Shreemant Thorle Bajirav Peshve Rd, Natu Baag, Shukrawar Peth, Pune, Maharashtra 411002",
          "amenity": "restaurant",
          "description": "South Indian Restaurant",
          "name": "Ganjraj",
          "opening_hours": "Mo-Su 07:00-23:00"
        }
      },
      {
        "type": "node",
        "id": 9337256259,
        "lat": 18.4927152,
        "lon": 73.8567317,
        "tags": {
          "addr:city": "pune",
          "addr:postcode": "411009",
          "addr:street": "3rd floor Seraph Center Building, Next to hotel Panchami, Opp. axis bank Above suburban diagnostic Center, Near swargate, off pune- satara road",
          "amenity": "clinic",
          "healthcare": "clinic",
          "healthcare:speciality": "interventional_cardiology",
          "name": "Dr. Hasmukh Gujar",
          "opening_hours": "Mo-Su 16:00-20:00",
          "operator": "Novosalus",
          "operator:type": "private",
          "website": "https://www.drhasmukhgujar.com"
        }
      },
      {
        "type": "node",
        "id": 9549711684,
        "lat": 18.4971906,
        "lon": 73.8554839,
        "tags": {
          "addr:city": "Pune",
          "addr:postcode": "411009",
          "addr:street": "Netaji Palkar Chowk",
          "amenity": "clinic",
          "healthcare": "clinic",
          "name": "Suhrud clinic",
          "operator": "Dr. Karne",
          "phone": "8888893925"
        }
      },
      {
        "type": "node",
        "id": 9774691823,
        "lat": 18.501414,
        "lon": 73.8487739,
        "tags": {
          "addr:street": "Parvati, Near Sane Guruji Smarak, Sinhgad road, Pune- 411030,Maharashtra, India",
          "amenity": "clinic",
          "healthcare": "clinic",
          "healthcare:speciality": "orthopaedics",
          "name": "Unmesh Orthopedic Clinic",
          "opening_hours": "Mo,Tu,Th,Fr 17:00-19:00",
          "operator": "Novosalus",
          "operator:type": "private",
          "website": "https://www.dratulpatilortho.com/"
        }
      },
      {
        "type": "node",
        "id": 9967125222,
        "lat": 18.5059152,
        "lon": 73.8527205,
        "tags": {
          "addr:city": "Pune",
          "addr:housenumber": "in front of sp clg",
          "addr:postcode": "411030",
          "addr:street": "Lokmanya Tilak Marg",
          "amenity": "restaurant",
          "branch": "original branch",
          "cuisine": "pizza;burger;italian;chinese",
          "diet:vegan": "yes",
          "diet:vegetarian": "yes",
          "fixme": "Website (https://shrimatimisalandsnaks.com) doesn't work. Is this place still working?",
          "name": "Shrimanti Misal and Snacks",
          "opening_hours": "Mo-Su 10:00-22:00",
          "phone": "+91 80805 60602"
        }
      },
      {
        "type": "node",
        "id": 10172914032,
        "lat": 18.5012435,
        "lon": 73.8663445,
        "tags": {
          "amenity": "hospital",
          "healthcare": "hospital",
          "name": "sharda clinic"
        }
      },
      {
        "type": "node",
        "id": 10172979844,
        "lat": 18.5071542,
        "lon": 73.8571907,
        "tags": {
          "leisure": "park"
        }
      },
      {
        "type": "node",
        "id": 10172979845,
        "lat": 18.5022944,
        "lon": 73.855506,
        "tags": {
          "leisure": "park"
        }
      },
      {
        "type": "node",
        "id": 10172979846,
        "lat": 18.5032073,
        "lon": 73.8531065,
        "tags": {
          "leisure": "park",
          "name": "Sanas Ground"
        }
      },
      {
        "type": "node",
        "id": 10172979851,
        "lat": 18.5054856,
        "lon": 73.860934,
        "tags": {
          "leisure": "park",
          "name": "St. Hildas Schoole Ground"
        }
      },
      {
        "type": "node",
        "id": 10172979852,
        "lat": 18.5058172,
        "lon": 73.8604136,
        "tags": {
          "leisure": "park",
          "name": "Epiphany School Ground"
        }
      },
      {
        "type": "node",
        "id": 10172979853,
        "lat": 18.5072436,
        "lon": 73.860316,
        "tags": {
          "leisure": "park",
          "name": "Talaee Ground"
        }
      },
      {
        "type": "node",
        "id": 10172986715,
        "lat": 18.4949578,
        "lon": 73.8619001,
        "tags": {
          "addr:city": "Pune",
          "amenity": "hospital",
          "healthcare": "hospital",
          "healthcare:speciality": "chiropractic;general",
          "name": "RANKA HOSPITAL"
        }
      },
      {
        "type": "node",
        "id": 10173007819,
        "lat": 18.5001316,
        "lon": 73.8543108,
        "tags": {
          "addr:city": "PUNE",
          "addr:postcode": "411009",
          "amenity": "hospital",
          "healthcare": "hospital",
          "healthcare:speciality": "general",
          "name": "HARIJIVAN HOSPITAL"
        }
      },
      {
        "type": "node",
        "id": 10278237144,
        "lat": 18.5056597,
        "lon": 73.8522201,
        "tags": {
          "amenity": "restaurant",
          "check_date": "2022-12-21",
          "diet:seafood": "yes",
          "name": "Masemari",
          "name:en": "Masemari",
          "name:mr": "\u092e\u093e\u0938\u0947\u092e\u093e\u0930\u0940"
        }
      },
      {
        "type": "node",
        "id": 10596064428,
        "lat": 18.5058286,
        "lon": 73.8626419,
        "tags": {
          "amenity": "atm",
          "brand": "ICICI Bank",
          "brand:wikidata": "Q1653258",
          "operator": "ICICI Bank",
          "operator:wikidata": "Q1653258",
          "short_name": "ICICI"
        }
      },
      {
        "type": "node",
        "id": 10596065369,
        "lat": 18.5058846,
        "lon": 73.8626294,
        "tags": {
          "amenity": "atm",
          "brand": "State Bank of India",
          "brand:wikidata": "Q1340361",
          "operator": "State Bank of India",
          "operator:wikidata": "Q1340361",
          "short_name": "SBI"
        }
      },
      {
        "type": "node",
        "id": 10709245125,
        "lat": 18.4967019,
        "lon": 73.8591168,
        "tags": {
          "addr:city": "Pune",
          "addr:postcode": "411037",
          "addr:street": "Shankarrao Lahane Marg",
          "amenity": "restaurant",
          "cuisine": "pizza;regional;italian;burger;chinese",
          "diet:vegetarian": "yes",
          "name": "Laa Unico Restaurant"
        }
      },
      {
        "type": "node",
        "id": 11707584169,
        "lat": 18.5063923,
        "lon": 73.8524055,
        "tags": {
          "addr:postcode": "411030",
          "addr:street": "Lokmanya Tilak Marg",
          "amenity": "bank",
          "name:en": "Kotak Mahindra Bank - Tilak Road Branch"
        }
      }
    ]
  },
  "pois_2_5km": {
    "version": 0.6,
    "generator": "Overpass API 0.7.62.8 e802775f",
    "osm3s": {
      "timestamp_osm_base": "2025-09-07T11:34:43Z",
      "copyright": "The data included in this document is from www.openstreetmap.org. The data is made available under ODbL."
    },
    "elements": [
      {
        "type": "node",
        "id": 248156037,
        "lat": 18.5133826,
        "lon": 73.8411516,
        "tags": {
          "bus": "yes",
          "highway": "bus_stop",
          "name": "Deccan Corner",
          "name:mr": "\u0921\u0947\u0915\u094d\u0915\u0928 \u0915\u0949\u0930\u094d\u0928\u0930",
          "public_transport": "stop_position"
        }
      },
      {
        "type": "node",
        "id": 633121822,
        "lat": 18.5211848,
        "lon": 73.8647837,
        "tags": {
          "bus": "yes",
          "highway": "bus_stop",
          "name": "Raste Wada",
          "name:mr": "\u0930\u093e\u0938\u094d\u0924\u0947 \u0935\u093e\u0921\u093e",
          "public_transport": "stop_position"
        }
      },
      {
        "type": "node",
        "id": 1045902130,
        "lat": 18.4886957,
        "lon": 73.857908,
        "tags": {
          "addr:city": "Pune",
          "addr:street": "Satara Road",
          "amenity": "cinema",
          "name": "City Pride Multiplex",
          "payment:app": "yes",
          "payment:cash": "yes",
          "payment:credit_cards": "yes",
          "screen": "4"
        }
      },
      {
        "type": "node",
        "id": 1455235579,
        "lat": 18.5123529,
        "lon": 73.838844,
        "tags": {
          "bus": "yes",
          "highway": "bus_stop",
          "name": "Garware Mahavidyalay",
          "name:mr": "\u0917\u0930\u0935\u093e\u0930\u0947 \u092e\u0939\u093e\u0935\u093f\u0926\u094d\u092f\u093e\u0932\u092f",
          "public_transport": "stop_position"
        }
      },
      {
        "type": "node",
        "id": 1534501626,
        "lat": 18.51645,
        "lon": 73.8423388,
        "tags": {
          "amenity": "cinema",
          "name": "R Deccan Multiplex",
          "source": "local"
        }
      },
      {
        "type": "node",
        "id": 1534503367,
        "lat": 18.517035,
        "lon": 73.8419687,
        "tags": {
          "amenity": "fuel",
          "brand": "Hindustan Petroleum",
          "brand:wikidata": "Q1619375",
          "name": "HP",
          "official_name": "Hindustan Petroleum",
          "operator": "HP"
        }
      },
      {
        "type": "node",
        "id": 1534841981,
        "lat": 18.5010323,
        "lon": 73.8463028,
        "tags": {
          "amenity": "fuel",
          "brand": "Indian Oil",
          "brand:wikidata": "Q1289348",
          "brand:wikipedia": "en:Indian Oil Corporation",
          "name": "Indian Oil",
          "operator": "Indian Oil (IOCL)",
          "website": "https://www.iocl.com/"
        }
      },
      {
        "type": "node",
        "id": 1645621321,
        "lat": 18.5230248,
        "lon": 73.8534229,
        "tags": {
          "amenity": "bus_station",
          "bus": "yes",
          "internet_access": "no",
          "name": "Manapa Bhavan",
          "name:mr": "\u092e\u0928\u092a\u093e \u092d\u0935\u0928",
          "network": "PMPML",
          "operator": "PMPML",
          "public_transport": "station"
        }
      },
      {
        "type": "node",
        "id": 2085669844,
        "lat": 18.5128652,
        "lon": 73.8397526,
        "tags": {
          "bus": "yes",
          "highway": "bus_stop",
          "name": "Garware Mahavidyalay",
          "name:mr": "\u0917\u0930\u0935\u093e\u0930\u0947 \u092e\u0939\u093e\u0935\u093f\u0926\u094d\u092f\u093e\u0932\u092f",
          "public_transport": "stop_position"
        }
      },
      {
        "type": "node",
        "id": 2085669850,
        "lat": 18.513455,
        "lon": 73.8410905,
        "tags": {
          "bus": "yes",
          "highway": "bus_stop",
          "name": "Deccan Corner",
          "name:mr": "\u0921\u0947\u0915\u094d\u0915\u0928 \u0915\u0949\u0930\u094d\u0928\u0930",
          "public_transport": "stop_position"
        }
      },
      {
        "type": "node",
        "id": 2259729638,
        "lat": 18.5159878,
        "lon": 73.8591744,
        "tags": {
          "bus": "yes",
          "highway": "bus_stop",
          "name": "Sonya Maruti Chowk",
          "name:mr": "\u0938\u094b\u0928\u094d\u092f\u093e \u092e\u093e\u0930\u0941\u0924\u0940 \u091a\u094c\u0915",
          "public_transport": "stop_position"
        }
      },
      {
        "type": "node",
        "id": 2259729678,
        "lat": 18.5204468,
        "lon": 73.8674762,
        "tags": {
          "bus": "yes",
          "highway": "bus_stop",
          "name": "KEM Hospital",
          "name:mr": "\u0915\u0947\u0908\u090f\u092e \u0930\u0941\u0917\u094d\u0923\u093e\u0932\u092f",
          "public_transport": "stop_position"
        }
      },
      {
        "type": "node",
        "id": 2358247540,
        "lat": 18.5136511,
        "lon": 73.8528438,
        "tags": {
          "bus": "yes",
          "highway": "bus_stop",
          "name": "Vishrambag Wada",
          "name:mr": "\u0935\u093f\u0936\u094d\u0930\u093e\u092e\u092c\u093e\u0917\u0935\u093e\u0921\u093e",
          "operator": "PMPML",
          "public_transport": "stop_position"
        }
      },
      {
        "type": "node",
        "id": 2864314826,
        "lat": 18.5128912,
        "lon": 73.8447895,
        "tags": {
          "bus": "yes",
          "highway": "bus_stop",
          "name": "Alka Talkies",
          "name:mr": "\u0905\u0932\u0915\u093e \u091f\u0949\u0915\u0940\u091c",
          "public_transport": "stop_position"
        }
      },
      {
        "type": "node",
        "id": 2864314827,
        "lat": 18.5133175,
        "lon": 73.8449935,
        "tags": {
          "bus": "yes",
          "highway": "bus_stop",
          "name": "Alka Talkies",
          "name:mr": "\u0905\u0932\u0915\u093e \u091f\u0949\u0915\u0940\u091c",
          "public_transport": "stop_position"
        }
      },
      {
        "type": "node",
        "id": 2864314835,
        "lat": 18.5194896,
        "lon": 73.8645808,
        "tags": {
          "bus": "yes",
          "highway": "bus_stop",
          "name": "Apollo Talkies",
          "name:mr": "\u0905\u092a\u094b\u0932\u094b \u091f\u0949\u0915\u0940\u091c",
          "public_transport": "stop_position"
        }
      },
      {
        "type": "node",
        "id": 2864314836,
        "lat": 18.5148942,
        "lon": 73.8537471,
        "tags": {
          "bus": "yes",
          "highway": "bus_stop",
          "name": "Appa Balwant Chowk (Hujurpaga)",
          "name:mr": "\u0905\u092a\u094d\u092a\u093e \u092c\u0933\u0935\u0902\u0924 \u091a\u094c\u0915 (\u0939\u0941\u091c\u0942\u0930\u092a\u093e\u0917\u093e)",
          "public_transport": "stop_position"
        }
      },
      {
        "type": "node",
        "id": 2864314837,
        "lat": 18.5130861,
        "lon": 73.8467444,
        "tags": {
          "bus": "yes",
          "highway": "bus_stop",
          "name": "Chitrashala",
          "name:mr": "\u091a\u093f\u0924\u094d\u0930\u0936\u093e\u0933\u093e",
          "public_transport": "stop_position"
        }
      },
      {
        "type": "node",
        "id": 2864314839,
        "lat": 18.5157161,
        "lon": 73.8566591,
        "tags": {
          "bus": "yes",
          "highway": "bus_stop",
          "name": "City Post",
          "name:mr": "\u0938\u093f\u091f\u0940 \u092a\u094b\u0938\u094d\u091f",
          "public_transport": "stop_position"
        }
      },
      {
        "type": "node",
        "id": 2864314840,
        "lat": 18.5143807,
        "lon": 73.8515993,
        "tags": {
          "bus": "yes",
          "highway": "bus_stop",
          "name": "Commonwealth",
          "name:mr": "\u0915\u0949\u092e\u0928\u0935\u0947\u0932\u094d\u0925",
          "public_transport": "stop_position"
        }
      },
      {
        "type": "node",
        "id": 2864314842,
        "lat": 18.517793,
        "lon": 73.8539774,
        "tags": {
          "bus": "yes",
          "highway": "bus_stop",
          "name": "Dakshinmukhi Maruti",
          "name:mr": "\u0926\u0915\u094d\u0937\u093f\u0923\u092e\u0941\u0916\u0940 \u092e\u093e\u0930\u0941\u0924\u0940",
          "public_transport": "stop_position"
        }
      },
      {
        "type": "node",
        "id": 2864314847,
        "lat": 18.5149638,
        "lon": 73.8549032,
        "tags": {
          "bus": "yes",
          "highway": "bus_stop",
          "name": "Ganpati Chowk",
          "name:mr": "\u0917\u0923\u092a\u0924\u0940 \u091a\u094c\u0915",
          "public_transport": "stop_position"
        }
      },
      {
        "type": "node",
        "id": 2864314849,
        "lat": 18.5140682,
        "lon": 73.8491322,
        "tags": {
          "bus": "yes",
          "highway": "bus_stop",
          "name": "Gokhale Hall",
          "name:mr": "\u0917\u094b\u0916\u0932\u0947 \u0939\u0949\u0932",
          "public_transport": "stop_position"
        }
      },
      {
        "type": "node",
        "id": 2864314856,
        "lat": 18.5205286,
        "lon": 73.8558408,
        "tags": {
          "bus": "yes",
          "highway": "bus_stop",
          "name": "Kasba Peth Police Chowki",
          "name:mr": "\u0915\u0938\u092c\u093e \u092a\u0947\u0920 \u092a\u094b\u0932\u0940\u0938 \u091a\u094c\u0915\u0940",
          "public_transport": "stop_position"
        }
      },
      {
        "type": "node",
        "id": 2864314858,
        "lat": 18.5185508,
        "lon": 73.8566475,
        "tags": {
          "bus": "yes",
          "highway": "bus_stop",
          "name": "Lal Mahal",
          "name:mr": "\u0932\u093e\u0932 \u092e\u0939\u093e\u0932",
          "public_transport": "stop_position"
        }
      },
      {
        "type": "node",
        "id": 2864314869,
        "lat": 18.5188684,
        "lon": 73.8601444,
        "tags": {
          "bus": "yes",
          "highway": "bus_stop",
          "name": "Phadke Houd",
          "name:mr": "\u092b\u0921\u0915\u0947 \u0939\u094c\u0926",
          "public_transport": "stop_position"
        }
      },
      {
        "type": "node",
        "id": 2864314874,
        "lat": 18.5135108,
        "lon": 73.8506376,
        "tags": {
          "bus": "yes",
          "highway": "bus_stop",
          "name": "Sadashiv Peth Houd",
          "name:mr": "\u0938\u0926\u093e\u0936\u093f\u0935 \u092a\u0947\u0920 \u0939\u094c\u0926",
          "public_transport": "stop_position"
        }
      },
      {
        "type": "node",
        "id": 2864314879,
        "lat": 18.5196781,
        "lon": 73.8544934,
        "tags": {
          "bus": "yes",
          "highway": "bus_stop",
          "name": "Shaniwarwada",
          "name:mr": "\u0936\u0928\u093f\u0935\u093e\u0930\u0935\u093e\u0921\u093e",
          "public_transport": "stop_position"
        }
      },
      {
        "type": "node",
        "id": 2864314886,
        "lat": 18.5137283,
        "lon": 73.8461613,
        "tags": {
          "bus": "yes",
          "highway": "bus_stop",
          "name": "Vijay Talkies",
          "name:mr": "\u0935\u093f\u091c\u092f \u091f\u0949\u0915\u0940\u091c",
          "public_transport": "stop_position"
        }
      },
      {
        "type": "node",
        "id": 2870389529,
        "lat": 18.5134183,
        "lon": 73.8443831,
        "tags": {
          "bus": "yes",
          "highway": "bus_stop",
          "name": "Alka Talkies",
          "name:mr": "\u0905\u0932\u0915\u093e \u091f\u0949\u0915\u0940\u091c",
          "public_transport": "stop_position"
        }
      },
      {
        "type": "node",
        "id": 2870389530,
        "lat": 18.5164089,
        "lon": 73.8531058,
        "tags": {
          "bus": "yes",
          "highway": "bus_stop",
          "name": "Appa Balwant Chowk",
          "name:mr": "\u0905\u092a\u094d\u092a\u093e \u092c\u0933\u0935\u0902\u0924 \u091a\u094c\u0915",
          "public_transport": "stop_position"
        }
      },
      {
        "type": "node",
        "id": 2870389537,
        "lat": 18.5164014,
        "lon": 73.8508112,
        "tags": {
          "bus": "yes",
          "highway": "bus_stop",
          "name": "Kanyashala",
          "name:mr": "\u0915\u0928\u094d\u092f\u093e\u0936\u093e\u0933\u093e",
          "public_transport": "stop_position"
        }
      },
      {
        "type": "node",
        "id": 2870389540,
        "lat": 18.516199,
        "lon": 73.8490922,
        "tags": {
          "bus": "yes",
          "highway": "bus_stop",
          "name": "Kesariwada",
          "name:mr": "\u0915\u0947\u0938\u0930\u0940\u0935\u093e\u0921\u093e",
          "public_transport": "stop_position"
        }
      },
      {
        "type": "node",
        "id": 2870389543,
        "lat": 18.5157742,
        "lon": 73.8467218,
        "tags": {
          "bus": "yes",
          "highway": "bus_stop",
          "name": "Mati Ganapati",
          "name:mr": "\u092e\u093e\u0924\u0940 \u0917\u0923\u092a\u0924\u0940",
          "public_transport": "stop_position"
        }
      },
      {
        "type": "node",
        "id": 2870389545,
        "lat": 18.5160293,
        "lon": 73.8475116,
        "tags": {
          "bus": "yes",
          "highway": "bus_stop",
          "name": "Mati Ganapati",
          "name:mr": "\u092e\u093e\u0924\u0940 \u0917\u0923\u092a\u0924\u0940",
          "public_transport": "stop_position"
        }
      },
      {
        "type": "node",
        "id": 2870389546,
        "lat": 18.5183421,
        "lon": 73.8562164,
        "tags": {
          "bus": "yes",
          "highway": "bus_stop",
          "name": "Nana Wada",
          "name:mr": "\u0928\u093e\u0928\u093e \u0935\u093e\u0921\u093e",
          "public_transport": "stop_position",
          "wheelchair": "yes"
        }
      },
      {
        "type": "node",
        "id": 2870389551,
        "lat": 18.5175013,
        "lon": 73.8562412,
        "tags": {
          "bus": "yes",
          "highway": "bus_stop",
          "name": "Vasant Talkies",
          "name:mr": "\u0935\u0938\u0902\u0924 \u091f\u0949\u0915\u0940\u091c",
          "public_transport": "stop_position"
        }
      },
      {
        "type": "node",
        "id": 2929239716,
        "lat": 18.5019555,
        "lon": 73.8700439,
        "tags": {
          "amenity": "fuel",
          "brand": "Indian Oil",
          "brand:wikidata": "Q1289348",
          "brand:wikipedia": "en:Indian Oil Corporation",
          "name": "Indian Oil"
        }
      },
      {
        "type": "node",
        "id": 5573156998,
        "lat": 18.5214448,
        "lon": 73.8595458,
        "tags": {
          "name": "\u0915\u0938\u092c\u093e \u092a\u0947\u0920",
          "name:en": "Kasba Peth",
          "name:mr": "\u0915\u0938\u092c\u093e \u092a\u0947\u0920",
          "operator": "MahaMetro",
          "public_transport": "stop_position",
          "railway": "stop",
          "subway": "yes"
        }
      },
      {
        "type": "node",
        "id": 5573167974,
        "lat": 18.5120038,
        "lon": 73.8380406,
        "tags": {
          "layer": "2",
          "name": "Garware College",
          "name:mr": "\u0917\u0930\u0935\u093e\u0930\u0947 \u092e\u0939\u093e\u0935\u093f\u0926\u094d\u092f\u093e\u0932\u092f",
          "operator": "MahaMetro",
          "public_transport": "stop_position",
          "railway": "stop",
          "subway": "yes"
        }
      },
      {
        "type": "node",
        "id": 7611940234,
        "lat": 18.5164368,
        "lon": 73.8429948,
        "tags": {
          "bus": "yes",
          "name": "Deccan Bus Stop Lane 1",
          "network": "PMPML",
          "operator": "PMPML",
          "public_transport": "stop_position",
          "ref": "1",
          "wikidata": "Q7260109",
          "wikimedia_commons": "Category:Pune Mahanagar Parivahan Mahamandal Limited",
          "wikipedia": "en:Pune Mahanagar Parivahan Mahamandal Limited"
        }
      },
      {
        "type": "node",
        "id": 7611940240,
        "lat": 18.5163631,
        "lon": 73.8431113,
        "tags": {
          "bus": "yes",
          "name": "Deccan Bus Stop Lane 2",
          "network": "PMPML",
          "operator": "PMPML",
          "public_transport": "stop_position",
          "ref": "2",
          "wikidata": "Q7260109",
          "wikimedia_commons": "Category:Pune Mahanagar Parivahan Mahamandal Limited",
          "wikipedia": "en:Pune Mahanagar Parivahan Mahamandal Limited"
        }
      },
      {
        "type": "node",
        "id": 7611940241,
        "lat": 18.5163263,
        "lon": 73.8431823,
        "tags": {
          "bus": "yes",
          "name": "Deccan Bus Stop Lane 3",
          "network": "PMPML",
          "operator": "PMPML",
          "public_transport": "stop_position",
          "ref": "3",
          "wikidata": "Q7260109",
          "wikimedia_commons": "Category:Pune Mahanagar Parivahan Mahamandal Limited",
          "wikipedia": "en:Pune Mahanagar Parivahan Mahamandal Limited"
        }
      },
      {
        "type": "node",
        "id": 7611940242,
        "lat": 18.5162657,
        "lon": 73.8432985,
        "tags": {
          "bus": "yes",
          "name": "Deccan Bus Stop Lane 4",
          "network": "PMPML",
          "operator": "PMPML",
          "public_transport": "stop_position",
          "ref": "4",
          "wikidata": "Q7260109",
          "wikimedia_commons": "Category:Pune Mahanagar Parivahan Mahamandal Limited",
          "wikipedia": "en:Pune Mahanagar Parivahan Mahamandal Limited"
        }
      },
      {
        "type": "node",
        "id": 7611940243,
        "lat": 18.5162088,
        "lon": 73.8433994,
        "tags": {
          "bus": "yes",
          "name": "Deccan Bus Stop Lane 5",
          "network": "PMPML",
          "operator": "PMPML",
          "public_transport": "stop_position",
          "ref": "5",
          "wikidata": "Q7260109",
          "wikimedia_commons": "Category:Pune Mahanagar Parivahan Mahamandal Limited",
          "wikipedia": "en:Pune Mahanagar Parivahan Mahamandal Limited"
        }
      },
      {
        "type": "node",
        "id": 7635224855,
        "lat": 18.4994601,
        "lon": 73.8581505,
        "tags": {
          "bus": "yes",
          "name": "Swargate",
          "network": "PMPML",
          "operator": "PMPML",
          "public_transport": "stop_position",
          "ref": "4349",
          "wikidata": "Q7260109",
          "wikimedia_commons": "Category:Pune Mahanagar Parivahan Mahamandal Limited",
          "wikipedia": "en:Pune Mahanagar Parivahan Mahamandal Limited"
        }
      },
      {
        "type": "node",
        "id": 7635224857,
        "lat": 18.4989486,
        "lon": 73.8584488,
        "tags": {
          "bus": "yes",
          "name": "Swargate",
          "network": "PMPML",
          "operator": "PMPML",
          "public_transport": "stop_position",
          "ref": "4350",
          "wikidata": "Q7260109",
          "wikimedia_commons": "Category:Pune Mahanagar Parivahan Mahamandal Limited",
          "wikipedia": "en:Pune Mahanagar Parivahan Mahamandal Limited"
        }
      },
      {
        "type": "node",
        "id": 7944584968,
        "lat": 18.5164352,
        "lon": 73.8444017,
        "tags": {
          "layer": "2",
          "name": "Deccan Gymkhana",
          "name:mr": "\u0921\u0947\u0915\u094d\u0915\u0928 \u091c\u093f\u092e\u0916\u093e\u0928\u093e",
          "operator": "MahaMetro",
          "public_transport": "stop_position",
          "railway": "stop",
          "subway": "yes"
        }
      },
      {
        "type": "node",
        "id": 7944584980,
        "lat": 18.5228092,
        "lon": 73.8533687,
        "tags": {
          "name": "PMC Bhavan",
          "name:mr": "\u092a\u0941\u0923\u0947 \u092e\u0928\u092a\u093e \u0938\u094d\u0925\u093e\u0928\u0915",
          "network": "Pune Metro",
          "network:wikidata": "Q3595697",
          "public_transport": "station",
          "railway": "station",
          "station": "subway",
          "subway": "yes"
        }
      },
      {
        "type": "node",
        "id": 7944597694,
        "lat": 18.5129081,
        "lon": 73.8569695,
        "tags": {
          "name": "\u092e\u0902\u0921\u0908",
          "name:en": "Mandai",
          "name:mr": "\u092e\u0902\u0921\u0908",
          "network": "Pune Metro",
          "network:wikidata": "Q3595697",
          "operator": "MahaMetro",
          "public_transport": "station",
          "railway": "station",
          "station": "subway",
          "subway": "yes",
          "wikidata": "Q130381236",
          "wikipedia": "en:Mandai metro station"
        }
      },
      {
        "type": "node",
        "id": 7944597710,
        "lat": 18.4997453,
        "lon": 73.8574604,
        "tags": {
          "name": "\u0938\u094d\u0935\u093e\u0930\u0917\u0947\u091f",
          "name:en": "Swargate",
          "name:mr": "\u0938\u094d\u0935\u093e\u0930\u0917\u0947\u091f",
          "network": "Pune Metro",
          "network:wikidata": "Q3595697",
          "public_transport": "station",
          "railway": "station",
          "station": "subway",
          "subway": "yes",
          "wikidata": "Q130381241",
          "wikipedia": "en:Swargate metro station"
        }
      },
      {
        "type": "node",
        "id": 8945932610,
        "lat": 18.5204768,
        "lon": 73.8553024,
        "tags": {
          "air_conditioning": "no",
          "amenity": "theatre",
          "name": "Shaniwar Wada Amphitheatre",
          "name:mr": "\u0936\u0928\u093f\u0935\u093e\u0930\u0935\u093e\u0921\u093e \u0938\u092d\u093e\u0917\u0943\u0939",
          "theatre:type": "amphi"
        }
      },
      {
        "type": "node",
        "id": 9572608811,
        "lat": 18.5119737,
        "lon": 73.8380616,
        "tags": {
          "layer": "2",
          "name": "Garware College",
          "name:mr": "\u0917\u0930\u0935\u093e\u0930\u0947 \u092e\u0939\u093e\u0935\u093f\u0926\u094d\u092f\u093e\u0932\u092f",
          "operator": "MahaMetro",
          "public_transport": "stop_position",
          "railway": "stop",
          "subway": "yes"
        }
      },
      {
        "type": "node",
        "id": 9599243857,
        "lat": 18.5119886,
        "lon": 73.8380505,
        "tags": {
          "name": "Garware College",
          "name:mr": "\u0917\u0930\u0935\u093e\u0930\u0947 \u092e\u0939\u093e\u0935\u093f\u0926\u094d\u092f\u093e\u0932\u092f",
          "network": "Pune Metro",
          "network:wikidata": "Q3595697",
          "public_transport": "station",
          "railway": "station",
          "station": "subway",
          "subway": "yes"
        }
      },
      {
        "type": "node",
        "id": 10097434144,
        "lat": 18.4844962,
        "lon": 73.8496753,
        "tags": {
          "amenity": "charging_station",
          "brand": "Ather Energy",
          "capacity": "1",
          "fee": "yes",
          "operator": "Ather Energy"
        }
      },
      {
        "type": "node",
        "id": 11097527717,
        "lat": 18.520213,
        "lon": 73.8475183,
        "tags": {
          "layer": "2",
          "name": "Chhatrapati Sambhaji Udyan",
          "name:mr": "\u091b\u0924\u094d\u0930\u092a\u0924\u0940 \u0938\u0902\u092d\u093e\u091c\u0940 \u0909\u0926\u094d\u092f\u093e\u0928",
          "operator": "MahaMetro",
          "public_transport": "stop_position",
          "railway": "stop",
          "subway": "yes"
        }
      },
      {
        "type": "node",
        "id": 11097527718,
        "lat": 18.5202282,
        "lon": 73.8475065,
        "tags": {
          "name": "Chhatrapati Sambhaji Udyan",
          "name:mr": "\u091b\u0924\u094d\u0930\u092a\u0924\u0940 \u0938\u0902\u092d\u093e\u091c\u0940 \u0909\u0926\u094d\u092f\u093e\u0928",
          "network": "Pune Metro",
          "network:wikidata": "Q3595697",
          "public_transport": "station",
          "railway": "station",
          "station": "subway",
          "subway": "yes"
        }
      },
      {
        "type": "node",
        "id": 11097527719,
        "lat": 18.5202571,
        "lon": 73.8474837,
        "tags": {
          "layer": "2",
          "name": "Chhatrapati Sambhaji Udyan",
          "name:mr": "\u091b\u0924\u094d\u0930\u092a\u0924\u0940 \u0938\u0902\u092d\u093e\u091c\u0940 \u0909\u0926\u094d\u092f\u093e\u0928",
          "operator": "MahaMetro",
          "public_transport": "stop_position",
          "railway": "stop",
          "subway": "yes"
        }
      },
      {
        "type": "node",
        "id": 11097527722,
        "lat": 18.5227795,
        "lon": 73.8533807,
        "tags": {
          "layer": "2",
          "name": "PMC Bhavan",
          "name:mr": "\u092a\u0941\u0923\u0947 \u092e\u0928\u092a\u093e \u0938\u094d\u0925\u093e\u0928\u0915",
          "operator": "MahaMetro",
          "public_transport": "stop_position",
          "railway": "stop",
          "subway": "yes"
        }
      },
      {
        "type": "node",
        "id": 11097527723,
        "lat": 18.5228341,
        "lon": 73.8533589,
        "tags": {
          "layer": "2",
          "name": "PMC Bhavan",
          "name:mr": "\u092a\u0941\u0923\u0947 \u092e\u0928\u092a\u093e \u0938\u094d\u0925\u093e\u0928\u0915",
          "operator": "MahaMetro",
          "public_transport": "stop_position",
          "railway": "stop",
          "subway": "yes"
        }
      },
      {
        "type": "node",
        "id": 11097527724,
        "lat": 18.5164733,
        "lon": 73.8443466,
        "tags": {
          "layer": "2",
          "name": "Deccan Gymkhana",
          "name:mr": "\u0921\u0947\u0915\u094d\u0915\u0928 \u091c\u093f\u092e\u0916\u093e\u0928\u093e",
          "operator": "MahaMetro",
          "public_transport": "stop_position",
          "railway": "stop",
          "subway": "yes"
        }
      },
      {
        "type": "node",
        "id": 11097527725,
        "lat": 18.5164599,
        "lon": 73.8443734,
        "tags": {
          "name": "Deccan Gymkhana",
          "name:mr": "\u0921\u0947\u0915\u094d\u0915\u0928 \u091c\u093f\u092e\u0916\u093e\u0928\u093e",
          "network": "Pune Metro",
          "network:wikidata": "Q3595697",
          "public_transport": "station",
          "railway": "station",
          "station": "subway",
          "subway": "yes"
        }
      },
      {
        "type": "node",
        "id": 12211880200,
        "lat": 18.5214436,
        "lon": 73.8595779,
        "tags": {
          "name": "\u0915\u0938\u092c\u093e \u092a\u0947\u0920",
          "name:en": "Kasba Peth",
          "name:mr": "\u0915\u0938\u092c\u093e \u092a\u0947\u0920",
          "network": "Pune Metro",
          "network:wikidata": "Q3595697",
          "public_transport": "station",
          "railway": "station",
          "station": "subway",
          "subway": "yes",
          "wikidata": "Q130381226",
          "wikipedia": "en:Kasba Peth metro station"
        }
      },
      {
        "type": "node",
        "id": 12211960101,
        "lat": 18.5129087,
        "lon": 73.8569857,
        "tags": {
          "name": "\u092e\u0902\u0921\u0908",
          "name:en": "Mandai",
          "name:mr": "\u092e\u0902\u0921\u0908",
          "operator": "MahaMetro",
          "public_transport": "stop_position",
          "railway": "stop",
          "subway": "yes"
        }
      },
      {
        "type": "node",
        "id": 12211960102,
        "lat": 18.5129035,
        "lon": 73.8569526,
        "tags": {
          "name": "\u092e\u0902\u0921\u0908",
          "name:en": "Mandai",
          "name:mr": "\u092e\u0902\u0921\u0908",
          "operator": "MahaMetro",
          "public_transport": "stop_position",
          "railway": "stop",
          "subway": "yes"
        }
      },
      {
        "type": "node",
        "id": 12211960112,
        "lat": 18.5214296,
        "lon": 73.8596021,
        "tags": {
          "name": "\u0915\u0938\u092c\u093e \u092a\u0947\u0920",
          "name:en": "Kasba Peth",
          "name:mr": "\u0915\u0938\u092c\u093e \u092a\u0947\u0920",
          "operator": "MahaMetro",
          "public_transport": "stop_position",
          "railway": "stop",
          "subway": "yes"
        }
      },
      {
        "type": "node",
        "id": 12211960136,
        "lat": 18.4997302,
        "lon": 73.8575193,
        "tags": {
          "name": "\u0938\u094d\u0935\u093e\u0930\u0917\u0947\u091f",
          "name:en": "Swargate",
          "name:mr": "\u0938\u094d\u0935\u093e\u0930\u0917\u0947\u091f",
          "operator": "MahaMetro",
          "public_transport": "stop_position",
          "railway": "stop",
          "subway": "yes"
        }
      },
      {
        "type": "node",
        "id": 12211960138,
        "lat": 18.49975,
        "lon": 73.8574064,
        "tags": {
          "name": "\u0938\u094d\u0935\u093e\u0930\u0917\u0947\u091f",
          "name:en": "Swargate",
          "name:mr": "\u0938\u094d\u0935\u093e\u0930\u0917\u0947\u091f",
          "operator": "MahaMetro",
          "public_transport": "stop_position",
          "railway": "stop",
          "subway": "yes"
        }
      }
    ]
  }
}