{
  "pois_1km": {
    "version": 0.6,
    "generator": "Overpass API 0.7.62.8 e802775f",
    "osm3s": {
      "timestamp_osm_base": "2025-09-07T11:32:35Z",
      "copyright": "The data included in this document is from www.openstreetmap.org. The data is made available under ODbL."
    },
    "elements": [
      {
        "type": "node",
        "id": 283152697,
        "lat": 18.5457237,
        "lon": 73.9062599,
        "tags": {
          "amenity": "fast_food",
          "brand": "McDonald's",
          "brand:pa": "\u0a2e\u0a48\u0a15\u0a21\u0a4b\u0a28\u0a32\u0a21\u2019\u0a1c\u0a3c",
          "brand:ur": "\u0645\u06a9\u0688\u0648\u0646\u0644\u0688\u0632",
          "brand:wikidata": "Q38076",
          "brand:wikipedia": "en:McDonald's",
          "brand:wikipedia:pa": "\u0a2e\u0a48\u0a15\u0a21\u0a4b\u0a28\u0a32\u0a21\u2019\u0a1c\u0a3c",
          "brand:wikipedia:ur": "\u0645\u06a9\u0688\u0648\u0646\u0644\u0688\u0632",
          "cuisine": "burger",
          "name": "McDonald's",
          "name:pa": "\u0a2e\u0a48\u0a15\u0a21\u0a4b\u0a28\u0a32\u0a21\u2019\u0a1c\u0a3c",
          "name:ur": "\u0645\u06a9\u0688\u0648\u0646\u0644\u0688\u0632",
          "takeaway": "yes"
        }
      },
      {
        "type": "node",
        "id": 283166318,
        "lat": 18.5391279,
        "lon": 73.9049627,
        "tags": {
          "amenity": "cafe",
          "name": "Shisha Jazz Cafe"
        }
      },
      {
        "type": "node",
        "id": 511975995,
        "lat": 18.5387955,
        "lon": 73.912781,
        "tags": {
          "amenity": "restaurant",
          "brand": "Hard Rock Cafe",
          "brand:wikidata": "Q918151",
          "cuisine": "american",
          "name": "Hard Rock Cafe"
        }
      },
      {
        "type": "node",
        "id": 511975996,
        "lat": 18.5383533,
        "lon": 73.9126684,
        "tags": {
          "amenity": "restaurant",
          "name": "Stone Water Grill"
        }
      },
      {
        "type": "node",
        "id": 622955570,
        "lat": 18.5391023,
        "lon": 73.9061842,
        "tags": {
          "amenity": "restaurant",
          "name": "Seasonal Tastes"
        }
      },
      {
        "type": "node",
        "id": 663592103,
        "lat": 18.5387882,
        "lon": 73.9052035,
        "tags": {
          "amenity": "cafe",
          "name": "Aroma's"
        }
      },
      {
        "type": "node",
        "id": 679044949,
        "lat": 18.5393141,
        "lon": 73.9061183,
        "tags": {
          "amenity": "restaurant",
          "name": "Prego"
        }
      },
      {
        "type": "node",
        "id": 679044987,
        "lat": 18.5399703,
        "lon": 73.9061077,
        "tags": {
          "amenity": "restaurant",
          "name": "Kangan"
        }
      },
      {
        "type": "node",
        "id": 831253313,
        "lat": 18.5452508,
        "lon": 73.9063531,
        "tags": {
          "amenity": "restaurant",
          "name": "Rajdhani"
        }
      },
      {
        "type": "node",
        "id": 1768859199,
        "lat": 18.5381475,
        "lon": 73.9068979,
        "tags": {
          "amenity": "cafe",
          "name": "Pesto Pesto",
          "opening_hours": "Mo-Su 09:00-23:00"
        }
      },
      {
        "type": "node",
        "id": 1899601536,
        "lat": 18.544444,
        "lon": 73.9111235,
        "tags": {
          "addr:housename": "B3 Cerebrum IT Park",
          "addr:street": "Kalyani Nagar",
          "name": "D mart",
          "shop": "supermarket",
          "source": "Local knowledge"
        }
      },
      {
        "type": "node",
        "id": 2445378048,
        "lat": 18.5391378,
        "lon": 73.9046835,
        "tags": {
          "amenity": "fast_food",
          "brand": "Burger King",
          "brand:pa": "\u0a2c\u0a30\u0a17\u0a30 \u0a15\u0a3f\u0a70\u0a17",
          "brand:ur": "\u0628\u0631\u06af\u0631 \u06a9\u0646\u06af",
          "brand:wikidata": "Q177054",
          "brand:wikipedia": "en:Burger King",
          "brand:wikipedia:pa": "\u0a2c\u0a30\u0a17\u0a30 \u0a15\u0a3f\u0a70\u0a17",
          "brand:wikipedia:ur": "\u0628\u0631\u06af\u0631 \u06a9\u0646\u06af",
          "cuisine": "burger",
          "name": "Burger King",
          "name:pa": "\u0a2c\u0a30\u0a17\u0a30 \u0a15\u0a3f\u0a70\u0a17",
          "name:ru": "\u0411\u0443\u0440\u0433\u0435\u0440 \u041a\u0438\u043d\u0433",
          "name:ur": "\u0628\u0631\u06af\u0631 \u06a9\u0646\u06af",
          "takeaway": "yes"
        }
      },
      {
        "type": "node",
        "id": 2955707706,
        "lat": 18.5346916,
        "lon": 73.9120424,
        "tags": {
          "amenity": "restaurant",
          "name": "Chillies"
        }
      },
      {
        "type": "node",
        "id": 5237312521,
        "lat": 18.5453435,
        "lon": 73.9062706,
        "tags": {
          "amenity": "restaurant",
          "name:en": "Domino's pizza",
          "name:ko": "\ub3c4\ubbf8\ub178\ud53c\uc790"
        }
      },
      {
        "type": "node",
        "id": 6186406673,
        "lat": 18.544769,
        "lon": 73.9115444,
        "tags": {
          "amenity": "bank",
          "brand": "Bandhan Bank",
          "brand:wikidata": "Q19882235",
          "name": "Bandhan Bank",
          "name:mr": "\u092c\u0902\u0927\u0928 \u092c\u0901\u0915",
          "operator": "Bandhan Bank"
        }
      },
      {
        "type": "node",
        "id": 6186406675,
        "lat": 18.5450945,
        "lon": 73.9098519,
        "tags": {
          "amenity": "bank",
          "brand": "State Bank of India",
          "brand:wikidata": "Q1340361",
          "name": "State Bank of India",
          "name:mr": "\u092d\u093e\u0930\u0924\u0940\u092f \u0938\u094d\u091f\u0947\u091f \u092c\u0901\u0915",
          "operator": "State Bank of India",
          "short_name": "SBI"
        }
      },
      {
        "type": "node",
        "id": 6186406676,
        "lat": 18.5450716,
        "lon": 73.9099538,
        "tags": {
          "amenity": "atm",
          "brand": "State Bank of India",
          "brand:wikidata": "Q1340361",
          "check_date": "2021-06-18",
          "name": "State Bank of India",
          "name:mr": "\u092d\u093e\u0930\u0924\u0940\u092f \u0938\u094d\u091f\u0947\u091f \u092c\u0901\u0915",
          "operator": "State Bank of India",
          "operator:wikidata": "Q1340361",
          "short_name": "SBI"
        }
      },
      {
        "type": "node",
        "id": 6186406677,
        "lat": 18.5449838,
        "lon": 73.9057971,
        "tags": {
          "amenity": "bank",
          "brand": "IndusInd Bank",
          "brand:wikidata": "Q2040323",
          "name": "IndusInd Bank",
          "name:mr": "\u0907\u0902\u0921\u0938\u0907\u0902\u0921 \u092c\u0901\u0915",
          "operator": "IndusInd Bank"
        }
      },
      {
        "type": "node",
        "id": 6186406678,
        "lat": 18.5450449,
        "lon": 73.9058132,
        "tags": {
          "amenity": "atm",
          "brand": "IndusInd Bank",
          "brand:wikidata": "Q2040323",
          "name": "IndusInd Bank",
          "name:mr": "\u0907\u0902\u0921\u0938\u0907\u0902\u0921 \u092c\u0901\u0915",
          "opening_hours": "24/7",
          "operator": "IndusInd Bank",
          "operator:wikidata": "Q2040323"
        }
      },
      {
        "type": "node",
        "id": 6186406680,
        "lat": 18.5436606,
        "lon": 73.9050465,
        "tags": {
          "amenity": "restaurant",
          "name": "Farzi Caf\u00e9",
          "name:mr": "\u092b\u0930\u094d\u091c\u0940 \u0915\u0945\u092b\u0947"
        }
      },
      {
        "type": "node",
        "id": 10032910251,
        "lat": 18.5317721,
        "lon": 73.9102836,
        "tags": {
          "amenity": "restaurant",
          "name": "Sorriso - Italian restaurant"
        }
      },
      {
        "type": "node",
        "id": 11527158738,
        "lat": 18.5312393,
        "lon": 73.9162682,
        "tags": {
          "access": "yes",
          "addr:city": "pune",
          "addr:district": "pune",
          "addr:street": "Mundhwa Road",
          "leisure": "park",
          "name": "lonkar",
          "opening_hours": "Mo-Su 09:00-21:00",
          "operator": "lonkae",
          "operator:type": "public"
        }
      },
      {
        "type": "node",
        "id": 12246275637,
        "lat": 18.5391273,
        "lon": 73.9079052,
        "tags": {
          "name": "The Kopa",
          "shop": "mall",
          "website": "https://kopapune.com/"
        }
      },
      {
        "type": "node",
        "id": 12246293675,
        "lat": 18.5393387,
        "lon": 73.9078762,
        "tags": {
          "amenity": "restaurant",
          "level": "2",
          "name": "Kyma"
        }
      }
    ]
  },
  "pois_2_5km": {
    "version": 0.6,
    "generator": "Overpass API 0.7.62.8 e802775f",
    "osm3s": {
      "timestamp_osm_base": "2025-09-07T11:32:35Z",
      "copyright": "The data included in this document is from www.openstreetmap.org. The data is made available under ODbL."
    },
    "elements": [
      {
        "type": "node",
        "id": 2257797308,
        "lat": 18.528148,
        "lon": 73.8939317,
        "tags": {
          "internet_access": "no",
          "name": "Ghorpuri",
          "name:mr": "\u0918\u094b\u0930\u092a\u0921\u0940",
          "network": "IR",
          "operator": "CR",
          "public_transport": "station",
          "railway": "station",
          "ref": "GPR",
          "train": "yes",
          "wikidata": "Q18125106"
        }
      },
      {
        "type": "node",
        "id": 2257797322,
        "lat": 18.5281002,
        "lon": 73.8938934,
        "tags": {
          "public_transport": "stop_position"
        }
      },
      {
        "type": "node",
        "id": 2257797333,
        "lat": 18.5282168,
        "lon": 73.8939378,
        "tags": {
          "public_transport": "stop_position"
        }
      },
      {
        "type": "node",
        "id": 2539975310,
        "lat": 18.526967,
        "lon": 73.9278252,
        "tags": {
          "internet_access": "no",
          "name": "Hadapsar Railway Station",
          "name:mr": "\u0939\u0921\u092a\u0938\u0930",
          "network": "IR",
          "operator": "CR",
          "public_transport": "station",
          "railway": "station",
          "ref": "HDP",
          "train": "yes",
          "wikidata": "Q18125398",
          "wikipedia": "en:Hadapsar railway station"
        }
      },
      {
        "type": "node",
        "id": 2539975630,
        "lat": 18.5267791,
        "lon": 73.9277417,
        "tags": {
          "public_transport": "stop_position",
          "train": "yes"
        }
      },
      {
        "type": "node",
        "id": 2539975640,
        "lat": 18.5269951,
        "lon": 73.9271246,
        "tags": {
          "public_transport": "stop_position",
          "train": "yes"
        }
      },
      {
        "type": "node",
        "id": 3522891765,
        "lat": 18.5320031,
        "lon": 73.9328051,
        "tags": {
          "amenity": "fuel",
          "brand": "Shell",
          "brand:wikidata": "Q110716465",
          "name": "Shell",
          "source": "GPS"
        }
      },
      {
        "type": "node",
        "id": 11688010839,
        "lat": 18.5323221,
        "lon": 73.9318645,
        "tags": {
          "amenity": "fuel",
          "brand": "MNGL",
          "fuel:cng": "yes",
          "name": "Gaikwad CNG station",
          "self_service": "no"
        }
      },
      {
        "type": "node",
        "id": 11690681124,
        "lat": 18.5469569,
        "lon": 73.9294557,
        "tags": {
          "amenity": "cinema",
          "name": "Bollywood",
          "name:mr": "\u092c\u0949\u0932\u093f\u0935\u0942\u0921"
        }
      },
      {
        "type": "node",
        "id": 11699340494,
        "lat": 18.5571164,
        "lon": 73.9085719,
        "tags": {
          "layer": "2",
          "name": "Ramwadi",
          "name:mr": "\u0930\u093e\u092e\u0935\u093e\u0921\u0940",
          "operator": "MahaMetro",
          "public_transport": "stop_position",
          "railway": "stop",
          "subway": "yes"
        }
      },
      {
        "type": "node",
        "id": 11699340653,
        "lat": 18.5444651,
        "lon": 73.9056677,
        "tags": {
          "layer": "2",
          "name": "Kalyani Nagar",
          "name:mr": "\u0915\u0932\u094d\u092f\u093e\u0923\u0940 \u0928\u0917\u0930",
          "operator": "MahaMetro",
          "public_transport": "stop_position",
          "railway": "stop",
          "subway": "yes"
        }
      },
      {
        "type": "node",
        "id": 11699340654,
        "lat": 18.5444493,
        "lon": 73.9057122,
        "tags": {
          "layer": "2",
          "name": "Kalyani Nagar",
          "name:mr": "\u0915\u0932\u094d\u092f\u093e\u0923\u0940 \u0928\u0917\u0930",
          "operator": "MahaMetro",
          "public_transport": "stop_position",
          "railway": "stop",
          "subway": "yes"
        }
      },
      {
        "type": "node",
        "id": 11699340655,
        "lat": 18.5444806,
        "lon": 73.9056979,
        "tags": {
          "name": "Kalyani Nagar",
          "name:mr": "\u0915\u0932\u094d\u092f\u093e\u0923\u0940 \u0928\u0917\u0930",
          "network": "Pune Metro",
          "network:wikidata": "Q3595697",
          "public_transport": "station",
          "railway": "station",
          "station": "subway",
          "subway": "yes",
          "wikipedia": "en:Kalyani Nagar metro station"
        }
      },
      {
        "type": "node",
        "id": 11699340656,
        "lat": 18.5570831,
        "lon": 73.9085916,
        "tags": {
          "layer": "2",
          "name": "Ramwadi",
          "name:mr": "\u0930\u093e\u092e\u0935\u093e\u0921\u0940",
          "operator": "MahaMetro",
          "public_transport": "stop_position",
          "railway": "stop",
          "subway": "yes"
        }
      },
      {
        "type": "node",
        "id": 11699340657,
        "lat": 18.5571183,
        "lon": 73.9086071,
        "tags": {
          "name": "Ramwadi",
          "name:mr": "\u0930\u093e\u092e\u0935\u093e\u0921\u0940",
          "network": "Pune Metro",
          "network:wikidata": "Q3595697",
          "public_transport": "station",
          "railway": "station",
          "station": "subway",
          "subway": "yes",
          "wikipedia": "en:Ramwadi metro station"
        }
      },
      {
        "type": "node",
        "id": 12863629710,
        "lat": 18.5795095,
        "lon": 73.9099537,
        "tags": {
          "aeroway": "terminal"
        }
      }
    ]
  }
}