{
  "pois_1km": {
    "version": 0.6,
    "generator": "Overpass API 0.7.62.8 e802775f",
    "osm3s": {
      "timestamp_osm_base": "2025-09-07T11:24:30Z",
      "copyright": "The data included in this document is from www.openstreetmap.org. The data is made available under ODbL."
    },
    "elements": [
      {
        "type": "node",
        "id": 1211826817,
        "lat": 18.5188515,
        "lon": 73.8497965,
        "tags": {
          "amenity": "fast_food"
        }
      },
      {
        "type": "node",
        "id": 1911011471,
        "lat": 18.5137742,
        "lon": 73.8617339,
        "tags": {
          "amenity": "atm",
          "brand": "Axis Bank",
          "brand:wikidata": "Q2003549",
          "fee": "no",
          "operator": "Axis Bank",
          "operator:wikidata": "Q2003549"
        }
      },
      {
        "type": "node",
        "id": 2266979719,
        "lat": 18.5182703,
        "lon": 73.8446191,
        "tags": {
          "addr:housename": "Suyog Plaza",
          "addr:housenumber": "1728",
          "addr:postcode": "411004",
          "addr:street": "Jangli Maharaj Path",
          "amenity": "fast_food",
          "brand": "McDonald's",
          "brand:pa": "\u0a2e\u0a48\u0a15\u0a21\u0a4b\u0a28\u0a32\u0a21\u2019\u0a1c\u0a3c",
          "brand:ur": "\u0645\u06a9\u0688\u0648\u0646\u0644\u0688\u0632",
          "brand:wikidata": "Q38076",
          "brand:wikipedia": "en:McDonald's",
          "brand:wikipedia:pa": "\u0a2e\u0a48\u0a15\u0a21\u0a4b\u0a28\u0a32\u0a21\u2019\u0a1c\u0a3c",
          "brand:wikipedia:ur": "\u0645\u06a9\u0688\u0648\u0646\u0644\u0688\u0632",
          "cuisine": "burger",
          "name": "McDonald's",
          "name:mr": "\u092e\u0945\u0915\u0921\u0949\u0928\u0932\u094d\u0921\u094d\u0938",
          "name:pa": "\u0a2e\u0a48\u0a15\u0a21\u0a4b\u0a28\u0a32\u0a21\u2019\u0a1c\u0a3c",
          "name:ur": "\u0645\u06a9\u0688\u0648\u0646\u0644\u0688\u0632",
          "opening_hours": "Mo-Su 07:00-24:00",
          "takeaway": "yes",
          "website": "https://www.mcdonaldsindia.com/"
        }
      },
      {
        "type": "node",
        "id": 2289294093,
        "lat": 18.521259,
        "lon": 73.8556767,
        "tags": {
          "addr:city": "Pune",
          "addr:full": "Near Shaniwar Wada",
          "addr:housenumber": "1317",
          "addr:postcode": "411011",
          "addr:street": "Agarwal Road",
          "addr:suburb": "Kasba Peth",
          "amenity": "hospital",
          "healthcare": "hospital",
          "name": "Surya Sahyadri Hospital",
          "name:mr": "\u0938\u0941\u0930\u094d\u092f\u093e \u0930\u0941\u0917\u094d\u0923\u093e\u0932\u092f",
          "operator": "Sahyadri Hospitals",
          "phone": "02024574232",
          "website": "https://www.sahyadrihospital.com/"
        }
      },
      {
        "type": "node",
        "id": 2488142173,
        "lat": 18.5202983,
        "lon": 73.8457959,
        "tags": {
          "amenity": "restaurant",
          "cuisine": "indian",
          "name": "Shivsagar",
          "name:mr": "\u0936\u093f\u0935\u0938\u093e\u0917\u0930",
          "phone": "02025889601",
          "website": "https://shivsagar.com/"
        }
      },
      {
        "type": "node",
        "id": 2858176018,
        "lat": 18.5136974,
        "lon": 73.8539446,
        "tags": {
          "amenity": "bank",
          "atm": "yes",
          "brand": "Bank of Maharashtra",
          "brand:wikidata": "Q2004304",
          "brand:wikipedia": "en:Bank of Maharashtra",
          "name": "Bank of Maharashtra",
          "name:en": "Bank of Maharashtra",
          "name:mr": "\u092c\u0901\u0915 \u0911\u092b \u092e\u0939\u093e\u0930\u093e\u0937\u094d\u091f\u094d\u0930, \u092c\u093e\u091c\u0940\u0930\u093e\u0935 \u092a\u0925 \u0936\u093e\u0916\u093e",
          "website": "https://www.bankofmaharashtra.in/"
        }
      },
      {
        "type": "node",
        "id": 2858176021,
        "lat": 18.5133208,
        "lon": 73.8479184,
        "tags": {
          "amenity": "bank",
          "atm": "yes",
          "brand": "IDBI Bank",
          "brand:wikidata": "Q3633485",
          "brand:wikipedia": "en:IDBI Bank",
          "name": "IDBI Bank",
          "name:en": "IDBI Bank",
          "old_name": "Industrial Development Bank of India",
          "operator": "IDBI",
          "short_name": "IDBI",
          "website": "https://www.idbi.com"
        }
      },
      {
        "type": "node",
        "id": 2858176216,
        "lat": 18.5134848,
        "lon": 73.8508498,
        "tags": {
          "amenity": "atm",
          "brand": "State Bank of India",
          "brand:wikidata": "Q1340361",
          "operator": "State Bank of India",
          "operator:wikidata": "Q1340361",
          "short_name": "SBI"
        }
      },
      {
        "type": "node",
        "id": 2858176227,
        "lat": 18.5137033,
        "lon": 73.850255,
        "tags": {
          "amenity": "atm",
          "brand": "HDFC Bank",
          "brand:wikidata": "Q631047",
          "operator": "HDFC Bank",
          "operator:wikidata": "Q631047",
          "short_name": "HDFC"
        }
      },
      {
        "type": "node",
        "id": 2859985523,
        "lat": 18.5233029,
        "lon": 73.8474353,
        "tags": {
          "amenity": "bank",
          "atm": "yes",
          "brand": "Federal Bank",
          "brand:wikidata": "Q2044983",
          "brand:wikipedia": "en:Federal Bank",
          "name": "Federal Bank",
          "name:en": "Federal Bank",
          "name:mr": "\u092b\u0947\u0921\u0930\u0932 \u092c\u0901\u0915",
          "operator": "Federal Bank",
          "website": "https://www.federalbank.co.in"
        }
      },
      {
        "type": "node",
        "id": 2859985546,
        "lat": 18.5170315,
        "lon": 73.854006,
        "tags": {
          "amenity": "atm",
          "brand": "ICICI Bank",
          "brand:wikidata": "Q1653258",
          "operator": "ICICI Bank",
          "operator:wikidata": "Q1653258",
          "short_name": "ICICI"
        }
      },
      {
        "type": "node",
        "id": 2859985547,
        "lat": 18.5200119,
        "lon": 73.8527467,
        "tags": {
          "amenity": "atm",
          "brand": "Bank of Baroda",
          "brand:wikidata": "Q2003797",
          "operator": "Bank of Baroda",
          "operator:wikidata": "Q2003797"
        }
      },
      {
        "type": "node",
        "id": 2868930217,
        "lat": 18.5157746,
        "lon": 73.8564341,
        "tags": {
          "amenity": "restaurant",
          "cuisine": "indian",
          "diet:lacto_vegetarian": "only",
          "name": "Samadhan",
          "name:mr": "\u0938\u092e\u093e\u0927\u093e\u0928"
        }
      },
      {
        "type": "node",
        "id": 2962669671,
        "lat": 18.5192288,
        "lon": 73.8454021,
        "tags": {
          "addr:city": "Pune",
          "addr:postcode": "411004",
          "addr:street": "Jangli Maharaj Road",
          "amenity": "fast_food",
          "cuisine": "donut",
          "name": "Mad Over Donuts",
          "name:mr": "\u092e\u0945\u0921 \u0913\u0935\u094d\u0939\u0930 \u0921\u094b\u0928\u091f\u094d\u0938",
          "opening_hours": "Mo-Su 09:00-23:00",
          "phone": "02025530117",
          "website": "https://www.madoverdonuts.com/"
        }
      },
      {
        "type": "node",
        "id": 3238255107,
        "lat": 18.5102879,
        "lon": 73.8594694,
        "tags": {
          "addr:district": "Pune",
          "addr:full": "781/782, Shukrawar Peth, Opposite Jain Mandir",
          "addr:postcode": "411002",
          "addr:state": "Maharashtra",
          "amenity": "hospital",
          "name": "Naik Hospital, Pune",
          "name:mr": "\u0928\u093e\u0908\u0915 \u0930\u0941\u0917\u094d\u0923\u093e\u0932\u092f",
          "source": "OpenGovernmentData"
        }
      },
      {
        "type": "node",
        "id": 3533206593,
        "lat": 18.5228996,
        "lon": 73.8483963,
        "tags": {
          "amenity": "cafe",
          "brand": "Cafe Coffee Day",
          "brand:wikidata": "Q5017235",
          "cuisine": "coffee_shop",
          "name": "Cafe Coffee Day",
          "opening_hours": "Mo-Su 09:00-23:00",
          "phone": "+919326877251",
          "takeaway": "yes",
          "website": "https://www.cafecoffeeday.com/"
        }
      },
      {
        "type": "node",
        "id": 3637303226,
        "lat": 18.514425,
        "lon": 73.8542899,
        "tags": {
          "addr:street": "Laxmi Road",
          "amenity": "restaurant",
          "diet:vegetarian": "yes",
          "internet_access": "yes",
          "name": "Agatya",
          "opening_hours": "Mo-Su 08:00-23:30",
          "phone": "+91 20 2445 6019"
        }
      },
      {
        "type": "node",
        "id": 3750411928,
        "lat": 18.5229314,
        "lon": 73.8484216,
        "tags": {
          "amenity": "atm",
          "brand": "Yes Bank",
          "brand:wikidata": "Q2040394",
          "check_date": "2022-09-11",
          "name": "Yes Bank",
          "operator": "Yes Bank",
          "operator:wikidata": "Q2040394"
        }
      },
      {
        "type": "node",
        "id": 3837531765,
        "lat": 18.518195,
        "lon": 73.8445681,
        "tags": {
          "addr:housenumber": "1728",
          "addr:postcode": "411004",
          "addr:street": "Jangli Maharaj Path",
          "amenity": "bank",
          "brand": "Corporation Bank",
          "brand:wikidata": "Q2003387",
          "brand:wikipedia": "en:Corporation Bank",
          "name": "Corporation Bank",
          "name:en": "Corporation Bank",
          "name:mr": "\u0915\u0949\u0930\u094d\u092a\u094b\u0930\u0947\u0936\u0928 \u092c\u0901\u0915",
          "website": "https://corpbank.com/"
        }
      },
      {
        "type": "node",
        "id": 3837531767,
        "lat": 18.5190715,
        "lon": 73.8452439,
        "tags": {
          "amenity": "cafe",
          "name": "Floyds 23",
          "name:mr": "\u092b\u094d\u0932\u0949\u0907\u0921\u094d\u0938 \u0968\u0969"
        }
      },
      {
        "type": "node",
        "id": 3837531780,
        "lat": 18.5147245,
        "lon": 73.8456703,
        "tags": {
          "amenity": "atm",
          "brand": "State Bank of India",
          "brand:wikidata": "Q1340361",
          "operator": "State Bank of India",
          "operator:wikidata": "Q1340361",
          "short_name": "SBI"
        }
      },
      {
        "type": "node",
        "id": 3837531789,
        "lat": 18.5191087,
        "lon": 73.845273,
        "tags": {
          "amenity": "atm",
          "brand": "Punjab National Bank",
          "brand:wikidata": "Q2743499",
          "operator": "Punjab National Bank",
          "operator:wikidata": "Q2743499",
          "wheelchair": "no"
        }
      },
      {
        "type": "node",
        "id": 3837531790,
        "lat": 18.5191305,
        "lon": 73.8452912,
        "tags": {
          "amenity": "atm",
          "brand": "Corporation Bank",
          "brand:wikidata": "Q2003387",
          "opening_hours": "24/7",
          "operator": "Corporation Bank",
          "operator:wikidata": "Q2003387",
          "wheelchair": "no"
        }
      },
      {
        "type": "node",
        "id": 4677869894,
        "lat": 18.5125847,
        "lon": 73.8502282,
        "tags": {
          "amenity": "atm",
          "brand": "ICICI Bank",
          "brand:wikidata": "Q1653258",
          "name": "ICICI Bank",
          "name:mr": "\u0906\u092f\u0938\u0940\u0906\u092f\u0938\u0940\u0906\u092f \u092c\u0901\u0915",
          "opening_hours": "24/7",
          "operator": "ICICI Bank",
          "operator:wikidata": "Q1653258",
          "short_name": "ICICI"
        }
      },
      {
        "type": "node",
        "id": 4677974490,
        "lat": 18.5164422,
        "lon": 73.8500144,
        "tags": {
          "amenity": "atm",
          "brand": "Axis Bank",
          "brand:wikidata": "Q2003549",
          "operator": "Axis Bank",
          "operator:wikidata": "Q2003549"
        }
      },
      {
        "type": "node",
        "id": 4678217592,
        "lat": 18.5186979,
        "lon": 73.8587869,
        "tags": {
          "amenity": "bank",
          "name:en": "Pune urban Bank"
        }
      },
      {
        "type": "node",
        "id": 4678263089,
        "lat": 18.5184143,
        "lon": 73.8596076,
        "tags": {
          "amenity": "bank",
          "brand": "ICICI Bank",
          "brand:wikidata": "Q1653258",
          "name": "ICICI Bank",
          "name:en": "ICICI",
          "short_name": "ICICI"
        }
      },
      {
        "type": "node",
        "id": 4853188614,
        "lat": 18.520535,
        "lon": 73.8460261,
        "tags": {
          "amenity": "restaurant",
          "cuisine": "indian",
          "name": "Supreme Corner",
          "name:mr": "\u0938\u0941\u092a\u094d\u0930\u0940\u092e \u0915\u0949\u0930\u094d\u0928\u0930"
        }
      },
      {
        "type": "node",
        "id": 5122330523,
        "lat": 18.5157857,
        "lon": 73.8538483,
        "tags": {
          "amenity": "atm",
          "brand": "Axis Bank",
          "brand:wikidata": "Q2003549",
          "operator": "Axis Bank",
          "operator:wikidata": "Q2003549"
        }
      },
      {
        "type": "node",
        "id": 5122377521,
        "lat": 18.5130522,
        "lon": 73.8539021,
        "tags": {
          "amenity": "clinic",
          "name:en": "Piles care clinic"
        }
      },
      {
        "type": "node",
        "id": 5122377522,
        "lat": 18.5146424,
        "lon": 73.8538436,
        "tags": {
          "amenity": "bank",
          "name:en": "Ganesh Sahkari Bank"
        }
      },
      {
        "type": "node",
        "id": 5122377921,
        "lat": 18.5163157,
        "lon": 73.8539061,
        "tags": {
          "amenity": "bank",
          "name:en": "Saraswat Cooperative Bank"
        }
      },
      {
        "type": "node",
        "id": 5554773712,
        "lat": 18.5253926,
        "lon": 73.8532647,
        "tags": {
          "amenity": "restaurant",
          "name": "Aalok",
          "name:mr": "\u0906\u0932\u094b\u0915"
        }
      },
      {
        "type": "node",
        "id": 5682056653,
        "lat": 18.5170485,
        "lon": 73.8607572,
        "tags": {
          "leisure": "park",
          "name": "NG park"
        }
      },
      {
        "type": "node",
        "id": 5832579347,
        "lat": 18.5143979,
        "lon": 73.8460515,
        "tags": {
          "amenity": "hospital",
          "healthcare": "hospital",
          "name": "Paranjape Hospital",
          "name:mr": "\u092a\u0930\u093e\u0902\u091c\u092a\u0947 \u0939\u0949\u0938\u094d\u092a\u093f\u091f\u0932"
        }
      },
      {
        "type": "node",
        "id": 5832579348,
        "lat": 18.5142459,
        "lon": 73.8461682,
        "tags": {
          "amenity": "restaurant",
          "contact:phone": "+912024453820",
          "delivery": "yes",
          "name": "New Apoorwai",
          "name:mr": "\u0928\u094d\u092f\u0942 \u0905\u092a\u0942\u0930\u094d\u0935\u093e\u0908",
          "phone": "+912024453820"
        }
      },
      {
        "type": "node",
        "id": 5832579350,
        "lat": 18.5140154,
        "lon": 73.8470218,
        "tags": {
          "amenity": "atm",
          "brand": "Kotak Mahindra Bank",
          "brand:wikidata": "Q2040404",
          "name": "Kotak Mahindra Bank",
          "name:mr": "\u0915\u094b\u091f\u0915 \u092e\u0939\u093f\u0902\u0926\u094d\u0930\u093e \u092c\u0901\u0915",
          "opening_hours": "24/7",
          "operator": "Kotak Mahindra Bank",
          "operator:wikidata": "Q2040404"
        }
      },
      {
        "type": "node",
        "id": 5832579351,
        "lat": 18.5140094,
        "lon": 73.8469725,
        "tags": {
          "amenity": "atm",
          "brand": "State Bank of India",
          "brand:wikidata": "Q1340361",
          "name": "State Bank of India",
          "name:mr": "\u0938\u094d\u091f\u0947\u091f \u092c\u0901\u0915 \u0911\u092b \u0907\u0902\u0921\u093f\u092f\u093e",
          "opening_hours": "24/7",
          "operator": "State Bank of India",
          "operator:wikidata": "Q1340361",
          "short_name": "SBI"
        }
      },
      {
        "type": "node",
        "id": 5832579353,
        "lat": 18.5140246,
        "lon": 73.847048,
        "tags": {
          "addr:city": "Pune",
          "amenity": "bank",
          "name": "Bhangini Nivedita Sahakari Bank",
          "name:en": "Bhangini Nivedita Sahakari Bank",
          "name:mr": "\u092d\u0917\u093f\u0928\u0940 \u0928\u093f\u0935\u0947\u0926\u093f\u0924\u093e \u0938\u0939\u0915\u093e\u0930\u0940 \u092c\u0901\u0915",
          "operator": "Bhangini Nivedita Sahakari Bank"
        }
      },
      {
        "type": "node",
        "id": 5832579356,
        "lat": 18.5127211,
        "lon": 73.8585547,
        "tags": {
          "amenity": "restaurant",
          "cuisine": "indian",
          "name": "Shri Niyanand Bhuvan",
          "name:mr": "\u0936\u094d\u0930\u0940 \u0928\u093f\u0924\u094d\u092f\u093e\u0928\u0902\u0926 \u092d\u0941\u0935\u0928"
        }
      },
      {
        "type": "node",
        "id": 5832579357,
        "lat": 18.5130683,
        "lon": 73.8575435,
        "tags": {
          "amenity": "bank",
          "name": "TJSB Bank",
          "name:mr": "\u091f\u0940\u091c\u0947\u090f\u0938\u092c\u0940 \u092c\u0901\u0915",
          "operator": "TJSB Bank"
        }
      },
      {
        "type": "node",
        "id": 6015253124,
        "lat": 18.5085454,
        "lon": 73.8512373,
        "tags": {
          "amenity": "restaurant",
          "cuisine": "indian;maharashtrian",
          "name": "Phadke Dining Hall"
        }
      },
      {
        "type": "node",
        "id": 6145662564,
        "lat": 18.5226465,
        "lon": 73.8490851,
        "tags": {
          "amenity": "restaurant",
          "name": "Gandharva",
          "name:mr": "\u0917\u0902\u0927\u0930\u094d\u0935"
        }
      },
      {
        "type": "node",
        "id": 6228875585,
        "lat": 18.5197288,
        "lon": 73.862533,
        "tags": {
          "amenity": "restaurant",
          "name:en": "Hotel Nageshwar"
        }
      },
      {
        "type": "node",
        "id": 6244656793,
        "lat": 18.5186243,
        "lon": 73.8499951,
        "tags": {
          "amenity": "atm",
          "brand": "ICICI Bank",
          "brand:wikidata": "Q1653258",
          "name": "ICICI Bank",
          "name:mr": "\u0906\u092f\u0938\u0940\u0906\u092f\u0938\u0940\u0906\u092f \u092c\u0901\u0915",
          "opening_hours": "24/7",
          "operator": "ICICI Bank",
          "operator:wikidata": "Q1653258",
          "short_name": "ICICI"
        }
      },
      {
        "type": "node",
        "id": 6244656799,
        "lat": 18.5126143,
        "lon": 73.8502251,
        "tags": {
          "amenity": "bank",
          "brand": "ICICI Bank",
          "brand:wikidata": "Q1653258",
          "name": "ICICI Bank",
          "name:mr": "\u0906\u092f\u0938\u0940\u0906\u092f\u0938\u0940\u0906\u092f \u092c\u0901\u0915",
          "operator": "ICICI Bank",
          "short_name": "ICICI"
        }
      },
      {
        "type": "node",
        "id": 6244656805,
        "lat": 18.5143782,
        "lon": 73.8524432,
        "tags": {
          "amenity": "atm",
          "brand": "Cosmos Bank",
          "name": "Cosmos Bank",
          "name:mr": "\u0915\u0949\u0938\u092e\u0949\u0938 \u092c\u0901\u0915",
          "opening_hours": "24/7",
          "operator": "Cosmos Bank"
        }
      },
      {
        "type": "node",
        "id": 6244656806,
        "lat": 18.5144189,
        "lon": 73.8524955,
        "tags": {
          "amenity": "bank",
          "brand": "Cosmos Bank",
          "name": "Cosmos Bank",
          "name:mr": "\u0915\u0949\u0938\u092e\u0949\u0938 \u092c\u0901\u0915",
          "operator": "Cosmos Bank"
        }
      },
      {
        "type": "node",
        "id": 7042939578,
        "lat": 18.5168084,
        "lon": 73.859535,
        "tags": {
          "addr:district": "Pune",
          "addr:full": "420, Moti Chowk Ravivar Peth , 420, Moti Chowk Ravivar Peth",
          "addr:postcode": "411001",
          "addr:state": "Maharashtra",
          "amenity": "hospital",
          "healthcare": "hospital",
          "name": "Yashda Hospital",
          "source": "OpenGovernmentData"
        }
      },
      {
        "type": "node",
        "id": 7045823776,
        "lat": 18.5119352,
        "lon": 73.857758,
        "tags": {
          "addr:district": "Pune",
          "addr:full": "351 Shukrawar Peth",
          "addr:postcode": "411013",
          "addr:state": "Maharashtra",
          "amenity": "hospital",
          "healthcare": "hospital",
          "name": "Umarji Hospital",
          "source": "OpenGovernmentData"
        }
      },
      {
        "type": "node",
        "id": 7048261228,
        "lat": 18.5189181,
        "lon": 73.8599682,
        "tags": {
          "addr:district": "Pune",
          "addr:full": "23, Mangalwar Peth",
          "addr:postcode": "411011",
          "addr:state": "Maharashtra",
          "amenity": "clinic",
          "health_facility:type": "dispensary",
          "healthcare": "centre",
          "name": "CGHS Dispensary No.4",
          "operator:type": "government",
          "source": "OpenGovernmentData",
          "website": "http://nb.bsf.gov.in/CGHS%20DIspenseries.pdf"
        }
      },
      {
        "type": "node",
        "id": 7050589614,
        "lat": 18.5158253,
        "lon": 73.8474959,
        "tags": {
          "addr:district": "Pune",
          "addr:full": "555, Narayan Peth, N C Kelkar Road",
          "addr:postcode": "411030",
          "addr:state": "Maharashtra",
          "amenity": "hospital",
          "healthcare": "hospital",
          "name": "Ashakiran Hospital",
          "source": "OpenGovernmentData"
        }
      },
      {
        "type": "node",
        "id": 7050627585,
        "lat": 18.5137805,
        "lon": 73.8476971,
        "tags": {
          "addr:district": "Pune",
          "addr:full": "No. 695, Sadashiva Peth, ,Opposite Vijay Cinema,Laxmi Road",
          "addr:postcode": "411030",
          "addr:state": "Maharashtra",
          "amenity": "hospital",
          "healthcare": "hospital",
          "name": "Sant Dnyaneswar Medical Education Research Centre",
          "source": "OpenGovernmentData"
        }
      },
      {
        "type": "node",
        "id": 7051137462,
        "lat": 18.5252254,
        "lon": 73.8499763,
        "tags": {
          "addr:district": "Pune",
          "addr:full": "1233, Shivaji Nagar, J.M. Road",
          "addr:postcode": "411005",
          "addr:state": "Maharashtra",
          "amenity": "hospital",
          "healthcare": "hospital",
          "name": "Dr. Karve Childrens Hospital",
          "source": "OpenGovernmentData"
        }
      },
      {
        "type": "node",
        "id": 7051345893,
        "lat": 18.5138215,
        "lon": 73.8477098,
        "tags": {
          "addr:district": "Pune",
          "addr:full": "No. 695-A , Sadashiv Peth Laxmi Road, Opp Vijay Talkies",
          "addr:postcode": "411030",
          "addr:state": "Maharashtra",
          "amenity": "clinic",
          "name": "Shaishav Clinic",
          "source": "OpenGovernmentData"
        }
      },
      {
        "type": "node",
        "id": 7068155283,
        "lat": 18.5226796,
        "lon": 73.8508487,
        "tags": {
          "addr:district": "Pune",
          "addr:full": "No. 562 / 1, Jada Bhuvan, Shivaji Nagaar, Opp Bal Gandharv Bridge;Survey No 1187/13, Chiroda Niwas, Ghole Road, Next to NIO, Pune",
          "addr:postcode": "411005",
          "addr:state": "Maharashtra;Maharastra",
          "amenity": "hospital",
          "healthcare": "hospital",
          "name": "Pungliya Hospital",
          "source": "OpenGovernmentData;Local Knowledge"
        }
      },
      {
        "type": "node",
        "id": 7068218601,
        "lat": 18.5157802,
        "lon": 73.8471479,
        "tags": {
          "addr:district": "Pune",
          "addr:full": "Awanti Apartments Opposiste Amti Ganpati Kelkar Road Narayanpeth",
          "addr:postcode": "411027",
          "addr:state": "Maharashtra",
          "amenity": "clinic",
          "name": "S P Deshpande Eye Clinic",
          "source": "OpenGovernmentData"
        }
      },
      {
        "type": "node",
        "id": 7073895620,
        "lat": 18.5112078,
        "lon": 73.8513154,
        "tags": {
          "addr:district": "Pune",
          "addr:full": "1301 , Bharat Natya Mandir Road",
          "addr:postcode": "411030",
          "addr:state": "Maharashtra",
          "amenity": "hospital",
          "healthcare": "hospital",
          "name": "Godbole Hospital",
          "source": "OpenGovernmentData"
        }
      },
      {
        "type": "node",
        "id": 7076379915,
        "lat": 18.5208179,
        "lon": 73.8458765,
        "tags": {
          "addr:district": "Pune",
          "addr:full": "1st Floor, 1206/A/40, Matru Mandir, Opp, Jangali Maharaj Rd, Sambhaji Garden, Shivajinagar",
          "addr:postcode": "411005",
          "addr:state": "Maharashtra",
          "amenity": "clinic",
          "healthcare": "clinic",
          "name": "Bhide Clinic",
          "source": "OpenGovernmentData"
        }
      },
      {
        "type": "node",
        "id": 7076609422,
        "lat": 18.5195234,
        "lon": 73.862059,
        "tags": {
          "addr:district": "Pune",
          "addr:full": "1486, Kasba Peth , Next To Daruwala Pool",
          "addr:postcode": "411011",
          "addr:state": "Maharashtra",
          "amenity": "hospital",
          "healthcare": "hospital",
          "name": "Samarth Hospital, Pune",
          "source": "OpenGovernmentData"
        }
      },
      {
        "type": "node",
        "id": 7079411416,
        "lat": 18.5117788,
        "lon": 73.8487867,
        "tags": {
          "addr:district": "Pune",
          "addr:full": "1148,Sadashiv Peth,Opposite Perugate",
          "addr:postcode": "411030",
          "addr:state": "Maharashtra",
          "amenity": "hospital",
          "healthcare": "hospital",
          "name": "Manoj Clinic / Gore Hospital",
          "source": "OpenGovernmentData"
        }
      },
      {
        "type": "node",
        "id": 7083324260,
        "lat": 18.5207937,
        "lon": 73.8452496,
        "tags": {
          "addr:district": "Pune",
          "addr:full": "1206/4,OppositeSambhaji Park,K.P Kulkarni Road",
          "addr:postcode": "411004",
          "addr:state": "Maharashtra",
          "amenity": "hospital",
          "healthcare": "hospital",
          "name": "Centre For Laproscopy Surgery",
          "source": "OpenGovernmentData"
        }
      },
      {
        "type": "node",
        "id": 7086499129,
        "lat": 18.5232989,
        "lon": 73.8496108,
        "tags": {
          "addr:district": "Pune",
          "addr:full": "Kamal 2nd Floor, 1306 Shivajinagar, Behind Bank Of Baroda",
          "addr:postcode": "411005",
          "addr:state": "Maharashtra",
          "amenity": "clinic",
          "healthcare": "clinic",
          "name": "Pandit Clinic",
          "source": "OpenGovernmentData"
        }
      },
      {
        "type": "node",
        "id": 7226727370,
        "lat": 18.513913,
        "lon": 73.846551,
        "tags": {
          "addr:district": "Pune",
          "addr:full": "Laxmi Road, Narayan Peth, Pune, Maharashtra",
          "addr:postcode": "411030",
          "addr:state": "Maharashtra",
          "addr:subdistrict": "Pune City",
          "amenity": "hospital",
          "healthcare": "hospital",
          "name": "Sutika Seva Mandir",
          "source": "OpenGovernmentData"
        }
      },
      {
        "type": "node",
        "id": 7651453310,
        "lat": 18.5195705,
        "lon": 73.8574069,
        "tags": {
          "addr:district": "Pune",
          "addr:full": "Ramganesh Gadkari Path, Yashodatta Housing Society, Kasba Peth, Pune",
          "addr:postcode": "411011",
          "addr:state": "Maharastra",
          "amenity": "clinic",
          "healthcare": "clinic",
          "name": "Manish Clinic",
          "source": "Local Knowledge"
        }
      },
      {
        "type": "node",
        "id": 7651453315,
        "lat": 18.5131462,
        "lon": 73.8489965,
        "tags": {
          "addr:district": "Pune",
          "addr:full": "Pratham Apartment, RB Kumthekar Road, Opposite to Sadashiv Peth, Pune",
          "addr:postcode": "411030",
          "addr:state": "Maharastra",
          "amenity": "clinic",
          "healthcare": "clinic",
          "name": "Pratham Clinic",
          "source": "Local Knowledge"
        }
      },
      {
        "type": "node",
        "id": 7651453318,
        "lat": 18.51024,
        "lon": 73.8522294,
        "tags": {
          "addr:district": "Pune",
          "addr:full": "Nikhil Nikethan Apartments, Vandemataram Chowk, Near Bhikardas Maruti, Pune",
          "addr:postcode": "411030",
          "addr:state": "Maharastra",
          "amenity": "hospital",
          "name": "Date Hospital",
          "source": "Local Knowledge"
        }
      },
      {
        "type": "node",
        "id": 7651453319,
        "lat": 18.5177669,
        "lon": 73.859913,
        "tags": {
          "addr:district": "Pune",
          "addr:full": "Budhwar Peth, Pune",
          "addr:postcode": "411002",
          "addr:state": "Maharastra",
          "amenity": "clinic",
          "healthcare": "clinic",
          "name": "Dr. Saha Clinic",
          "source": "Local Knowledge"
        }
      },
      {
        "type": "node",
        "id": 7651453320,
        "lat": 18.5147901,
        "lon": 73.8484343,
        "tags": {
          "addr:district": "Pune",
          "addr:full": "405, Munjabacha Bole Road, Narayan Peth, Pune",
          "addr:postcode": "411030",
          "addr:state": "Maharastra",
          "amenity": "hospital",
          "healthcare": "hospital",
          "name": "Morya General Hospital",
          "source": "Local Knowledge"
        }
      },
      {
        "type": "node",
        "id": 7651453331,
        "lat": 18.5140279,
        "lon": 73.8502601,
        "tags": {
          "addr:district": "Pune",
          "addr:full": "Shreepal Chambers, Near Shaniwar wada, Bajirao Road, Pune",
          "addr:postcode": "411030",
          "addr:state": "Maharastra",
          "amenity": "doctors",
          "healthcare": "doctor",
          "name": "Dr. K M Gangwal",
          "source": "Local Knowledge"
        }
      },
      {
        "type": "node",
        "id": 7651453341,
        "lat": 18.516103,
        "lon": 73.8498982,
        "tags": {
          "addr:district": "Pune",
          "addr:full": "576, LB Bhopatkar Path, Bhatancha Bol, Narayan Peth, Pune",
          "addr:postcode": "411030",
          "addr:state": "Maharastra",
          "amenity": "clinic",
          "name": "Asava Clinic",
          "source": "Local Knowledge"
        }
      },
      {
        "type": "node",
        "id": 7651453359,
        "lat": 18.5108253,
        "lon": 73.850646,
        "tags": {
          "addr:district": "Pune",
          "addr:full": "Poona Hospital & Research Centre 27, Sadashiv Peth, Nr. Alka Talkies, Pune",
          "addr:postcode": "411030",
          "addr:state": "Maharastra",
          "amenity": "doctors",
          "healthcare": "doctor",
          "name": "Dr. Nitin Abhyankar",
          "source": "Local Knowledge"
        }
      },
      {
        "type": "node",
        "id": 7651453366,
        "lat": 18.5199979,
        "lon": 73.853084,
        "tags": {
          "addr:district": "Pune",
          "addr:full": "Niranjan Madhav Road, Apte Ghat, Shaniwar Peth, Pune",
          "addr:postcode": "411030",
          "addr:state": "Maharastra",
          "amenity": "doctors",
          "healthcare": "doctor",
          "name": "Dr. Neelima Beke",
          "source": "Local Knowledge"
        }
      },
      {
        "type": "node",
        "id": 7651453369,
        "lat": 18.510438,
        "lon": 73.847875,
        "tags": {
          "addr:district": "Pune",
          "addr:full": "1188, Limayewadi Road, Vishnu Bhuvan Society, Limayewadi, Sadashiv Peth, Pune",
          "addr:postcode": "411030",
          "addr:state": "Maharastra",
          "amenity": "hospital",
          "healthcare": "hospital",
          "name": "\u092f\u094b\u0917\u0947\u0936 \u0939\u0949\u0938\u094d\u092a\u093f\u091f\u0932",
          "name:en": "Yogesh Hospital",
          "opening_hours": "24/7",
          "source": "Local Knowledge"
        }
      },
      {
        "type": "node",
        "id": 7651453379,
        "lat": 18.5137927,
        "lon": 73.8476204,
        "tags": {
          "addr:district": "Pune",
          "addr:full": "695/A, Laxmi Road, Opposite Vijay Talkies, Sadashiv Peth, Pune",
          "addr:postcode": "411030",
          "addr:state": "Maharastra",
          "amenity": "hospital",
          "healthcare": "hospital",
          "name": "Shaishav Children's Hospital",
          "source": "Local Knowledge"
        }
      },
      {
        "type": "node",
        "id": 7651453381,
        "lat": 18.521921,
        "lon": 73.859575,
        "tags": {
          "addr:district": "Pune",
          "addr:full": "753, Gundacha Ganpati Road, Kasba Peth, Pune",
          "addr:postcode": "411011",
          "addr:state": "Maharastra",
          "amenity": "clinic",
          "healthcare": "clinic",
          "name": "Milenkari Clinic",
          "source": "Local Knowledge"
        }
      },
      {
        "type": "node",
        "id": 7651453390,
        "lat": 18.5122403,
        "lon": 73.8499324,
        "tags": {
          "addr:city": "Pune",
          "addr:district": "Pune",
          "addr:full": "1021/22, Sadashiv Peth Road, Nagnath Par, Sadashiv Peth, Pune",
          "addr:housenumber": "1021/22",
          "addr:postcode": "411030",
          "addr:state": "Maharastra",
          "addr:street": "Sadashiv Peth Houd",
          "amenity": "hospital",
          "healthcare:speciality": "CONSULTANT_OBSTETRICIAN_AND_GYNAECOLOGIST",
          "name": "Shintre Hospital",
          "source": "Local Knowledge",
          "website": "https://www.shintrehospital.in/"
        }
      },
      {
        "type": "node",
        "id": 7651453393,
        "lat": 18.5150421,
        "lon": 73.8464127,
        "tags": {
          "addr:district": "Pune",
          "addr:full": "VG Kothari Path, Narayan Peth, Pune",
          "addr:postcode": "411030",
          "addr:state": "Maharashtra",
          "amenity": "hospital",
          "healthcare": "hospital",
          "name": "Kalavati Mavale Hospital",
          "source": "Local Knowledge"
        }
      },
      {
        "type": "node",
        "id": 7651453396,
        "lat": 18.5152266,
        "lon": 73.8492849,
        "tags": {
          "addr:district": "Pune",
          "addr:full": "Lokhande Talim Road, Narayan Peth, Pune",
          "addr:postcode": "411030",
          "addr:state": "Maharastra",
          "amenity": "clinic",
          "healthcare": "clinic",
          "name": "Nirmal Clinic",
          "source": "Local Knowledge"
        }
      },
      {
        "type": "node",
        "id": 7651453408,
        "lat": 18.5188008,
        "lon": 73.859382,
        "tags": {
          "addr:district": "Pune",
          "addr:full": "24, Ganesh Road, Kasba Peth, Pune",
          "addr:postcode": "411011",
          "addr:state": "Maharashtra",
          "amenity": "clinic",
          "healthcare": "clinic",
          "name": "Dr. Dilip Shah Clinic",
          "source": "Local Knowledge"
        }
      },
      {
        "type": "node",
        "id": 7651453410,
        "lat": 18.5232019,
        "lon": 73.8480644,
        "tags": {
          "addr:district": "Pune",
          "addr:full": "1187/67, Gruhalaxmi Building, Balgandharv Chowk, J M Road, Shivajinagar, Pune",
          "addr:postcode": "411005",
          "addr:state": "Maharastra",
          "amenity": "clinic",
          "healthcare": "clinic",
          "name": "Borawake Clinic",
          "source": "Local Knowledge"
        }
      },
      {
        "type": "node",
        "id": 7651453416,
        "lat": 18.5162662,
        "lon": 73.8515172,
        "tags": {
          "addr:district": "Pune",
          "addr:full": "NC Kelkar Road, Bhatancha Bol, Narayan Peth, Pune",
          "addr:postcode": "411030",
          "addr:state": "Maharastra",
          "amenity": "clinic",
          "healthcare": "clinic",
          "name": "Shrutij Panchkarm Clinic",
          "source": "Local Knowledge"
        }
      },
      {
        "type": "node",
        "id": 7651453421,
        "lat": 18.5196001,
        "lon": 73.8498691,
        "tags": {
          "addr:district": "Pune",
          "addr:full": "277, Omkareshwar Path, Shaniwar Peth, Pune",
          "addr:postcode": "411030",
          "addr:state": "Maharastra",
          "amenity": "clinic",
          "name": "Patil Clinic",
          "source": "Local Knowledge"
        }
      },
      {
        "type": "node",
        "id": 7944584962,
        "lat": 18.5206664,
        "lon": 73.8472146,
        "tags": {
          "construction": "freestanding",
          "leisure": "park",
          "name": "Sambhaji Park",
          "name:etymology:wikidata": "Q2737041",
          "operator": "Pune Municipal Corporation"
        }
      },
      {
        "type": "node",
        "id": 8257641008,
        "lat": 18.516483,
        "lon": 73.8517463,
        "tags": {
          "addr:city": "Pune",
          "addr:housenumber": "Pain Management Clinic",
          "addr:postcode": "411038",
          "addr:street": "Karve Road,Near Ambar Hall Pune, Karve Road",
          "amenity": "clinic",
          "healthcare": "clinic",
          "healthcare:speciality": "PAIN_SPECIALIST",
          "name": "Pain Management Clinic",
          "website": "https://www.painclinicpune.com/painclinicpune"
        }
      },
      {
        "type": "node",
        "id": 9230274760,
        "lat": 18.5091877,
        "lon": 73.8539352,
        "tags": {
          "addr:street": "1348, Shreemant Thorle Bajirav Peshve Rd, Natu Baag, Shukrawar Peth, Pune, Maharashtra 411002",
          "amenity": "restaurant",
          "description": "South Indian Restaurant",
          "name": "Ganjraj",
          "opening_hours": "Mo-Su 07:00-23:00"
        }
      },
      {
        "type": "node",
        "id": 9232843269,
        "lat": 18.5189279,
        "lon": 73.8446593,
        "tags": {
          "addr:street": "1262/A, Prestige Chamber Jangli Maharaj Road, opp sai service petrol pump Pune Maharashtra 411004 IN, Jangali Maharaj Rd, Pune, Maharashtra",
          "amenity": "restaurant",
          "check_date": "2024-04-14",
          "cuisine": "Marathi",
          "description": "Contemporary outlet preparing Indian vegetarian dishes in a vibrant, white-walled dining room.",
          "diet:vegetarian": "yes",
          "name": "Mathura",
          "name:en": "Mathura",
          "name:mr": "\u092e\u0925\u0941\u0930\u093e",
          "opening_hours": "Mo-Su 11:30-23:30",
          "phone": "020 2553 1875",
          "website": "https://mathurapureveg.com/"
        }
      },
      {
        "type": "node",
        "id": 9278156725,
        "lat": 18.5104017,
        "lon": 73.8476123,
        "tags": {
          "amenity": "pharmacy",
          "healthcare": "pharmacy",
          "name": "Rahul Pharma"
        }
      },
      {
        "type": "node",
        "id": 9388135295,
        "lat": 18.5116828,
        "lon": 73.8486243,
        "tags": {
          "addr:street": "1149, Police Chowky, opposite Perugate, Perugate, Sadashiv Peth, Pune, Maharashtra 411030",
          "amenity": "restaurant",
          "description": "Classic Saatwik dishes from Pune & the surrounding region, served in a casual space.",
          "name": "New Poona Boarding House",
          "opening_hours": "Mo-Su 11:00-15:00, 19:00-22:00"
        }
      },
      {
        "type": "node",
        "id": 10172884663,
        "lat": 18.5108703,
        "lon": 73.8488493,
        "tags": {
          "amenity": "restaurant",
          "name": "sooth indian dosa shop"
        }
      },
      {
        "type": "node",
        "id": 10172886115,
        "lat": 18.5106947,
        "lon": 73.848385,
        "tags": {
          "amenity": "restaurant",
          "name": "vedanti mess"
        }
      },
      {
        "type": "node",
        "id": 10172893808,
        "lat": 18.5098934,
        "lon": 73.8509332,
        "tags": {
          "amenity": "restaurant",
          "name": "sandip poha"
        }
      },
      {
        "type": "node",
        "id": 10172893809,
        "lat": 18.5100593,
        "lon": 73.8509422,
        "tags": {
          "amenity": "restaurant",
          "name": "kaku chi mess"
        }
      },
      {
        "type": "node",
        "id": 10172920942,
        "lat": 18.5115436,
        "lon": 73.8485853,
        "tags": {
          "amenity": "restaurant",
          "name": "bhola tea shop"
        }
      },
      {
        "type": "node",
        "id": 10172926524,
        "lat": 18.5108357,
        "lon": 73.8486976,
        "tags": {
          "amenity": "restaurant",
          "name": "Omkar tea shop"
        }
      },
      {
        "type": "node",
        "id": 10172926525,
        "lat": 18.5108847,
        "lon": 73.8490435,
        "tags": {
          "amenity": "restaurant",
          "name": "Ani kay hav tea shop"
        }
      },
      {
        "type": "node",
        "id": 10172926811,
        "lat": 18.5093912,
        "lon": 73.849086,
        "tags": {
          "amenity": "restaurant",
          "cuisine": "regional",
          "diet:vegetarian": "yes",
          "name": "nagar misal shop"
        }
      },
      {
        "type": "node",
        "id": 10172927209,
        "lat": 18.5103753,
        "lon": 73.8487826,
        "tags": {
          "amenity": "restaurant",
          "name": "bhigavan fish dishes"
        }
      },
      {
        "type": "node",
        "id": 10172927776,
        "lat": 18.5099293,
        "lon": 73.8488159,
        "tags": {
          "amenity": "restaurant",
          "name": "krishna veg thali"
        }
      },
      {
        "type": "node",
        "id": 10172928581,
        "lat": 18.5101538,
        "lon": 73.8486642,
        "tags": {
          "amenity": "restaurant",
          "name": "bhosale maratha mess"
        }
      },
      {
        "type": "node",
        "id": 10172930139,
        "lat": 18.5095811,
        "lon": 73.8489221,
        "tags": {
          "amenity": "restaurant",
          "name": "satvik veg thali"
        }
      },
      {
        "type": "node",
        "id": 10172933066,
        "lat": 18.5095118,
        "lon": 73.8509711,
        "tags": {
          "amenity": "restaurant",
          "name": "raghu vadapav"
        }
      },
      {
        "type": "node",
        "id": 10172942164,
        "lat": 18.5119365,
        "lon": 73.857759,
        "tags": {
          "amenity": "hospital",
          "healthcare": "hospital",
          "name": "Umarji Hospital"
        }
      },
      {
        "type": "node",
        "id": 10172943423,
        "lat": 18.5098506,
        "lon": 73.8509891,
        "tags": {
          "amenity": "restaurant",
          "name": "premacha chaha"
        }
      },
      {
        "type": "node",
        "id": 10172943821,
        "lat": 18.5097993,
        "lon": 73.8509837,
        "tags": {
          "amenity": "restaurant",
          "name": "jagadamba tea"
        }
      },
      {
        "type": "node",
        "id": 10172943822,
        "lat": 18.5101312,
        "lon": 73.8515557,
        "tags": {
          "amenity": "restaurant",
          "name": "sudhirbhaucha katta"
        }
      },
      {
        "type": "node",
        "id": 10172963310,
        "lat": 18.5129316,
        "lon": 73.8456361,
        "tags": {
          "amenity": "restaurant",
          "name": "new star"
        }
      },
      {
        "type": "node",
        "id": 10725596914,
        "lat": 18.5207406,
        "lon": 73.8557679,
        "tags": {
          "amenity": "cafe",
          "cuisine": "coffee_shop",
          "name": "Captain Coffee."
        }
      },
      {
        "type": "node",
        "id": 10725603596,
        "lat": 18.520062,
        "lon": 73.8562912,
        "tags": {
          "amenity": "restaurant",
          "name": "Sudamache Pohe"
        }
      },
      {
        "type": "node",
        "id": 10956621606,
        "lat": 18.5108811,
        "lon": 73.8536392,
        "tags": {
          "addr:street": "Bajirao Road",
          "amenity": "cafe",
          "cuisine": "indian",
          "name:en": "Shree Wadeshwar Bhuvan"
        }
      },
      {
        "type": "node",
        "id": 10956621805,
        "lat": 18.5115123,
        "lon": 73.8520614,
        "tags": {
          "addr:street": "Ravjimama Kondhakar Path",
          "amenity": "restaurant",
          "cuisine": "indian",
          "name:en": "Disha Snacks"
        }
      },
      {
        "type": "node",
        "id": 11021087105,
        "lat": 18.5116691,
        "lon": 73.8520768,
        "tags": {
          "addr:postcode": "411030",
          "addr:street": "Ravjimama Kondhakar Path",
          "amenity": "restaurant",
          "cuisine": "indian",
          "name:en": "Shivtirth Vada Pav"
        }
      },
      {
        "type": "node",
        "id": 11040451606,
        "lat": 18.5145809,
        "lon": 73.845534,
        "tags": {
          "addr:street": "Narsimha Chintaman Kelkar Marg",
          "amenity": "restaurant",
          "cuisine": "indian",
          "name": "Sri Murlidhar Veg Thali",
          "name:en": "Sri Murlidhar Veg Thali",
          "opening_hours": "Su-Fr 12:00-15:00, 19:30-22:30"
        }
      },
      {
        "type": "node",
        "id": 11098863370,
        "lat": 18.5259864,
        "lon": 73.8539593,
        "tags": {
          "leisure": "park",
          "name": "test park"
        }
      },
      {
        "type": "node",
        "id": 11104697380,
        "lat": 18.525725,
        "lon": 73.8535881,
        "tags": {
          "amenity": "cafe",
          "name": "test cafe"
        }
      },
      {
        "type": "node",
        "id": 11104701792,
        "lat": 18.5255793,
        "lon": 73.8539506,
        "tags": {
          "amenity": "hospital",
          "healthcare": "hospital",
          "name": "test hospital"
        }
      },
      {
        "type": "node",
        "id": 11104739136,
        "lat": 18.5255917,
        "lon": 73.8540552,
        "tags": {
          "amenity": "restaurant",
          "name": "test rest"
        }
      },
      {
        "type": "node",
        "id": 11111071005,
        "lat": 18.5148096,
        "lon": 73.8499396,
        "tags": {
          "amenity": "restaurant",
          "name": "Bedekar Mis"
        }
      },
      {
        "type": "node",
        "id": 11359520269,
        "lat": 18.5103,
        "lon": 73.8477696,
        "tags": {
          "addr:housenumber": "1176",
          "addr:postcode": "411030",
          "addr:street": "Wamanrao Shedge Path",
          "amenity": "restaurant",
          "name:en": "Shama Bhosale\u2019s Lazeez Biryani",
          "opening_hours": "Sa 07:00-22:30; Su, Tu-Fr 12:00-15:00, 19:00-22:30"
        }
      },
      {
        "type": "node",
        "id": 11363285158,
        "lat": 18.5231358,
        "lon": 73.8476316,
        "tags": {
          "amenity": "fast_food",
          "check_date": "2023-11-20",
          "cuisine": "paan"
        }
      },
      {
        "type": "node",
        "id": 11363349548,
        "lat": 18.5229261,
        "lon": 73.8474846,
        "tags": {
          "air_conditioning": "yes",
          "amenity": "restaurant",
          "cuisine": "mutton",
          "name": "Sandeep",
          "name:mr": "\u0938\u0902\u0926\u0940\u092a",
          "outdoor_seating": "yes"
        }
      },
      {
        "type": "node",
        "id": 11370940871,
        "lat": 18.5114971,
        "lon": 73.8482771,
        "tags": {
          "amenity": "atm",
          "brand": "ICICI Bank",
          "brand:wikidata": "Q1653258",
          "operator": "ICICI Bank",
          "operator:wikidata": "Q1653258",
          "short_name": "ICICI"
        }
      },
      {
        "type": "node",
        "id": 11370957570,
        "lat": 18.5116854,
        "lon": 73.8501998,
        "tags": {
          "amenity": "bank",
          "brand": "Indian Bank",
          "brand:wikidata": "Q2003789",
          "name": "Indian Bank",
          "name:en": "Indian Bank"
        }
      },
      {
        "type": "node",
        "id": 11610747750,
        "lat": 18.5117357,
        "lon": 73.8512506,
        "tags": {
          "addr:city": "Pune",
          "addr:district": "Pune",
          "addr:postcode": "411030",
          "addr:street": "Vasantrao Limaye Path",
          "description": "Chafekar bandhu was excerised here in this area this is very old talim and such power of spritual and man mind and health",
          "leisure": "park",
          "name": "Vaze Talim",
          "opening_hours": "Mo-Su 06:00-21:00",
          "operator": "Private and paid service",
          "operator:type": "private",
          "source": "local knowledge"
        }
      },
      {
        "type": "node",
        "id": 11766669869,
        "lat": 18.5225079,
        "lon": 73.849542,
        "tags": {
          "amenity": "restaurant",
          "name": "Joshi wadewale"
        }
      },
      {
        "type": "node",
        "id": 12801991325,
        "lat": 18.5212977,
        "lon": 73.8463126,
        "tags": {
          "addr:floor": "G",
          "amenity": "fast_food",
          "check_date": "2025-05-01",
          "cuisine": "indian",
          "diet:vegetarian": "yes",
          "level": "0",
          "name": "Guru Misal",
          "wheelchair": "yes"
        }
      },
      {
        "type": "node",
        "id": 12802005129,
        "lat": 18.5232985,
        "lon": 73.8474067,
        "tags": {
          "amenity": "restaurant",
          "check_date": "2025-05-01",
          "cuisine": "indian",
          "diet:vegetarian": "yes",
          "name": "Athavale Silver Leaf",
          "payment:cash": "yes",
          "payment:credit_cards": "yes",
          "payment:debit_cards": "yes",
          "wheelchair": "no"
        }
      },
      {
        "type": "node",
        "id": 12802015306,
        "lat": 18.5233494,
        "lon": 73.8472044,
        "tags": {
          "amenity": "restaurant",
          "check_date": "2025-05-01",
          "cuisine": "indian",
          "diet:vegetarian": "yes",
          "name": "Naivaidya",
          "payment:cash": "yes",
          "payment:credit_cards": "yes",
          "payment:debit_cards": "yes",
          "wheelchair": "no"
        }
      },
      {
        "type": "node",
        "id": 13105293982,
        "lat": 18.5225423,
        "lon": 73.851787,
        "tags": {
          "addr:city": "Pune",
          "addr:district": "Pune",
          "addr:housenumber": "778/B-1",
          "addr:postcode": "411005",
          "addr:street": "Abhinav Apartments, Next to Congress House, Shivaji Nagar",
          "amenity": "clinic",
          "healthcare": "clinic",
          "name": "The Urology Clinic | Dr. Ketan Pai",
          "operator": "Novosalus Technology",
          "operator:type": "private"
        }
      }
    ]
  },
  "pois_2_5km": {
    "version": 0.6,
    "generator": "Overpass API 0.7.62.8 e802775f",
    "osm3s": {
      "timestamp_osm_base": "2025-09-07T11:24:30Z",
      "copyright": "The data included in this document is from www.openstreetmap.org. The data is made available under ODbL."
    },
    "elements": [
      {
        "type": "node",
        "id": 248156037,
        "lat": 18.5133826,
        "lon": 73.8411516,
        "tags": {
          "bus": "yes",
          "highway": "bus_stop",
          "name": "Deccan Corner",
          "name:mr": "\u0921\u0947\u0915\u094d\u0915\u0928 \u0915\u0949\u0930\u094d\u0928\u0930",
          "public_transport": "stop_position"
        }
      },
      {
        "type": "node",
        "id": 633121822,
        "lat": 18.5211848,
        "lon": 73.8647837,
        "tags": {
          "bus": "yes",
          "highway": "bus_stop",
          "name": "Raste Wada",
          "name:mr": "\u0930\u093e\u0938\u094d\u0924\u0947 \u0935\u093e\u0921\u093e",
          "public_transport": "stop_position"
        }
      },
      {
        "type": "node",
        "id": 672219354,
        "lat": 18.5244565,
        "lon": 73.8721359,
        "tags": {
          "bus": "yes",
          "highway": "bus_stop",
          "name": "Collector Kacheri",
          "name:mr": "\u0915\u0932\u0947\u0915\u094d\u091f\u0930 \u0915\u091a\u0947\u0930\u0940",
          "public_transport": "stop_position"
        }
      },
      {
        "type": "node",
        "id": 672220644,
        "lat": 18.5244012,
        "lon": 73.8716998,
        "tags": {
          "bus": "yes",
          "highway": "bus_stop",
          "name": "Collector Kacheri",
          "name:mr": "\u0915\u0932\u0947\u0915\u094d\u091f\u0930 \u0915\u091a\u0947\u0930\u0940",
          "public_transport": "stop_position"
        }
      },
      {
        "type": "node",
        "id": 763549837,
        "lat": 18.5325915,
        "lon": 73.8513115,
        "tags": {
          "internet_access": "no",
          "name": "Shivajinagar",
          "name:mr": "\u0936\u093f\u0935\u093e\u091c\u0940\u0928\u0917\u0930",
          "network": "IR",
          "operator": "CR",
          "public_transport": "station",
          "railway": "station",
          "ref": "SVJR",
          "train": "yes",
          "wikidata": "Q14475834",
          "wikimedia_commons": "File:Shivajinagar Pune railway station illuminated.jpg",
          "wikipedia": "en:Shivajinagar railway station"
        }
      },
      {
        "type": "node",
        "id": 1223958268,
        "lat": 18.5089079,
        "lon": 73.8319633,
        "tags": {
          "bus": "yes",
          "highway": "bus_stop",
          "name": "Nal Stop",
          "name:mr": "\u0928\u0933 \u0938\u094d\u091f\u0949\u092a",
          "public_transport": "stop_position"
        }
      },
      {
        "type": "node",
        "id": 1455235579,
        "lat": 18.5123529,
        "lon": 73.838844,
        "tags": {
          "bus": "yes",
          "highway": "bus_stop",
          "name": "Garware Mahavidyalay",
          "name:mr": "\u0917\u0930\u0935\u093e\u0930\u0947 \u092e\u0939\u093e\u0935\u093f\u0926\u094d\u092f\u093e\u0932\u092f",
          "public_transport": "stop_position"
        }
      },
      {
        "type": "node",
        "id": 1534501626,
        "lat": 18.51645,
        "lon": 73.8423388,
        "tags": {
          "amenity": "cinema",
          "name": "R Deccan Multiplex",
          "source": "local"
        }
      },
      {
        "type": "node",
        "id": 1534503367,
        "lat": 18.517035,
        "lon": 73.8419687,
        "tags": {
          "amenity": "fuel",
          "brand": "Hindustan Petroleum",
          "brand:wikidata": "Q1619375",
          "name": "HP",
          "official_name": "Hindustan Petroleum",
          "operator": "HP"
        }
      },
      {
        "type": "node",
        "id": 1534841981,
        "lat": 18.5010323,
        "lon": 73.8463028,
        "tags": {
          "amenity": "fuel",
          "brand": "Indian Oil",
          "brand:wikidata": "Q1289348",
          "brand:wikipedia": "en:Indian Oil Corporation",
          "name": "Indian Oil",
          "operator": "Indian Oil (IOCL)",
          "website": "https://www.iocl.com/"
        }
      },
      {
        "type": "node",
        "id": 1645621321,
        "lat": 18.5230248,
        "lon": 73.8534229,
        "tags": {
          "amenity": "bus_station",
          "bus": "yes",
          "internet_access": "no",
          "name": "Manapa Bhavan",
          "name:mr": "\u092e\u0928\u092a\u093e \u092d\u0935\u0928",
          "network": "PMPML",
          "operator": "PMPML",
          "public_transport": "station"
        }
      },
      {
        "type": "node",
        "id": 2085669844,
        "lat": 18.5128652,
        "lon": 73.8397526,
        "tags": {
          "bus": "yes",
          "highway": "bus_stop",
          "name": "Garware Mahavidyalay",
          "name:mr": "\u0917\u0930\u0935\u093e\u0930\u0947 \u092e\u0939\u093e\u0935\u093f\u0926\u094d\u092f\u093e\u0932\u092f",
          "public_transport": "stop_position"
        }
      },
      {
        "type": "node",
        "id": 2085669850,
        "lat": 18.513455,
        "lon": 73.8410905,
        "tags": {
          "bus": "yes",
          "highway": "bus_stop",
          "name": "Deccan Corner",
          "name:mr": "\u0921\u0947\u0915\u094d\u0915\u0928 \u0915\u0949\u0930\u094d\u0928\u0930",
          "public_transport": "stop_position"
        }
      },
      {
        "type": "node",
        "id": 2257797414,
        "lat": 18.5291657,
        "lon": 73.8733305,
        "tags": {
          "name": "Pune Junction",
          "name:mr": "\u092a\u0941\u0923\u0947 \u091c\u0902\u0915\u094d\u0936\u0928",
          "public_transport": "stop_position",
          "ref": "2",
          "train": "yes"
        }
      },
      {
        "type": "node",
        "id": 2257797442,
        "lat": 18.5293602,
        "lon": 73.8733199,
        "tags": {
          "name": "Pune Junction",
          "name:mr": "\u092a\u0941\u0923\u0947 \u091c\u0902\u0915\u094d\u0936\u0928",
          "public_transport": "stop_position",
          "ref": "3",
          "train": "yes"
        }
      },
      {
        "type": "node",
        "id": 2257797444,
        "lat": 18.52937,
        "lon": 73.8726619,
        "tags": {
          "name": "Pune Junction",
          "name:mr": "\u092a\u0941\u0923\u0947 \u091c\u0902\u0915\u094d\u0936\u0928",
          "public_transport": "stop_position",
          "ref": "4",
          "train": "yes"
        }
      },
      {
        "type": "node",
        "id": 2257797462,
        "lat": 18.5294921,
        "lon": 73.8726591,
        "tags": {
          "name": "Pune Junction",
          "name:mr": "\u092a\u0941\u0923\u0947 \u091c\u0902\u0915\u094d\u0936\u0928",
          "public_transport": "stop_position",
          "ref": "5",
          "train": "yes"
        }
      },
      {
        "type": "node",
        "id": 2257797466,
        "lat": 18.5295338,
        "lon": 73.8726575,
        "tags": {
          "name": "Pune Junction",
          "name:mr": "\u092a\u0941\u0923\u0947 \u091c\u0902\u0915\u094d\u0936\u0928",
          "public_transport": "stop_position",
          "ref": "6",
          "train": "yes"
        }
      },
      {
        "type": "node",
        "id": 2259729638,
        "lat": 18.5159878,
        "lon": 73.8591744,
        "tags": {
          "bus": "yes",
          "highway": "bus_stop",
          "name": "Sonya Maruti Chowk",
          "name:mr": "\u0938\u094b\u0928\u094d\u092f\u093e \u092e\u093e\u0930\u0941\u0924\u0940 \u091a\u094c\u0915",
          "public_transport": "stop_position"
        }
      },
      {
        "type": "node",
        "id": 2259729678,
        "lat": 18.5204468,
        "lon": 73.8674762,
        "tags": {
          "bus": "yes",
          "highway": "bus_stop",
          "name": "KEM Hospital",
          "name:mr": "\u0915\u0947\u0908\u090f\u092e \u0930\u0941\u0917\u094d\u0923\u093e\u0932\u092f",
          "public_transport": "stop_position"
        }
      },
      {
        "type": "node",
        "id": 2266620664,
        "lat": 18.5223321,
        "lon": 73.8663642,
        "tags": {
          "bus": "yes",
          "highway": "bus_stop",
          "name": "15 August Chowk",
          "name:mr": "\u0967\u096b \u0911\u0917\u0938\u094d\u091f \u091a\u094c\u0915",
          "public_transport": "stop_position"
        }
      },
      {
        "type": "node",
        "id": 2270270792,
        "lat": 18.5325687,
        "lon": 73.8513783,
        "tags": {
          "name": "Shivajinagar",
          "public_transport": "stop_position",
          "ref": "2",
          "train": "yes"
        }
      },
      {
        "type": "node",
        "id": 2270270796,
        "lat": 18.5326241,
        "lon": 73.8515102,
        "tags": {
          "name": "Shivajinagar",
          "public_transport": "stop_position",
          "railway": "stop",
          "ref": "1",
          "train": "yes"
        }
      },
      {
        "type": "node",
        "id": 2358247540,
        "lat": 18.5136511,
        "lon": 73.8528438,
        "tags": {
          "bus": "yes",
          "highway": "bus_stop",
          "name": "Vishrambag Wada",
          "name:mr": "\u0935\u093f\u0936\u094d\u0930\u093e\u092e\u092c\u093e\u0917\u0935\u093e\u0921\u093e",
          "operator": "PMPML",
          "public_transport": "stop_position"
        }
      },
      {
        "type": "node",
        "id": 2864314826,
        "lat": 18.5128912,
        "lon": 73.8447895,
        "tags": {
          "bus": "yes",
          "highway": "bus_stop",
          "name": "Alka Talkies",
          "name:mr": "\u0905\u0932\u0915\u093e \u091f\u0949\u0915\u0940\u091c",
          "public_transport": "stop_position"
        }
      },
      {
        "type": "node",
        "id": 2864314827,
        "lat": 18.5133175,
        "lon": 73.8449935,
        "tags": {
          "bus": "yes",
          "highway": "bus_stop",
          "name": "Alka Talkies",
          "name:mr": "\u0905\u0932\u0915\u093e \u091f\u0949\u0915\u0940\u091c",
          "public_transport": "stop_position"
        }
      },
      {
        "type": "node",
        "id": 2864314829,
        "lat": 18.5241044,
        "lon": 73.8674666,
        "tags": {
          "bus": "yes",
          "highway": "bus_stop",
          "name": "Ambedkar Bhavan",
          "name:mr": "\u0906\u0902\u092c\u0947\u0921\u0915\u0930 \u092d\u0935\u0928",
          "public_transport": "stop_position"
        }
      },
      {
        "type": "node",
        "id": 2864314835,
        "lat": 18.5194896,
        "lon": 73.8645808,
        "tags": {
          "bus": "yes",
          "highway": "bus_stop",
          "name": "Apollo Talkies",
          "name:mr": "\u0905\u092a\u094b\u0932\u094b \u091f\u0949\u0915\u0940\u091c",
          "public_transport": "stop_position"
        }
      },
      {
        "type": "node",
        "id": 2864314836,
        "lat": 18.5148942,
        "lon": 73.8537471,
        "tags": {
          "bus": "yes",
          "highway": "bus_stop",
          "name": "Appa Balwant Chowk (Hujurpaga)",
          "name:mr": "\u0905\u092a\u094d\u092a\u093e \u092c\u0933\u0935\u0902\u0924 \u091a\u094c\u0915 (\u0939\u0941\u091c\u0942\u0930\u092a\u093e\u0917\u093e)",
          "public_transport": "stop_position"
        }
      },
      {
        "type": "node",
        "id": 2864314837,
        "lat": 18.5130861,
        "lon": 73.8467444,
        "tags": {
          "bus": "yes",
          "highway": "bus_stop",
          "name": "Chitrashala",
          "name:mr": "\u091a\u093f\u0924\u094d\u0930\u0936\u093e\u0933\u093e",
          "public_transport": "stop_position"
        }
      },
      {
        "type": "node",
        "id": 2864314839,
        "lat": 18.5157161,
        "lon": 73.8566591,
        "tags": {
          "bus": "yes",
          "highway": "bus_stop",
          "name": "City Post",
          "name:mr": "\u0938\u093f\u091f\u0940 \u092a\u094b\u0938\u094d\u091f",
          "public_transport": "stop_position"
        }
      },
      {
        "type": "node",
        "id": 2864314840,
        "lat": 18.5143807,
        "lon": 73.8515993,
        "tags": {
          "bus": "yes",
          "highway": "bus_stop",
          "name": "Commonwealth",
          "name:mr": "\u0915\u0949\u092e\u0928\u0935\u0947\u0932\u094d\u0925",
          "public_transport": "stop_position"
        }
      },
      {
        "type": "node",
        "id": 2864314842,
        "lat": 18.517793,
        "lon": 73.8539774,
        "tags": {
          "bus": "yes",
          "highway": "bus_stop",
          "name": "Dakshinmukhi Maruti",
          "name:mr": "\u0926\u0915\u094d\u0937\u093f\u0923\u092e\u0941\u0916\u0940 \u092e\u093e\u0930\u0941\u0924\u0940",
          "public_transport": "stop_position"
        }
      },
      {
        "type": "node",
        "id": 2864314843,
        "lat": 18.5235465,
        "lon": 73.8755291,
        "tags": {
          "bus": "yes",
          "highway": "bus_stop",
          "name": "GPO",
          "name:mr": "\u091c\u0940 \u092a\u0940 \u0913",
          "public_transport": "stop_position"
        }
      },
      {
        "type": "node",
        "id": 2864314847,
        "lat": 18.5149638,
        "lon": 73.8549032,
        "tags": {
          "bus": "yes",
          "highway": "bus_stop",
          "name": "Ganpati Chowk",
          "name:mr": "\u0917\u0923\u092a\u0924\u0940 \u091a\u094c\u0915",
          "public_transport": "stop_position"
        }
      },
      {
        "type": "node",
        "id": 2864314849,
        "lat": 18.5140682,
        "lon": 73.8491322,
        "tags": {
          "bus": "yes",
          "highway": "bus_stop",
          "name": "Gokhale Hall",
          "name:mr": "\u0917\u094b\u0916\u0932\u0947 \u0939\u0949\u0932",
          "public_transport": "stop_position"
        }
      },
      {
        "type": "node",
        "id": 2864314855,
        "lat": 18.5234025,
        "lon": 73.8692408,
        "tags": {
          "bus": "yes",
          "highway": "bus_stop",
          "name": "Jilha Parishad",
          "name:mr": "\u091c\u093f\u0932\u094d\u0939\u093e \u092a\u0930\u093f\u0937\u0926",
          "public_transport": "stop_position"
        }
      },
      {
        "type": "node",
        "id": 2864314856,
        "lat": 18.5205286,
        "lon": 73.8558408,
        "tags": {
          "bus": "yes",
          "highway": "bus_stop",
          "name": "Kasba Peth Police Chowki",
          "name:mr": "\u0915\u0938\u092c\u093e \u092a\u0947\u0920 \u092a\u094b\u0932\u0940\u0938 \u091a\u094c\u0915\u0940",
          "public_transport": "stop_position"
        }
      },
      {
        "type": "node",
        "id": 2864314858,
        "lat": 18.5185508,
        "lon": 73.8566475,
        "tags": {
          "bus": "yes",
          "highway": "bus_stop",
          "name": "Lal Mahal",
          "name:mr": "\u0932\u093e\u0932 \u092e\u0939\u093e\u0932",
          "public_transport": "stop_position"
        }
      },
      {
        "type": "node",
        "id": 2864314864,
        "lat": 18.509133,
        "lon": 73.8320531,
        "tags": {
          "bus": "yes",
          "highway": "bus_stop",
          "name": "Nal Stop",
          "name:mr": "\u0928\u0933 \u0938\u094d\u091f\u0949\u092a",
          "public_transport": "stop_position"
        }
      },
      {
        "type": "node",
        "id": 2864314867,
        "lat": 18.5105082,
        "lon": 73.8348422,
        "tags": {
          "bus": "yes",
          "highway": "bus_stop",
          "name": "Petrol Pump (Karve Road)",
          "name:mr": "\u092a\u0947\u091f\u094d\u0930\u094b\u0932 \u092a\u0902\u092a (\u0915\u0930\u094d\u0935\u0947 \u0930\u0938\u094d\u0924\u093e)",
          "public_transport": "stop_position"
        }
      },
      {
        "type": "node",
        "id": 2864314868,
        "lat": 18.5104965,
        "lon": 73.8350321,
        "tags": {
          "bus": "yes",
          "highway": "bus_stop",
          "name": "Petrol Pump (Karve Road)",
          "name:mr": "\u092a\u0947\u091f\u094d\u0930\u094b\u0932 \u092a\u0902\u092a (\u0915\u0930\u094d\u0935\u0947 \u0930\u0938\u094d\u0924\u093e)",
          "public_transport": "stop_position"
        }
      },
      {
        "type": "node",
        "id": 2864314869,
        "lat": 18.5188684,
        "lon": 73.8601444,
        "tags": {
          "bus": "yes",
          "highway": "bus_stop",
          "name": "Phadke Houd",
          "name:mr": "\u092b\u0921\u0915\u0947 \u0939\u094c\u0926",
          "public_transport": "stop_position"
        }
      },
      {
        "type": "node",
        "id": 2864314871,
        "lat": 18.5276102,
        "lon": 73.872967,
        "tags": {
          "bus": "yes",
          "highway": "bus_stop",
          "name": "Pune Station Bus Stand",
          "name:mr": "\u092a\u0941\u0923\u0947 \u0938\u094d\u091f\u0947\u0936\u0928 \u092c\u0938 \u0938\u094d\u0925\u093e\u0928\u0915",
          "public_transport": "stop_position"
        }
      },
      {
        "type": "node",
        "id": 2864314874,
        "lat": 18.5135108,
        "lon": 73.8506376,
        "tags": {
          "bus": "yes",
          "highway": "bus_stop",
          "name": "Sadashiv Peth Houd",
          "name:mr": "\u0938\u0926\u093e\u0936\u093f\u0935 \u092a\u0947\u0920 \u0939\u094c\u0926",
          "public_transport": "stop_position"
        }
      },
      {
        "type": "node",
        "id": 2864314878,
        "lat": 18.525038,
        "lon": 73.8715737,
        "tags": {
          "bus": "yes",
          "highway": "bus_stop",
          "name": "Sassoon Hospital",
          "name:mr": "\u0938\u0938\u0942\u0928 \u0930\u0941\u0917\u094d\u0923\u093e\u0932\u092f",
          "public_transport": "stop_position"
        }
      },
      {
        "type": "node",
        "id": 2864314879,
        "lat": 18.5196781,
        "lon": 73.8544934,
        "tags": {
          "bus": "yes",
          "highway": "bus_stop",
          "name": "Shaniwarwada",
          "name:mr": "\u0936\u0928\u093f\u0935\u093e\u0930\u0935\u093e\u0921\u093e",
          "public_transport": "stop_position"
        }
      },
      {
        "type": "node",
        "id": 2864314886,
        "lat": 18.5137283,
        "lon": 73.8461613,
        "tags": {
          "bus": "yes",
          "highway": "bus_stop",
          "name": "Vijay Talkies",
          "name:mr": "\u0935\u093f\u091c\u092f \u091f\u0949\u0915\u0940\u091c",
          "public_transport": "stop_position"
        }
      },
      {
        "type": "node",
        "id": 2870389529,
        "lat": 18.5134183,
        "lon": 73.8443831,
        "tags": {
          "bus": "yes",
          "highway": "bus_stop",
          "name": "Alka Talkies",
          "name:mr": "\u0905\u0932\u0915\u093e \u091f\u0949\u0915\u0940\u091c",
          "public_transport": "stop_position"
        }
      },
      {
        "type": "node",
        "id": 2870389530,
        "lat": 18.5164089,
        "lon": 73.8531058,
        "tags": {
          "bus": "yes",
          "highway": "bus_stop",
          "name": "Appa Balwant Chowk",
          "name:mr": "\u0905\u092a\u094d\u092a\u093e \u092c\u0933\u0935\u0902\u0924 \u091a\u094c\u0915",
          "public_transport": "stop_position"
        }
      },
      {
        "type": "node",
        "id": 2870389537,
        "lat": 18.5164014,
        "lon": 73.8508112,
        "tags": {
          "bus": "yes",
          "highway": "bus_stop",
          "name": "Kanyashala",
          "name:mr": "\u0915\u0928\u094d\u092f\u093e\u0936\u093e\u0933\u093e",
          "public_transport": "stop_position"
        }
      },
      {
        "type": "node",
        "id": 2870389540,
        "lat": 18.516199,
        "lon": 73.8490922,
        "tags": {
          "bus": "yes",
          "highway": "bus_stop",
          "name": "Kesariwada",
          "name:mr": "\u0915\u0947\u0938\u0930\u0940\u0935\u093e\u0921\u093e",
          "public_transport": "stop_position"
        }
      },
      {
        "type": "node",
        "id": 2870389543,
        "lat": 18.5157742,
        "lon": 73.8467218,
        "tags": {
          "bus": "yes",
          "highway": "bus_stop",
          "name": "Mati Ganapati",
          "name:mr": "\u092e\u093e\u0924\u0940 \u0917\u0923\u092a\u0924\u0940",
          "public_transport": "stop_position"
        }
      },
      {
        "type": "node",
        "id": 2870389545,
        "lat": 18.5160293,
        "lon": 73.8475116,
        "tags": {
          "bus": "yes",
          "highway": "bus_stop",
          "name": "Mati Ganapati",
          "name:mr": "\u092e\u093e\u0924\u0940 \u0917\u0923\u092a\u0924\u0940",
          "public_transport": "stop_position"
        }
      },
      {
        "type": "node",
        "id": 2870389546,
        "lat": 18.5183421,
        "lon": 73.8562164,
        "tags": {
          "bus": "yes",
          "highway": "bus_stop",
          "name": "Nana Wada",
          "name:mr": "\u0928\u093e\u0928\u093e \u0935\u093e\u0921\u093e",
          "public_transport": "stop_position",
          "wheelchair": "yes"
        }
      },
      {
        "type": "node",
        "id": 2870389551,
        "lat": 18.5175013,
        "lon": 73.8562412,
        "tags": {
          "bus": "yes",
          "highway": "bus_stop",
          "name": "Vasant Talkies",
          "name:mr": "\u0935\u0938\u0902\u0924 \u091f\u0949\u0915\u0940\u091c",
          "public_transport": "stop_position"
        }
      },
      {
        "type": "node",
        "id": 2929239716,
        "lat": 18.5019555,
        "lon": 73.8700439,
        "tags": {
          "amenity": "fuel",
          "brand": "Indian Oil",
          "brand:wikidata": "Q1289348",
          "brand:wikipedia": "en:Indian Oil Corporation",
          "name": "Indian Oil"
        }
      },
      {
        "type": "node",
        "id": 4678212190,
        "lat": 18.5225285,
        "lon": 73.8666574,
        "tags": {
          "amenity": "fuel",
          "brand": "Indian Oil",
          "brand:wikidata": "Q1289348",
          "name": "Indian Oil"
        }
      },
      {
        "type": "node",
        "id": 5573156998,
        "lat": 18.5214448,
        "lon": 73.8595458,
        "tags": {
          "name": "\u0915\u0938\u092c\u093e \u092a\u0947\u0920",
          "name:en": "Kasba Peth",
          "name:mr": "\u0915\u0938\u092c\u093e \u092a\u0947\u0920",
          "operator": "MahaMetro",
          "public_transport": "stop_position",
          "railway": "stop",
          "subway": "yes"
        }
      },
      {
        "type": "node",
        "id": 5573167974,
        "lat": 18.5120038,
        "lon": 73.8380406,
        "tags": {
          "layer": "2",
          "name": "Garware College",
          "name:mr": "\u0917\u0930\u0935\u093e\u0930\u0947 \u092e\u0939\u093e\u0935\u093f\u0926\u094d\u092f\u093e\u0932\u092f",
          "operator": "MahaMetro",
          "public_transport": "stop_position",
          "railway": "stop",
          "subway": "yes"
        }
      },
      {
        "type": "node",
        "id": 6377306150,
        "lat": 18.5311165,
        "lon": 73.8556592,
        "tags": {
          "amenity": "theatre",
          "name": "Mini Auditorium COEP"
        }
      },
      {
        "type": "node",
        "id": 7611940234,
        "lat": 18.5164368,
        "lon": 73.8429948,
        "tags": {
          "bus": "yes",
          "name": "Deccan Bus Stop Lane 1",
          "network": "PMPML",
          "operator": "PMPML",
          "public_transport": "stop_position",
          "ref": "1",
          "wikidata": "Q7260109",
          "wikimedia_commons": "Category:Pune Mahanagar Parivahan Mahamandal Limited",
          "wikipedia": "en:Pune Mahanagar Parivahan Mahamandal Limited"
        }
      },
      {
        "type": "node",
        "id": 7611940240,
        "lat": 18.5163631,
        "lon": 73.8431113,
        "tags": {
          "bus": "yes",
          "name": "Deccan Bus Stop Lane 2",
          "network": "PMPML",
          "operator": "PMPML",
          "public_transport": "stop_position",
          "ref": "2",
          "wikidata": "Q7260109",
          "wikimedia_commons": "Category:Pune Mahanagar Parivahan Mahamandal Limited",
          "wikipedia": "en:Pune Mahanagar Parivahan Mahamandal Limited"
        }
      },
      {
        "type": "node",
        "id": 7611940241,
        "lat": 18.5163263,
        "lon": 73.8431823,
        "tags": {
          "bus": "yes",
          "name": "Deccan Bus Stop Lane 3",
          "network": "PMPML",
          "operator": "PMPML",
          "public_transport": "stop_position",
          "ref": "3",
          "wikidata": "Q7260109",
          "wikimedia_commons": "Category:Pune Mahanagar Parivahan Mahamandal Limited",
          "wikipedia": "en:Pune Mahanagar Parivahan Mahamandal Limited"
        }
      },
      {
        "type": "node",
        "id": 7611940242,
        "lat": 18.5162657,
        "lon": 73.8432985,
        "tags": {
          "bus": "yes",
          "name": "Deccan Bus Stop Lane 4",
          "network": "PMPML",
          "operator": "PMPML",
          "public_transport": "stop_position",
          "ref": "4",
          "wikidata": "Q7260109",
          "wikimedia_commons": "Category:Pune Mahanagar Parivahan Mahamandal Limited",
          "wikipedia": "en:Pune Mahanagar Parivahan Mahamandal Limited"
        }
      },
      {
        "type": "node",
        "id": 7611940243,
        "lat": 18.5162088,
        "lon": 73.8433994,
        "tags": {
          "bus": "yes",
          "name": "Deccan Bus Stop Lane 5",
          "network": "PMPML",
          "operator": "PMPML",
          "public_transport": "stop_position",
          "ref": "5",
          "wikidata": "Q7260109",
          "wikimedia_commons": "Category:Pune Mahanagar Parivahan Mahamandal Limited",
          "wikipedia": "en:Pune Mahanagar Parivahan Mahamandal Limited"
        }
      },
      {
        "type": "node",
        "id": 7615324875,
        "lat": 18.5338511,
        "lon": 73.8602685,
        "tags": {
          "amenity": "bus_station",
          "bus": "yes",
          "internet_access": "no",
          "name": "PMPML Bus Parking",
          "network": "PMPML",
          "operator": "PMPML",
          "public_transport": "station",
          "wikidata": "Q7260109",
          "wikimedia_commons": "Category:Pune Mahanagar Parivahan Mahamandal Limited",
          "wikipedia": "en:Pune Mahanagar Parivahan Mahamandal Limited"
        }
      },
      {
        "type": "node",
        "id": 7635224855,
        "lat": 18.4994601,
        "lon": 73.8581505,
        "tags": {
          "bus": "yes",
          "name": "Swargate",
          "network": "PMPML",
          "operator": "PMPML",
          "public_transport": "stop_position",
          "ref": "4349",
          "wikidata": "Q7260109",
          "wikimedia_commons": "Category:Pune Mahanagar Parivahan Mahamandal Limited",
          "wikipedia": "en:Pune Mahanagar Parivahan Mahamandal Limited"
        }
      },
      {
        "type": "node",
        "id": 7635224857,
        "lat": 18.4989486,
        "lon": 73.8584488,
        "tags": {
          "bus": "yes",
          "name": "Swargate",
          "network": "PMPML",
          "operator": "PMPML",
          "public_transport": "stop_position",
          "ref": "4350",
          "wikidata": "Q7260109",
          "wikimedia_commons": "Category:Pune Mahanagar Parivahan Mahamandal Limited",
          "wikipedia": "en:Pune Mahanagar Parivahan Mahamandal Limited"
        }
      },
      {
        "type": "node",
        "id": 7822566346,
        "lat": 18.5317393,
        "lon": 73.8511513,
        "tags": {
          "bus": "yes",
          "name": "Shivajinagar Railway Station",
          "network": "PMPML",
          "operator": "PMPML",
          "public_transport": "stop_position",
          "wikidata": "Q7260109",
          "wikimedia_commons": "Category:Pune Mahanagar Parivahan Mahamandal Limited",
          "wikipedia": "en:Pune Mahanagar Parivahan Mahamandal Limited"
        }
      },
      {
        "type": "node",
        "id": 7822586029,
        "lat": 18.5317577,
        "lon": 73.8510245,
        "tags": {
          "bus": "yes",
          "name": "Shivajinagar Railway Station",
          "network": "PMPML",
          "operator": "PMPML",
          "public_transport": "stop_position",
          "wikidata": "Q7260109",
          "wikimedia_commons": "Category:Pune Mahanagar Parivahan Mahamandal Limited",
          "wikipedia": "en:Pune Mahanagar Parivahan Mahamandal Limited"
        }
      },
      {
        "type": "node",
        "id": 7944584968,
        "lat": 18.5164352,
        "lon": 73.8444017,
        "tags": {
          "layer": "2",
          "name": "Deccan Gymkhana",
          "name:mr": "\u0921\u0947\u0915\u094d\u0915\u0928 \u091c\u093f\u092e\u0916\u093e\u0928\u093e",
          "operator": "MahaMetro",
          "public_transport": "stop_position",
          "railway": "stop",
          "subway": "yes"
        }
      },
      {
        "type": "node",
        "id": 7944584974,
        "lat": 18.5300875,
        "lon": 73.8654426,
        "tags": {
          "name": "Mangalwar Peth",
          "name:mr": "\u092e\u0902\u0917\u0933\u0935\u093e\u0930 \u092a\u0947\u0920",
          "network": "Pune Metro",
          "network:wikidata": "Q3595697",
          "operator": "Maha Metro",
          "public_transport": "station",
          "railway": "station",
          "station": "subway",
          "subway": "yes",
          "wikidata": "Q28179679",
          "wikipedia": "en:Maha Metro"
        }
      },
      {
        "type": "node",
        "id": 7944584980,
        "lat": 18.5228092,
        "lon": 73.8533687,
        "tags": {
          "name": "PMC Bhavan",
          "name:mr": "\u092a\u0941\u0923\u0947 \u092e\u0928\u092a\u093e \u0938\u094d\u0925\u093e\u0928\u0915",
          "network": "Pune Metro",
          "network:wikidata": "Q3595697",
          "public_transport": "station",
          "railway": "station",
          "station": "subway",
          "subway": "yes"
        }
      },
      {
        "type": "node",
        "id": 7944597685,
        "lat": 18.5271448,
        "lon": 73.8580006,
        "tags": {
          "name": "District Court (Aqua Line)",
          "name:mr": "\u091c\u093f\u0932\u094d\u0939\u093e \u0928\u094d\u092f\u093e\u092f\u093e\u0932\u092f",
          "network": "Pune Metro",
          "network:wikidata": "Q3595697",
          "public_transport": "station",
          "railway": "station",
          "station": "subway",
          "subway": "yes"
        }
      },
      {
        "type": "node",
        "id": 7944597689,
        "lat": 18.529751,
        "lon": 73.872596,
        "tags": {
          "name": "Pune Railway Station",
          "name:mr": "\u092a\u0941\u0923\u0947 \u0930\u0947\u0932\u094d\u0935\u0947 \u0938\u094d\u091f\u0947\u0936\u0928",
          "network": "Pune Metro",
          "network:wikidata": "Q3595697",
          "public_transport": "station",
          "railway": "station",
          "station": "subway",
          "subway": "yes",
          "wikidata": "Q121161986"
        }
      },
      {
        "type": "node",
        "id": 7944597694,
        "lat": 18.5129081,
        "lon": 73.8569695,
        "tags": {
          "name": "\u092e\u0902\u0921\u0908",
          "name:en": "Mandai",
          "name:mr": "\u092e\u0902\u0921\u0908",
          "network": "Pune Metro",
          "network:wikidata": "Q3595697",
          "operator": "MahaMetro",
          "public_transport": "station",
          "railway": "station",
          "station": "subway",
          "subway": "yes",
          "wikidata": "Q130381236",
          "wikipedia": "en:Mandai metro station"
        }
      },
      {
        "type": "node",
        "id": 7944597710,
        "lat": 18.4997453,
        "lon": 73.8574604,
        "tags": {
          "name": "\u0938\u094d\u0935\u093e\u0930\u0917\u0947\u091f",
          "name:en": "Swargate",
          "name:mr": "\u0938\u094d\u0935\u093e\u0930\u0917\u0947\u091f",
          "network": "Pune Metro",
          "network:wikidata": "Q3595697",
          "public_transport": "station",
          "railway": "station",
          "station": "subway",
          "subway": "yes",
          "wikidata": "Q130381241",
          "wikipedia": "en:Swargate metro station"
        }
      },
      {
        "type": "node",
        "id": 8945932610,
        "lat": 18.5204768,
        "lon": 73.8553024,
        "tags": {
          "air_conditioning": "no",
          "amenity": "theatre",
          "name": "Shaniwar Wada Amphitheatre",
          "name:mr": "\u0936\u0928\u093f\u0935\u093e\u0930\u0935\u093e\u0921\u093e \u0938\u092d\u093e\u0917\u0943\u0939",
          "theatre:type": "amphi"
        }
      },
      {
        "type": "node",
        "id": 9572608811,
        "lat": 18.5119737,
        "lon": 73.8380616,
        "tags": {
          "layer": "2",
          "name": "Garware College",
          "name:mr": "\u0917\u0930\u0935\u093e\u0930\u0947 \u092e\u0939\u093e\u0935\u093f\u0926\u094d\u092f\u093e\u0932\u092f",
          "operator": "MahaMetro",
          "public_transport": "stop_position",
          "railway": "stop",
          "subway": "yes"
        }
      },
      {
        "type": "node",
        "id": 9599243857,
        "lat": 18.5119886,
        "lon": 73.8380505,
        "tags": {
          "name": "Garware College",
          "name:mr": "\u0917\u0930\u0935\u093e\u0930\u0947 \u092e\u0939\u093e\u0935\u093f\u0926\u094d\u092f\u093e\u0932\u092f",
          "network": "Pune Metro",
          "network:wikidata": "Q3595697",
          "public_transport": "station",
          "railway": "station",
          "station": "subway",
          "subway": "yes"
        }
      },
      {
        "type": "node",
        "id": 10097460085,
        "lat": 18.5189771,
        "lon": 73.8304638,
        "tags": {
          "amenity": "charging_station",
          "brand": "Ather Energy",
          "operator": "Ather Energy",
          "scooter": "yes"
        }
      },
      {
        "type": "node",
        "id": 10246145056,
        "lat": 18.5270136,
        "lon": 73.864765,
        "tags": {
          "bus": "yes",
          "highway": "bus_stop",
          "name": "Mangalwar Peth Gadital",
          "public_transport": "stop_position"
        }
      },
      {
        "type": "node",
        "id": 10246145057,
        "lat": 18.5270289,
        "lon": 73.8645385,
        "tags": {
          "bus": "yes",
          "highway": "bus_stop",
          "name": "Mangalwar Peth Gadital",
          "public_transport": "stop_position"
        }
      },
      {
        "type": "node",
        "id": 10246254344,
        "lat": 18.5247685,
        "lon": 73.8748013,
        "tags": {
          "bus": "yes",
          "highway": "bus_stop",
          "name": "Hotel Woodland",
          "public_transport": "stop_position"
        }
      },
      {
        "type": "node",
        "id": 10725622460,
        "lat": 18.5281331,
        "lon": 73.8722527,
        "tags": {
          "amenity": "bus_station",
          "bus": "yes",
          "name": "MSRTC ST Pune Sation Bus Stand.",
          "public_transport": "station"
        }
      },
      {
        "type": "node",
        "id": 11097510270,
        "lat": 18.5321548,
        "lon": 73.8496014,
        "tags": {
          "layer": "2",
          "name": "Shivaji Nagar",
          "name:mr": "\u0936\u093f\u0935\u093e\u091c\u0940 \u0928\u0917\u0930",
          "operator": "MahaMetro",
          "public_transport": "stop_position",
          "railway": "stop",
          "subway": "yes"
        }
      },
      {
        "type": "node",
        "id": 11097510271,
        "lat": 18.532172,
        "lon": 73.8496602,
        "tags": {
          "name": "Shivaji Nagar",
          "name:mr": "\u0936\u093f\u0935\u093e\u091c\u0940 \u0928\u0917\u0930",
          "network": "Pune Metro",
          "network:wikidata": "Q3595697",
          "public_transport": "station",
          "railway": "station",
          "station": "subway",
          "subway": "yes",
          "wikidata": "Q121139922"
        }
      },
      {
        "type": "node",
        "id": 11097510272,
        "lat": 18.5321825,
        "lon": 73.849726,
        "tags": {
          "layer": "2",
          "name": "Shivaji Nagar",
          "name:mr": "\u0936\u093f\u0935\u093e\u091c\u0940 \u0928\u0917\u0930",
          "operator": "MahaMetro",
          "public_transport": "stop_position",
          "railway": "stop",
          "subway": "yes"
        }
      },
      {
        "type": "node",
        "id": 11097510273,
        "lat": 18.5267307,
        "lon": 73.856888,
        "tags": {
          "layer": "2",
          "name": "District Court",
          "name:fr": "Cour civile",
          "name:mr": "\u091c\u093f\u0932\u094d\u0939\u093e \u0928\u094d\u092f\u093e\u092f\u093e\u0932\u092f",
          "operator": "MahaMetro",
          "public_transport": "stop_position",
          "railway": "stop",
          "subway": "yes"
        }
      },
      {
        "type": "node",
        "id": 11097510274,
        "lat": 18.5292042,
        "lon": 73.8570209,
        "tags": {
          "name": "District Court",
          "name:en": "District Court",
          "name:mr": "\u091c\u093f\u0932\u094d\u0939\u093e \u0928\u094d\u092f\u093e\u092f\u093e\u0932\u092f",
          "network": "Pune Metro",
          "network:wikidata": "Q3595697",
          "public_transport": "station",
          "railway": "station",
          "station": "subway",
          "subway": "yes"
        }
      },
      {
        "type": "node",
        "id": 11097510275,
        "lat": 18.5268495,
        "lon": 73.8569149,
        "tags": {
          "layer": "2",
          "name": "District Court",
          "name:en": "District Court",
          "name:mr": "\u091c\u093f\u0932\u094d\u0939\u093e \u0928\u094d\u092f\u093e\u092f\u093e\u0932\u092f",
          "operator": "MahaMetro",
          "public_transport": "stop_position",
          "railway": "stop",
          "subway": "yes"
        }
      },
      {
        "type": "node",
        "id": 11097527713,
        "lat": 18.5297234,
        "lon": 73.872597,
        "tags": {
          "name": "Pune Railway Station",
          "name:mr": "\u092a\u0941\u0923\u0947 \u0930\u0947\u0932\u094d\u0935\u0947 \u0938\u094d\u091f\u0947\u0936\u0928",
          "operator": "MahaMetro",
          "public_transport": "stop_position",
          "railway": "stop",
          "subway": "yes"
        }
      },
      {
        "type": "node",
        "id": 11097527714,
        "lat": 18.5297781,
        "lon": 73.8725976,
        "tags": {
          "name": "Pune Railway Station",
          "name:mr": "\u092a\u0941\u0923\u0947 \u0930\u0947\u0932\u094d\u0935\u0947 \u0938\u094d\u091f\u0947\u0936\u0928",
          "operator": "MahaMetro",
          "public_transport": "stop_position",
          "railway": "stop",
          "subway": "yes"
        }
      },
      {
        "type": "node",
        "id": 11097527715,
        "lat": 18.5301112,
        "lon": 73.86544,
        "tags": {
          "layer": "2",
          "name": "Mangalwar Peth",
          "name:mr": "\u092e\u0902\u0917\u0933\u0935\u093e\u0930 \u092a\u0947\u0920",
          "operator": "MahaMetro",
          "public_transport": "stop_position",
          "railway": "stop",
          "subway": "yes"
        }
      },
      {
        "type": "node",
        "id": 11097527716,
        "lat": 18.5300697,
        "lon": 73.8654446,
        "tags": {
          "layer": "2",
          "name": "Mangalwar Peth",
          "name:mr": "\u092e\u0902\u0917\u0933\u0935\u093e\u0930 \u092a\u0947\u0920",
          "operator": "MahaMetro",
          "public_transport": "stop_position",
          "railway": "stop",
          "subway": "yes"
        }
      },
      {
        "type": "node",
        "id": 11097527717,
        "lat": 18.520213,
        "lon": 73.8475183,
        "tags": {
          "layer": "2",
          "name": "Chhatrapati Sambhaji Udyan",
          "name:mr": "\u091b\u0924\u094d\u0930\u092a\u0924\u0940 \u0938\u0902\u092d\u093e\u091c\u0940 \u0909\u0926\u094d\u092f\u093e\u0928",
          "operator": "MahaMetro",
          "public_transport": "stop_position",
          "railway": "stop",
          "subway": "yes"
        }
      },
      {
        "type": "node",
        "id": 11097527718,
        "lat": 18.5202282,
        "lon": 73.8475065,
        "tags": {
          "name": "Chhatrapati Sambhaji Udyan",
          "name:mr": "\u091b\u0924\u094d\u0930\u092a\u0924\u0940 \u0938\u0902\u092d\u093e\u091c\u0940 \u0909\u0926\u094d\u092f\u093e\u0928",
          "network": "Pune Metro",
          "network:wikidata": "Q3595697",
          "public_transport": "station",
          "railway": "station",
          "station": "subway",
          "subway": "yes"
        }
      },
      {
        "type": "node",
        "id": 11097527719,
        "lat": 18.5202571,
        "lon": 73.8474837,
        "tags": {
          "layer": "2",
          "name": "Chhatrapati Sambhaji Udyan",
          "name:mr": "\u091b\u0924\u094d\u0930\u092a\u0924\u0940 \u0938\u0902\u092d\u093e\u091c\u0940 \u0909\u0926\u094d\u092f\u093e\u0928",
          "operator": "MahaMetro",
          "public_transport": "stop_position",
          "railway": "stop",
          "subway": "yes"
        }
      },
      {
        "type": "node",
        "id": 11097527720,
        "lat": 18.5271277,
        "lon": 73.8580437,
        "tags": {
          "layer": "2",
          "name": "District Court (Aqua Line)",
          "name:fr": "Cour civile",
          "name:mr": "\u091c\u093f\u0932\u094d\u0939\u093e \u0928\u094d\u092f\u093e\u092f\u093e\u0932\u092f",
          "operator": "MahaMetro",
          "public_transport": "stop_position",
          "railway": "stop",
          "subway": "yes"
        }
      },
      {
        "type": "node",
        "id": 11097527721,
        "lat": 18.5271544,
        "lon": 73.8579657,
        "tags": {
          "layer": "2",
          "name": "District Court (Aqua Line)",
          "name:mr": "\u091c\u093f\u0932\u094d\u0939\u093e \u0928\u094d\u092f\u093e\u092f\u093e\u0932\u092f",
          "operator": "MahaMetro",
          "public_transport": "stop_position",
          "railway": "stop",
          "subway": "yes"
        }
      },
      {
        "type": "node",
        "id": 11097527722,
        "lat": 18.5227795,
        "lon": 73.8533807,
        "tags": {
          "layer": "2",
          "name": "PMC Bhavan",
          "name:mr": "\u092a\u0941\u0923\u0947 \u092e\u0928\u092a\u093e \u0938\u094d\u0925\u093e\u0928\u0915",
          "operator": "MahaMetro",
          "public_transport": "stop_position",
          "railway": "stop",
          "subway": "yes"
        }
      },
      {
        "type": "node",
        "id": 11097527723,
        "lat": 18.5228341,
        "lon": 73.8533589,
        "tags": {
          "layer": "2",
          "name": "PMC Bhavan",
          "name:mr": "\u092a\u0941\u0923\u0947 \u092e\u0928\u092a\u093e \u0938\u094d\u0925\u093e\u0928\u0915",
          "operator": "MahaMetro",
          "public_transport": "stop_position",
          "railway": "stop",
          "subway": "yes"
        }
      },
      {
        "type": "node",
        "id": 11097527724,
        "lat": 18.5164733,
        "lon": 73.8443466,
        "tags": {
          "layer": "2",
          "name": "Deccan Gymkhana",
          "name:mr": "\u0921\u0947\u0915\u094d\u0915\u0928 \u091c\u093f\u092e\u0916\u093e\u0928\u093e",
          "operator": "MahaMetro",
          "public_transport": "stop_position",
          "railway": "stop",
          "subway": "yes"
        }
      },
      {
        "type": "node",
        "id": 11097527725,
        "lat": 18.5164599,
        "lon": 73.8443734,
        "tags": {
          "name": "Deccan Gymkhana",
          "name:mr": "\u0921\u0947\u0915\u094d\u0915\u0928 \u091c\u093f\u092e\u0916\u093e\u0928\u093e",
          "network": "Pune Metro",
          "network:wikidata": "Q3595697",
          "public_transport": "station",
          "railway": "station",
          "station": "subway",
          "subway": "yes"
        }
      },
      {
        "type": "node",
        "id": 12211880200,
        "lat": 18.5214436,
        "lon": 73.8595779,
        "tags": {
          "name": "\u0915\u0938\u092c\u093e \u092a\u0947\u0920",
          "name:en": "Kasba Peth",
          "name:mr": "\u0915\u0938\u092c\u093e \u092a\u0947\u0920",
          "network": "Pune Metro",
          "network:wikidata": "Q3595697",
          "public_transport": "station",
          "railway": "station",
          "station": "subway",
          "subway": "yes",
          "wikidata": "Q130381226",
          "wikipedia": "en:Kasba Peth metro station"
        }
      },
      {
        "type": "node",
        "id": 12211960101,
        "lat": 18.5129087,
        "lon": 73.8569857,
        "tags": {
          "name": "\u092e\u0902\u0921\u0908",
          "name:en": "Mandai",
          "name:mr": "\u092e\u0902\u0921\u0908",
          "operator": "MahaMetro",
          "public_transport": "stop_position",
          "railway": "stop",
          "subway": "yes"
        }
      },
      {
        "type": "node",
        "id": 12211960102,
        "lat": 18.5129035,
        "lon": 73.8569526,
        "tags": {
          "name": "\u092e\u0902\u0921\u0908",
          "name:en": "Mandai",
          "name:mr": "\u092e\u0902\u0921\u0908",
          "operator": "MahaMetro",
          "public_transport": "stop_position",
          "railway": "stop",
          "subway": "yes"
        }
      },
      {
        "type": "node",
        "id": 12211960112,
        "lat": 18.5214296,
        "lon": 73.8596021,
        "tags": {
          "name": "\u0915\u0938\u092c\u093e \u092a\u0947\u0920",
          "name:en": "Kasba Peth",
          "name:mr": "\u0915\u0938\u092c\u093e \u092a\u0947\u0920",
          "operator": "MahaMetro",
          "public_transport": "stop_position",
          "railway": "stop",
          "subway": "yes"
        }
      },
      {
        "type": "node",
        "id": 12211960136,
        "lat": 18.4997302,
        "lon": 73.8575193,
        "tags": {
          "name": "\u0938\u094d\u0935\u093e\u0930\u0917\u0947\u091f",
          "name:en": "Swargate",
          "name:mr": "\u0938\u094d\u0935\u093e\u0930\u0917\u0947\u091f",
          "operator": "MahaMetro",
          "public_transport": "stop_position",
          "railway": "stop",
          "subway": "yes"
        }
      },
      {
        "type": "node",
        "id": 12211960138,
        "lat": 18.49975,
        "lon": 73.8574064,
        "tags": {
          "name": "\u0938\u094d\u0935\u093e\u0930\u0917\u0947\u091f",
          "name:en": "Swargate",
          "name:mr": "\u0938\u094d\u0935\u093e\u0930\u0917\u0947\u091f",
          "operator": "MahaMetro",
          "public_transport": "stop_position",
          "railway": "stop",
          "subway": "yes"
        }
      },
      {
        "type": "node",
        "id": 12473454969,
        "lat": 18.5228186,
        "lon": 73.8410529,
        "tags": {
          "access": "yes",
          "amenity": "charging_station",
          "brand": "Bijlify",
          "covered": "no",
          "fee": "yes",
          "source": "survey"
        }
      }
    ]
  }
}