{
  "pois_1km": {
    "version": 0.6,
    "generator": "Overpass API 0.7.62.8 e802775f",
    "osm3s": {
      "timestamp_osm_base": "2025-09-07T11:18:16Z",
      "copyright": "The data included in this document is from www.openstreetmap.org. The data is made available under ODbL."
    },
    "elements": [
      {
        "type": "node",
        "id": 670298363,
        "lat": 18.5659084,
        "lon": 73.7715441,
        "tags": {
          "amenity": "bank",
          "branch": "Baner",
          "brand": "Bank of Baroda",
          "brand:wikidata": "Q2003797",
          "name": "Bank of Baroda",
          "name:mr": "\u0926\u0947\u0928\u093e \u092c\u0901\u0915",
          "operator": "Dena Bank"
        }
      },
      {
        "type": "node",
        "id": 2323358533,
        "lat": 18.5617981,
        "lon": 73.7835145,
        "tags": {
          "addr:city": "Baner",
          "addr:postcode": "411045",
          "addr:street": "Baner Road",
          "amenity": "restaurant",
          "cuisine": "indian",
          "name": "Do Say Idlicious"
        }
      },
      {
        "type": "node",
        "id": 2605733302,
        "lat": 18.5646448,
        "lon": 73.7743979,
        "tags": {
          "alt_name": "Kentucky Fried Chicken",
          "alt_name:en": "Kentucky Fried Chicken",
          "alt_name:hi": "\u0915\u0947\u0902\u091f\u0941\u0915\u0940 \u092b\u094d\u0930\u093e\u0907\u0921 \u091a\u093f\u0915\u0928",
          "alt_name:pa": "\u0a15\u0a48\u0a02\u0a1f\u0a41\u0a15\u0a40 \u0a2b\u0a4d\u0a30\u0a3e\u0a08\u0a21 \u0a1a\u0a3f\u0a15\u0a28",
          "alt_name:pnb": "\u06a9\u06cc\u0646\u0679\u06a9\u06cc \u0641\u0631\u0627\u0626\u06cc\u0688 \u0686\u06a9\u0646",
          "alt_name:ur": "\u06a9\u06cc\u0646\u0679\u06a9\u06cc \u0641\u0631\u0627\u0626\u06cc\u0688 \u0686\u06a9\u0646",
          "amenity": "fast_food",
          "brand": "KFC",
          "brand:en": "KFC",
          "brand:hi": "\u0915\u0947\u090f\u092b\u0938\u0940",
          "brand:pa": "\u0a15\u0a47\u0a10\u0a2b\u0a38\u0a40",
          "brand:pnb": "\u06a9\u06d2 \u0627\u06cc\u0641 \u0633\u06cc",
          "brand:ur": "\u06a9\u06d2 \u0627\u06cc\u0641 \u0633\u06cc",
          "brand:wikidata": "Q524757",
          "brand:wikipedia": "en:KFC",
          "brand:wikipedia:pa": "\u0a15\u0a47\u0a10\u0a2b\u0a38\u0a40",
          "brand:wikipedia:ur": "\u06a9\u06cc\u0646\u0679\u06a9\u06cc \u0641\u0631\u0627\u0626\u06cc\u0688 \u0686\u06a9\u0646",
          "check_date": "2022-12-21",
          "cuisine": "chicken",
          "name": "KFC",
          "name:en": "KFC",
          "name:hi": "\u0915\u0947\u090f\u092b\u0938\u0940",
          "name:mr": "KFC",
          "name:pa": "\u0a15\u0a47\u0a10\u0a2b\u0a38\u0a40",
          "name:pnb": "\u06a9\u06d2 \u0627\u06cc\u0641 \u0633\u06cc",
          "name:ur": "\u06a9\u06d2 \u0627\u06cc\u0641 \u0633\u06cc",
          "takeaway": "yes"
        }
      },
      {
        "type": "node",
        "id": 3523419263,
        "lat": 18.565198,
        "lon": 73.7740538,
        "tags": {
          "amenity": "bank",
          "brand:wikidata": "Q1340361",
          "brand:wikipedia": "en:State Bank of India",
          "name": "SBI InTouch",
          "name:mr": "\u090f\u0938\u092c\u0940\u0906\u092f \u0907\u0928\u091f\u091a",
          "website": "http://onlinesbi.in"
        }
      },
      {
        "type": "node",
        "id": 4519367791,
        "lat": 18.5591087,
        "lon": 73.7792851,
        "tags": {
          "name:en": "Farmers' & Grocers' Neighbourhood Market",
          "shop": "department_store"
        }
      },
      {
        "type": "node",
        "id": 5308182756,
        "lat": 18.5694127,
        "lon": 73.7745138,
        "tags": {
          "addr:city": "Pune",
          "addr:postcode": "411045",
          "addr:street": "Balewadi High Street",
          "amenity": "restaurant",
          "bar": "yes",
          "contact:facebook": "https://www.facebook.com/apachepune/",
          "contact:instagram": "https://www.instagram.com/apachepune/",
          "delivery:partner": "Zomato",
          "name": "Apache Highstreet",
          "opening_hours": "Mo-Su 11:00-23:00",
          "operator": "Apache",
          "outdoor_seating": "yes",
          "smoking": "isolated",
          "takeaway": "yes",
          "website": "http://www.apachelounge.in/"
        }
      },
      {
        "type": "node",
        "id": 6113604714,
        "lat": 18.569225,
        "lon": 73.7819041,
        "tags": {
          "amenity": "restaurant",
          "diet:vegetarian": "only",
          "name": "Akshay",
          "name:en": "Akshay",
          "name:hi": "\u0905\u0915\u094d\u0937\u092f",
          "name:mr": "\u0905\u0915\u094d\u0937\u092f"
        }
      },
      {
        "type": "node",
        "id": 6113753516,
        "lat": 18.5674994,
        "lon": 73.7760787,
        "tags": {
          "amenity": "bank",
          "atm": "no",
          "branch": "Baner",
          "brand": "Lokmanya Multipurpose Co-op Bank",
          "name": "Lokmanya Multipurpose Co-op Bank",
          "name:mr": "\u0932\u094b\u0915\u092e\u093e\u0928\u094d\u092f \u092e\u0932\u094d\u091f\u093f\u092a\u0930\u094d\u092a\u091c \u0938\u0939\u0915\u093e\u0930\u0940 \u092c\u0901\u0915",
          "operator": "Lokmanya Multipurpose Co-op Bank"
        }
      },
      {
        "type": "node",
        "id": 6113753517,
        "lat": 18.5675534,
        "lon": 73.7755792,
        "tags": {
          "amenity": "restaurant",
          "name": "Mavala Darbar",
          "name:mr": "\u092e\u093e\u0935\u0933\u093e \u0926\u0930\u092c\u093e\u0930",
          "opening_hours": "Tu-Su 11:00-15:00,19:00-23:00"
        }
      },
      {
        "type": "node",
        "id": 6113753529,
        "lat": 18.5695764,
        "lon": 73.7745131,
        "tags": {
          "addr:city": "Pune",
          "addr:postcode": "411045",
          "addr:street": "Balewadi High Street",
          "air_conditioning": "yes",
          "amenity": "restaurant",
          "delivery:partner": "Zomato",
          "name": "Nawab Asia",
          "name:mr": "\u0928\u0935\u093e\u092c",
          "opening_hours": "Mo-Su 11:30-22:00",
          "outdoor_seating": "yes",
          "phone": "+918983066527",
          "takeaway": "yes"
        }
      },
      {
        "type": "node",
        "id": 6116153820,
        "lat": 18.5659579,
        "lon": 73.7728608,
        "tags": {
          "amenity": "restaurant",
          "name": "Orion",
          "name:mr": "\u0913\u0930\u093e\u092f\u0928"
        }
      },
      {
        "type": "node",
        "id": 6116153821,
        "lat": 18.5656884,
        "lon": 73.7728178,
        "tags": {
          "amenity": "restaurant",
          "name": "Cabaret",
          "name:mr": "\u0915\u0945\u092c\u0930\u0947"
        }
      },
      {
        "type": "node",
        "id": 6116153822,
        "lat": 18.565307,
        "lon": 73.7737043,
        "tags": {
          "amenity": "bank",
          "atm": "yes",
          "brand": "ICICI Bank",
          "brand:wikidata": "Q1653258",
          "brand:wikipedia": "en:ICICI Bank",
          "name": "ICICI Bank",
          "name:mr": "\u0906\u092f\u0938\u0940\u0906\u092f\u0938\u0940\u0906\u092f \u092c\u0901\u0915",
          "opening_hours": "24/7",
          "operator": "ICICI Bank",
          "short_name": "ICICI"
        }
      },
      {
        "type": "node",
        "id": 6116153823,
        "lat": 18.5652905,
        "lon": 73.7741442,
        "tags": {
          "amenity": "restaurant",
          "name": "Post 91",
          "name:mr": "\u092a\u094b\u0938\u094d\u091f \u096f\u0967"
        }
      },
      {
        "type": "node",
        "id": 6116153824,
        "lat": 18.5651824,
        "lon": 73.7742622,
        "tags": {
          "amenity": "atm",
          "brand": "IndusInd Bank",
          "brand:wikidata": "Q2040323",
          "brand:wikipedia": "en:IndusInd Bank",
          "check_date": "2022-01-03",
          "name": "IndusInd Bank",
          "opening_hours": "24/7",
          "operator": "IndusInd Bank",
          "operator:wikidata": "Q2040323",
          "operator:wikipedia": "en:IndusInd Bank"
        }
      },
      {
        "type": "node",
        "id": 6116153825,
        "lat": 18.5651875,
        "lon": 73.774218,
        "tags": {
          "amenity": "bank",
          "atm": "no",
          "brand": "IndusInd Bank",
          "brand:wikidata": "Q2040323",
          "brand:wikipedia": "en:IndusInd Bank",
          "name": "IndusInd Bank",
          "name:mr": "\u0907\u0902\u0921\u0938\u0907\u0902\u0921 \u092c\u0901\u0915",
          "operator": "IndusInd Bank"
        }
      },
      {
        "type": "node",
        "id": 6116153847,
        "lat": 18.566277,
        "lon": 73.7713547,
        "tags": {
          "amenity": "restaurant",
          "name": "Nirvana",
          "name:mr": "\u0928\u093f\u0930\u094d\u0935\u093e\u0923"
        }
      },
      {
        "type": "node",
        "id": 6128879905,
        "lat": 18.5642989,
        "lon": 73.7812936,
        "tags": {
          "amenity": "bank",
          "brand": "State Bank of India",
          "brand:wikidata": "Q1340361",
          "brand:wikipedia": "en:State Bank of India",
          "name": "State Bank of India",
          "name:mr": "\u090f\u0938\u092c\u0940\u0906\u092f",
          "operator": "SBI",
          "short_name": "SBI"
        }
      },
      {
        "type": "node",
        "id": 6128879908,
        "lat": 18.5643484,
        "lon": 73.7799311,
        "tags": {
          "amenity": "bank",
          "atm": "no",
          "brand": "Pune Sahakari Bank Ltd.",
          "name": "Pune Sahakari Bank Ltd.",
          "name:mr": "\u092a\u0941\u0923\u0947 \u0938\u0939\u0915\u093e\u0930\u0940 \u092c\u0901\u0915 \u0932\u093f.",
          "operator": "Pune Sahakari Bank Ltd."
        }
      },
      {
        "type": "node",
        "id": 6128879919,
        "lat": 18.5662338,
        "lon": 73.7713031,
        "tags": {
          "amenity": "bank",
          "brand": "Equitas Small Finance Bank",
          "brand:wikidata": "Q29467249",
          "name": "Equitas Small Finance Bank",
          "name:mr": "\u090f\u0915\u094d\u0935\u093f\u0902\u091f\u093e\u0938 \u0938\u094d\u092e\u0949\u0932 \u092b\u093e\u092f\u0928\u093e\u0928\u094d\u0938 \u092c\u0901\u0915",
          "operator": "Equitas Small Finance Bank"
        }
      },
      {
        "type": "node",
        "id": 6346663441,
        "lat": 18.5692579,
        "lon": 73.7745191,
        "tags": {
          "addr:city": "Pune",
          "addr:postcode": "411045",
          "addr:street": "Balewadi High Street",
          "amenity": "restaurant",
          "bar": "yes",
          "delivery:partner": "Zomato",
          "name": "The Urban Foundry",
          "opening_hours": "Mo-Su 11:30-23:00",
          "outdoor_seating": "yes",
          "phone": "+918983001155",
          "takeaway": "yes",
          "website": "https://theurbanfoundry.dotpe.in/order"
        }
      },
      {
        "type": "node",
        "id": 7649461735,
        "lat": 18.564414,
        "lon": 73.7827206,
        "tags": {
          "addr:district": "Pune",
          "addr:full": "Baner - Balewadi Road, Balewadi Phata, Baner, Pune",
          "addr:postcode": "411045",
          "addr:state": "Maharashtra",
          "amenity": "clinic",
          "name": "Apex Eye Care Clinic",
          "source": "Local Knowledge"
        }
      },
      {
        "type": "node",
        "id": 8261533117,
        "lat": 18.5640847,
        "lon": 73.7828149,
        "tags": {
          "addr:city": "pune",
          "addr:postcode": "411057",
          "addr:street": "Vitalife Clinic, Datta Mandir Road, Shankar Kalat Nagar,Wakad",
          "amenity": "clinic",
          "healthcare": "clinic",
          "healthcare:speciality": "Obstetrician;Gynecologist;Laproscopy",
          "name": "Vitalife Clinic",
          "website": "https://drbhaktidhamangaonkar.in/"
        }
      },
      {
        "type": "node",
        "id": 8261602337,
        "lat": 18.5646445,
        "lon": 73.7824326,
        "tags": {
          "addr:city": "Pune",
          "addr:postcode": "411045",
          "addr:street": "Pune- Communication Address- Omega Residency , RH7 , Baner-Mhalunge Road, Baner Mhalunge Road",
          "amenity": "clinic",
          "healthcare": "clinic",
          "healthcare:speciality": "Medical_Consultation_in_Health_&_Fitness;Sports_&_Educator_@_Exercise_&_Sports_Sciences",
          "name": "Pendse's PhysiTech Pvt. Ltd.",
          "website": "https://www.drrahulvijaypendse.com/drrahulvijaypendse"
        }
      },
      {
        "type": "node",
        "id": 8266102139,
        "lat": 18.560809,
        "lon": 73.7883569,
        "tags": {
          "addr:city": "Pune",
          "addr:housenumber": "501",
          "addr:postcode": "411045",
          "addr:street": "Shivom Regency, Main Baner Rd, above Jyoti Gas Appliances,, Baner",
          "amenity": "clinic",
          "healthcare": "clinic",
          "healthcare:speciality": "orthopaedics",
          "name": "Healing Touch Clinic",
          "website": "https://www.healingtouchclinicpune.in/healingtouchclinic"
        }
      },
      {
        "type": "node",
        "id": 8269746728,
        "lat": 18.5659776,
        "lon": 73.7845649,
        "tags": {
          "addr:city": "Pune",
          "addr:postcode": "411045",
          "addr:street": "Jupiter hospital, Pimple Nilakh Rd, Prathamesh Park, Baner",
          "amenity": "clinic",
          "healthcare": "clinic",
          "healthcare:speciality": "Laparoscopic_and_Laser_Surgery",
          "name": "Dr. Mandar Dhamangaonkar",
          "website": "https://www.drmandardhamangaonkar.in/"
        }
      },
      {
        "type": "node",
        "id": 9148283235,
        "lat": 18.5600932,
        "lon": 73.7826479,
        "tags": {
          "amenity": "fast_food",
          "cuisine": "sandwich",
          "name": "The Sandwich Bar"
        }
      },
      {
        "type": "node",
        "id": 9348284339,
        "lat": 18.5693465,
        "lon": 73.7745143,
        "tags": {
          "addr:city": "Pune",
          "addr:postcode": "411045",
          "addr:street": "Balewadi High Street",
          "amenity": "restaurant",
          "bar": "yes",
          "delivery:partner": "Zomato",
          "name": "Terttulia Bistro",
          "opening_hours": "Mo-Su 11:00-24:00",
          "outdoor_seating": "yes",
          "takeaway": "yes"
        }
      },
      {
        "type": "node",
        "id": 9348284340,
        "lat": 18.5694968,
        "lon": 73.7745139,
        "tags": {
          "addr:city": "Pune",
          "addr:postcode": "411045",
          "addr:street": "Balewadi High Street",
          "amenity": "restaurant",
          "bar": "yes",
          "contact:facebook": "https://www.facebook.com/swigbhs/",
          "delivery:partner": "Zomato",
          "name": "SWIG Bar & Eatery",
          "opening_hours": "Mo-Su 12:00-24:00",
          "phone": "+91 083903 51626",
          "takeaway": "yes"
        }
      },
      {
        "type": "node",
        "id": 9348284344,
        "lat": 18.5700184,
        "lon": 73.7744996,
        "tags": {
          "addr:city": "Pune",
          "addr:postcode": "411045",
          "addr:street": "Balewadi High Street",
          "check_date": "2025-04-20",
          "contact:email": "office@dorabjees.com",
          "contact:facebook": "https://www.facebook.com/dorabjees/",
          "contact:instagram": "https://www.instagram.com/dorabjees/",
          "contact:twitter": "https://twitter.com/dorabjees/",
          "name": "Dorabjee's",
          "opening_hours": "Mo-Su 09:30-21:00",
          "operator": "Dorabjee & Co. Pvt. Ltd.",
          "payment:mastercard": "yes",
          "payment:upi": "yes",
          "payment:visa": "yes",
          "phone": "+912040110000",
          "shop": "supermarket",
          "website": "https://dorabjeesonline.com/"
        }
      },
      {
        "type": "node",
        "id": 9348595002,
        "lat": 18.5659175,
        "lon": 73.7762913,
        "tags": {
          "addr:city": "Pune",
          "addr:postcode": "411045",
          "addr:street": "Balewadi High Street",
          "air_conditioning": "yes",
          "amenity": "restaurant",
          "bar": "yes",
          "contact:facebook": "https://www.facebook.com/theoldmansion.pune/",
          "contact:instagram": "https://www.instagram.com/the_old_mansion/",
          "cuisine": "indian;asian;western",
          "delivery": "yes",
          "delivery:partner": "Swiggy;Zomato",
          "name": "The Old Mansion",
          "name:mr": "\u0926 \u0913\u0932\u094d\u0921 \u092e\u0945\u0928\u094d\u0936\u0928",
          "opening_hours": "Mo-Su 12:00-24:00",
          "outdoor_seating": "yes",
          "phone": "+918010908457",
          "reservation": "accepted",
          "takeaway": "yes",
          "website": "http://casdis.co.in/chat/oldmansion"
        }
      },
      {
        "type": "node",
        "id": 9394475543,
        "lat": 18.5646221,
        "lon": 73.7744673,
        "tags": {
          "addr:suburb": "Baner",
          "amenity": "restaurant",
          "brand": "Pizza Hut",
          "brand:wikidata": "Q191615",
          "brand:wikipedia": "en:Pizza Hut",
          "check_date": "2022-12-21",
          "cuisine": "pizza",
          "name": "Pizza Hut",
          "name:en": "Pizza Hut",
          "name:mr": "\u092a\u093f\u091d\u094d\u091d\u093e \u0939\u091f"
        }
      },
      {
        "type": "node",
        "id": 9400303874,
        "lat": 18.5645068,
        "lon": 73.7848963,
        "tags": {
          "addr:city": "pune",
          "addr:housenumber": "123",
          "addr:postcode": "411045",
          "addr:street": "kalamkar road",
          "name": "Daily delights",
          "opening_hours": "10-10",
          "opening_hours:covid19": "Mo-Su 08:00-20:00",
          "operator": "punjabi",
          "phone": "7722015300",
          "shop": "supermarket",
          "website": "https://dailydelights.com/"
        }
      },
      {
        "type": "node",
        "id": 9401996399,
        "lat": 18.5639378,
        "lon": 73.7775452,
        "tags": {
          "addr:city": "Pune",
          "addr:country": "IN",
          "addr:neighbourhood": "Baner",
          "addr:postcode": "411045",
          "addr:state": "Maharashtra",
          "addr:street": "Gopal Hari Deshmukh Marg",
          "amenity": "fast_food",
          "contact:phone": "+919067766065",
          "name": "Chahachi Tallaf"
        }
      },
      {
        "type": "node",
        "id": 9403075422,
        "lat": 18.5639725,
        "lon": 73.777019,
        "tags": {
          "addr:city": "Pune",
          "addr:country": "IN",
          "addr:postcode": "411045",
          "addr:state": "Maharashtra",
          "amenity": "hospital",
          "healthcare": "hospital",
          "healthcare:speciality": "fertility;maternity",
          "name": "Benecare Superspeciality Hospital"
        }
      },
      {
        "type": "node",
        "id": 10278530165,
        "lat": 18.5645201,
        "lon": 73.7747709,
        "tags": {
          "amenity": "fast_food",
          "check_date": "2022-12-22",
          "cuisine": "paan",
          "name": "Paan shop",
          "name:en": "Paan shop",
          "name:mr": "\u092a\u093e\u0928 \u0926\u0941\u0915\u093e\u0928",
          "opening_hours": "11:00-24:30"
        }
      },
      {
        "type": "node",
        "id": 10301911682,
        "lat": 18.5699946,
        "lon": 73.780944,
        "tags": {
          "addr:city": "Pune",
          "addr:housenumber": "17/2/1, Shop 1",
          "addr:postcode": "411045",
          "addr:street": "Balewadi Rd",
          "amenity": "restaurant",
          "diet:vegetarian": "yes",
          "name": "Fatcook",
          "phone": "07276007766"
        }
      },
      {
        "type": "node",
        "id": 10686342276,
        "lat": 18.5597322,
        "lon": 73.7811959,
        "tags": {
          "addr:city": "Pune",
          "addr:housenumber": "Caffee Delicioso, Pride Valencia Apartment,",
          "addr:postcode": "411045",
          "addr:street": "Pancard Club Road, Baner",
          "amenity": "cafe",
          "cuisine": "coffee_shop;ice_cream;chocolate",
          "delivery": "yes",
          "name": "Caffee Delicioso",
          "opening_hours": "24/7",
          "outdoor_seating": "yes",
          "phone": "+917507657070"
        }
      },
      {
        "type": "node",
        "id": 10692759689,
        "lat": 18.564267,
        "lon": 73.7768838,
        "tags": {
          "amenity": "bank",
          "name": "Seva Vikas Co-operative bank"
        }
      },
      {
        "type": "node",
        "id": 10692770537,
        "lat": 18.5654362,
        "lon": 73.7823388,
        "tags": {
          "amenity": "bank",
          "name": "SVC Co-Operative Bank"
        }
      },
      {
        "type": "node",
        "id": 10692781055,
        "lat": 18.561576,
        "lon": 73.785762,
        "tags": {
          "amenity": "atm",
          "brand": "State Bank of India",
          "brand:wikidata": "Q1340361",
          "name": "state bank of india",
          "operator": "State Bank of India",
          "operator:wikidata": "Q1340361",
          "short_name": "SBI"
        }
      },
      {
        "type": "node",
        "id": 10692785979,
        "lat": 18.5643905,
        "lon": 73.7807913,
        "tags": {
          "amenity": "bank",
          "name": "Pune Sahakari Bank Ltd."
        }
      },
      {
        "type": "node",
        "id": 10692803763,
        "lat": 18.5694304,
        "lon": 73.7744336,
        "tags": {
          "amenity": "bank",
          "brand": "ICICI Bank",
          "brand:wikidata": "Q1653258",
          "name": "ICICI Bank",
          "short_name": "ICICI"
        }
      },
      {
        "type": "node",
        "id": 10692810830,
        "lat": 18.5666451,
        "lon": 73.7714749,
        "tags": {
          "amenity": "bank",
          "brand": "CSB Bank",
          "brand:wikidata": "Q5053244",
          "name": "CSB Bank",
          "official_name": "Catholic Syrian Bank"
        }
      },
      {
        "type": "node",
        "id": 10692814351,
        "lat": 18.5617642,
        "lon": 73.7836506,
        "tags": {
          "amenity": "atm",
          "brand": "Union Bank of India",
          "brand:wikidata": "Q2004078",
          "name": "union bank",
          "operator": "Union Bank of India",
          "operator:wikidata": "Q2004078"
        }
      },
      {
        "type": "node",
        "id": 10692842123,
        "lat": 18.5616157,
        "lon": 73.7848308,
        "tags": {
          "amenity": "bank",
          "name": "Shivajiorao Bhosale Sahakari bank"
        }
      },
      {
        "type": "node",
        "id": 10692849149,
        "lat": 18.562053,
        "lon": 73.7851132,
        "tags": {
          "amenity": "atm",
          "brand": "State Bank of India",
          "brand:wikidata": "Q1340361",
          "name": "state bank of india",
          "operator": "State Bank of India",
          "operator:wikidata": "Q1340361",
          "short_name": "SBI"
        }
      },
      {
        "type": "node",
        "id": 10692853020,
        "lat": 18.5594961,
        "lon": 73.7887667,
        "tags": {
          "amenity": "bank",
          "brand": "IndusInd Bank",
          "brand:wikidata": "Q2040323",
          "name": "IndusInd Bank"
        }
      },
      {
        "type": "node",
        "id": 11111717277,
        "lat": 18.5585132,
        "lon": 73.7772183,
        "tags": {
          "amenity": "fast_food",
          "brand": "McDonald's",
          "brand:wikidata": "Q38076",
          "cuisine": "burger",
          "name": "McDonald's",
          "takeaway": "yes"
        }
      },
      {
        "type": "node",
        "id": 11111717291,
        "lat": 18.5613577,
        "lon": 73.786551,
        "tags": {
          "amenity": "restaurant",
          "cuisine": "chinese;indian",
          "diet:non-vegetarian": "yes",
          "diet:vegetarian": "yes",
          "name": "Shree Ambika",
          "name:en": "Shree Ambika",
          "name:hi": "\u0936\u094d\u0930\u0940 \u0905\u0902\u092c\u093f\u0915\u093e",
          "name:mr": "\u0936\u094d\u0930\u0940 \u0905\u0902\u092c\u093f\u0915\u093e"
        }
      },
      {
        "type": "node",
        "id": 11245210009,
        "lat": 18.5613227,
        "lon": 73.7869802,
        "tags": {
          "amenity": "atm",
          "brand": "ICICI Bank",
          "brand:wikidata": "Q1653258",
          "operator": "ICICI Bank",
          "operator:wikidata": "Q1653258",
          "short_name": "ICICI"
        }
      },
      {
        "type": "node",
        "id": 11245210010,
        "lat": 18.561345,
        "lon": 73.7866017,
        "tags": {
          "amenity": "restaurant",
          "cuisine": "chinese",
          "name": "Chinese Wok"
        }
      },
      {
        "type": "node",
        "id": 11245293888,
        "lat": 18.5638816,
        "lon": 73.7749848,
        "tags": {
          "amenity": "pharmacy",
          "healthcare": "pharmacy",
          "name": "Prince Medico"
        }
      },
      {
        "type": "node",
        "id": 11276070948,
        "lat": 18.5613475,
        "lon": 73.7869155,
        "tags": {
          "amenity": "restaurant",
          "name": "KGN Tandoor Express",
          "name:en": "KGN Tandoor Express",
          "name:hi": "\u0915\u0947\u091c\u0940\u090f\u0928 \u0924\u0902\u0926\u0941\u0930 \u090f\u0915\u094d\u0938\u092a\u094d\u0930\u0947\u0938",
          "name:mr": "\u0915\u0947\u091c\u0940\u090f\u0928 \u0924\u0902\u0926\u0941\u0930 \u090f\u0915\u094d\u0938\u092a\u094d\u0930\u0947\u0938"
        }
      },
      {
        "type": "node",
        "id": 11276070966,
        "lat": 18.5655152,
        "lon": 73.7823361,
        "tags": {
          "amenity": "atm",
          "operator": "SVC Co-Operative Bank"
        }
      },
      {
        "type": "node",
        "id": 11586139853,
        "lat": 18.5536853,
        "lon": 73.7795983,
        "tags": {
          "addr:city": "Pune",
          "addr:district": "Pune",
          "addr:housenumber": "Shop No. 9-10, Athashri Society,",
          "addr:postcode": "411045",
          "addr:street": "Pan Card Club Rd",
          "air_conditioning": "yes",
          "amenity": "restaurant",
          "bar": "yes",
          "capacity": "200",
          "cuisine": "pizza;coffee_shop;regional;burger;italian;sandwich;chicken;indian;asian",
          "diet:meat": "yes",
          "diet:vegetarian": "yes",
          "name": "Neighbourhud",
          "phone": "90281 04800"
        }
      },
      {
        "type": "node",
        "id": 11993247020,
        "lat": 18.5650506,
        "lon": 73.786566,
        "tags": {
          "addr:city": "Pune",
          "addr:district": "pune",
          "addr:postcode": "411045",
          "addr:street": "Jupiter Hospital - Near Prathamesh Park, Pimple Nilakh Road, Baner",
          "amenity": "clinic",
          "healthcare": "clinic",
          "name": "Dr. Chandrashekhar Dixit",
          "operator": "Novosalus Technology",
          "operator:type": "private"
        }
      },
      {
        "type": "node",
        "id": 12040210202,
        "lat": 18.5591862,
        "lon": 73.7792551,
        "tags": {
          "amenity": "pharmacy",
          "check_date": "2024-07-07",
          "healthcare": "pharmacy",
          "name": "R K Medical Store"
        }
      },
      {
        "type": "node",
        "id": 12104074785,
        "lat": 18.5579753,
        "lon": 73.7748801,
        "tags": {
          "amenity": "bank",
          "brand": "HDFC Bank",
          "brand:wikidata": "Q631047",
          "name": "HDFC Bank",
          "short_name": "HDFC"
        }
      },
      {
        "type": "node",
        "id": 12307079634,
        "lat": 18.5623222,
        "lon": 73.7841604,
        "tags": {
          "amenity": "fast_food",
          "name": "Katakirrr",
          "name:en": "Katakirrr",
          "name:mr": "\u0915\u093e\u091f\u093e\u0915\u093f\u0930\u0930\u0930"
        }
      },
      {
        "type": "node",
        "id": 12307079635,
        "lat": 18.5641737,
        "lon": 73.7819232,
        "tags": {
          "amenity": "atm",
          "brand": "Central Bank of India",
          "brand:wikidata": "Q2007090",
          "name": "Central Bank of India",
          "operator": "Central Bank of India",
          "operator:wikidata": "Q2007090"
        }
      },
      {
        "type": "node",
        "id": 12307079636,
        "lat": 18.5641867,
        "lon": 73.7818479,
        "tags": {
          "amenity": "bank",
          "brand": "Central Bank of India",
          "brand:wikidata": "Q2007090",
          "name": "Central Bank of India"
        }
      },
      {
        "type": "node",
        "id": 12307079665,
        "lat": 18.5642748,
        "lon": 73.7780655,
        "tags": {
          "amenity": "fast_food",
          "name": "Agastya Pavbhaji Misal Pav",
          "name:en": "Agastya Pavbhaji Misal Pav",
          "name:mr": "\u0905\u0917\u0938\u094d\u0924\u094d\u092f \u092a\u093e\u0935\u092d\u093e\u091c\u0940 \u092e\u093f\u0938\u0933\u092a\u093e\u0935"
        }
      },
      {
        "type": "node",
        "id": 12770261255,
        "lat": 18.5643864,
        "lon": 73.7791054,
        "tags": {
          "amenity": "cafe",
          "name": "The Work Sip Cafe",
          "name:en": "The Work Sip Cafe"
        }
      },
      {
        "type": "node",
        "id": 12770261293,
        "lat": 18.5703819,
        "lon": 73.7812471,
        "tags": {
          "amenity": "pharmacy",
          "healthcare": "pharmacy",
          "name": "National Pharmacy",
          "name:en": "National Pharmacy"
        }
      },
      {
        "type": "node",
        "id": 12778336525,
        "lat": 18.5573694,
        "lon": 73.7764125,
        "tags": {
          "addr:city": "PUNE",
          "addr:district": "Pune",
          "addr:postcode": "411045",
          "addr:street": "IIMS Indian Institute of Metabolic Sciences , Dr. Todkars multispeciality Hospital, Pan Card Club Road, Baner",
          "amenity": "clinic",
          "healthcare": "clinic",
          "healthcare:speciality": "urologist_&_andrologist",
          "name": "Dr. S K Palash",
          "operator": "Novosalus Technology",
          "operator:type": "private"
        }
      },
      {
        "type": "node",
        "id": 12860661600,
        "lat": 18.568057,
        "lon": 73.7820032,
        "tags": {
          "amenity": "pharmacy",
          "healthcare": "pharmacy",
          "name": "Aaiji Medico",
          "name:en": "Aaiji Medico",
          "name:mr": "\u0906\u0908\u091c\u0940 \u092e\u0947\u0921\u093f\u0915\u094b"
        }
      },
      {
        "type": "node",
        "id": 12860976282,
        "lat": 18.568133,
        "lon": 73.7819789,
        "tags": {
          "addr:housenumber": "4",
          "amenity": "clinic",
          "healthcare": "clinic",
          "healthcare:speciality": "general",
          "name": "Shree Aaiji Clinic & Diagnostic Center",
          "name:en": "Shree Aaiji Clinic & Diagnostic Center",
          "name:mr": "\u0936\u094d\u0930\u0940 \u0906\u0908\u091c\u0940 \u0915\u094d\u0932\u093f\u0928\u093f\u0915 \u0905\u0901\u0921 \u0921\u093e\u092f\u0917\u094d\u0928\u094b\u0938\u094d\u091f\u093f\u0915 \u0938\u0947\u0902\u091f\u0930",
          "opening_hours": "Mo-Su 09:00-22:00",
          "operator": "Dr. Madhuri Londhe",
          "phone": "+91 85308 00135"
        }
      },
      {
        "type": "node",
        "id": 12861335419,
        "lat": 18.5674308,
        "lon": 73.7756355,
        "tags": {
          "amenity": "bank",
          "brand": "IDFC First Bank",
          "brand:wikidata": "Q22031467",
          "name": "IDFC First Bank"
        }
      },
      {
        "type": "node",
        "id": 12861335420,
        "lat": 18.5673816,
        "lon": 73.7756355,
        "tags": {
          "amenity": "atm",
          "brand": "IDFC First Bank",
          "brand:wikidata": "Q22031467",
          "name": "IDFC First Bank",
          "operator": "IDFC First Bank",
          "operator:wikidata": "Q22031467"
        }
      },
      {
        "type": "node",
        "id": 12863141189,
        "lat": 18.5687438,
        "lon": 73.775275,
        "tags": {
          "amenity": "cafe",
          "name": "The Belgian Waffle Company",
          "name:en": "The Belgian Waffle Company",
          "name:mr": "\u0926 \u092c\u0947\u0932\u094d\u091c\u093f\u092f\u0928 \u0935\u0949\u092b\u0932 \u0915\u0902\u092a\u0928\u0940"
        }
      },
      {
        "type": "node",
        "id": 12863148745,
        "lat": 18.5694932,
        "lon": 73.7813175,
        "tags": {
          "amenity": "pharmacy",
          "healthcare": "pharmacy",
          "name": "Wellness Medical",
          "name:en": "Wellness Medical"
        }
      },
      {
        "type": "node",
        "id": 12863148747,
        "lat": 18.5694498,
        "lon": 73.7813326,
        "tags": {
          "amenity": "cafe",
          "name": "The Magic Bottle",
          "name:en": "The Magic Bottle"
        }
      },
      {
        "type": "node",
        "id": 12866982263,
        "lat": 18.5692962,
        "lon": 73.7819057,
        "tags": {
          "amenity": "fast_food",
          "name": "Balaji Bhel",
          "name:en": "Balaji Bhel"
        }
      },
      {
        "type": "node",
        "id": 12871485519,
        "lat": 18.5644836,
        "lon": 73.7831652,
        "tags": {
          "amenity": "restaurant",
          "cuisine": "chinese;indian",
          "name": "Signature Bar and Restaurant",
          "name:en": "Signature Bar and Restaurant"
        }
      }
    ]
  },
  "pois_2_5km": {
    "version": 0.6,
    "generator": "Overpass API 0.7.62.8 e802775f",
    "osm3s": {
      "timestamp_osm_base": "2025-09-07T11:18:16Z",
      "copyright": "The data included in this document is from www.openstreetmap.org. The data is made available under ODbL."
    },
    "elements": [
      {
        "type": "node",
        "id": 6116153836,
        "lat": 18.567214,
        "lon": 73.7719864,
        "tags": {
          "amenity": "charging_station",
          "brand": "PowerUP"
        }
      },
      {
        "type": "node",
        "id": 7826201632,
        "lat": 18.5416115,
        "lon": 73.7790762,
        "tags": {
          "bus": "yes",
          "name": "Sutarwadi Bus Stand",
          "network": "PMPML",
          "operator": "PMPML",
          "public_transport": "stop_position",
          "wikidata": "Q7260109",
          "wikimedia_commons": "Category:Pune Mahanagar Parivahan Mahamandal Limited",
          "wikipedia": "en:Pune Mahanagar Parivahan Mahamandal Limited"
        }
      },
      {
        "type": "node",
        "id": 11436625766,
        "lat": 18.5443616,
        "lon": 73.780834,
        "tags": {
          "bus": "yes",
          "highway": "bus_stop",
          "name": "Vitbhatti Pashan",
          "public_transport": "stop_position"
        }
      },
      {
        "type": "node",
        "id": 11436625767,
        "lat": 18.5444681,
        "lon": 73.780867,
        "tags": {
          "bus": "yes",
          "highway": "bus_stop",
          "name": "Vitbhatti Pashan",
          "public_transport": "stop_position"
        }
      },
      {
        "type": "node",
        "id": 12484089401,
        "lat": 18.5517365,
        "lon": 73.7609474,
        "tags": {
          "amenity": "fuel",
          "name": "Shell Petrol Pump - Sus",
          "opening_hours": "24/7",
          "website": "https://find.shell.com/"
        }
      }
    ]
  }
}