{
  "pois_1km": {
    "version": 0.6,
    "generator": "Overpass API 0.7.62.8 e802775f",
    "osm3s": {
      "timestamp_osm_base": "2025-09-06T09:30:25Z",
      "copyright": "The data included in this document is from www.openstreetmap.org. The data is made available under ODbL."
    },
    "elements": [
      {
        "type": "node",
        "id": 2234881738,
        "lat": 22.5380621,
        "lon": 88.3512175,
        "tags": {
          "addr:city": "Kolkata",
          "addr:country": "IN",
          "addr:housenumber": "10/3",
          "addr:postcode": "700020",
          "addr:state": "WB",
          "addr:street": "Elgin Road",
          "amenity": "restaurant",
          "level": "4",
          "name": "Oh! Calcutta",
          "operator": "Speciality Restaurants Limited",
          "phone": "+91-033-22837161",
          "website": "https://www.speciality.co.in/",
          "wheelchair": "yes"
        }
      },
      {
        "type": "node",
        "id": 2561264392,
        "lat": 22.5413282,
        "lon": 88.365897,
        "tags": {
          "addr:city": "Kolkata",
          "amenity": "restaurant",
          "cuisine": "indian",
          "name": "Zeeshan"
        }
      },
      {
        "type": "node",
        "id": 2561266540,
        "lat": 22.5412056,
        "lon": 88.3649509,
        "tags": {
          "amenity": "restaurant",
          "name": "Krazy Kebab"
        }
      },
      {
        "type": "node",
        "id": 2746986381,
        "lat": 22.543995,
        "lon": 88.3583326,
        "tags": {
          "amenity": "cafe",
          "name": "The Chocolate Room"
        }
      },
      {
        "type": "node",
        "id": 2746986382,
        "lat": 22.5437624,
        "lon": 88.3582462,
        "tags": {
          "amenity": "cafe",
          "brand": "Cafe Coffee Day",
          "brand:wikidata": "Q5017235",
          "cuisine": "coffee_shop",
          "name": "Cafe Coffee Day",
          "takeaway": "yes"
        }
      },
      {
        "type": "node",
        "id": 2747132627,
        "lat": 22.5429973,
        "lon": 88.3560631,
        "tags": {
          "amenity": "pharmacy",
          "healthcare": "pharmacy",
          "name": "Aastha"
        }
      },
      {
        "type": "node",
        "id": 3406900468,
        "lat": 22.5469098,
        "lon": 88.3612631,
        "tags": {
          "amenity": "bank",
          "atm": "yes",
          "brand": "HDFC Bank",
          "brand:wikidata": "Q631047",
          "brand:wikipedia": "en:HDFC Bank",
          "building": "house",
          "name": "HDFC Bank",
          "short_name": "HDFC",
          "website": "https://www.hdfcbank.com"
        }
      },
      {
        "type": "node",
        "id": 3566105743,
        "lat": 22.5382703,
        "lon": 88.3587315,
        "tags": {
          "amenity": "pharmacy",
          "healthcare": "pharmacy",
          "name": "Frank Ross Pharmacy"
        }
      },
      {
        "type": "node",
        "id": 4176886189,
        "lat": 22.5412729,
        "lon": 88.347365,
        "tags": {
          "amenity": "restaurant",
          "name": "Saima Restaurant"
        }
      },
      {
        "type": "node",
        "id": 4377409089,
        "lat": 22.539183,
        "lon": 88.347101,
        "tags": {
          "addr:city": "Kolkata",
          "addr:housenumber": "2A",
          "addr:postcode": "700020",
          "addr:street": "Suburban Hospital Road",
          "amenity": "restaurant",
          "check_date": "2023-10-28",
          "internet_access": "no",
          "name": "MOMO PLAZA",
          "opening_hours": "12:00-22:00",
          "phone": "03322878260",
          "source": "Survey",
          "takeaway": "yes"
        }
      },
      {
        "type": "node",
        "id": 4393259889,
        "lat": 22.5413075,
        "lon": 88.3500109,
        "tags": {
          "amenity": "restaurant",
          "name": "Shila"
        }
      },
      {
        "type": "node",
        "id": 4393259890,
        "lat": 22.5365892,
        "lon": 88.3509509,
        "tags": {
          "addr:housenumber": "2",
          "addr:postcode": "700020",
          "addr:street": "Elgin Lane",
          "amenity": "restaurant",
          "check_date": "2023-10-28",
          "cuisine": "bengali;indian",
          "name": "Kewpie's",
          "name:en": "Kewpie's",
          "phone": "03324861600",
          "takeaway": "yes"
        }
      },
      {
        "type": "node",
        "id": 4684651490,
        "lat": 22.5470227,
        "lon": 88.3620613,
        "tags": {
          "addr:city": "Kolkata",
          "addr:district": "Kolkata",
          "addr:full": "185/1, Acharya Jagadish Chandra Bose Road , Beniapukur",
          "addr:housenumber": "185/1",
          "addr:postcode": "700017",
          "addr:state": "West Bengal",
          "addr:street": "AJC Bose Road",
          "amenity": "hospital",
          "check_date": "2023-09-30",
          "contact:phone": "3322867094",
          "healthcare": "hospital",
          "healthcare:speciality": "neurology",
          "internet_access": "wlan",
          "internet_access:fee": "no",
          "name": "Institute Of Neurosciences Kolkata",
          "name:en": "Institute of Neuroscience Kolkata",
          "phone": "033 4030 9999",
          "source": "OpenGovernmentData;survey;local knowledge",
          "website": "https://www.neurokolkata.org/",
          "wheelchair": "yes"
        }
      },
      {
        "type": "node",
        "id": 5151716324,
        "lat": 22.5471824,
        "lon": 88.3505072,
        "tags": {
          "amenity": "restaurant",
          "name": "Jyoti Vihar"
        }
      },
      {
        "type": "node",
        "id": 5303024823,
        "lat": 22.5448688,
        "lon": 88.3545938,
        "tags": {
          "amenity": "fast_food",
          "cuisine": "indian",
          "diet:vegetarian": "only",
          "name": "Veg restaurant"
        }
      },
      {
        "type": "node",
        "id": 5338247022,
        "lat": 22.5383947,
        "lon": 88.3514099,
        "tags": {
          "amenity": "atm",
          "brand": "HSBC",
          "brand:wikidata": "Q190464",
          "opening_hours": "24/7",
          "operator": "HSBC",
          "operator:wikidata": "Q190464"
        }
      },
      {
        "type": "node",
        "id": 5339103821,
        "lat": 22.5349694,
        "lon": 88.3537862,
        "tags": {
          "amenity": "restaurant",
          "cuisine": "burger;sandwich;italian;italian_pizza",
          "name": "My Big Fat Belly",
          "wheelchair": "limited"
        }
      },
      {
        "type": "node",
        "id": 5414029822,
        "lat": 22.540289,
        "lon": 88.3650923,
        "tags": {
          "amenity": "restaurant",
          "name": "The South Indian"
        }
      },
      {
        "type": "node",
        "id": 5414040822,
        "lat": 22.5410631,
        "lon": 88.3659763,
        "tags": {
          "amenity": "restaurant",
          "name": "Nafeel"
        }
      },
      {
        "type": "node",
        "id": 5512023021,
        "lat": 22.5426,
        "lon": 88.3659642,
        "tags": {
          "addr:housenumber": "2",
          "addr:place": "Syed Amir Ali Avenue",
          "amenity": "atm",
          "brand": "Allahabad Bank",
          "brand:wikidata": "Q2018840",
          "check_date": "2023-12-16",
          "currency:INR": "yes",
          "opening_hours": "24/7",
          "operator": "Allahabad Bank",
          "operator:wikidata": "Q2018840"
        }
      },
      {
        "type": "node",
        "id": 5745581821,
        "lat": 22.545692,
        "lon": 88.3528932,
        "tags": {
          "addr:street": "Camac Street",
          "amenity": "restaurant",
          "cuisine": "indian",
          "name": "Dawat",
          "phone": "22523271"
        }
      },
      {
        "type": "node",
        "id": 6135358004,
        "lat": 22.5445284,
        "lon": 88.3586151,
        "tags": {
          "amenity": "bank",
          "brand": "DCB Bank"
        }
      },
      {
        "type": "node",
        "id": 6135363544,
        "lat": 22.5401072,
        "lon": 88.3655956,
        "tags": {
          "amenity": "atm",
          "brand": "Kotak Mahindra Bank",
          "brand:wikidata": "Q2040404",
          "operator": "Kotak Mahindra Bank",
          "operator:wikidata": "Q2040404"
        }
      },
      {
        "type": "node",
        "id": 6135364026,
        "lat": 22.5439206,
        "lon": 88.3631226,
        "tags": {
          "amenity": "bank",
          "atm": "yes",
          "branch": "Park Circus",
          "brand": "Bank of India",
          "brand:short": "BOI",
          "brand:wikidata": "Q2004439",
          "check_date": "2023-12-16",
          "internet_access": "no",
          "name": "Bank of India",
          "payment:cash": "yes",
          "payment:mastercard": "yes",
          "payment:visa": "yes",
          "wheelchair": "no"
        }
      },
      {
        "type": "node",
        "id": 6135364481,
        "lat": 22.544679,
        "lon": 88.3553121,
        "tags": {
          "amenity": "cafe",
          "brand": "Cafe Coffee Day",
          "brand:wikidata": "Q5017235",
          "brand:wikipedia": "en:Caf\u00e9 Coffee Day",
          "cuisine": "coffee_shop",
          "name": "Cafe Coffee Day",
          "takeaway": "yes"
        }
      },
      {
        "type": "node",
        "id": 6138458223,
        "lat": 22.5473767,
        "lon": 88.3517657,
        "tags": {
          "amenity": "cafe",
          "name": "Spices and Sauces",
          "phone": "+91-33-2440-1314;+91-33-2440-8787;+91-98307-58920;+91-98304-04196"
        }
      },
      {
        "type": "node",
        "id": 6138458225,
        "lat": 22.5456757,
        "lon": 88.3525236,
        "tags": {
          "amenity": "cafe",
          "brand": "Cafe Coffee Day",
          "brand:wikidata": "Q5017235",
          "cuisine": "coffee_shop",
          "name": "Cafe Coffee Day",
          "takeaway": "yes"
        }
      },
      {
        "type": "node",
        "id": 6138458337,
        "lat": 22.5385047,
        "lon": 88.364883,
        "tags": {
          "amenity": "fast_food",
          "brand": "Domino's",
          "brand:ks": "\u0688\u0648\u0645\u06cc\u0646\u0648\u0632",
          "brand:pa": "\u0a21\u0a4b\u0a2e\u0a40\u0a28\u0a4b\u0a1c\u0a3c",
          "brand:ur": "\u0688\u0648\u0645\u06cc\u0646\u0648\u0632",
          "brand:wikidata": "Q839466",
          "brand:wikipedia": "en:Domino's Pizza",
          "cuisine": "pizza",
          "level": "1",
          "name": "Domino's",
          "name:ks": "\u0688\u0648\u0645\u06cc\u0646\u0648\u0632",
          "name:pa": "\u0a21\u0a4b\u0a2e\u0a40\u0a28\u0a4b\u0a1c\u0a3c",
          "name:ur": "\u0688\u0648\u0645\u06cc\u0646\u0648\u0632",
          "takeaway": "yes"
        }
      },
      {
        "type": "node",
        "id": 6143230209,
        "lat": 22.5485697,
        "lon": 88.3521791,
        "tags": {
          "amenity": "atm",
          "brand": "ICICI Bank",
          "brand:wikidata": "Q1653258",
          "opening_hours": "24/7",
          "operator": "ICICI Bank",
          "operator:wikidata": "Q1653258",
          "short_name": "ICICI"
        }
      },
      {
        "type": "node",
        "id": 6143232246,
        "lat": 22.5485554,
        "lon": 88.3522719,
        "tags": {
          "amenity": "bank",
          "branch": "Middleton Street",
          "brand": "ICICI Bank",
          "brand:wikidata": "Q1653258",
          "name": "ICICI Bank",
          "short_name": "ICICI"
        }
      },
      {
        "type": "node",
        "id": 6357619086,
        "lat": 22.5437593,
        "lon": 88.3536486,
        "tags": {
          "addr:housenumber": "3C",
          "addr:street": "Albert Road",
          "amenity": "restaurant",
          "cuisine": "indian",
          "name": "Govinda's",
          "opening_hours": "Mo-Su 09:00-22:00",
          "website": "https://www.iskconkolkata.com/"
        }
      },
      {
        "type": "node",
        "id": 6384815185,
        "lat": 22.5420415,
        "lon": 88.3474925,
        "tags": {
          "addr:housenumber": "46",
          "addr:postcode": "700071",
          "addr:street": "Acharya Jagadish Chandra Bose Road",
          "alt_name": "Haldiram",
          "amenity": "fast_food",
          "branch": "Veg Restaurant",
          "brand": "Haldiram's",
          "brand:wikidata": "Q17054442",
          "check_date": "2023-10-28",
          "cuisine": "indian",
          "name": "Haldiram's",
          "opening_hours": "Mo-Su 09:00-23:00",
          "takeaway": "yes",
          "website": "https://www.haldirams.com/"
        }
      },
      {
        "type": "node",
        "id": 6395400106,
        "lat": 22.5475583,
        "lon": 88.3541763,
        "tags": {
          "amenity": "fast_food",
          "name": "Hot Chips, Wood Street"
        }
      },
      {
        "type": "node",
        "id": 6395667421,
        "lat": 22.5472976,
        "lon": 88.3497826,
        "tags": {
          "amenity": "atm",
          "brand": "Canara Bank",
          "brand:en": "Canara Bank",
          "brand:hi": "\u0915\u0947\u0928\u0930\u093e \u092c\u0948\u0902\u0915",
          "brand:kn": "\u0c95\u0cc6\u0ca8\u0cb0\u0cbe \u0cac\u0ccd\u0caf\u0cbe\u0c82\u0c95\u0ccd",
          "brand:pa": "\u0a15\u0a47\u0a28\u0a30\u0a3e \u0a2c\u0a48\u0a02\u0a15",
          "brand:pnb": "\u06a9\u06cc\u0646\u0631\u0627 \u0628\u06cc\u0646\u06a9",
          "brand:ur": "\u06a9\u06cc\u0646\u0631\u0627 \u0628\u06cc\u0646\u06a9",
          "brand:wikidata": "Q2003777",
          "name:en": "Canara Bank",
          "name:hi": "\u0915\u0947\u0928\u0930\u093e \u092c\u0948\u0902\u0915",
          "name:kn": "\u0c95\u0cc6\u0ca8\u0cb0\u0cbe \u0cac\u0ccd\u0caf\u0cbe\u0c82\u0c95\u0ccd",
          "name:pa": "\u0a15\u0a47\u0a28\u0a30\u0a3e \u0a2c\u0a48\u0a02\u0a15",
          "name:pnb": "\u06a9\u06cc\u0646\u0631\u0627 \u0628\u06cc\u0646\u06a9",
          "name:ur": "\u06a9\u06cc\u0646\u0631\u0627 \u0628\u06cc\u0646\u06a9",
          "operator": "Canara Bank",
          "operator:wikidata": "Q2003777"
        }
      },
      {
        "type": "node",
        "id": 6517554085,
        "lat": 22.5372375,
        "lon": 88.3485487,
        "tags": {
          "amenity": "atm",
          "operator": "Union Bank ATM"
        }
      },
      {
        "type": "node",
        "id": 6551217385,
        "lat": 22.5473301,
        "lon": 88.3509795,
        "tags": {
          "addr:postcode": "700071",
          "addr:street": "Ho Chi Minh Sarani",
          "amenity": "fast_food",
          "indoor_seating": "yes",
          "name": "Mr. Veggie",
          "opening_hours": "24/7"
        }
      },
      {
        "type": "node",
        "id": 6698475385,
        "lat": 22.54559,
        "lon": 88.3495059,
        "tags": {
          "amenity": "atm",
          "brand": "State Bank of India",
          "brand:wikidata": "Q1340361",
          "cash_in": "no",
          "operator": "State Bank of India",
          "operator:wikidata": "Q1340361",
          "short_name": "SBI"
        }
      },
      {
        "type": "node",
        "id": 6698626686,
        "lat": 22.5390133,
        "lon": 88.3655357,
        "tags": {
          "addr:city": "kolkata",
          "addr:postcode": "700017",
          "addr:street": "Gariahat Road",
          "name": "Spencer\u2019s Supermarket (bottom level)",
          "organic": "yes",
          "shop": "supermarket",
          "website": "https://www.spencers.in/"
        }
      },
      {
        "type": "node",
        "id": 6698678609,
        "lat": 22.5388404,
        "lon": 88.3655051,
        "tags": {
          "amenity": "restaurant",
          "brand": "Pizza Hut",
          "brand:wikidata": "Q191615",
          "cuisine": "pizza",
          "name": "Pizza Hut"
        }
      },
      {
        "type": "node",
        "id": 6698978095,
        "lat": 22.5387257,
        "lon": 88.3654984,
        "tags": {
          "alt_name": "Kentucky Fried Chicken",
          "alt_name:en": "Kentucky Fried Chicken",
          "alt_name:hi": "\u0915\u0947\u0902\u091f\u0941\u0915\u0940 \u092b\u094d\u0930\u093e\u0907\u0921 \u091a\u093f\u0915\u0928",
          "alt_name:pa": "\u0a15\u0a48\u0a02\u0a1f\u0a41\u0a15\u0a40 \u0a2b\u0a4d\u0a30\u0a3e\u0a08\u0a21 \u0a1a\u0a3f\u0a15\u0a28",
          "alt_name:pnb": "\u06a9\u06cc\u0646\u0679\u06a9\u06cc \u0641\u0631\u0627\u0626\u06cc\u0688 \u0686\u06a9\u0646",
          "alt_name:ur": "\u06a9\u06cc\u0646\u0679\u06a9\u06cc \u0641\u0631\u0627\u0626\u06cc\u0688 \u0686\u06a9\u0646",
          "amenity": "fast_food",
          "brand": "KFC",
          "brand:en": "KFC",
          "brand:hi": "\u0915\u0947\u090f\u092b\u0938\u0940",
          "brand:pa": "\u0a15\u0a47\u0a10\u0a2b\u0a38\u0a40",
          "brand:pnb": "\u06a9\u06d2 \u0627\u06cc\u0641 \u0633\u06cc",
          "brand:ur": "\u06a9\u06d2 \u0627\u06cc\u0641 \u0633\u06cc",
          "brand:wikidata": "Q524757",
          "brand:wikipedia": "en:KFC",
          "brand:wikipedia:pa": "\u0a15\u0a47\u0a10\u0a2b\u0a38\u0a40",
          "brand:wikipedia:ur": "\u06a9\u06cc\u0646\u0679\u06a9\u06cc \u0641\u0631\u0627\u0626\u06cc\u0688 \u0686\u06a9\u0646",
          "cuisine": "chicken",
          "name": "KFC",
          "name:en": "KFC",
          "name:hi": "\u0915\u0947\u090f\u092b\u0938\u0940",
          "name:pa": "\u0a15\u0a47\u0a10\u0a2b\u0a38\u0a40",
          "name:pnb": "\u06a9\u06d2 \u0627\u06cc\u0641 \u0633\u06cc",
          "name:ur": "\u06a9\u06d2 \u0627\u06cc\u0641 \u0633\u06cc",
          "takeaway": "yes"
        }
      },
      {
        "type": "node",
        "id": 6698978096,
        "lat": 22.5387204,
        "lon": 88.3656254,
        "tags": {
          "amenity": "restaurant",
          "brand": "Chili's",
          "brand:wikidata": "Q1072948",
          "cuisine": "tex-mex",
          "name": "Chili's",
          "official_name": "Chili's Grill & Bar"
        }
      },
      {
        "type": "node",
        "id": 6698978097,
        "lat": 22.5387936,
        "lon": 88.3654984,
        "tags": {
          "amenity": "atm"
        }
      },
      {
        "type": "node",
        "id": 6741747191,
        "lat": 22.5334486,
        "lon": 88.358869,
        "tags": {
          "amenity": "atm",
          "brand": "State Bank of India",
          "brand:wikidata": "Q1340361",
          "drive_through": "no",
          "operator": "State Bank of India",
          "operator:wikidata": "Q1340361",
          "short_name": "SBI"
        }
      },
      {
        "type": "node",
        "id": 7030447585,
        "lat": 22.5406686,
        "lon": 88.3539831,
        "tags": {
          "amenity": "cafe",
          "name": "Artsy Coffee & Culture"
        }
      },
      {
        "type": "node",
        "id": 7030508385,
        "lat": 22.5384486,
        "lon": 88.3542805,
        "tags": {
          "amenity": "cafe",
          "name": "Piccadilly Square"
        }
      },
      {
        "type": "node",
        "id": 7030576887,
        "lat": 22.5367944,
        "lon": 88.3511606,
        "tags": {
          "addr:housenumber": "8A",
          "addr:postcode": "700020",
          "addr:street": "Allenby Lane",
          "amenity": "restaurant",
          "check_date": "2023-10-28",
          "name": "Fabbrica",
          "phone": "03340620777",
          "takeaway": "yes"
        }
      },
      {
        "type": "node",
        "id": 7035409285,
        "lat": 22.5331803,
        "lon": 88.3531588,
        "tags": {
          "amenity": "restaurant",
          "name": "Jai Hind Dhaba"
        }
      },
      {
        "type": "node",
        "id": 7035507885,
        "lat": 22.5422132,
        "lon": 88.3516251,
        "tags": {
          "amenity": "restaurant",
          "name": "Street food stalls"
        }
      },
      {
        "type": "node",
        "id": 7048136974,
        "lat": 22.5474203,
        "lon": 88.3592599,
        "tags": {
          "addr:district": "Kolkata",
          "addr:full": "2, Rawdon Street",
          "addr:postcode": "700017",
          "addr:state": "West Bengal",
          "amenity": "hospital",
          "healthcare": "hospital",
          "healthcare:speciality": "paediatric_surgery",
          "name": "Bhagirathi Neotia Woman And Child Care Centre",
          "source": "OpenGovernmentData"
        }
      },
      {
        "type": "node",
        "id": 7048456215,
        "lat": 22.5424238,
        "lon": 88.3554102,
        "tags": {
          "addr:district": "Kolkata",
          "addr:full": "10, Loudon Street,Elgin",
          "addr:postcode": "700017",
          "addr:state": "West Bengal",
          "amenity": "hospital",
          "check_date": "2023-10-28",
          "email": "info@birlaeye.com",
          "healthcare": "hospital",
          "name": "Priyamvada Birla Aravind Eye Hospital",
          "opening_hours": "Mo-Sa 08:30-17:30",
          "operator:type": "private",
          "phone": "03322894343",
          "source": "OpenGovernmentData",
          "website": "www.birlaeye.org"
        }
      },
      {
        "type": "node",
        "id": 7048489106,
        "lat": 22.542529,
        "lon": 88.3651547,
        "tags": {
          "addr:district": "Kolkata",
          "addr:full": "42,Sk Mujibur Rahman Sarani,Circus Avenue, Beck Bagan",
          "addr:postcode": "700017",
          "addr:state": "West Bengal",
          "amenity": "hospital",
          "healthcare": "hospital",
          "name": "Harvard Medicare And Research Institute (P) Ltd.",
          "source": "OpenGovernmentData"
        }
      },
      {
        "type": "node",
        "id": 7048590774,
        "lat": 22.5477696,
        "lon": 88.3542247,
        "tags": {
          "addr:district": "Kolkata",
          "addr:full": "4 A, Wood Street",
          "addr:postcode": "700016",
          "addr:state": "West Bengal",
          "amenity": "hospital",
          "healthcare": "hospital",
          "name": "Life Line Diagnostic Centre And Nursing Home",
          "source": "OpenGovernmentData"
        }
      },
      {
        "type": "node",
        "id": 7048675310,
        "lat": 22.5392491,
        "lon": 88.3486591,
        "tags": {
          "addr:district": "Cooch Behar",
          "addr:full": "5,Suburban Hospital Road",
          "addr:housenumber": "5",
          "addr:postcode": "700020",
          "addr:state": "West Bengal",
          "addr:street": "Suburban Hospital Road",
          "amenity": "clinic",
          "check_date": "2023-10-28",
          "healthcare": "clinic",
          "name": "P.G.PolyClinic",
          "opening_hours": "14:00-16:00",
          "phone": "03322041100",
          "source": "OpenGovernmentData"
        }
      },
      {
        "type": "node",
        "id": 7050661963,
        "lat": 22.5403082,
        "lon": 88.3550012,
        "tags": {
          "addr:district": "Kolkata",
          "addr:full": "15/2,Sarat Bose Road",
          "addr:postcode": "700020",
          "addr:state": "West Bengal",
          "amenity": "hospital",
          "healthcare": "hospital",
          "healthcare:speciality": "orthopaedics",
          "name": "The Orthopaedic And Fracture Clinic",
          "source": "OpenGovernmentData"
        }
      },
      {
        "type": "node",
        "id": 7050974464,
        "lat": 22.546022,
        "lon": 88.3515425,
        "tags": {
          "addr:district": "Kolkata",
          "addr:full": "11, Shakespeare Sarani Road",
          "addr:housenumber": "11",
          "addr:postcode": "700071",
          "addr:state": "West Bengal",
          "addr:street": "Shakespeare Sarani",
          "amenity": "hospital",
          "check_date": "2023-10-28",
          "email": "admin@nightingalehospital.com",
          "healthcare": "hospital",
          "name": "Nightingale Hospital",
          "opening_hours": "24/7",
          "operator:type": "private",
          "phone": "03335005949",
          "source": "OpenGovernmentData",
          "website": "https://nightingalehospital.com/",
          "wikidata": "Q30270145"
        }
      },
      {
        "type": "node",
        "id": 7051208986,
        "lat": 22.539975,
        "lon": 88.3618898,
        "tags": {
          "addr:district": "Kolkata",
          "addr:full": "32-A,Lower Range Road",
          "addr:postcode": "700017",
          "addr:state": "West Bengal",
          "amenity": "hospital",
          "healthcare": "hospital",
          "healthcare:speciality": "ophthalmology",
          "name": "Farsight Eye Research Centre",
          "source": "OpenGovernmentData"
        }
      },
      {
        "type": "node",
        "id": 7051230850,
        "lat": 22.5395258,
        "lon": 88.3621646,
        "tags": {
          "addr:district": "Kolkata",
          "addr:full": "40A, Beck Bagan Row",
          "addr:postcode": "700029",
          "addr:state": "West Bengal",
          "amenity": "hospital",
          "healthcare": "hospital",
          "name": "Implant House Laser and Diagnostic Centre",
          "source": "OpenGovernmentData"
        }
      },
      {
        "type": "node",
        "id": 7051316710,
        "lat": 22.5446657,
        "lon": 88.3551662,
        "tags": {
          "addr:district": "Kolkata",
          "addr:full": "3 - B, Albert Road",
          "addr:postcode": "700017",
          "addr:state": "West Bengal",
          "amenity": "hospital",
          "healthcare": "hospital",
          "name": "Gamma Centauri Health Care P Ltd.,",
          "source": "OpenGovernmentData"
        }
      },
      {
        "type": "node",
        "id": 7052489793,
        "lat": 22.5450797,
        "lon": 88.3514472,
        "tags": {
          "addr:housenumber": "16B",
          "addr:postcode": "700071",
          "addr:street": "Shakespeare Sarani",
          "amenity": "pharmacy",
          "contact:phone": "+91 33 2865 1107;+91 33 4602 0729",
          "healthcare": "pharmacy",
          "level": "0",
          "name": "Plaza Medico",
          "wheelchair": "no"
        }
      },
      {
        "type": "node",
        "id": 7052489796,
        "lat": 22.5456937,
        "lon": 88.3510079,
        "tags": {
          "amenity": "bank",
          "atm": "yes",
          "brand": "Deutsche Bank",
          "brand:wikidata": "Q66048",
          "name": "Deutsche Bank"
        }
      },
      {
        "type": "node",
        "id": 7053446874,
        "lat": 22.5417995,
        "lon": 88.3612588,
        "tags": {
          "addr:district": "Kolkata",
          "addr:full": "5/1A, Nurulla Doctor Lane, Behind Bangladesh High Commissioner Office",
          "addr:postcode": "700017",
          "addr:state": "West Bengal",
          "amenity": "clinic",
          "healthcare": "clinic",
          "name": "Sana Nursing Home",
          "source": "OpenGovernmentData"
        }
      },
      {
        "type": "node",
        "id": 7053458582,
        "lat": 22.5380513,
        "lon": 88.35042,
        "tags": {
          "addr:district": "Kolkata",
          "addr:full": "4,Roy Mansions Elgin Road, (10/4D, Lala Lajpat Rai Sarani)",
          "addr:housenumber": "10/4D",
          "addr:postcode": "700020",
          "addr:state": "West Bengal",
          "addr:street": "Elgin Road",
          "amenity": "clinic",
          "check_date": "2023-10-28",
          "healthcare": "clinic",
          "name": "Samaritan Clinic (P) Ltd.",
          "opening_hours": "24/7",
          "phone": "03340608313",
          "source": "OpenGovernmentData",
          "website": "https://samaritancare.in/"
        }
      },
      {
        "type": "node",
        "id": 7053870657,
        "lat": 22.5428721,
        "lon": 88.3561304,
        "tags": {
          "addr:district": "Kolkata",
          "addr:full": "8Th Floor Maruti Building 12 U N Brahmachari Street, loudon street",
          "addr:postcode": "700017",
          "addr:state": "West Bengal",
          "amenity": "clinic",
          "contact:phone": "03322817780;22817781",
          "healthcare": "clinic",
          "name": "MP Birla Eye Clinic",
          "source": "OpenGovernmentData"
        }
      },
      {
        "type": "node",
        "id": 7055148104,
        "lat": 22.5474409,
        "lon": 88.3506739,
        "tags": {
          "alcohol": "yes",
          "amenity": "restaurant",
          "name": "Gabber's Bar and Kitchen"
        }
      },
      {
        "type": "node",
        "id": 7062229867,
        "lat": 22.5373304,
        "lon": 88.3641677,
        "tags": {
          "addr:district": "Kolkata",
          "addr:full": "13A,Colonel Biswas Road",
          "addr:postcode": "700019",
          "addr:state": "West Bengal",
          "amenity": "hospital",
          "healthcare": "hospital",
          "name": "Implant's Better Sight Centre Pvt Ltd",
          "source": "OpenGovernmentData",
          "website": "implantsbettersight.com"
        }
      },
      {
        "type": "node",
        "id": 7062656675,
        "lat": 22.5415518,
        "lon": 88.3530942,
        "tags": {
          "addr:district": "Kolkata",
          "addr:full": "4,Gorky Terrace, Park Medical Research Society",
          "addr:postcode": "700017",
          "addr:state": "West Bengal",
          "amenity": "clinic",
          "healthcare": "clinic",
          "name": "Park Clinic, Kolkata",
          "source": "OpenGovernmentData",
          "website": "parkclinickolkata.in"
        }
      },
      {
        "type": "node",
        "id": 7065232721,
        "lat": 22.5353788,
        "lon": 88.3518905,
        "tags": {
          "addr:district": "Kolkata",
          "addr:full": "4, Justice Chandra Madhav Road",
          "addr:postcode": "700020",
          "addr:state": "West Bengal",
          "amenity": "hospital",
          "healthcare": "hospital",
          "name": "Sri Lakshmi Narayana Trust Maternity Home and Hospital",
          "source": "OpenGovernmentData"
        }
      },
      {
        "type": "node",
        "id": 7069112434,
        "lat": 22.5410414,
        "lon": 88.3618113,
        "tags": {
          "addr:district": "Kolkata",
          "addr:full": "14, Circus Avenue",
          "addr:postcode": "700017",
          "addr:state": "West Bengal",
          "amenity": "hospital",
          "healthcare": "hospital",
          "name": "East End Nursing Home",
          "source": "OpenGovernmentData"
        }
      },
      {
        "type": "node",
        "id": 7071458833,
        "lat": 22.5478931,
        "lon": 88.3602614,
        "tags": {
          "addr:district": "Kolkata",
          "addr:full": "125/1 Park Street",
          "addr:postcode": "700017",
          "addr:state": "West Bengal",
          "amenity": "hospital",
          "email": "email@momhospital.org",
          "healthcare": "hospital",
          "name": "Mission Of Mercy Hospital And Research Centre",
          "phone": "+91 983 600 8484",
          "source": "OpenGovernmentData",
          "website": "https://mercyhealthcare.org.in/"
        }
      },
      {
        "type": "node",
        "id": 7071677083,
        "lat": 22.5408036,
        "lon": 88.3584841,
        "tags": {
          "addr:district": "Kolkata",
          "addr:full": "68, Ballygunge Circular Road",
          "addr:postcode": "700019",
          "addr:state": "West Bengal",
          "amenity": "hospital",
          "check_date": "2023-10-04",
          "healthcare": "hospital",
          "name": "Lions Club Of Calcutta",
          "source": "OpenGovernmentData"
        }
      },
      {
        "type": "node",
        "id": 7668176307,
        "lat": 22.5444397,
        "lon": 88.3596261,
        "tags": {
          "addr:district": "Kolkata",
          "addr:full": "Kala Mandir, Shakespeare Sarani Road, Mullick Bazar, Park Street Area",
          "addr:postcode": "700017",
          "addr:state": "West Bengal",
          "amenity": "hospital",
          "healthcare": "hospital",
          "name": "Miot Hospitals",
          "source": "Local Knowledge"
        }
      },
      {
        "type": "node",
        "id": 7668176329,
        "lat": 22.5331915,
        "lon": 88.3590386,
        "tags": {
          "addr:district": "Kolkata",
          "addr:full": "Leela Roy Sarani, Ballygunge",
          "addr:postcode": "700019",
          "addr:state": "West Bengal",
          "amenity": "hospital",
          "healthcare": "hospital",
          "name": "Duncan Gleneagles Hospitals",
          "source": "Local Knowledge"
        }
      },
      {
        "type": "node",
        "id": 8014162874,
        "lat": 22.533162,
        "lon": 88.3533683,
        "tags": {
          "addr:city": "kolkata",
          "addr:housenumber": "42",
          "air_conditioning": "yes",
          "amenity": "cafe",
          "bar": "yes",
          "cuisine": "pizza;burger;coffee_shop;chinese;sandwich;chicken;french;international;ice_cream;hookah",
          "delivery": "yes",
          "internet_access:fee": "no",
          "name": "Dawntown Cafe",
          "opening_hours": "Mo-Su 12:00-4:00",
          "outdoor_seating": "no",
          "smoking": "yes",
          "start_date": "2020-10-11",
          "takeaway": "yes"
        }
      },
      {
        "type": "node",
        "id": 11655595569,
        "lat": 22.5446896,
        "lon": 88.3552612,
        "tags": {
          "amenity": "restaurant",
          "cuisine": "indian",
          "name": "Idlygo"
        }
      },
      {
        "type": "node",
        "id": 11824909705,
        "lat": 22.535624,
        "lon": 88.3496132,
        "tags": {
          "leisure": "playground",
          "name": "Noman Academy"
        }
      }
    ]
  },
  "pois_2_5km": {
    "version": 0.6,
    "generator": "Overpass API 0.7.62.8 e802775f",
    "osm3s": {
      "timestamp_osm_base": "2025-09-06T09:30:25Z",
      "copyright": "The data included in this document is from www.openstreetmap.org. The data is made available under ODbL."
    },
    "elements": [
      {
        "type": "node",
        "id": 1274128857,
        "lat": 22.5405657,
        "lon": 88.3738598,
        "tags": {
          "name": "Park Circus",
          "name:bn": "\u09aa\u09be\u09b0\u09cd\u0995 \u09b8\u09be\u09b0\u09cd\u0995\u09be\u09b8",
          "network": "IR",
          "operator": "ER",
          "public_transport": "station",
          "railway": "station",
          "ref": "PQS",
          "train": "yes",
          "wheelchair": "no",
          "wikidata": "Q56278569",
          "wikipedia": "en:Park Circus railway station"
        }
      },
      {
        "type": "node",
        "id": 1686122936,
        "lat": 22.526191,
        "lon": 88.3667029,
        "tags": {
          "amenity": "cinema",
          "check_date": "2023-12-16",
          "name": "London paris cinema"
        }
      },
      {
        "type": "node",
        "id": 1783135288,
        "lat": 22.5274281,
        "lon": 88.365843,
        "tags": {
          "amenity": "fuel",
          "brand": "Bharat Petroleum",
          "brand:wikidata": "Q854826",
          "check_date": "2023-12-16",
          "fuel:GTL_diesel": "yes",
          "fuel:HGV_diesel": "yes",
          "fuel:diesel": "yes",
          "fuel:petrol": "yes",
          "internet_access": "no",
          "name": "Bharat Petroleum",
          "payment:cash": "yes",
          "payment:mastercard": "yes",
          "payment:visa": "yes"
        }
      },
      {
        "type": "node",
        "id": 1860605880,
        "lat": 22.5246096,
        "lon": 88.3525906,
        "tags": {
          "amenity": "fuel"
        }
      },
      {
        "type": "node",
        "id": 2471894117,
        "lat": 22.5272169,
        "lon": 88.3466356,
        "tags": {
          "amenity": "cinema",
          "name": "Indira Cinema Hall"
        }
      },
      {
        "type": "node",
        "id": 2471903967,
        "lat": 22.5278661,
        "lon": 88.3455882,
        "tags": {
          "amenity": "fuel",
          "building": "yes"
        }
      },
      {
        "type": "node",
        "id": 2703686631,
        "lat": 22.5630392,
        "lon": 88.3585179,
        "tags": {
          "name": "Lenin Sarani/Nirmal Chandra Dev Street",
          "public_transport": "stop_position",
          "railway": "tram_stop",
          "tram": "yes"
        }
      },
      {
        "type": "node",
        "id": 2720702706,
        "lat": 22.5424807,
        "lon": 88.3659928,
        "tags": {
          "name": "Park Circus",
          "public_transport": "stop_position",
          "railway": "tram_stop",
          "tram": "yes"
        }
      },
      {
        "type": "node",
        "id": 2721264604,
        "lat": 22.5258882,
        "lon": 88.3660841,
        "tags": {
          "name": "Gariahat Depot",
          "public_transport": "stop_position",
          "railway": "tram_stop",
          "tram": "yes"
        }
      },
      {
        "type": "node",
        "id": 2721384860,
        "lat": 22.5525664,
        "lon": 88.3561356,
        "tags": {
          "name": "Rafi Ahmad Kidwai Road / Elliot Road",
          "public_transport": "stop_position",
          "railway": "tram_stop",
          "tram": "yes"
        }
      },
      {
        "type": "node",
        "id": 2721388718,
        "lat": 22.5504601,
        "lon": 88.3628985,
        "tags": {
          "name": "Acharya Jagadish Chandra Bose Road / Elliot Road",
          "public_transport": "stop_position",
          "railway": "tram_stop",
          "tram": "yes"
        }
      },
      {
        "type": "node",
        "id": 2776950395,
        "lat": 22.5426967,
        "lon": 88.3662093,
        "tags": {
          "addr:housenumber": "2",
          "addr:place": "Syed Amir Ali Avenue",
          "amenity": "fuel",
          "brand": "Bharat Petroleum",
          "brand:wikidata": "Q854826",
          "check_date": "2023-12-16",
          "fuel:diesel": "yes",
          "fuel:petrol": "yes",
          "internet_access": "no",
          "name": "Bharat Petroleum",
          "payment:cash": "yes",
          "payment:mastercard": "yes",
          "payment:visa": "yes",
          "wheelchair": "no"
        }
      },
      {
        "type": "node",
        "id": 2907641509,
        "lat": 22.5545324,
        "lon": 88.36431,
        "tags": {
          "amenity": "fuel"
        }
      },
      {
        "type": "node",
        "id": 4176886089,
        "lat": 22.5384051,
        "lon": 88.3513137,
        "tags": {
          "addr:housenumber": "10/3",
          "addr:postcode": "700020",
          "addr:street": "Elgin Lane",
          "air_conditioning": "yes",
          "amenity": "cinema",
          "brand": "INOX Leisure",
          "brand:wikidata": "Q5972349",
          "check_date": "2023-10-28",
          "name": "INOX Cinema",
          "short_name": "INOX",
          "website": "https://m.inoxmovies.com/",
          "wheelchair": "yes"
        }
      },
      {
        "type": "node",
        "id": 4180455089,
        "lat": 22.5451589,
        "lon": 88.3703737,
        "tags": {
          "amenity": "bus_station",
          "bus": "yes",
          "public_transport": "station",
          "wheelchair": "no"
        }
      },
      {
        "type": "node",
        "id": 4393356789,
        "lat": 22.5493149,
        "lon": 88.3535578,
        "tags": {
          "amenity": "fuel",
          "brand": "Bharat Petroleum",
          "brand:wikidata": "Q854826",
          "name": "Bharat Petroleum"
        }
      },
      {
        "type": "node",
        "id": 4845192821,
        "lat": 22.5520205,
        "lon": 88.3717304,
        "tags": {
          "amenity": "fuel",
          "brand": "Bharat Petroleum",
          "brand:wikidata": "Q854826",
          "compressed_air": "yes",
          "name": "Bharat Petroleum",
          "name:en": "Bharat Petroleum"
        }
      },
      {
        "type": "node",
        "id": 4868040723,
        "lat": 22.5498214,
        "lon": 88.3560088,
        "tags": {
          "amenity": "fuel",
          "brand": "Bharat Petroleum",
          "brand:wikidata": "Q854826",
          "brand:wikipedia": "en:Bharat Petroleum",
          "check_date": "2023-10-04",
          "name": "Bharat Petroleum",
          "name:en": "Bharat Petroleum"
        }
      },
      {
        "type": "node",
        "id": 4868040823,
        "lat": 22.5513864,
        "lon": 88.3542235,
        "tags": {
          "amenity": "fuel",
          "brand": "Hindustan Petroleum",
          "brand:wikidata": "Q1619375",
          "name": "HP",
          "official_name": "Hindustan Petroleum"
        }
      },
      {
        "type": "node",
        "id": 4891338224,
        "lat": 22.5612312,
        "lon": 88.3588968,
        "tags": {
          "amenity": "fuel",
          "brand": "Bharat Petroleum",
          "brand:wikidata": "Q854826",
          "name": "Bharat Petroleum",
          "name:en": "Bharat Petroleum"
        }
      },
      {
        "type": "node",
        "id": 5271335721,
        "lat": 22.5387245,
        "lon": 88.3655643,
        "tags": {
          "amenity": "cinema",
          "brand": "INOX Leisure",
          "brand:wikidata": "Q5972349",
          "name": "Inox quest cinema",
          "short_name": "INOX"
        }
      },
      {
        "type": "node",
        "id": 5421528503,
        "lat": 22.5551591,
        "lon": 88.3501171,
        "tags": {
          "name": "Park Street",
          "name:bn": "\u09aa\u09be\u09b0\u09cd\u0995 \u09b8\u09cd\u099f\u09cd\u09b0\u09c0\u099f",
          "network": "Kolkata Metro",
          "network:wikidata": "Q1048849",
          "operator": "Metro Railway, Kolkata",
          "public_transport": "station",
          "railway": "station",
          "station": "subway",
          "subway": "yes",
          "wikidata": "Q7138060",
          "wikipedia": "en:Park Street metro station (Kolkata)"
        }
      },
      {
        "type": "node",
        "id": 5421540159,
        "lat": 22.5241535,
        "lon": 88.3464729,
        "tags": {
          "name": "Jatin Das Park",
          "name:bn": "\u09af\u09a4\u09c0\u09a8 \u09a6\u09be\u09b8 \u09aa\u09be\u09b0\u09cd\u0995",
          "network": "Kolkata Metro",
          "network:wikidata": "Q1048849",
          "operator": "Metro Railway, Kolkata",
          "public_transport": "station",
          "railway": "station",
          "station": "subway",
          "subway": "yes",
          "wikidata": "Q6164578",
          "wikipedia": "en:Jatin Das Park metro station"
        }
      },
      {
        "type": "node",
        "id": 5421541284,
        "lat": 22.5331821,
        "lon": 88.3459269,
        "tags": {
          "name": "Netaji Bhavan",
          "name:bn": "\u09a8\u09c7\u09a4\u09be\u099c\u09bf \u09ad\u09ac\u09a8",
          "network": "Kolkata Metro",
          "network:wikidata": "Q1048849",
          "operator": "Metro Railway, Kolkata",
          "public_transport": "station",
          "railway": "station",
          "station": "subway",
          "subway": "yes",
          "wheelchair": "limited",
          "wikidata": "Q6998599",
          "wikipedia": "en:Netaji Bhavan metro station"
        }
      },
      {
        "type": "node",
        "id": 5421542551,
        "lat": 22.5414899,
        "lon": 88.3473493,
        "tags": {
          "name": "Rabindra Sadan",
          "name:bn": "\u09b0\u09ac\u09c0\u09a8\u09cd\u09a6\u09cd\u09b0 \u09b8\u09a6\u09a8",
          "network": "Kolkata Metro",
          "network:wikidata": "Q1048849",
          "operator": "Metro Railway, Kolkata",
          "public_transport": "station",
          "railway": "station",
          "station": "subway",
          "subway": "yes",
          "wikidata": "Q7278756",
          "wikipedia": "en:Rabindra Sadan metro station"
        }
      },
      {
        "type": "node",
        "id": 5421543288,
        "lat": 22.5494672,
        "lon": 88.3487883,
        "tags": {
          "name": "Maidan",
          "name:bn": "\u09ae\u09af\u09bc\u09a6\u09be\u09a8",
          "network": "Kolkata Metro",
          "network:wikidata": "Q1048849",
          "operator": "Metro Railway, Kolkata",
          "public_transport": "station",
          "railway": "station",
          "station": "subway",
          "subway": "yes",
          "wikidata": "Q6735340",
          "wikipedia": "en:Maidan metro station"
        }
      },
      {
        "type": "node",
        "id": 6135360360,
        "lat": 22.5530094,
        "lon": 88.353021,
        "tags": {
          "amenity": "fuel",
          "brand": "Indian Oil",
          "brand:wikidata": "Q1289348",
          "name": "Indian Oil",
          "toilets": "yes"
        }
      },
      {
        "type": "node",
        "id": 6135361871,
        "lat": 22.5478778,
        "lon": 88.3530567,
        "tags": {
          "amenity": "fuel",
          "brand": "Hindustan Petroleum",
          "brand:wikidata": "Q1619375",
          "name": "HP",
          "official_name": "Hindustan Petroleum"
        }
      },
      {
        "type": "node",
        "id": 6135361872,
        "lat": 22.54208,
        "lon": 88.3515791,
        "tags": {
          "amenity": "fuel",
          "brand": "Indian Oil",
          "brand:wikidata": "Q1289348",
          "name": "Indian Oil"
        }
      },
      {
        "type": "node",
        "id": 6135362906,
        "lat": 22.5348072,
        "lon": 88.3620549,
        "tags": {
          "amenity": "fuel",
          "brand": "Indian Oil",
          "brand:wikidata": "Q1289348",
          "name": "Indian Oil"
        }
      },
      {
        "type": "node",
        "id": 6135363494,
        "lat": 22.5407554,
        "lon": 88.3578473,
        "tags": {
          "amenity": "fuel",
          "brand": "Bharat Petroleum",
          "brand:wikidata": "Q854826",
          "name": "Bharat Petroleum"
        }
      },
      {
        "type": "node",
        "id": 6135364027,
        "lat": 22.5438555,
        "lon": 88.3608132,
        "tags": {
          "amenity": "fuel",
          "brand": "Hindustan Petroleum",
          "brand:wikidata": "Q1619375",
          "name": "HP",
          "official_name": "Hindustan Petroleum"
        }
      },
      {
        "type": "node",
        "id": 6141500453,
        "lat": 22.5474462,
        "lon": 88.3516232,
        "tags": {
          "amenity": "theatre",
          "name": "Satyajit Ray Auditorium",
          "name:etymology:wikidata": "Q8873"
        }
      },
      {
        "type": "node",
        "id": 6447832086,
        "lat": 22.546329,
        "lon": 88.3620691,
        "tags": {
          "amenity": "cinema",
          "name:ja": "\u30d1\u30fc\u30af\u30b7\u30e7\u30fc\u30cf\u30a6\u30b9"
        }
      },
      {
        "type": "node",
        "id": 6520727185,
        "lat": 22.5412219,
        "lon": 88.3492589,
        "tags": {
          "amenity": "fuel",
          "name": "India Tradeing Petrol Station"
        }
      },
      {
        "type": "node",
        "id": 7053793926,
        "lat": 22.5538259,
        "lon": 88.3557671,
        "tags": {
          "amenity": "fuel",
          "brand": "Indian Oil",
          "brand:wikidata": "Q1289348",
          "name": "Indian Oil"
        }
      },
      {
        "type": "node",
        "id": 7661285882,
        "lat": 22.5425257,
        "lon": 88.3659741,
        "tags": {
          "name": "Park Circus",
          "public_transport": "stop_position",
          "railway": "tram_stop",
          "tram": "yes"
        }
      },
      {
        "type": "node",
        "id": 9717918117,
        "lat": 22.5408647,
        "lon": 88.3680476,
        "tags": {
          "amenity": "charging_station",
          "name": "Electric vehicle charging station",
          "name:en": "Electric vehicle charging station type2-7kw",
          "opening_hours": "24/7"
        }
      },
      {
        "type": "node",
        "id": 9717923217,
        "lat": 22.5475251,
        "lon": 88.3495487,
        "tags": {
          "addr:housenumber": "43",
          "addr:postcode": "700071",
          "addr:street": "Jawaharlal Nehru Road",
          "amenity": "charging_station",
          "name": "Electric vehicle charging station tata",
          "opening_hours": "24/7",
          "website": "https://nexonev.tatamotors.com/charging-locator/"
        }
      },
      {
        "type": "node",
        "id": 10093215417,
        "lat": 22.5223282,
        "lon": 88.3487972,
        "tags": {
          "addr:housenumber": "10/1/1",
          "addr:postcode": "700026",
          "addr:street": "Manohar Pukur Road",
          "amenity": "theatre",
          "name": "Mahanayak Uttam Manch",
          "phone": "033 2474 0125"
        }
      },
      {
        "type": "node",
        "id": 11521235520,
        "lat": 22.5284275,
        "lon": 88.3362661,
        "tags": {
          "amenity": "fuel",
          "brand": "Indian Oil Petrol Pump",
          "brand:wikidata": "Q1289348",
          "name": "Indian Oil Petrol Pump"
        }
      },
      {
        "type": "node",
        "id": 11703491164,
        "lat": 22.5549758,
        "lon": 88.3500469,
        "tags": {
          "name": "Park Street",
          "name:bn": "\u09aa\u09be\u09b0\u09cd\u0995 \u09b8\u09cd\u099f\u09cd\u09b0\u09c0\u099f",
          "network": "Kolkata Metro",
          "operator": "Metro Railway, Kolkata",
          "public_transport": "stop_position",
          "railway": "stop",
          "subway": "yes"
        }
      },
      {
        "type": "node",
        "id": 11703491165,
        "lat": 22.5552804,
        "lon": 88.3500414,
        "tags": {
          "name": "Park Street",
          "name:bn": "\u09aa\u09be\u09b0\u09cd\u0995 \u09b8\u09cd\u099f\u09cd\u09b0\u09c0\u099f",
          "network": "Kolkata Metro",
          "operator": "Metro Railway, Kolkata",
          "public_transport": "stop_position",
          "railway": "stop",
          "subway": "yes"
        }
      },
      {
        "type": "node",
        "id": 11703491166,
        "lat": 22.5493752,
        "lon": 88.3487245,
        "tags": {
          "name": "Maidan",
          "name:bn": "\u09ae\u09af\u09bc\u09a6\u09be\u09a8",
          "network": "Kolkata Metro",
          "operator": "Metro Railway, Kolkata",
          "public_transport": "stop_position",
          "railway": "stop",
          "subway": "yes"
        }
      },
      {
        "type": "node",
        "id": 11703491167,
        "lat": 22.5497087,
        "lon": 88.3487474,
        "tags": {
          "name": "Maidan",
          "name:bn": "\u09ae\u09af\u09bc\u09a6\u09be\u09a8",
          "network": "Kolkata Metro",
          "operator": "Metro Railway, Kolkata",
          "public_transport": "stop_position",
          "railway": "stop",
          "subway": "yes"
        }
      },
      {
        "type": "node",
        "id": 11703491168,
        "lat": 22.5414273,
        "lon": 88.3472361,
        "tags": {
          "name": "Rabindra Sadan",
          "name:bn": "\u09b0\u09ac\u09c0\u09a8\u09cd\u09a6\u09cd\u09b0 \u09b8\u09a6\u09a8",
          "network": "Kolkata Metro",
          "operator": "Metro Railway, Kolkata",
          "public_transport": "stop_position",
          "railway": "stop",
          "subway": "yes"
        }
      },
      {
        "type": "node",
        "id": 11703500769,
        "lat": 22.5417879,
        "lon": 88.3472276,
        "tags": {
          "name": "Rabindra Sadan",
          "name:bn": "\u09b0\u09ac\u09c0\u09a8\u09cd\u09a6\u09cd\u09b0 \u09b8\u09a6\u09a8",
          "network": "Kolkata Metro",
          "operator": "Metro Railway, Kolkata",
          "public_transport": "stop_position",
          "railway": "stop",
          "subway": "yes"
        }
      },
      {
        "type": "node",
        "id": 11703500770,
        "lat": 22.5330323,
        "lon": 88.3459483,
        "tags": {
          "name": "Netaji Bhavan",
          "name:bn": "\u09a8\u09c7\u09a4\u09be\u099c\u09bf \u09ad\u09ac\u09a8",
          "network": "Kolkata Metro",
          "operator": "Metro Railway, Kolkata",
          "public_transport": "stop_position",
          "railway": "stop",
          "subway": "yes"
        }
      },
      {
        "type": "node",
        "id": 11703500771,
        "lat": 22.5334398,
        "lon": 88.3459203,
        "tags": {
          "name": "Netaji Bhavan",
          "name:bn": "\u09a8\u09c7\u09a4\u09be\u099c\u09bf \u09ad\u09ac\u09a8",
          "network": "Kolkata Metro",
          "operator": "Metro Railway, Kolkata",
          "public_transport": "stop_position",
          "railway": "stop",
          "subway": "yes"
        }
      },
      {
        "type": "node",
        "id": 11703500772,
        "lat": 22.523971,
        "lon": 88.3465099,
        "tags": {
          "name": "Jatin Das Park",
          "name:bn": "\u09af\u09a4\u09c0\u09a8 \u09a6\u09be\u09b8 \u09aa\u09be\u09b0\u09cd\u0995",
          "network": "Kolkata Metro",
          "operator": "Metro Railway, Kolkata",
          "public_transport": "stop_position",
          "railway": "stop",
          "subway": "yes"
        }
      },
      {
        "type": "node",
        "id": 11703500773,
        "lat": 22.5242532,
        "lon": 88.3464254,
        "tags": {
          "name": "Jatin Das Park",
          "name:bn": "\u09af\u09a4\u09c0\u09a8 \u09a6\u09be\u09b8 \u09aa\u09be\u09b0\u09cd\u0995",
          "network": "Kolkata Metro",
          "operator": "Metro Railway, Kolkata",
          "public_transport": "stop_position",
          "railway": "stop",
          "subway": "yes"
        }
      },
      {
        "type": "node",
        "id": 12133241425,
        "lat": 22.5236192,
        "lon": 88.3427695,
        "tags": {
          "amenity": "fuel",
          "brand": "Bharat Petroleum"
        }
      }
    ]
  }
}