{
  "pois_1km": {
    "version": 0.6,
    "generator": "Overpass API 0.7.62.8 e802775f",
    "osm3s": {
      "timestamp_osm_base": "2025-09-06T09:53:59Z",
      "copyright": "The data included in this document is from www.openstreetmap.org. The data is made available under ODbL."
    },
    "elements": [
      {
        "type": "node",
        "id": 7048096276,
        "lat": 22.5943066,
        "lon": 88.3394948,
        "tags": {
          "addr:district": "Howrah",
          "addr:full": "63, G.T. Road (North)",
          "addr:postcode": "711101",
          "addr:state": "West Bengal",
          "amenity": "clinic",
          "name": "Bivek Nursing Home",
          "source": "OpenGovernmentData"
        }
      },
      {
        "type": "node",
        "id": 7050759527,
        "lat": 22.5972239,
        "lon": 88.3379249,
        "tags": {
          "addr:district": "Howrah",
          "addr:full": "50/2 /1, Bhairab Dutta Lane,Nandi Bagan, Salkia",
          "addr:postcode": "711106",
          "addr:state": "West Bengal",
          "amenity": "clinic",
          "name": "Udit Nursing Home",
          "source": "OpenGovernmentData"
        }
      },
      {
        "type": "node",
        "id": 7053879587,
        "lat": 22.5929943,
        "lon": 88.3406983,
        "tags": {
          "addr:district": "Howrah",
          "addr:full": "2, Khirod Chandra Ghosh Road (Watkins Lane)",
          "addr:postcode": "711101",
          "addr:state": "West Bengal",
          "amenity": "clinic",
          "contact:phone": "26661900",
          "healthcare": "clinic",
          "name": "Watkins Nursing Home",
          "source": "OpenGovernmentData"
        }
      },
      {
        "type": "node",
        "id": 7065269299,
        "lat": 22.5925889,
        "lon": 88.3421754,
        "tags": {
          "addr:district": "Howrah",
          "addr:full": "21/1, Dobson Road",
          "addr:postcode": "711101",
          "addr:state": "West Bengal",
          "amenity": "hospital",
          "contact:phone": "3326667494",
          "healthcare": "hospital",
          "name": "Alpha Medical Services Pvt. Ltd.",
          "source": "OpenGovernmentData"
        }
      },
      {
        "type": "node",
        "id": 7065473779,
        "lat": 22.596013,
        "lon": 88.341794,
        "tags": {
          "addr:district": "Howrah",
          "addr:full": "72,Jelia Para Lane,Salkia",
          "addr:postcode": "711106",
          "addr:state": "West Bengal",
          "amenity": "hospital",
          "name": "Shiny Swadha Eye Care",
          "source": "OpenGovernmentData"
        }
      },
      {
        "type": "node",
        "id": 7065628301,
        "lat": 22.5927849,
        "lon": 88.341103,
        "tags": {
          "addr:district": "Howrah",
          "addr:full": "1/4/2 , K C Ghosh Road",
          "addr:postcode": "711101",
          "addr:state": "West Bengal",
          "amenity": "clinic",
          "contact:phone": "26665784",
          "healthcare": "clinic",
          "name": "Micro-Surgical Eye Clinic and Nursing Home",
          "source": "OpenGovernmentData"
        }
      },
      {
        "type": "node",
        "id": 7065687780,
        "lat": 22.593185,
        "lon": 88.3414561,
        "tags": {
          "addr:district": "Howrah",
          "addr:full": "40, Dobson Road, Near Ambika Tower",
          "addr:postcode": "711101",
          "addr:state": "West Bengal",
          "amenity": "clinic",
          "contact:phone": "26667692",
          "healthcare": "clinic",
          "name": "Debsishu Nursing Home Pvt. Ltd.",
          "source": "OpenGovernmentData"
        }
      },
      {
        "type": "node",
        "id": 7069051117,
        "lat": 22.5919035,
        "lon": 88.3418547,
        "tags": {
          "addr:district": "Howrah",
          "addr:full": "11/12, Burnt Salt Gola Lane",
          "addr:postcode": "711101",
          "addr:state": "West Bengal",
          "amenity": "hospital",
          "contact:phone": "3326661768",
          "healthcare": "hospital",
          "name": "Anjali Eye Center",
          "source": "OpenGovernmentData",
          "website": "https://drnavingupta.com/"
        }
      },
      {
        "type": "node",
        "id": 7074312656,
        "lat": 22.590742,
        "lon": 88.3411409,
        "tags": {
          "addr:district": "Howrah",
          "addr:full": "20, Opposite ICICI Bank, Dobson Road",
          "addr:postcode": "711101",
          "addr:state": "West Bengal",
          "amenity": "clinic",
          "healthcare": "clinic",
          "name": "Bansal Nursing Centre",
          "source": "OpenGovernmentData",
          "website": "https://bansalmedical.com/"
        }
      },
      {
        "type": "node",
        "id": 7074329090,
        "lat": 22.5977408,
        "lon": 88.3453815,
        "tags": {
          "addr:district": "Howrah",
          "addr:full": "16/1, Kshetra Mitra Lane Salkia, Golabari",
          "addr:postcode": "711106",
          "addr:state": "West Bengal",
          "amenity": "clinic",
          "contact:phone": "3326659094",
          "name": "Dr Hari Har Roy Clinic",
          "source": "OpenGovernmentData"
        }
      },
      {
        "type": "node",
        "id": 7074329149,
        "lat": 22.5932877,
        "lon": 88.3390568,
        "tags": {
          "addr:district": "Howrah",
          "addr:full": "51/2 G.T. Road (N) Pilkhana",
          "addr:postcode": "711101",
          "addr:state": "West Bengal",
          "amenity": "hospital",
          "healthcare": "hospital",
          "name": "Kumar Maternity Home",
          "source": "OpenGovernmentData"
        }
      },
      {
        "type": "node",
        "id": 10294779009,
        "lat": 22.5929162,
        "lon": 88.3417561,
        "tags": {
          "amenity": "fast_food",
          "name": "SIP 'N' BITE'S Chinese fast food"
        }
      },
      {
        "type": "node",
        "id": 12011718875,
        "lat": 22.5948737,
        "lon": 88.3414617,
        "tags": {
          "addr:city": "Howrah",
          "addr:district": "Howrah",
          "addr:housenumber": "51",
          "addr:postcode": "711106",
          "addr:street": "Bijoy Kumar Mukherjee Road",
          "amenity": "restaurant",
          "cuisine": "indian",
          "diet:vegan": "yes",
          "diet:vegetarian": "yes",
          "email": "info@thedelhidurbar.com",
          "name": "THE DELHI DURBAR RESTAURANT",
          "opening_hours": "Mo-Su 11:30-23:30",
          "phone": "+918100563939",
          "takeaway": "yes",
          "website": "www.theindiandurbar.com"
        }
      }
    ]
  },
  "pois_2_5km": {
    "version": 0.6,
    "generator": "Overpass API 0.7.62.8 e802775f",
    "osm3s": {
      "timestamp_osm_base": "2025-09-06T09:53:59Z",
      "copyright": "The data included in this document is from www.openstreetmap.org. The data is made available under ODbL."
    },
    "elements": [
      {
        "type": "node",
        "id": 664452984,
        "lat": 22.5841872,
        "lon": 88.3426871,
        "tags": {
          "name": "Howrah Junction",
          "public_transport": "stop_position",
          "railway": "stop",
          "ref": "3",
          "train": "yes"
        }
      },
      {
        "type": "node",
        "id": 664452999,
        "lat": 22.5841473,
        "lon": 88.3426671,
        "tags": {
          "name": "Howrah Junction",
          "public_transport": "stop_position",
          "railway": "stop",
          "ref": "4",
          "train": "yes"
        }
      },
      {
        "type": "node",
        "id": 664453012,
        "lat": 22.5835534,
        "lon": 88.3423147,
        "tags": {
          "name": "Howrah Junction",
          "public_transport": "stop_position",
          "railway": "stop",
          "ref": "9",
          "train": "yes"
        }
      },
      {
        "type": "node",
        "id": 664453205,
        "lat": 22.5817603,
        "lon": 88.3416442,
        "tags": {
          "name": "Howrah Junction",
          "public_transport": "stop_position",
          "railway": "stop",
          "ref": "18",
          "train": "yes"
        }
      },
      {
        "type": "node",
        "id": 1177499034,
        "lat": 22.5975289,
        "lon": 88.3549336,
        "tags": {
          "name": "Sovabazar Ahiritola",
          "network": "IR",
          "operator": "ER",
          "public_transport": "station",
          "railway": "station",
          "ref": "SOLA",
          "wikidata": "Q56277826",
          "wikipedia": "en:Sovabazar Ahiritola railway station"
        }
      },
      {
        "type": "node",
        "id": 1187133847,
        "lat": 22.5754243,
        "lon": 88.3453098,
        "tags": {
          "amenity": "ferry_terminal",
          "ferry": "yes",
          "name": "Fairlie Ghat",
          "operator": "WBTC",
          "public_transport": "station"
        }
      },
      {
        "type": "node",
        "id": 1187133856,
        "lat": 22.5768421,
        "lon": 88.3466282,
        "tags": {
          "name": "BBD Bagh",
          "network": "IR",
          "operator": "ER",
          "public_transport": "station",
          "railway": "station",
          "ref": "BBDB",
          "wikidata": "Q25549498"
        }
      },
      {
        "type": "node",
        "id": 1189036756,
        "lat": 22.5825193,
        "lon": 88.3481814,
        "tags": {
          "amenity": "ferry_terminal",
          "check_date": "2024-07-15",
          "ferry": "yes",
          "name": "Armenian Ghat",
          "operator": "West Bengal Surface Transport Corporation",
          "public_transport": "station"
        }
      },
      {
        "type": "node",
        "id": 1189457648,
        "lat": 22.5963972,
        "lon": 88.3532985,
        "tags": {
          "amenity": "ferry_terminal",
          "ferry": "yes",
          "name": "Ahiritola Ghat",
          "public_transport": "station",
          "wikidata": "Q7984450",
          "wikipedia": "en:West Bengal Transport Corporation"
        }
      },
      {
        "type": "node",
        "id": 1189457732,
        "lat": 22.5984575,
        "lon": 88.3555843,
        "tags": {
          "amenity": "ferry_terminal",
          "ferry": "yes",
          "name": "Beniatola Ghat",
          "public_transport": "station",
          "wikidata": "Q7984450",
          "wikipedia": "en:West Bengal Transport Corporation"
        }
      },
      {
        "type": "node",
        "id": 1189457743,
        "lat": 22.5935544,
        "lon": 88.3517106,
        "tags": {
          "amenity": "ferry_terminal",
          "ferry": "yes",
          "name": "Nimtala Ghat",
          "public_transport": "station"
        }
      },
      {
        "type": "node",
        "id": 1189457787,
        "lat": 22.5877596,
        "lon": 88.3497472,
        "tags": {
          "amenity": "ferry_terminal",
          "ferry": "yes",
          "name": "Jagannath Ghat",
          "name:zh": "\u8d3e\u7518\u52a0\u7279\u8f6e\u6e21\u7ad9",
          "public_transport": "station"
        }
      },
      {
        "type": "node",
        "id": 1189457885,
        "lat": 22.5992994,
        "lon": 88.356603,
        "tags": {
          "amenity": "ferry_terminal",
          "ferry": "yes",
          "name": "Shobha Bazar Ghat",
          "public_transport": "station",
          "wikidata": "Q7984450",
          "wikipedia": "en:West Bengal Transport Corporation"
        }
      },
      {
        "type": "node",
        "id": 2281953574,
        "lat": 22.5823221,
        "lon": 88.3496156,
        "tags": {
          "name": "Howrah Bridge",
          "network": "WBTC",
          "network:wikidata": "Q7984450",
          "operator": "Calcutta Tramways Company",
          "public_transport": "stop_position",
          "railway": "tram_stop",
          "tram": "yes",
          "wheelchair": "yes"
        }
      },
      {
        "type": "node",
        "id": 2339659231,
        "lat": 22.5843833,
        "lon": 88.3426805,
        "tags": {
          "name": "Howrah Junction",
          "public_transport": "stop_position",
          "railway": "stop",
          "ref": "1",
          "train": "yes"
        }
      },
      {
        "type": "node",
        "id": 2705148453,
        "lat": 22.5914506,
        "lon": 88.3598827,
        "tags": {
          "name": "Rabindra Sarani/Nimtala Ghat",
          "public_transport": "stop_position",
          "railway": "tram_stop",
          "tram": "yes"
        }
      },
      {
        "type": "node",
        "id": 2705148457,
        "lat": 22.5967318,
        "lon": 88.3622799,
        "tags": {
          "name": "Sobha Bazar",
          "public_transport": "stop_position",
          "railway": "tram_stop",
          "tram": "yes"
        }
      },
      {
        "type": "node",
        "id": 3321321335,
        "lat": 22.5828709,
        "lon": 88.3428112,
        "tags": {
          "IR:div": "HWH",
          "IR:stn_cat": "NSG-1",
          "IR:zone": "ER",
          "name": "Howrah Junction",
          "name:ja": "\u30cf\u30a6\u30e9\u30fc",
          "name:zh": "\u8c6a\u62c9\u706b\u8f66\u7ad9",
          "network": "IR",
          "operator": "ER",
          "public_transport": "station",
          "railway": "station",
          "ref": "HWH",
          "train": "yes",
          "wheelchair": "yes",
          "wikidata": "Q986105",
          "wikipedia": "en:Howrah Junction railway station"
        }
      },
      {
        "type": "node",
        "id": 3321419430,
        "lat": 22.597735,
        "lon": 88.3181699,
        "tags": {
          "amenity": "bus_station",
          "bus": "yes",
          "public_transport": "station"
        }
      },
      {
        "type": "node",
        "id": 3860624901,
        "lat": 22.598577,
        "lon": 88.324035,
        "tags": {
          "internet_access": "no",
          "name": "Tikiapara",
          "network": "IR",
          "operator": "SER",
          "public_transport": "station",
          "railway": "station",
          "ref": "TPKR",
          "train": "yes",
          "wikidata": "Q16901643",
          "wikipedia": "en:Tikiapara railway station"
        }
      },
      {
        "type": "node",
        "id": 4178789864,
        "lat": 22.5861787,
        "lon": 88.3429845,
        "tags": {
          "amenity": "bus_station",
          "bus": "yes",
          "check_date": "2024-07-15",
          "name": "Howrah Bus Station",
          "public_transport": "station"
        }
      },
      {
        "type": "node",
        "id": 5647099123,
        "lat": 22.5822232,
        "lon": 88.3431478,
        "tags": {
          "addr:housenumber": "1G6",
          "amenity": "bus_station",
          "bus": "yes",
          "highway": "bus_stop",
          "internet_access": "wlan",
          "operator": "NBS",
          "public_transport": "station"
        }
      },
      {
        "type": "node",
        "id": 5833876807,
        "lat": 22.5843515,
        "lon": 88.3426684,
        "tags": {
          "name": "Howrah Junction",
          "public_transport": "stop_position",
          "railway": "stop",
          "ref": "2",
          "train": "yes"
        }
      },
      {
        "type": "node",
        "id": 6137401977,
        "lat": 22.5717987,
        "lon": 88.3357242,
        "tags": {
          "amenity": "ferry_terminal",
          "ferry": "yes",
          "name": "Ramkrishnapur Ghat",
          "public_transport": "station"
        }
      },
      {
        "type": "node",
        "id": 6173584907,
        "lat": 22.5727063,
        "lon": 88.3437487,
        "tags": {
          "amenity": "ferry_terminal",
          "ferry": "yes",
          "operator": "WBTC",
          "public_transport": "station"
        }
      },
      {
        "type": "node",
        "id": 6173584909,
        "lat": 22.5762291,
        "lon": 88.3455547,
        "tags": {
          "amenity": "ferry_terminal",
          "ferry": "yes",
          "name": "Fairlie Ghat",
          "operator": "WBTC",
          "public_transport": "station"
        }
      },
      {
        "type": "node",
        "id": 6173584910,
        "lat": 22.5820164,
        "lon": 88.3438661,
        "tags": {
          "amenity": "ferry_terminal",
          "cargo": "passengers",
          "ferry": "yes",
          "name": "Howrah Ghat",
          "operator": "WBTC",
          "public_transport": "station"
        }
      },
      {
        "type": "node",
        "id": 6173584911,
        "lat": 22.5822063,
        "lon": 88.3439452,
        "tags": {
          "amenity": "ferry_terminal",
          "cargo": "passengers",
          "ferry": "yes",
          "name": "Howrah Ghat",
          "operator": "WBTC",
          "public_transport": "station"
        }
      },
      {
        "type": "node",
        "id": 6173584914,
        "lat": 22.5828373,
        "lon": 88.3442094,
        "tags": {
          "amenity": "ferry_terminal",
          "cargo": "passengers",
          "ferry": "yes",
          "name": "Howrah Ghat",
          "operator": "WBTC",
          "public_transport": "station"
        }
      },
      {
        "type": "node",
        "id": 6173584920,
        "lat": 22.5804819,
        "lon": 88.3470525,
        "tags": {
          "amenity": "ferry_terminal",
          "ferry": "yes",
          "public_transport": "station"
        }
      },
      {
        "type": "node",
        "id": 7577528772,
        "lat": 22.5811474,
        "lon": 88.3414322,
        "tags": {
          "name": "Howrah Junction",
          "public_transport": "stop_position",
          "railway": "stop",
          "ref": "23",
          "train": "yes"
        }
      },
      {
        "type": "node",
        "id": 7577528773,
        "lat": 22.5811797,
        "lon": 88.3414477,
        "tags": {
          "name": "Howrah Junction",
          "public_transport": "stop_position",
          "railway": "stop",
          "ref": "22",
          "train": "yes"
        }
      },
      {
        "type": "node",
        "id": 7577528775,
        "lat": 22.5817285,
        "lon": 88.3416295,
        "tags": {
          "name": "Howrah Junction",
          "public_transport": "stop_position",
          "railway": "stop",
          "ref": "19",
          "train": "yes"
        }
      },
      {
        "type": "node",
        "id": 7577528776,
        "lat": 22.5815837,
        "lon": 88.3415578,
        "tags": {
          "name": "Howrah Junction",
          "public_transport": "stop_position",
          "railway": "stop",
          "ref": "20",
          "train": "yes"
        }
      },
      {
        "type": "node",
        "id": 7577528777,
        "lat": 22.5815479,
        "lon": 88.3415432,
        "tags": {
          "name": "Howrah Junction",
          "public_transport": "stop_position",
          "railway": "stop",
          "ref": "21",
          "train": "yes"
        }
      },
      {
        "type": "node",
        "id": 7577528778,
        "lat": 22.5818725,
        "lon": 88.3417632,
        "tags": {
          "name": "Howrah Junction",
          "public_transport": "stop_position",
          "railway": "stop",
          "ref": "17",
          "train": "yes"
        }
      },
      {
        "type": "node",
        "id": 7577550190,
        "lat": 22.5842593,
        "lon": 88.3392737,
        "tags": {
          "name": "Howrah Junction",
          "public_transport": "stop_position",
          "railway": "stop",
          "ref": "15",
          "train": "yes"
        }
      },
      {
        "type": "node",
        "id": 7577550192,
        "lat": 22.5833527,
        "lon": 88.3415765,
        "tags": {
          "name": "Howrah Junction",
          "public_transport": "stop_position",
          "railway": "stop",
          "ref": "14",
          "train": "yes"
        }
      },
      {
        "type": "node",
        "id": 7577550193,
        "lat": 22.5833822,
        "lon": 88.3415917,
        "tags": {
          "name": "Howrah Junction",
          "public_transport": "stop_position",
          "railway": "stop",
          "ref": "13",
          "train": "yes"
        }
      },
      {
        "type": "node",
        "id": 7577550194,
        "lat": 22.5832643,
        "lon": 88.3421748,
        "tags": {
          "name": "Howrah Junction",
          "public_transport": "stop_position",
          "railway": "stop",
          "ref": "12",
          "train": "yes"
        }
      },
      {
        "type": "node",
        "id": 7577550195,
        "lat": 22.5833448,
        "lon": 88.3422097,
        "tags": {
          "name": "Howrah Junction",
          "public_transport": "stop_position",
          "railway": "stop",
          "ref": "11",
          "train": "yes"
        }
      },
      {
        "type": "node",
        "id": 7577550196,
        "lat": 22.5834815,
        "lon": 88.3422771,
        "tags": {
          "name": "Howrah Junction",
          "public_transport": "stop_position",
          "railway": "stop",
          "ref": "10",
          "train": "yes"
        }
      },
      {
        "type": "node",
        "id": 7577550198,
        "lat": 22.5838289,
        "lon": 88.3424483,
        "tags": {
          "name": "Howrah Junction",
          "public_transport": "stop_position",
          "railway": "stop",
          "ref": "8",
          "train": "yes"
        }
      },
      {
        "type": "node",
        "id": 7577550199,
        "lat": 22.5838672,
        "lon": 88.3424652,
        "tags": {
          "name": "Howrah Junction",
          "public_transport": "stop_position",
          "railway": "stop",
          "ref": "7",
          "train": "yes"
        }
      },
      {
        "type": "node",
        "id": 7577550200,
        "lat": 22.5839673,
        "lon": 88.3425854,
        "tags": {
          "name": "Howrah Junction",
          "public_transport": "stop_position",
          "railway": "stop",
          "ref": "6",
          "train": "yes"
        }
      },
      {
        "type": "node",
        "id": 7577550201,
        "lat": 22.5840057,
        "lon": 88.3426029,
        "tags": {
          "name": "Howrah Junction",
          "public_transport": "stop_position",
          "railway": "stop",
          "ref": "5",
          "train": "yes"
        }
      },
      {
        "type": "node",
        "id": 8508732200,
        "lat": 22.5813946,
        "lon": 88.3528436,
        "tags": {
          "name": "Barabazar",
          "public_transport": "stop_position",
          "railway": "tram_stop",
          "tram": "yes"
        }
      },
      {
        "type": "node",
        "id": 8999700675,
        "lat": 22.5900953,
        "lon": 88.334688,
        "tags": {
          "name": "Howrah Goods",
          "network": "IR",
          "operator": "SER",
          "railway": "station",
          "ref": "HWHG",
          "wikidata": "Q63371469"
        }
      },
      {
        "type": "node",
        "id": 9001302716,
        "lat": 22.590157,
        "lon": 88.3511761,
        "tags": {
          "name": "Barra Bazar",
          "network": "IR",
          "operator": "ER",
          "public_transport": "station",
          "railway": "station",
          "ref": "BZB",
          "wikidata": "Q25549503"
        }
      },
      {
        "type": "node",
        "id": 9717925317,
        "lat": 22.5813902,
        "lon": 88.3421409,
        "tags": {
          "amenity": "charging_station",
          "name": "Electric vehicle charging station",
          "opening_hours": "24/7"
        }
      },
      {
        "type": "node",
        "id": 11533663305,
        "lat": 22.5813727,
        "lon": 88.3528379,
        "tags": {
          "name": "Barabazar",
          "public_transport": "stop_position",
          "railway": "tram_stop",
          "tram": "yes"
        }
      },
      {
        "type": "node",
        "id": 11699262522,
        "lat": 22.5833117,
        "lon": 88.3401416,
        "tags": {
          "name": "Howrah",
          "name:bn": "\u09b9\u09be\u0993\u09a1\u09bc\u09be",
          "public_transport": "stop_position",
          "railway": "stop",
          "subway": "yes"
        }
      },
      {
        "type": "node",
        "id": 11699262523,
        "lat": 22.5833721,
        "lon": 88.340164,
        "tags": {
          "name": "Howrah",
          "name:bn": "\u09b9\u09be\u0993\u09a1\u09bc\u09be",
          "public_transport": "stop_position",
          "railway": "stop",
          "subway": "yes"
        }
      },
      {
        "type": "node",
        "id": 11699262524,
        "lat": 22.5837786,
        "lon": 88.3339972,
        "tags": {
          "name": "Howrah Maidan",
          "name:bn": "\u09b9\u09be\u0993\u09a1\u09bc\u09be \u09ae\u09af\u09bc\u09a6\u09be\u09a8",
          "public_transport": "stop_position",
          "railway": "stop",
          "subway": "yes"
        }
      },
      {
        "type": "node",
        "id": 11699262525,
        "lat": 22.5837527,
        "lon": 88.3340603,
        "tags": {
          "name": "Howrah Maidan",
          "name:bn": "\u09b9\u09be\u0993\u09a1\u09bc\u09be \u09ae\u09af\u09bc\u09a6\u09be\u09a8",
          "public_transport": "stop_position",
          "railway": "stop",
          "subway": "yes"
        }
      },
      {
        "type": "node",
        "id": 11699268224,
        "lat": 22.5833648,
        "lon": 88.3403452,
        "tags": {
          "name": "Howrah",
          "name:bn": "\u09b9\u09be\u0993\u09a1\u09bc\u09be",
          "network": "Kolkata Metro",
          "network:wikidata": "Q1048849",
          "operator": "Metro Railway, Kolkata",
          "public_transport": "station",
          "railway": "station",
          "ref": "HWHM",
          "station": "subway",
          "subway": "yes",
          "wikidata": "Q30632554",
          "wikipedia": "bn:\u09b9\u09be\u0993\u09a1\u09bc\u09be \u09ae\u09c7\u099f\u09cd\u09b0\u09cb \u09b8\u09cd\u099f\u09c7\u09b6\u09a8"
        }
      },
      {
        "type": "node",
        "id": 11699268225,
        "lat": 22.5838585,
        "lon": 88.3339983,
        "tags": {
          "name": "Howrah Maidan",
          "name:bn": "\u09b9\u09be\u0993\u09a1\u09bc\u09be \u09ae\u09af\u09bc\u09a6\u09be\u09a8",
          "network": "Kolkata Metro",
          "network:wikidata": "Q1048849",
          "operator": "Metro Railway, Kolkata",
          "public_transport": "station",
          "railway": "station",
          "ref": "HWMM",
          "station": "subway",
          "subway": "yes",
          "wikidata": "Q30632544",
          "wikipedia": "bn:\u09b9\u09be\u0993\u09a1\u09bc\u09be \u09ae\u09af\u09bc\u09a6\u09be\u09a8 \u09ae\u09c7\u099f\u09cd\u09b0\u09cb \u09b8\u09cd\u099f\u09c7\u09b6\u09a8"
        }
      },
      {
        "type": "node",
        "id": 12088322220,
        "lat": 22.5866768,
        "lon": 88.358668,
        "tags": {
          "amenity": "fuel",
          "brand": "Bharat Petroleum",
          "brand:wikidata": "Q854826",
          "name": "Bharat Petroleum, Petrol Pump -Imperial Petrol Service Station"
        }
      },
      {
        "type": "node",
        "id": 12136509180,
        "lat": 22.6057202,
        "lon": 88.3433026,
        "tags": {
          "amenity": "fuel"
        }
      },
      {
        "type": "node",
        "id": 12136509181,
        "lat": 22.5914261,
        "lon": 88.3431755,
        "tags": {
          "amenity": "fuel"
        }
      },
      {
        "type": "node",
        "id": 12136521841,
        "lat": 22.5874833,
        "lon": 88.3397116,
        "tags": {
          "amenity": "fuel"
        }
      },
      {
        "type": "node",
        "id": 12136552129,
        "lat": 22.6128246,
        "lon": 88.3460845,
        "tags": {
          "amenity": "fuel",
          "brand": "HP"
        }
      },
      {
        "type": "node",
        "id": 12136553875,
        "lat": 22.6095876,
        "lon": 88.3448551,
        "tags": {
          "amenity": "fuel",
          "brand": "Indian Oil"
        }
      }
    ]
  }
}