{
  "pois_1km": {
    "version": 0.6,
    "generator": "Overpass API 0.7.62.8 e802775f",
    "osm3s": {
      "timestamp_osm_base": "2025-09-06T09:42:41Z",
      "copyright": "The data included in this document is from www.openstreetmap.org. The data is made available under ODbL."
    },
    "elements": [
      {
        "type": "node",
        "id": 1833181230,
        "lat": 22.5530816,
        "lon": 88.3526293,
        "tags": {
          "addr:street": "Park Street",
          "amenity": "restaurant",
          "cuisine": "chinese;indian",
          "name": "Bar-B-Que"
        }
      },
      {
        "type": "node",
        "id": 2561110172,
        "lat": 22.5529926,
        "lon": 88.3527098,
        "tags": {
          "amenity": "cafe",
          "brand": "Cafe Coffee Day",
          "brand:wikidata": "Q5017235",
          "cuisine": "coffee_shop",
          "delivery": "yes",
          "name": "Cafe Coffee Day",
          "opening_hours": "Mo-Su 08:00-00:00",
          "outdoor_seating": "no",
          "smoking": "no",
          "source": "survey",
          "takeaway": "yes"
        }
      },
      {
        "type": "node",
        "id": 2561264392,
        "lat": 22.5413282,
        "lon": 88.365897,
        "tags": {
          "addr:city": "Kolkata",
          "amenity": "restaurant",
          "cuisine": "indian",
          "name": "Zeeshan"
        }
      },
      {
        "type": "node",
        "id": 2561266540,
        "lat": 22.5412056,
        "lon": 88.3649509,
        "tags": {
          "amenity": "restaurant",
          "name": "Krazy Kebab"
        }
      },
      {
        "type": "node",
        "id": 2599246808,
        "lat": 22.5539364,
        "lon": 88.354238,
        "tags": {
          "amenity": "restaurant",
          "cuisine": "indian",
          "name": "Arsalan"
        }
      },
      {
        "type": "node",
        "id": 2746986381,
        "lat": 22.543995,
        "lon": 88.3583326,
        "tags": {
          "amenity": "cafe",
          "name": "The Chocolate Room"
        }
      },
      {
        "type": "node",
        "id": 2746986382,
        "lat": 22.5437624,
        "lon": 88.3582462,
        "tags": {
          "amenity": "cafe",
          "brand": "Cafe Coffee Day",
          "brand:wikidata": "Q5017235",
          "cuisine": "coffee_shop",
          "name": "Cafe Coffee Day",
          "takeaway": "yes"
        }
      },
      {
        "type": "node",
        "id": 2747132627,
        "lat": 22.5429973,
        "lon": 88.3560631,
        "tags": {
          "amenity": "pharmacy",
          "healthcare": "pharmacy",
          "name": "Aastha"
        }
      },
      {
        "type": "node",
        "id": 3406900468,
        "lat": 22.5469098,
        "lon": 88.3612631,
        "tags": {
          "amenity": "bank",
          "atm": "yes",
          "brand": "HDFC Bank",
          "brand:wikidata": "Q631047",
          "brand:wikipedia": "en:HDFC Bank",
          "building": "house",
          "name": "HDFC Bank",
          "short_name": "HDFC",
          "website": "https://www.hdfcbank.com"
        }
      },
      {
        "type": "node",
        "id": 3512180085,
        "lat": 22.5529144,
        "lon": 88.3528134,
        "tags": {
          "addr:city": "Kolkata",
          "addr:housenumber": "25B",
          "addr:street": "Park Street",
          "amenity": "cafe",
          "brand": "Barista",
          "brand:wikidata": "Q644735",
          "cuisine": "coffee_shop",
          "name": "Barista",
          "takeaway": "yes"
        }
      },
      {
        "type": "node",
        "id": 3565444993,
        "lat": 22.5514184,
        "lon": 88.3523648,
        "tags": {
          "amenity": "restaurant",
          "cuisine": "international",
          "name": "Bistro By The Park"
        }
      },
      {
        "type": "node",
        "id": 3565448998,
        "lat": 22.5524479,
        "lon": 88.3526151,
        "tags": {
          "amenity": "restaurant",
          "contact:facebook": "https://www.facebook.com/PeterCatKolkata",
          "cuisine": "international",
          "name": "Peter Cat"
        }
      },
      {
        "type": "node",
        "id": 3566105743,
        "lat": 22.5382703,
        "lon": 88.3587315,
        "tags": {
          "amenity": "pharmacy",
          "healthcare": "pharmacy",
          "name": "Frank Ross Pharmacy"
        }
      },
      {
        "type": "node",
        "id": 4377549603,
        "lat": 22.5521803,
        "lon": 88.3527404,
        "tags": {
          "alt_name": "Kentucky Fried Chicken",
          "alt_name:en": "Kentucky Fried Chicken",
          "alt_name:hi": "\u0915\u0947\u0902\u091f\u0941\u0915\u0940 \u092b\u094d\u0930\u093e\u0907\u0921 \u091a\u093f\u0915\u0928",
          "alt_name:pa": "\u0a15\u0a48\u0a02\u0a1f\u0a41\u0a15\u0a40 \u0a2b\u0a4d\u0a30\u0a3e\u0a08\u0a21 \u0a1a\u0a3f\u0a15\u0a28",
          "alt_name:pnb": "\u06a9\u06cc\u0646\u0679\u06a9\u06cc \u0641\u0631\u0627\u0626\u06cc\u0688 \u0686\u06a9\u0646",
          "alt_name:ur": "\u06a9\u06cc\u0646\u0679\u06a9\u06cc \u0641\u0631\u0627\u0626\u06cc\u0688 \u0686\u06a9\u0646",
          "amenity": "fast_food",
          "brand": "KFC",
          "brand:en": "KFC",
          "brand:hi": "\u0915\u0947\u090f\u092b\u0938\u0940",
          "brand:pa": "\u0a15\u0a47\u0a10\u0a2b\u0a38\u0a40",
          "brand:pnb": "\u06a9\u06d2 \u0627\u06cc\u0641 \u0633\u06cc",
          "brand:ur": "\u06a9\u06d2 \u0627\u06cc\u0641 \u0633\u06cc",
          "brand:wikidata": "Q524757",
          "brand:wikipedia": "en:KFC",
          "brand:wikipedia:pa": "\u0a15\u0a47\u0a10\u0a2b\u0a38\u0a40",
          "brand:wikipedia:ur": "\u06a9\u06cc\u0646\u0679\u06a9\u06cc \u0641\u0631\u0627\u0626\u06cc\u0688 \u0686\u06a9\u0646",
          "cuisine": "chicken",
          "delivery": "yes",
          "drive_through": "no",
          "internet_access": "no",
          "name": "KFC",
          "name:en": "KFC",
          "name:hi": "\u0915\u0947\u090f\u092b\u0938\u0940",
          "name:pa": "\u0a15\u0a47\u0a10\u0a2b\u0a38\u0a40",
          "name:pnb": "\u06a9\u06d2 \u0627\u06cc\u0641 \u0633\u06cc",
          "name:ur": "\u06a9\u06d2 \u0627\u06cc\u0641 \u0633\u06cc",
          "outdoor_seating": "no",
          "smoking": "no",
          "source": "Survey",
          "takeaway": "yes"
        }
      },
      {
        "type": "node",
        "id": 4393259889,
        "lat": 22.5413075,
        "lon": 88.3500109,
        "tags": {
          "amenity": "restaurant",
          "name": "Shila"
        }
      },
      {
        "type": "node",
        "id": 4556752669,
        "lat": 22.5529427,
        "lon": 88.353328,
        "tags": {
          "amenity": "restaurant",
          "cuisine": "chinese",
          "name": "Golden Dragon"
        }
      },
      {
        "type": "node",
        "id": 4646598289,
        "lat": 22.5525958,
        "lon": 88.3559628,
        "tags": {
          "amenity": "fast_food",
          "cuisine": "indian",
          "name": "Bably's Fast Food",
          "name:en": "Bably's Fast Food"
        }
      },
      {
        "type": "node",
        "id": 4684651490,
        "lat": 22.5470227,
        "lon": 88.3620613,
        "tags": {
          "addr:city": "Kolkata",
          "addr:district": "Kolkata",
          "addr:full": "185/1, Acharya Jagadish Chandra Bose Road , Beniapukur",
          "addr:housenumber": "185/1",
          "addr:postcode": "700017",
          "addr:state": "West Bengal",
          "addr:street": "AJC Bose Road",
          "amenity": "hospital",
          "check_date": "2023-09-30",
          "contact:phone": "3322867094",
          "healthcare": "hospital",
          "healthcare:speciality": "neurology",
          "internet_access": "wlan",
          "internet_access:fee": "no",
          "name": "Institute Of Neurosciences Kolkata",
          "name:en": "Institute of Neuroscience Kolkata",
          "phone": "033 4030 9999",
          "source": "OpenGovernmentData;survey;local knowledge",
          "website": "https://www.neurokolkata.org/",
          "wheelchair": "yes"
        }
      },
      {
        "type": "node",
        "id": 4766301525,
        "lat": 22.5492423,
        "lon": 88.3505669,
        "tags": {
          "amenity": "restaurant",
          "diet:vegetarian": "only",
          "name": "Drive Inn Vegetarian",
          "name:hi": "Drive Inn Vegetarian"
        }
      },
      {
        "type": "node",
        "id": 4841144421,
        "lat": 22.5536951,
        "lon": 88.3582981,
        "tags": {
          "amenity": "fast_food",
          "name": "Lin's Noodle King",
          "name:en": "Lin's Noodle King"
        }
      },
      {
        "type": "node",
        "id": 4868022425,
        "lat": 22.551998,
        "lon": 88.3532226,
        "tags": {
          "amenity": "bank",
          "branch": "Park Street",
          "brand": "South Indian Bank",
          "brand:wikidata": "Q2044973",
          "name": "South Indian Bank",
          "name:en": "South Indian Bank"
        }
      },
      {
        "type": "node",
        "id": 4868045521,
        "lat": 22.5513148,
        "lon": 88.3538046,
        "tags": {
          "amenity": "bank",
          "atm": "yes",
          "branch": "Park Street",
          "brand": "United Bank of India",
          "brand:short": "UBI",
          "brand:wikidata": "Q2003237",
          "brand:wikipedia": "en:United Bank of India",
          "name": "United Bank of India",
          "name:en": "United Bank of India",
          "website": "http://www.unitedbankofindia.com",
          "wheelchair": "no"
        }
      },
      {
        "type": "node",
        "id": 4888951321,
        "lat": 22.5518728,
        "lon": 88.3636083,
        "tags": {
          "amenity": "atm",
          "brand": "Bank of Baroda",
          "brand:wikidata": "Q2003797",
          "name": "Bank of Baroda",
          "operator": "Bank of Baroda",
          "operator:wikidata": "Q2003797"
        }
      },
      {
        "type": "node",
        "id": 4888951322,
        "lat": 22.5527647,
        "lon": 88.3637558,
        "tags": {
          "amenity": "atm",
          "operator": "Union Bank"
        }
      },
      {
        "type": "node",
        "id": 4937969021,
        "lat": 22.5438718,
        "lon": 88.3659522,
        "tags": {
          "air_conditioning": "yes",
          "amenity": "restaurant",
          "bar": "no",
          "capacity": "120",
          "check_date": "2023-12-16",
          "cuisine": "regional",
          "delivery": "yes",
          "diet:halal": "yes",
          "diet:meat": "yes",
          "diet:non-vegetarian": "yes",
          "diet:vegetarian": "yes",
          "internet_access": "no",
          "name": "Arsalan Restaurant",
          "name:en": "Arsalan",
          "opening_hours": "Mo-Su 10:30-24:00",
          "payment:cash": "yes",
          "payment:mastercard": "yes",
          "payment:visa": "yes",
          "phone": "+913322848556",
          "smoking": "outside",
          "website": "https://arsalanrestaurants.com/",
          "wheelchair": "no"
        }
      },
      {
        "type": "node",
        "id": 5151716323,
        "lat": 22.5516985,
        "lon": 88.3525878,
        "tags": {
          "amenity": "cafe",
          "name": "Amber Cafe"
        }
      },
      {
        "type": "node",
        "id": 5151716324,
        "lat": 22.5471824,
        "lon": 88.3505072,
        "tags": {
          "amenity": "restaurant",
          "name": "Jyoti Vihar"
        }
      },
      {
        "type": "node",
        "id": 5169243925,
        "lat": 22.5528511,
        "lon": 88.3627796,
        "tags": {
          "amenity": "restaurant",
          "name": "Moghal Biryani",
          "name:en": "Moghal Biryani"
        }
      },
      {
        "type": "node",
        "id": 5303024823,
        "lat": 22.5448688,
        "lon": 88.3545938,
        "tags": {
          "amenity": "fast_food",
          "cuisine": "indian",
          "diet:vegetarian": "only",
          "name": "Veg restaurant"
        }
      },
      {
        "type": "node",
        "id": 5414029822,
        "lat": 22.540289,
        "lon": 88.3650923,
        "tags": {
          "amenity": "restaurant",
          "name": "The South Indian"
        }
      },
      {
        "type": "node",
        "id": 5414040822,
        "lat": 22.5410631,
        "lon": 88.3659763,
        "tags": {
          "amenity": "restaurant",
          "name": "Nafeel"
        }
      },
      {
        "type": "node",
        "id": 5512023021,
        "lat": 22.5426,
        "lon": 88.3659642,
        "tags": {
          "addr:housenumber": "2",
          "addr:place": "Syed Amir Ali Avenue",
          "amenity": "atm",
          "brand": "Allahabad Bank",
          "brand:wikidata": "Q2018840",
          "check_date": "2023-12-16",
          "currency:INR": "yes",
          "opening_hours": "24/7",
          "operator": "Allahabad Bank",
          "operator:wikidata": "Q2018840"
        }
      },
      {
        "type": "node",
        "id": 5598648922,
        "lat": 22.552346,
        "lon": 88.3533112,
        "tags": {
          "amenity": "restaurant",
          "brand": "Hard Rock Cafe",
          "brand:wikidata": "Q918151",
          "cuisine": "american",
          "name": "Hard Rock Cafe"
        }
      },
      {
        "type": "node",
        "id": 5598656722,
        "lat": 22.5524307,
        "lon": 88.3532304,
        "tags": {
          "amenity": "cafe",
          "brand": "Starbucks",
          "brand:pa": "\u0a38\u0a1f\u0a3e\u0a30\u0a2c\u0a15\u0a38",
          "brand:ur": "\u0627\u0633\u0679\u0627\u0631\u0628\u06a9\u0633",
          "brand:wikidata": "Q37158",
          "brand:wikipedia": "en:Starbucks",
          "cuisine": "coffee_shop",
          "internet_access": "wlan",
          "internet_access:fee": "no",
          "name": "Starbucks",
          "name:pa": "\u0a38\u0a1f\u0a3e\u0a30\u0a2c\u0a15\u0a38",
          "name:ur": "\u0627\u0633\u0679\u0627\u0631\u0628\u06a9\u0633",
          "official_name": "Starbucks Coffee",
          "official_name:pa": "\u0a38\u0a1f\u0a3e\u0a30\u0a2c\u0a15\u0a38 \u0a15\u0a4c\u0a2b\u0a40",
          "official_name:ur": "\u0627\u0633\u0679\u0627\u0631\u0628\u06a9\u0633 \u06a9\u0627\u0641\u06cc",
          "opening_hours": "Mo-Su 07:00-00:30",
          "smoking": "no",
          "takeaway": "yes",
          "wheelchair": "designated"
        }
      },
      {
        "type": "node",
        "id": 5600097022,
        "lat": 22.5528507,
        "lon": 88.3528567,
        "tags": {
          "addr:city": "Kolkata",
          "addr:housenumber": "57",
          "addr:postcode": "700016",
          "addr:street": "Park Street",
          "amenity": "fast_food",
          "brand": "Wow! Momo",
          "brand:wikidata": "Q8037446",
          "cuisine": "momo",
          "indoor_seating": "yes",
          "name": "Wow! Momo",
          "phone": "+91-33-4602-4764",
          "takeaway": "yes"
        }
      },
      {
        "type": "node",
        "id": 5745581821,
        "lat": 22.545692,
        "lon": 88.3528932,
        "tags": {
          "addr:street": "Camac Street",
          "amenity": "restaurant",
          "cuisine": "indian",
          "name": "Dawat",
          "phone": "22523271"
        }
      },
      {
        "type": "node",
        "id": 5879741993,
        "lat": 22.5526687,
        "lon": 88.3526197,
        "tags": {
          "addr:city": "Kolkata",
          "addr:housenumber": "Stephen Court Building",
          "addr:postcode": "700016",
          "addr:street": "Park St, Kolkata",
          "brand": "Nature's Basket",
          "brand:wikidata": "Q28174237",
          "name": "Nature's Basket",
          "opening_hours": "Mo-Su 08:00-22:00",
          "organic": "yes",
          "shop": "supermarket",
          "wheelchair": "designated"
        }
      },
      {
        "type": "node",
        "id": 6135358004,
        "lat": 22.5445284,
        "lon": 88.3586151,
        "tags": {
          "amenity": "bank",
          "brand": "DCB Bank"
        }
      },
      {
        "type": "node",
        "id": 6135362105,
        "lat": 22.5529418,
        "lon": 88.3527648,
        "tags": {
          "amenity": "restaurant",
          "cuisine": "chinese",
          "name": "Bar-B-Q"
        }
      },
      {
        "type": "node",
        "id": 6135363544,
        "lat": 22.5401072,
        "lon": 88.3655956,
        "tags": {
          "amenity": "atm",
          "brand": "Kotak Mahindra Bank",
          "brand:wikidata": "Q2040404",
          "operator": "Kotak Mahindra Bank",
          "operator:wikidata": "Q2040404"
        }
      },
      {
        "type": "node",
        "id": 6135363548,
        "lat": 22.5529601,
        "lon": 88.3564506,
        "tags": {
          "amenity": "bank",
          "branch": "Elliot Road",
          "brand": "State Bank of India",
          "brand:short": "SBI",
          "brand:wikidata": "Q1340361",
          "name": "State Bank of India",
          "short_name": "SBI"
        }
      },
      {
        "type": "node",
        "id": 6135363550,
        "lat": 22.5529317,
        "lon": 88.3542465,
        "tags": {
          "addr:housenumber": "4",
          "addr:postcode": "700016",
          "addr:street": "Royd Street",
          "amenity": "restaurant",
          "check_date": "2023-10-28",
          "delivery": "yes",
          "name": "The Accord",
          "opening_hours": "07:30-22:30",
          "phone": "0903802493",
          "takeaway": "yes",
          "website": "https://accord-family-restaurant.business.site/"
        }
      },
      {
        "type": "node",
        "id": 6135363744,
        "lat": 22.552898,
        "lon": 88.3543572,
        "tags": {
          "addr:postcode": "700016",
          "amenity": "cafe",
          "check_date": "2023-10-28",
          "delivery": "yes",
          "name": "Caf\u00e9 Harmony",
          "opening_hours": "16:00-23:30",
          "phone": "09038024943",
          "takeaway": "yes"
        }
      },
      {
        "type": "node",
        "id": 6135364026,
        "lat": 22.5439206,
        "lon": 88.3631226,
        "tags": {
          "amenity": "bank",
          "atm": "yes",
          "branch": "Park Circus",
          "brand": "Bank of India",
          "brand:short": "BOI",
          "brand:wikidata": "Q2004439",
          "check_date": "2023-12-16",
          "internet_access": "no",
          "name": "Bank of India",
          "payment:cash": "yes",
          "payment:mastercard": "yes",
          "payment:visa": "yes",
          "wheelchair": "no"
        }
      },
      {
        "type": "node",
        "id": 6135364200,
        "lat": 22.5519786,
        "lon": 88.3524857,
        "tags": {
          "amenity": "fast_food",
          "name": "The Golden Spoon"
        }
      },
      {
        "type": "node",
        "id": 6135364481,
        "lat": 22.544679,
        "lon": 88.3553121,
        "tags": {
          "amenity": "cafe",
          "brand": "Cafe Coffee Day",
          "brand:wikidata": "Q5017235",
          "brand:wikipedia": "en:Caf\u00e9 Coffee Day",
          "cuisine": "coffee_shop",
          "name": "Cafe Coffee Day",
          "takeaway": "yes"
        }
      },
      {
        "type": "node",
        "id": 6135364591,
        "lat": 22.55318,
        "lon": 88.3543372,
        "tags": {
          "amenity": "pharmacy",
          "healthcare": "pharmacy",
          "name": "Royd Pharmacy"
        }
      },
      {
        "type": "node",
        "id": 6135364594,
        "lat": 22.5517964,
        "lon": 88.3537609,
        "tags": {
          "amenity": "atm",
          "brand": "India Post",
          "brand:hi": "\u092d\u093e\u0930\u0924\u0940\u092f \u0921\u093e\u0915",
          "opening_hours": "24/7"
        }
      },
      {
        "type": "node",
        "id": 6135364595,
        "lat": 22.5525948,
        "lon": 88.3526504,
        "tags": {
          "addr:housenumber": "18G",
          "addr:street": "Park Street",
          "amenity": "fast_food",
          "cuisine": "waffle",
          "indoor_seating": "yes",
          "name": "Waffle Wallah"
        }
      },
      {
        "type": "node",
        "id": 6135364805,
        "lat": 22.5528604,
        "lon": 88.3524108,
        "tags": {
          "alcohol": "yes",
          "amenity": "restaurant",
          "name": "Silver Grill"
        }
      },
      {
        "type": "node",
        "id": 6135364887,
        "lat": 22.5513455,
        "lon": 88.3537819,
        "tags": {
          "amenity": "atm",
          "brand": "United Bank of India",
          "brand:short": "UBI",
          "wheelchair": "no"
        }
      },
      {
        "type": "node",
        "id": 6138457978,
        "lat": 22.5526864,
        "lon": 88.3551124,
        "tags": {
          "amenity": "atm",
          "brand": "Indian Overseas Bank",
          "brand:wikidata": "Q2003611",
          "operator": "Indian Overseas Bank",
          "operator:wikidata": "Q2003611"
        }
      },
      {
        "type": "node",
        "id": 6138457979,
        "lat": 22.5525737,
        "lon": 88.3562984,
        "tags": {
          "amenity": "atm",
          "brand": "HDFC Bank",
          "brand:wikidata": "Q631047",
          "operator": "HDFC Bank",
          "operator:wikidata": "Q631047",
          "short_name": "HDFC",
          "wheelchair": "no"
        }
      },
      {
        "type": "node",
        "id": 6138457981,
        "lat": 22.5531688,
        "lon": 88.353451,
        "tags": {
          "amenity": "fast_food",
          "level": "1",
          "name": "Udta Punjab Dhaba"
        }
      },
      {
        "type": "node",
        "id": 6138458084,
        "lat": 22.5526752,
        "lon": 88.3558161,
        "tags": {
          "amenity": "bank",
          "branch": "Park Street",
          "brand": "ICICI Bank",
          "brand:wikidata": "Q1653258",
          "name": "ICICI Bank",
          "short_name": "ICICI"
        }
      },
      {
        "type": "node",
        "id": 6138458215,
        "lat": 22.5527066,
        "lon": 88.355058,
        "tags": {
          "addr:housenumber": "6",
          "addr:street": "Royd Street",
          "amenity": "bank",
          "brand": "Indian Overseas Bank",
          "brand:wikidata": "Q2003611",
          "name": "Indian Overseas Bank"
        }
      },
      {
        "type": "node",
        "id": 6138458216,
        "lat": 22.5526877,
        "lon": 88.3557724,
        "tags": {
          "amenity": "atm",
          "brand": "ICICI Bank",
          "brand:wikidata": "Q1653258",
          "opening_hours": "24/7",
          "operator": "ICICI Bank",
          "operator:wikidata": "Q1653258",
          "short_name": "ICICI"
        }
      },
      {
        "type": "node",
        "id": 6138458223,
        "lat": 22.5473767,
        "lon": 88.3517657,
        "tags": {
          "amenity": "cafe",
          "name": "Spices and Sauces",
          "phone": "+91-33-2440-1314;+91-33-2440-8787;+91-98307-58920;+91-98304-04196"
        }
      },
      {
        "type": "node",
        "id": 6138458224,
        "lat": 22.5528863,
        "lon": 88.3532982,
        "tags": {
          "amenity": "fast_food",
          "brand": "Subway",
          "brand:pa": "\u0a38\u0a2c\u0a35\u0a47\u0a05",
          "brand:ur": "\u0633\u0628 \u0648\u06d2",
          "brand:wikidata": "Q244457",
          "brand:wikipedia": "en:Subway (restaurant)",
          "cuisine": "sandwich",
          "name": "Subway",
          "name:pa": "\u0a38\u0a2c\u0a35\u0a47\u0a05",
          "name:ur": "\u0633\u0628 \u0648\u06d2",
          "opening_hours": "Mo-Su 10:00-24:00",
          "phone": "+91-33-4005-3774;+91-98300-31636",
          "takeaway": "yes"
        }
      },
      {
        "type": "node",
        "id": 6138458225,
        "lat": 22.5456757,
        "lon": 88.3525236,
        "tags": {
          "amenity": "cafe",
          "brand": "Cafe Coffee Day",
          "brand:wikidata": "Q5017235",
          "cuisine": "coffee_shop",
          "name": "Cafe Coffee Day",
          "takeaway": "yes"
        }
      },
      {
        "type": "node",
        "id": 6138458285,
        "lat": 22.5527775,
        "lon": 88.3563898,
        "tags": {
          "amenity": "atm",
          "brand": "Kotak Mahindra Bank",
          "brand:wikidata": "Q2040404",
          "opening_hours": "24/7",
          "operator": "Kotak Mahindra Bank",
          "operator:wikidata": "Q2040404"
        }
      },
      {
        "type": "node",
        "id": 6138458286,
        "lat": 22.5533895,
        "lon": 88.3532362,
        "tags": {
          "amenity": "restaurant",
          "name": "Tung Fong"
        }
      },
      {
        "type": "node",
        "id": 6141500108,
        "lat": 22.5519801,
        "lon": 88.3559754,
        "tags": {
          "amenity": "fast_food",
          "delivery": "yes",
          "indoor_seating": "yes",
          "name": "Grill and Chill"
        }
      },
      {
        "type": "node",
        "id": 6141500375,
        "lat": 22.5523086,
        "lon": 88.3558338,
        "tags": {
          "amenity": "atm",
          "brand": "Bank of Baroda",
          "brand:wikidata": "Q2003797",
          "opening_hours": "24/7",
          "operator": "Bank of Baroda",
          "operator:wikidata": "Q2003797"
        }
      },
      {
        "type": "node",
        "id": 6143230209,
        "lat": 22.5485697,
        "lon": 88.3521791,
        "tags": {
          "amenity": "atm",
          "brand": "ICICI Bank",
          "brand:wikidata": "Q1653258",
          "opening_hours": "24/7",
          "operator": "ICICI Bank",
          "operator:wikidata": "Q1653258",
          "short_name": "ICICI"
        }
      },
      {
        "type": "node",
        "id": 6143230210,
        "lat": 22.5525609,
        "lon": 88.35264,
        "tags": {
          "amenity": "fast_food",
          "indoor_seating": "no",
          "name": "Bombay Toastee"
        }
      },
      {
        "type": "node",
        "id": 6143232246,
        "lat": 22.5485554,
        "lon": 88.3522719,
        "tags": {
          "amenity": "bank",
          "branch": "Middleton Street",
          "brand": "ICICI Bank",
          "brand:wikidata": "Q1653258",
          "name": "ICICI Bank",
          "short_name": "ICICI"
        }
      },
      {
        "type": "node",
        "id": 6143232247,
        "lat": 22.5498352,
        "lon": 88.3499431,
        "tags": {
          "addr:city": "Kolkata",
          "addr:housenumber": "41",
          "addr:postcode": "700071",
          "addr:street": "Chowringhee Road",
          "amenity": "fast_food",
          "indoor_seating": "yes",
          "name": "Russell Punjabi Dhaba"
        }
      },
      {
        "type": "node",
        "id": 6143233736,
        "lat": 22.5531757,
        "lon": 88.3534139,
        "tags": {
          "amenity": "restaurant",
          "cuisine": "italian",
          "level": "0",
          "name": "Don Giovanni's Pizza"
        }
      },
      {
        "type": "node",
        "id": 6144988948,
        "lat": 22.5520203,
        "lon": 88.3532126,
        "tags": {
          "amenity": "atm",
          "brand": "South Indian Bank",
          "brand:wikidata": "Q2044973",
          "operator": "South Indian Bank",
          "operator:wikidata": "Q2044973"
        }
      },
      {
        "type": "node",
        "id": 6209969585,
        "lat": 22.5524896,
        "lon": 88.3636672,
        "tags": {
          "amenity": "fast_food"
        }
      },
      {
        "type": "node",
        "id": 6357619086,
        "lat": 22.5437593,
        "lon": 88.3536486,
        "tags": {
          "addr:housenumber": "3C",
          "addr:street": "Albert Road",
          "amenity": "restaurant",
          "cuisine": "indian",
          "name": "Govinda's",
          "opening_hours": "Mo-Su 09:00-22:00",
          "website": "https://www.iskconkolkata.com/"
        }
      },
      {
        "type": "node",
        "id": 6395400106,
        "lat": 22.5475583,
        "lon": 88.3541763,
        "tags": {
          "amenity": "fast_food",
          "name": "Hot Chips, Wood Street"
        }
      },
      {
        "type": "node",
        "id": 6395667421,
        "lat": 22.5472976,
        "lon": 88.3497826,
        "tags": {
          "amenity": "atm",
          "brand": "Canara Bank",
          "brand:en": "Canara Bank",
          "brand:hi": "\u0915\u0947\u0928\u0930\u093e \u092c\u0948\u0902\u0915",
          "brand:kn": "\u0c95\u0cc6\u0ca8\u0cb0\u0cbe \u0cac\u0ccd\u0caf\u0cbe\u0c82\u0c95\u0ccd",
          "brand:pa": "\u0a15\u0a47\u0a28\u0a30\u0a3e \u0a2c\u0a48\u0a02\u0a15",
          "brand:pnb": "\u06a9\u06cc\u0646\u0631\u0627 \u0628\u06cc\u0646\u06a9",
          "brand:ur": "\u06a9\u06cc\u0646\u0631\u0627 \u0628\u06cc\u0646\u06a9",
          "brand:wikidata": "Q2003777",
          "name:en": "Canara Bank",
          "name:hi": "\u0915\u0947\u0928\u0930\u093e \u092c\u0948\u0902\u0915",
          "name:kn": "\u0c95\u0cc6\u0ca8\u0cb0\u0cbe \u0cac\u0ccd\u0caf\u0cbe\u0c82\u0c95\u0ccd",
          "name:pa": "\u0a15\u0a47\u0a28\u0a30\u0a3e \u0a2c\u0a48\u0a02\u0a15",
          "name:pnb": "\u06a9\u06cc\u0646\u0631\u0627 \u0628\u06cc\u0646\u06a9",
          "name:ur": "\u06a9\u06cc\u0646\u0631\u0627 \u0628\u06cc\u0646\u06a9",
          "operator": "Canara Bank",
          "operator:wikidata": "Q2003777"
        }
      },
      {
        "type": "node",
        "id": 6447832087,
        "lat": 22.5534228,
        "lon": 88.3617897,
        "tags": {
          "amenity": "fast_food",
          "name:ja": "\u7f8e\u5473\u3057\u3044\u30df\u30eb\u30af\u30c1\u30e3\u30a4"
        }
      },
      {
        "type": "node",
        "id": 6551217385,
        "lat": 22.5473301,
        "lon": 88.3509795,
        "tags": {
          "addr:postcode": "700071",
          "addr:street": "Ho Chi Minh Sarani",
          "amenity": "fast_food",
          "indoor_seating": "yes",
          "name": "Mr. Veggie",
          "opening_hours": "24/7"
        }
      },
      {
        "type": "node",
        "id": 6698475385,
        "lat": 22.54559,
        "lon": 88.3495059,
        "tags": {
          "amenity": "atm",
          "brand": "State Bank of India",
          "brand:wikidata": "Q1340361",
          "cash_in": "no",
          "operator": "State Bank of India",
          "operator:wikidata": "Q1340361",
          "short_name": "SBI"
        }
      },
      {
        "type": "node",
        "id": 7030447585,
        "lat": 22.5406686,
        "lon": 88.3539831,
        "tags": {
          "amenity": "cafe",
          "name": "Artsy Coffee & Culture"
        }
      },
      {
        "type": "node",
        "id": 7030508385,
        "lat": 22.5384486,
        "lon": 88.3542805,
        "tags": {
          "amenity": "cafe",
          "name": "Piccadilly Square"
        }
      },
      {
        "type": "node",
        "id": 7030539485,
        "lat": 22.5497952,
        "lon": 88.3503077,
        "tags": {
          "amenity": "restaurant",
          "name": "Biggies Burgers \u2018n\u2019 More"
        }
      },
      {
        "type": "node",
        "id": 7035507885,
        "lat": 22.5422132,
        "lon": 88.3516251,
        "tags": {
          "amenity": "restaurant",
          "name": "Street food stalls"
        }
      },
      {
        "type": "node",
        "id": 7048136974,
        "lat": 22.5474203,
        "lon": 88.3592599,
        "tags": {
          "addr:district": "Kolkata",
          "addr:full": "2, Rawdon Street",
          "addr:postcode": "700017",
          "addr:state": "West Bengal",
          "amenity": "hospital",
          "healthcare": "hospital",
          "healthcare:speciality": "paediatric_surgery",
          "name": "Bhagirathi Neotia Woman And Child Care Centre",
          "source": "OpenGovernmentData"
        }
      },
      {
        "type": "node",
        "id": 7048456215,
        "lat": 22.5424238,
        "lon": 88.3554102,
        "tags": {
          "addr:district": "Kolkata",
          "addr:full": "10, Loudon Street,Elgin",
          "addr:postcode": "700017",
          "addr:state": "West Bengal",
          "amenity": "hospital",
          "check_date": "2023-10-28",
          "email": "info@birlaeye.com",
          "healthcare": "hospital",
          "name": "Priyamvada Birla Aravind Eye Hospital",
          "opening_hours": "Mo-Sa 08:30-17:30",
          "operator:type": "private",
          "phone": "03322894343",
          "source": "OpenGovernmentData",
          "website": "www.birlaeye.org"
        }
      },
      {
        "type": "node",
        "id": 7048489106,
        "lat": 22.542529,
        "lon": 88.3651547,
        "tags": {
          "addr:district": "Kolkata",
          "addr:full": "42,Sk Mujibur Rahman Sarani,Circus Avenue, Beck Bagan",
          "addr:postcode": "700017",
          "addr:state": "West Bengal",
          "amenity": "hospital",
          "healthcare": "hospital",
          "name": "Harvard Medicare And Research Institute (P) Ltd.",
          "source": "OpenGovernmentData"
        }
      },
      {
        "type": "node",
        "id": 7048590774,
        "lat": 22.5477696,
        "lon": 88.3542247,
        "tags": {
          "addr:district": "Kolkata",
          "addr:full": "4 A, Wood Street",
          "addr:postcode": "700016",
          "addr:state": "West Bengal",
          "amenity": "hospital",
          "healthcare": "hospital",
          "name": "Life Line Diagnostic Centre And Nursing Home",
          "source": "OpenGovernmentData"
        }
      },
      {
        "type": "node",
        "id": 7050646692,
        "lat": 22.5538559,
        "lon": 88.354917,
        "tags": {
          "addr:district": "Kolkata",
          "addr:housenumber": "114A;114B",
          "addr:postcode": "700016",
          "addr:state": "West Bengal",
          "addr:street": "Ripon Street",
          "amenity": "clinic",
          "healthcare": "clinic",
          "healthcare:speciality": "gynaecology;ophthalmology;orthopaedics",
          "name": "Mayflower Nursing Home",
          "source": "OpenGovernmentData"
        }
      },
      {
        "type": "node",
        "id": 7050661963,
        "lat": 22.5403082,
        "lon": 88.3550012,
        "tags": {
          "addr:district": "Kolkata",
          "addr:full": "15/2,Sarat Bose Road",
          "addr:postcode": "700020",
          "addr:state": "West Bengal",
          "amenity": "hospital",
          "healthcare": "hospital",
          "healthcare:speciality": "orthopaedics",
          "name": "The Orthopaedic And Fracture Clinic",
          "source": "OpenGovernmentData"
        }
      },
      {
        "type": "node",
        "id": 7050974464,
        "lat": 22.546022,
        "lon": 88.3515425,
        "tags": {
          "addr:district": "Kolkata",
          "addr:full": "11, Shakespeare Sarani Road",
          "addr:housenumber": "11",
          "addr:postcode": "700071",
          "addr:state": "West Bengal",
          "addr:street": "Shakespeare Sarani",
          "amenity": "hospital",
          "check_date": "2023-10-28",
          "email": "admin@nightingalehospital.com",
          "healthcare": "hospital",
          "name": "Nightingale Hospital",
          "opening_hours": "24/7",
          "operator:type": "private",
          "phone": "03335005949",
          "source": "OpenGovernmentData",
          "website": "https://nightingalehospital.com/",
          "wikidata": "Q30270145"
        }
      },
      {
        "type": "node",
        "id": 7051208986,
        "lat": 22.539975,
        "lon": 88.3618898,
        "tags": {
          "addr:district": "Kolkata",
          "addr:full": "32-A,Lower Range Road",
          "addr:postcode": "700017",
          "addr:state": "West Bengal",
          "amenity": "hospital",
          "healthcare": "hospital",
          "healthcare:speciality": "ophthalmology",
          "name": "Farsight Eye Research Centre",
          "source": "OpenGovernmentData"
        }
      },
      {
        "type": "node",
        "id": 7051230850,
        "lat": 22.5395258,
        "lon": 88.3621646,
        "tags": {
          "addr:district": "Kolkata",
          "addr:full": "40A, Beck Bagan Row",
          "addr:postcode": "700029",
          "addr:state": "West Bengal",
          "amenity": "hospital",
          "healthcare": "hospital",
          "name": "Implant House Laser and Diagnostic Centre",
          "source": "OpenGovernmentData"
        }
      },
      {
        "type": "node",
        "id": 7051268560,
        "lat": 22.5522894,
        "lon": 88.3527676,
        "tags": {
          "amenity": "restaurant",
          "brand": "Pizza Hut",
          "brand:wikidata": "Q191615",
          "cuisine": "pizza",
          "name": "Pizza Hut"
        }
      },
      {
        "type": "node",
        "id": 7051316710,
        "lat": 22.5446657,
        "lon": 88.3551662,
        "tags": {
          "addr:district": "Kolkata",
          "addr:full": "3 - B, Albert Road",
          "addr:postcode": "700017",
          "addr:state": "West Bengal",
          "amenity": "hospital",
          "healthcare": "hospital",
          "name": "Gamma Centauri Health Care P Ltd.,",
          "source": "OpenGovernmentData"
        }
      },
      {
        "type": "node",
        "id": 7052222455,
        "lat": 22.5510505,
        "lon": 88.3539733,
        "tags": {
          "addr:postcode": "700071",
          "amenity": "restaurant",
          "check_date": "2023-10-28",
          "contact:phone": "+91 1800 108 6060",
          "level": "1",
          "name": "Barbeque Nation",
          "website": "https://www.barbequenation.com/restaurants/kolkata/park-street?utm_source=GMB&utm_medium=kolkata_park_street&utm_campaign=GMB_kolkata_park_street"
        }
      },
      {
        "type": "node",
        "id": 7052489793,
        "lat": 22.5450797,
        "lon": 88.3514472,
        "tags": {
          "addr:housenumber": "16B",
          "addr:postcode": "700071",
          "addr:street": "Shakespeare Sarani",
          "amenity": "pharmacy",
          "contact:phone": "+91 33 2865 1107;+91 33 4602 0729",
          "healthcare": "pharmacy",
          "level": "0",
          "name": "Plaza Medico",
          "wheelchair": "no"
        }
      },
      {
        "type": "node",
        "id": 7052489796,
        "lat": 22.5456937,
        "lon": 88.3510079,
        "tags": {
          "amenity": "bank",
          "atm": "yes",
          "brand": "Deutsche Bank",
          "brand:wikidata": "Q66048",
          "name": "Deutsche Bank"
        }
      },
      {
        "type": "node",
        "id": 7053446874,
        "lat": 22.5417995,
        "lon": 88.3612588,
        "tags": {
          "addr:district": "Kolkata",
          "addr:full": "5/1A, Nurulla Doctor Lane, Behind Bangladesh High Commissioner Office",
          "addr:postcode": "700017",
          "addr:state": "West Bengal",
          "amenity": "clinic",
          "healthcare": "clinic",
          "name": "Sana Nursing Home",
          "source": "OpenGovernmentData"
        }
      },
      {
        "type": "node",
        "id": 7053793927,
        "lat": 22.5534236,
        "lon": 88.3560195,
        "tags": {
          "addr:district": "Kolkata",
          "addr:housenumber": "5/1",
          "addr:postcode": "700016",
          "addr:state": "West Bengal",
          "addr:street": "Muzaffar Ahmed Street",
          "amenity": "pharmacy",
          "healthcare": "pharmacy",
          "level": "0",
          "name": "Ross Healthcare",
          "wheelchair": "no"
        }
      },
      {
        "type": "node",
        "id": 7053793930,
        "lat": 22.5537095,
        "lon": 88.3544382,
        "tags": {
          "addr:housenumber": "1/1C",
          "addr:postcode": "700016",
          "addr:street": "Ripon Street",
          "amenity": "restaurant",
          "check_date": "2023-10-28",
          "cuisine": "bengali",
          "delivery": "yes",
          "level": "0",
          "name": "Koshe Kosha",
          "opening_hours": "11:00-23:00",
          "phone": "09830949494"
        }
      },
      {
        "type": "node",
        "id": 7053870657,
        "lat": 22.5428721,
        "lon": 88.3561304,
        "tags": {
          "addr:district": "Kolkata",
          "addr:full": "8Th Floor Maruti Building 12 U N Brahmachari Street, loudon street",
          "addr:postcode": "700017",
          "addr:state": "West Bengal",
          "amenity": "clinic",
          "contact:phone": "03322817780;22817781",
          "healthcare": "clinic",
          "name": "MP Birla Eye Clinic",
          "source": "OpenGovernmentData"
        }
      },
      {
        "type": "node",
        "id": 7053904328,
        "lat": 22.552661,
        "lon": 88.3634217,
        "tags": {
          "addr:district": "Kolkata",
          "addr:full": "52, Ripon Street",
          "addr:postcode": "700016",
          "addr:state": "West Bengal",
          "amenity": "clinic",
          "healthcare": "clinic",
          "name": "Ripon Nursing Home",
          "source": "OpenGovernmentData"
        }
      },
      {
        "type": "node",
        "id": 7054075557,
        "lat": 22.5501622,
        "lon": 88.3537841,
        "tags": {
          "amenity": "bank",
          "atm": "yes",
          "branch": "Park Street",
          "brand": "Canara Bank",
          "brand:en": "Canara Bank",
          "brand:hi": "\u0915\u0947\u0928\u0930\u093e \u092c\u0948\u0902\u0915",
          "brand:kn": "\u0c95\u0cc6\u0ca8\u0cb0\u0cbe \u0cac\u0ccd\u0caf\u0cbe\u0c82\u0c95\u0ccd",
          "brand:pa": "\u0a15\u0a47\u0a28\u0a30\u0a3e \u0a2c\u0a48\u0a02\u0a15",
          "brand:pnb": "\u06a9\u06cc\u0646\u0631\u0627 \u0628\u06cc\u0646\u06a9",
          "brand:ur": "\u06a9\u06cc\u0646\u0631\u0627 \u0628\u06cc\u0646\u06a9",
          "brand:wikidata": "Q2003777",
          "name": "Canara Bank",
          "name:en": "Canara Bank",
          "name:hi": "\u0915\u0947\u0928\u0930\u093e \u092c\u0948\u0902\u0915",
          "name:kn": "\u0c95\u0cc6\u0ca8\u0cb0\u0cbe \u0cac\u0ccd\u0caf\u0cbe\u0c82\u0c95\u0ccd",
          "name:pa": "\u0a15\u0a47\u0a28\u0a30\u0a3e \u0a2c\u0a48\u0a02\u0a15",
          "name:pnb": "\u06a9\u06cc\u0646\u0631\u0627 \u0628\u06cc\u0646\u06a9",
          "name:ur": "\u06a9\u06cc\u0646\u0631\u0627 \u0628\u06cc\u0646\u06a9"
        }
      },
      {
        "type": "node",
        "id": 7054075560,
        "lat": 22.5505406,
        "lon": 88.3553144,
        "tags": {
          "amenity": "fast_food",
          "cuisine": "south_indian;north_indian;sandwich",
          "diet:lacto_vegetarian": "only",
          "name": "Hunger Street"
        }
      },
      {
        "type": "node",
        "id": 7055109482,
        "lat": 22.551651,
        "lon": 88.352408,
        "tags": {
          "amenity": "fast_food",
          "cuisine": "chinese;roll",
          "diet:lacto_vegetarian": "yes",
          "level": "0;1",
          "name": "Roll It Out",
          "opening_hours": "Mo-Su 10:00-22:00",
          "payment:cash": "yes",
          "wheelchair": "limited"
        }
      },
      {
        "type": "node",
        "id": 7055148104,
        "lat": 22.5474409,
        "lon": 88.3506739,
        "tags": {
          "alcohol": "yes",
          "amenity": "restaurant",
          "name": "Gabber's Bar and Kitchen"
        }
      },
      {
        "type": "node",
        "id": 7055909438,
        "lat": 22.5537671,
        "lon": 88.3546443,
        "tags": {
          "amenity": "fast_food",
          "drink:lassi": "served",
          "level": "0",
          "name": "Thandai Dhaba",
          "shop": "beverages"
        }
      },
      {
        "type": "node",
        "id": 7056105395,
        "lat": 22.5522713,
        "lon": 88.3522881,
        "tags": {
          "amenity": "restaurant",
          "name": "Carpe Diem"
        }
      },
      {
        "type": "node",
        "id": 7059574504,
        "lat": 22.5532467,
        "lon": 88.3531768,
        "tags": {
          "amenity": "restaurant",
          "name": "Mocambo"
        }
      },
      {
        "type": "node",
        "id": 7059693020,
        "lat": 22.5517162,
        "lon": 88.3535019,
        "tags": {
          "amenity": "restaurant",
          "contact:phone": "+91 33 3399 9610",
          "contact:website": "http://mamagoto.in",
          "level": "0",
          "name": "MamaGoto",
          "opening_hours": "Mo-Su 12:00-23:30",
          "wheelchair": "no"
        }
      },
      {
        "type": "node",
        "id": 7059693031,
        "lat": 22.551308,
        "lon": 88.3556197,
        "tags": {
          "amenity": "fast_food",
          "cuisine": "continental;chinese;thai",
          "name": "Starters"
        }
      },
      {
        "type": "node",
        "id": 7062120846,
        "lat": 22.5427124,
        "lon": 88.3664475,
        "tags": {
          "addr:district": "Kolkata",
          "addr:full": "94, Park Street, Park Circus",
          "addr:housenumber": "2",
          "addr:place": "Syed Amir Ali Avenue",
          "addr:postcode": "700017",
          "addr:state": "West Bengal",
          "amenity": "hospital",
          "check_date": "2023-12-16",
          "emergency": "yes",
          "healthcare": "hospital",
          "internet_access": "wlan",
          "internet_access:fee": "customers",
          "name": "Islamia Medical Institute",
          "operator:type": "government",
          "payment:cash": "yes",
          "payment:mastercard": "yes",
          "payment:visa": "yes",
          "source": "OpenGovernmentData",
          "wheelchair": "yes"
        }
      },
      {
        "type": "node",
        "id": 7062656675,
        "lat": 22.5415518,
        "lon": 88.3530942,
        "tags": {
          "addr:district": "Kolkata",
          "addr:full": "4,Gorky Terrace, Park Medical Research Society",
          "addr:postcode": "700017",
          "addr:state": "West Bengal",
          "amenity": "clinic",
          "healthcare": "clinic",
          "name": "Park Clinic, Kolkata",
          "source": "OpenGovernmentData",
          "website": "parkclinickolkata.in"
        }
      },
      {
        "type": "node",
        "id": 7065866504,
        "lat": 22.5534735,
        "lon": 88.3598238,
        "tags": {
          "addr:district": "Kolkata",
          "addr:full": "D/178, Shastri Avenue, Durgapur",
          "addr:postcode": "713212",
          "addr:state": "West Bengal",
          "amenity": "clinic",
          "healthcare": "clinic",
          "name": "Heritage Clinic and Nursing Home",
          "source": "OpenGovernmentData"
        }
      },
      {
        "type": "node",
        "id": 7069112434,
        "lat": 22.5410414,
        "lon": 88.3618113,
        "tags": {
          "addr:district": "Kolkata",
          "addr:full": "14, Circus Avenue",
          "addr:postcode": "700017",
          "addr:state": "West Bengal",
          "amenity": "hospital",
          "healthcare": "hospital",
          "name": "East End Nursing Home",
          "source": "OpenGovernmentData"
        }
      },
      {
        "type": "node",
        "id": 7071458833,
        "lat": 22.5478931,
        "lon": 88.3602614,
        "tags": {
          "addr:district": "Kolkata",
          "addr:full": "125/1 Park Street",
          "addr:postcode": "700017",
          "addr:state": "West Bengal",
          "amenity": "hospital",
          "email": "email@momhospital.org",
          "healthcare": "hospital",
          "name": "Mission Of Mercy Hospital And Research Centre",
          "phone": "+91 983 600 8484",
          "source": "OpenGovernmentData",
          "website": "https://mercyhealthcare.org.in/"
        }
      },
      {
        "type": "node",
        "id": 7071677083,
        "lat": 22.5408036,
        "lon": 88.3584841,
        "tags": {
          "addr:district": "Kolkata",
          "addr:full": "68, Ballygunge Circular Road",
          "addr:postcode": "700019",
          "addr:state": "West Bengal",
          "amenity": "hospital",
          "check_date": "2023-10-04",
          "healthcare": "hospital",
          "name": "Lions Club Of Calcutta",
          "source": "OpenGovernmentData"
        }
      },
      {
        "type": "node",
        "id": 7347106985,
        "lat": 22.5526129,
        "lon": 88.3559162,
        "tags": {
          "amenity": "restaurant"
        }
      },
      {
        "type": "node",
        "id": 7668176293,
        "lat": 22.552075,
        "lon": 88.363293,
        "tags": {
          "addr:district": "Kolkata",
          "addr:full": "Acharya Jagadish Chandra Bose Road, Rippon Street, Taltala",
          "addr:postcode": "700017",
          "addr:state": "West Bengal",
          "amenity": "hospital",
          "healthcare": "hospital",
          "name": "Mission Hospital",
          "source": "Local Knowledge"
        }
      },
      {
        "type": "node",
        "id": 7668176307,
        "lat": 22.5444397,
        "lon": 88.3596261,
        "tags": {
          "addr:district": "Kolkata",
          "addr:full": "Kala Mandir, Shakespeare Sarani Road, Mullick Bazar, Park Street Area",
          "addr:postcode": "700017",
          "addr:state": "West Bengal",
          "amenity": "hospital",
          "healthcare": "hospital",
          "name": "Miot Hospitals",
          "source": "Local Knowledge"
        }
      },
      {
        "type": "node",
        "id": 11655595569,
        "lat": 22.5446896,
        "lon": 88.3552612,
        "tags": {
          "amenity": "restaurant",
          "cuisine": "indian",
          "name": "Idlygo"
        }
      }
    ]
  },
  "pois_2_5km": {
    "version": 0.6,
    "generator": "Overpass API 0.7.62.8 e802775f",
    "osm3s": {
      "timestamp_osm_base": "2025-09-06T09:42:41Z",
      "copyright": "The data included in this document is from www.openstreetmap.org. The data is made available under ODbL."
    },
    "elements": [
      {
        "type": "node",
        "id": 1274128857,
        "lat": 22.5405657,
        "lon": 88.3738598,
        "tags": {
          "name": "Park Circus",
          "name:bn": "\u09aa\u09be\u09b0\u09cd\u0995 \u09b8\u09be\u09b0\u09cd\u0995\u09be\u09b8",
          "network": "IR",
          "operator": "ER",
          "public_transport": "station",
          "railway": "station",
          "ref": "PQS",
          "train": "yes",
          "wheelchair": "no",
          "wikidata": "Q56278569",
          "wikipedia": "en:Park Circus railway station"
        }
      },
      {
        "type": "node",
        "id": 1558109889,
        "lat": 22.5630155,
        "lon": 88.3499708,
        "tags": {
          "name": "Esplanade",
          "network": "WBTC",
          "network:wikidata": "Q7984450",
          "operator": "Calcutta Tramways Company",
          "public_transport": "stop_position",
          "railway": "tram_stop",
          "tram": "yes"
        }
      },
      {
        "type": "node",
        "id": 1686122936,
        "lat": 22.526191,
        "lon": 88.3667029,
        "tags": {
          "amenity": "cinema",
          "check_date": "2023-12-16",
          "name": "London paris cinema"
        }
      },
      {
        "type": "node",
        "id": 1783135288,
        "lat": 22.5274281,
        "lon": 88.365843,
        "tags": {
          "amenity": "fuel",
          "brand": "Bharat Petroleum",
          "brand:wikidata": "Q854826",
          "check_date": "2023-12-16",
          "fuel:GTL_diesel": "yes",
          "fuel:HGV_diesel": "yes",
          "fuel:diesel": "yes",
          "fuel:petrol": "yes",
          "internet_access": "no",
          "name": "Bharat Petroleum",
          "payment:cash": "yes",
          "payment:mastercard": "yes",
          "payment:visa": "yes"
        }
      },
      {
        "type": "node",
        "id": 1860605880,
        "lat": 22.5246096,
        "lon": 88.3525906,
        "tags": {
          "amenity": "fuel"
        }
      },
      {
        "type": "node",
        "id": 2266850249,
        "lat": 22.5648757,
        "lon": 88.3682593,
        "tags": {
          "amenity": "cinema",
          "name": "Prachi Cinema Hall"
        }
      },
      {
        "type": "node",
        "id": 2282742917,
        "lat": 22.5630231,
        "lon": 88.3499934,
        "tags": {
          "name": "Esplanade",
          "network": "WBTC",
          "network:wikidata": "Q7984450",
          "operator": "Calcutta Tramways Company",
          "public_transport": "stop_position",
          "railway": "tram_stop",
          "tram": "yes"
        }
      },
      {
        "type": "node",
        "id": 2282743006,
        "lat": 22.5625734,
        "lon": 88.3497428,
        "tags": {
          "bus": "yes",
          "public_transport": "stop_position"
        }
      },
      {
        "type": "node",
        "id": 2282743009,
        "lat": 22.5626321,
        "lon": 88.349756,
        "tags": {
          "bus": "yes",
          "public_transport": "stop_position"
        }
      },
      {
        "type": "node",
        "id": 2282743012,
        "lat": 22.5626472,
        "lon": 88.3496633,
        "tags": {
          "bus": "yes",
          "public_transport": "stop_position"
        }
      },
      {
        "type": "node",
        "id": 2282743014,
        "lat": 22.5626977,
        "lon": 88.3497576,
        "tags": {
          "bus": "yes",
          "public_transport": "stop_position"
        }
      },
      {
        "type": "node",
        "id": 2282743015,
        "lat": 22.562714,
        "lon": 88.3496679,
        "tags": {
          "bus": "yes",
          "public_transport": "stop_position"
        }
      },
      {
        "type": "node",
        "id": 2282743020,
        "lat": 22.5627477,
        "lon": 88.3497765,
        "tags": {
          "bus": "yes",
          "public_transport": "stop_position"
        }
      },
      {
        "type": "node",
        "id": 2282743024,
        "lat": 22.5627843,
        "lon": 88.3496644,
        "tags": {
          "bus": "yes",
          "public_transport": "stop_position"
        }
      },
      {
        "type": "node",
        "id": 2282743027,
        "lat": 22.5628128,
        "lon": 88.3497815,
        "tags": {
          "bus": "yes",
          "public_transport": "stop_position"
        }
      },
      {
        "type": "node",
        "id": 2282743030,
        "lat": 22.5628313,
        "lon": 88.3496866,
        "tags": {
          "bus": "yes",
          "public_transport": "stop_position"
        }
      },
      {
        "type": "node",
        "id": 2282743034,
        "lat": 22.5628825,
        "lon": 88.3497065,
        "tags": {
          "bus": "yes",
          "public_transport": "stop_position"
        }
      },
      {
        "type": "node",
        "id": 2282743035,
        "lat": 22.5628829,
        "lon": 88.349781,
        "tags": {
          "bus": "yes",
          "public_transport": "stop_position"
        }
      },
      {
        "type": "node",
        "id": 2282743040,
        "lat": 22.5629503,
        "lon": 88.3496335,
        "tags": {
          "bus": "yes",
          "public_transport": "stop_position"
        }
      },
      {
        "type": "node",
        "id": 2282743041,
        "lat": 22.5629521,
        "lon": 88.3497064,
        "tags": {
          "bus": "yes",
          "public_transport": "stop_position"
        }
      },
      {
        "type": "node",
        "id": 2282743046,
        "lat": 22.5629892,
        "lon": 88.3497367,
        "tags": {
          "bus": "yes",
          "public_transport": "stop_position"
        }
      },
      {
        "type": "node",
        "id": 2282743050,
        "lat": 22.5630143,
        "lon": 88.3496395,
        "tags": {
          "bus": "yes",
          "public_transport": "stop_position"
        }
      },
      {
        "type": "node",
        "id": 2282743051,
        "lat": 22.5630362,
        "lon": 88.3496861,
        "tags": {
          "bus": "yes",
          "public_transport": "stop_position"
        }
      },
      {
        "type": "node",
        "id": 2282743056,
        "lat": 22.5630929,
        "lon": 88.3497049,
        "tags": {
          "bus": "yes",
          "public_transport": "stop_position"
        }
      },
      {
        "type": "node",
        "id": 2282743058,
        "lat": 22.5631064,
        "lon": 88.3496105,
        "tags": {
          "bus": "yes",
          "public_transport": "stop_position"
        }
      },
      {
        "type": "node",
        "id": 2282743061,
        "lat": 22.563159,
        "lon": 88.3497046,
        "tags": {
          "bus": "yes",
          "public_transport": "stop_position"
        }
      },
      {
        "type": "node",
        "id": 2282743063,
        "lat": 22.5631731,
        "lon": 88.3496185,
        "tags": {
          "bus": "yes",
          "public_transport": "stop_position"
        }
      },
      {
        "type": "node",
        "id": 2282743067,
        "lat": 22.5632423,
        "lon": 88.3496175,
        "tags": {
          "bus": "yes",
          "public_transport": "stop_position"
        }
      },
      {
        "type": "node",
        "id": 2282743070,
        "lat": 22.5632604,
        "lon": 88.3496656,
        "tags": {
          "bus": "yes",
          "public_transport": "stop_position"
        }
      },
      {
        "type": "node",
        "id": 2282743071,
        "lat": 22.5633311,
        "lon": 88.3495247,
        "tags": {
          "bus": "yes",
          "public_transport": "stop_position"
        }
      },
      {
        "type": "node",
        "id": 2282743074,
        "lat": 22.5633373,
        "lon": 88.3495868,
        "tags": {
          "bus": "yes",
          "public_transport": "stop_position"
        }
      },
      {
        "type": "node",
        "id": 2282743082,
        "lat": 22.563431,
        "lon": 88.3494908,
        "tags": {
          "bus": "yes",
          "public_transport": "stop_position"
        }
      },
      {
        "type": "node",
        "id": 2471894117,
        "lat": 22.5272169,
        "lon": 88.3466356,
        "tags": {
          "amenity": "cinema",
          "name": "Indira Cinema Hall"
        }
      },
      {
        "type": "node",
        "id": 2471903967,
        "lat": 22.5278661,
        "lon": 88.3455882,
        "tags": {
          "amenity": "fuel",
          "building": "yes"
        }
      },
      {
        "type": "node",
        "id": 2703677642,
        "lat": 22.5653921,
        "lon": 88.350601,
        "tags": {
          "name": "Esplanade",
          "public_transport": "station",
          "tram": "yes"
        }
      },
      {
        "type": "node",
        "id": 2703686631,
        "lat": 22.5630392,
        "lon": 88.3585179,
        "tags": {
          "name": "Lenin Sarani/Nirmal Chandra Dev Street",
          "public_transport": "stop_position",
          "railway": "tram_stop",
          "tram": "yes"
        }
      },
      {
        "type": "node",
        "id": 2703690674,
        "lat": 22.5664558,
        "lon": 88.3598884,
        "tags": {
          "name": "Nirmal Chandra Dev Street",
          "public_transport": "stop_position",
          "railway": "tram_stop",
          "tram": "yes"
        }
      },
      {
        "type": "node",
        "id": 2720315284,
        "lat": 22.5646322,
        "lon": 88.3685259,
        "tags": {
          "name": "Acharya Jagadish Chandra  Bose Rd / Sealdah",
          "public_transport": "stop_position",
          "railway": "tram_stop",
          "tram": "yes"
        }
      },
      {
        "type": "node",
        "id": 2720337270,
        "lat": 22.5614921,
        "lon": 88.3672021,
        "tags": {
          "name": "Acharya Prafulla Chandra Road / Lenin Sarani",
          "public_transport": "stop_position",
          "railway": "tram_stop",
          "tram": "yes"
        }
      },
      {
        "type": "node",
        "id": 2720702706,
        "lat": 22.5424807,
        "lon": 88.3659928,
        "tags": {
          "name": "Park Circus",
          "public_transport": "stop_position",
          "railway": "tram_stop",
          "tram": "yes"
        }
      },
      {
        "type": "node",
        "id": 2721264604,
        "lat": 22.5258882,
        "lon": 88.3660841,
        "tags": {
          "name": "Gariahat Depot",
          "public_transport": "stop_position",
          "railway": "tram_stop",
          "tram": "yes"
        }
      },
      {
        "type": "node",
        "id": 2721384860,
        "lat": 22.5525664,
        "lon": 88.3561356,
        "tags": {
          "name": "Rafi Ahmad Kidwai Road / Elliot Road",
          "public_transport": "stop_position",
          "railway": "tram_stop",
          "tram": "yes"
        }
      },
      {
        "type": "node",
        "id": 2721388718,
        "lat": 22.5504601,
        "lon": 88.3628985,
        "tags": {
          "name": "Acharya Jagadish Chandra Bose Road / Elliot Road",
          "public_transport": "stop_position",
          "railway": "tram_stop",
          "tram": "yes"
        }
      },
      {
        "type": "node",
        "id": 2776950395,
        "lat": 22.5426967,
        "lon": 88.3662093,
        "tags": {
          "addr:housenumber": "2",
          "addr:place": "Syed Amir Ali Avenue",
          "amenity": "fuel",
          "brand": "Bharat Petroleum",
          "brand:wikidata": "Q854826",
          "check_date": "2023-12-16",
          "fuel:diesel": "yes",
          "fuel:petrol": "yes",
          "internet_access": "no",
          "name": "Bharat Petroleum",
          "payment:cash": "yes",
          "payment:mastercard": "yes",
          "payment:visa": "yes",
          "wheelchair": "no"
        }
      },
      {
        "type": "node",
        "id": 2907641509,
        "lat": 22.5545324,
        "lon": 88.36431,
        "tags": {
          "amenity": "fuel"
        }
      },
      {
        "type": "node",
        "id": 4176886089,
        "lat": 22.5384051,
        "lon": 88.3513137,
        "tags": {
          "addr:housenumber": "10/3",
          "addr:postcode": "700020",
          "addr:street": "Elgin Lane",
          "air_conditioning": "yes",
          "amenity": "cinema",
          "brand": "INOX Leisure",
          "brand:wikidata": "Q5972349",
          "check_date": "2023-10-28",
          "name": "INOX Cinema",
          "short_name": "INOX",
          "website": "https://m.inoxmovies.com/",
          "wheelchair": "yes"
        }
      },
      {
        "type": "node",
        "id": 4178800814,
        "lat": 22.564821,
        "lon": 88.3514471,
        "tags": {
          "amenity": "bus_station",
          "bus": "yes",
          "name": "Esplanade",
          "public_transport": "station"
        }
      },
      {
        "type": "node",
        "id": 4180455089,
        "lat": 22.5451589,
        "lon": 88.3703737,
        "tags": {
          "amenity": "bus_station",
          "bus": "yes",
          "public_transport": "station",
          "wheelchair": "no"
        }
      },
      {
        "type": "node",
        "id": 4368104697,
        "lat": 22.566769,
        "lon": 88.351883,
        "tags": {
          "amenity": "cinema",
          "name": "Paradise Cinema",
          "source": "survey",
          "wikidata": "Q7134255",
          "wikipedia": "en:Paradise Cinema (Kolkata)"
        }
      },
      {
        "type": "node",
        "id": 4393356789,
        "lat": 22.5493149,
        "lon": 88.3535578,
        "tags": {
          "amenity": "fuel",
          "brand": "Bharat Petroleum",
          "brand:wikidata": "Q854826",
          "name": "Bharat Petroleum"
        }
      },
      {
        "type": "node",
        "id": 4834783222,
        "lat": 22.5625693,
        "lon": 88.3495988,
        "tags": {
          "amenity": "bus_station",
          "bus": "yes",
          "name": "Esplanade Bus Stand to Airport (line VS2)",
          "name:en": "Esplanade Bus Stand to Airport (line VS2)",
          "public_transport": "station"
        }
      },
      {
        "type": "node",
        "id": 4845192821,
        "lat": 22.5520205,
        "lon": 88.3717304,
        "tags": {
          "amenity": "fuel",
          "brand": "Bharat Petroleum",
          "brand:wikidata": "Q854826",
          "compressed_air": "yes",
          "name": "Bharat Petroleum",
          "name:en": "Bharat Petroleum"
        }
      },
      {
        "type": "node",
        "id": 4868040723,
        "lat": 22.5498214,
        "lon": 88.3560088,
        "tags": {
          "amenity": "fuel",
          "brand": "Bharat Petroleum",
          "brand:wikidata": "Q854826",
          "brand:wikipedia": "en:Bharat Petroleum",
          "check_date": "2023-10-04",
          "name": "Bharat Petroleum",
          "name:en": "Bharat Petroleum"
        }
      },
      {
        "type": "node",
        "id": 4868040823,
        "lat": 22.5513864,
        "lon": 88.3542235,
        "tags": {
          "amenity": "fuel",
          "brand": "Hindustan Petroleum",
          "brand:wikidata": "Q1619375",
          "name": "HP",
          "official_name": "Hindustan Petroleum"
        }
      },
      {
        "type": "node",
        "id": 4891338224,
        "lat": 22.5612312,
        "lon": 88.3588968,
        "tags": {
          "amenity": "fuel",
          "brand": "Bharat Petroleum",
          "brand:wikidata": "Q854826",
          "name": "Bharat Petroleum",
          "name:en": "Bharat Petroleum"
        }
      },
      {
        "type": "node",
        "id": 5271335721,
        "lat": 22.5387245,
        "lon": 88.3655643,
        "tags": {
          "amenity": "cinema",
          "brand": "INOX Leisure",
          "brand:wikidata": "Q5972349",
          "name": "Inox quest cinema",
          "short_name": "INOX"
        }
      },
      {
        "type": "node",
        "id": 5421528503,
        "lat": 22.5551591,
        "lon": 88.3501171,
        "tags": {
          "name": "Park Street",
          "name:bn": "\u09aa\u09be\u09b0\u09cd\u0995 \u09b8\u09cd\u099f\u09cd\u09b0\u09c0\u099f",
          "network": "Kolkata Metro",
          "network:wikidata": "Q1048849",
          "operator": "Metro Railway, Kolkata",
          "public_transport": "station",
          "railway": "station",
          "station": "subway",
          "subway": "yes",
          "wikidata": "Q7138060",
          "wikipedia": "en:Park Street metro station (Kolkata)"
        }
      },
      {
        "type": "node",
        "id": 5421541284,
        "lat": 22.5331821,
        "lon": 88.3459269,
        "tags": {
          "name": "Netaji Bhavan",
          "name:bn": "\u09a8\u09c7\u09a4\u09be\u099c\u09bf \u09ad\u09ac\u09a8",
          "network": "Kolkata Metro",
          "network:wikidata": "Q1048849",
          "operator": "Metro Railway, Kolkata",
          "public_transport": "station",
          "railway": "station",
          "station": "subway",
          "subway": "yes",
          "wheelchair": "limited",
          "wikidata": "Q6998599",
          "wikipedia": "en:Netaji Bhavan metro station"
        }
      },
      {
        "type": "node",
        "id": 5421542551,
        "lat": 22.5414899,
        "lon": 88.3473493,
        "tags": {
          "name": "Rabindra Sadan",
          "name:bn": "\u09b0\u09ac\u09c0\u09a8\u09cd\u09a6\u09cd\u09b0 \u09b8\u09a6\u09a8",
          "network": "Kolkata Metro",
          "network:wikidata": "Q1048849",
          "operator": "Metro Railway, Kolkata",
          "public_transport": "station",
          "railway": "station",
          "station": "subway",
          "subway": "yes",
          "wikidata": "Q7278756",
          "wikipedia": "en:Rabindra Sadan metro station"
        }
      },
      {
        "type": "node",
        "id": 5421543288,
        "lat": 22.5494672,
        "lon": 88.3487883,
        "tags": {
          "name": "Maidan",
          "name:bn": "\u09ae\u09af\u09bc\u09a6\u09be\u09a8",
          "network": "Kolkata Metro",
          "network:wikidata": "Q1048849",
          "operator": "Metro Railway, Kolkata",
          "public_transport": "station",
          "railway": "station",
          "station": "subway",
          "subway": "yes",
          "wikidata": "Q6735340",
          "wikipedia": "en:Maidan metro station"
        }
      },
      {
        "type": "node",
        "id": 5421543316,
        "lat": 22.5670118,
        "lon": 88.3541581,
        "tags": {
          "name": "Chandni Chowk",
          "name:bn": "\u099a\u09be\u0981\u09a6\u09a8\u09bf \u099a\u0995",
          "network": "Kolkata Metro",
          "operator": "Metro Railway, Kolkata",
          "public_transport": "station",
          "railway": "station",
          "station": "subway",
          "subway": "yes",
          "wikidata": "Q5071229",
          "wikipedia": "en:Chandni Chowk metro station (Kolkata)"
        }
      },
      {
        "type": "node",
        "id": 5421545051,
        "lat": 22.5636143,
        "lon": 88.3512099,
        "tags": {
          "name": "Esplanade (Line 1)",
          "name:bn": "\u098f\u09b8\u09aa\u09cd\u09b2\u09cd\u09af\u09be\u09a8\u09c7\u09a1",
          "network": "Kolkata Metro",
          "network:wikidata": "Q1048849",
          "operator": "Metro Railway, Kolkata",
          "public_transport": "station",
          "railway": "station",
          "station": "subway",
          "subway": "yes",
          "wikidata": "Q5399030",
          "wikipedia": "en:Esplanade metro station"
        }
      },
      {
        "type": "node",
        "id": 5777572592,
        "lat": 22.5670985,
        "lon": 88.3543062,
        "tags": {
          "name": "Chandni Chowk",
          "name:bn": "\u099a\u09be\u0981\u09a6\u09a8\u09bf \u099a\u0995",
          "network": "Kolkata Metro",
          "operator": "Metro Railway, Kolkata",
          "public_transport": "stop_position",
          "railway": "stop",
          "subway": "yes"
        }
      },
      {
        "type": "node",
        "id": 6135360360,
        "lat": 22.5530094,
        "lon": 88.353021,
        "tags": {
          "amenity": "fuel",
          "brand": "Indian Oil",
          "brand:wikidata": "Q1289348",
          "name": "Indian Oil",
          "toilets": "yes"
        }
      },
      {
        "type": "node",
        "id": 6135361871,
        "lat": 22.5478778,
        "lon": 88.3530567,
        "tags": {
          "amenity": "fuel",
          "brand": "Hindustan Petroleum",
          "brand:wikidata": "Q1619375",
          "name": "HP",
          "official_name": "Hindustan Petroleum"
        }
      },
      {
        "type": "node",
        "id": 6135361872,
        "lat": 22.54208,
        "lon": 88.3515791,
        "tags": {
          "amenity": "fuel",
          "brand": "Indian Oil",
          "brand:wikidata": "Q1289348",
          "name": "Indian Oil"
        }
      },
      {
        "type": "node",
        "id": 6135362906,
        "lat": 22.5348072,
        "lon": 88.3620549,
        "tags": {
          "amenity": "fuel",
          "brand": "Indian Oil",
          "brand:wikidata": "Q1289348",
          "name": "Indian Oil"
        }
      },
      {
        "type": "node",
        "id": 6135363494,
        "lat": 22.5407554,
        "lon": 88.3578473,
        "tags": {
          "amenity": "fuel",
          "brand": "Bharat Petroleum",
          "brand:wikidata": "Q854826",
          "name": "Bharat Petroleum"
        }
      },
      {
        "type": "node",
        "id": 6135364027,
        "lat": 22.5438555,
        "lon": 88.3608132,
        "tags": {
          "amenity": "fuel",
          "brand": "Hindustan Petroleum",
          "brand:wikidata": "Q1619375",
          "name": "HP",
          "official_name": "Hindustan Petroleum"
        }
      },
      {
        "type": "node",
        "id": 6141500453,
        "lat": 22.5474462,
        "lon": 88.3516232,
        "tags": {
          "amenity": "theatre",
          "name": "Satyajit Ray Auditorium",
          "name:etymology:wikidata": "Q8873"
        }
      },
      {
        "type": "node",
        "id": 6143232250,
        "lat": 22.5652459,
        "lon": 88.3499944,
        "tags": {
          "amenity": "bus_station",
          "bus": "yes",
          "name": "Esplanade",
          "public_transport": "station",
          "tram": "yes"
        }
      },
      {
        "type": "node",
        "id": 6447832086,
        "lat": 22.546329,
        "lon": 88.3620691,
        "tags": {
          "amenity": "cinema",
          "name:ja": "\u30d1\u30fc\u30af\u30b7\u30e7\u30fc\u30cf\u30a6\u30b9"
        }
      },
      {
        "type": "node",
        "id": 6520727185,
        "lat": 22.5412219,
        "lon": 88.3492589,
        "tags": {
          "amenity": "fuel",
          "name": "India Tradeing Petrol Station"
        }
      },
      {
        "type": "node",
        "id": 7053793926,
        "lat": 22.5538259,
        "lon": 88.3557671,
        "tags": {
          "amenity": "fuel",
          "brand": "Indian Oil",
          "brand:wikidata": "Q1289348",
          "name": "Indian Oil"
        }
      },
      {
        "type": "node",
        "id": 7661285882,
        "lat": 22.5425257,
        "lon": 88.3659741,
        "tags": {
          "name": "Park Circus",
          "public_transport": "stop_position",
          "railway": "tram_stop",
          "tram": "yes"
        }
      },
      {
        "type": "node",
        "id": 9057837717,
        "lat": 22.5649106,
        "lon": 88.3590689,
        "tags": {
          "addr:city": "KOLKATA",
          "addr:housenumber": "76",
          "addr:postcode": "700013",
          "addr:street": "Ganesh Chandra Road",
          "amenity": "cinema",
          "name": "HIND INOX",
          "opening_hours": "Mo-Su 10:00-22:00",
          "payment:cash": "yes",
          "payment:credit_cards": "yes",
          "payment:debit_cards": "yes",
          "payment:discover_card": "yes",
          "payment:maestro": "yes",
          "payment:mastercard": "yes",
          "payment:notes": "yes",
          "payment:visa": "yes",
          "payment:visa_debit": "yes",
          "screen": "2"
        }
      },
      {
        "type": "node",
        "id": 9717918117,
        "lat": 22.5408647,
        "lon": 88.3680476,
        "tags": {
          "amenity": "charging_station",
          "name": "Electric vehicle charging station",
          "name:en": "Electric vehicle charging station type2-7kw",
          "opening_hours": "24/7"
        }
      },
      {
        "type": "node",
        "id": 9717920317,
        "lat": 22.5665448,
        "lon": 88.3521064,
        "tags": {
          "addr:housenumber": "1",
          "addr:postcode": "700072",
          "addr:street": "Chittaranjan Avenue",
          "amenity": "charging_station",
          "name": "Electric vehicle chargeing station"
        }
      },
      {
        "type": "node",
        "id": 9717923217,
        "lat": 22.5475251,
        "lon": 88.3495487,
        "tags": {
          "addr:housenumber": "43",
          "addr:postcode": "700071",
          "addr:street": "Jawaharlal Nehru Road",
          "amenity": "charging_station",
          "name": "Electric vehicle charging station tata",
          "opening_hours": "24/7",
          "website": "https://nexonev.tatamotors.com/charging-locator/"
        }
      },
      {
        "type": "node",
        "id": 11699268219,
        "lat": 22.5641328,
        "lon": 88.3502238,
        "tags": {
          "name": "Esplanade (Line 2)",
          "name:bn": "\u098f\u09b8\u09aa\u09cd\u09b2\u09cd\u09af\u09be\u09a8\u09c7\u09a1",
          "public_transport": "stop_position",
          "railway": "stop",
          "subway": "yes"
        }
      },
      {
        "type": "node",
        "id": 11699268220,
        "lat": 22.5641817,
        "lon": 88.3502681,
        "tags": {
          "name": "Esplanade (Line 2)",
          "name:bn": "\u098f\u09b8\u09aa\u09cd\u09b2\u09cd\u09af\u09be\u09a8\u09c7\u09a1",
          "public_transport": "stop_position",
          "railway": "stop",
          "subway": "yes"
        }
      },
      {
        "type": "node",
        "id": 11699268221,
        "lat": 22.5636505,
        "lon": 88.351106,
        "tags": {
          "name": "Esplanade (Line 1)",
          "name:bn": "\u098f\u09b8\u09aa\u09cd\u09b2\u09cd\u09af\u09be\u09a8\u09c7\u09a1",
          "network": "Kolkata Metro",
          "operator": "Metro Railway, Kolkata",
          "public_transport": "stop_position",
          "railway": "stop",
          "subway": "yes"
        }
      },
      {
        "type": "node",
        "id": 11699268222,
        "lat": 22.5636389,
        "lon": 88.3511709,
        "tags": {
          "name": "Esplanade (Line 1)",
          "name:bn": "\u098f\u09b8\u09aa\u09cd\u09b2\u09cd\u09af\u09be\u09a8\u09c7\u09a1",
          "network": "Kolkata Metro",
          "operator": "Metro Railway, Kolkata",
          "public_transport": "stop_position",
          "railway": "stop",
          "subway": "yes"
        }
      },
      {
        "type": "node",
        "id": 11703282685,
        "lat": 22.5641292,
        "lon": 88.3502752,
        "tags": {
          "name": "Esplanade (Line 2)",
          "name:bn": "\u098f\u09b8\u09aa\u09cd\u09b2\u09cd\u09af\u09be\u09a8\u09c7\u09a1",
          "network": "Kolkata Metro",
          "network:wikidata": "Q1048849",
          "operator": "Metro Railway, Kolkata",
          "public_transport": "station",
          "railway": "station",
          "ref": "KESP",
          "station": "subway",
          "subway": "yes",
          "wikidata": "Q5399030",
          "wikipedia": "en:Esplanade metro station"
        }
      },
      {
        "type": "node",
        "id": 11703491163,
        "lat": 22.5669164,
        "lon": 88.3540584,
        "tags": {
          "name": "Chandni Chowk",
          "name:bn": "\u099a\u09be\u0981\u09a6\u09a8\u09bf \u099a\u0995",
          "network": "Kolkata Metro",
          "operator": "Metro Railway, Kolkata",
          "public_transport": "stop_position",
          "railway": "stop",
          "subway": "yes"
        }
      },
      {
        "type": "node",
        "id": 11703491164,
        "lat": 22.5549758,
        "lon": 88.3500469,
        "tags": {
          "name": "Park Street",
          "name:bn": "\u09aa\u09be\u09b0\u09cd\u0995 \u09b8\u09cd\u099f\u09cd\u09b0\u09c0\u099f",
          "network": "Kolkata Metro",
          "operator": "Metro Railway, Kolkata",
          "public_transport": "stop_position",
          "railway": "stop",
          "subway": "yes"
        }
      },
      {
        "type": "node",
        "id": 11703491165,
        "lat": 22.5552804,
        "lon": 88.3500414,
        "tags": {
          "name": "Park Street",
          "name:bn": "\u09aa\u09be\u09b0\u09cd\u0995 \u09b8\u09cd\u099f\u09cd\u09b0\u09c0\u099f",
          "network": "Kolkata Metro",
          "operator": "Metro Railway, Kolkata",
          "public_transport": "stop_position",
          "railway": "stop",
          "subway": "yes"
        }
      },
      {
        "type": "node",
        "id": 11703491166,
        "lat": 22.5493752,
        "lon": 88.3487245,
        "tags": {
          "name": "Maidan",
          "name:bn": "\u09ae\u09af\u09bc\u09a6\u09be\u09a8",
          "network": "Kolkata Metro",
          "operator": "Metro Railway, Kolkata",
          "public_transport": "stop_position",
          "railway": "stop",
          "subway": "yes"
        }
      },
      {
        "type": "node",
        "id": 11703491167,
        "lat": 22.5497087,
        "lon": 88.3487474,
        "tags": {
          "name": "Maidan",
          "name:bn": "\u09ae\u09af\u09bc\u09a6\u09be\u09a8",
          "network": "Kolkata Metro",
          "operator": "Metro Railway, Kolkata",
          "public_transport": "stop_position",
          "railway": "stop",
          "subway": "yes"
        }
      },
      {
        "type": "node",
        "id": 11703491168,
        "lat": 22.5414273,
        "lon": 88.3472361,
        "tags": {
          "name": "Rabindra Sadan",
          "name:bn": "\u09b0\u09ac\u09c0\u09a8\u09cd\u09a6\u09cd\u09b0 \u09b8\u09a6\u09a8",
          "network": "Kolkata Metro",
          "operator": "Metro Railway, Kolkata",
          "public_transport": "stop_position",
          "railway": "stop",
          "subway": "yes"
        }
      },
      {
        "type": "node",
        "id": 11703500769,
        "lat": 22.5417879,
        "lon": 88.3472276,
        "tags": {
          "name": "Rabindra Sadan",
          "name:bn": "\u09b0\u09ac\u09c0\u09a8\u09cd\u09a6\u09cd\u09b0 \u09b8\u09a6\u09a8",
          "network": "Kolkata Metro",
          "operator": "Metro Railway, Kolkata",
          "public_transport": "stop_position",
          "railway": "stop",
          "subway": "yes"
        }
      },
      {
        "type": "node",
        "id": 11703500770,
        "lat": 22.5330323,
        "lon": 88.3459483,
        "tags": {
          "name": "Netaji Bhavan",
          "name:bn": "\u09a8\u09c7\u09a4\u09be\u099c\u09bf \u09ad\u09ac\u09a8",
          "network": "Kolkata Metro",
          "operator": "Metro Railway, Kolkata",
          "public_transport": "stop_position",
          "railway": "stop",
          "subway": "yes"
        }
      },
      {
        "type": "node",
        "id": 11703500771,
        "lat": 22.5334398,
        "lon": 88.3459203,
        "tags": {
          "name": "Netaji Bhavan",
          "name:bn": "\u09a8\u09c7\u09a4\u09be\u099c\u09bf \u09ad\u09ac\u09a8",
          "network": "Kolkata Metro",
          "operator": "Metro Railway, Kolkata",
          "public_transport": "stop_position",
          "railway": "stop",
          "subway": "yes"
        }
      }
    ]
  }
}