{
  "pois_1km": {
    "version": 0.6,
    "generator": "Overpass API 0.7.62.8 e802775f",
    "osm3s": {
      "timestamp_osm_base": "2025-09-06T09:36:30Z",
      "copyright": "The data included in this document is from www.openstreetmap.org. The data is made available under ODbL."
    },
    "elements": [
      {
        "type": "node",
        "id": 5574214667,
        "lat": 22.5746479,
        "lon": 88.4097647,
        "tags": {
          "amenity": "bank",
          "branch": "personal banking branch",
          "brand": "State Bank of India",
          "brand:wikidata": "Q1340361",
          "name": "State Bank of India",
          "opening_hours": "Mo-Th, Sa 09:30-16:00; Su 09:30-12:00",
          "short_name": "SBI"
        }
      },
      {
        "type": "node",
        "id": 5576449492,
        "lat": 22.5733134,
        "lon": 88.4091261,
        "tags": {
          "addr:housenumber": "125",
          "addr:street": "IA Block, Sector 3",
          "amenity": "pharmacy",
          "healthcare": "pharmacy",
          "name": "Medicos",
          "opening_hours": "Mo-We, Fr-Su 10:00-21:00"
        }
      },
      {
        "type": "node",
        "id": 5576452047,
        "lat": 22.5732695,
        "lon": 88.4089389,
        "tags": {
          "amenity": "atm",
          "name": "United Bank of India"
        }
      },
      {
        "type": "node",
        "id": 7053438377,
        "lat": 22.5726216,
        "lon": 88.4090735,
        "tags": {
          "addr:district": "Kolkata",
          "addr:full": "IA/173, Salt Lake City,Bidhannagar",
          "addr:postcode": "700097",
          "addr:state": "West Bengal",
          "amenity": "hospital",
          "contact:phone": "3323352681",
          "healthcare": "hospital",
          "name": "Salt Lake Eye Foundation",
          "source": "OpenGovernmentData",
          "website": "eyefoundation.in"
        }
      },
      {
        "type": "node",
        "id": 7062349054,
        "lat": 22.5631533,
        "lon": 88.3977811,
        "tags": {
          "addr:district": "Kolkata",
          "addr:full": "56H, Dr Suresh Chandra Banerjee Road, Beliaghata",
          "addr:postcode": "700010",
          "addr:state": "West Bengal",
          "amenity": "clinic",
          "contact:phone": "03323539586;23539586",
          "healthcare": "clinic",
          "name": "H.P.Poddar Memorial Clinic And Nursing Home",
          "source": "OpenGovernmentData"
        }
      },
      {
        "type": "node",
        "id": 8456994613,
        "lat": 22.5661293,
        "lon": 88.4120199,
        "tags": {
          "leisure": "playground"
        }
      },
      {
        "type": "node",
        "id": 10679793548,
        "lat": 22.5645031,
        "lon": 88.3984031,
        "tags": {
          "addr:city": "kolkata",
          "addr:housenumber": "57",
          "addr:postcode": "700010",
          "addr:street": "beleghata main road",
          "amenity": "hospital",
          "healthcare": "hospital",
          "name": "ID Hospital"
        }
      },
      {
        "type": "node",
        "id": 12424809385,
        "lat": 22.5617776,
        "lon": 88.4071045,
        "tags": {
          "amenity": "pharmacy",
          "name": "Medicine World"
        }
      }
    ]
  },
  "pois_2_5km": {
    "version": 0.6,
    "generator": "Overpass API 0.7.62.8 e802775f",
    "osm3s": {
      "timestamp_osm_base": "2025-09-06T09:36:30Z",
      "copyright": "The data included in this document is from www.openstreetmap.org. The data is made available under ODbL."
    },
    "elements": [
      {
        "type": "node",
        "id": 1742495415,
        "lat": 22.5796113,
        "lon": 88.4257949,
        "tags": {
          "addr:housename": "EE Block, Salt Lake City Kolkata, West Bengal 700091\u200e",
          "amenity": "fuel",
          "brand": "Bharat Petroleum",
          "brand:wikidata": "Q854826",
          "name": "Bharat Petroleum",
          "operator": "HP"
        }
      },
      {
        "type": "node",
        "id": 1850221742,
        "lat": 22.5732985,
        "lon": 88.4135971,
        "tags": {
          "amenity": "cinema",
          "name": "Broadway"
        }
      },
      {
        "type": "node",
        "id": 2017123229,
        "lat": 22.5777563,
        "lon": 88.4005168,
        "tags": {
          "amenity": "cinema",
          "brand": "PVR Cinemas",
          "brand:short": "PVR",
          "brand:wikidata": "Q3359908",
          "name": "PVR",
          "short_name": "PVR"
        }
      },
      {
        "type": "node",
        "id": 2460827382,
        "lat": 22.5891916,
        "lon": 88.4092137,
        "tags": {
          "amenity": "fuel",
          "brand": "Indian Oil",
          "brand:wikidata": "Q1289348",
          "brand:wikipedia": "en:Indian Oil Corporation",
          "name": "Indian Oil Petrol Pump",
          "operator": "Indian Oil"
        }
      },
      {
        "type": "node",
        "id": 2747151484,
        "lat": 22.5785987,
        "lon": 88.3900338,
        "tags": {
          "amenity": "fuel"
        }
      },
      {
        "type": "node",
        "id": 4933663221,
        "lat": 22.5717932,
        "lon": 88.4090241,
        "tags": {
          "amenity": "fuel",
          "name": "BP Petrol Pump",
          "name:en": "BP Petrol Pump"
        }
      },
      {
        "type": "node",
        "id": 5189264572,
        "lat": 22.5506812,
        "lon": 88.4040128,
        "tags": {
          "name": "Beleghata",
          "name:bn": "\u09ac\u09c7\u09b2\u09c7\u0998\u09be\u099f\u09be",
          "network": "Kolkata Metro",
          "operator": "Metro Railway, Kolkata",
          "public_transport": "stop_position",
          "railway": "stop",
          "subway": "yes",
          "wikidata": "Q109968614",
          "wikipedia": "en:Beleghata metro station"
        }
      },
      {
        "type": "node",
        "id": 5189265436,
        "lat": 22.5720265,
        "lon": 88.3902669,
        "tags": {
          "name": "Phoolbagan",
          "name:bn": "\u09ab\u09c1\u09b2\u09ac\u09be\u0997\u09be\u09a8",
          "network": "Kolkata Metro",
          "public_transport": "stop_position",
          "railway": "stop",
          "subway": "yes"
        }
      },
      {
        "type": "node",
        "id": 5241930862,
        "lat": 22.5710125,
        "lon": 88.4011324,
        "tags": {
          "amenity": "cinema",
          "brand": "INOX Leisure",
          "brand:short": "INOX",
          "brand:wikidata": "Q5972349",
          "name": "Inox Swabhumi",
          "short_name": "INOX"
        }
      },
      {
        "type": "node",
        "id": 5253354261,
        "lat": 22.5741753,
        "lon": 88.3850451,
        "tags": {
          "name": "Sir Gurudas Banerjee Halt",
          "network": "IR",
          "operator": "ER",
          "public_transport": "station",
          "railway": "station",
          "ref": "SGBA",
          "wikidata": "Q56278572",
          "wikipedia": "en:Sir Gurudas Banerjee Halt railway station"
        }
      },
      {
        "type": "node",
        "id": 5777572045,
        "lat": 22.5507265,
        "lon": 88.4039735,
        "tags": {
          "name": "Beleghata",
          "name:bn": "\u09ac\u09c7\u09b2\u09c7\u0998\u09be\u099f\u09be",
          "network": "Kolkata Metro",
          "operator": "Metro Railway, Kolkata",
          "public_transport": "stop_position",
          "railway": "stop",
          "subway": "yes",
          "wikidata": "Q109968614",
          "wikipedia": "en:Beleghata metro station"
        }
      },
      {
        "type": "node",
        "id": 5777572412,
        "lat": 22.5720898,
        "lon": 88.3902604,
        "tags": {
          "name": "Phoolbagan",
          "name:bn": "\u09ab\u09c1\u09b2\u09ac\u09be\u0997\u09be\u09a8",
          "network": "Kolkata Metro",
          "public_transport": "stop_position",
          "railway": "stop",
          "subway": "yes"
        }
      },
      {
        "type": "node",
        "id": 7976140063,
        "lat": 22.5870993,
        "lon": 88.4078908,
        "tags": {
          "name": "City Centre",
          "name:bn": "\u09b8\u09bf\u099f\u09bf \u09b8\u09c7\u09a8\u09cd\u099f\u09be\u09b0",
          "network": "Kolkata Metro",
          "network:wikidata": "Q1048849",
          "operator": "Kolkata Metro Rail Corporation Limited (KMRCL)",
          "public_transport": "station",
          "railway": "station",
          "ref": "CCSC",
          "station": "subway",
          "subway": "yes",
          "wikidata": "Q63256235",
          "wikipedia": "en:City Center metro station"
        }
      },
      {
        "type": "node",
        "id": 7976140064,
        "lat": 22.5869882,
        "lon": 88.4079174,
        "tags": {
          "name": "City Centre",
          "name:bn": "\u09b8\u09bf\u099f\u09bf \u09b8\u09c7\u09a8\u09cd\u099f\u09be\u09b0",
          "network": "Kolkata Metro",
          "public_transport": "stop_position",
          "railway": "stop",
          "subway": "yes"
        }
      },
      {
        "type": "node",
        "id": 7976140065,
        "lat": 22.5869532,
        "lon": 88.4079412,
        "tags": {
          "name": "City Centre",
          "name:bn": "\u09b8\u09bf\u099f\u09bf \u09b8\u09c7\u09a8\u09cd\u099f\u09be\u09b0",
          "network": "Kolkata Metro",
          "public_transport": "stop_position",
          "railway": "stop",
          "subway": "yes"
        }
      },
      {
        "type": "node",
        "id": 7976140066,
        "lat": 22.5800666,
        "lon": 88.4012962,
        "tags": {
          "name": "Bengal Chemical",
          "name:bn": "\u09ac\u09c7\u0999\u09cd\u0997\u09b2 \u0995\u09c7\u09ae\u09bf\u0995\u09cd\u09af\u09be\u09b2\u09b8",
          "network": "Kolkata Metro",
          "network:wikidata": "Q1048849",
          "public_transport": "station",
          "railway": "station",
          "ref": "BCSD",
          "station": "subway",
          "subway": "yes",
          "wikidata": "Q63256245",
          "wikipedia": "en:Bengal Chemical metro station"
        }
      },
      {
        "type": "node",
        "id": 7976140067,
        "lat": 22.5799802,
        "lon": 88.4013845,
        "tags": {
          "name": "Bengal Chemical",
          "name:bn": "\u09ac\u09c7\u0999\u09cd\u0997\u09b2 \u0995\u09c7\u09ae\u09bf\u0995\u09cd\u09af\u09be\u09b2\u09b8",
          "network": "Kolkata Metro",
          "public_transport": "stop_position",
          "railway": "stop",
          "subway": "yes"
        }
      },
      {
        "type": "node",
        "id": 7976140068,
        "lat": 22.5799701,
        "lon": 88.401335,
        "tags": {
          "name": "Bengal Chemical",
          "name:bn": "\u09ac\u09c7\u0999\u09cd\u0997\u09b2 \u0995\u09c7\u09ae\u09bf\u0995\u09cd\u09af\u09be\u09b2\u09b8",
          "network": "Kolkata Metro",
          "public_transport": "stop_position",
          "railway": "stop",
          "subway": "yes"
        }
      },
      {
        "type": "node",
        "id": 7976140069,
        "lat": 22.5731115,
        "lon": 88.4030891,
        "tags": {
          "name": "Salt Lake Stadium",
          "name:bn": "\u09b8\u09b2\u09cd\u099f \u09b2\u09c7\u0995 \u09b8\u09cd\u099f\u09c7\u09a1\u09bf\u09af\u09bc\u09be\u09ae",
          "network": "Kolkata Metro",
          "network:wikidata": "Q1048849",
          "public_transport": "station",
          "railway": "station",
          "ref": "SSSA",
          "station": "subway",
          "subway": "yes",
          "wikidata": "Q65090392",
          "wikipedia": "en:Salt Lake Stadium metro station"
        }
      },
      {
        "type": "node",
        "id": 7976140070,
        "lat": 22.572966,
        "lon": 88.4030833,
        "tags": {
          "name": "Salt Lake Stadium",
          "name:bn": "\u09b8\u09b2\u09cd\u099f \u09b2\u09c7\u0995 \u09b8\u09cd\u099f\u09c7\u09a1\u09bf\u09af\u09bc\u09be\u09ae",
          "network": "Kolkata Metro",
          "public_transport": "stop_position",
          "railway": "stop",
          "subway": "yes"
        }
      },
      {
        "type": "node",
        "id": 7976140071,
        "lat": 22.5729746,
        "lon": 88.4031237,
        "tags": {
          "name": "Salt Lake Stadium",
          "name:bn": "\u09b8\u09b2\u09cd\u099f \u09b2\u09c7\u0995 \u09b8\u09cd\u099f\u09c7\u09a1\u09bf\u09af\u09bc\u09be\u09ae",
          "network": "Kolkata Metro",
          "public_transport": "stop_position",
          "railway": "stop",
          "subway": "yes"
        }
      },
      {
        "type": "node",
        "id": 7976140072,
        "lat": 22.5721268,
        "lon": 88.3902408,
        "tags": {
          "name": "Phoolbagan",
          "name:bn": "\u09ab\u09c1\u09b2\u09ac\u09be\u0997\u09be\u09a8",
          "network": "Kolkata Metro",
          "network:wikidata": "Q1048849",
          "public_transport": "station",
          "railway": "station",
          "ref": "PBGB",
          "station": "subway",
          "subway": "yes",
          "wikidata": "Q30632551",
          "wikipedia": "en:Phoolbagan metro station"
        }
      },
      {
        "type": "node",
        "id": 9566184417,
        "lat": 22.580991,
        "lon": 88.3911903,
        "tags": {
          "amenity": "bus_station",
          "bus": "yes",
          "name": "S-3B Bus Terminus",
          "public_transport": "station"
        }
      },
      {
        "type": "node",
        "id": 10091511718,
        "lat": 22.5777968,
        "lon": 88.4010448,
        "tags": {
          "amenity": "cinema",
          "brand": "PVR Cinemas",
          "brand:short": "PVR",
          "brand:wikidata": "Q3359908",
          "name": "PVR Cinemas",
          "short_name": "PVR"
        }
      },
      {
        "type": "node",
        "id": 11608922669,
        "lat": 22.5735617,
        "lon": 88.4075987,
        "tags": {
          "amenity": "theatre",
          "name": "Gyan Mancha"
        }
      },
      {
        "type": "node",
        "id": 12139761844,
        "lat": 22.5644314,
        "lon": 88.3893452,
        "tags": {
          "amenity": "fuel",
          "brand": "Indian Oil",
          "brand:wikidata": "Q1289348",
          "name": "Indian Oil"
        }
      },
      {
        "type": "node",
        "id": 13088458999,
        "lat": 22.5507084,
        "lon": 88.4039852,
        "tags": {
          "name": "Beleghata",
          "name:bn": "\u09ac\u09c7\u09b2\u09c7\u0998\u09be\u099f\u09be",
          "network": "Kolkata Metro",
          "network:wikidata": "Q1048849",
          "operator": "Metro Railway, Kolkata",
          "public_transport": "station",
          "railway": "station",
          "station": "subway",
          "subway": "yes",
          "wikidata": "Q109968614",
          "wikipedia": "en:Beleghata metro station"
        }
      }
    ]
  }
}