{
  "pois_1km": {
    "version": 0.6,
    "generator": "Overpass API 0.7.62.8 e802775f",
    "osm3s": {
      "timestamp_osm_base": "2025-09-06T09:49:46Z",
      "copyright": "The data included in this document is from www.openstreetmap.org. The data is made available under ODbL."
    },
    "elements": [
      {
        "type": "node",
        "id": 5485056643,
        "lat": 22.5450285,
        "lon": 88.3780465,
        "tags": {
          "leisure": "park",
          "name": "Shibtala Math"
        }
      },
      {
        "type": "node",
        "id": 6545669000,
        "lat": 22.5377363,
        "lon": 88.3693489,
        "tags": {
          "addr:housenumber": "43/A",
          "addr:postcode": "700017",
          "addr:street": "Bright Street",
          "amenity": "pharmacy",
          "healthcare": "pharmacy",
          "name": "Bright Street",
          "opening_hours": "Mo-Su 10:00-23:00",
          "operator": "Neesa Medical"
        }
      },
      {
        "type": "node",
        "id": 7048758386,
        "lat": 22.5347322,
        "lon": 88.3743808,
        "tags": {
          "addr:district": "Kolkata",
          "addr:full": "No. 16C Topsia,Tiljala",
          "addr:postcode": "700046",
          "addr:state": "West Bengal",
          "amenity": "hospital",
          "healthcare": "hospital",
          "name": "Swastik Seva Sadan",
          "source": "OpenGovernmentData"
        }
      },
      {
        "type": "node",
        "id": 7059017540,
        "lat": 22.5386694,
        "lon": 88.3723074,
        "tags": {
          "addr:district": "Kolkata",
          "addr:full": "11, Dr. Biresh Guha Street",
          "addr:postcode": "700017",
          "addr:state": "West Bengal",
          "amenity": "hospital",
          "healthcare": "hospital",
          "name": "Institute Of Child Health",
          "source": "OpenGovernmentData",
          "wikidata": "Q28154828",
          "wikipedia": "en:Institute of Child Health, Kolkata"
        }
      },
      {
        "type": "node",
        "id": 7062138859,
        "lat": 22.5447604,
        "lon": 88.3708055,
        "tags": {
          "addr:district": "Kolkata",
          "addr:full": "73,Chittaranjan Avenue,Darga Road",
          "addr:postcode": "700017",
          "addr:state": "West Bengal",
          "amenity": "hospital",
          "healthcare": "hospital",
          "name": "Islamia Hospital",
          "source": "OpenGovernmentData"
        }
      },
      {
        "type": "node",
        "id": 7065473122,
        "lat": 22.534982,
        "lon": 88.3817637,
        "tags": {
          "addr:district": "Malda",
          "addr:full": "Gazole",
          "addr:postcode": "732124",
          "addr:state": "West Bengal",
          "amenity": "clinic",
          "fixme": "Address and location is not matching...",
          "healthcare": "clinic",
          "name": "Dolphin Nursing Home",
          "source": "OpenGovernmentData"
        }
      },
      {
        "type": "node",
        "id": 7068409205,
        "lat": 22.5400643,
        "lon": 88.3714922,
        "tags": {
          "addr:district": "Kolkata",
          "addr:full": "94A Dilkusha Street Dilkusha Street",
          "addr:postcode": "700017",
          "addr:state": "West Bengal",
          "amenity": "clinic",
          "contact:phone": "3322404318",
          "healthcare": "clinic",
          "name": "Dilkusha Nursing Home",
          "source": "OpenGovernmentData"
        }
      },
      {
        "type": "node",
        "id": 7069117897,
        "lat": 22.5392157,
        "lon": 88.3705661,
        "tags": {
          "addr:city": "Kolkata",
          "addr:district": "Kolkata",
          "addr:full": "6, Dr, Biresh Guha Street, Near Park Circus, 4 No Bridge",
          "addr:postcode": "700017",
          "addr:state": "West Bengal",
          "amenity": "hospital",
          "contact:phone": "22810200",
          "healthcare": "hospital",
          "name": "Good Samaritan Hospital",
          "source": "OpenGovernmentData"
        }
      },
      {
        "type": "node",
        "id": 7071670270,
        "lat": 22.5395189,
        "lon": 88.3710095,
        "tags": {
          "addr:district": "Kolkata",
          "addr:full": "7, Dr.Biresh Guha Street, Park Circus,4 No. Bridge",
          "addr:postcode": "700017",
          "addr:state": "West Bengal",
          "amenity": "hospital",
          "contact:phone": "22895346;40116800",
          "healthcare": "hospital",
          "name": "TRA General Hospital - Kolkata",
          "source": "OpenGovernmentData",
          "website": "https://trageneralhospital.com/"
        }
      },
      {
        "type": "node",
        "id": 7074272608,
        "lat": 22.5404476,
        "lon": 88.3698897,
        "tags": {
          "addr:district": "Kolkata",
          "addr:full": "215, Park Street",
          "addr:postcode": "700017",
          "addr:state": "West Bengal",
          "amenity": "hospital",
          "healthcare": "hospital",
          "name": "Calcutta Pay Clinic and Hospital Pvt Ltd",
          "source": "OpenGovernmentData"
        }
      },
      {
        "type": "node",
        "id": 7074312579,
        "lat": 22.5400629,
        "lon": 88.3710368,
        "tags": {
          "addr:district": "Kolkata",
          "addr:full": "#55 B/1,Dilkhusa St",
          "addr:postcode": "700017",
          "addr:state": "West Bengal",
          "amenity": "clinic",
          "healthcare": "clinic",
          "name": "M. B. Nursing Home",
          "source": "OpenGovernmentData"
        }
      },
      {
        "type": "node",
        "id": 7074312606,
        "lat": 22.5341754,
        "lon": 88.3724879,
        "tags": {
          "addr:district": "Kolkata",
          "addr:full": "74, Broad Street, Ballygunge",
          "addr:postcode": "700019",
          "addr:state": "West Bengal",
          "amenity": "clinic",
          "contact:phone": "3322470032",
          "healthcare": "clinic",
          "name": "Mediview Nursing Home Pvt Ltd",
          "source": "OpenGovernmentData",
          "website": "https://mediview.co.in/"
        }
      },
      {
        "type": "node",
        "id": 7074329089,
        "lat": 22.5441888,
        "lon": 88.3731081,
        "tags": {
          "addr:district": "Kolkata",
          "addr:full": "04 L Tiljala Road",
          "addr:postcode": "700046",
          "addr:state": "West Bengal",
          "amenity": "clinic",
          "contact:phone": "3322801155",
          "healthcare": "clinic",
          "name": "Don View Nursing Home",
          "source": "OpenGovernmentData"
        }
      },
      {
        "type": "node",
        "id": 7668176302,
        "lat": 22.5365096,
        "lon": 88.3824758,
        "tags": {
          "addr:district": "Kolkata",
          "addr:full": "Topsia Road, near Kohinoor Market, Topsia",
          "addr:postcode": "700046",
          "addr:state": "West Bengal",
          "amenity": "clinic",
          "healthcare": "clinic",
          "name": "Dr. Alis Multispeciality Clinic",
          "source": "Local Knowledge"
        }
      },
      {
        "type": "node",
        "id": 12241456150,
        "lat": 22.5415255,
        "lon": 88.3856896,
        "tags": {
          "addr:city": "Kolkata",
          "addr:district": "Kolkata",
          "addr:housenumber": "83/1",
          "addr:postcode": "700046",
          "addr:street": "Topsia Road (south)",
          "air_conditioning": "yes",
          "amenity": "restaurant",
          "capacity": "80",
          "contact:facebook": "https://www.facebook.com/ShamshijiKolkata",
          "cuisine": "indian;mughlai;regional;curry;sandwich;kebab;biryani",
          "delivery": "yes",
          "diet:halal": "yes",
          "diet:local": "yes",
          "email": "shamshijikolkata@gmail.com",
          "mobile": "+91-9477851851",
          "name": "Shamshiji Restaurant & Caterer",
          "opening_hours": "Mo-Su 10:00-22:00",
          "outdoor_seating": "yes",
          "payment:cash": "yes",
          "payment:cashless": "yes",
          "payment:upi": "yes",
          "phone": "+91-9883344898",
          "start_date": "2024-09-02",
          "takeaway": "yes",
          "toilets": "yes",
          "website": "https://www.shamshiji.com/home",
          "website:menu": "https://www.shamshiji.com/menu",
          "wheelchair": "limited"
        }
      },
      {
        "type": "node",
        "id": 12350827305,
        "lat": 22.5443742,
        "lon": 88.3810137,
        "tags": {
          "addr:housenumber": "27A/1",
          "addr:postcode": "700046",
          "addr:street": "Mahendra Roy Lane",
          "amenity": "restaurant",
          "cuisine": "asian",
          "name": "Bamboo (Modern Asian Cuisine)",
          "opening_hours": "Mo-Su 12:00-23:00",
          "phone": "062910 08618",
          "website:menu": "https://maps.app.goo.gl/1pDWuhaQquQww4HF8?g_st=ac"
        }
      }
    ]
  },
  "pois_2_5km": {
    "version": 0.6,
    "generator": "Overpass API 0.7.62.8 e802775f",
    "osm3s": {
      "timestamp_osm_base": "2025-09-06T09:49:46Z",
      "copyright": "The data included in this document is from www.openstreetmap.org. The data is made available under ODbL."
    },
    "elements": [
      {
        "type": "node",
        "id": 651805730,
        "lat": 22.5191616,
        "lon": 88.3721923,
        "tags": {
          "name": "Ballygunge Junction",
          "name:bn": "\u09ac\u09be\u09b2\u09bf\u0997\u099e\u09cd\u099c",
          "network": "IR",
          "operator": "ER",
          "public_transport": "station",
          "railway": "station",
          "ref": "BLN",
          "wikidata": "Q55639257",
          "wikipedia": "en:Ballygunge Junction railway station"
        }
      },
      {
        "type": "node",
        "id": 1274128857,
        "lat": 22.5405657,
        "lon": 88.3738598,
        "tags": {
          "name": "Park Circus",
          "name:bn": "\u09aa\u09be\u09b0\u09cd\u0995 \u09b8\u09be\u09b0\u09cd\u0995\u09be\u09b8",
          "network": "IR",
          "operator": "ER",
          "public_transport": "station",
          "railway": "station",
          "ref": "PQS",
          "train": "yes",
          "wheelchair": "no",
          "wikidata": "Q56278569",
          "wikipedia": "en:Park Circus railway station"
        }
      },
      {
        "type": "node",
        "id": 1686122936,
        "lat": 22.526191,
        "lon": 88.3667029,
        "tags": {
          "amenity": "cinema",
          "check_date": "2023-12-16",
          "name": "London paris cinema"
        }
      },
      {
        "type": "node",
        "id": 1783135288,
        "lat": 22.5274281,
        "lon": 88.365843,
        "tags": {
          "amenity": "fuel",
          "brand": "Bharat Petroleum",
          "brand:wikidata": "Q854826",
          "check_date": "2023-12-16",
          "fuel:GTL_diesel": "yes",
          "fuel:HGV_diesel": "yes",
          "fuel:diesel": "yes",
          "fuel:petrol": "yes",
          "internet_access": "no",
          "name": "Bharat Petroleum",
          "payment:cash": "yes",
          "payment:mastercard": "yes",
          "payment:visa": "yes"
        }
      },
      {
        "type": "node",
        "id": 2720702706,
        "lat": 22.5424807,
        "lon": 88.3659928,
        "tags": {
          "name": "Park Circus",
          "public_transport": "stop_position",
          "railway": "tram_stop",
          "tram": "yes"
        }
      },
      {
        "type": "node",
        "id": 2721264604,
        "lat": 22.5258882,
        "lon": 88.3660841,
        "tags": {
          "name": "Gariahat Depot",
          "public_transport": "stop_position",
          "railway": "tram_stop",
          "tram": "yes"
        }
      },
      {
        "type": "node",
        "id": 2721388718,
        "lat": 22.5504601,
        "lon": 88.3628985,
        "tags": {
          "name": "Acharya Jagadish Chandra Bose Road / Elliot Road",
          "public_transport": "stop_position",
          "railway": "tram_stop",
          "tram": "yes"
        }
      },
      {
        "type": "node",
        "id": 2776950395,
        "lat": 22.5426967,
        "lon": 88.3662093,
        "tags": {
          "addr:housenumber": "2",
          "addr:place": "Syed Amir Ali Avenue",
          "amenity": "fuel",
          "brand": "Bharat Petroleum",
          "brand:wikidata": "Q854826",
          "check_date": "2023-12-16",
          "fuel:diesel": "yes",
          "fuel:petrol": "yes",
          "internet_access": "no",
          "name": "Bharat Petroleum",
          "payment:cash": "yes",
          "payment:mastercard": "yes",
          "payment:visa": "yes",
          "wheelchair": "no"
        }
      },
      {
        "type": "node",
        "id": 2907641509,
        "lat": 22.5545324,
        "lon": 88.36431,
        "tags": {
          "amenity": "fuel"
        }
      },
      {
        "type": "node",
        "id": 4180455089,
        "lat": 22.5451589,
        "lon": 88.3703737,
        "tags": {
          "amenity": "bus_station",
          "bus": "yes",
          "public_transport": "station",
          "wheelchair": "no"
        }
      },
      {
        "type": "node",
        "id": 4845192821,
        "lat": 22.5520205,
        "lon": 88.3717304,
        "tags": {
          "amenity": "fuel",
          "brand": "Bharat Petroleum",
          "brand:wikidata": "Q854826",
          "compressed_air": "yes",
          "name": "Bharat Petroleum",
          "name:en": "Bharat Petroleum"
        }
      },
      {
        "type": "node",
        "id": 4868040723,
        "lat": 22.5498214,
        "lon": 88.3560088,
        "tags": {
          "amenity": "fuel",
          "brand": "Bharat Petroleum",
          "brand:wikidata": "Q854826",
          "brand:wikipedia": "en:Bharat Petroleum",
          "check_date": "2023-10-04",
          "name": "Bharat Petroleum",
          "name:en": "Bharat Petroleum"
        }
      },
      {
        "type": "node",
        "id": 5271335721,
        "lat": 22.5387245,
        "lon": 88.3655643,
        "tags": {
          "amenity": "cinema",
          "brand": "INOX Leisure",
          "brand:wikidata": "Q5972349",
          "name": "Inox quest cinema",
          "short_name": "INOX"
        }
      },
      {
        "type": "node",
        "id": 6135362906,
        "lat": 22.5348072,
        "lon": 88.3620549,
        "tags": {
          "amenity": "fuel",
          "brand": "Indian Oil",
          "brand:wikidata": "Q1289348",
          "name": "Indian Oil"
        }
      },
      {
        "type": "node",
        "id": 6135363494,
        "lat": 22.5407554,
        "lon": 88.3578473,
        "tags": {
          "amenity": "fuel",
          "brand": "Bharat Petroleum",
          "brand:wikidata": "Q854826",
          "name": "Bharat Petroleum"
        }
      },
      {
        "type": "node",
        "id": 6135364027,
        "lat": 22.5438555,
        "lon": 88.3608132,
        "tags": {
          "amenity": "fuel",
          "brand": "Hindustan Petroleum",
          "brand:wikidata": "Q1619375",
          "name": "HP",
          "official_name": "Hindustan Petroleum"
        }
      },
      {
        "type": "node",
        "id": 6447832086,
        "lat": 22.546329,
        "lon": 88.3620691,
        "tags": {
          "amenity": "cinema",
          "name:ja": "\u30d1\u30fc\u30af\u30b7\u30e7\u30fc\u30cf\u30a6\u30b9"
        }
      },
      {
        "type": "node",
        "id": 7661285882,
        "lat": 22.5425257,
        "lon": 88.3659741,
        "tags": {
          "name": "Park Circus",
          "public_transport": "stop_position",
          "railway": "tram_stop",
          "tram": "yes"
        }
      },
      {
        "type": "node",
        "id": 9717918117,
        "lat": 22.5408647,
        "lon": 88.3680476,
        "tags": {
          "amenity": "charging_station",
          "name": "Electric vehicle charging station",
          "name:en": "Electric vehicle charging station type2-7kw",
          "opening_hours": "24/7"
        }
      },
      {
        "type": "node",
        "id": 13020902787,
        "lat": 22.5404381,
        "lon": 88.3969042,
        "tags": {
          "amenity": "theatre",
          "name": "Space Theatre"
        }
      },
      {
        "type": "node",
        "id": 13088459000,
        "lat": 22.5438008,
        "lon": 88.3993044,
        "tags": {
          "alt_name": "Science City",
          "name": "Barun Sengupta",
          "name:bn": "\u09ac\u09b0\u09c1\u09a3 \u09b8\u09c7\u09a8\u0997\u09c1\u09aa\u09cd\u09a4",
          "network": "Kolkata Metro",
          "operator": "Metro Railway, Kolkata",
          "public_transport": "stop_position",
          "railway": "stop",
          "subway": "yes",
          "wikidata": "Q30632591",
          "wikipedia": "en:Barun Sengupta metro station"
        }
      },
      {
        "type": "node",
        "id": 13088485701,
        "lat": 22.5438072,
        "lon": 88.3992762,
        "tags": {
          "alt_name": "Science City",
          "name": "Barun Sengupta",
          "name:bn": "\u09ac\u09b0\u09c1\u09a3 \u09b8\u09c7\u09a8\u0997\u09c1\u09aa\u09cd\u09a4",
          "network": "Kolkata Metro",
          "network:wikidata": "Q1048849",
          "operator": "Metro Railway, Kolkata",
          "public_transport": "station",
          "railway": "station",
          "station": "subway",
          "subway": "yes",
          "wikidata": "Q30632591",
          "wikipedia": "en:Barun Sengupta metro station"
        }
      },
      {
        "type": "node",
        "id": 13088485702,
        "lat": 22.5438105,
        "lon": 88.3992424,
        "tags": {
          "alt_name": "Science City",
          "name": "Barun Sengupta",
          "name:bn": "\u09ac\u09b0\u09c1\u09a3 \u09b8\u09c7\u09a8\u0997\u09c1\u09aa\u09cd\u09a4",
          "network": "Kolkata Metro",
          "operator": "Metro Railway, Kolkata",
          "public_transport": "stop_position",
          "railway": "stop",
          "subway": "yes",
          "wikidata": "Q30632591",
          "wikipedia": "en:Barun Sengupta metro station"
        }
      },
      {
        "type": "node",
        "id": 13088485703,
        "lat": 22.5330009,
        "lon": 88.3963939,
        "tags": {
          "alt_name": "Bantala Road",
          "name": "Ritwik Ghatak",
          "name:bn": "\u098b\u09a4\u09cd\u09ac\u09bf\u0995 \u0998\u099f\u0995",
          "network": "Kolkata Metro",
          "operator": "Metro Railway, Kolkata",
          "public_transport": "stop_position",
          "railway": "stop",
          "subway": "yes",
          "wikidata": "Q109524252",
          "wikipedia": "en:Ritwik Ghatak metro station"
        }
      },
      {
        "type": "node",
        "id": 13088485704,
        "lat": 22.5329995,
        "lon": 88.3964191,
        "tags": {
          "alt_name": "Bantala Road",
          "name": "Ritwik Ghatak",
          "name:bn": "\u098b\u09a4\u09cd\u09ac\u09bf\u0995 \u0998\u099f\u0995",
          "network": "Kolkata Metro",
          "network:wikidata": "Q1048849",
          "operator": "Metro Railway, Kolkata",
          "public_transport": "station",
          "railway": "station",
          "station": "subway",
          "subway": "yes",
          "wikidata": "Q109524252",
          "wikipedia": "en:Ritwik Ghatak metro station"
        }
      },
      {
        "type": "node",
        "id": 13088485705,
        "lat": 22.5329913,
        "lon": 88.396456,
        "tags": {
          "alt_name": "Bantala Road",
          "name": "Ritwik Ghatak",
          "name:bn": "\u098b\u09a4\u09cd\u09ac\u09bf\u0995 \u0998\u099f\u0995",
          "network": "Kolkata Metro",
          "operator": "Metro Railway, Kolkata",
          "public_transport": "stop_position",
          "railway": "stop",
          "subway": "yes",
          "wikidata": "Q109524252",
          "wikipedia": "en:Ritwik Ghatak metro station"
        }
      }
    ]
  }
}