{
  "pois_1km": {
    "version": 0.6,
    "generator": "Overpass API 0.7.62.8 e802775f",
    "osm3s": {
      "timestamp_osm_base": "2025-09-06T09:56:00Z",
      "copyright": "The data included in this document is from www.openstreetmap.org. The data is made available under ODbL."
    },
    "elements": [
      {
        "type": "node",
        "id": 1553402094,
        "lat": 22.4797635,
        "lon": 88.3758891,
        "tags": {
          "brand": "Big Bazaar",
          "brand:wikidata": "Q3631008",
          "name": "Big Bazaar",
          "shop": "supermarket"
        }
      },
      {
        "type": "node",
        "id": 7065549006,
        "lat": 22.4814755,
        "lon": 88.3756904,
        "tags": {
          "addr:district": "Kolkata",
          "addr:full": "69/1/1/3, Raja S C Mullick Road, Vidhyasagar Bus Stop",
          "addr:postcode": "700047",
          "addr:state": "West Bengal",
          "amenity": "hospital",
          "check_date": "2023-10-19",
          "healthcare": "hospital",
          "healthcare:speciality": "optometry",
          "name": "Dakshinee Eye Foundation",
          "operator:type": "public",
          "payment:cash": "yes",
          "payment:mastercard": "yes",
          "payment:visa": "yes",
          "source": "OpenGovernmentData"
        }
      },
      {
        "type": "node",
        "id": 7071466514,
        "lat": 22.4830661,
        "lon": 88.3749845,
        "tags": {
          "addr:district": "Kolkata",
          "addr:full": "Vidya Sagar Main Road,Ganguli Bagan",
          "addr:postcode": "700092",
          "addr:state": "West Bengal",
          "amenity": "hospital",
          "healthcare": "hospital",
          "name": "Baghajatin State General Hospital",
          "source": "OpenGovernmentData",
          "wikidata": "Q61453792"
        }
      },
      {
        "type": "node",
        "id": 12026590669,
        "lat": 22.4843838,
        "lon": 88.3786864,
        "tags": {
          "leisure": "playground",
          "name": "Debalaya Playground"
        }
      },
      {
        "type": "node",
        "id": 13007260201,
        "lat": 22.4910698,
        "lon": 88.3770457,
        "tags": {
          "leisure": "playground",
          "name": "Bijoy Sangha"
        }
      },
      {
        "type": "node",
        "id": 13074152837,
        "lat": 22.4931654,
        "lon": 88.3718842,
        "tags": {
          "addr:city": "Kolkata",
          "addr:district": "KOLKATA",
          "addr:housenumber": "105",
          "addr:postcode": "700032",
          "addr:street": "Raja Subodh Chandra Mullick Road",
          "amenity": "cafe",
          "contact:facebook": "https://www.facebook.com/share/1aMuvuCoo8/?mibextid=wwXIfr",
          "cuisine": "burger;chinese;fast_food",
          "internet_access": "no",
          "name": "Burger & Beyond",
          "opening_hours": "Mo-Su 10:00-22:00",
          "outdoor_seating": "yes",
          "phone": "+917727030988"
        }
      }
    ]
  },
  "pois_2_5km": {
    "version": 0.6,
    "generator": "Overpass API 0.7.62.8 e802775f",
    "osm3s": {
      "timestamp_osm_base": "2025-09-06T09:56:00Z",
      "copyright": "The data included in this document is from www.openstreetmap.org. The data is made available under ODbL."
    },
    "elements": [
      {
        "type": "node",
        "id": 419272417,
        "lat": 22.5021252,
        "lon": 88.3617949,
        "tags": {
          "bus": "yes",
          "highway": "bus_stop",
          "name": "South City Mall",
          "public_transport": "stop_position"
        }
      },
      {
        "type": "node",
        "id": 651800191,
        "lat": 22.4828516,
        "lon": 88.3866633,
        "tags": {
          "name": "Baghajatin",
          "name:bn": "\u09ac\u09be\u0998\u09be\u09af\u09a4\u09c0\u09a8",
          "network": "IR",
          "operator": "ER",
          "public_transport": "station",
          "railway": "station",
          "ref": "BGJT",
          "train": "yes",
          "wikidata": "Q57237402",
          "wikipedia": "en:Baghajatin railway station"
        }
      },
      {
        "type": "node",
        "id": 1341614569,
        "lat": 22.5094085,
        "lon": 88.371185,
        "tags": {
          "addr:postcode": "700031",
          "addr:street": "Sarat Ghosh Garden Road",
          "internet_access": "no",
          "name": "Dhakuria",
          "name:bn": "\u09a2\u09be\u0995\u09c1\u09b0\u09bf\u09af\u09bc\u09be",
          "network": "IR",
          "operator": "ER",
          "public_transport": "station",
          "railway": "station",
          "ref": "DHK",
          "train": "yes",
          "wheelchair": "no",
          "wikidata": "Q57237359",
          "wikipedia": "en:Dhakuria railway station"
        }
      },
      {
        "type": "node",
        "id": 1360100055,
        "lat": 22.4823773,
        "lon": 88.353303,
        "tags": {
          "amenity": "cinema",
          "name": "Madhuban Cinema"
        }
      },
      {
        "type": "node",
        "id": 1553403137,
        "lat": 22.4712456,
        "lon": 88.3772501,
        "tags": {
          "amenity": "bus_station",
          "bus": "yes",
          "name": "45 BUS STAND",
          "network": "45",
          "public_transport": "station"
        }
      },
      {
        "type": "node",
        "id": 2505605037,
        "lat": 22.4788231,
        "lon": 88.3557408,
        "tags": {
          "amenity": "fuel",
          "building": "yes",
          "name": "IOCL Petrol Pump"
        }
      },
      {
        "type": "node",
        "id": 3118239910,
        "lat": 22.4715916,
        "lon": 88.381208,
        "tags": {
          "amenity": "fuel"
        }
      },
      {
        "type": "node",
        "id": 4346980390,
        "lat": 22.4726387,
        "lon": 88.3685894,
        "tags": {
          "addr:street": "Nagtala Road",
          "amenity": "fuel"
        }
      },
      {
        "type": "node",
        "id": 5189264549,
        "lat": 22.4846644,
        "lon": 88.3926762,
        "tags": {
          "name": "Satyajit Roy",
          "name:bn": "\u09b8\u09a4\u09cd\u09af\u099c\u09bf\u09ce \u09b0\u09be\u09af\u09bc",
          "network": "Kolkata Metro",
          "operator": "Metro Railway, Kolkata",
          "public_transport": "stop_position",
          "railway": "stop",
          "subway": "yes"
        }
      },
      {
        "type": "node",
        "id": 5421533679,
        "lat": 22.4734143,
        "lon": 88.3608305,
        "tags": {
          "alt_name": "Bansdroni",
          "name": "Masterda Surya Sen",
          "name:bn": "\u09ae\u09be\u09b8\u09cd\u099f\u09be\u09b0\u09a6\u09be \u09b8\u09c2\u09b0\u09cd\u09af \u09b8\u09c7\u09a8",
          "network": "Kolkata Metro",
          "operator": "Metro Railway, Kolkata",
          "public_transport": "stop_position",
          "railway": "stop",
          "subway": "yes"
        }
      },
      {
        "type": "node",
        "id": 5421533680,
        "lat": 22.4694227,
        "lon": 88.3700224,
        "tags": {
          "name": "Gitanjali",
          "name:bn": "\u0997\u09c0\u09a4\u09be\u099e\u09cd\u099c\u09b2\u09bf",
          "network": "Kolkata Metro",
          "operator": "Metro Railway, Kolkata",
          "public_transport": "stop_position",
          "railway": "stop",
          "subway": "yes"
        }
      },
      {
        "type": "node",
        "id": 5768054688,
        "lat": 22.4951079,
        "lon": 88.3749813,
        "tags": {
          "name": "Jadavpur",
          "name:bn": "\u09af\u09be\u09a6\u09ac\u09aa\u09c1\u09b0",
          "network": "IR",
          "operator": "ER",
          "public_transport": "station",
          "railway": "station",
          "ref": "JDP",
          "wikidata": "Q55614817",
          "wikipedia": "en:Jadavpur railway station"
        }
      },
      {
        "type": "node",
        "id": 5777572086,
        "lat": 22.4846894,
        "lon": 88.3926196,
        "tags": {
          "name": "Satyajit Roy",
          "name:bn": "\u09b8\u09a4\u09cd\u09af\u099c\u09bf\u09ce \u09b0\u09be\u09af\u09bc",
          "network": "Kolkata Metro",
          "operator": "Metro Railway, Kolkata",
          "public_transport": "stop_position",
          "railway": "stop",
          "subway": "yes"
        }
      },
      {
        "type": "node",
        "id": 6956599532,
        "lat": 22.5022005,
        "lon": 88.3617984,
        "tags": {
          "bus": "yes",
          "highway": "bus_stop",
          "name": "South City Mall",
          "public_transport": "stop_position"
        }
      },
      {
        "type": "node",
        "id": 7028874585,
        "lat": 22.5015668,
        "lon": 88.362052,
        "tags": {
          "amenity": "cinema",
          "brand": "INOX Leisure",
          "brand:wikidata": "Q5972349",
          "name": "INOX South City",
          "short_name": "INOX"
        }
      },
      {
        "type": "node",
        "id": 9144035336,
        "lat": 22.469362,
        "lon": 88.3700144,
        "tags": {
          "name": "Gitanjali",
          "name:bn": "\u0997\u09c0\u09a4\u09be\u099e\u09cd\u099c\u09b2\u09bf",
          "network": "Kolkata Metro",
          "operator": "Metro Railway, Kolkata",
          "public_transport": "stop_position",
          "railway": "stop",
          "subway": "yes"
        }
      },
      {
        "type": "node",
        "id": 9144035337,
        "lat": 22.4734675,
        "lon": 88.3608636,
        "tags": {
          "alt_name": "Bansdroni",
          "name": "Masterda Surya Sen",
          "name:bn": "\u09ae\u09be\u09b8\u09cd\u099f\u09be\u09b0\u09a6\u09be \u09b8\u09c2\u09b0\u09cd\u09af \u09b8\u09c7\u09a8",
          "network": "Kolkata Metro",
          "operator": "Metro Railway, Kolkata",
          "public_transport": "stop_position",
          "railway": "stop",
          "subway": "yes"
        }
      },
      {
        "type": "node",
        "id": 10115962717,
        "lat": 22.5093598,
        "lon": 88.3674117,
        "tags": {
          "addr:street": "Dhakuria Bridge",
          "amenity": "charging_station",
          "name": "Electric vehicle charging station 20kw &7kw",
          "name:en": "Electric vehicle charging station 20kw&7kw",
          "opening_hours": "24/7",
          "operator": "CESC"
        }
      },
      {
        "type": "node",
        "id": 11300062926,
        "lat": 22.4956603,
        "lon": 88.3705633,
        "tags": {
          "amenity": "bus_station",
          "bus": "yes",
          "check_date": "2023-10-30",
          "name": "Jadavpur 8b Bus Terminal",
          "public_transport": "station",
          "source": "local knowledge"
        }
      },
      {
        "type": "node",
        "id": 11447425096,
        "lat": 22.4846775,
        "lon": 88.3926447,
        "tags": {
          "name": "Satyajit Ray",
          "name:bn": "\u09b8\u09a4\u09cd\u09af\u099c\u09bf\u09ce \u09b0\u09be\u09af\u09bc",
          "network": "Kolkata Metro",
          "network:wikidata": "Q1048849",
          "operator": "Metro Railway, Kolkata",
          "public_transport": "station",
          "railway": "station",
          "station": "subway",
          "subway": "yes",
          "wikidata": "Q30632540",
          "wikipedia": "en:Satyajit Ray metro station"
        }
      },
      {
        "type": "node",
        "id": 12920324624,
        "lat": 22.5018356,
        "lon": 88.3622265,
        "tags": {
          "addr:city": "Kolkata",
          "addr:district": "Kolkata",
          "addr:housenumber": "375",
          "addr:postcode": "700068",
          "addr:street": "Prince Anwar Shah Road",
          "amenity": "cinema",
          "name": "IMAX South City"
        }
      }
    ]
  }
}