{
  "pois_1km": {
    "version": 0.6,
    "generator": "Overpass API 0.7.62.8 e802775f",
    "osm3s": {
      "timestamp_osm_base": "2025-09-06T09:34:30Z",
      "copyright": "The data included in this document is from www.openstreetmap.org. The data is made available under ODbL."
    },
    "elements": [
      {
        "type": "node",
        "id": 2464986060,
        "lat": 22.5798414,
        "lon": 88.4730872,
        "tags": {
          "amenity": "cafe",
          "check_date": "2025-02-05",
          "name": "IRCTC Cafe"
        }
      },
      {
        "type": "node",
        "id": 6914595709,
        "lat": 22.5788545,
        "lon": 88.4716628,
        "tags": {
          "addr:city": "Newtown, Kolkata",
          "addr:housenumber": "New Town",
          "addr:postcode": "700156",
          "addr:street": "Action Area I",
          "air_conditioning": "yes",
          "amenity": "restaurant",
          "capacity": "50",
          "cuisine": "regional;chinese;sandwich;kebab;indian;asian;chicken;seafood;fish_and_chips",
          "email": "helpdesk@wbhidco.in",
          "name": "Biswa Bangla Gate",
          "opening_hours": "Mo-Su 07:00-22:00",
          "phone": "91-8334065345",
          "reservation": "required",
          "wikidata": "Q39087520",
          "wikimedia_commons": "Category:Biswa Bangla Gate",
          "wikipedia": "en:Kolkata Gate"
        }
      },
      {
        "type": "node",
        "id": 10172813242,
        "lat": 22.5786115,
        "lon": 88.4717974,
        "tags": {
          "addr:city": "Newtown, Kolkata",
          "addr:postcode": "700156",
          "amenity": "cafe",
          "name": "Biswa Bangla Gate",
          "name:en": "Biswa Bangla Gate",
          "website": "https://www.biswabanglagatekolkata.in",
          "wikidata": "Q39087520",
          "wikimedia_commons": "Category:Biswa Bangla Gate",
          "wikipedia": "en:Biswa Bangla Gate"
        }
      },
      {
        "type": "node",
        "id": 10960407340,
        "lat": 22.5794165,
        "lon": 88.4728785,
        "tags": {
          "leisure": "park",
          "name": "rabindra tirtha"
        }
      },
      {
        "type": "node",
        "id": 10960407342,
        "lat": 22.5786343,
        "lon": 88.471698,
        "tags": {
          "amenity": "restaurant",
          "name": "biswa bangla gate"
        }
      },
      {
        "type": "node",
        "id": 12121757094,
        "lat": 22.5831514,
        "lon": 88.4668956,
        "tags": {
          "addr:state": "WB",
          "leisure": "park",
          "name": "Apur Sansar Park",
          "operator": "Goshen Parks & Recreation Department"
        }
      }
    ]
  },
  "pois_2_5km": {
    "version": 0.6,
    "generator": "Overpass API 0.7.62.8 e802775f",
    "osm3s": {
      "timestamp_osm_base": "2025-09-06T09:34:30Z",
      "copyright": "The data included in this document is from www.openstreetmap.org. The data is made available under ODbL."
    },
    "elements": [
      {
        "type": "node",
        "id": 2009360836,
        "lat": 22.5904272,
        "lon": 88.4746741,
        "tags": {
          "name": "mothers wax museum",
          "public_transport": "stop_position",
          "railway": "stop",
          "subway": "yes"
        }
      },
      {
        "type": "node",
        "id": 2454098330,
        "lat": 22.5791224,
        "lon": 88.4601196,
        "tags": {
          "amenity": "cinema",
          "name": "Bioscope"
        }
      },
      {
        "type": "node",
        "id": 2464548291,
        "lat": 22.5818722,
        "lon": 88.4563526,
        "tags": {
          "amenity": "fuel",
          "brand": "Indian Oil",
          "brand:wikidata": "Q1289348",
          "brand:wikipedia": "en:Indian Oil Corporation",
          "building": "yes",
          "name": "Indian Oil Petrol Pump"
        }
      },
      {
        "type": "node",
        "id": 3157361873,
        "lat": 22.5826577,
        "lon": 88.4539212,
        "tags": {
          "bus": "yes",
          "highway": "bus_stop",
          "name": "New Town Bus Depot",
          "public_transport": "stop_position"
        }
      },
      {
        "type": "node",
        "id": 8981743383,
        "lat": 22.5743093,
        "lon": 88.4558557,
        "tags": {
          "addr:city": "Kolkata",
          "addr:housenumber": "Balaka Bus Terminus, New Town, Action Area 1",
          "addr:postcode": "700156",
          "amenity": "bus_station",
          "bus": "yes",
          "internet_access": "no",
          "name": "Balaka Bus Terminus",
          "public_transport": "station"
        }
      },
      {
        "type": "node",
        "id": 10553919109,
        "lat": 22.5942498,
        "lon": 88.4719544,
        "tags": {
          "addr:postcode": "700156",
          "addr:street": "NH-34",
          "amenity": "charging_station",
          "name": "Electric Vehicle Charging Station"
        }
      },
      {
        "type": "node",
        "id": 10553919709,
        "lat": 22.5994781,
        "lon": 88.4719664,
        "tags": {
          "amenity": "charging_station",
          "name": "Electric Vehicle Charging Station"
        }
      },
      {
        "type": "node",
        "id": 10553919710,
        "lat": 22.5845228,
        "lon": 88.4908908,
        "tags": {
          "addr:postcode": "700135",
          "addr:street": "Ecospace Seating Area Path2",
          "amenity": "charging_station",
          "name": "Electric Vehicle Charging Station"
        }
      },
      {
        "type": "node",
        "id": 10553924809,
        "lat": 22.5785223,
        "lon": 88.4529998,
        "tags": {
          "amenity": "charging_station",
          "name": "Mahindra Charging Station"
        }
      },
      {
        "type": "node",
        "id": 10553925409,
        "lat": 22.5785173,
        "lon": 88.4526568,
        "tags": {
          "addr:postcode": "700156",
          "addr:street": "action area 1",
          "amenity": "charging_station",
          "name": "EESL Charging Station",
          "opening_hours": "24/7"
        }
      },
      {
        "type": "node",
        "id": 12880786515,
        "lat": 22.5682609,
        "lon": 88.472598,
        "tags": {
          "access": "unknown",
          "amenity": "charging_station",
          "brand": "Jio BP Pulse",
          "operator": "Jio BP Pulse"
        }
      }
    ]
  }
}