{
  "pois_1km": {
    "version": 0.6,
    "generator": "Overpass API 0.7.62.8 e802775f",
    "osm3s": {
      "timestamp_osm_base": "2025-09-06T09:39:36Z",
      "copyright": "The data included in this document is from www.openstreetmap.org. The data is made available under ODbL."
    },
    "elements": [
      {
        "type": "node",
        "id": 3406728168,
        "lat": 22.5940626,
        "lon": 88.3708345,
        "tags": {
          "amenity": "restaurant",
          "check_date": "2023-10-30",
          "cuisine": "indian",
          "internet_access": "wlan",
          "internet_access:fee": "customers",
          "name": "Bhojohori Manna",
          "opening_hours": "12:00-22:00",
          "phone": "03325338519",
          "website": "https://g.co/kgs/DtMWJg"
        }
      },
      {
        "type": "node",
        "id": 7048595039,
        "lat": 22.601137,
        "lon": 88.3736761,
        "tags": {
          "addr:district": "Kolkata",
          "addr:full": "204A,Acharya Prafulla Chandra Road",
          "addr:postcode": "700004",
          "addr:state": "West Bengal",
          "amenity": "clinic",
          "check_date": "2023-10-04",
          "healthcare": "clinic",
          "name": "L.B.Nursing Home",
          "source": "OpenGovernmentData"
        }
      },
      {
        "type": "node",
        "id": 7051213951,
        "lat": 22.5997713,
        "lon": 88.3744177,
        "tags": {
          "addr:district": "Kolkata",
          "addr:full": "227, Acharya Praffula Chandra Road,( Near Shyambazar Cesc Building )",
          "addr:postcode": "700004",
          "addr:state": "West Bengal",
          "amenity": "hospital",
          "check_date": "2023-09-30",
          "healthcare": "hospital",
          "internet_access": "wlan",
          "internet_access:fee": "no",
          "name": "Five Point Micro Surgery Centre Pvt Ltd",
          "payment:mastercard": "yes",
          "payment:visa": "yes",
          "source": "OpenGovernmentData",
          "wheelchair": "yes"
        }
      },
      {
        "type": "node",
        "id": 7053716362,
        "lat": 22.596824,
        "lon": 88.3718884,
        "tags": {
          "addr:district": "Kolkata",
          "addr:full": "#136/1, Bidhan Sarani",
          "addr:postcode": "700004",
          "addr:state": "West Bengal",
          "amenity": "clinic",
          "healthcare": "clinic",
          "name": "Serum Sristi Nursing Home",
          "source": "OpenGovernmentData",
          "website": "sserumanalysiscentre.com"
        }
      },
      {
        "type": "node",
        "id": 7065473112,
        "lat": 22.5997076,
        "lon": 88.3735091,
        "tags": {
          "addr:district": "Kolkata",
          "addr:full": "2A, Kalachand Sanyal Lane",
          "addr:postcode": "700004",
          "addr:state": "West Bengal",
          "amenity": "clinic",
          "healthcare": "clinic",
          "name": "New Nirnoy Nursing Home",
          "source": "OpenGovernmentData"
        }
      },
      {
        "type": "node",
        "id": 7065687779,
        "lat": 22.5997447,
        "lon": 88.3720238,
        "tags": {
          "addr:district": "Kolkata",
          "addr:full": "2, Nayratna Lane",
          "addr:postcode": "700004",
          "addr:state": "West Bengal",
          "amenity": "clinic",
          "healthcare": "clinic",
          "name": "Dreamland Nursing Home (Only Kolkata Police)",
          "source": "OpenGovernmentData"
        }
      },
      {
        "type": "node",
        "id": 7065866552,
        "lat": 22.6000389,
        "lon": 88.3735229,
        "tags": {
          "addr:district": "Kolkata",
          "addr:full": "Shyambazar, 7-A, Kalachand Sanyal Lane",
          "addr:postcode": "700054",
          "addr:state": "West Bengal",
          "amenity": "clinic",
          "contact:phone": "3325556385",
          "health_facility:type": "dispensary",
          "healthcare": "centre",
          "name": "CGHS Dispensary, Shyambazar",
          "operator:type": "government",
          "source": "OpenGovernmentData"
        }
      },
      {
        "type": "node",
        "id": 7065868600,
        "lat": 22.5983673,
        "lon": 88.3721741,
        "tags": {
          "addr:district": "Kolkata",
          "addr:full": "133, Bidhansarani",
          "addr:postcode": "700006",
          "addr:state": "West Bengal",
          "amenity": "clinic",
          "check_date": "2023-10-04",
          "healthcare": "clinic",
          "name": "Northland Nursing Home",
          "source": "OpenGovernmentData"
        }
      },
      {
        "type": "node",
        "id": 7069112401,
        "lat": 22.5985716,
        "lon": 88.3736607,
        "tags": {
          "addr:district": "Kolkata",
          "addr:full": "5, Shibdas Bhaduri Street, Shyambazar",
          "addr:postcode": "700004",
          "addr:state": "West Bengal",
          "amenity": "clinic",
          "healthcare": "clinic",
          "name": "Nabajiban Hospital Pvt Ltd",
          "source": "OpenGovernmentData"
        }
      },
      {
        "type": "node",
        "id": 7070928709,
        "lat": 22.602305,
        "lon": 88.3704156,
        "tags": {
          "addr:district": "Kolkata",
          "addr:full": "16D, Sachin Mitra Ln, Bidhan Sarani, Shyam Bazar",
          "addr:postcode": "700089",
          "addr:state": "West Bengal",
          "amenity": "hospital",
          "healthcare": "hospital",
          "name": "Medilink Health Care Diagnostic Centre Pvt. Ltd.",
          "source": "OpenGovernmentData"
        }
      },
      {
        "type": "node",
        "id": 7071650047,
        "lat": 22.5999558,
        "lon": 88.3677826,
        "tags": {
          "addr:district": "Kolkata",
          "addr:full": "55/1, Bhupen Bose Avenue",
          "addr:postcode": "700004",
          "addr:state": "West Bengal",
          "amenity": "hospital",
          "check_date": "2023-10-30",
          "emergency": "yes",
          "healthcare": "hospital",
          "internet_access": "wlan",
          "internet_access:fee": "customers",
          "name": "Sterling Hospital, Kolkata",
          "opening_hours": "24/7",
          "operator:type": "private",
          "payment:cash": "yes",
          "payment:mastercard": "yes",
          "payment:visa": "yes",
          "phone": "033 2530 1313",
          "source": "OpenGovernmentData",
          "website": "https://g.co/kgs/6bBZS9",
          "wheelchair": "yes"
        }
      },
      {
        "type": "node",
        "id": 8185335390,
        "lat": 22.5935886,
        "lon": 88.3706465,
        "tags": {
          "amenity": "bank",
          "atm": "yes",
          "brand": "Bank of Baroda",
          "brand:wikidata": "Q2003797",
          "name": "Bank of Baroda"
        }
      },
      {
        "type": "node",
        "id": 8193334674,
        "lat": 22.593133,
        "lon": 88.3700605,
        "tags": {
          "amenity": "atm",
          "brand": "HDFC Bank",
          "brand:wikidata": "Q631047",
          "name": "HDFC Bank",
          "operator": "HDFC Bank",
          "operator:wikidata": "Q631047",
          "short_name": "HDFC"
        }
      },
      {
        "type": "node",
        "id": 8266875817,
        "lat": 22.6016849,
        "lon": 88.3736658,
        "tags": {
          "amenity": "cafe"
        }
      },
      {
        "type": "node",
        "id": 9052559015,
        "lat": 22.5967472,
        "lon": 88.3709013,
        "tags": {
          "amenity": "restaurant",
          "name": "New Madras Tiffin"
        }
      },
      {
        "type": "node",
        "id": 9677133275,
        "lat": 22.6000099,
        "lon": 88.3770699,
        "tags": {
          "leisure": "park",
          "name": "Deshbandhu park",
          "name:etymology:wikidata": "Q15649302",
          "opening_hours": "Mo-Su 07:00-22:00"
        }
      },
      {
        "type": "node",
        "id": 9993017417,
        "lat": 22.5988571,
        "lon": 88.3726721,
        "tags": {
          "addr:housenumber": "94",
          "addr:postcode": "700004",
          "addr:street": "Bidhan Sarani",
          "amenity": "restaurant",
          "check_date": "2023-09-30",
          "cuisine": "indian;kebab",
          "internet_access": "wlan",
          "internet_access:fee": "customers",
          "name": "Aminia Restaurant",
          "opening_hours": "Mo-Su 11:30-23:30",
          "payment:mastercard": "yes",
          "payment:visa": "yes",
          "phone": "081006 66444",
          "website": "https://www.aminia.co.in/aminia-shyambazar"
        }
      },
      {
        "type": "node",
        "id": 11446905770,
        "lat": 22.6038599,
        "lon": 88.3829021,
        "tags": {
          "addr:postcode": "700037",
          "addr:street": "Radha Gobinda Kar Road",
          "amenity": "pharmacy",
          "healthcare": "pharmacy",
          "name": "Arham Pharmacy",
          "opening_hours": "Mo-Su 09:00-11:00",
          "operator": "Mr. Ishtiaque"
        }
      },
      {
        "type": "node",
        "id": 11634134090,
        "lat": 22.6022704,
        "lon": 88.3755325,
        "tags": {
          "addr:city": "Kolkata",
          "amenity": "cafe",
          "cuisine": "chai",
          "name": "Tea Shop"
        }
      }
    ]
  },
  "pois_2_5km": {
    "version": 0.6,
    "generator": "Overpass API 0.7.62.8 e802775f",
    "osm3s": {
      "timestamp_osm_base": "2025-09-06T09:39:36Z",
      "copyright": "The data included in this document is from www.openstreetmap.org. The data is made available under ODbL."
    },
    "elements": [
      {
        "type": "node",
        "id": 664440061,
        "lat": 22.5917712,
        "lon": 88.3908206,
        "tags": {
          "name": "Bidhannagar Road",
          "name:bn": "\u09ac\u09bf\u09a7\u09be\u09a8\u09a8\u0997\u09b0 \u09b0\u09cb\u09a1",
          "operator": "Eastern Railways",
          "public_transport": "stop_position",
          "railway": "stop",
          "train": "yes",
          "wikidata": "Q4904158",
          "wikipedia": "en:Bidhannagar Road railway station"
        }
      },
      {
        "type": "node",
        "id": 1074604498,
        "lat": 22.6011865,
        "lon": 88.3841191,
        "tags": {
          "loc_ref": "2",
          "name": "Kolkata Chitpur",
          "public_transport": "stop_position",
          "railway": "stop",
          "ref": "KOAA",
          "train": "yes"
        }
      },
      {
        "type": "node",
        "id": 1177499034,
        "lat": 22.5975289,
        "lon": 88.3549336,
        "tags": {
          "name": "Sovabazar Ahiritola",
          "network": "IR",
          "operator": "ER",
          "public_transport": "station",
          "railway": "station",
          "ref": "SOLA",
          "wikidata": "Q56277826",
          "wikipedia": "en:Sovabazar Ahiritola railway station"
        }
      },
      {
        "type": "node",
        "id": 1188948187,
        "lat": 22.5811689,
        "lon": 88.3618766,
        "tags": {
          "amenity": "cinema",
          "check_date": "2023-10-04",
          "name": "Mahajati Sadan Auditorium"
        }
      },
      {
        "type": "node",
        "id": 1189457648,
        "lat": 22.5963972,
        "lon": 88.3532985,
        "tags": {
          "amenity": "ferry_terminal",
          "ferry": "yes",
          "name": "Ahiritola Ghat",
          "public_transport": "station",
          "wikidata": "Q7984450",
          "wikipedia": "en:West Bengal Transport Corporation"
        }
      },
      {
        "type": "node",
        "id": 1189457732,
        "lat": 22.5984575,
        "lon": 88.3555843,
        "tags": {
          "amenity": "ferry_terminal",
          "ferry": "yes",
          "name": "Beniatola Ghat",
          "public_transport": "station",
          "wikidata": "Q7984450",
          "wikipedia": "en:West Bengal Transport Corporation"
        }
      },
      {
        "type": "node",
        "id": 1189457885,
        "lat": 22.5992994,
        "lon": 88.356603,
        "tags": {
          "amenity": "ferry_terminal",
          "ferry": "yes",
          "name": "Shobha Bazar Ghat",
          "public_transport": "station",
          "wikidata": "Q7984450",
          "wikipedia": "en:West Bengal Transport Corporation"
        }
      },
      {
        "type": "node",
        "id": 1208567385,
        "lat": 22.6039481,
        "lon": 88.3636969,
        "tags": {
          "amenity": "ferry_terminal",
          "ferry": "yes",
          "name": "Batala Ghat",
          "public_transport": "station"
        }
      },
      {
        "type": "node",
        "id": 1208567622,
        "lat": 22.6045143,
        "lon": 88.3639385,
        "tags": {
          "amenity": "ferry_terminal",
          "ferry": "yes",
          "name": "Bagbazar Launch Ghat",
          "operator": "WBTC",
          "public_transport": "station"
        }
      },
      {
        "type": "node",
        "id": 1210706867,
        "lat": 22.5999666,
        "lon": 88.3729349,
        "tags": {
          "name": "Shyambazar",
          "network": "WBTC",
          "network:wikidata": "Q7984450",
          "operator": "Calcutta Tramways Company",
          "public_transport": "stop_position",
          "railway": "tram_stop",
          "tram": "yes"
        }
      },
      {
        "type": "node",
        "id": 1307939452,
        "lat": 22.5926544,
        "lon": 88.3887464,
        "tags": {
          "amenity": "bus_station",
          "bus": "yes",
          "description": "Route Number S-30, S-30A, ST7",
          "name": "15 No Bus Stand (S30)",
          "operator": "WBTC",
          "public_transport": "station",
          "wheelchair": "yes"
        }
      },
      {
        "type": "node",
        "id": 2014908445,
        "lat": 22.6056699,
        "lon": 88.3847084,
        "tags": {
          "name": "Belgachia",
          "network": "WBTC",
          "network:wikidata": "Q7984450",
          "operator": "Calcutta Tramways Company",
          "public_transport": "stop_position",
          "railway": "tram_stop",
          "tram": "yes"
        }
      },
      {
        "type": "node",
        "id": 2141425962,
        "lat": 22.5917787,
        "lon": 88.3907817,
        "tags": {
          "name": "Bidhannagar Road",
          "name:bn": "\u09ac\u09bf\u09a7\u09be\u09a8\u09a8\u0997\u09b0 \u09b0\u09cb\u09a1",
          "operator": "Eastern Railways",
          "public_transport": "stop_position",
          "railway": "stop",
          "train": "yes",
          "wikidata": "Q4904158",
          "wikipedia": "en:Bidhannagar Road railway station"
        }
      },
      {
        "type": "node",
        "id": 2141425973,
        "lat": 22.5917378,
        "lon": 88.3909399,
        "tags": {
          "name": "Bidhannagar Road",
          "name:bn": "\u09ac\u09bf\u09a7\u09be\u09a8\u09a8\u0997\u09b0 \u09b0\u09cb\u09a1",
          "operator": "Eastern Railways",
          "public_transport": "stop_position",
          "railway": "stop",
          "train": "yes",
          "wikidata": "Q4904158",
          "wikipedia": "en:Bidhannagar Road railway station"
        }
      },
      {
        "type": "node",
        "id": 2207611901,
        "lat": 22.591149,
        "lon": 88.3912585,
        "tags": {
          "name": "Bidhan Nagar",
          "network": "WBTC",
          "network:wikidata": "Q7984450",
          "operator": "Calcutta Tramways Company",
          "public_transport": "stop_position",
          "railway": "tram_stop",
          "tram": "yes"
        }
      },
      {
        "type": "node",
        "id": 2281800830,
        "lat": 22.6000785,
        "lon": 88.3729404,
        "tags": {
          "name": "Shyambazar (northbound)",
          "network": "WBTC",
          "network:wikidata": "Q7984450",
          "operator": "Calcutta Tramways Company",
          "public_transport": "stop_position",
          "railway": "tram_stop",
          "tram": "yes"
        }
      },
      {
        "type": "node",
        "id": 2323761292,
        "lat": 22.5912601,
        "lon": 88.3909641,
        "tags": {
          "name": "Bidhannagar Road",
          "name:bn": "\u09ac\u09bf\u09a7\u09be\u09a8\u09a8\u0997\u09b0 \u09b0\u09cb\u09a1",
          "network": "IR",
          "operator": "ER",
          "public_transport": "station",
          "railway": "station",
          "ref": "BNXR",
          "website": "https://er.indianrailways.gov.in/",
          "wheelchair": "no",
          "wikidata": "Q4904158",
          "wikipedia": "en:Bidhannagar Road railway station"
        }
      },
      {
        "type": "node",
        "id": 2703675244,
        "lat": 22.6035335,
        "lon": 88.3787698,
        "tags": {
          "name": "Radha Gobinda Kar Road",
          "public_transport": "stop_position",
          "railway": "tram_stop",
          "tram": "yes"
        }
      },
      {
        "type": "node",
        "id": 2705148446,
        "lat": 22.6045435,
        "lon": 88.3651915,
        "tags": {
          "name": "Bag Bazar",
          "public_transport": "stop_position",
          "railway": "tram_stop",
          "tram": "yes"
        }
      },
      {
        "type": "node",
        "id": 2705148450,
        "lat": 22.6058128,
        "lon": 88.3720158,
        "tags": {
          "name": "Bag Bazar Depot",
          "public_transport": "stop_position",
          "railway": "tram_stop",
          "tram": "yes"
        }
      },
      {
        "type": "node",
        "id": 2705148453,
        "lat": 22.5914506,
        "lon": 88.3598827,
        "tags": {
          "name": "Rabindra Sarani/Nimtala Ghat",
          "public_transport": "stop_position",
          "railway": "tram_stop",
          "tram": "yes"
        }
      },
      {
        "type": "node",
        "id": 2705148457,
        "lat": 22.5967318,
        "lon": 88.3622799,
        "tags": {
          "name": "Sobha Bazar",
          "public_transport": "stop_position",
          "railway": "tram_stop",
          "tram": "yes"
        }
      },
      {
        "type": "node",
        "id": 2723392043,
        "lat": 22.5946335,
        "lon": 88.370888,
        "tags": {
          "name": "Bidhan Sarani / Sri Aurobindo Sarani",
          "public_transport": "stop_position",
          "railway": "tram_stop",
          "tram": "yes"
        }
      },
      {
        "type": "node",
        "id": 2723410806,
        "lat": 22.5940555,
        "lon": 88.3754301,
        "tags": {
          "name": "Acharya Jagadish Chandra Bose Road / Sri Aurobindo Sarani",
          "network": "WBTC",
          "network:wikidata": "Q7984450",
          "operator": "WBTC",
          "public_transport": "stop_position",
          "railway": "tram_stop",
          "tram": "yes"
        }
      },
      {
        "type": "node",
        "id": 3406728167,
        "lat": 22.5940585,
        "lon": 88.3709783,
        "tags": {
          "amenity": "cinema",
          "check_date": "2023-10-30",
          "internet_access": "no",
          "name": "Star Theatre",
          "opening_hours": "11:00-22:00",
          "payment:mastercard": "yes",
          "payment:visa": "yes",
          "phone": "03365251444",
          "screen": "1",
          "website": "https://g.co/kgs/g663jR",
          "wikidata": "Q7600935",
          "wikimedia_commons": "Category:Star Theatre, Kolkata",
          "wikipedia": "en:Star Theatre, Kolkata"
        }
      },
      {
        "type": "node",
        "id": 3859050133,
        "lat": 22.6011633,
        "lon": 88.3840825,
        "tags": {
          "loc_ref": "1",
          "name": "Kolkata Chitpur",
          "public_transport": "stop_position",
          "railway": "stop",
          "ref": "KOAA",
          "train": "yes"
        }
      },
      {
        "type": "node",
        "id": 4175410289,
        "lat": 22.6015146,
        "lon": 88.3822061,
        "tags": {
          "addr:city": "Kolkata",
          "addr:postcode": "700004",
          "addr:street": "Near Railway Station, Station Rd",
          "amenity": "bus_station",
          "bus": "yes",
          "name": "Kolkata Station Bus Terminal",
          "name:bn": "\u0995\u09b2\u0995\u09be\u09a4\u09be \u09b8\u09cd\u099f\u09c7\u09b6\u09a8 \u09ac\u09be\u09b8 \u099f\u09be\u09b0\u09cd\u09ae\u09bf\u09a8\u09be\u09b2",
          "name:hi": "\u0915\u094b\u0932\u0915\u093e\u0924\u093e \u0938\u094d\u091f\u0947\u0936\u0928 \u092c\u0938 \u091f\u0930\u094d\u092e\u093f\u0928\u0932",
          "public_transport": "station"
        }
      },
      {
        "type": "node",
        "id": 5244225850,
        "lat": 22.6063508,
        "lon": 88.3784257,
        "tags": {
          "name": "Tala",
          "network": "IR",
          "operator": "ER",
          "public_transport": "station",
          "railway": "station",
          "ref": "TALA",
          "wikidata": "Q56277052",
          "wikipedia": "en:Tala railway station"
        }
      },
      {
        "type": "node",
        "id": 5421546475,
        "lat": 22.5871445,
        "lon": 88.3629415,
        "tags": {
          "name": "Girish Park",
          "name:bn": "\u0997\u09bf\u09b0\u09bf\u09b6 \u09aa\u09be\u09b0\u09cd\u0995",
          "network": "Kolkata Metro",
          "network:wikidata": "Q1048849",
          "operator": "Metro Railway, Kolkata",
          "public_transport": "station",
          "railway": "station",
          "station": "subway",
          "subway": "yes",
          "wikidata": "Q5564298",
          "wikipedia": "en:Girish Park metro station"
        }
      },
      {
        "type": "node",
        "id": 5421546940,
        "lat": 22.595881,
        "lon": 88.3651996,
        "tags": {
          "name": "Shobhabazar Sutanuti",
          "name:bn": "\u09b6\u09cb\u09ad\u09be\u09ac\u09be\u099c\u09be\u09b0 \u09b8\u09c1\u09a4\u09be\u09a8\u09c1\u099f\u09bf",
          "network": "Kolkata Metro",
          "network:wikidata": "Q1048849",
          "operator": "Metro Railway, Kolkata",
          "public_transport": "station",
          "railway": "station",
          "station": "subway",
          "subway": "yes",
          "wikidata": "Q7499796",
          "wikipedia": "en:Sovabazar Sutanuti metro station"
        }
      },
      {
        "type": "node",
        "id": 5421546974,
        "lat": 22.601335,
        "lon": 88.3724974,
        "tags": {
          "name": "Shyambazar",
          "name:bn": "\u09b6\u09cd\u09af\u09be\u09ae\u09ac\u09be\u099c\u09be\u09b0",
          "network": "Kolkata Metro",
          "network:wikidata": "Q1048849",
          "operator": "Metro Railway, Kolkata",
          "public_transport": "station",
          "railway": "station",
          "station": "subway",
          "subway": "yes",
          "wikidata": "Q7505976",
          "wikipedia": "en:Shyambazar metro station"
        }
      },
      {
        "type": "node",
        "id": 5421548359,
        "lat": 22.6059241,
        "lon": 88.3863913,
        "tags": {
          "name": "Belgachia",
          "name:bn": "\u09ac\u09c7\u09b2\u0997\u09be\u099b\u09bf\u09af\u09bc\u09be",
          "network": "Kolkata Metro",
          "network:wikidata": "Q1048849",
          "official_name": "Theism Belgachia",
          "operator": "Metro Railway, Kolkata",
          "public_transport": "station",
          "railway": "station",
          "station": "subway",
          "subway": "yes",
          "wikidata": "Q4882396",
          "wikipedia": "en:Belgachia metro station"
        }
      },
      {
        "type": "node",
        "id": 6541642789,
        "lat": 22.6189106,
        "lon": 88.3731814,
        "tags": {
          "amenity": "bus_station",
          "bus": "yes",
          "check_date": "2023-10-05",
          "highway": "bus_stop",
          "name": "4B,Bus Stand",
          "public_transport": "station"
        }
      },
      {
        "type": "node",
        "id": 7630431374,
        "lat": 22.6014137,
        "lon": 88.3843607,
        "tags": {
          "name": "Kolkata Chitpur",
          "public_transport": "stop_position",
          "railway": "stop",
          "ref": "KOAA",
          "train": "yes"
        }
      },
      {
        "type": "node",
        "id": 7630431377,
        "lat": 22.6013109,
        "lon": 88.3842621,
        "tags": {
          "loc_ref": "4",
          "name": "Kolkata Chitpur",
          "public_transport": "stop_position",
          "railway": "stop",
          "ref": "KOAA",
          "train": "yes"
        }
      },
      {
        "type": "node",
        "id": 7630431378,
        "lat": 22.6012787,
        "lon": 88.3842353,
        "tags": {
          "loc_ref": "3",
          "name": "Kolkata Chitpur",
          "public_transport": "stop_position",
          "railway": "stop",
          "ref": "KOAA",
          "train": "yes"
        }
      },
      {
        "type": "node",
        "id": 7630434398,
        "lat": 22.6012775,
        "lon": 88.3841474,
        "tags": {
          "name": "Kolkata",
          "network": "IR",
          "operator": "ER",
          "public_transport": "station",
          "railway": "station",
          "ref": "KOAA",
          "wikidata": "Q6427323",
          "wikipedia": "en:Kolkata railway station"
        }
      },
      {
        "type": "node",
        "id": 8185335387,
        "lat": 22.593263,
        "lon": 88.3702174,
        "tags": {
          "amenity": "fuel",
          "name": "Rikita"
        }
      },
      {
        "type": "node",
        "id": 8855449577,
        "lat": 22.61605,
        "lon": 88.3791019,
        "tags": {
          "addr:street": "SH1",
          "amenity": "bus_station",
          "bus": "yes",
          "name": "Paikpara",
          "public_transport": "station"
        }
      },
      {
        "type": "node",
        "id": 8999697038,
        "lat": 22.6065505,
        "lon": 88.3952451,
        "tags": {
          "name": "Patipukur",
          "network": "IR",
          "operator": "ER",
          "public_transport": "station",
          "railway": "station",
          "ref": "PTKR",
          "wikidata": "Q56277048"
        }
      },
      {
        "type": "node",
        "id": 9042459621,
        "lat": 22.600134,
        "lon": 88.3725861,
        "tags": {
          "name": "Shyambazar tram depot",
          "operator": "WBTC",
          "public_transport": "station",
          "tram": "yes"
        }
      },
      {
        "type": "node",
        "id": 10115952217,
        "lat": 22.6075228,
        "lon": 88.3922575,
        "tags": {
          "amenity": "charging_station",
          "name": "Electric vehicle charging station",
          "opening_hours": "24/7"
        }
      },
      {
        "type": "node",
        "id": 11240700331,
        "lat": 22.6182881,
        "lon": 88.3680714,
        "tags": {
          "amenity": "ferry_terminal",
          "check_date": "2023-10-05",
          "ferry": "yes",
          "name": "Cossipore Jetty",
          "operator": "WBTC",
          "public_transport": "station"
        }
      },
      {
        "type": "node",
        "id": 11446905870,
        "lat": 22.6055821,
        "lon": 88.3846637,
        "tags": {
          "addr:postcode": "700037",
          "addr:street": "Radha Gobinda Kar Road",
          "amenity": "bus_station",
          "bus": "yes",
          "name": "West Bengal Transport Corporation - Belgachia Deopt",
          "name:en": "West Bengal Transport Corporation - Belgachia Depot",
          "opening_hours": "Mo-Su 06:00-12:00",
          "operator": "WBTC",
          "public_transport": "station",
          "website": "https://transport.wb.gov.in/"
        }
      },
      {
        "type": "node",
        "id": 11703491150,
        "lat": 22.6059281,
        "lon": 88.3861588,
        "tags": {
          "name": "Belgachia",
          "name:bn": "\u09ac\u09c7\u09b2\u0997\u09be\u099b\u09bf\u09af\u09bc\u09be",
          "network": "Kolkata Metro",
          "operator": "Metro Railway, Kolkata",
          "public_transport": "stop_position",
          "railway": "stop",
          "subway": "yes"
        }
      },
      {
        "type": "node",
        "id": 11703491151,
        "lat": 22.6061148,
        "lon": 88.3865976,
        "tags": {
          "name": "Belgachia",
          "name:bn": "\u09ac\u09c7\u09b2\u0997\u09be\u099b\u09bf\u09af\u09bc\u09be",
          "network": "Kolkata Metro",
          "operator": "Metro Railway, Kolkata",
          "public_transport": "stop_position",
          "railway": "stop",
          "subway": "yes"
        }
      },
      {
        "type": "node",
        "id": 11703491152,
        "lat": 22.6014912,
        "lon": 88.3726119,
        "tags": {
          "name": "Shyambazar",
          "name:bn": "\u09b6\u09cd\u09af\u09be\u09ae\u09ac\u09be\u099c\u09be\u09b0",
          "network": "Kolkata Metro",
          "operator": "Metro Railway, Kolkata",
          "public_transport": "stop_position",
          "railway": "stop",
          "subway": "yes"
        }
      },
      {
        "type": "node",
        "id": 11703491153,
        "lat": 22.6013443,
        "lon": 88.3723435,
        "tags": {
          "name": "Shyambazar",
          "name:bn": "\u09b6\u09cd\u09af\u09be\u09ae\u09ac\u09be\u099c\u09be\u09b0",
          "network": "Kolkata Metro",
          "operator": "Metro Railway, Kolkata",
          "public_transport": "stop_position",
          "railway": "stop",
          "subway": "yes"
        }
      },
      {
        "type": "node",
        "id": 11703491155,
        "lat": 22.595589,
        "lon": 88.3650434,
        "tags": {
          "name": "Shobhabazar Sutanuti",
          "name:bn": "\u09b6\u09cb\u09ad\u09be\u09ac\u09be\u099c\u09be\u09b0 \u09b8\u09c1\u09a4\u09be\u09a8\u09c1\u099f\u09bf",
          "network": "Kolkata Metro",
          "operator": "Metro Railway, Kolkata",
          "public_transport": "stop_position",
          "railway": "stop",
          "subway": "yes"
        }
      },
      {
        "type": "node",
        "id": 11703491156,
        "lat": 22.5960768,
        "lon": 88.3650951,
        "tags": {
          "name": "Shobhabazar Sutanuti",
          "name:bn": "\u09b6\u09cb\u09ad\u09be\u09ac\u09be\u099c\u09be\u09b0 \u09b8\u09c1\u09a4\u09be\u09a8\u09c1\u099f\u09bf",
          "network": "Kolkata Metro",
          "operator": "Metro Railway, Kolkata",
          "public_transport": "stop_position",
          "railway": "stop",
          "subway": "yes"
        }
      },
      {
        "type": "node",
        "id": 11703491157,
        "lat": 22.5867702,
        "lon": 88.3628753,
        "tags": {
          "name": "Girish Park",
          "name:bn": "\u0997\u09bf\u09b0\u09bf\u09b6 \u09aa\u09be\u09b0\u09cd\u0995",
          "network": "Kolkata Metro",
          "operator": "Metro Railway, Kolkata",
          "public_transport": "stop_position",
          "railway": "stop",
          "subway": "yes"
        }
      },
      {
        "type": "node",
        "id": 11703491158,
        "lat": 22.5873608,
        "lon": 88.3629625,
        "tags": {
          "name": "Girish Park",
          "name:bn": "\u0997\u09bf\u09b0\u09bf\u09b6 \u09aa\u09be\u09b0\u09cd\u0995",
          "network": "Kolkata Metro",
          "operator": "Metro Railway, Kolkata",
          "public_transport": "stop_position",
          "railway": "stop",
          "subway": "yes"
        }
      },
      {
        "type": "node",
        "id": 12088322220,
        "lat": 22.5866768,
        "lon": 88.358668,
        "tags": {
          "amenity": "fuel",
          "brand": "Bharat Petroleum",
          "brand:wikidata": "Q854826",
          "name": "Bharat Petroleum, Petrol Pump -Imperial Petrol Service Station"
        }
      },
      {
        "type": "node",
        "id": 12534112957,
        "lat": 22.605453,
        "lon": 88.3655737,
        "tags": {
          "name": "Bagbazar",
          "name:bn": "\u09ac\u09be\u0997\u09ac\u09be\u099c\u09be\u09b0",
          "name:hi": "\u092c\u093e\u0917\u092c\u093e\u091c\u093e\u0930",
          "network": "IR",
          "operator": "ER",
          "public_transport": "stop_position",
          "railway": "stop",
          "ref": "1",
          "train": "yes",
          "wikidata": "Q25549505",
          "wikipedia": "en:Bagbazar railway station"
        }
      },
      {
        "type": "node",
        "id": 12534112958,
        "lat": 22.6055097,
        "lon": 88.3654974,
        "tags": {
          "name": "Bagbazar",
          "name:bn": "\u09ac\u09be\u0997\u09ac\u09be\u099c\u09be\u09b0",
          "name:hi": "\u092c\u093e\u0917\u092c\u093e\u091c\u093e\u0930",
          "network": "IR",
          "operator": "ER",
          "public_transport": "stop_position",
          "railway": "stop",
          "ref": "2",
          "train": "yes",
          "wikidata": "Q25549505",
          "wikipedia": "en:Bagbazar railway station"
        }
      },
      {
        "type": "node",
        "id": 12725821244,
        "lat": 22.5917545,
        "lon": 88.3908911,
        "tags": {
          "name": "Bidhannagar Road",
          "name:bn": "\u09ac\u09bf\u09a7\u09be\u09a8\u09a8\u0997\u09b0 \u09b0\u09cb\u09a1",
          "operator": "Eastern Railways",
          "public_transport": "stop_position",
          "railway": "stop",
          "train": "yes",
          "wikidata": "Q4904158",
          "wikipedia": "en:Bidhannagar Road railway station"
        }
      }
    ]
  }
}