{
  "pois_1km": {
    "version": 0.6,
    "generator": "Overpass API 0.7.62.8 e802775f",
    "osm3s": {
      "timestamp_osm_base": "2025-09-06T09:50:51Z",
      "copyright": "The data included in this document is from www.openstreetmap.org. The data is made available under ODbL."
    },
    "elements": [
      {
        "type": "node",
        "id": 3413973944,
        "lat": 22.5799995,
        "lon": 88.3741115,
        "tags": {
          "amenity": "atm",
          "brand": "State Bank of India",
          "brand:wikidata": "Q1340361",
          "name": "State Bank of India",
          "operator": "State Bank of India",
          "operator:wikidata": "Q1340361",
          "short_name": "SBI"
        }
      },
      {
        "type": "node",
        "id": 3413975338,
        "lat": 22.5732985,
        "lon": 88.3723432,
        "tags": {
          "amenity": "pharmacy",
          "healthcare": "pharmacy",
          "name": "Das Pharmacy"
        }
      },
      {
        "type": "node",
        "id": 4834257106,
        "lat": 22.5728574,
        "lon": 88.3730073,
        "tags": {
          "addr:city": "KOLKATA",
          "addr:housenumber": "301",
          "addr:postcode": "700009",
          "addr:street": "Acharya Jagadish Chandra Bose Road",
          "amenity": "hospital",
          "check_date": "2023-09-30",
          "healthcare": "hospital",
          "internet_access": "wlan",
          "internet_access:fee": "no",
          "name": "ESI HOSPITAL, SEALDAH",
          "operator": "Employees' State Insurance",
          "operator:short": "ESI",
          "operator:wikidata": "Q3595726",
          "payment:mastercard": "yes",
          "payment:visa": "yes",
          "wheelchair": "yes"
        }
      },
      {
        "type": "node",
        "id": 5574212963,
        "lat": 22.5729323,
        "lon": 88.3665439,
        "tags": {
          "addr:housenumber": "29",
          "addr:street": "Surya Sen Street",
          "amenity": "fast_food",
          "cuisine": "fried_food",
          "description": "Serves fried Bengali snacks like chop, cutlet, beguni, accepts only cash.",
          "diet:non-vegetarian": "yes",
          "drive_through": "no",
          "name": "Kalika",
          "opening_hours": "Mo-Sa 15:00-20:00"
        }
      },
      {
        "type": "node",
        "id": 7029147185,
        "lat": 22.5856398,
        "lon": 88.3742373,
        "tags": {
          "name": "Maniktala Fish Market",
          "shop": "supermarket"
        }
      },
      {
        "type": "node",
        "id": 7050802280,
        "lat": 22.5811797,
        "lon": 88.3745605,
        "tags": {
          "addr:district": "Kolkata",
          "addr:full": "288 / 2, A. P. C. Road",
          "addr:postcode": "700033",
          "addr:state": "West Bengal",
          "amenity": "clinic",
          "contact:phone": "23507272",
          "healthcare": "clinic",
          "name": "Capitol Nursing Home",
          "source": "OpenGovernmentData"
        }
      },
      {
        "type": "node",
        "id": 7050867445,
        "lat": 22.5794459,
        "lon": 88.3750211,
        "tags": {
          "addr:district": "Kolkata",
          "addr:full": "4 Federation Street",
          "addr:postcode": "700009",
          "addr:state": "West Bengal",
          "amenity": "clinic",
          "contact:phone": "23502375",
          "healthcare": "clinic",
          "name": "Federation Nursing Home",
          "source": "OpenGovernmentData"
        }
      },
      {
        "type": "node",
        "id": 7051316701,
        "lat": 22.5810552,
        "lon": 88.3656241,
        "tags": {
          "addr:district": "Kolkata",
          "addr:full": "4A, Rajendra Deb Road",
          "addr:postcode": "700007",
          "addr:state": "West Bengal",
          "amenity": "hospital",
          "check_date": "2023-09-30",
          "healthcare": "hospital",
          "name": "Aurobindo Netralaya",
          "source": "OpenGovernmentData",
          "website": "drabhijitghosh.com"
        }
      },
      {
        "type": "node",
        "id": 7068409266,
        "lat": 22.5832265,
        "lon": 88.3762866,
        "tags": {
          "addr:district": "Kolkata",
          "addr:full": "58/1S, Raja Dinendra Street",
          "addr:postcode": "700006",
          "addr:state": "West Bengal",
          "amenity": "hospital",
          "healthcare": "hospital",
          "name": "Jitendra Narayan Ray Hospital",
          "source": "OpenGovernmentData"
        }
      },
      {
        "type": "node",
        "id": 7071458839,
        "lat": 22.5833714,
        "lon": 88.3748181,
        "tags": {
          "addr:district": "Kolkata",
          "addr:full": "259-A, Acharya Prafulla Chandra Road, Maniktala",
          "addr:postcode": "700006",
          "addr:state": "West Bengal",
          "amenity": "hospital",
          "healthcare": "hospital",
          "name": "The Leprosy Mission Permananda Memorial Leprosy Ho",
          "source": "OpenGovernmentData"
        }
      },
      {
        "type": "node",
        "id": 7071683933,
        "lat": 22.5781464,
        "lon": 88.3741294,
        "tags": {
          "addr:district": "Kolkata",
          "addr:full": "295/1, Acharya Prafulla Chandra Road",
          "addr:postcode": "700009",
          "addr:state": "West Bengal",
          "amenity": "hospital",
          "healthcare": "hospital",
          "healthcare:speciality": "ophthalmology",
          "name": "Dr. M. N. Chatterjee Memorial Eye Hospital",
          "source": "OpenGovernmentData"
        }
      },
      {
        "type": "node",
        "id": 10679854509,
        "lat": 22.5777019,
        "lon": 88.3778028,
        "tags": {
          "addr:city": "KOLKATA",
          "addr:postcode": "700009",
          "addr:street": "Canal West Road",
          "leisure": "park",
          "name": "SUNFLOWER PARK"
        }
      }
    ]
  },
  "pois_2_5km": {
    "version": 0.6,
    "generator": "Overpass API 0.7.62.8 e802775f",
    "osm3s": {
      "timestamp_osm_base": "2025-09-06T09:50:51Z",
      "copyright": "The data included in this document is from www.openstreetmap.org. The data is made available under ODbL."
    },
    "elements": [
      {
        "type": "node",
        "id": 252584722,
        "lat": 22.5679661,
        "lon": 88.3711047,
        "tags": {
          "addr:city": "Kolkata",
          "air_conditioning": "yes",
          "internet_access": "yes",
          "internet_access:fee": "no",
          "is_in": "Kolkata,West Bengal,India",
          "is_in:city": "Kolkata",
          "is_in:country": "India",
          "is_in:country_code": "IN",
          "is_in:state": "West Bengal",
          "name": "Sealdah",
          "name:bn": "\u09b6\u09bf\u09af\u09bc\u09be\u09b2\u09a6\u09b9",
          "name:en": "Sealdah",
          "name:hi": "\u0938\u093f\u092f\u093e\u0932\u0926\u093e\u0939",
          "network": "IR",
          "operator": "ER",
          "owner": "Indian Railways",
          "public_transport": "station",
          "railway": "station",
          "ref": "SDAH",
          "train": "yes",
          "wheelchair": "yes",
          "wikidata": "Q3347406",
          "wikipedia": "en:Sealdah railway station"
        }
      },
      {
        "type": "node",
        "id": 664440061,
        "lat": 22.5917712,
        "lon": 88.3908206,
        "tags": {
          "name": "Bidhannagar Road",
          "name:bn": "\u09ac\u09bf\u09a7\u09be\u09a8\u09a8\u0997\u09b0 \u09b0\u09cb\u09a1",
          "operator": "Eastern Railways",
          "public_transport": "stop_position",
          "railway": "stop",
          "train": "yes",
          "wikidata": "Q4904158",
          "wikipedia": "en:Bidhannagar Road railway station"
        }
      },
      {
        "type": "node",
        "id": 1188948187,
        "lat": 22.5811689,
        "lon": 88.3618766,
        "tags": {
          "amenity": "cinema",
          "check_date": "2023-10-04",
          "name": "Mahajati Sadan Auditorium"
        }
      },
      {
        "type": "node",
        "id": 1210706867,
        "lat": 22.5999666,
        "lon": 88.3729349,
        "tags": {
          "name": "Shyambazar",
          "network": "WBTC",
          "network:wikidata": "Q7984450",
          "operator": "Calcutta Tramways Company",
          "public_transport": "stop_position",
          "railway": "tram_stop",
          "tram": "yes"
        }
      },
      {
        "type": "node",
        "id": 1307939452,
        "lat": 22.5926544,
        "lon": 88.3887464,
        "tags": {
          "amenity": "bus_station",
          "bus": "yes",
          "description": "Route Number S-30, S-30A, ST7",
          "name": "15 No Bus Stand (S30)",
          "operator": "WBTC",
          "public_transport": "station",
          "wheelchair": "yes"
        }
      },
      {
        "type": "node",
        "id": 2133670739,
        "lat": 22.5742428,
        "lon": 88.3734415,
        "tags": {
          "name": "Rajabazar",
          "network": "WBTC",
          "network:wikidata": "Q7984450",
          "operator": "Calcutta Tramways Company",
          "public_transport": "stop_position",
          "railway": "tram_stop",
          "tram": "yes"
        }
      },
      {
        "type": "node",
        "id": 2141425962,
        "lat": 22.5917787,
        "lon": 88.3907817,
        "tags": {
          "name": "Bidhannagar Road",
          "name:bn": "\u09ac\u09bf\u09a7\u09be\u09a8\u09a8\u0997\u09b0 \u09b0\u09cb\u09a1",
          "operator": "Eastern Railways",
          "public_transport": "stop_position",
          "railway": "stop",
          "train": "yes",
          "wikidata": "Q4904158",
          "wikipedia": "en:Bidhannagar Road railway station"
        }
      },
      {
        "type": "node",
        "id": 2141425973,
        "lat": 22.5917378,
        "lon": 88.3909399,
        "tags": {
          "name": "Bidhannagar Road",
          "name:bn": "\u09ac\u09bf\u09a7\u09be\u09a8\u09a8\u0997\u09b0 \u09b0\u09cb\u09a1",
          "operator": "Eastern Railways",
          "public_transport": "stop_position",
          "railway": "stop",
          "train": "yes",
          "wikidata": "Q4904158",
          "wikipedia": "en:Bidhannagar Road railway station"
        }
      },
      {
        "type": "node",
        "id": 2207611901,
        "lat": 22.591149,
        "lon": 88.3912585,
        "tags": {
          "name": "Bidhan Nagar",
          "network": "WBTC",
          "network:wikidata": "Q7984450",
          "operator": "Calcutta Tramways Company",
          "public_transport": "stop_position",
          "railway": "tram_stop",
          "tram": "yes"
        }
      },
      {
        "type": "node",
        "id": 2266850249,
        "lat": 22.5648757,
        "lon": 88.3682593,
        "tags": {
          "amenity": "cinema",
          "name": "Prachi Cinema Hall"
        }
      },
      {
        "type": "node",
        "id": 2281800830,
        "lat": 22.6000785,
        "lon": 88.3729404,
        "tags": {
          "name": "Shyambazar (northbound)",
          "network": "WBTC",
          "network:wikidata": "Q7984450",
          "operator": "Calcutta Tramways Company",
          "public_transport": "stop_position",
          "railway": "tram_stop",
          "tram": "yes"
        }
      },
      {
        "type": "node",
        "id": 2281953574,
        "lat": 22.5823221,
        "lon": 88.3496156,
        "tags": {
          "name": "Howrah Bridge",
          "network": "WBTC",
          "network:wikidata": "Q7984450",
          "operator": "Calcutta Tramways Company",
          "public_transport": "stop_position",
          "railway": "tram_stop",
          "tram": "yes",
          "wheelchair": "yes"
        }
      },
      {
        "type": "node",
        "id": 2323761292,
        "lat": 22.5912601,
        "lon": 88.3909641,
        "tags": {
          "name": "Bidhannagar Road",
          "name:bn": "\u09ac\u09bf\u09a7\u09be\u09a8\u09a8\u0997\u09b0 \u09b0\u09cb\u09a1",
          "network": "IR",
          "operator": "ER",
          "public_transport": "station",
          "railway": "station",
          "ref": "BNXR",
          "website": "https://er.indianrailways.gov.in/",
          "wheelchair": "no",
          "wikidata": "Q4904158",
          "wikipedia": "en:Bidhannagar Road railway station"
        }
      },
      {
        "type": "node",
        "id": 2703679634,
        "lat": 22.5772917,
        "lon": 88.3641755,
        "tags": {
          "name": "College Street",
          "public_transport": "stop_position",
          "railway": "tram_stop",
          "tram": "yes"
        }
      },
      {
        "type": "node",
        "id": 2703686173,
        "lat": 22.5695913,
        "lon": 88.3607631,
        "tags": {
          "name": "College Street / Bepin Behari Ganguly Street",
          "public_transport": "stop_position",
          "railway": "tram_stop",
          "tram": "yes"
        }
      },
      {
        "type": "node",
        "id": 2703686631,
        "lat": 22.5630392,
        "lon": 88.3585179,
        "tags": {
          "name": "Lenin Sarani/Nirmal Chandra Dev Street",
          "public_transport": "stop_position",
          "railway": "tram_stop",
          "tram": "yes"
        }
      },
      {
        "type": "node",
        "id": 2703690674,
        "lat": 22.5664558,
        "lon": 88.3598884,
        "tags": {
          "name": "Nirmal Chandra Dev Street",
          "public_transport": "stop_position",
          "railway": "tram_stop",
          "tram": "yes"
        }
      },
      {
        "type": "node",
        "id": 2705148453,
        "lat": 22.5914506,
        "lon": 88.3598827,
        "tags": {
          "name": "Rabindra Sarani/Nimtala Ghat",
          "public_transport": "stop_position",
          "railway": "tram_stop",
          "tram": "yes"
        }
      },
      {
        "type": "node",
        "id": 2705148457,
        "lat": 22.5967318,
        "lon": 88.3622799,
        "tags": {
          "name": "Sobha Bazar",
          "public_transport": "stop_position",
          "railway": "tram_stop",
          "tram": "yes"
        }
      },
      {
        "type": "node",
        "id": 2720312081,
        "lat": 22.5728444,
        "lon": 88.3670158,
        "tags": {
          "name": "Surya Sen St / Amhurst St /  Raja Ramohan Sarani St",
          "public_transport": "stop_position",
          "railway": "tram_stop",
          "tram": "yes"
        }
      },
      {
        "type": "node",
        "id": 2720315284,
        "lat": 22.5646322,
        "lon": 88.3685259,
        "tags": {
          "name": "Acharya Jagadish Chandra  Bose Rd / Sealdah",
          "public_transport": "stop_position",
          "railway": "tram_stop",
          "tram": "yes"
        }
      },
      {
        "type": "node",
        "id": 2720336779,
        "lat": 22.5681951,
        "lon": 88.3649273,
        "tags": {
          "name": "Bepin Baru Ganguly St / Amhurst St",
          "public_transport": "stop_position",
          "railway": "tram_stop",
          "tram": "yes"
        }
      },
      {
        "type": "node",
        "id": 2720337270,
        "lat": 22.5614921,
        "lon": 88.3672021,
        "tags": {
          "name": "Acharya Prafulla Chandra Road / Lenin Sarani",
          "public_transport": "stop_position",
          "railway": "tram_stop",
          "tram": "yes"
        }
      },
      {
        "type": "node",
        "id": 2720342347,
        "lat": 22.5727779,
        "lon": 88.3716794,
        "tags": {
          "name": "Raja Bazar",
          "public_transport": "stop_position",
          "railway": "tram_stop",
          "tram": "yes"
        }
      },
      {
        "type": "node",
        "id": 2723392043,
        "lat": 22.5946335,
        "lon": 88.370888,
        "tags": {
          "name": "Bidhan Sarani / Sri Aurobindo Sarani",
          "public_transport": "stop_position",
          "railway": "tram_stop",
          "tram": "yes"
        }
      },
      {
        "type": "node",
        "id": 2723410806,
        "lat": 22.5940555,
        "lon": 88.3754301,
        "tags": {
          "name": "Acharya Jagadish Chandra Bose Road / Sri Aurobindo Sarani",
          "network": "WBTC",
          "network:wikidata": "Q7984450",
          "operator": "WBTC",
          "public_transport": "stop_position",
          "railway": "tram_stop",
          "tram": "yes"
        }
      },
      {
        "type": "node",
        "id": 2747151484,
        "lat": 22.5785987,
        "lon": 88.3900338,
        "tags": {
          "amenity": "fuel"
        }
      },
      {
        "type": "node",
        "id": 3406728167,
        "lat": 22.5940585,
        "lon": 88.3709783,
        "tags": {
          "amenity": "cinema",
          "check_date": "2023-10-30",
          "internet_access": "no",
          "name": "Star Theatre",
          "opening_hours": "11:00-22:00",
          "payment:mastercard": "yes",
          "payment:visa": "yes",
          "phone": "03365251444",
          "screen": "1",
          "website": "https://g.co/kgs/g663jR",
          "wikidata": "Q7600935",
          "wikimedia_commons": "Category:Star Theatre, Kolkata",
          "wikipedia": "en:Star Theatre, Kolkata"
        }
      },
      {
        "type": "node",
        "id": 4178731066,
        "lat": 22.5715987,
        "lon": 88.3502602,
        "tags": {
          "amenity": "bus_station",
          "bus": "yes",
          "name": "B.B.D. Bag",
          "public_transport": "station"
        }
      },
      {
        "type": "node",
        "id": 4891338224,
        "lat": 22.5612312,
        "lon": 88.3588968,
        "tags": {
          "amenity": "fuel",
          "brand": "Bharat Petroleum",
          "brand:wikidata": "Q854826",
          "name": "Bharat Petroleum",
          "name:en": "Bharat Petroleum"
        }
      },
      {
        "type": "node",
        "id": 5189265436,
        "lat": 22.5720265,
        "lon": 88.3902669,
        "tags": {
          "name": "Phoolbagan",
          "name:bn": "\u09ab\u09c1\u09b2\u09ac\u09be\u0997\u09be\u09a8",
          "network": "Kolkata Metro",
          "public_transport": "stop_position",
          "railway": "stop",
          "subway": "yes"
        }
      },
      {
        "type": "node",
        "id": 5253354261,
        "lat": 22.5741753,
        "lon": 88.3850451,
        "tags": {
          "name": "Sir Gurudas Banerjee Halt",
          "network": "IR",
          "operator": "ER",
          "public_transport": "station",
          "railway": "station",
          "ref": "SGBA",
          "wikidata": "Q56278572",
          "wikipedia": "en:Sir Gurudas Banerjee Halt railway station"
        }
      },
      {
        "type": "node",
        "id": 5421528426,
        "lat": 22.5724857,
        "lon": 88.3587427,
        "tags": {
          "name": "Central",
          "name:bn": "\u09b8\u09c7\u09a8\u09cd\u099f\u09cd\u09b0\u09be\u09b2",
          "network": "Kolkata Metro",
          "network:wikidata": "Q1048849",
          "operator": "Metro Railway, Kolkata",
          "public_transport": "station",
          "railway": "station",
          "station": "subway",
          "subway": "yes",
          "wikidata": "Q5061425",
          "wikipedia": "en:Central metro station (Kolkata)"
        }
      },
      {
        "type": "node",
        "id": 5421543316,
        "lat": 22.5670118,
        "lon": 88.3541581,
        "tags": {
          "name": "Chandni Chowk",
          "name:bn": "\u099a\u09be\u0981\u09a6\u09a8\u09bf \u099a\u0995",
          "network": "Kolkata Metro",
          "operator": "Metro Railway, Kolkata",
          "public_transport": "station",
          "railway": "station",
          "station": "subway",
          "subway": "yes",
          "wikidata": "Q5071229",
          "wikipedia": "en:Chandni Chowk metro station (Kolkata)"
        }
      },
      {
        "type": "node",
        "id": 5421545390,
        "lat": 22.5809206,
        "lon": 88.3613271,
        "tags": {
          "name": "Mahatma Gandhi Road",
          "name:bn": "\u09ae\u09b9\u09be\u09a4\u09cd\u09ae\u09be \u0997\u09be\u09a8\u09cd\u09a7\u09c0 \u09b0\u09cb\u09a1",
          "network": "Kolkata Metro",
          "network:wikidata": "Q1048849",
          "operator": "Metro Railway, Kolkata",
          "public_transport": "station",
          "railway": "station",
          "station": "subway",
          "subway": "yes",
          "wikidata": "Q6733523",
          "wikipedia": "en:Mahatma Gandhi Road metro station (Kolkata)"
        }
      },
      {
        "type": "node",
        "id": 5421546475,
        "lat": 22.5871445,
        "lon": 88.3629415,
        "tags": {
          "name": "Girish Park",
          "name:bn": "\u0997\u09bf\u09b0\u09bf\u09b6 \u09aa\u09be\u09b0\u09cd\u0995",
          "network": "Kolkata Metro",
          "network:wikidata": "Q1048849",
          "operator": "Metro Railway, Kolkata",
          "public_transport": "station",
          "railway": "station",
          "station": "subway",
          "subway": "yes",
          "wikidata": "Q5564298",
          "wikipedia": "en:Girish Park metro station"
        }
      },
      {
        "type": "node",
        "id": 5421546940,
        "lat": 22.595881,
        "lon": 88.3651996,
        "tags": {
          "name": "Shobhabazar Sutanuti",
          "name:bn": "\u09b6\u09cb\u09ad\u09be\u09ac\u09be\u099c\u09be\u09b0 \u09b8\u09c1\u09a4\u09be\u09a8\u09c1\u099f\u09bf",
          "network": "Kolkata Metro",
          "network:wikidata": "Q1048849",
          "operator": "Metro Railway, Kolkata",
          "public_transport": "station",
          "railway": "station",
          "station": "subway",
          "subway": "yes",
          "wikidata": "Q7499796",
          "wikipedia": "en:Sovabazar Sutanuti metro station"
        }
      },
      {
        "type": "node",
        "id": 5587888046,
        "lat": 22.5656628,
        "lon": 88.3723915,
        "tags": {
          "addr:city": "Kolkata",
          "air_conditioning": "yes",
          "internet_access": "yes",
          "internet_access:fee": "no",
          "name": "Sealdah",
          "name:bn": "\u09b6\u09bf\u09af\u09bc\u09be\u09b2\u09a6\u09b9",
          "network": "IR",
          "operator": "ER",
          "public_transport": "station",
          "railway": "station",
          "ref": "SDAH",
          "train": "yes",
          "wheelchair": "yes",
          "wikidata": "Q3347406",
          "wikipedia": "en:Sealdah railway station"
        }
      },
      {
        "type": "node",
        "id": 5777572412,
        "lat": 22.5720898,
        "lon": 88.3902604,
        "tags": {
          "name": "Phoolbagan",
          "name:bn": "\u09ab\u09c1\u09b2\u09ac\u09be\u0997\u09be\u09a8",
          "network": "Kolkata Metro",
          "public_transport": "stop_position",
          "railway": "stop",
          "subway": "yes"
        }
      },
      {
        "type": "node",
        "id": 5777572592,
        "lat": 22.5670985,
        "lon": 88.3543062,
        "tags": {
          "name": "Chandni Chowk",
          "name:bn": "\u099a\u09be\u0981\u09a6\u09a8\u09bf \u099a\u0995",
          "network": "Kolkata Metro",
          "operator": "Metro Railway, Kolkata",
          "public_transport": "stop_position",
          "railway": "stop",
          "subway": "yes"
        }
      },
      {
        "type": "node",
        "id": 7717075782,
        "lat": 22.568471,
        "lon": 88.3711092,
        "tags": {
          "name": "Sealdah",
          "name:bn": "\u09b6\u09bf\u09af\u09bc\u09be\u09b2\u09a6\u09b9",
          "name:en": "Sealdah",
          "name:hi": "\u0938\u093f\u092f\u093e\u0932\u0926\u093e\u0939",
          "network": "Indian Railways",
          "operator": "Eastern Railway",
          "public_transport": "stop_position",
          "railway": "stop",
          "ref": "4",
          "train": "yes"
        }
      },
      {
        "type": "node",
        "id": 7717075783,
        "lat": 22.5685717,
        "lon": 88.3710455,
        "tags": {
          "name": "Sealdah",
          "name:bn": "\u09b6\u09bf\u09af\u09bc\u09be\u09b2\u09a6\u09b9",
          "name:en": "Sealdah",
          "name:hi": "\u0938\u093f\u092f\u093e\u0932\u0926\u093e\u0939",
          "network": "Indian Railways",
          "operator": "Eastern Railway",
          "public_transport": "stop_position",
          "railway": "stop",
          "ref": "3",
          "train": "yes"
        }
      },
      {
        "type": "node",
        "id": 7717075784,
        "lat": 22.5686071,
        "lon": 88.3710221,
        "tags": {
          "name": "Sealdah",
          "name:bn": "\u09b6\u09bf\u09af\u09bc\u09be\u09b2\u09a6\u09b9",
          "name:en": "Sealdah",
          "name:hi": "\u0938\u093f\u092f\u093e\u0932\u0926\u093e\u0939",
          "network": "Indian Railways",
          "operator": "Eastern Railway",
          "public_transport": "stop_position",
          "railway": "stop",
          "ref": "2",
          "train": "yes"
        }
      },
      {
        "type": "node",
        "id": 7717085985,
        "lat": 22.5687168,
        "lon": 88.3709768,
        "tags": {
          "name": "Sealdah",
          "name:bn": "\u09b6\u09bf\u09af\u09bc\u09be\u09b2\u09a6\u09b9",
          "name:en": "Sealdah",
          "name:hi": "\u0938\u093f\u092f\u093e\u0932\u0926\u093e\u0939",
          "network": "Indian Railways",
          "operator": "Eastern Railway",
          "public_transport": "stop_position",
          "railway": "stop",
          "ref": "1",
          "train": "yes"
        }
      },
      {
        "type": "node",
        "id": 7976140072,
        "lat": 22.5721268,
        "lon": 88.3902408,
        "tags": {
          "name": "Phoolbagan",
          "name:bn": "\u09ab\u09c1\u09b2\u09ac\u09be\u0997\u09be\u09a8",
          "network": "Kolkata Metro",
          "network:wikidata": "Q1048849",
          "public_transport": "station",
          "railway": "station",
          "ref": "PBGB",
          "station": "subway",
          "subway": "yes",
          "wikidata": "Q30632551",
          "wikipedia": "en:Phoolbagan metro station"
        }
      },
      {
        "type": "node",
        "id": 8185335387,
        "lat": 22.593263,
        "lon": 88.3702174,
        "tags": {
          "amenity": "fuel",
          "name": "Rikita"
        }
      },
      {
        "type": "node",
        "id": 8508732200,
        "lat": 22.5813946,
        "lon": 88.3528436,
        "tags": {
          "name": "Barabazar",
          "public_transport": "stop_position",
          "railway": "tram_stop",
          "tram": "yes"
        }
      },
      {
        "type": "node",
        "id": 9042459621,
        "lat": 22.600134,
        "lon": 88.3725861,
        "tags": {
          "name": "Shyambazar tram depot",
          "operator": "WBTC",
          "public_transport": "station",
          "tram": "yes"
        }
      },
      {
        "type": "node",
        "id": 9057837717,
        "lat": 22.5649106,
        "lon": 88.3590689,
        "tags": {
          "addr:city": "KOLKATA",
          "addr:housenumber": "76",
          "addr:postcode": "700013",
          "addr:street": "Ganesh Chandra Road",
          "amenity": "cinema",
          "name": "HIND INOX",
          "opening_hours": "Mo-Su 10:00-22:00",
          "payment:cash": "yes",
          "payment:credit_cards": "yes",
          "payment:debit_cards": "yes",
          "payment:discover_card": "yes",
          "payment:maestro": "yes",
          "payment:mastercard": "yes",
          "payment:notes": "yes",
          "payment:visa": "yes",
          "payment:visa_debit": "yes",
          "screen": "2"
        }
      },
      {
        "type": "node",
        "id": 9566184417,
        "lat": 22.580991,
        "lon": 88.3911903,
        "tags": {
          "amenity": "bus_station",
          "bus": "yes",
          "name": "S-3B Bus Terminus",
          "public_transport": "station"
        }
      },
      {
        "type": "node",
        "id": 9884790401,
        "lat": 22.5666059,
        "lon": 88.3697815,
        "tags": {
          "name": "Sealdah",
          "name:bn": "\u09b6\u09bf\u09af\u09bc\u09be\u09b2\u09a6\u09b9 \u09ae\u09c7\u099f\u09cd\u09b0\u09cb \u09b8\u09cd\u099f\u09c7\u09b6\u09a8",
          "network": "Kolkata Metro",
          "network:wikidata": "Q1048849",
          "public_transport": "station",
          "railway": "station",
          "ref": "SDHM",
          "station": "subway",
          "subway": "yes",
          "wikidata": "Q30278708",
          "wikipedia": "en:Sealdah metro station"
        }
      },
      {
        "type": "node",
        "id": 9884790402,
        "lat": 22.5664154,
        "lon": 88.3700235,
        "tags": {
          "name": "Sealdah",
          "network": "Kolkata Metro",
          "public_transport": "stop_position",
          "railway": "stop",
          "subway": "yes"
        }
      },
      {
        "type": "node",
        "id": 9884790403,
        "lat": 22.5664743,
        "lon": 88.3700496,
        "tags": {
          "name": "Sealdah",
          "network": "Kolkata Metro",
          "public_transport": "stop_position",
          "railway": "stop",
          "subway": "yes"
        }
      },
      {
        "type": "node",
        "id": 11533663305,
        "lat": 22.5813727,
        "lon": 88.3528379,
        "tags": {
          "name": "Barabazar",
          "public_transport": "stop_position",
          "railway": "tram_stop",
          "tram": "yes"
        }
      },
      {
        "type": "node",
        "id": 11699262526,
        "lat": 22.5720649,
        "lon": 88.3504831,
        "tags": {
          "alt_name": "New Mahakaran",
          "name": "Mahakaran",
          "name:bn": "\u09ae\u09b9\u09be\u0995\u09b0\u09a3",
          "public_transport": "stop_position",
          "railway": "stop",
          "subway": "yes"
        }
      },
      {
        "type": "node",
        "id": 11699262527,
        "lat": 22.5720495,
        "lon": 88.3505501,
        "tags": {
          "alt_name": "New Mahakaran",
          "name": "Mahakaran",
          "name:bn": "\u09ae\u09b9\u09be\u0995\u09b0\u09a3",
          "public_transport": "stop_position",
          "railway": "stop",
          "subway": "yes"
        }
      },
      {
        "type": "node",
        "id": 11699268223,
        "lat": 22.5720777,
        "lon": 88.3505275,
        "tags": {
          "alt_name": "New Mahakaran",
          "name": "Mahakaran",
          "name:bn": "\u09ae\u09b9\u09be\u0995\u09b0\u09a3",
          "network": "Kolkata Metro",
          "network:wikidata": "Q1048849",
          "operator": "Metro Railway, Kolkata",
          "public_transport": "station",
          "railway": "station",
          "ref": "MKNA",
          "station": "subway",
          "subway": "yes",
          "wikidata": "Q30632550",
          "wikipedia": "bn:\u09ae\u09b9\u09be\u0995\u09b0\u09a3 \u09ae\u09c7\u099f\u09cd\u09b0\u09cb \u09b8\u09cd\u099f\u09c7\u09b6\u09a8"
        }
      },
      {
        "type": "node",
        "id": 11703491155,
        "lat": 22.595589,
        "lon": 88.3650434,
        "tags": {
          "name": "Shobhabazar Sutanuti",
          "name:bn": "\u09b6\u09cb\u09ad\u09be\u09ac\u09be\u099c\u09be\u09b0 \u09b8\u09c1\u09a4\u09be\u09a8\u09c1\u099f\u09bf",
          "network": "Kolkata Metro",
          "operator": "Metro Railway, Kolkata",
          "public_transport": "stop_position",
          "railway": "stop",
          "subway": "yes"
        }
      },
      {
        "type": "node",
        "id": 11703491156,
        "lat": 22.5960768,
        "lon": 88.3650951,
        "tags": {
          "name": "Shobhabazar Sutanuti",
          "name:bn": "\u09b6\u09cb\u09ad\u09be\u09ac\u09be\u099c\u09be\u09b0 \u09b8\u09c1\u09a4\u09be\u09a8\u09c1\u099f\u09bf",
          "network": "Kolkata Metro",
          "operator": "Metro Railway, Kolkata",
          "public_transport": "stop_position",
          "railway": "stop",
          "subway": "yes"
        }
      },
      {
        "type": "node",
        "id": 11703491157,
        "lat": 22.5867702,
        "lon": 88.3628753,
        "tags": {
          "name": "Girish Park",
          "name:bn": "\u0997\u09bf\u09b0\u09bf\u09b6 \u09aa\u09be\u09b0\u09cd\u0995",
          "network": "Kolkata Metro",
          "operator": "Metro Railway, Kolkata",
          "public_transport": "stop_position",
          "railway": "stop",
          "subway": "yes"
        }
      },
      {
        "type": "node",
        "id": 11703491158,
        "lat": 22.5873608,
        "lon": 88.3629625,
        "tags": {
          "name": "Girish Park",
          "name:bn": "\u0997\u09bf\u09b0\u09bf\u09b6 \u09aa\u09be\u09b0\u09cd\u0995",
          "network": "Kolkata Metro",
          "operator": "Metro Railway, Kolkata",
          "public_transport": "stop_position",
          "railway": "stop",
          "subway": "yes"
        }
      },
      {
        "type": "node",
        "id": 11703491159,
        "lat": 22.5807704,
        "lon": 88.3613153,
        "tags": {
          "name": "Mahatma Gandhi Road",
          "name:bn": "\u09ae\u09b9\u09be\u09a4\u09cd\u09ae\u09be \u0997\u09be\u09a8\u09cd\u09a7\u09c0 \u09b0\u09cb\u09a1",
          "network": "Kolkata Metro",
          "operator": "Metro Railway, Kolkata",
          "public_transport": "stop_position",
          "railway": "stop",
          "subway": "yes"
        }
      },
      {
        "type": "node",
        "id": 11703491160,
        "lat": 22.5811183,
        "lon": 88.3613384,
        "tags": {
          "name": "Mahatma Gandhi Road",
          "name:bn": "\u09ae\u09b9\u09be\u09a4\u09cd\u09ae\u09be \u0997\u09be\u09a8\u09cd\u09a7\u09c0 \u09b0\u09cb\u09a1",
          "network": "Kolkata Metro",
          "operator": "Metro Railway, Kolkata",
          "public_transport": "stop_position",
          "railway": "stop",
          "subway": "yes"
        }
      },
      {
        "type": "node",
        "id": 11703491161,
        "lat": 22.5722888,
        "lon": 88.3587062,
        "tags": {
          "name": "Central",
          "name:bn": "\u09b8\u09c7\u09a8\u09cd\u099f\u09cd\u09b0\u09be\u09b2",
          "network": "Kolkata Metro",
          "operator": "Metro Railway, Kolkata",
          "public_transport": "stop_position",
          "railway": "stop",
          "subway": "yes"
        }
      },
      {
        "type": "node",
        "id": 11703491162,
        "lat": 22.5726466,
        "lon": 88.3587523,
        "tags": {
          "name": "Central",
          "name:bn": "\u09b8\u09c7\u09a8\u09cd\u099f\u09cd\u09b0\u09be\u09b2",
          "network": "Kolkata Metro",
          "operator": "Metro Railway, Kolkata",
          "public_transport": "stop_position",
          "railway": "stop",
          "subway": "yes"
        }
      },
      {
        "type": "node",
        "id": 11703491163,
        "lat": 22.5669164,
        "lon": 88.3540584,
        "tags": {
          "name": "Chandni Chowk",
          "name:bn": "\u099a\u09be\u0981\u09a6\u09a8\u09bf \u099a\u0995",
          "network": "Kolkata Metro",
          "operator": "Metro Railway, Kolkata",
          "public_transport": "stop_position",
          "railway": "stop",
          "subway": "yes"
        }
      },
      {
        "type": "node",
        "id": 12088322220,
        "lat": 22.5866768,
        "lon": 88.358668,
        "tags": {
          "amenity": "fuel",
          "brand": "Bharat Petroleum",
          "brand:wikidata": "Q854826",
          "name": "Bharat Petroleum, Petrol Pump -Imperial Petrol Service Station"
        }
      },
      {
        "type": "node",
        "id": 12139761844,
        "lat": 22.5644314,
        "lon": 88.3893452,
        "tags": {
          "amenity": "fuel",
          "brand": "Indian Oil",
          "brand:wikidata": "Q1289348",
          "name": "Indian Oil"
        }
      },
      {
        "type": "node",
        "id": 12725821244,
        "lat": 22.5917545,
        "lon": 88.3908911,
        "tags": {
          "name": "Bidhannagar Road",
          "name:bn": "\u09ac\u09bf\u09a7\u09be\u09a8\u09a8\u0997\u09b0 \u09b0\u09cb\u09a1",
          "operator": "Eastern Railways",
          "public_transport": "stop_position",
          "railway": "stop",
          "train": "yes",
          "wikidata": "Q4904158",
          "wikipedia": "en:Bidhannagar Road railway station"
        }
      }
    ]
  }
}