{
  "pois_1km": {
    "version": 0.6,
    "generator": "Overpass API 0.7.62.8 e802775f",
    "osm3s": {
      "timestamp_osm_base": "2025-09-06T09:38:33Z",
      "copyright": "The data included in this document is from www.openstreetmap.org. The data is made available under ODbL."
    },
    "elements": [
      {
        "type": "node",
        "id": 3555394596,
        "lat": 22.5971099,
        "lon": 88.4089825,
        "tags": {
          "amenity": "atm",
          "brand": "State Bank of India",
          "brand:wikidata": "Q1340361",
          "operator": "State Bank of India",
          "operator:wikidata": "Q1340361",
          "short_name": "SBI"
        }
      },
      {
        "type": "node",
        "id": 3807066487,
        "lat": 22.6012625,
        "lon": 88.4075467,
        "tags": {
          "addr:city": "Kolkata",
          "addr:housenumber": "188, Block - B",
          "addr:postcode": "700089",
          "addr:street": "Lake Town Road",
          "amenity": "cafe",
          "cuisine": "coffee_shop",
          "name": "Aqua Java Air"
        }
      },
      {
        "type": "node",
        "id": 3807109315,
        "lat": 22.5977211,
        "lon": 88.4022816,
        "tags": {
          "brand": "Big Bazaar",
          "brand:wikidata": "Q3631008",
          "name": "Big Bazaar",
          "shop": "supermarket"
        }
      },
      {
        "type": "node",
        "id": 7048116508,
        "lat": 22.6007751,
        "lon": 88.4051065,
        "tags": {
          "addr:district": "Kolkata",
          "addr:full": "276, Canal Street",
          "addr:postcode": "700048",
          "addr:state": "West Bengal",
          "amenity": "clinic",
          "contact:phone": "3340505555",
          "healthcare": "clinic",
          "name": "Dafodil Hospitals",
          "source": "OpenGovernmentData"
        }
      },
      {
        "type": "node",
        "id": 7048493842,
        "lat": 22.6036163,
        "lon": 88.4026507,
        "tags": {
          "addr:district": "Kolkata",
          "addr:full": "Plot No. 677, Block-A, Lake Town",
          "addr:postcode": "700089",
          "addr:state": "West Bengal",
          "amenity": "clinic",
          "check_date": "2023-10-04",
          "contact:phone": "3325345181",
          "healthcare": "clinic",
          "name": "Health Cure Nursing Home",
          "source": "OpenGovernmentData"
        }
      },
      {
        "type": "node",
        "id": 7050735633,
        "lat": 22.6013091,
        "lon": 88.4075772,
        "tags": {
          "addr:district": "Kolkata",
          "addr:full": "225,Opp. Dafodil Nursing Home, Canal Street (Lake Town), Sree Bhumi",
          "addr:postcode": "700089",
          "addr:state": "West Bengal",
          "amenity": "hospital",
          "healthcare": "hospital",
          "healthcare:speciality": "otolaryngology",
          "name": "Udichi ENT and Head Neck Center",
          "source": "OpenGovernmentData",
          "website": "https://entudichi.com/"
        }
      },
      {
        "type": "node",
        "id": 7065628332,
        "lat": 22.6065947,
        "lon": 88.4038757,
        "tags": {
          "addr:district": "Kolkata",
          "addr:full": "161, 162 Block A , Near Jaya Cinema Hall, Lake Town",
          "addr:postcode": "700089",
          "addr:state": "West Bengal",
          "amenity": "hospital",
          "healthcare": "hospital",
          "healthcare:speciality": "ophthalmology",
          "name": "Alokon Eye Care Pvt. Ltd.",
          "phone": "919830020686 / 033 25210707",
          "source": "OpenGovernmentData",
          "website": "http://drabhrajitchatterjee.com/"
        }
      },
      {
        "type": "node",
        "id": 9462517017,
        "lat": 22.5958522,
        "lon": 88.413124,
        "tags": {
          "addr:city": "Kolkata",
          "addr:country": "IN",
          "addr:housenumber": "59 sector 1",
          "addr:postcode": "700064",
          "addr:state": "West Bengal",
          "addr:street": "CE Block",
          "addr:suburb": "Bidhan Nagar",
          "amenity": "pharmacy",
          "healthcare": "pharmacy",
          "name": "Sri Ram Pharmacy",
          "phone": "06297780985"
        }
      },
      {
        "type": "node",
        "id": 9638276417,
        "lat": 22.6007166,
        "lon": 88.4063547,
        "tags": {
          "amenity": "pharmacy",
          "brand": "Apollo Pharmacy",
          "brand:wikidata": "Q62562612",
          "healthcare": "pharmacy",
          "name": "Apollo Pharmacy",
          "name:en": "Apollo pharmacy"
        }
      },
      {
        "type": "node",
        "id": 9638686517,
        "lat": 22.6014489,
        "lon": 88.4071206,
        "tags": {
          "amenity": "restaurant",
          "diet:vegetarian": "yes",
          "name": "Banyan tree pure veg green kitchen"
        }
      },
      {
        "type": "node",
        "id": 9638688618,
        "lat": 22.6006633,
        "lon": 88.4061993,
        "tags": {
          "addr:housenumber": "204/A",
          "addr:postcode": "700089",
          "addr:street": "Lake Town Road",
          "amenity": "pharmacy",
          "healthcare": "pharmacy",
          "name": "1MED PHARMACY"
        }
      },
      {
        "type": "node",
        "id": 9638690117,
        "lat": 22.601252,
        "lon": 88.4063544,
        "tags": {
          "amenity": "cafe",
          "name": "Rose"
        }
      },
      {
        "type": "node",
        "id": 9638691617,
        "lat": 22.6012387,
        "lon": 88.4063093,
        "tags": {
          "amenity": "restaurant",
          "name": "Rose"
        }
      },
      {
        "type": "node",
        "id": 9640611217,
        "lat": 22.5996432,
        "lon": 88.4053793,
        "tags": {
          "amenity": "restaurant",
          "brand": "Pizza Hut",
          "brand:wikidata": "Q191615",
          "cuisine": "pizza",
          "name": "Pizza Hut"
        }
      },
      {
        "type": "node",
        "id": 9640612717,
        "lat": 22.5995598,
        "lon": 88.4051432,
        "tags": {
          "amenity": "clinic",
          "healthcare": "clinic",
          "name": "Apollo diagnosis center"
        }
      },
      {
        "type": "node",
        "id": 9640615317,
        "lat": 22.598962,
        "lon": 88.4041787,
        "tags": {
          "name": "Spencers",
          "shop": "department_store"
        }
      },
      {
        "type": "node",
        "id": 9640618217,
        "lat": 22.5988685,
        "lon": 88.4039787,
        "tags": {
          "amenity": "fast_food",
          "brand": "Domino's",
          "brand:wikidata": "Q839466",
          "cuisine": "pizza",
          "name": "Domino's",
          "takeaway": "yes"
        }
      },
      {
        "type": "node",
        "id": 10091511619,
        "lat": 22.6020032,
        "lon": 88.4055599,
        "tags": {
          "amenity": "fast_food",
          "brand": "Subway",
          "brand:wikidata": "Q244457",
          "cuisine": "sandwich",
          "name": "Subway",
          "name:en": "Subway",
          "takeaway": "yes"
        }
      },
      {
        "type": "node",
        "id": 10091514217,
        "lat": 22.6013375,
        "lon": 88.4057768,
        "tags": {
          "amenity": "fast_food",
          "brand": "Wow! Momo",
          "brand:wikidata": "Q8037446",
          "cuisine": "momo",
          "name": "Wow! Momo",
          "takeaway": "yes"
        }
      },
      {
        "type": "node",
        "id": 10091524217,
        "lat": 22.5990056,
        "lon": 88.413356,
        "tags": {
          "amenity": "fast_food",
          "brand": "Wow! Momo",
          "brand:wikidata": "Q8037446",
          "cuisine": "momo",
          "name": "Wow! Momo",
          "takeaway": "yes"
        }
      },
      {
        "type": "node",
        "id": 10651584806,
        "lat": 22.5934596,
        "lon": 88.4059146,
        "tags": {
          "amenity": "restaurant",
          "name": "Calcutta 64"
        }
      },
      {
        "type": "node",
        "id": 11511919022,
        "lat": 22.5958575,
        "lon": 88.4067038,
        "tags": {
          "addr:city": "SaltLake City",
          "addr:district": "Kolkata",
          "addr:housenumber": "AD-67",
          "addr:postcode": "700064",
          "addr:street": "Block AD, 1st Avenue Road, Sector 1",
          "air_conditioning": "yes",
          "amenity": "cafe",
          "bar": "no",
          "contact:facebook": "https://www.facebook.com/profile.php?id=61555278081491&mibextid=ZbWKwL",
          "cuisine": "coffee_shop;chinese;italian;pizza;sandwich;indian;dessert;salad;pasta",
          "description": "Que Pasa, An All Day Cafe, is a vibrant new addition to the culinary landscape of Salt Lake City, invites you to embark on a gastronomic journey through the flavours of the world. Nestled amidst the bustling streets of Block AD, Sector 1, Saltlake.",
          "drive_through": "yes",
          "internet_access": "wlan",
          "internet_access:fee": "customers",
          "level": "1",
          "name": "Que Pasa",
          "opening_hours": "Mo-Su 10:00-22:00",
          "outdoor_seating": "yes",
          "payment:app": "yes",
          "payment:cards": "yes",
          "payment:cash": "yes",
          "payment:coins": "yes",
          "payment:contactless": "yes",
          "payment:credit_cards": "yes",
          "payment:debit_cards": "yes",
          "payment:diners_club": "yes",
          "payment:google_pay": "yes",
          "payment:maestro": "yes",
          "payment:mastercard": "yes",
          "payment:visa": "yes",
          "payment:visa_debit": "yes",
          "phone": "+91-8100-606767",
          "reservation": "yes",
          "start_date": "2023-12-24",
          "takeaway": "yes",
          "toilets": "yes",
          "toilets:wheelchair": "no",
          "website:menu": "https://airmenus.in/quepasa/order/Dine-In",
          "wheelchair": "no"
        }
      },
      {
        "type": "node",
        "id": 12690977754,
        "lat": 22.6035019,
        "lon": 88.4041216,
        "tags": {
          "amenity": "fast_food",
          "name": "Sharma Snacks"
        }
      }
    ]
  },
  "pois_2_5km": {
    "version": 0.6,
    "generator": "Overpass API 0.7.62.8 e802775f",
    "osm3s": {
      "timestamp_osm_base": "2025-09-06T09:38:33Z",
      "copyright": "The data included in this document is from www.openstreetmap.org. The data is made available under ODbL."
    },
    "elements": [
      {
        "type": "node",
        "id": 664440061,
        "lat": 22.5917712,
        "lon": 88.3908206,
        "tags": {
          "name": "Bidhannagar Road",
          "name:bn": "\u09ac\u09bf\u09a7\u09be\u09a8\u09a8\u0997\u09b0 \u09b0\u09cb\u09a1",
          "operator": "Eastern Railways",
          "public_transport": "stop_position",
          "railway": "stop",
          "train": "yes",
          "wikidata": "Q4904158",
          "wikipedia": "en:Bidhannagar Road railway station"
        }
      },
      {
        "type": "node",
        "id": 1074604498,
        "lat": 22.6011865,
        "lon": 88.3841191,
        "tags": {
          "loc_ref": "2",
          "name": "Kolkata Chitpur",
          "public_transport": "stop_position",
          "railway": "stop",
          "ref": "KOAA",
          "train": "yes"
        }
      },
      {
        "type": "node",
        "id": 1307939452,
        "lat": 22.5926544,
        "lon": 88.3887464,
        "tags": {
          "amenity": "bus_station",
          "bus": "yes",
          "description": "Route Number S-30, S-30A, ST7",
          "name": "15 No Bus Stand (S30)",
          "operator": "WBTC",
          "public_transport": "station",
          "wheelchair": "yes"
        }
      },
      {
        "type": "node",
        "id": 1726094711,
        "lat": 22.5865031,
        "lon": 88.4245172,
        "tags": {
          "amenity": "fuel",
          "fuel:diesel": "no",
          "name": "Daga Service Station"
        }
      },
      {
        "type": "node",
        "id": 2014908445,
        "lat": 22.6056699,
        "lon": 88.3847084,
        "tags": {
          "name": "Belgachia",
          "network": "WBTC",
          "network:wikidata": "Q7984450",
          "operator": "Calcutta Tramways Company",
          "public_transport": "stop_position",
          "railway": "tram_stop",
          "tram": "yes"
        }
      },
      {
        "type": "node",
        "id": 2141425962,
        "lat": 22.5917787,
        "lon": 88.3907817,
        "tags": {
          "name": "Bidhannagar Road",
          "name:bn": "\u09ac\u09bf\u09a7\u09be\u09a8\u09a8\u0997\u09b0 \u09b0\u09cb\u09a1",
          "operator": "Eastern Railways",
          "public_transport": "stop_position",
          "railway": "stop",
          "train": "yes",
          "wikidata": "Q4904158",
          "wikipedia": "en:Bidhannagar Road railway station"
        }
      },
      {
        "type": "node",
        "id": 2141425973,
        "lat": 22.5917378,
        "lon": 88.3909399,
        "tags": {
          "name": "Bidhannagar Road",
          "name:bn": "\u09ac\u09bf\u09a7\u09be\u09a8\u09a8\u0997\u09b0 \u09b0\u09cb\u09a1",
          "operator": "Eastern Railways",
          "public_transport": "stop_position",
          "railway": "stop",
          "train": "yes",
          "wikidata": "Q4904158",
          "wikipedia": "en:Bidhannagar Road railway station"
        }
      },
      {
        "type": "node",
        "id": 2207611901,
        "lat": 22.591149,
        "lon": 88.3912585,
        "tags": {
          "name": "Bidhan Nagar",
          "network": "WBTC",
          "network:wikidata": "Q7984450",
          "operator": "Calcutta Tramways Company",
          "public_transport": "stop_position",
          "railway": "tram_stop",
          "tram": "yes"
        }
      },
      {
        "type": "node",
        "id": 2323761292,
        "lat": 22.5912601,
        "lon": 88.3909641,
        "tags": {
          "name": "Bidhannagar Road",
          "name:bn": "\u09ac\u09bf\u09a7\u09be\u09a8\u09a8\u0997\u09b0 \u09b0\u09cb\u09a1",
          "network": "IR",
          "operator": "ER",
          "public_transport": "station",
          "railway": "station",
          "ref": "BNXR",
          "website": "https://er.indianrailways.gov.in/",
          "wheelchair": "no",
          "wikidata": "Q4904158",
          "wikipedia": "en:Bidhannagar Road railway station"
        }
      },
      {
        "type": "node",
        "id": 2460827382,
        "lat": 22.5891916,
        "lon": 88.4092137,
        "tags": {
          "amenity": "fuel",
          "brand": "Indian Oil",
          "brand:wikidata": "Q1289348",
          "brand:wikipedia": "en:Indian Oil Corporation",
          "name": "Indian Oil Petrol Pump",
          "operator": "Indian Oil"
        }
      },
      {
        "type": "node",
        "id": 3859050133,
        "lat": 22.6011633,
        "lon": 88.3840825,
        "tags": {
          "loc_ref": "1",
          "name": "Kolkata Chitpur",
          "public_transport": "stop_position",
          "railway": "stop",
          "ref": "KOAA",
          "train": "yes"
        }
      },
      {
        "type": "node",
        "id": 5080788785,
        "lat": 22.6098041,
        "lon": 88.4017146,
        "tags": {
          "amenity": "fuel",
          "brand": "Indian Oil Petrol Pump",
          "brand:wikidata": "Q1289348",
          "fuel": "diesel",
          "name": "Indian Oil Petrol Pump"
        }
      },
      {
        "type": "node",
        "id": 5189265479,
        "lat": 22.5862751,
        "lon": 88.4215241,
        "tags": {
          "name": "Karunamoyee",
          "name:bn": "\u0995\u09b0\u09c1\u09a3\u09be\u09ae\u09af\u09bc\u09c0",
          "network": "Kolkata Metro",
          "public_transport": "stop_position",
          "railway": "stop",
          "subway": "yes"
        }
      },
      {
        "type": "node",
        "id": 5241921885,
        "lat": 22.6156949,
        "lon": 88.4125332,
        "tags": {
          "addr:city": "Kolkata",
          "addr:housenumber": "68",
          "addr:postcode": "700055",
          "addr:street": "Diamond City Mall (5th Floor), Jessore Road",
          "air_conditioning": "yes",
          "amenity": "cinema",
          "brand": "PVR Cinemas",
          "brand:wikidata": "Q3359908",
          "name": "PVR Diamond Plaza",
          "payment:cash": "yes",
          "payment:credit_cards": "yes",
          "payment:debit_cards": "yes",
          "payment:upi": "yes",
          "screen": "5",
          "short_name": "PVR",
          "website": "https://www.pvrcinemas.com/cinemasessions/Kolkata/PVR%20Diamond%20Plaza%20Jassore%20Kolkata/107"
        }
      },
      {
        "type": "node",
        "id": 5421548359,
        "lat": 22.6059241,
        "lon": 88.3863913,
        "tags": {
          "name": "Belgachia",
          "name:bn": "\u09ac\u09c7\u09b2\u0997\u09be\u099b\u09bf\u09af\u09bc\u09be",
          "network": "Kolkata Metro",
          "network:wikidata": "Q1048849",
          "official_name": "Theism Belgachia",
          "operator": "Metro Railway, Kolkata",
          "public_transport": "station",
          "railway": "station",
          "station": "subway",
          "subway": "yes",
          "wikidata": "Q4882396",
          "wikipedia": "en:Belgachia metro station"
        }
      },
      {
        "type": "node",
        "id": 5777572361,
        "lat": 22.5862923,
        "lon": 88.421568,
        "tags": {
          "name": "Karunamoyee",
          "name:bn": "\u0995\u09b0\u09c1\u09a3\u09be\u09ae\u09af\u09bc\u09c0",
          "network": "Kolkata Metro",
          "public_transport": "stop_position",
          "railway": "stop",
          "subway": "yes"
        }
      },
      {
        "type": "node",
        "id": 7630431374,
        "lat": 22.6014137,
        "lon": 88.3843607,
        "tags": {
          "name": "Kolkata Chitpur",
          "public_transport": "stop_position",
          "railway": "stop",
          "ref": "KOAA",
          "train": "yes"
        }
      },
      {
        "type": "node",
        "id": 7630431377,
        "lat": 22.6013109,
        "lon": 88.3842621,
        "tags": {
          "loc_ref": "4",
          "name": "Kolkata Chitpur",
          "public_transport": "stop_position",
          "railway": "stop",
          "ref": "KOAA",
          "train": "yes"
        }
      },
      {
        "type": "node",
        "id": 7630431378,
        "lat": 22.6012787,
        "lon": 88.3842353,
        "tags": {
          "loc_ref": "3",
          "name": "Kolkata Chitpur",
          "public_transport": "stop_position",
          "railway": "stop",
          "ref": "KOAA",
          "train": "yes"
        }
      },
      {
        "type": "node",
        "id": 7630434398,
        "lat": 22.6012775,
        "lon": 88.3841474,
        "tags": {
          "name": "Kolkata",
          "network": "IR",
          "operator": "ER",
          "public_transport": "station",
          "railway": "station",
          "ref": "KOAA",
          "wikidata": "Q6427323",
          "wikipedia": "en:Kolkata railway station"
        }
      },
      {
        "type": "node",
        "id": 7976140059,
        "lat": 22.58638,
        "lon": 88.4215312,
        "tags": {
          "name": "Karunamoyee",
          "name:bn": "\u0995\u09b0\u09c1\u09a3\u09be\u09ae\u09af\u09bc\u09c0",
          "network": "Kolkata Metro",
          "network:wikidata": "Q1048849",
          "operator": "Kolkata Metro Rail Corporation Limited (KMRCL)",
          "public_transport": "station",
          "railway": "station",
          "ref": "KESA",
          "station": "subway",
          "subway": "yes",
          "wikidata": "Q62019524",
          "wikipedia": "en:Karunamoyee metro station"
        }
      },
      {
        "type": "node",
        "id": 7976140060,
        "lat": 22.5904737,
        "lon": 88.4156247,
        "tags": {
          "name": "Central Park",
          "name:bn": "\u09b8\u09c7\u09a8\u09cd\u099f\u09cd\u09b0\u09be\u09b2 \u09aa\u09be\u09b0\u09cd\u0995",
          "network": "Kolkata Metro",
          "network:wikidata": "Q1048849",
          "operator": "Kolkata Metro Rail Corporation Limited (KMRCL)",
          "public_transport": "station",
          "railway": "station",
          "ref": "CPSA",
          "station": "subway",
          "subway": "yes",
          "wikidata": "Q30632539",
          "wikipedia": "en:Central Park metro station"
        }
      },
      {
        "type": "node",
        "id": 7976140061,
        "lat": 22.5903984,
        "lon": 88.4156434,
        "tags": {
          "name": "Central Park",
          "name:bn": "\u09b8\u09c7\u09a8\u09cd\u099f\u09cd\u09b0\u09be\u09b2 \u09aa\u09be\u09b0\u09cd\u0995",
          "network": "Kolkata Metro",
          "public_transport": "stop_position",
          "railway": "stop",
          "subway": "yes"
        }
      },
      {
        "type": "node",
        "id": 7976140062,
        "lat": 22.5903593,
        "lon": 88.4156358,
        "tags": {
          "name": "Central Park",
          "name:bn": "\u09b8\u09c7\u09a8\u09cd\u099f\u09cd\u09b0\u09be\u09b2 \u09aa\u09be\u09b0\u09cd\u0995",
          "network": "Kolkata Metro",
          "public_transport": "stop_position",
          "railway": "stop",
          "subway": "yes"
        }
      },
      {
        "type": "node",
        "id": 7976140063,
        "lat": 22.5870993,
        "lon": 88.4078908,
        "tags": {
          "name": "City Centre",
          "name:bn": "\u09b8\u09bf\u099f\u09bf \u09b8\u09c7\u09a8\u09cd\u099f\u09be\u09b0",
          "network": "Kolkata Metro",
          "network:wikidata": "Q1048849",
          "operator": "Kolkata Metro Rail Corporation Limited (KMRCL)",
          "public_transport": "station",
          "railway": "station",
          "ref": "CCSC",
          "station": "subway",
          "subway": "yes",
          "wikidata": "Q63256235",
          "wikipedia": "en:City Center metro station"
        }
      },
      {
        "type": "node",
        "id": 7976140064,
        "lat": 22.5869882,
        "lon": 88.4079174,
        "tags": {
          "name": "City Centre",
          "name:bn": "\u09b8\u09bf\u099f\u09bf \u09b8\u09c7\u09a8\u09cd\u099f\u09be\u09b0",
          "network": "Kolkata Metro",
          "public_transport": "stop_position",
          "railway": "stop",
          "subway": "yes"
        }
      },
      {
        "type": "node",
        "id": 7976140065,
        "lat": 22.5869532,
        "lon": 88.4079412,
        "tags": {
          "name": "City Centre",
          "name:bn": "\u09b8\u09bf\u099f\u09bf \u09b8\u09c7\u09a8\u09cd\u099f\u09be\u09b0",
          "network": "Kolkata Metro",
          "public_transport": "stop_position",
          "railway": "stop",
          "subway": "yes"
        }
      },
      {
        "type": "node",
        "id": 7976140066,
        "lat": 22.5800666,
        "lon": 88.4012962,
        "tags": {
          "name": "Bengal Chemical",
          "name:bn": "\u09ac\u09c7\u0999\u09cd\u0997\u09b2 \u0995\u09c7\u09ae\u09bf\u0995\u09cd\u09af\u09be\u09b2\u09b8",
          "network": "Kolkata Metro",
          "network:wikidata": "Q1048849",
          "public_transport": "station",
          "railway": "station",
          "ref": "BCSD",
          "station": "subway",
          "subway": "yes",
          "wikidata": "Q63256245",
          "wikipedia": "en:Bengal Chemical metro station"
        }
      },
      {
        "type": "node",
        "id": 7976140067,
        "lat": 22.5799802,
        "lon": 88.4013845,
        "tags": {
          "name": "Bengal Chemical",
          "name:bn": "\u09ac\u09c7\u0999\u09cd\u0997\u09b2 \u0995\u09c7\u09ae\u09bf\u0995\u09cd\u09af\u09be\u09b2\u09b8",
          "network": "Kolkata Metro",
          "public_transport": "stop_position",
          "railway": "stop",
          "subway": "yes"
        }
      },
      {
        "type": "node",
        "id": 7976140068,
        "lat": 22.5799701,
        "lon": 88.401335,
        "tags": {
          "name": "Bengal Chemical",
          "name:bn": "\u09ac\u09c7\u0999\u09cd\u0997\u09b2 \u0995\u09c7\u09ae\u09bf\u0995\u09cd\u09af\u09be\u09b2\u09b8",
          "network": "Kolkata Metro",
          "public_transport": "stop_position",
          "railway": "stop",
          "subway": "yes"
        }
      },
      {
        "type": "node",
        "id": 8999697038,
        "lat": 22.6065505,
        "lon": 88.3952451,
        "tags": {
          "name": "Patipukur",
          "network": "IR",
          "operator": "ER",
          "public_transport": "station",
          "railway": "station",
          "ref": "PTKR",
          "wikidata": "Q56277048"
        }
      },
      {
        "type": "node",
        "id": 10115952217,
        "lat": 22.6075228,
        "lon": 88.3922575,
        "tags": {
          "amenity": "charging_station",
          "name": "Electric vehicle charging station",
          "opening_hours": "24/7"
        }
      },
      {
        "type": "node",
        "id": 10137972517,
        "lat": 22.6230567,
        "lon": 88.4140265,
        "tags": {
          "amenity": "bus_station",
          "bus": "yes",
          "name": "Nagerbazar Bus Station",
          "public_transport": "station"
        }
      },
      {
        "type": "node",
        "id": 11446905870,
        "lat": 22.6055821,
        "lon": 88.3846637,
        "tags": {
          "addr:postcode": "700037",
          "addr:street": "Radha Gobinda Kar Road",
          "amenity": "bus_station",
          "bus": "yes",
          "name": "West Bengal Transport Corporation - Belgachia Deopt",
          "name:en": "West Bengal Transport Corporation - Belgachia Depot",
          "opening_hours": "Mo-Su 06:00-12:00",
          "operator": "WBTC",
          "public_transport": "station",
          "website": "https://transport.wb.gov.in/"
        }
      },
      {
        "type": "node",
        "id": 11703491150,
        "lat": 22.6059281,
        "lon": 88.3861588,
        "tags": {
          "name": "Belgachia",
          "name:bn": "\u09ac\u09c7\u09b2\u0997\u09be\u099b\u09bf\u09af\u09bc\u09be",
          "network": "Kolkata Metro",
          "operator": "Metro Railway, Kolkata",
          "public_transport": "stop_position",
          "railway": "stop",
          "subway": "yes"
        }
      },
      {
        "type": "node",
        "id": 11703491151,
        "lat": 22.6061148,
        "lon": 88.3865976,
        "tags": {
          "name": "Belgachia",
          "name:bn": "\u09ac\u09c7\u09b2\u0997\u09be\u099b\u09bf\u09af\u09bc\u09be",
          "network": "Kolkata Metro",
          "operator": "Metro Railway, Kolkata",
          "public_transport": "stop_position",
          "railway": "stop",
          "subway": "yes"
        }
      },
      {
        "type": "node",
        "id": 12725821244,
        "lat": 22.5917545,
        "lon": 88.3908911,
        "tags": {
          "name": "Bidhannagar Road",
          "name:bn": "\u09ac\u09bf\u09a7\u09be\u09a8\u09a8\u0997\u09b0 \u09b0\u09cb\u09a1",
          "operator": "Eastern Railways",
          "public_transport": "stop_position",
          "railway": "stop",
          "train": "yes",
          "wikidata": "Q4904158",
          "wikipedia": "en:Bidhannagar Road railway station"
        }
      }
    ]
  }
}