{
  "pois_1km": {
    "version": 0.6,
    "generator": "Overpass API 0.7.62.8 e802775f",
    "osm3s": {
      "timestamp_osm_base": "2025-09-06T09:59:01Z",
      "copyright": "The data included in this document is from www.openstreetmap.org. The data is made available under ODbL."
    },
    "elements": [
      {
        "type": "node",
        "id": 1783122342,
        "lat": 22.528216,
        "lon": 88.3657893,
        "tags": {
          "amenity": "restaurant",
          "check_date": "2023-12-16",
          "cuisine": "indian;burger;pizza",
          "name": "Dhaba",
          "payment:cash": "yes",
          "payment:mastercard": "yes",
          "payment:visa": "yes"
        }
      },
      {
        "type": "node",
        "id": 1833374663,
        "lat": 22.5262448,
        "lon": 88.3657852,
        "tags": {
          "addr:housenumber": "53/1/3",
          "addr:street": "Hazra Road",
          "amenity": "pharmacy",
          "check_date": "2023-12-16",
          "description": "Medicine shop",
          "dispensing": "yes",
          "healthcare": "pharmacy",
          "internet_access": "no",
          "name": "Frank Ross",
          "payment:cash": "yes",
          "payment:credit_cards": "yes",
          "payment:mastercard": "yes",
          "payment:visa": "yes",
          "website": "https://www.frankrosspharmacy.com/",
          "wheelchair": "yes"
        }
      },
      {
        "type": "node",
        "id": 1833405150,
        "lat": 22.5179768,
        "lon": 88.3551504,
        "tags": {
          "amenity": "pharmacy",
          "healthcare": "pharmacy",
          "name": "Sri Ramakrishna Pharmacy"
        }
      },
      {
        "type": "node",
        "id": 1983412036,
        "lat": 22.5200042,
        "lon": 88.3647712,
        "tags": {
          "amenity": "fast_food",
          "check_date": "2023-12-16",
          "cuisine": "regional",
          "diet:non-vegetarian": "yes",
          "internet_access": "no",
          "name": "Roll Shop",
          "payment:cash": "yes",
          "payment:mastercard": "yes",
          "payment:visa": "yes",
          "wheelchair": "no"
        }
      },
      {
        "type": "node",
        "id": 3250373761,
        "lat": 22.5263392,
        "lon": 88.3641593,
        "tags": {
          "addr:housenumber": "52/2B",
          "addr:postcode": "700019",
          "addr:street": "Hazra Road",
          "amenity": "clinic",
          "check_date": "2023-12-16",
          "healthcare": "clinic",
          "name": "Quadra Medical Services Pvt Ltd",
          "operator:type": "private"
        }
      },
      {
        "type": "node",
        "id": 3418913493,
        "lat": 22.5171093,
        "lon": 88.3609818,
        "tags": {
          "amenity": "cafe",
          "name": "Wise Owl"
        }
      },
      {
        "type": "node",
        "id": 4243771893,
        "lat": 22.5245108,
        "lon": 88.3524953,
        "tags": {
          "amenity": "cafe",
          "brand": "Cafe Coffee Day",
          "brand:wikidata": "Q5017235",
          "cuisine": "coffee_shop",
          "name": "Cafe Coffee Day",
          "takeaway": "yes"
        }
      },
      {
        "type": "node",
        "id": 4716438832,
        "lat": 22.5230927,
        "lon": 88.3652596,
        "tags": {
          "addr:housenumber": "8",
          "addr:street": "Mandeville Gardens",
          "amenity": "fast_food",
          "check_date": "2023-12-16",
          "cuisine": "regional",
          "internet_access": "no",
          "name": "Phuchka Stand",
          "payment:cash": "yes",
          "payment:mastercard": "yes",
          "payment:visa": "yes",
          "wheelchair": "no"
        }
      },
      {
        "type": "node",
        "id": 4716442224,
        "lat": 22.5232061,
        "lon": 88.36471,
        "tags": {
          "amenity": "restaurant",
          "check_date": "2023-12-16",
          "cuisine": "north_indian;regional;burger;pizza",
          "drink": "beer",
          "internet_access": "wlan",
          "internet_access:fee": "customers",
          "name": "Mirch Masala",
          "payment:cash": "yes",
          "payment:mastercard": "yes",
          "payment:visa": "yes",
          "wheelchair": "no"
        }
      },
      {
        "type": "node",
        "id": 4718204589,
        "lat": 22.5273404,
        "lon": 88.3655921,
        "tags": {
          "addr:street": "Hazra Road",
          "amenity": "fast_food",
          "check_date": "2023-12-16",
          "description": "Momo seller",
          "name": "Momo on The Move",
          "name:en": "Wow Momo (on The Move)",
          "payment:cash": "yes",
          "payment:mastercard": "yes",
          "payment:visa": "yes"
        }
      },
      {
        "type": "node",
        "id": 4974790923,
        "lat": 22.5202079,
        "lon": 88.3608602,
        "tags": {
          "addr:housenumber": "18/1",
          "addr:street": "Hindustan Road",
          "amenity": "restaurant",
          "name": "Bhojohori Manna 6",
          "name:en": "Bhojohori Manna 6"
        }
      },
      {
        "type": "node",
        "id": 5151718336,
        "lat": 22.5208883,
        "lon": 88.3528505,
        "tags": {
          "amenity": "restaurant",
          "name": "Ammini"
        }
      },
      {
        "type": "node",
        "id": 5153778328,
        "lat": 22.5245348,
        "lon": 88.3669534,
        "tags": {
          "addr:housenumber": "8",
          "addr:street": "Mandeville Gardens",
          "amenity": "restaurant",
          "check_date": "2023-12-16",
          "cuisine": "pizza;regional",
          "diet:vegetarian": "yes",
          "internet_access": "wlan",
          "internet_access:fee": "customers",
          "name": "Tasty Corner",
          "payment:cash": "yes",
          "payment:mastercard": "yes",
          "payment:visa": "yes",
          "wheelchair": "limited"
        }
      },
      {
        "type": "node",
        "id": 5574213623,
        "lat": 22.5248903,
        "lon": 88.3493982,
        "tags": {
          "addr:street": "Beltola Road",
          "amenity": "clinic",
          "healthcare": "clinic",
          "name": "Paramount Clinic"
        }
      },
      {
        "type": "node",
        "id": 5574214722,
        "lat": 22.5239877,
        "lon": 88.3486944,
        "tags": {
          "addr:district": "Kolkata",
          "addr:full": "109/1, Hazra Road",
          "addr:postcode": "700026",
          "addr:state": "West Bengal",
          "amenity": "hospital",
          "healthcare": "hospital",
          "name": "Paramount Nursing Home",
          "source": "OpenGovernmentData"
        }
      },
      {
        "type": "node",
        "id": 6299151685,
        "lat": 22.5175261,
        "lon": 88.3595099,
        "tags": {
          "amenity": "restaurant",
          "name": "Mystic Yoga Cafe & Studio",
          "website": "https://mysticyoga.in/"
        }
      },
      {
        "type": "node",
        "id": 6299181585,
        "lat": 22.5175878,
        "lon": 88.3594413,
        "tags": {
          "amenity": "cafe",
          "cuisine": "international",
          "name": "Mystic Yoga Cafe",
          "website": "https://mysticyoga.in/"
        }
      },
      {
        "type": "node",
        "id": 6741747191,
        "lat": 22.5334486,
        "lon": 88.358869,
        "tags": {
          "amenity": "atm",
          "brand": "State Bank of India",
          "brand:wikidata": "Q1340361",
          "drive_through": "no",
          "operator": "State Bank of India",
          "operator:wikidata": "Q1340361",
          "short_name": "SBI"
        }
      },
      {
        "type": "node",
        "id": 7030462685,
        "lat": 22.5175409,
        "lon": 88.3578028,
        "tags": {
          "amenity": "cafe",
          "name": "Potboiler Coffee House"
        }
      },
      {
        "type": "node",
        "id": 7035409285,
        "lat": 22.5331803,
        "lon": 88.3531588,
        "tags": {
          "amenity": "restaurant",
          "name": "Jai Hind Dhaba"
        }
      },
      {
        "type": "node",
        "id": 7048158968,
        "lat": 22.5234205,
        "lon": 88.3519824,
        "tags": {
          "addr:district": "Kolkata",
          "addr:full": "99,Sarat Bose Road,Kalighat",
          "addr:postcode": "700026",
          "addr:state": "West Bengal",
          "amenity": "hospital",
          "healthcare": "hospital",
          "name": "Rama Krishna Mission Seva Pratisthan",
          "source": "OpenGovernmentData",
          "website": "https://rkmsevapratishthan.org/"
        }
      },
      {
        "type": "node",
        "id": 7050801780,
        "lat": 22.5240061,
        "lon": 88.3606586,
        "tags": {
          "addr:district": "Kolkata",
          "addr:full": "1/3, Dover Place",
          "addr:postcode": "700019",
          "addr:state": "West Bengal",
          "amenity": "hospital",
          "check_date": "2023-12-16",
          "healthcare": "hospital",
          "healthcare:speciality": "ophthalmology",
          "internet_access": "no",
          "name": "Dr Nihar Munshi Eye Foundation",
          "operator:type": "private",
          "payment:cash": "yes",
          "payment:mastercard": "yes",
          "payment:visa": "yes",
          "source": "OpenGovernmentData",
          "wheelchair": "yes"
        }
      },
      {
        "type": "node",
        "id": 7051027437,
        "lat": 22.5187786,
        "lon": 88.3591291,
        "tags": {
          "addr:district": "Kolkata",
          "addr:full": "123A, Rash Behari Avenue",
          "addr:postcode": "700029",
          "addr:state": "West Bengal",
          "amenity": "hospital",
          "check_date": "2023-10-04",
          "contact:phone": "3324640230",
          "healthcare": "hospital",
          "name": "N G Medicare And Calcutta Hope Infertility Clinic",
          "source": "OpenGovernmentData"
        }
      },
      {
        "type": "node",
        "id": 7051091185,
        "lat": 22.522012,
        "lon": 88.3492184,
        "tags": {
          "addr:district": "Kolkata",
          "addr:full": "11/1A,Manohar Pukur Road",
          "addr:postcode": "700026",
          "addr:state": "West Bengal",
          "amenity": "clinic",
          "healthcare": "clinic",
          "name": "Elite Nursing Home",
          "source": "OpenGovernmentData",
          "website": "https://maritimemedical.in/"
        }
      },
      {
        "type": "node",
        "id": 7051204581,
        "lat": 22.5181685,
        "lon": 88.3559132,
        "tags": {
          "addr:district": "Kolkata",
          "addr:full": "111A, Rash Behari Avenue",
          "addr:postcode": "700029",
          "addr:state": "West Bengal",
          "amenity": "hospital",
          "contact:phone": "3366276800",
          "email": "enquiries@fortishospitals.in",
          "healthcare": "hospital",
          "name": "Fortis Healthcare",
          "operator": "Fortis Healthcare",
          "operator:type": "private",
          "operator:wikidata": "Q7810035",
          "source": "OpenGovernmentData"
        }
      },
      {
        "type": "node",
        "id": 7058971692,
        "lat": 22.5200708,
        "lon": 88.3606486,
        "tags": {
          "addr:district": "Kolkata",
          "addr:full": "37/1, B. Hindustan Road,Gariahat, Behind Basanti Devi College",
          "addr:postcode": "700029",
          "addr:state": "West Bengal",
          "amenity": "clinic",
          "contact:phone": "3340011593",
          "healthcare": "clinic",
          "name": "Prince Nursing Home, Kolkata",
          "source": "OpenGovernmentData"
        }
      },
      {
        "type": "node",
        "id": 7062308629,
        "lat": 22.5186369,
        "lon": 88.3608012,
        "tags": {
          "addr:district": "Kolkata",
          "addr:full": "133E, Rash Behari Avenue, Hindusthan Park",
          "addr:postcode": "700029",
          "addr:state": "West Bengal",
          "amenity": "clinic",
          "healthcare": "clinic",
          "name": "Omega Optics",
          "source": "OpenGovernmentData"
        }
      },
      {
        "type": "node",
        "id": 7062470862,
        "lat": 22.5310898,
        "lon": 88.3532457,
        "tags": {
          "addr:district": "Hooghly",
          "addr:full": "21, Prannath Pandit Street",
          "addr:postcode": "700 025",
          "addr:state": "West Bengal",
          "amenity": "hospital",
          "email": "info@healthpointhospital.com",
          "healthcare": "hospital",
          "name": "Health Point Hospitals",
          "phone": "91 629 220 6008",
          "source": "OpenGovernmentData",
          "website": "https://www.healthpointhospital.com/"
        }
      },
      {
        "type": "node",
        "id": 7062656674,
        "lat": 22.5175943,
        "lon": 88.3575051,
        "tags": {
          "addr:district": "Kolkata",
          "addr:full": "70A, Purna Das Road",
          "addr:postcode": "700029",
          "addr:state": "West Bengal",
          "amenity": "clinic",
          "contact:phone": "24661229",
          "healthcare": "clinic",
          "name": "Park Site Nursing Home",
          "source": "OpenGovernmentData"
        }
      },
      {
        "type": "node",
        "id": 7065232692,
        "lat": 22.5196582,
        "lon": 88.3547008,
        "tags": {
          "addr:district": "Kolkata",
          "addr:full": "86,Monohar Pukur Road",
          "addr:postcode": "700001",
          "addr:state": "West Bengal",
          "amenity": "clinic",
          "healthcare": "clinic",
          "name": "Southern Nursing Home",
          "source": "OpenGovernmentData"
        }
      },
      {
        "type": "node",
        "id": 7065252213,
        "lat": 22.520098,
        "lon": 88.3617966,
        "tags": {
          "addr:district": "Kolkata",
          "addr:full": "19 A, Hindusthan Road,Near Gariahat Thana, Gariahat Post Office",
          "addr:postcode": "700029",
          "addr:state": "West Bengal",
          "amenity": "clinic",
          "check_date": "2023-10-04",
          "contact:phone": "3324643191",
          "healthcare": "clinic",
          "name": "South Calcutta Clinic",
          "source": "OpenGovernmentData"
        }
      },
      {
        "type": "node",
        "id": 7065864042,
        "lat": 22.5198037,
        "lon": 88.3504455,
        "tags": {
          "addr:district": "Kolkata",
          "addr:full": "24, Bipin Pal Road, Manohar Pukur Road , Manoharpukur",
          "addr:postcode": "700026",
          "addr:state": "West Bengal",
          "amenity": "clinic",
          "contact:phone": "03324669910;24660702",
          "healthcare": "clinic",
          "name": "Microlap Nursing Home",
          "source": "OpenGovernmentData"
        }
      },
      {
        "type": "node",
        "id": 7065868649,
        "lat": 22.5185965,
        "lon": 88.3545157,
        "tags": {
          "addr:district": "Kolkata",
          "addr:full": "6 A, Sarat Bose Road, near Deshapriya Park E",
          "addr:postcode": "700029",
          "addr:state": "West Bengal",
          "amenity": "hospital",
          "healthcare": "hospital",
          "healthcare:speciality": "ophthalmology",
          "name": "Nemesis Eye Centre",
          "source": "OpenGovernmentData"
        }
      },
      {
        "type": "node",
        "id": 7065871417,
        "lat": 22.524196,
        "lon": 88.3617255,
        "tags": {
          "addr:district": "Kolkata",
          "addr:full": "8B, Garcha First Lane, Ballygunge",
          "addr:postcode": "700019",
          "addr:state": "West Bengal",
          "amenity": "hospital",
          "check_date": "2023-12-16",
          "contact:mobile": "8017306599",
          "contact:phone": "3366037324",
          "healthcare": "hospital",
          "name": "All Asia Medical Institute",
          "operator:type": "private",
          "source": "OpenGovernmentData",
          "website": "https://www.aamihospitals.com/"
        }
      },
      {
        "type": "node",
        "id": 7068798178,
        "lat": 22.5233166,
        "lon": 88.3525617,
        "tags": {
          "addr:district": "Kolkata",
          "addr:full": "114B, Sarat Bose Road, Opposite Shishu Mangal Hospital",
          "addr:postcode": "700029",
          "addr:state": "West Bengal",
          "amenity": "hospital",
          "healthcare": "hospital",
          "name": "Calcutta Heart Research Center",
          "source": "OpenGovernmentData"
        }
      },
      {
        "type": "node",
        "id": 7069043469,
        "lat": 22.5197226,
        "lon": 88.3632544,
        "tags": {
          "addr:district": "Kolkata",
          "addr:full": "2B, Ramani Chaterjee Road",
          "addr:postcode": "700029",
          "addr:state": "West Bengal",
          "amenity": "clinic",
          "check_date": "2023-12-16",
          "healthcare": "clinic",
          "internet_access": "wlan",
          "internet_access:fee": "customers",
          "name": "Grandview Nursing Home",
          "operator:type": "private",
          "payment:cash": "yes",
          "payment:mastercard": "yes",
          "payment:visa": "yes",
          "source": "OpenGovernmentData",
          "wheelchair": "yes"
        }
      },
      {
        "type": "node",
        "id": 7069051085,
        "lat": 22.5207604,
        "lon": 88.3524887,
        "tags": {
          "addr:district": "Kolkata",
          "addr:full": "105, Manoharpukur Road",
          "addr:postcode": "700029",
          "addr:state": "West Bengal",
          "amenity": "hospital",
          "contact:phone": "03324668529;24197326",
          "healthcare": "hospital",
          "healthcare:speciality": "ophthalmology",
          "name": "Amulya Jyoti Eye Foundation",
          "source": "OpenGovernmentData",
          "website": "https://amulyajyoti.org/"
        }
      },
      {
        "type": "node",
        "id": 7069095504,
        "lat": 22.5252905,
        "lon": 88.363941,
        "tags": {
          "addr:district": "Kolkata",
          "addr:full": "51-B, Garcha Road",
          "addr:housenumber": "54/1 A",
          "addr:postcode": "700019",
          "addr:state": "West Bengal",
          "addr:street": "Hazra Road",
          "amenity": "hospital",
          "check_date": "2023-12-16",
          "healthcare": "hospital",
          "name": "Micro Surgery Day Centre",
          "source": "OpenGovernmentData"
        }
      },
      {
        "type": "node",
        "id": 7071650031,
        "lat": 22.5211331,
        "lon": 88.3588746,
        "tags": {
          "addr:district": "Kolkata",
          "addr:full": "Dover Lane GovernmentQrts",
          "addr:postcode": "700029",
          "addr:state": "West Bengal",
          "amenity": "clinic",
          "contact:phone": "3324619292",
          "health_facility:type": "dispensary",
          "healthcare": "centre",
          "name": "CGHS Dispensary, Dover Lane",
          "operator:type": "government",
          "source": "OpenGovernmentData",
          "website": "http://nb.bsf.gov.in/CGHS%20DIspenseries.pdf"
        }
      },
      {
        "type": "node",
        "id": 7074329101,
        "lat": 22.5174951,
        "lon": 88.3545975,
        "tags": {
          "addr:district": "Kolkata",
          "addr:full": "146, Rash Behari Avenue,Opposite Priya Cinema Hall",
          "addr:postcode": "700029",
          "addr:state": "West Bengal",
          "amenity": "hospital",
          "contact:phone": "24653530",
          "healthcare": "hospital",
          "healthcare:speciality": "ophthalmology",
          "name": "Himalaya Vision Care Centre",
          "source": "OpenGovernmentData"
        }
      },
      {
        "type": "node",
        "id": 7233967786,
        "lat": 22.5255315,
        "lon": 88.3575909,
        "tags": {
          "amenity": "restaurant",
          "internet_access": "wlan",
          "name": "Bojangles",
          "opening_hours": "Mo-Su 11:00-23:00",
          "phone": "+919930903399"
        }
      },
      {
        "type": "node",
        "id": 7668176329,
        "lat": 22.5331915,
        "lon": 88.3590386,
        "tags": {
          "addr:district": "Kolkata",
          "addr:full": "Leela Roy Sarani, Ballygunge",
          "addr:postcode": "700019",
          "addr:state": "West Bengal",
          "amenity": "hospital",
          "healthcare": "hospital",
          "name": "Duncan Gleneagles Hospitals",
          "source": "Local Knowledge"
        }
      },
      {
        "type": "node",
        "id": 8014162874,
        "lat": 22.533162,
        "lon": 88.3533683,
        "tags": {
          "addr:city": "kolkata",
          "addr:housenumber": "42",
          "air_conditioning": "yes",
          "amenity": "cafe",
          "bar": "yes",
          "cuisine": "pizza;burger;coffee_shop;chinese;sandwich;chicken;french;international;ice_cream;hookah",
          "delivery": "yes",
          "internet_access:fee": "no",
          "name": "Dawntown Cafe",
          "opening_hours": "Mo-Su 12:00-4:00",
          "outdoor_seating": "no",
          "smoking": "yes",
          "start_date": "2020-10-11",
          "takeaway": "yes"
        }
      },
      {
        "type": "node",
        "id": 10882736007,
        "lat": 22.5171182,
        "lon": 88.3601391,
        "tags": {
          "amenity": "cafe",
          "name": "Blue Tokai"
        }
      },
      {
        "type": "node",
        "id": 11400046569,
        "lat": 22.5191615,
        "lon": 88.3519601,
        "tags": {
          "amenity": "atm",
          "brand": "State Bank of India",
          "brand:wikidata": "Q1340361",
          "operator": "State Bank of India",
          "operator:wikidata": "Q1340361",
          "short_name": "SBI"
        }
      },
      {
        "type": "node",
        "id": 11422209467,
        "lat": 22.5249092,
        "lon": 88.3662765,
        "tags": {
          "addr:housenumber": "8",
          "addr:street": "Mandeville Gardens",
          "amenity": "restaurant",
          "check_date": "2023-12-16",
          "cuisine": "regional;burger;pizza",
          "internet_access": "wlan",
          "internet_access:fee": "customers",
          "name": "7th Mandeville Multi Cuisine Restro",
          "payment:cash": "yes",
          "payment:mastercard": "yes",
          "payment:visa": "yes",
          "phone": "+91 98301 07921",
          "wheelchair": "yes"
        }
      },
      {
        "type": "node",
        "id": 11422231893,
        "lat": 22.5248911,
        "lon": 88.366309,
        "tags": {
          "addr:housenumber": "8",
          "addr:street": "Mandeville Gardens",
          "amenity": "pharmacy",
          "check_date": "2023-12-16",
          "description": "All type of generic medicines available here at lowest price.",
          "dispensing": "yes",
          "healthcare": "pharmacy",
          "name": "Bhartiya Jan Oushadhi Kendra",
          "opening_hours": "24/7"
        }
      },
      {
        "type": "node",
        "id": 11422427265,
        "lat": 22.5253002,
        "lon": 88.3654384,
        "tags": {
          "amenity": "cafe",
          "check_date": "2023-12-16",
          "cuisine": "pizza;burger;regional",
          "internet_access": "wlan",
          "internet_access:fee": "no",
          "name": "Kolkata Tram World",
          "outdoor_seating": "yes",
          "payment:cash": "yes",
          "payment:mastercard": "yes",
          "payment:visa": "yes",
          "wheelchair": "yes"
        }
      },
      {
        "type": "node",
        "id": 11824910476,
        "lat": 22.5329253,
        "lon": 88.3613757,
        "tags": {
          "leisure": "playground"
        }
      }
    ]
  },
  "pois_2_5km": {
    "version": 0.6,
    "generator": "Overpass API 0.7.62.8 e802775f",
    "osm3s": {
      "timestamp_osm_base": "2025-09-06T09:59:01Z",
      "copyright": "The data included in this document is from www.openstreetmap.org. The data is made available under ODbL."
    },
    "elements": [
      {
        "type": "node",
        "id": 651805730,
        "lat": 22.5191616,
        "lon": 88.3721923,
        "tags": {
          "name": "Ballygunge Junction",
          "name:bn": "\u09ac\u09be\u09b2\u09bf\u0997\u099e\u09cd\u099c",
          "network": "IR",
          "operator": "ER",
          "public_transport": "station",
          "railway": "station",
          "ref": "BLN",
          "wikidata": "Q55639257",
          "wikipedia": "en:Ballygunge Junction railway station"
        }
      },
      {
        "type": "node",
        "id": 1274128857,
        "lat": 22.5405657,
        "lon": 88.3738598,
        "tags": {
          "name": "Park Circus",
          "name:bn": "\u09aa\u09be\u09b0\u09cd\u0995 \u09b8\u09be\u09b0\u09cd\u0995\u09be\u09b8",
          "network": "IR",
          "operator": "ER",
          "public_transport": "station",
          "railway": "station",
          "ref": "PQS",
          "train": "yes",
          "wheelchair": "no",
          "wikidata": "Q56278569",
          "wikipedia": "en:Park Circus railway station"
        }
      },
      {
        "type": "node",
        "id": 1341614569,
        "lat": 22.5094085,
        "lon": 88.371185,
        "tags": {
          "addr:postcode": "700031",
          "addr:street": "Sarat Ghosh Garden Road",
          "internet_access": "no",
          "name": "Dhakuria",
          "name:bn": "\u09a2\u09be\u0995\u09c1\u09b0\u09bf\u09af\u09bc\u09be",
          "network": "IR",
          "operator": "ER",
          "public_transport": "station",
          "railway": "station",
          "ref": "DHK",
          "train": "yes",
          "wheelchair": "no",
          "wikidata": "Q57237359",
          "wikipedia": "en:Dhakuria railway station"
        }
      },
      {
        "type": "node",
        "id": 1686122936,
        "lat": 22.526191,
        "lon": 88.3667029,
        "tags": {
          "amenity": "cinema",
          "check_date": "2023-12-16",
          "name": "London paris cinema"
        }
      },
      {
        "type": "node",
        "id": 1783135288,
        "lat": 22.5274281,
        "lon": 88.365843,
        "tags": {
          "amenity": "fuel",
          "brand": "Bharat Petroleum",
          "brand:wikidata": "Q854826",
          "check_date": "2023-12-16",
          "fuel:GTL_diesel": "yes",
          "fuel:HGV_diesel": "yes",
          "fuel:diesel": "yes",
          "fuel:petrol": "yes",
          "internet_access": "no",
          "name": "Bharat Petroleum",
          "payment:cash": "yes",
          "payment:mastercard": "yes",
          "payment:visa": "yes"
        }
      },
      {
        "type": "node",
        "id": 1860605880,
        "lat": 22.5246096,
        "lon": 88.3525906,
        "tags": {
          "amenity": "fuel"
        }
      },
      {
        "type": "node",
        "id": 2283899290,
        "lat": 22.5200581,
        "lon": 88.3464233,
        "tags": {
          "name": "Kalighat",
          "public_transport": "stop_position",
          "railway": "tram_stop",
          "tram": "yes"
        }
      },
      {
        "type": "node",
        "id": 2471894117,
        "lat": 22.5272169,
        "lon": 88.3466356,
        "tags": {
          "amenity": "cinema",
          "name": "Indira Cinema Hall"
        }
      },
      {
        "type": "node",
        "id": 2471903967,
        "lat": 22.5278661,
        "lon": 88.3455882,
        "tags": {
          "amenity": "fuel",
          "building": "yes"
        }
      },
      {
        "type": "node",
        "id": 2720702706,
        "lat": 22.5424807,
        "lon": 88.3659928,
        "tags": {
          "name": "Park Circus",
          "public_transport": "stop_position",
          "railway": "tram_stop",
          "tram": "yes"
        }
      },
      {
        "type": "node",
        "id": 2721264604,
        "lat": 22.5258882,
        "lon": 88.3660841,
        "tags": {
          "name": "Gariahat Depot",
          "public_transport": "stop_position",
          "railway": "tram_stop",
          "tram": "yes"
        }
      },
      {
        "type": "node",
        "id": 2721308238,
        "lat": 22.5167884,
        "lon": 88.3457793,
        "tags": {
          "name": "Rash Behari Avenue",
          "public_transport": "stop_position",
          "railway": "tram_stop",
          "tram": "yes"
        }
      },
      {
        "type": "node",
        "id": 2776950395,
        "lat": 22.5426967,
        "lon": 88.3662093,
        "tags": {
          "addr:housenumber": "2",
          "addr:place": "Syed Amir Ali Avenue",
          "amenity": "fuel",
          "brand": "Bharat Petroleum",
          "brand:wikidata": "Q854826",
          "check_date": "2023-12-16",
          "fuel:diesel": "yes",
          "fuel:petrol": "yes",
          "internet_access": "no",
          "name": "Bharat Petroleum",
          "payment:cash": "yes",
          "payment:mastercard": "yes",
          "payment:visa": "yes",
          "wheelchair": "no"
        }
      },
      {
        "type": "node",
        "id": 4176886089,
        "lat": 22.5384051,
        "lon": 88.3513137,
        "tags": {
          "addr:housenumber": "10/3",
          "addr:postcode": "700020",
          "addr:street": "Elgin Lane",
          "air_conditioning": "yes",
          "amenity": "cinema",
          "brand": "INOX Leisure",
          "brand:wikidata": "Q5972349",
          "check_date": "2023-10-28",
          "name": "INOX Cinema",
          "short_name": "INOX",
          "website": "https://m.inoxmovies.com/",
          "wheelchair": "yes"
        }
      },
      {
        "type": "node",
        "id": 5241916893,
        "lat": 22.516496,
        "lon": 88.3488079,
        "tags": {
          "amenity": "cinema",
          "brand": "Cinepolis",
          "brand:wikidata": "Q5686673",
          "brand:wikipedia": "en:Cin\u00e9polis",
          "name": "Cinepolis"
        }
      },
      {
        "type": "node",
        "id": 5271335721,
        "lat": 22.5387245,
        "lon": 88.3655643,
        "tags": {
          "amenity": "cinema",
          "brand": "INOX Leisure",
          "brand:wikidata": "Q5972349",
          "name": "Inox quest cinema",
          "short_name": "INOX"
        }
      },
      {
        "type": "node",
        "id": 5421538365,
        "lat": 22.5072216,
        "lon": 88.3454936,
        "tags": {
          "name": "Rabindra Sarobar",
          "name:bn": "\u09b0\u09ac\u09c0\u09a8\u09cd\u09a6\u09cd\u09b0 \u09b8\u09b0\u09cb\u09ac\u09b0",
          "network": "Kolkata Metro",
          "network:wikidata": "Q1048849",
          "operator": "Metro Railway, Kolkata",
          "public_transport": "station",
          "railway": "station",
          "station": "subway",
          "subway": "yes",
          "wikidata": "Q7278757",
          "wikipedia": "en:Rabindra Sarobar metro station"
        }
      },
      {
        "type": "node",
        "id": 5421539684,
        "lat": 22.5168752,
        "lon": 88.3458448,
        "tags": {
          "name": "Kalighat",
          "name:bn": "\u0995\u09be\u09b2\u09c0\u0998\u09be\u099f",
          "network": "Kolkata Metro",
          "network:wikidata": "Q1048849",
          "operator": "Metro Railway, Kolkata",
          "public_transport": "station",
          "railway": "station",
          "station": "subway",
          "subway": "yes",
          "wikidata": "Q15041932",
          "wikipedia": "en:Kalighat metro station"
        }
      },
      {
        "type": "node",
        "id": 5421540159,
        "lat": 22.5241535,
        "lon": 88.3464729,
        "tags": {
          "name": "Jatin Das Park",
          "name:bn": "\u09af\u09a4\u09c0\u09a8 \u09a6\u09be\u09b8 \u09aa\u09be\u09b0\u09cd\u0995",
          "network": "Kolkata Metro",
          "network:wikidata": "Q1048849",
          "operator": "Metro Railway, Kolkata",
          "public_transport": "station",
          "railway": "station",
          "station": "subway",
          "subway": "yes",
          "wikidata": "Q6164578",
          "wikipedia": "en:Jatin Das Park metro station"
        }
      },
      {
        "type": "node",
        "id": 5421541284,
        "lat": 22.5331821,
        "lon": 88.3459269,
        "tags": {
          "name": "Netaji Bhavan",
          "name:bn": "\u09a8\u09c7\u09a4\u09be\u099c\u09bf \u09ad\u09ac\u09a8",
          "network": "Kolkata Metro",
          "network:wikidata": "Q1048849",
          "operator": "Metro Railway, Kolkata",
          "public_transport": "station",
          "railway": "station",
          "station": "subway",
          "subway": "yes",
          "wheelchair": "limited",
          "wikidata": "Q6998599",
          "wikipedia": "en:Netaji Bhavan metro station"
        }
      },
      {
        "type": "node",
        "id": 5421542551,
        "lat": 22.5414899,
        "lon": 88.3473493,
        "tags": {
          "name": "Rabindra Sadan",
          "name:bn": "\u09b0\u09ac\u09c0\u09a8\u09cd\u09a6\u09cd\u09b0 \u09b8\u09a6\u09a8",
          "network": "Kolkata Metro",
          "network:wikidata": "Q1048849",
          "operator": "Metro Railway, Kolkata",
          "public_transport": "station",
          "railway": "station",
          "station": "subway",
          "subway": "yes",
          "wikidata": "Q7278756",
          "wikipedia": "en:Rabindra Sadan metro station"
        }
      },
      {
        "type": "node",
        "id": 6135361872,
        "lat": 22.54208,
        "lon": 88.3515791,
        "tags": {
          "amenity": "fuel",
          "brand": "Indian Oil",
          "brand:wikidata": "Q1289348",
          "name": "Indian Oil"
        }
      },
      {
        "type": "node",
        "id": 6135362906,
        "lat": 22.5348072,
        "lon": 88.3620549,
        "tags": {
          "amenity": "fuel",
          "brand": "Indian Oil",
          "brand:wikidata": "Q1289348",
          "name": "Indian Oil"
        }
      },
      {
        "type": "node",
        "id": 6135363494,
        "lat": 22.5407554,
        "lon": 88.3578473,
        "tags": {
          "amenity": "fuel",
          "brand": "Bharat Petroleum",
          "brand:wikidata": "Q854826",
          "name": "Bharat Petroleum"
        }
      },
      {
        "type": "node",
        "id": 6135364027,
        "lat": 22.5438555,
        "lon": 88.3608132,
        "tags": {
          "amenity": "fuel",
          "brand": "Hindustan Petroleum",
          "brand:wikidata": "Q1619375",
          "name": "HP",
          "official_name": "Hindustan Petroleum"
        }
      },
      {
        "type": "node",
        "id": 6447832086,
        "lat": 22.546329,
        "lon": 88.3620691,
        "tags": {
          "amenity": "cinema",
          "name:ja": "\u30d1\u30fc\u30af\u30b7\u30e7\u30fc\u30cf\u30a6\u30b9"
        }
      },
      {
        "type": "node",
        "id": 6520727185,
        "lat": 22.5412219,
        "lon": 88.3492589,
        "tags": {
          "amenity": "fuel",
          "name": "India Tradeing Petrol Station"
        }
      },
      {
        "type": "node",
        "id": 6955697644,
        "lat": 22.5077549,
        "lon": 88.3477217,
        "tags": {
          "name": "Tollygunge",
          "name:bn": "\u099f\u09be\u09b2\u09bf\u0997\u099e\u09cd\u099c",
          "network": "IR",
          "operator": "ER",
          "public_transport": "station",
          "railway": "station",
          "ref": "TLG",
          "website": "https://er.indianrailways.gov.in/",
          "wikidata": "Q56278562",
          "wikipedia": "en:Tollygunge railway station"
        }
      },
      {
        "type": "node",
        "id": 6955697648,
        "lat": 22.5080547,
        "lon": 88.3533289,
        "tags": {
          "name": "Lake Gardens",
          "network": "IR",
          "operator": "ER",
          "public_transport": "station",
          "railway": "station",
          "ref": "LKF",
          "wikidata": "Q56278563"
        }
      },
      {
        "type": "node",
        "id": 7661285882,
        "lat": 22.5425257,
        "lon": 88.3659741,
        "tags": {
          "name": "Park Circus",
          "public_transport": "stop_position",
          "railway": "tram_stop",
          "tram": "yes"
        }
      },
      {
        "type": "node",
        "id": 9717918117,
        "lat": 22.5408647,
        "lon": 88.3680476,
        "tags": {
          "amenity": "charging_station",
          "name": "Electric vehicle charging station",
          "name:en": "Electric vehicle charging station type2-7kw",
          "opening_hours": "24/7"
        }
      },
      {
        "type": "node",
        "id": 10093215417,
        "lat": 22.5223282,
        "lon": 88.3487972,
        "tags": {
          "addr:housenumber": "10/1/1",
          "addr:postcode": "700026",
          "addr:street": "Manohar Pukur Road",
          "amenity": "theatre",
          "name": "Mahanayak Uttam Manch",
          "phone": "033 2474 0125"
        }
      },
      {
        "type": "node",
        "id": 10115962717,
        "lat": 22.5093598,
        "lon": 88.3674117,
        "tags": {
          "addr:street": "Dhakuria Bridge",
          "amenity": "charging_station",
          "name": "Electric vehicle charging station 20kw &7kw",
          "name:en": "Electric vehicle charging station 20kw&7kw",
          "opening_hours": "24/7",
          "operator": "CESC"
        }
      },
      {
        "type": "node",
        "id": 11521235520,
        "lat": 22.5284275,
        "lon": 88.3362661,
        "tags": {
          "amenity": "fuel",
          "brand": "Indian Oil Petrol Pump",
          "brand:wikidata": "Q1289348",
          "name": "Indian Oil Petrol Pump"
        }
      },
      {
        "type": "node",
        "id": 11703491168,
        "lat": 22.5414273,
        "lon": 88.3472361,
        "tags": {
          "name": "Rabindra Sadan",
          "name:bn": "\u09b0\u09ac\u09c0\u09a8\u09cd\u09a6\u09cd\u09b0 \u09b8\u09a6\u09a8",
          "network": "Kolkata Metro",
          "operator": "Metro Railway, Kolkata",
          "public_transport": "stop_position",
          "railway": "stop",
          "subway": "yes"
        }
      },
      {
        "type": "node",
        "id": 11703500769,
        "lat": 22.5417879,
        "lon": 88.3472276,
        "tags": {
          "name": "Rabindra Sadan",
          "name:bn": "\u09b0\u09ac\u09c0\u09a8\u09cd\u09a6\u09cd\u09b0 \u09b8\u09a6\u09a8",
          "network": "Kolkata Metro",
          "operator": "Metro Railway, Kolkata",
          "public_transport": "stop_position",
          "railway": "stop",
          "subway": "yes"
        }
      },
      {
        "type": "node",
        "id": 11703500770,
        "lat": 22.5330323,
        "lon": 88.3459483,
        "tags": {
          "name": "Netaji Bhavan",
          "name:bn": "\u09a8\u09c7\u09a4\u09be\u099c\u09bf \u09ad\u09ac\u09a8",
          "network": "Kolkata Metro",
          "operator": "Metro Railway, Kolkata",
          "public_transport": "stop_position",
          "railway": "stop",
          "subway": "yes"
        }
      },
      {
        "type": "node",
        "id": 11703500771,
        "lat": 22.5334398,
        "lon": 88.3459203,
        "tags": {
          "name": "Netaji Bhavan",
          "name:bn": "\u09a8\u09c7\u09a4\u09be\u099c\u09bf \u09ad\u09ac\u09a8",
          "network": "Kolkata Metro",
          "operator": "Metro Railway, Kolkata",
          "public_transport": "stop_position",
          "railway": "stop",
          "subway": "yes"
        }
      },
      {
        "type": "node",
        "id": 11703500772,
        "lat": 22.523971,
        "lon": 88.3465099,
        "tags": {
          "name": "Jatin Das Park",
          "name:bn": "\u09af\u09a4\u09c0\u09a8 \u09a6\u09be\u09b8 \u09aa\u09be\u09b0\u09cd\u0995",
          "network": "Kolkata Metro",
          "operator": "Metro Railway, Kolkata",
          "public_transport": "stop_position",
          "railway": "stop",
          "subway": "yes"
        }
      },
      {
        "type": "node",
        "id": 11703500773,
        "lat": 22.5242532,
        "lon": 88.3464254,
        "tags": {
          "name": "Jatin Das Park",
          "name:bn": "\u09af\u09a4\u09c0\u09a8 \u09a6\u09be\u09b8 \u09aa\u09be\u09b0\u09cd\u0995",
          "network": "Kolkata Metro",
          "operator": "Metro Railway, Kolkata",
          "public_transport": "stop_position",
          "railway": "stop",
          "subway": "yes"
        }
      },
      {
        "type": "node",
        "id": 11703500774,
        "lat": 22.5167254,
        "lon": 88.3458097,
        "tags": {
          "name": "Kalighat",
          "name:bn": "\u0995\u09be\u09b2\u09c0\u0998\u09be\u099f",
          "network": "Kolkata Metro",
          "operator": "Metro Railway, Kolkata",
          "public_transport": "stop_position",
          "railway": "stop",
          "subway": "yes"
        }
      },
      {
        "type": "node",
        "id": 11703500775,
        "lat": 22.5171299,
        "lon": 88.3457808,
        "tags": {
          "name": "Kalighat",
          "name:bn": "\u0995\u09be\u09b2\u09c0\u0998\u09be\u099f",
          "network": "Kolkata Metro",
          "operator": "Metro Railway, Kolkata",
          "public_transport": "stop_position",
          "railway": "stop",
          "subway": "yes"
        }
      },
      {
        "type": "node",
        "id": 11703500776,
        "lat": 22.507203,
        "lon": 88.3454779,
        "tags": {
          "name": "Rabindra Sarobar",
          "name:bn": "\u09b0\u09ac\u09c0\u09a8\u09cd\u09a6\u09cd\u09b0 \u09b8\u09b0\u09cb\u09ac\u09b0",
          "network": "Kolkata Metro",
          "operator": "Metro Railway, Kolkata",
          "public_transport": "stop_position",
          "railway": "stop",
          "subway": "yes"
        }
      },
      {
        "type": "node",
        "id": 11703500777,
        "lat": 22.5076062,
        "lon": 88.3454327,
        "tags": {
          "name": "Rabindra Sarobar",
          "name:bn": "\u09b0\u09ac\u09c0\u09a8\u09cd\u09a6\u09cd\u09b0 \u09b8\u09b0\u09cb\u09ac\u09b0",
          "network": "Kolkata Metro",
          "operator": "Metro Railway, Kolkata",
          "public_transport": "stop_position",
          "railway": "stop",
          "subway": "yes"
        }
      },
      {
        "type": "node",
        "id": 12133241425,
        "lat": 22.5236192,
        "lon": 88.3427695,
        "tags": {
          "amenity": "fuel",
          "brand": "Bharat Petroleum"
        }
      }
    ]
  }
}