{
  "pois_1km": {
    "version": 0.6,
    "generator": "Overpass API 0.7.62.8 e802775f",
    "osm3s": {
      "timestamp_osm_base": "2025-09-06T09:32:30Z",
      "copyright": "The data included in this document is from www.openstreetmap.org. The data is made available under ODbL."
    },
    "elements": [
      {
        "type": "node",
        "id": 4639777284,
        "lat": 22.5437388,
        "lon": 88.3289072,
        "tags": {
          "amenity": "bank",
          "brand": "UCO Bank",
          "brand:wikidata": "Q2005310",
          "brand:wikipedia": "en:UCO Bank",
          "name": "UCO Bank",
          "name:en": "UCO Bank",
          "old_name": "United Commercial Bank",
          "website": "https://www.ucobank.com"
        }
      },
      {
        "type": "node",
        "id": 7048064567,
        "lat": 22.5339512,
        "lon": 88.3409129,
        "tags": {
          "addr:district": "Kolkata",
          "addr:full": "55/C, Dhirendra Nath Ghosh Road",
          "addr:postcode": "700025",
          "addr:state": "West Bengal",
          "amenity": "clinic",
          "contact:phone": "28702219",
          "healthcare": "clinic",
          "name": "Relief Centre",
          "source": "OpenGovernmentData"
        }
      },
      {
        "type": "node",
        "id": 7051040667,
        "lat": 22.534884,
        "lon": 88.3250094,
        "tags": {
          "addr:district": "Kolkata",
          "addr:full": "9, Ibrahim Road",
          "addr:housenumber": "9",
          "addr:postcode": "700023",
          "addr:state": "West Bengal",
          "addr:street": "Ibrahim Road",
          "amenity": "clinic",
          "check_date": "2023-10-28",
          "healthcare": "clinic",
          "name": "Ekbalpur Nursing Home Pvt Ltd",
          "opening_hours": "24/7",
          "phone": "03371440909",
          "source": "OpenGovernmentData",
          "website": "https://www.ekbalpurnursinghome.org/"
        }
      },
      {
        "type": "node",
        "id": 7065692292,
        "lat": 22.5325631,
        "lon": 88.3266748,
        "tags": {
          "addr:district": "Kolkata",
          "addr:full": "64A, Diamond Harbour Road",
          "addr:housenumber": "64A",
          "addr:postcode": "700023",
          "addr:state": "West Bengal",
          "addr:street": "Diamond Harbour Road",
          "amenity": "clinic",
          "check_date": "2023-10-28",
          "contact:phone": "3324568168",
          "healthcare": "clinic",
          "name": "Medi Citi Nursing Home",
          "opening_hours": "24/7",
          "source": "OpenGovernmentData"
        }
      },
      {
        "type": "node",
        "id": 8543466091,
        "lat": 22.5370729,
        "lon": 88.3436743,
        "tags": {
          "addr:city": "Kolkata",
          "addr:housenumber": "11A",
          "addr:postcode": "700025",
          "addr:street": "Beninandan Street",
          "amenity": "restaurant",
          "cuisine": "fish_and_chips;pizza;burger;sandwich",
          "diet:healthy": "yes",
          "diet:non-vegetarian": "yes",
          "name": "Loading Tummy",
          "phone": "+916206404151",
          "website": "https://loadingtummy.com"
        }
      }
    ]
  },
  "pois_2_5km": {
    "version": 0.6,
    "generator": "Overpass API 0.7.62.8 e802775f",
    "osm3s": {
      "timestamp_osm_base": "2025-09-06T09:32:30Z",
      "copyright": "The data included in this document is from www.openstreetmap.org. The data is made available under ODbL."
    },
    "elements": [
      {
        "type": "node",
        "id": 1074604625,
        "lat": 22.5192503,
        "lon": 88.3226114,
        "tags": {
          "name": "Majherat (Circular Rail)",
          "public_transport": "stop_position",
          "railway": "stop",
          "train": "yes"
        }
      },
      {
        "type": "node",
        "id": 1074604649,
        "lat": 22.5565925,
        "lon": 88.3314074,
        "tags": {
          "name": "Prinsep Ghat",
          "network": "IR",
          "operator": "ER",
          "public_transport": "station",
          "railway": "station",
          "ref": "PPGT",
          "wikidata": "Q56277831"
        }
      },
      {
        "type": "node",
        "id": 1558124157,
        "lat": 22.5386985,
        "lon": 88.3175648,
        "tags": {
          "name": "Khidderpore",
          "public_transport": "stop_position",
          "railway": "tram_stop",
          "tram": "yes"
        }
      },
      {
        "type": "node",
        "id": 1561807745,
        "lat": 22.51887,
        "lon": 88.3223775,
        "tags": {
          "public_transport": "stop_position",
          "railway": "stop",
          "train": "yes"
        }
      },
      {
        "type": "node",
        "id": 1561829727,
        "lat": 22.5188248,
        "lon": 88.3223466,
        "tags": {
          "public_transport": "stop_position",
          "railway": "stop",
          "train": "yes"
        }
      },
      {
        "type": "node",
        "id": 1833423572,
        "lat": 22.522132,
        "lon": 88.3248895,
        "tags": {
          "amenity": "fuel",
          "brand": "Hindustan Petroleum",
          "brand:wikidata": "Q1619375",
          "name": "HP",
          "official_name": "Hindustan Petroleum",
          "operator": "IndianOil Corporation Ltd"
        }
      },
      {
        "type": "node",
        "id": 1860605880,
        "lat": 22.5246096,
        "lon": 88.3525906,
        "tags": {
          "amenity": "fuel"
        }
      },
      {
        "type": "node",
        "id": 2283899290,
        "lat": 22.5200581,
        "lon": 88.3464233,
        "tags": {
          "name": "Kalighat",
          "public_transport": "stop_position",
          "railway": "tram_stop",
          "tram": "yes"
        }
      },
      {
        "type": "node",
        "id": 2471894117,
        "lat": 22.5272169,
        "lon": 88.3466356,
        "tags": {
          "amenity": "cinema",
          "name": "Indira Cinema Hall"
        }
      },
      {
        "type": "node",
        "id": 2471903967,
        "lat": 22.5278661,
        "lon": 88.3455882,
        "tags": {
          "amenity": "fuel",
          "building": "yes"
        }
      },
      {
        "type": "node",
        "id": 2723095713,
        "lat": 22.5386966,
        "lon": 88.3177647,
        "tags": {
          "alt_name": "Kidderpur Depot",
          "name": "Khidderpore",
          "name:hi": "\u0916\u093f\u0926\u093f\u0930\u094d\u092a\u0941\u0930 \u0921\u0940\u092a\u094b",
          "public_transport": "stop_position",
          "railway": "tram_stop",
          "tram": "yes"
        }
      },
      {
        "type": "node",
        "id": 4176886089,
        "lat": 22.5384051,
        "lon": 88.3513137,
        "tags": {
          "addr:housenumber": "10/3",
          "addr:postcode": "700020",
          "addr:street": "Elgin Lane",
          "air_conditioning": "yes",
          "amenity": "cinema",
          "brand": "INOX Leisure",
          "brand:wikidata": "Q5972349",
          "check_date": "2023-10-28",
          "name": "INOX Cinema",
          "short_name": "INOX",
          "website": "https://m.inoxmovies.com/",
          "wheelchair": "yes"
        }
      },
      {
        "type": "node",
        "id": 4284367432,
        "lat": 22.5376181,
        "lon": 88.3158211,
        "tags": {
          "name": "Khidirpur",
          "network": "IR",
          "operator": "ER",
          "public_transport": "station",
          "railway": "station",
          "ref": "KIRP",
          "wikidata": "Q56277834"
        }
      },
      {
        "type": "node",
        "id": 4393356789,
        "lat": 22.5493149,
        "lon": 88.3535578,
        "tags": {
          "amenity": "fuel",
          "brand": "Bharat Petroleum",
          "brand:wikidata": "Q854826",
          "name": "Bharat Petroleum"
        }
      },
      {
        "type": "node",
        "id": 5189264044,
        "lat": 22.5190793,
        "lon": 88.3236185,
        "tags": {
          "name": "Majerhat",
          "name:bn": "\u09ae\u09be\u099d\u09c7\u09b0\u09b9\u09be\u099f",
          "public_transport": "stop_position",
          "railway": "stop",
          "subway": "yes"
        }
      },
      {
        "type": "node",
        "id": 5189264107,
        "lat": 22.5190628,
        "lon": 88.3236648,
        "tags": {
          "name": "Majerhat",
          "name:bn": "\u09ae\u09be\u099d\u09c7\u09b0\u09b9\u09be\u099f",
          "public_transport": "stop_position",
          "railway": "stop",
          "subway": "yes"
        }
      },
      {
        "type": "node",
        "id": 5421540159,
        "lat": 22.5241535,
        "lon": 88.3464729,
        "tags": {
          "name": "Jatin Das Park",
          "name:bn": "\u09af\u09a4\u09c0\u09a8 \u09a6\u09be\u09b8 \u09aa\u09be\u09b0\u09cd\u0995",
          "network": "Kolkata Metro",
          "network:wikidata": "Q1048849",
          "operator": "Metro Railway, Kolkata",
          "public_transport": "station",
          "railway": "station",
          "station": "subway",
          "subway": "yes",
          "wikidata": "Q6164578",
          "wikipedia": "en:Jatin Das Park metro station"
        }
      },
      {
        "type": "node",
        "id": 5421541284,
        "lat": 22.5331821,
        "lon": 88.3459269,
        "tags": {
          "name": "Netaji Bhavan",
          "name:bn": "\u09a8\u09c7\u09a4\u09be\u099c\u09bf \u09ad\u09ac\u09a8",
          "network": "Kolkata Metro",
          "network:wikidata": "Q1048849",
          "operator": "Metro Railway, Kolkata",
          "public_transport": "station",
          "railway": "station",
          "station": "subway",
          "subway": "yes",
          "wheelchair": "limited",
          "wikidata": "Q6998599",
          "wikipedia": "en:Netaji Bhavan metro station"
        }
      },
      {
        "type": "node",
        "id": 5421542551,
        "lat": 22.5414899,
        "lon": 88.3473493,
        "tags": {
          "name": "Rabindra Sadan",
          "name:bn": "\u09b0\u09ac\u09c0\u09a8\u09cd\u09a6\u09cd\u09b0 \u09b8\u09a6\u09a8",
          "network": "Kolkata Metro",
          "network:wikidata": "Q1048849",
          "operator": "Metro Railway, Kolkata",
          "public_transport": "station",
          "railway": "station",
          "station": "subway",
          "subway": "yes",
          "wikidata": "Q7278756",
          "wikipedia": "en:Rabindra Sadan metro station"
        }
      },
      {
        "type": "node",
        "id": 5421543288,
        "lat": 22.5494672,
        "lon": 88.3487883,
        "tags": {
          "name": "Maidan",
          "name:bn": "\u09ae\u09af\u09bc\u09a6\u09be\u09a8",
          "network": "Kolkata Metro",
          "network:wikidata": "Q1048849",
          "operator": "Metro Railway, Kolkata",
          "public_transport": "station",
          "railway": "station",
          "station": "subway",
          "subway": "yes",
          "wikidata": "Q6735340",
          "wikipedia": "en:Maidan metro station"
        }
      },
      {
        "type": "node",
        "id": 6135361871,
        "lat": 22.5478778,
        "lon": 88.3530567,
        "tags": {
          "amenity": "fuel",
          "brand": "Hindustan Petroleum",
          "brand:wikidata": "Q1619375",
          "name": "HP",
          "official_name": "Hindustan Petroleum"
        }
      },
      {
        "type": "node",
        "id": 6135361872,
        "lat": 22.54208,
        "lon": 88.3515791,
        "tags": {
          "amenity": "fuel",
          "brand": "Indian Oil",
          "brand:wikidata": "Q1289348",
          "name": "Indian Oil"
        }
      },
      {
        "type": "node",
        "id": 6135363494,
        "lat": 22.5407554,
        "lon": 88.3578473,
        "tags": {
          "amenity": "fuel",
          "brand": "Bharat Petroleum",
          "brand:wikidata": "Q854826",
          "name": "Bharat Petroleum"
        }
      },
      {
        "type": "node",
        "id": 6141500453,
        "lat": 22.5474462,
        "lon": 88.3516232,
        "tags": {
          "amenity": "theatre",
          "name": "Satyajit Ray Auditorium",
          "name:etymology:wikidata": "Q8873"
        }
      },
      {
        "type": "node",
        "id": 6143232537,
        "lat": 22.5388869,
        "lon": 88.3182352,
        "tags": {
          "addr:city": "Kolkata",
          "addr:postcode": "700023",
          "addr:street": "Karl Marx Sarani",
          "amenity": "fuel",
          "brand": "Bharat Petroleum",
          "brand:wikidata": "Q854826",
          "brand:wikipedia": "en:Bharat Petroleum",
          "name": "Bharat Petroleum",
          "opening_hours": "24/7",
          "self_service": "no"
        }
      },
      {
        "type": "node",
        "id": 6186215071,
        "lat": 22.5259855,
        "lon": 88.3167075,
        "tags": {
          "name": "Remount Road",
          "network": "IR",
          "operator": "ER",
          "public_transport": "station",
          "railway": "station",
          "ref": "RMTR",
          "wikidata": "Q56277835"
        }
      },
      {
        "type": "node",
        "id": 6186215510,
        "lat": 22.5190536,
        "lon": 88.3221307,
        "tags": {
          "IR:zone": "ER",
          "is_in": "Kolkata",
          "name": "Majherhat",
          "network": "IR",
          "operator": "ER",
          "public_transport": "station",
          "railway": "station",
          "ref": "MJT",
          "wikidata": "Q20718005",
          "wikipedia": "en:Majerhat railway station"
        }
      },
      {
        "type": "node",
        "id": 6520727185,
        "lat": 22.5412219,
        "lon": 88.3492589,
        "tags": {
          "amenity": "fuel",
          "name": "India Tradeing Petrol Station"
        }
      },
      {
        "type": "node",
        "id": 6700889660,
        "lat": 22.5381004,
        "lon": 88.3171278,
        "tags": {
          "addr:city": "Kolkata",
          "addr:postcode": "700023",
          "addr:street": "Dock Eastern Boundary Road",
          "amenity": "fuel",
          "brand": "Indian Oil",
          "brand:wikidata": "Q1289348",
          "brand:wikipedia": "en:Indian Oil Corporation",
          "name": "Indian Oil",
          "opening_hours": "24/7",
          "self_service": "no"
        }
      },
      {
        "type": "node",
        "id": 6916849753,
        "lat": 22.5190288,
        "lon": 88.3223805,
        "tags": {
          "public_transport": "stop_position",
          "railway": "stop",
          "train": "yes"
        }
      },
      {
        "type": "node",
        "id": 9717923217,
        "lat": 22.5475251,
        "lon": 88.3495487,
        "tags": {
          "addr:housenumber": "43",
          "addr:postcode": "700071",
          "addr:street": "Jawaharlal Nehru Road",
          "amenity": "charging_station",
          "name": "Electric vehicle charging station tata",
          "opening_hours": "24/7",
          "website": "https://nexonev.tatamotors.com/charging-locator/"
        }
      },
      {
        "type": "node",
        "id": 10093215417,
        "lat": 22.5223282,
        "lon": 88.3487972,
        "tags": {
          "addr:housenumber": "10/1/1",
          "addr:postcode": "700026",
          "addr:street": "Manohar Pukur Road",
          "amenity": "theatre",
          "name": "Mahanayak Uttam Manch",
          "phone": "033 2474 0125"
        }
      },
      {
        "type": "node",
        "id": 11521235520,
        "lat": 22.5284275,
        "lon": 88.3362661,
        "tags": {
          "amenity": "fuel",
          "brand": "Indian Oil Petrol Pump",
          "brand:wikidata": "Q1289348",
          "name": "Indian Oil Petrol Pump"
        }
      },
      {
        "type": "node",
        "id": 11699268226,
        "lat": 22.5191466,
        "lon": 88.3236555,
        "tags": {
          "name": "Majerhat",
          "name:bn": "\u09ae\u09be\u099d\u09c7\u09b0\u09b9\u09be\u099f",
          "network": "Kolkata Metro",
          "network:wikidata": "Q1048849",
          "operator": "Metro Railway, Kolkata",
          "public_transport": "station",
          "railway": "station",
          "station": "subway",
          "subway": "yes",
          "wikidata": "Q85214864",
          "wikipedia": "en:Majerhat metro station"
        }
      },
      {
        "type": "node",
        "id": 11703491166,
        "lat": 22.5493752,
        "lon": 88.3487245,
        "tags": {
          "name": "Maidan",
          "name:bn": "\u09ae\u09af\u09bc\u09a6\u09be\u09a8",
          "network": "Kolkata Metro",
          "operator": "Metro Railway, Kolkata",
          "public_transport": "stop_position",
          "railway": "stop",
          "subway": "yes"
        }
      },
      {
        "type": "node",
        "id": 11703491167,
        "lat": 22.5497087,
        "lon": 88.3487474,
        "tags": {
          "name": "Maidan",
          "name:bn": "\u09ae\u09af\u09bc\u09a6\u09be\u09a8",
          "network": "Kolkata Metro",
          "operator": "Metro Railway, Kolkata",
          "public_transport": "stop_position",
          "railway": "stop",
          "subway": "yes"
        }
      },
      {
        "type": "node",
        "id": 11703491168,
        "lat": 22.5414273,
        "lon": 88.3472361,
        "tags": {
          "name": "Rabindra Sadan",
          "name:bn": "\u09b0\u09ac\u09c0\u09a8\u09cd\u09a6\u09cd\u09b0 \u09b8\u09a6\u09a8",
          "network": "Kolkata Metro",
          "operator": "Metro Railway, Kolkata",
          "public_transport": "stop_position",
          "railway": "stop",
          "subway": "yes"
        }
      },
      {
        "type": "node",
        "id": 11703500769,
        "lat": 22.5417879,
        "lon": 88.3472276,
        "tags": {
          "name": "Rabindra Sadan",
          "name:bn": "\u09b0\u09ac\u09c0\u09a8\u09cd\u09a6\u09cd\u09b0 \u09b8\u09a6\u09a8",
          "network": "Kolkata Metro",
          "operator": "Metro Railway, Kolkata",
          "public_transport": "stop_position",
          "railway": "stop",
          "subway": "yes"
        }
      },
      {
        "type": "node",
        "id": 11703500770,
        "lat": 22.5330323,
        "lon": 88.3459483,
        "tags": {
          "name": "Netaji Bhavan",
          "name:bn": "\u09a8\u09c7\u09a4\u09be\u099c\u09bf \u09ad\u09ac\u09a8",
          "network": "Kolkata Metro",
          "operator": "Metro Railway, Kolkata",
          "public_transport": "stop_position",
          "railway": "stop",
          "subway": "yes"
        }
      },
      {
        "type": "node",
        "id": 11703500771,
        "lat": 22.5334398,
        "lon": 88.3459203,
        "tags": {
          "name": "Netaji Bhavan",
          "name:bn": "\u09a8\u09c7\u09a4\u09be\u099c\u09bf \u09ad\u09ac\u09a8",
          "network": "Kolkata Metro",
          "operator": "Metro Railway, Kolkata",
          "public_transport": "stop_position",
          "railway": "stop",
          "subway": "yes"
        }
      },
      {
        "type": "node",
        "id": 11703500772,
        "lat": 22.523971,
        "lon": 88.3465099,
        "tags": {
          "name": "Jatin Das Park",
          "name:bn": "\u09af\u09a4\u09c0\u09a8 \u09a6\u09be\u09b8 \u09aa\u09be\u09b0\u09cd\u0995",
          "network": "Kolkata Metro",
          "operator": "Metro Railway, Kolkata",
          "public_transport": "stop_position",
          "railway": "stop",
          "subway": "yes"
        }
      },
      {
        "type": "node",
        "id": 11703500773,
        "lat": 22.5242532,
        "lon": 88.3464254,
        "tags": {
          "name": "Jatin Das Park",
          "name:bn": "\u09af\u09a4\u09c0\u09a8 \u09a6\u09be\u09b8 \u09aa\u09be\u09b0\u09cd\u0995",
          "network": "Kolkata Metro",
          "operator": "Metro Railway, Kolkata",
          "public_transport": "stop_position",
          "railway": "stop",
          "subway": "yes"
        }
      },
      {
        "type": "node",
        "id": 11944136006,
        "lat": 22.5440552,
        "lon": 88.3132396,
        "tags": {
          "amenity": "fuel",
          "brand": "Hindustan Petroleum",
          "brand:wikidata": "Q1619375",
          "name": "HP",
          "official_name": "Hindustan Petroleum"
        }
      },
      {
        "type": "node",
        "id": 12133241425,
        "lat": 22.5236192,
        "lon": 88.3427695,
        "tags": {
          "amenity": "fuel",
          "brand": "Bharat Petroleum"
        }
      },
      {
        "type": "node",
        "id": 12133903489,
        "lat": 22.5293502,
        "lon": 88.3318583,
        "tags": {
          "amenity": "fuel",
          "brand": "Bharat Petroleum"
        }
      }
    ]
  }
}