{
  "pois_1km": {
    "version": 0.6,
    "generator": "Overpass API 0.7.62.8 e802775f",
    "osm3s": {
      "timestamp_osm_base": "2025-09-06T09:48:45Z",
      "copyright": "The data included in this document is from www.openstreetmap.org. The data is made available under ODbL."
    },
    "elements": [
      {
        "type": "node",
        "id": 1833362469,
        "lat": 22.5337863,
        "lon": 88.3648196,
        "tags": {
          "addr:postcode": "700019",
          "amenity": "pharmacy",
          "check_date": "2023-12-16",
          "description": "Medicine shop",
          "healthcare": "pharmacy",
          "name": "Ballygunge Drugs Centre"
        }
      },
      {
        "type": "node",
        "id": 1833368098,
        "lat": 22.5347673,
        "lon": 88.3650771,
        "tags": {
          "addr:housenumber": "1/1",
          "addr:postcode": "700019",
          "addr:street": "Ashutosh Chowdhury Road",
          "amenity": "bank",
          "atm": "yes",
          "branch": "Ballygunge",
          "brand": "ICICI Bank",
          "brand:wikidata": "Q1653258",
          "name": "ICICI Bank",
          "name:en": "ICICI Bank",
          "short_name": "ICICI",
          "website": "https://www.icicibank.com"
        }
      },
      {
        "type": "node",
        "id": 2561264392,
        "lat": 22.5413282,
        "lon": 88.365897,
        "tags": {
          "addr:city": "Kolkata",
          "amenity": "restaurant",
          "cuisine": "indian",
          "name": "Zeeshan"
        }
      },
      {
        "type": "node",
        "id": 2561266540,
        "lat": 22.5412056,
        "lon": 88.3649509,
        "tags": {
          "amenity": "restaurant",
          "name": "Krazy Kebab"
        }
      },
      {
        "type": "node",
        "id": 4937969021,
        "lat": 22.5438718,
        "lon": 88.3659522,
        "tags": {
          "air_conditioning": "yes",
          "amenity": "restaurant",
          "bar": "no",
          "capacity": "120",
          "check_date": "2023-12-16",
          "cuisine": "regional",
          "delivery": "yes",
          "diet:halal": "yes",
          "diet:meat": "yes",
          "diet:non-vegetarian": "yes",
          "diet:vegetarian": "yes",
          "internet_access": "no",
          "name": "Arsalan Restaurant",
          "name:en": "Arsalan",
          "opening_hours": "Mo-Su 10:30-24:00",
          "payment:cash": "yes",
          "payment:mastercard": "yes",
          "payment:visa": "yes",
          "phone": "+913322848556",
          "smoking": "outside",
          "website": "https://arsalanrestaurants.com/",
          "wheelchair": "no"
        }
      },
      {
        "type": "node",
        "id": 5414029822,
        "lat": 22.540289,
        "lon": 88.3650923,
        "tags": {
          "amenity": "restaurant",
          "name": "The South Indian"
        }
      },
      {
        "type": "node",
        "id": 5414040822,
        "lat": 22.5410631,
        "lon": 88.3659763,
        "tags": {
          "amenity": "restaurant",
          "name": "Nafeel"
        }
      },
      {
        "type": "node",
        "id": 5485056643,
        "lat": 22.5450285,
        "lon": 88.3780465,
        "tags": {
          "leisure": "park",
          "name": "Shibtala Math"
        }
      },
      {
        "type": "node",
        "id": 5512023021,
        "lat": 22.5426,
        "lon": 88.3659642,
        "tags": {
          "addr:housenumber": "2",
          "addr:place": "Syed Amir Ali Avenue",
          "amenity": "atm",
          "brand": "Allahabad Bank",
          "brand:wikidata": "Q2018840",
          "check_date": "2023-12-16",
          "currency:INR": "yes",
          "opening_hours": "24/7",
          "operator": "Allahabad Bank",
          "operator:wikidata": "Q2018840"
        }
      },
      {
        "type": "node",
        "id": 6135361876,
        "lat": 22.5338674,
        "lon": 88.3648127,
        "tags": {
          "amenity": "bank",
          "atm": "yes",
          "branch": "Ballygunge Park Road",
          "branch:hi": "\u092c\u093e\u0932\u0940\u0917\u0902\u091c \u092a\u093e\u0930\u094d\u0915 \u0930\u094b\u0921",
          "brand": "Indian Overseas Bank",
          "brand:wikidata": "Q2003611",
          "check_date": "2023-12-16",
          "drive_through": "yes",
          "internet_access": "no",
          "name": "Indian Overseas Bank",
          "payment:cash": "yes",
          "payment:mastercard": "yes",
          "payment:visa": "yes",
          "wheelchair": "no"
        }
      },
      {
        "type": "node",
        "id": 6135362107,
        "lat": 22.5327945,
        "lon": 88.3649879,
        "tags": {
          "alt_name": "Haldiram",
          "amenity": "fast_food",
          "brand": "Haldiram's",
          "brand:wikidata": "Q17054442",
          "check_date": "2023-12-16",
          "cuisine": "indian",
          "internet_access": "wlan",
          "internet_access:fee": "customers",
          "level": "1",
          "name": "Haldiram's",
          "payment:cash": "yes",
          "payment:mastercard": "yes",
          "payment:visa": "yes",
          "takeaway": "yes",
          "wheelchair": "limited"
        }
      },
      {
        "type": "node",
        "id": 6135362108,
        "lat": 22.5341781,
        "lon": 88.3649945,
        "tags": {
          "addr:housenumber": "1/1",
          "addr:street": "Ashutosh Chowdhury Road",
          "amenity": "bank",
          "atm": "yes",
          "brand": "Kotak Mahindra Bank",
          "brand:wikidata": "Q2040404",
          "check_date": "2023-12-16",
          "drive_through": "yes",
          "internet_access": "no",
          "name": "Kotak Mahindra Bank",
          "payment:cash": "yes",
          "payment:mastercard": "yes",
          "payment:visa": "yes"
        }
      },
      {
        "type": "node",
        "id": 6135362917,
        "lat": 22.5328706,
        "lon": 88.3650175,
        "tags": {
          "amenity": "restaurant",
          "level": "2",
          "name": "Teekha"
        }
      },
      {
        "type": "node",
        "id": 6135363543,
        "lat": 22.5347593,
        "lon": 88.3650167,
        "tags": {
          "addr:housenumber": "1/1",
          "addr:street": "Ashutosh Chowdhury Road",
          "amenity": "atm",
          "brand": "ICICI Bank",
          "brand:wikidata": "Q1653258",
          "cash_in": "no",
          "check_date": "2023-12-16",
          "opening_hours": "24/7",
          "operator": "ICICI Bank",
          "operator:wikidata": "Q1653258",
          "short_name": "ICICI"
        }
      },
      {
        "type": "node",
        "id": 6135363544,
        "lat": 22.5401072,
        "lon": 88.3655956,
        "tags": {
          "amenity": "atm",
          "brand": "Kotak Mahindra Bank",
          "brand:wikidata": "Q2040404",
          "operator": "Kotak Mahindra Bank",
          "operator:wikidata": "Q2040404"
        }
      },
      {
        "type": "node",
        "id": 6135363686,
        "lat": 22.5350978,
        "lon": 88.3651556,
        "tags": {
          "amenity": "atm",
          "brand": "State Bank of India",
          "brand:short": "SBI",
          "brand:wikidata": "Q1340361",
          "operator": "State Bank of India",
          "operator:wikidata": "Q1340361",
          "short_name": "SBI"
        }
      },
      {
        "type": "node",
        "id": 6135364025,
        "lat": 22.5341697,
        "lon": 88.3649089,
        "tags": {
          "addr:housenumber": "1/1",
          "addr:street": "Ashutosh Chowdhury Road",
          "amenity": "atm",
          "brand": "Kotak Mahindra Bank",
          "brand:wikidata": "Q2040404",
          "check_date": "2023-12-16",
          "currency:INR": "yes",
          "opening_hours": "24/7",
          "operator": "Kotak Mahindra Bank",
          "operator:wikidata": "Q2040404"
        }
      },
      {
        "type": "node",
        "id": 6138458337,
        "lat": 22.5385047,
        "lon": 88.364883,
        "tags": {
          "amenity": "fast_food",
          "brand": "Domino's",
          "brand:ks": "\u0688\u0648\u0645\u06cc\u0646\u0648\u0632",
          "brand:pa": "\u0a21\u0a4b\u0a2e\u0a40\u0a28\u0a4b\u0a1c\u0a3c",
          "brand:ur": "\u0688\u0648\u0645\u06cc\u0646\u0648\u0632",
          "brand:wikidata": "Q839466",
          "brand:wikipedia": "en:Domino's Pizza",
          "cuisine": "pizza",
          "level": "1",
          "name": "Domino's",
          "name:ks": "\u0688\u0648\u0645\u06cc\u0646\u0648\u0632",
          "name:pa": "\u0a21\u0a4b\u0a2e\u0a40\u0a28\u0a4b\u0a1c\u0a3c",
          "name:ur": "\u0688\u0648\u0645\u06cc\u0646\u0648\u0632",
          "takeaway": "yes"
        }
      },
      {
        "type": "node",
        "id": 6545669000,
        "lat": 22.5377363,
        "lon": 88.3693489,
        "tags": {
          "addr:housenumber": "43/A",
          "addr:postcode": "700017",
          "addr:street": "Bright Street",
          "amenity": "pharmacy",
          "healthcare": "pharmacy",
          "name": "Bright Street",
          "opening_hours": "Mo-Su 10:00-23:00",
          "operator": "Neesa Medical"
        }
      },
      {
        "type": "node",
        "id": 6698626686,
        "lat": 22.5390133,
        "lon": 88.3655357,
        "tags": {
          "addr:city": "kolkata",
          "addr:postcode": "700017",
          "addr:street": "Gariahat Road",
          "name": "Spencer\u2019s Supermarket (bottom level)",
          "organic": "yes",
          "shop": "supermarket",
          "website": "https://www.spencers.in/"
        }
      },
      {
        "type": "node",
        "id": 6698678609,
        "lat": 22.5388404,
        "lon": 88.3655051,
        "tags": {
          "amenity": "restaurant",
          "brand": "Pizza Hut",
          "brand:wikidata": "Q191615",
          "cuisine": "pizza",
          "name": "Pizza Hut"
        }
      },
      {
        "type": "node",
        "id": 6698978095,
        "lat": 22.5387257,
        "lon": 88.3654984,
        "tags": {
          "alt_name": "Kentucky Fried Chicken",
          "alt_name:en": "Kentucky Fried Chicken",
          "alt_name:hi": "\u0915\u0947\u0902\u091f\u0941\u0915\u0940 \u092b\u094d\u0930\u093e\u0907\u0921 \u091a\u093f\u0915\u0928",
          "alt_name:pa": "\u0a15\u0a48\u0a02\u0a1f\u0a41\u0a15\u0a40 \u0a2b\u0a4d\u0a30\u0a3e\u0a08\u0a21 \u0a1a\u0a3f\u0a15\u0a28",
          "alt_name:pnb": "\u06a9\u06cc\u0646\u0679\u06a9\u06cc \u0641\u0631\u0627\u0626\u06cc\u0688 \u0686\u06a9\u0646",
          "alt_name:ur": "\u06a9\u06cc\u0646\u0679\u06a9\u06cc \u0641\u0631\u0627\u0626\u06cc\u0688 \u0686\u06a9\u0646",
          "amenity": "fast_food",
          "brand": "KFC",
          "brand:en": "KFC",
          "brand:hi": "\u0915\u0947\u090f\u092b\u0938\u0940",
          "brand:pa": "\u0a15\u0a47\u0a10\u0a2b\u0a38\u0a40",
          "brand:pnb": "\u06a9\u06d2 \u0627\u06cc\u0641 \u0633\u06cc",
          "brand:ur": "\u06a9\u06d2 \u0627\u06cc\u0641 \u0633\u06cc",
          "brand:wikidata": "Q524757",
          "brand:wikipedia": "en:KFC",
          "brand:wikipedia:pa": "\u0a15\u0a47\u0a10\u0a2b\u0a38\u0a40",
          "brand:wikipedia:ur": "\u06a9\u06cc\u0646\u0679\u06a9\u06cc \u0641\u0631\u0627\u0626\u06cc\u0688 \u0686\u06a9\u0646",
          "cuisine": "chicken",
          "name": "KFC",
          "name:en": "KFC",
          "name:hi": "\u0915\u0947\u090f\u092b\u0938\u0940",
          "name:pa": "\u0a15\u0a47\u0a10\u0a2b\u0a38\u0a40",
          "name:pnb": "\u06a9\u06d2 \u0627\u06cc\u0641 \u0633\u06cc",
          "name:ur": "\u06a9\u06d2 \u0627\u06cc\u0641 \u0633\u06cc",
          "takeaway": "yes"
        }
      },
      {
        "type": "node",
        "id": 6698978096,
        "lat": 22.5387204,
        "lon": 88.3656254,
        "tags": {
          "amenity": "restaurant",
          "brand": "Chili's",
          "brand:wikidata": "Q1072948",
          "cuisine": "tex-mex",
          "name": "Chili's",
          "official_name": "Chili's Grill & Bar"
        }
      },
      {
        "type": "node",
        "id": 6698978097,
        "lat": 22.5387936,
        "lon": 88.3654984,
        "tags": {
          "amenity": "atm"
        }
      },
      {
        "type": "node",
        "id": 7030445285,
        "lat": 22.5345762,
        "lon": 88.3669984,
        "tags": {
          "amenity": "cafe",
          "name": "Zee\u2019s Coffeeshop"
        }
      },
      {
        "type": "node",
        "id": 7048489106,
        "lat": 22.542529,
        "lon": 88.3651547,
        "tags": {
          "addr:district": "Kolkata",
          "addr:full": "42,Sk Mujibur Rahman Sarani,Circus Avenue, Beck Bagan",
          "addr:postcode": "700017",
          "addr:state": "West Bengal",
          "amenity": "hospital",
          "healthcare": "hospital",
          "name": "Harvard Medicare And Research Institute (P) Ltd.",
          "source": "OpenGovernmentData"
        }
      },
      {
        "type": "node",
        "id": 7048758386,
        "lat": 22.5347322,
        "lon": 88.3743808,
        "tags": {
          "addr:district": "Kolkata",
          "addr:full": "No. 16C Topsia,Tiljala",
          "addr:postcode": "700046",
          "addr:state": "West Bengal",
          "amenity": "hospital",
          "healthcare": "hospital",
          "name": "Swastik Seva Sadan",
          "source": "OpenGovernmentData"
        }
      },
      {
        "type": "node",
        "id": 7059017540,
        "lat": 22.5386694,
        "lon": 88.3723074,
        "tags": {
          "addr:district": "Kolkata",
          "addr:full": "11, Dr. Biresh Guha Street",
          "addr:postcode": "700017",
          "addr:state": "West Bengal",
          "amenity": "hospital",
          "healthcare": "hospital",
          "name": "Institute Of Child Health",
          "source": "OpenGovernmentData",
          "wikidata": "Q28154828",
          "wikipedia": "en:Institute of Child Health, Kolkata"
        }
      },
      {
        "type": "node",
        "id": 7062120846,
        "lat": 22.5427124,
        "lon": 88.3664475,
        "tags": {
          "addr:district": "Kolkata",
          "addr:full": "94, Park Street, Park Circus",
          "addr:housenumber": "2",
          "addr:place": "Syed Amir Ali Avenue",
          "addr:postcode": "700017",
          "addr:state": "West Bengal",
          "amenity": "hospital",
          "check_date": "2023-12-16",
          "emergency": "yes",
          "healthcare": "hospital",
          "internet_access": "wlan",
          "internet_access:fee": "customers",
          "name": "Islamia Medical Institute",
          "operator:type": "government",
          "payment:cash": "yes",
          "payment:mastercard": "yes",
          "payment:visa": "yes",
          "source": "OpenGovernmentData",
          "wheelchair": "yes"
        }
      },
      {
        "type": "node",
        "id": 7062138859,
        "lat": 22.5447604,
        "lon": 88.3708055,
        "tags": {
          "addr:district": "Kolkata",
          "addr:full": "73,Chittaranjan Avenue,Darga Road",
          "addr:postcode": "700017",
          "addr:state": "West Bengal",
          "amenity": "hospital",
          "healthcare": "hospital",
          "name": "Islamia Hospital",
          "source": "OpenGovernmentData"
        }
      },
      {
        "type": "node",
        "id": 7062229867,
        "lat": 22.5373304,
        "lon": 88.3641677,
        "tags": {
          "addr:district": "Kolkata",
          "addr:full": "13A,Colonel Biswas Road",
          "addr:postcode": "700019",
          "addr:state": "West Bengal",
          "amenity": "hospital",
          "healthcare": "hospital",
          "name": "Implant's Better Sight Centre Pvt Ltd",
          "source": "OpenGovernmentData",
          "website": "implantsbettersight.com"
        }
      },
      {
        "type": "node",
        "id": 7068409205,
        "lat": 22.5400643,
        "lon": 88.3714922,
        "tags": {
          "addr:district": "Kolkata",
          "addr:full": "94A Dilkusha Street Dilkusha Street",
          "addr:postcode": "700017",
          "addr:state": "West Bengal",
          "amenity": "clinic",
          "contact:phone": "3322404318",
          "healthcare": "clinic",
          "name": "Dilkusha Nursing Home",
          "source": "OpenGovernmentData"
        }
      },
      {
        "type": "node",
        "id": 7068848793,
        "lat": 22.5304401,
        "lon": 88.3687308,
        "tags": {
          "addr:district": "Kolkata",
          "addr:full": "20/C, Broad Street,(Ballygunge)",
          "addr:housenumber": "32",
          "addr:postcode": "700019",
          "addr:state": "West Bengal",
          "addr:street": "Old Balligunge 1st Lane",
          "amenity": "clinic",
          "check_date": "2023-12-16",
          "contact:phone": "22871442",
          "healthcare": "clinic",
          "name": "Repose Clinic and Research Centre Pvt. Ltd.",
          "operator:type": "private",
          "source": "OpenGovernmentData"
        }
      },
      {
        "type": "node",
        "id": 7069117897,
        "lat": 22.5392157,
        "lon": 88.3705661,
        "tags": {
          "addr:city": "Kolkata",
          "addr:district": "Kolkata",
          "addr:full": "6, Dr, Biresh Guha Street, Near Park Circus, 4 No Bridge",
          "addr:postcode": "700017",
          "addr:state": "West Bengal",
          "amenity": "hospital",
          "contact:phone": "22810200",
          "healthcare": "hospital",
          "name": "Good Samaritan Hospital",
          "source": "OpenGovernmentData"
        }
      },
      {
        "type": "node",
        "id": 7071670270,
        "lat": 22.5395189,
        "lon": 88.3710095,
        "tags": {
          "addr:district": "Kolkata",
          "addr:full": "7, Dr.Biresh Guha Street, Park Circus,4 No. Bridge",
          "addr:postcode": "700017",
          "addr:state": "West Bengal",
          "amenity": "hospital",
          "contact:phone": "22895346;40116800",
          "healthcare": "hospital",
          "name": "TRA General Hospital - Kolkata",
          "source": "OpenGovernmentData",
          "website": "https://trageneralhospital.com/"
        }
      },
      {
        "type": "node",
        "id": 7071677009,
        "lat": 22.5410681,
        "lon": 88.3669069,
        "tags": {
          "addr:district": "Kolkata",
          "addr:full": "3 B , Congress Exhibition Road, Circus Avenue",
          "addr:postcode": "700017",
          "addr:state": "West Bengal",
          "amenity": "clinic",
          "healthcare": "clinic",
          "name": "Stallard Eye Clinic",
          "source": "OpenGovernmentData"
        }
      },
      {
        "type": "node",
        "id": 7074272608,
        "lat": 22.5404476,
        "lon": 88.3698897,
        "tags": {
          "addr:district": "Kolkata",
          "addr:full": "215, Park Street",
          "addr:postcode": "700017",
          "addr:state": "West Bengal",
          "amenity": "hospital",
          "healthcare": "hospital",
          "name": "Calcutta Pay Clinic and Hospital Pvt Ltd",
          "source": "OpenGovernmentData"
        }
      },
      {
        "type": "node",
        "id": 7074312579,
        "lat": 22.5400629,
        "lon": 88.3710368,
        "tags": {
          "addr:district": "Kolkata",
          "addr:full": "#55 B/1,Dilkhusa St",
          "addr:postcode": "700017",
          "addr:state": "West Bengal",
          "amenity": "clinic",
          "healthcare": "clinic",
          "name": "M. B. Nursing Home",
          "source": "OpenGovernmentData"
        }
      },
      {
        "type": "node",
        "id": 7074312606,
        "lat": 22.5341754,
        "lon": 88.3724879,
        "tags": {
          "addr:district": "Kolkata",
          "addr:full": "74, Broad Street, Ballygunge",
          "addr:postcode": "700019",
          "addr:state": "West Bengal",
          "amenity": "clinic",
          "contact:phone": "3322470032",
          "healthcare": "clinic",
          "name": "Mediview Nursing Home Pvt Ltd",
          "source": "OpenGovernmentData",
          "website": "https://mediview.co.in/"
        }
      },
      {
        "type": "node",
        "id": 7074329089,
        "lat": 22.5441888,
        "lon": 88.3731081,
        "tags": {
          "addr:district": "Kolkata",
          "addr:full": "04 L Tiljala Road",
          "addr:postcode": "700046",
          "addr:state": "West Bengal",
          "amenity": "clinic",
          "contact:phone": "3322801155",
          "healthcare": "clinic",
          "name": "Don View Nursing Home",
          "source": "OpenGovernmentData"
        }
      }
    ]
  },
  "pois_2_5km": {
    "version": 0.6,
    "generator": "Overpass API 0.7.62.8 e802775f",
    "osm3s": {
      "timestamp_osm_base": "2025-09-06T09:48:45Z",
      "copyright": "The data included in this document is from www.openstreetmap.org. The data is made available under ODbL."
    },
    "elements": [
      {
        "type": "node",
        "id": 651805730,
        "lat": 22.5191616,
        "lon": 88.3721923,
        "tags": {
          "name": "Ballygunge Junction",
          "name:bn": "\u09ac\u09be\u09b2\u09bf\u0997\u099e\u09cd\u099c",
          "network": "IR",
          "operator": "ER",
          "public_transport": "station",
          "railway": "station",
          "ref": "BLN",
          "wikidata": "Q55639257",
          "wikipedia": "en:Ballygunge Junction railway station"
        }
      },
      {
        "type": "node",
        "id": 1274128857,
        "lat": 22.5405657,
        "lon": 88.3738598,
        "tags": {
          "name": "Park Circus",
          "name:bn": "\u09aa\u09be\u09b0\u09cd\u0995 \u09b8\u09be\u09b0\u09cd\u0995\u09be\u09b8",
          "network": "IR",
          "operator": "ER",
          "public_transport": "station",
          "railway": "station",
          "ref": "PQS",
          "train": "yes",
          "wheelchair": "no",
          "wikidata": "Q56278569",
          "wikipedia": "en:Park Circus railway station"
        }
      },
      {
        "type": "node",
        "id": 1686122936,
        "lat": 22.526191,
        "lon": 88.3667029,
        "tags": {
          "amenity": "cinema",
          "check_date": "2023-12-16",
          "name": "London paris cinema"
        }
      },
      {
        "type": "node",
        "id": 1783135288,
        "lat": 22.5274281,
        "lon": 88.365843,
        "tags": {
          "amenity": "fuel",
          "brand": "Bharat Petroleum",
          "brand:wikidata": "Q854826",
          "check_date": "2023-12-16",
          "fuel:GTL_diesel": "yes",
          "fuel:HGV_diesel": "yes",
          "fuel:diesel": "yes",
          "fuel:petrol": "yes",
          "internet_access": "no",
          "name": "Bharat Petroleum",
          "payment:cash": "yes",
          "payment:mastercard": "yes",
          "payment:visa": "yes"
        }
      },
      {
        "type": "node",
        "id": 2720702706,
        "lat": 22.5424807,
        "lon": 88.3659928,
        "tags": {
          "name": "Park Circus",
          "public_transport": "stop_position",
          "railway": "tram_stop",
          "tram": "yes"
        }
      },
      {
        "type": "node",
        "id": 2721264604,
        "lat": 22.5258882,
        "lon": 88.3660841,
        "tags": {
          "name": "Gariahat Depot",
          "public_transport": "stop_position",
          "railway": "tram_stop",
          "tram": "yes"
        }
      },
      {
        "type": "node",
        "id": 2721384860,
        "lat": 22.5525664,
        "lon": 88.3561356,
        "tags": {
          "name": "Rafi Ahmad Kidwai Road / Elliot Road",
          "public_transport": "stop_position",
          "railway": "tram_stop",
          "tram": "yes"
        }
      },
      {
        "type": "node",
        "id": 2721388718,
        "lat": 22.5504601,
        "lon": 88.3628985,
        "tags": {
          "name": "Acharya Jagadish Chandra Bose Road / Elliot Road",
          "public_transport": "stop_position",
          "railway": "tram_stop",
          "tram": "yes"
        }
      },
      {
        "type": "node",
        "id": 2776950395,
        "lat": 22.5426967,
        "lon": 88.3662093,
        "tags": {
          "addr:housenumber": "2",
          "addr:place": "Syed Amir Ali Avenue",
          "amenity": "fuel",
          "brand": "Bharat Petroleum",
          "brand:wikidata": "Q854826",
          "check_date": "2023-12-16",
          "fuel:diesel": "yes",
          "fuel:petrol": "yes",
          "internet_access": "no",
          "name": "Bharat Petroleum",
          "payment:cash": "yes",
          "payment:mastercard": "yes",
          "payment:visa": "yes",
          "wheelchair": "no"
        }
      },
      {
        "type": "node",
        "id": 2907641509,
        "lat": 22.5545324,
        "lon": 88.36431,
        "tags": {
          "amenity": "fuel"
        }
      },
      {
        "type": "node",
        "id": 4176886089,
        "lat": 22.5384051,
        "lon": 88.3513137,
        "tags": {
          "addr:housenumber": "10/3",
          "addr:postcode": "700020",
          "addr:street": "Elgin Lane",
          "air_conditioning": "yes",
          "amenity": "cinema",
          "brand": "INOX Leisure",
          "brand:wikidata": "Q5972349",
          "check_date": "2023-10-28",
          "name": "INOX Cinema",
          "short_name": "INOX",
          "website": "https://m.inoxmovies.com/",
          "wheelchair": "yes"
        }
      },
      {
        "type": "node",
        "id": 4180455089,
        "lat": 22.5451589,
        "lon": 88.3703737,
        "tags": {
          "amenity": "bus_station",
          "bus": "yes",
          "public_transport": "station",
          "wheelchair": "no"
        }
      },
      {
        "type": "node",
        "id": 4393356789,
        "lat": 22.5493149,
        "lon": 88.3535578,
        "tags": {
          "amenity": "fuel",
          "brand": "Bharat Petroleum",
          "brand:wikidata": "Q854826",
          "name": "Bharat Petroleum"
        }
      },
      {
        "type": "node",
        "id": 4845192821,
        "lat": 22.5520205,
        "lon": 88.3717304,
        "tags": {
          "amenity": "fuel",
          "brand": "Bharat Petroleum",
          "brand:wikidata": "Q854826",
          "compressed_air": "yes",
          "name": "Bharat Petroleum",
          "name:en": "Bharat Petroleum"
        }
      },
      {
        "type": "node",
        "id": 4868040723,
        "lat": 22.5498214,
        "lon": 88.3560088,
        "tags": {
          "amenity": "fuel",
          "brand": "Bharat Petroleum",
          "brand:wikidata": "Q854826",
          "brand:wikipedia": "en:Bharat Petroleum",
          "check_date": "2023-10-04",
          "name": "Bharat Petroleum",
          "name:en": "Bharat Petroleum"
        }
      },
      {
        "type": "node",
        "id": 4868040823,
        "lat": 22.5513864,
        "lon": 88.3542235,
        "tags": {
          "amenity": "fuel",
          "brand": "Hindustan Petroleum",
          "brand:wikidata": "Q1619375",
          "name": "HP",
          "official_name": "Hindustan Petroleum"
        }
      },
      {
        "type": "node",
        "id": 5271335721,
        "lat": 22.5387245,
        "lon": 88.3655643,
        "tags": {
          "amenity": "cinema",
          "brand": "INOX Leisure",
          "brand:wikidata": "Q5972349",
          "name": "Inox quest cinema",
          "short_name": "INOX"
        }
      },
      {
        "type": "node",
        "id": 6135361871,
        "lat": 22.5478778,
        "lon": 88.3530567,
        "tags": {
          "amenity": "fuel",
          "brand": "Hindustan Petroleum",
          "brand:wikidata": "Q1619375",
          "name": "HP",
          "official_name": "Hindustan Petroleum"
        }
      },
      {
        "type": "node",
        "id": 6135361872,
        "lat": 22.54208,
        "lon": 88.3515791,
        "tags": {
          "amenity": "fuel",
          "brand": "Indian Oil",
          "brand:wikidata": "Q1289348",
          "name": "Indian Oil"
        }
      },
      {
        "type": "node",
        "id": 6135362906,
        "lat": 22.5348072,
        "lon": 88.3620549,
        "tags": {
          "amenity": "fuel",
          "brand": "Indian Oil",
          "brand:wikidata": "Q1289348",
          "name": "Indian Oil"
        }
      },
      {
        "type": "node",
        "id": 6135363494,
        "lat": 22.5407554,
        "lon": 88.3578473,
        "tags": {
          "amenity": "fuel",
          "brand": "Bharat Petroleum",
          "brand:wikidata": "Q854826",
          "name": "Bharat Petroleum"
        }
      },
      {
        "type": "node",
        "id": 6135364027,
        "lat": 22.5438555,
        "lon": 88.3608132,
        "tags": {
          "amenity": "fuel",
          "brand": "Hindustan Petroleum",
          "brand:wikidata": "Q1619375",
          "name": "HP",
          "official_name": "Hindustan Petroleum"
        }
      },
      {
        "type": "node",
        "id": 6141500453,
        "lat": 22.5474462,
        "lon": 88.3516232,
        "tags": {
          "amenity": "theatre",
          "name": "Satyajit Ray Auditorium",
          "name:etymology:wikidata": "Q8873"
        }
      },
      {
        "type": "node",
        "id": 6447832086,
        "lat": 22.546329,
        "lon": 88.3620691,
        "tags": {
          "amenity": "cinema",
          "name:ja": "\u30d1\u30fc\u30af\u30b7\u30e7\u30fc\u30cf\u30a6\u30b9"
        }
      },
      {
        "type": "node",
        "id": 6520727185,
        "lat": 22.5412219,
        "lon": 88.3492589,
        "tags": {
          "amenity": "fuel",
          "name": "India Tradeing Petrol Station"
        }
      },
      {
        "type": "node",
        "id": 7053793926,
        "lat": 22.5538259,
        "lon": 88.3557671,
        "tags": {
          "amenity": "fuel",
          "brand": "Indian Oil",
          "brand:wikidata": "Q1289348",
          "name": "Indian Oil"
        }
      },
      {
        "type": "node",
        "id": 7661285882,
        "lat": 22.5425257,
        "lon": 88.3659741,
        "tags": {
          "name": "Park Circus",
          "public_transport": "stop_position",
          "railway": "tram_stop",
          "tram": "yes"
        }
      },
      {
        "type": "node",
        "id": 9717918117,
        "lat": 22.5408647,
        "lon": 88.3680476,
        "tags": {
          "amenity": "charging_station",
          "name": "Electric vehicle charging station",
          "name:en": "Electric vehicle charging station type2-7kw",
          "opening_hours": "24/7"
        }
      }
    ]
  }
}