{
  "pois_1km": {
    "version": 0.6,
    "generator": "Overpass API 0.7.62.8 e802775f",
    "osm3s": {
      "timestamp_osm_base": "2025-09-06T09:45:45Z",
      "copyright": "The data included in this document is from www.openstreetmap.org. The data is made available under ODbL."
    },
    "elements": [
      {
        "type": "node",
        "id": 4188969790,
        "lat": 22.5789015,
        "lon": 88.3591809,
        "tags": {
          "amenity": "atm"
        }
      },
      {
        "type": "node",
        "id": 4189009589,
        "lat": 22.578908,
        "lon": 88.3591139,
        "tags": {
          "amenity": "bank",
          "brand": "Syndicate Bank",
          "brand:wikidata": "Q2004088",
          "name": "Syndicate Bank",
          "name:en": "Syndicate Bank",
          "website": "https://www.syndicatebank.in",
          "wikimedia_commons": "Category:Syndicate Bank"
        }
      },
      {
        "type": "node",
        "id": 4191051090,
        "lat": 22.5842761,
        "lon": 88.3617951,
        "tags": {
          "addr:street": "Chittaranjan Avenue",
          "amenity": "bank",
          "brand": "Bandhan Bank",
          "brand:wikidata": "Q19882235",
          "brand:wikipedia": "en:Bandhan Bank",
          "name": "Bandhan Bank",
          "name:en": "Bandhan Bank",
          "website": "https://www.bandhanbank.com"
        }
      },
      {
        "type": "node",
        "id": 4227923890,
        "lat": 22.5824518,
        "lon": 88.3533361,
        "tags": {
          "leisure": "playground"
        }
      },
      {
        "type": "node",
        "id": 4571180589,
        "lat": 22.576097,
        "lon": 88.3638913,
        "tags": {
          "addr:housenumber": "15",
          "addr:postcode": "700 073",
          "addr:street": "Bankim Chatterjee Street",
          "amenity": "restaurant",
          "brand": "Indian Coffee House",
          "brand:wikidata": "Q3595301",
          "check_date": "2023-10-24",
          "cuisine": "coffee_shop;indian",
          "internet_access": "no",
          "name": "Indian Coffee House",
          "payment:cards": "no",
          "payment:cash": "yes",
          "payment:credit_cards": "no",
          "payment:debit_cards": "no",
          "wikidata": "Q4711938",
          "wikimedia_commons": "Category:College Street Coffee House",
          "wikipedia": "en:College Street Coffee House"
        }
      },
      {
        "type": "node",
        "id": 7029122186,
        "lat": 22.5819912,
        "lon": 88.3541695,
        "tags": {
          "check_date": "2024-07-15",
          "internet_access": "no",
          "name": "Burrabazar Wholesale Market",
          "payment:cash": "yes",
          "payment:credit_cards": "yes",
          "payment:debit_cards": "yes",
          "shop": "supermarket",
          "wheelchair": "no"
        }
      },
      {
        "type": "node",
        "id": 7030754397,
        "lat": 22.5793315,
        "lon": 88.3589352,
        "tags": {
          "amenity": "restaurant",
          "name": "Shree Ram Dhaba"
        }
      },
      {
        "type": "node",
        "id": 7030789485,
        "lat": 22.5810063,
        "lon": 88.3562311,
        "tags": {
          "amenity": "restaurant",
          "name": "Thakur Mahal"
        }
      },
      {
        "type": "node",
        "id": 7048053724,
        "lat": 22.5919688,
        "lon": 88.3639514,
        "tags": {
          "addr:district": "Kolkata",
          "addr:full": "15/1,Jatindra Mohan Avenue",
          "addr:postcode": "700006",
          "addr:state": "West Bengal",
          "amenity": "clinic",
          "check_date": "2023-10-04",
          "healthcare": "clinic",
          "name": "Recovery Nursing Home Pvt Ltd",
          "source": "OpenGovernmentData"
        }
      },
      {
        "type": "node",
        "id": 7051213366,
        "lat": 22.5835237,
        "lon": 88.3613265,
        "tags": {
          "addr:district": "Kolkata",
          "addr:full": "12, Pratap Ghosh Lane, Jorasanko",
          "addr:postcode": "700007",
          "addr:state": "West Bengal",
          "amenity": "clinic",
          "healthcare": "clinic",
          "name": "Jeevan Jyoti Nursing Home, Kolkata",
          "source": "OpenGovernmentData"
        }
      },
      {
        "type": "node",
        "id": 7051316701,
        "lat": 22.5810552,
        "lon": 88.3656241,
        "tags": {
          "addr:district": "Kolkata",
          "addr:full": "4A, Rajendra Deb Road",
          "addr:postcode": "700007",
          "addr:state": "West Bengal",
          "amenity": "hospital",
          "check_date": "2023-09-30",
          "healthcare": "hospital",
          "name": "Aurobindo Netralaya",
          "source": "OpenGovernmentData",
          "website": "drabhijitghosh.com"
        }
      },
      {
        "type": "node",
        "id": 7065265207,
        "lat": 22.5819362,
        "lon": 88.355944,
        "tags": {
          "addr:district": "Kolkata",
          "addr:full": "35 & 37, Burtolla Street, M G Road",
          "addr:postcode": "700007",
          "addr:state": "West Bengal",
          "amenity": "hospital",
          "check_date": "2023-10-30",
          "healthcare": "hospital",
          "name": "Shree Vishudhanand Hospital and Research Institute",
          "operator:type": "government",
          "phone": "033 40233030",
          "source": "OpenGovernmentData",
          "website": "https://jsdl.in/DT-37BPSIW2"
        }
      },
      {
        "type": "node",
        "id": 7068631608,
        "lat": 22.5866107,
        "lon": 88.3539256,
        "tags": {
          "addr:district": "Kolkata",
          "addr:full": "55, Kalikrishna Tagore Street",
          "addr:postcode": "700007",
          "addr:state": "West Bengal",
          "amenity": "hospital",
          "healthcare": "hospital",
          "name": "Asharam Bhiwaniwala Hospital",
          "source": "OpenGovernmentData"
        }
      },
      {
        "type": "node",
        "id": 7069095510,
        "lat": 22.5837064,
        "lon": 88.3606895,
        "tags": {
          "addr:district": "Howrah",
          "addr:full": "116, Rajballav Saha Lane",
          "addr:postcode": "711101",
          "addr:state": "West Bengal",
          "amenity": "hospital",
          "healthcare": "hospital",
          "name": "Mitra Snagh Hospital",
          "source": "OpenGovernmentData"
        }
      },
      {
        "type": "node",
        "id": 7069095565,
        "lat": 22.5842853,
        "lon": 88.3581018,
        "tags": {
          "addr:district": "Kolkata",
          "addr:full": "228, Rabindra Sarani, Burrabazar",
          "addr:postcode": "700007",
          "addr:state": "West Bengal",
          "amenity": "hospital",
          "healthcare": "hospital",
          "name": "Matri Mangal Pratishthan",
          "source": "OpenGovernmentData"
        }
      },
      {
        "type": "node",
        "id": 7074312657,
        "lat": 22.5827281,
        "lon": 88.3573455,
        "tags": {
          "addr:district": "Kolkata",
          "addr:full": "225/227, Rabindra Sarani",
          "addr:postcode": "700007",
          "addr:state": "West Bengal",
          "amenity": "hospital",
          "check_date": "2023-10-04",
          "healthcare": "hospital",
          "name": "Marwari Relief Society Hospital",
          "source": "OpenGovernmentData"
        }
      },
      {
        "type": "node",
        "id": 10079224417,
        "lat": 22.5887873,
        "lon": 88.3696639,
        "tags": {
          "amenity": "fast_food",
          "diet:non-vegetarian": "yes",
          "name": "Fatso's roll"
        }
      }
    ]
  },
  "pois_2_5km": {
    "version": 0.6,
    "generator": "Overpass API 0.7.62.8 e802775f",
    "osm3s": {
      "timestamp_osm_base": "2025-09-06T09:45:45Z",
      "copyright": "The data included in this document is from www.openstreetmap.org. The data is made available under ODbL."
    },
    "elements": [
      {
        "type": "node",
        "id": 252584722,
        "lat": 22.5679661,
        "lon": 88.3711047,
        "tags": {
          "addr:city": "Kolkata",
          "air_conditioning": "yes",
          "internet_access": "yes",
          "internet_access:fee": "no",
          "is_in": "Kolkata,West Bengal,India",
          "is_in:city": "Kolkata",
          "is_in:country": "India",
          "is_in:country_code": "IN",
          "is_in:state": "West Bengal",
          "name": "Sealdah",
          "name:bn": "\u09b6\u09bf\u09af\u09bc\u09be\u09b2\u09a6\u09b9",
          "name:en": "Sealdah",
          "name:hi": "\u0938\u093f\u092f\u093e\u0932\u0926\u093e\u0939",
          "network": "IR",
          "operator": "ER",
          "owner": "Indian Railways",
          "public_transport": "station",
          "railway": "station",
          "ref": "SDAH",
          "train": "yes",
          "wheelchair": "yes",
          "wikidata": "Q3347406",
          "wikipedia": "en:Sealdah railway station"
        }
      },
      {
        "type": "node",
        "id": 664452984,
        "lat": 22.5841872,
        "lon": 88.3426871,
        "tags": {
          "name": "Howrah Junction",
          "public_transport": "stop_position",
          "railway": "stop",
          "ref": "3",
          "train": "yes"
        }
      },
      {
        "type": "node",
        "id": 664452999,
        "lat": 22.5841473,
        "lon": 88.3426671,
        "tags": {
          "name": "Howrah Junction",
          "public_transport": "stop_position",
          "railway": "stop",
          "ref": "4",
          "train": "yes"
        }
      },
      {
        "type": "node",
        "id": 664453012,
        "lat": 22.5835534,
        "lon": 88.3423147,
        "tags": {
          "name": "Howrah Junction",
          "public_transport": "stop_position",
          "railway": "stop",
          "ref": "9",
          "train": "yes"
        }
      },
      {
        "type": "node",
        "id": 664453205,
        "lat": 22.5817603,
        "lon": 88.3416442,
        "tags": {
          "name": "Howrah Junction",
          "public_transport": "stop_position",
          "railway": "stop",
          "ref": "18",
          "train": "yes"
        }
      },
      {
        "type": "node",
        "id": 1177499034,
        "lat": 22.5975289,
        "lon": 88.3549336,
        "tags": {
          "name": "Sovabazar Ahiritola",
          "network": "IR",
          "operator": "ER",
          "public_transport": "station",
          "railway": "station",
          "ref": "SOLA",
          "wikidata": "Q56277826",
          "wikipedia": "en:Sovabazar Ahiritola railway station"
        }
      },
      {
        "type": "node",
        "id": 1187133847,
        "lat": 22.5754243,
        "lon": 88.3453098,
        "tags": {
          "amenity": "ferry_terminal",
          "ferry": "yes",
          "name": "Fairlie Ghat",
          "operator": "WBTC",
          "public_transport": "station"
        }
      },
      {
        "type": "node",
        "id": 1187133856,
        "lat": 22.5768421,
        "lon": 88.3466282,
        "tags": {
          "name": "BBD Bagh",
          "network": "IR",
          "operator": "ER",
          "public_transport": "station",
          "railway": "station",
          "ref": "BBDB",
          "wikidata": "Q25549498"
        }
      },
      {
        "type": "node",
        "id": 1188948187,
        "lat": 22.5811689,
        "lon": 88.3618766,
        "tags": {
          "amenity": "cinema",
          "check_date": "2023-10-04",
          "name": "Mahajati Sadan Auditorium"
        }
      },
      {
        "type": "node",
        "id": 1189036756,
        "lat": 22.5825193,
        "lon": 88.3481814,
        "tags": {
          "amenity": "ferry_terminal",
          "check_date": "2024-07-15",
          "ferry": "yes",
          "name": "Armenian Ghat",
          "operator": "West Bengal Surface Transport Corporation",
          "public_transport": "station"
        }
      },
      {
        "type": "node",
        "id": 1189457648,
        "lat": 22.5963972,
        "lon": 88.3532985,
        "tags": {
          "amenity": "ferry_terminal",
          "ferry": "yes",
          "name": "Ahiritola Ghat",
          "public_transport": "station",
          "wikidata": "Q7984450",
          "wikipedia": "en:West Bengal Transport Corporation"
        }
      },
      {
        "type": "node",
        "id": 1189457732,
        "lat": 22.5984575,
        "lon": 88.3555843,
        "tags": {
          "amenity": "ferry_terminal",
          "ferry": "yes",
          "name": "Beniatola Ghat",
          "public_transport": "station",
          "wikidata": "Q7984450",
          "wikipedia": "en:West Bengal Transport Corporation"
        }
      },
      {
        "type": "node",
        "id": 1189457743,
        "lat": 22.5935544,
        "lon": 88.3517106,
        "tags": {
          "amenity": "ferry_terminal",
          "ferry": "yes",
          "name": "Nimtala Ghat",
          "public_transport": "station"
        }
      },
      {
        "type": "node",
        "id": 1189457787,
        "lat": 22.5877596,
        "lon": 88.3497472,
        "tags": {
          "amenity": "ferry_terminal",
          "ferry": "yes",
          "name": "Jagannath Ghat",
          "name:zh": "\u8d3e\u7518\u52a0\u7279\u8f6e\u6e21\u7ad9",
          "public_transport": "station"
        }
      },
      {
        "type": "node",
        "id": 1189457885,
        "lat": 22.5992994,
        "lon": 88.356603,
        "tags": {
          "amenity": "ferry_terminal",
          "ferry": "yes",
          "name": "Shobha Bazar Ghat",
          "public_transport": "station",
          "wikidata": "Q7984450",
          "wikipedia": "en:West Bengal Transport Corporation"
        }
      },
      {
        "type": "node",
        "id": 1208567385,
        "lat": 22.6039481,
        "lon": 88.3636969,
        "tags": {
          "amenity": "ferry_terminal",
          "ferry": "yes",
          "name": "Batala Ghat",
          "public_transport": "station"
        }
      },
      {
        "type": "node",
        "id": 1208567622,
        "lat": 22.6045143,
        "lon": 88.3639385,
        "tags": {
          "amenity": "ferry_terminal",
          "ferry": "yes",
          "name": "Bagbazar Launch Ghat",
          "operator": "WBTC",
          "public_transport": "station"
        }
      },
      {
        "type": "node",
        "id": 1210706867,
        "lat": 22.5999666,
        "lon": 88.3729349,
        "tags": {
          "name": "Shyambazar",
          "network": "WBTC",
          "network:wikidata": "Q7984450",
          "operator": "Calcutta Tramways Company",
          "public_transport": "stop_position",
          "railway": "tram_stop",
          "tram": "yes"
        }
      },
      {
        "type": "node",
        "id": 2133670739,
        "lat": 22.5742428,
        "lon": 88.3734415,
        "tags": {
          "name": "Rajabazar",
          "network": "WBTC",
          "network:wikidata": "Q7984450",
          "operator": "Calcutta Tramways Company",
          "public_transport": "stop_position",
          "railway": "tram_stop",
          "tram": "yes"
        }
      },
      {
        "type": "node",
        "id": 2266850249,
        "lat": 22.5648757,
        "lon": 88.3682593,
        "tags": {
          "amenity": "cinema",
          "name": "Prachi Cinema Hall"
        }
      },
      {
        "type": "node",
        "id": 2281800830,
        "lat": 22.6000785,
        "lon": 88.3729404,
        "tags": {
          "name": "Shyambazar (northbound)",
          "network": "WBTC",
          "network:wikidata": "Q7984450",
          "operator": "Calcutta Tramways Company",
          "public_transport": "stop_position",
          "railway": "tram_stop",
          "tram": "yes"
        }
      },
      {
        "type": "node",
        "id": 2281953574,
        "lat": 22.5823221,
        "lon": 88.3496156,
        "tags": {
          "name": "Howrah Bridge",
          "network": "WBTC",
          "network:wikidata": "Q7984450",
          "operator": "Calcutta Tramways Company",
          "public_transport": "stop_position",
          "railway": "tram_stop",
          "tram": "yes",
          "wheelchair": "yes"
        }
      },
      {
        "type": "node",
        "id": 2339659231,
        "lat": 22.5843833,
        "lon": 88.3426805,
        "tags": {
          "name": "Howrah Junction",
          "public_transport": "stop_position",
          "railway": "stop",
          "ref": "1",
          "train": "yes"
        }
      },
      {
        "type": "node",
        "id": 2703677642,
        "lat": 22.5653921,
        "lon": 88.350601,
        "tags": {
          "name": "Esplanade",
          "public_transport": "station",
          "tram": "yes"
        }
      },
      {
        "type": "node",
        "id": 2703679634,
        "lat": 22.5772917,
        "lon": 88.3641755,
        "tags": {
          "name": "College Street",
          "public_transport": "stop_position",
          "railway": "tram_stop",
          "tram": "yes"
        }
      },
      {
        "type": "node",
        "id": 2703686173,
        "lat": 22.5695913,
        "lon": 88.3607631,
        "tags": {
          "name": "College Street / Bepin Behari Ganguly Street",
          "public_transport": "stop_position",
          "railway": "tram_stop",
          "tram": "yes"
        }
      },
      {
        "type": "node",
        "id": 2703686631,
        "lat": 22.5630392,
        "lon": 88.3585179,
        "tags": {
          "name": "Lenin Sarani/Nirmal Chandra Dev Street",
          "public_transport": "stop_position",
          "railway": "tram_stop",
          "tram": "yes"
        }
      },
      {
        "type": "node",
        "id": 2703690674,
        "lat": 22.5664558,
        "lon": 88.3598884,
        "tags": {
          "name": "Nirmal Chandra Dev Street",
          "public_transport": "stop_position",
          "railway": "tram_stop",
          "tram": "yes"
        }
      },
      {
        "type": "node",
        "id": 2705148446,
        "lat": 22.6045435,
        "lon": 88.3651915,
        "tags": {
          "name": "Bag Bazar",
          "public_transport": "stop_position",
          "railway": "tram_stop",
          "tram": "yes"
        }
      },
      {
        "type": "node",
        "id": 2705148453,
        "lat": 22.5914506,
        "lon": 88.3598827,
        "tags": {
          "name": "Rabindra Sarani/Nimtala Ghat",
          "public_transport": "stop_position",
          "railway": "tram_stop",
          "tram": "yes"
        }
      },
      {
        "type": "node",
        "id": 2705148457,
        "lat": 22.5967318,
        "lon": 88.3622799,
        "tags": {
          "name": "Sobha Bazar",
          "public_transport": "stop_position",
          "railway": "tram_stop",
          "tram": "yes"
        }
      },
      {
        "type": "node",
        "id": 2720312081,
        "lat": 22.5728444,
        "lon": 88.3670158,
        "tags": {
          "name": "Surya Sen St / Amhurst St /  Raja Ramohan Sarani St",
          "public_transport": "stop_position",
          "railway": "tram_stop",
          "tram": "yes"
        }
      },
      {
        "type": "node",
        "id": 2720315284,
        "lat": 22.5646322,
        "lon": 88.3685259,
        "tags": {
          "name": "Acharya Jagadish Chandra  Bose Rd / Sealdah",
          "public_transport": "stop_position",
          "railway": "tram_stop",
          "tram": "yes"
        }
      },
      {
        "type": "node",
        "id": 2720336779,
        "lat": 22.5681951,
        "lon": 88.3649273,
        "tags": {
          "name": "Bepin Baru Ganguly St / Amhurst St",
          "public_transport": "stop_position",
          "railway": "tram_stop",
          "tram": "yes"
        }
      },
      {
        "type": "node",
        "id": 2720337270,
        "lat": 22.5614921,
        "lon": 88.3672021,
        "tags": {
          "name": "Acharya Prafulla Chandra Road / Lenin Sarani",
          "public_transport": "stop_position",
          "railway": "tram_stop",
          "tram": "yes"
        }
      },
      {
        "type": "node",
        "id": 2720342347,
        "lat": 22.5727779,
        "lon": 88.3716794,
        "tags": {
          "name": "Raja Bazar",
          "public_transport": "stop_position",
          "railway": "tram_stop",
          "tram": "yes"
        }
      },
      {
        "type": "node",
        "id": 2723392043,
        "lat": 22.5946335,
        "lon": 88.370888,
        "tags": {
          "name": "Bidhan Sarani / Sri Aurobindo Sarani",
          "public_transport": "stop_position",
          "railway": "tram_stop",
          "tram": "yes"
        }
      },
      {
        "type": "node",
        "id": 2723410806,
        "lat": 22.5940555,
        "lon": 88.3754301,
        "tags": {
          "name": "Acharya Jagadish Chandra Bose Road / Sri Aurobindo Sarani",
          "network": "WBTC",
          "network:wikidata": "Q7984450",
          "operator": "WBTC",
          "public_transport": "stop_position",
          "railway": "tram_stop",
          "tram": "yes"
        }
      },
      {
        "type": "node",
        "id": 3321321335,
        "lat": 22.5828709,
        "lon": 88.3428112,
        "tags": {
          "IR:div": "HWH",
          "IR:stn_cat": "NSG-1",
          "IR:zone": "ER",
          "name": "Howrah Junction",
          "name:ja": "\u30cf\u30a6\u30e9\u30fc",
          "name:zh": "\u8c6a\u62c9\u706b\u8f66\u7ad9",
          "network": "IR",
          "operator": "ER",
          "public_transport": "station",
          "railway": "station",
          "ref": "HWH",
          "train": "yes",
          "wheelchair": "yes",
          "wikidata": "Q986105",
          "wikipedia": "en:Howrah Junction railway station"
        }
      },
      {
        "type": "node",
        "id": 3406728167,
        "lat": 22.5940585,
        "lon": 88.3709783,
        "tags": {
          "amenity": "cinema",
          "check_date": "2023-10-30",
          "internet_access": "no",
          "name": "Star Theatre",
          "opening_hours": "11:00-22:00",
          "payment:mastercard": "yes",
          "payment:visa": "yes",
          "phone": "03365251444",
          "screen": "1",
          "website": "https://g.co/kgs/g663jR",
          "wikidata": "Q7600935",
          "wikimedia_commons": "Category:Star Theatre, Kolkata",
          "wikipedia": "en:Star Theatre, Kolkata"
        }
      },
      {
        "type": "node",
        "id": 4178731066,
        "lat": 22.5715987,
        "lon": 88.3502602,
        "tags": {
          "amenity": "bus_station",
          "bus": "yes",
          "name": "B.B.D. Bag",
          "public_transport": "station"
        }
      },
      {
        "type": "node",
        "id": 4178789864,
        "lat": 22.5861787,
        "lon": 88.3429845,
        "tags": {
          "amenity": "bus_station",
          "bus": "yes",
          "check_date": "2024-07-15",
          "name": "Howrah Bus Station",
          "public_transport": "station"
        }
      },
      {
        "type": "node",
        "id": 4178800814,
        "lat": 22.564821,
        "lon": 88.3514471,
        "tags": {
          "amenity": "bus_station",
          "bus": "yes",
          "name": "Esplanade",
          "public_transport": "station"
        }
      },
      {
        "type": "node",
        "id": 4368104697,
        "lat": 22.566769,
        "lon": 88.351883,
        "tags": {
          "amenity": "cinema",
          "name": "Paradise Cinema",
          "source": "survey",
          "wikidata": "Q7134255",
          "wikipedia": "en:Paradise Cinema (Kolkata)"
        }
      },
      {
        "type": "node",
        "id": 4891338224,
        "lat": 22.5612312,
        "lon": 88.3588968,
        "tags": {
          "amenity": "fuel",
          "brand": "Bharat Petroleum",
          "brand:wikidata": "Q854826",
          "name": "Bharat Petroleum",
          "name:en": "Bharat Petroleum"
        }
      },
      {
        "type": "node",
        "id": 5421528426,
        "lat": 22.5724857,
        "lon": 88.3587427,
        "tags": {
          "name": "Central",
          "name:bn": "\u09b8\u09c7\u09a8\u09cd\u099f\u09cd\u09b0\u09be\u09b2",
          "network": "Kolkata Metro",
          "network:wikidata": "Q1048849",
          "operator": "Metro Railway, Kolkata",
          "public_transport": "station",
          "railway": "station",
          "station": "subway",
          "subway": "yes",
          "wikidata": "Q5061425",
          "wikipedia": "en:Central metro station (Kolkata)"
        }
      },
      {
        "type": "node",
        "id": 5421543316,
        "lat": 22.5670118,
        "lon": 88.3541581,
        "tags": {
          "name": "Chandni Chowk",
          "name:bn": "\u099a\u09be\u0981\u09a6\u09a8\u09bf \u099a\u0995",
          "network": "Kolkata Metro",
          "operator": "Metro Railway, Kolkata",
          "public_transport": "station",
          "railway": "station",
          "station": "subway",
          "subway": "yes",
          "wikidata": "Q5071229",
          "wikipedia": "en:Chandni Chowk metro station (Kolkata)"
        }
      },
      {
        "type": "node",
        "id": 5421545051,
        "lat": 22.5636143,
        "lon": 88.3512099,
        "tags": {
          "name": "Esplanade (Line 1)",
          "name:bn": "\u098f\u09b8\u09aa\u09cd\u09b2\u09cd\u09af\u09be\u09a8\u09c7\u09a1",
          "network": "Kolkata Metro",
          "network:wikidata": "Q1048849",
          "operator": "Metro Railway, Kolkata",
          "public_transport": "station",
          "railway": "station",
          "station": "subway",
          "subway": "yes",
          "wikidata": "Q5399030",
          "wikipedia": "en:Esplanade metro station"
        }
      },
      {
        "type": "node",
        "id": 5421545390,
        "lat": 22.5809206,
        "lon": 88.3613271,
        "tags": {
          "name": "Mahatma Gandhi Road",
          "name:bn": "\u09ae\u09b9\u09be\u09a4\u09cd\u09ae\u09be \u0997\u09be\u09a8\u09cd\u09a7\u09c0 \u09b0\u09cb\u09a1",
          "network": "Kolkata Metro",
          "network:wikidata": "Q1048849",
          "operator": "Metro Railway, Kolkata",
          "public_transport": "station",
          "railway": "station",
          "station": "subway",
          "subway": "yes",
          "wikidata": "Q6733523",
          "wikipedia": "en:Mahatma Gandhi Road metro station (Kolkata)"
        }
      },
      {
        "type": "node",
        "id": 5421546475,
        "lat": 22.5871445,
        "lon": 88.3629415,
        "tags": {
          "name": "Girish Park",
          "name:bn": "\u0997\u09bf\u09b0\u09bf\u09b6 \u09aa\u09be\u09b0\u09cd\u0995",
          "network": "Kolkata Metro",
          "network:wikidata": "Q1048849",
          "operator": "Metro Railway, Kolkata",
          "public_transport": "station",
          "railway": "station",
          "station": "subway",
          "subway": "yes",
          "wikidata": "Q5564298",
          "wikipedia": "en:Girish Park metro station"
        }
      },
      {
        "type": "node",
        "id": 5421546940,
        "lat": 22.595881,
        "lon": 88.3651996,
        "tags": {
          "name": "Shobhabazar Sutanuti",
          "name:bn": "\u09b6\u09cb\u09ad\u09be\u09ac\u09be\u099c\u09be\u09b0 \u09b8\u09c1\u09a4\u09be\u09a8\u09c1\u099f\u09bf",
          "network": "Kolkata Metro",
          "network:wikidata": "Q1048849",
          "operator": "Metro Railway, Kolkata",
          "public_transport": "station",
          "railway": "station",
          "station": "subway",
          "subway": "yes",
          "wikidata": "Q7499796",
          "wikipedia": "en:Sovabazar Sutanuti metro station"
        }
      },
      {
        "type": "node",
        "id": 5421546974,
        "lat": 22.601335,
        "lon": 88.3724974,
        "tags": {
          "name": "Shyambazar",
          "name:bn": "\u09b6\u09cd\u09af\u09be\u09ae\u09ac\u09be\u099c\u09be\u09b0",
          "network": "Kolkata Metro",
          "network:wikidata": "Q1048849",
          "operator": "Metro Railway, Kolkata",
          "public_transport": "station",
          "railway": "station",
          "station": "subway",
          "subway": "yes",
          "wikidata": "Q7505976",
          "wikipedia": "en:Shyambazar metro station"
        }
      },
      {
        "type": "node",
        "id": 5587888046,
        "lat": 22.5656628,
        "lon": 88.3723915,
        "tags": {
          "addr:city": "Kolkata",
          "air_conditioning": "yes",
          "internet_access": "yes",
          "internet_access:fee": "no",
          "name": "Sealdah",
          "name:bn": "\u09b6\u09bf\u09af\u09bc\u09be\u09b2\u09a6\u09b9",
          "network": "IR",
          "operator": "ER",
          "public_transport": "station",
          "railway": "station",
          "ref": "SDAH",
          "train": "yes",
          "wheelchair": "yes",
          "wikidata": "Q3347406",
          "wikipedia": "en:Sealdah railway station"
        }
      },
      {
        "type": "node",
        "id": 5647099123,
        "lat": 22.5822232,
        "lon": 88.3431478,
        "tags": {
          "addr:housenumber": "1G6",
          "amenity": "bus_station",
          "bus": "yes",
          "highway": "bus_stop",
          "internet_access": "wlan",
          "operator": "NBS",
          "public_transport": "station"
        }
      },
      {
        "type": "node",
        "id": 5777572592,
        "lat": 22.5670985,
        "lon": 88.3543062,
        "tags": {
          "name": "Chandni Chowk",
          "name:bn": "\u099a\u09be\u0981\u09a6\u09a8\u09bf \u099a\u0995",
          "network": "Kolkata Metro",
          "operator": "Metro Railway, Kolkata",
          "public_transport": "stop_position",
          "railway": "stop",
          "subway": "yes"
        }
      },
      {
        "type": "node",
        "id": 5833876807,
        "lat": 22.5843515,
        "lon": 88.3426684,
        "tags": {
          "name": "Howrah Junction",
          "public_transport": "stop_position",
          "railway": "stop",
          "ref": "2",
          "train": "yes"
        }
      },
      {
        "type": "node",
        "id": 6143232250,
        "lat": 22.5652459,
        "lon": 88.3499944,
        "tags": {
          "amenity": "bus_station",
          "bus": "yes",
          "name": "Esplanade",
          "public_transport": "station",
          "tram": "yes"
        }
      },
      {
        "type": "node",
        "id": 6173584907,
        "lat": 22.5727063,
        "lon": 88.3437487,
        "tags": {
          "amenity": "ferry_terminal",
          "ferry": "yes",
          "operator": "WBTC",
          "public_transport": "station"
        }
      },
      {
        "type": "node",
        "id": 6173584909,
        "lat": 22.5762291,
        "lon": 88.3455547,
        "tags": {
          "amenity": "ferry_terminal",
          "ferry": "yes",
          "name": "Fairlie Ghat",
          "operator": "WBTC",
          "public_transport": "station"
        }
      },
      {
        "type": "node",
        "id": 6173584910,
        "lat": 22.5820164,
        "lon": 88.3438661,
        "tags": {
          "amenity": "ferry_terminal",
          "cargo": "passengers",
          "ferry": "yes",
          "name": "Howrah Ghat",
          "operator": "WBTC",
          "public_transport": "station"
        }
      },
      {
        "type": "node",
        "id": 6173584911,
        "lat": 22.5822063,
        "lon": 88.3439452,
        "tags": {
          "amenity": "ferry_terminal",
          "cargo": "passengers",
          "ferry": "yes",
          "name": "Howrah Ghat",
          "operator": "WBTC",
          "public_transport": "station"
        }
      },
      {
        "type": "node",
        "id": 6173584914,
        "lat": 22.5828373,
        "lon": 88.3442094,
        "tags": {
          "amenity": "ferry_terminal",
          "cargo": "passengers",
          "ferry": "yes",
          "name": "Howrah Ghat",
          "operator": "WBTC",
          "public_transport": "station"
        }
      },
      {
        "type": "node",
        "id": 6173584920,
        "lat": 22.5804819,
        "lon": 88.3470525,
        "tags": {
          "amenity": "ferry_terminal",
          "ferry": "yes",
          "public_transport": "station"
        }
      },
      {
        "type": "node",
        "id": 7577528772,
        "lat": 22.5811474,
        "lon": 88.3414322,
        "tags": {
          "name": "Howrah Junction",
          "public_transport": "stop_position",
          "railway": "stop",
          "ref": "23",
          "train": "yes"
        }
      },
      {
        "type": "node",
        "id": 7577528773,
        "lat": 22.5811797,
        "lon": 88.3414477,
        "tags": {
          "name": "Howrah Junction",
          "public_transport": "stop_position",
          "railway": "stop",
          "ref": "22",
          "train": "yes"
        }
      },
      {
        "type": "node",
        "id": 7577528775,
        "lat": 22.5817285,
        "lon": 88.3416295,
        "tags": {
          "name": "Howrah Junction",
          "public_transport": "stop_position",
          "railway": "stop",
          "ref": "19",
          "train": "yes"
        }
      },
      {
        "type": "node",
        "id": 7577528776,
        "lat": 22.5815837,
        "lon": 88.3415578,
        "tags": {
          "name": "Howrah Junction",
          "public_transport": "stop_position",
          "railway": "stop",
          "ref": "20",
          "train": "yes"
        }
      },
      {
        "type": "node",
        "id": 7577528777,
        "lat": 22.5815479,
        "lon": 88.3415432,
        "tags": {
          "name": "Howrah Junction",
          "public_transport": "stop_position",
          "railway": "stop",
          "ref": "21",
          "train": "yes"
        }
      },
      {
        "type": "node",
        "id": 7577528778,
        "lat": 22.5818725,
        "lon": 88.3417632,
        "tags": {
          "name": "Howrah Junction",
          "public_transport": "stop_position",
          "railway": "stop",
          "ref": "17",
          "train": "yes"
        }
      },
      {
        "type": "node",
        "id": 7577550190,
        "lat": 22.5842593,
        "lon": 88.3392737,
        "tags": {
          "name": "Howrah Junction",
          "public_transport": "stop_position",
          "railway": "stop",
          "ref": "15",
          "train": "yes"
        }
      },
      {
        "type": "node",
        "id": 7577550192,
        "lat": 22.5833527,
        "lon": 88.3415765,
        "tags": {
          "name": "Howrah Junction",
          "public_transport": "stop_position",
          "railway": "stop",
          "ref": "14",
          "train": "yes"
        }
      },
      {
        "type": "node",
        "id": 7577550193,
        "lat": 22.5833822,
        "lon": 88.3415917,
        "tags": {
          "name": "Howrah Junction",
          "public_transport": "stop_position",
          "railway": "stop",
          "ref": "13",
          "train": "yes"
        }
      },
      {
        "type": "node",
        "id": 7577550194,
        "lat": 22.5832643,
        "lon": 88.3421748,
        "tags": {
          "name": "Howrah Junction",
          "public_transport": "stop_position",
          "railway": "stop",
          "ref": "12",
          "train": "yes"
        }
      },
      {
        "type": "node",
        "id": 7577550195,
        "lat": 22.5833448,
        "lon": 88.3422097,
        "tags": {
          "name": "Howrah Junction",
          "public_transport": "stop_position",
          "railway": "stop",
          "ref": "11",
          "train": "yes"
        }
      },
      {
        "type": "node",
        "id": 7577550196,
        "lat": 22.5834815,
        "lon": 88.3422771,
        "tags": {
          "name": "Howrah Junction",
          "public_transport": "stop_position",
          "railway": "stop",
          "ref": "10",
          "train": "yes"
        }
      },
      {
        "type": "node",
        "id": 7577550198,
        "lat": 22.5838289,
        "lon": 88.3424483,
        "tags": {
          "name": "Howrah Junction",
          "public_transport": "stop_position",
          "railway": "stop",
          "ref": "8",
          "train": "yes"
        }
      },
      {
        "type": "node",
        "id": 7577550199,
        "lat": 22.5838672,
        "lon": 88.3424652,
        "tags": {
          "name": "Howrah Junction",
          "public_transport": "stop_position",
          "railway": "stop",
          "ref": "7",
          "train": "yes"
        }
      },
      {
        "type": "node",
        "id": 7577550200,
        "lat": 22.5839673,
        "lon": 88.3425854,
        "tags": {
          "name": "Howrah Junction",
          "public_transport": "stop_position",
          "railway": "stop",
          "ref": "6",
          "train": "yes"
        }
      },
      {
        "type": "node",
        "id": 7577550201,
        "lat": 22.5840057,
        "lon": 88.3426029,
        "tags": {
          "name": "Howrah Junction",
          "public_transport": "stop_position",
          "railway": "stop",
          "ref": "5",
          "train": "yes"
        }
      },
      {
        "type": "node",
        "id": 7717075782,
        "lat": 22.568471,
        "lon": 88.3711092,
        "tags": {
          "name": "Sealdah",
          "name:bn": "\u09b6\u09bf\u09af\u09bc\u09be\u09b2\u09a6\u09b9",
          "name:en": "Sealdah",
          "name:hi": "\u0938\u093f\u092f\u093e\u0932\u0926\u093e\u0939",
          "network": "Indian Railways",
          "operator": "Eastern Railway",
          "public_transport": "stop_position",
          "railway": "stop",
          "ref": "4",
          "train": "yes"
        }
      },
      {
        "type": "node",
        "id": 7717075783,
        "lat": 22.5685717,
        "lon": 88.3710455,
        "tags": {
          "name": "Sealdah",
          "name:bn": "\u09b6\u09bf\u09af\u09bc\u09be\u09b2\u09a6\u09b9",
          "name:en": "Sealdah",
          "name:hi": "\u0938\u093f\u092f\u093e\u0932\u0926\u093e\u0939",
          "network": "Indian Railways",
          "operator": "Eastern Railway",
          "public_transport": "stop_position",
          "railway": "stop",
          "ref": "3",
          "train": "yes"
        }
      },
      {
        "type": "node",
        "id": 7717075784,
        "lat": 22.5686071,
        "lon": 88.3710221,
        "tags": {
          "name": "Sealdah",
          "name:bn": "\u09b6\u09bf\u09af\u09bc\u09be\u09b2\u09a6\u09b9",
          "name:en": "Sealdah",
          "name:hi": "\u0938\u093f\u092f\u093e\u0932\u0926\u093e\u0939",
          "network": "Indian Railways",
          "operator": "Eastern Railway",
          "public_transport": "stop_position",
          "railway": "stop",
          "ref": "2",
          "train": "yes"
        }
      },
      {
        "type": "node",
        "id": 7717085985,
        "lat": 22.5687168,
        "lon": 88.3709768,
        "tags": {
          "name": "Sealdah",
          "name:bn": "\u09b6\u09bf\u09af\u09bc\u09be\u09b2\u09a6\u09b9",
          "name:en": "Sealdah",
          "name:hi": "\u0938\u093f\u092f\u093e\u0932\u0926\u093e\u0939",
          "network": "Indian Railways",
          "operator": "Eastern Railway",
          "public_transport": "stop_position",
          "railway": "stop",
          "ref": "1",
          "train": "yes"
        }
      },
      {
        "type": "node",
        "id": 8185335387,
        "lat": 22.593263,
        "lon": 88.3702174,
        "tags": {
          "amenity": "fuel",
          "name": "Rikita"
        }
      },
      {
        "type": "node",
        "id": 8508732200,
        "lat": 22.5813946,
        "lon": 88.3528436,
        "tags": {
          "name": "Barabazar",
          "public_transport": "stop_position",
          "railway": "tram_stop",
          "tram": "yes"
        }
      },
      {
        "type": "node",
        "id": 9001302716,
        "lat": 22.590157,
        "lon": 88.3511761,
        "tags": {
          "name": "Barra Bazar",
          "network": "IR",
          "operator": "ER",
          "public_transport": "station",
          "railway": "station",
          "ref": "BZB",
          "wikidata": "Q25549503"
        }
      },
      {
        "type": "node",
        "id": 9042459621,
        "lat": 22.600134,
        "lon": 88.3725861,
        "tags": {
          "name": "Shyambazar tram depot",
          "operator": "WBTC",
          "public_transport": "station",
          "tram": "yes"
        }
      },
      {
        "type": "node",
        "id": 9057837717,
        "lat": 22.5649106,
        "lon": 88.3590689,
        "tags": {
          "addr:city": "KOLKATA",
          "addr:housenumber": "76",
          "addr:postcode": "700013",
          "addr:street": "Ganesh Chandra Road",
          "amenity": "cinema",
          "name": "HIND INOX",
          "opening_hours": "Mo-Su 10:00-22:00",
          "payment:cash": "yes",
          "payment:credit_cards": "yes",
          "payment:debit_cards": "yes",
          "payment:discover_card": "yes",
          "payment:maestro": "yes",
          "payment:mastercard": "yes",
          "payment:notes": "yes",
          "payment:visa": "yes",
          "payment:visa_debit": "yes",
          "screen": "2"
        }
      },
      {
        "type": "node",
        "id": 9717920317,
        "lat": 22.5665448,
        "lon": 88.3521064,
        "tags": {
          "addr:housenumber": "1",
          "addr:postcode": "700072",
          "addr:street": "Chittaranjan Avenue",
          "amenity": "charging_station",
          "name": "Electric vehicle chargeing station"
        }
      },
      {
        "type": "node",
        "id": 9717925317,
        "lat": 22.5813902,
        "lon": 88.3421409,
        "tags": {
          "amenity": "charging_station",
          "name": "Electric vehicle charging station",
          "opening_hours": "24/7"
        }
      },
      {
        "type": "node",
        "id": 9884790401,
        "lat": 22.5666059,
        "lon": 88.3697815,
        "tags": {
          "name": "Sealdah",
          "name:bn": "\u09b6\u09bf\u09af\u09bc\u09be\u09b2\u09a6\u09b9 \u09ae\u09c7\u099f\u09cd\u09b0\u09cb \u09b8\u09cd\u099f\u09c7\u09b6\u09a8",
          "network": "Kolkata Metro",
          "network:wikidata": "Q1048849",
          "public_transport": "station",
          "railway": "station",
          "ref": "SDHM",
          "station": "subway",
          "subway": "yes",
          "wikidata": "Q30278708",
          "wikipedia": "en:Sealdah metro station"
        }
      },
      {
        "type": "node",
        "id": 9884790402,
        "lat": 22.5664154,
        "lon": 88.3700235,
        "tags": {
          "name": "Sealdah",
          "network": "Kolkata Metro",
          "public_transport": "stop_position",
          "railway": "stop",
          "subway": "yes"
        }
      },
      {
        "type": "node",
        "id": 9884790403,
        "lat": 22.5664743,
        "lon": 88.3700496,
        "tags": {
          "name": "Sealdah",
          "network": "Kolkata Metro",
          "public_transport": "stop_position",
          "railway": "stop",
          "subway": "yes"
        }
      },
      {
        "type": "node",
        "id": 11533663305,
        "lat": 22.5813727,
        "lon": 88.3528379,
        "tags": {
          "name": "Barabazar",
          "public_transport": "stop_position",
          "railway": "tram_stop",
          "tram": "yes"
        }
      },
      {
        "type": "node",
        "id": 11699262522,
        "lat": 22.5833117,
        "lon": 88.3401416,
        "tags": {
          "name": "Howrah",
          "name:bn": "\u09b9\u09be\u0993\u09a1\u09bc\u09be",
          "public_transport": "stop_position",
          "railway": "stop",
          "subway": "yes"
        }
      },
      {
        "type": "node",
        "id": 11699262523,
        "lat": 22.5833721,
        "lon": 88.340164,
        "tags": {
          "name": "Howrah",
          "name:bn": "\u09b9\u09be\u0993\u09a1\u09bc\u09be",
          "public_transport": "stop_position",
          "railway": "stop",
          "subway": "yes"
        }
      },
      {
        "type": "node",
        "id": 11699262526,
        "lat": 22.5720649,
        "lon": 88.3504831,
        "tags": {
          "alt_name": "New Mahakaran",
          "name": "Mahakaran",
          "name:bn": "\u09ae\u09b9\u09be\u0995\u09b0\u09a3",
          "public_transport": "stop_position",
          "railway": "stop",
          "subway": "yes"
        }
      },
      {
        "type": "node",
        "id": 11699262527,
        "lat": 22.5720495,
        "lon": 88.3505501,
        "tags": {
          "alt_name": "New Mahakaran",
          "name": "Mahakaran",
          "name:bn": "\u09ae\u09b9\u09be\u0995\u09b0\u09a3",
          "public_transport": "stop_position",
          "railway": "stop",
          "subway": "yes"
        }
      },
      {
        "type": "node",
        "id": 11699268219,
        "lat": 22.5641328,
        "lon": 88.3502238,
        "tags": {
          "name": "Esplanade (Line 2)",
          "name:bn": "\u098f\u09b8\u09aa\u09cd\u09b2\u09cd\u09af\u09be\u09a8\u09c7\u09a1",
          "public_transport": "stop_position",
          "railway": "stop",
          "subway": "yes"
        }
      },
      {
        "type": "node",
        "id": 11699268220,
        "lat": 22.5641817,
        "lon": 88.3502681,
        "tags": {
          "name": "Esplanade (Line 2)",
          "name:bn": "\u098f\u09b8\u09aa\u09cd\u09b2\u09cd\u09af\u09be\u09a8\u09c7\u09a1",
          "public_transport": "stop_position",
          "railway": "stop",
          "subway": "yes"
        }
      },
      {
        "type": "node",
        "id": 11699268221,
        "lat": 22.5636505,
        "lon": 88.351106,
        "tags": {
          "name": "Esplanade (Line 1)",
          "name:bn": "\u098f\u09b8\u09aa\u09cd\u09b2\u09cd\u09af\u09be\u09a8\u09c7\u09a1",
          "network": "Kolkata Metro",
          "operator": "Metro Railway, Kolkata",
          "public_transport": "stop_position",
          "railway": "stop",
          "subway": "yes"
        }
      },
      {
        "type": "node",
        "id": 11699268222,
        "lat": 22.5636389,
        "lon": 88.3511709,
        "tags": {
          "name": "Esplanade (Line 1)",
          "name:bn": "\u098f\u09b8\u09aa\u09cd\u09b2\u09cd\u09af\u09be\u09a8\u09c7\u09a1",
          "network": "Kolkata Metro",
          "operator": "Metro Railway, Kolkata",
          "public_transport": "stop_position",
          "railway": "stop",
          "subway": "yes"
        }
      },
      {
        "type": "node",
        "id": 11699268223,
        "lat": 22.5720777,
        "lon": 88.3505275,
        "tags": {
          "alt_name": "New Mahakaran",
          "name": "Mahakaran",
          "name:bn": "\u09ae\u09b9\u09be\u0995\u09b0\u09a3",
          "network": "Kolkata Metro",
          "network:wikidata": "Q1048849",
          "operator": "Metro Railway, Kolkata",
          "public_transport": "station",
          "railway": "station",
          "ref": "MKNA",
          "station": "subway",
          "subway": "yes",
          "wikidata": "Q30632550",
          "wikipedia": "bn:\u09ae\u09b9\u09be\u0995\u09b0\u09a3 \u09ae\u09c7\u099f\u09cd\u09b0\u09cb \u09b8\u09cd\u099f\u09c7\u09b6\u09a8"
        }
      },
      {
        "type": "node",
        "id": 11699268224,
        "lat": 22.5833648,
        "lon": 88.3403452,
        "tags": {
          "name": "Howrah",
          "name:bn": "\u09b9\u09be\u0993\u09a1\u09bc\u09be",
          "network": "Kolkata Metro",
          "network:wikidata": "Q1048849",
          "operator": "Metro Railway, Kolkata",
          "public_transport": "station",
          "railway": "station",
          "ref": "HWHM",
          "station": "subway",
          "subway": "yes",
          "wikidata": "Q30632554",
          "wikipedia": "bn:\u09b9\u09be\u0993\u09a1\u09bc\u09be \u09ae\u09c7\u099f\u09cd\u09b0\u09cb \u09b8\u09cd\u099f\u09c7\u09b6\u09a8"
        }
      },
      {
        "type": "node",
        "id": 11703282685,
        "lat": 22.5641292,
        "lon": 88.3502752,
        "tags": {
          "name": "Esplanade (Line 2)",
          "name:bn": "\u098f\u09b8\u09aa\u09cd\u09b2\u09cd\u09af\u09be\u09a8\u09c7\u09a1",
          "network": "Kolkata Metro",
          "network:wikidata": "Q1048849",
          "operator": "Metro Railway, Kolkata",
          "public_transport": "station",
          "railway": "station",
          "ref": "KESP",
          "station": "subway",
          "subway": "yes",
          "wikidata": "Q5399030",
          "wikipedia": "en:Esplanade metro station"
        }
      },
      {
        "type": "node",
        "id": 11703491152,
        "lat": 22.6014912,
        "lon": 88.3726119,
        "tags": {
          "name": "Shyambazar",
          "name:bn": "\u09b6\u09cd\u09af\u09be\u09ae\u09ac\u09be\u099c\u09be\u09b0",
          "network": "Kolkata Metro",
          "operator": "Metro Railway, Kolkata",
          "public_transport": "stop_position",
          "railway": "stop",
          "subway": "yes"
        }
      },
      {
        "type": "node",
        "id": 11703491153,
        "lat": 22.6013443,
        "lon": 88.3723435,
        "tags": {
          "name": "Shyambazar",
          "name:bn": "\u09b6\u09cd\u09af\u09be\u09ae\u09ac\u09be\u099c\u09be\u09b0",
          "network": "Kolkata Metro",
          "operator": "Metro Railway, Kolkata",
          "public_transport": "stop_position",
          "railway": "stop",
          "subway": "yes"
        }
      },
      {
        "type": "node",
        "id": 11703491155,
        "lat": 22.595589,
        "lon": 88.3650434,
        "tags": {
          "name": "Shobhabazar Sutanuti",
          "name:bn": "\u09b6\u09cb\u09ad\u09be\u09ac\u09be\u099c\u09be\u09b0 \u09b8\u09c1\u09a4\u09be\u09a8\u09c1\u099f\u09bf",
          "network": "Kolkata Metro",
          "operator": "Metro Railway, Kolkata",
          "public_transport": "stop_position",
          "railway": "stop",
          "subway": "yes"
        }
      },
      {
        "type": "node",
        "id": 11703491156,
        "lat": 22.5960768,
        "lon": 88.3650951,
        "tags": {
          "name": "Shobhabazar Sutanuti",
          "name:bn": "\u09b6\u09cb\u09ad\u09be\u09ac\u09be\u099c\u09be\u09b0 \u09b8\u09c1\u09a4\u09be\u09a8\u09c1\u099f\u09bf",
          "network": "Kolkata Metro",
          "operator": "Metro Railway, Kolkata",
          "public_transport": "stop_position",
          "railway": "stop",
          "subway": "yes"
        }
      },
      {
        "type": "node",
        "id": 11703491157,
        "lat": 22.5867702,
        "lon": 88.3628753,
        "tags": {
          "name": "Girish Park",
          "name:bn": "\u0997\u09bf\u09b0\u09bf\u09b6 \u09aa\u09be\u09b0\u09cd\u0995",
          "network": "Kolkata Metro",
          "operator": "Metro Railway, Kolkata",
          "public_transport": "stop_position",
          "railway": "stop",
          "subway": "yes"
        }
      },
      {
        "type": "node",
        "id": 11703491158,
        "lat": 22.5873608,
        "lon": 88.3629625,
        "tags": {
          "name": "Girish Park",
          "name:bn": "\u0997\u09bf\u09b0\u09bf\u09b6 \u09aa\u09be\u09b0\u09cd\u0995",
          "network": "Kolkata Metro",
          "operator": "Metro Railway, Kolkata",
          "public_transport": "stop_position",
          "railway": "stop",
          "subway": "yes"
        }
      },
      {
        "type": "node",
        "id": 11703491159,
        "lat": 22.5807704,
        "lon": 88.3613153,
        "tags": {
          "name": "Mahatma Gandhi Road",
          "name:bn": "\u09ae\u09b9\u09be\u09a4\u09cd\u09ae\u09be \u0997\u09be\u09a8\u09cd\u09a7\u09c0 \u09b0\u09cb\u09a1",
          "network": "Kolkata Metro",
          "operator": "Metro Railway, Kolkata",
          "public_transport": "stop_position",
          "railway": "stop",
          "subway": "yes"
        }
      },
      {
        "type": "node",
        "id": 11703491160,
        "lat": 22.5811183,
        "lon": 88.3613384,
        "tags": {
          "name": "Mahatma Gandhi Road",
          "name:bn": "\u09ae\u09b9\u09be\u09a4\u09cd\u09ae\u09be \u0997\u09be\u09a8\u09cd\u09a7\u09c0 \u09b0\u09cb\u09a1",
          "network": "Kolkata Metro",
          "operator": "Metro Railway, Kolkata",
          "public_transport": "stop_position",
          "railway": "stop",
          "subway": "yes"
        }
      },
      {
        "type": "node",
        "id": 11703491161,
        "lat": 22.5722888,
        "lon": 88.3587062,
        "tags": {
          "name": "Central",
          "name:bn": "\u09b8\u09c7\u09a8\u09cd\u099f\u09cd\u09b0\u09be\u09b2",
          "network": "Kolkata Metro",
          "operator": "Metro Railway, Kolkata",
          "public_transport": "stop_position",
          "railway": "stop",
          "subway": "yes"
        }
      },
      {
        "type": "node",
        "id": 11703491162,
        "lat": 22.5726466,
        "lon": 88.3587523,
        "tags": {
          "name": "Central",
          "name:bn": "\u09b8\u09c7\u09a8\u09cd\u099f\u09cd\u09b0\u09be\u09b2",
          "network": "Kolkata Metro",
          "operator": "Metro Railway, Kolkata",
          "public_transport": "stop_position",
          "railway": "stop",
          "subway": "yes"
        }
      },
      {
        "type": "node",
        "id": 11703491163,
        "lat": 22.5669164,
        "lon": 88.3540584,
        "tags": {
          "name": "Chandni Chowk",
          "name:bn": "\u099a\u09be\u0981\u09a6\u09a8\u09bf \u099a\u0995",
          "network": "Kolkata Metro",
          "operator": "Metro Railway, Kolkata",
          "public_transport": "stop_position",
          "railway": "stop",
          "subway": "yes"
        }
      },
      {
        "type": "node",
        "id": 12088322220,
        "lat": 22.5866768,
        "lon": 88.358668,
        "tags": {
          "amenity": "fuel",
          "brand": "Bharat Petroleum",
          "brand:wikidata": "Q854826",
          "name": "Bharat Petroleum, Petrol Pump -Imperial Petrol Service Station"
        }
      },
      {
        "type": "node",
        "id": 12136509181,
        "lat": 22.5914261,
        "lon": 88.3431755,
        "tags": {
          "amenity": "fuel"
        }
      },
      {
        "type": "node",
        "id": 12136521841,
        "lat": 22.5874833,
        "lon": 88.3397116,
        "tags": {
          "amenity": "fuel"
        }
      },
      {
        "type": "node",
        "id": 12534112957,
        "lat": 22.605453,
        "lon": 88.3655737,
        "tags": {
          "name": "Bagbazar",
          "name:bn": "\u09ac\u09be\u0997\u09ac\u09be\u099c\u09be\u09b0",
          "name:hi": "\u092c\u093e\u0917\u092c\u093e\u091c\u093e\u0930",
          "network": "IR",
          "operator": "ER",
          "public_transport": "stop_position",
          "railway": "stop",
          "ref": "1",
          "train": "yes",
          "wikidata": "Q25549505",
          "wikipedia": "en:Bagbazar railway station"
        }
      },
      {
        "type": "node",
        "id": 12534112958,
        "lat": 22.6055097,
        "lon": 88.3654974,
        "tags": {
          "name": "Bagbazar",
          "name:bn": "\u09ac\u09be\u0997\u09ac\u09be\u099c\u09be\u09b0",
          "name:hi": "\u092c\u093e\u0917\u092c\u093e\u091c\u093e\u0930",
          "network": "IR",
          "operator": "ER",
          "public_transport": "stop_position",
          "railway": "stop",
          "ref": "2",
          "train": "yes",
          "wikidata": "Q25549505",
          "wikipedia": "en:Bagbazar railway station"
        }
      }
    ]
  }
}