{
  "pois_1km": {
    "version": 0.6,
    "generator": "Overpass API 0.7.62.8 e802775f",
    "osm3s": {
      "timestamp_osm_base": "2025-09-06T07:21:56Z",
      "copyright": "The data included in this document is from www.openstreetmap.org. The data is made available under ODbL."
    },
    "elements": [
      {
        "type": "node",
        "id": 280741143,
        "lat": 28.64725,
        "lon": 77.194235,
        "tags": {
          "amenity": "bank",
          "atm": "yes",
          "brand": "Axis Bank",
          "brand:wikidata": "Q2003549",
          "name": "Axis Bank",
          "name:en": "Axis Bank",
          "operator": "Canara Bank",
          "website": "https://www.axisbank.com"
        }
      },
      {
        "type": "node",
        "id": 1669039157,
        "lat": 28.6438105,
        "lon": 77.1910019,
        "tags": {
          "addr:housename": "Art Of Spices",
          "amenity": "fast_food",
          "cuisine": "chicken",
          "name": "Art Of Spices"
        }
      },
      {
        "type": "node",
        "id": 4414245490,
        "lat": 28.6451684,
        "lon": 77.1945193,
        "tags": {
          "amenity": "bank",
          "operator": "State Bank of Mysore"
        }
      },
      {
        "type": "node",
        "id": 4799120034,
        "lat": 28.6465886,
        "lon": 77.1957658,
        "tags": {
          "addr:city": "New Delhi",
          "addr:postcode": "110005",
          "addr:street": "Arya Samaj Road",
          "alt_name": "A2B",
          "amenity": "restaurant",
          "brand": "Adyar Ananda Bhavan",
          "brand:wikidata": "Q15178238",
          "cuisine": "regional",
          "diet:vegetarian": "only",
          "name": "Adyar Ananda Bhavan",
          "operator": "Adyar Ananda Bhavan",
          "phone": "+91 98712 60803",
          "shop": "confectionery",
          "smoking": "no",
          "website": "https://aabsweets.com"
        }
      },
      {
        "type": "node",
        "id": 5246751221,
        "lat": 28.643492,
        "lon": 77.187296,
        "tags": {
          "addr:district": "Central",
          "addr:full": "7-B, Pusa Road, Karol Bagh",
          "addr:postcode": "110060",
          "addr:state": "Delhi",
          "amenity": "hospital",
          "contact:phone": "1145099999",
          "description": "<100 Bedded Hospital",
          "healthcare": "hospital",
          "name": "Sir Ganga Ram Kolmet Hospital",
          "source": "OpenGovernmentData"
        }
      },
      {
        "type": "node",
        "id": 5758573849,
        "lat": 28.6439995,
        "lon": 77.1912841,
        "tags": {
          "amenity": "hospital",
          "name": "City Hospital"
        }
      },
      {
        "type": "node",
        "id": 6053796783,
        "lat": 28.6442725,
        "lon": 77.2006899,
        "tags": {
          "amenity": "bank",
          "atm": "yes",
          "brand": "Yes Bank",
          "brand:wikidata": "Q2040394",
          "level": "0",
          "name": "Yes Bank",
          "wheelchair": "no"
        }
      },
      {
        "type": "node",
        "id": 6053796784,
        "lat": 28.6441263,
        "lon": 77.2010453,
        "tags": {
          "amenity": "bank",
          "atm": "yes",
          "branch": "Ram Tirath Nagar",
          "branch:hi": "\u0930\u093e\u092e\u0924\u0940\u0930\u094d\u0925 \u0928\u0917\u0930",
          "brand": "Central Bank of India",
          "brand:wikidata": "Q2007090",
          "name": "Central Bank of India"
        }
      },
      {
        "type": "node",
        "id": 6741865619,
        "lat": 28.6473546,
        "lon": 77.1879785,
        "tags": {
          "amenity": "bank",
          "atm": "yes",
          "branch": "Karol Bagh",
          "brand": "Bank of India",
          "brand:wikidata": "Q2004439",
          "name": "Bank of India"
        }
      },
      {
        "type": "node",
        "id": 6741865637,
        "lat": 28.6539198,
        "lon": 77.191078,
        "tags": {
          "addr:city": "New Delhi",
          "amenity": "bank",
          "atm": "yes",
          "branch": "Dev Nagar",
          "brand": "State Bank of India",
          "brand:wikidata": "Q1340361",
          "level": "0",
          "name": "State Bank of India",
          "short_name": "SBI",
          "wheelchair": "no"
        }
      },
      {
        "type": "node",
        "id": 6741865638,
        "lat": 28.6520236,
        "lon": 77.192417,
        "tags": {
          "amenity": "atm",
          "brand": "Axis Bank",
          "brand:wikidata": "Q2003549",
          "level": "0",
          "operator": "Axis Bank",
          "operator:wikidata": "Q2003549"
        }
      },
      {
        "type": "node",
        "id": 6741865643,
        "lat": 28.643686,
        "lon": 77.1882167,
        "tags": {
          "amenity": "restaurant",
          "level": "1",
          "name": "The Feast House"
        }
      },
      {
        "type": "node",
        "id": 6741865644,
        "lat": 28.6522781,
        "lon": 77.1918029,
        "tags": {
          "amenity": "bank",
          "atm": "yes",
          "brand": "Punjab National Bank",
          "brand:wikidata": "Q2743499",
          "name": "Punjab National Bank"
        }
      },
      {
        "type": "node",
        "id": 7040118785,
        "lat": 28.6477274,
        "lon": 77.1960745,
        "tags": {
          "amenity": "restaurant",
          "name": "Amristari Kulcha King"
        }
      },
      {
        "type": "node",
        "id": 7138534350,
        "lat": 28.644386,
        "lon": 77.189502,
        "tags": {
          "addr:district": "Central",
          "addr:full": "Sadhu Vasvani Marg, Block 1, WEA, Karol Bagh, New Delhi",
          "addr:postcode": "110005",
          "addr:state": "Delhi",
          "amenity": "clinic",
          "contact:phone": "28758071",
          "description": "Dispensaries",
          "health_facility:type": "dispensary",
          "healthcare": "centre",
          "name": "CGHS, Pusa Road",
          "source": "OpenGovernmentData"
        }
      },
      {
        "type": "node",
        "id": 7138534364,
        "lat": 28.6529654,
        "lon": 77.1994853,
        "tags": {
          "addr:district": "Central",
          "addr:full": "Opposite Ajmal Khan Park, East Park Road, Karol Bagh",
          "addr:postcode": "110005",
          "addr:state": "Delhi",
          "amenity": "hospital",
          "contact:phone": "011-2362 2498",
          "description": "Sub-District Hospital",
          "name": "Dr. N. C. Joshi Memorial Hospital",
          "source": "OpenGovernmentData"
        }
      },
      {
        "type": "node",
        "id": 7138534368,
        "lat": 28.6431266,
        "lon": 77.1906871,
        "tags": {
          "addr:district": "Central",
          "addr:full": "11-B, Ganga Ram Hospital Marg, Karol Bagh",
          "addr:postcode": "110060",
          "addr:state": "Delhi",
          "amenity": "hospital",
          "contact:phone": "1125787655",
          "description": "<100 Bedded Hospital",
          "name": "Mohan Eye Institute",
          "source": "OpenGovernmentData"
        }
      },
      {
        "type": "node",
        "id": 7138534378,
        "lat": 28.6486581,
        "lon": 77.1860862,
        "tags": {
          "addr:district": "Central",
          "addr:full": "100 Quarters, Jagjeewan Niwas, Community Center, Karol Bagh",
          "addr:postcode": "110005",
          "addr:state": "Delhi",
          "amenity": "clinic",
          "contact:phone": "011-25860557",
          "description": "Dispensaries",
          "health_facility:type": "dispensary",
          "healthcare": "centre",
          "name": "DGD, RegarPura",
          "source": "OpenGovernmentData"
        }
      },
      {
        "type": "node",
        "id": 7544955477,
        "lat": 28.649289,
        "lon": 77.199157,
        "tags": {
          "addr:district": "Central Delhi",
          "addr:full": "783, DB Gupta Road, Block A, Karol Bagh",
          "addr:postcode": "110005",
          "addr:state": "Delhi",
          "amenity": "clinic",
          "name": "Jan Kalyan Health Care Centre",
          "source": "Local Knowledge"
        }
      },
      {
        "type": "node",
        "id": 7544955510,
        "lat": 28.643625,
        "lon": 77.188255,
        "tags": {
          "addr:district": "Central Delhi",
          "addr:full": "2-B, Pusa Road, Near Karol Bagh Metro Station",
          "addr:postcode": "110005",
          "addr:state": "Delhi",
          "amenity": "hospital",
          "name": "Jeewan Hospital",
          "source": "Local Knowledge"
        }
      },
      {
        "type": "node",
        "id": 10567520509,
        "lat": 28.6487643,
        "lon": 77.1910046,
        "tags": {
          "amenity": "fast_food",
          "brand": "Burger King",
          "brand:wikidata": "Q177054",
          "cuisine": "burger",
          "name": "Burger King",
          "takeaway": "yes"
        }
      },
      {
        "type": "node",
        "id": 10567527709,
        "lat": 28.6481265,
        "lon": 77.1903707,
        "tags": {
          "amenity": "fast_food",
          "brand": "McDonald's",
          "brand:wikidata": "Q38076",
          "cuisine": "burger",
          "name": "McDonald's",
          "takeaway": "yes"
        }
      },
      {
        "type": "node",
        "id": 10570466809,
        "lat": 28.6504443,
        "lon": 77.1923023,
        "tags": {
          "amenity": "fast_food",
          "name": "Roshan Di Kulfi",
          "survey:date": "2023-01-20"
        }
      },
      {
        "type": "node",
        "id": 10570466909,
        "lat": 28.6504097,
        "lon": 77.1922798,
        "tags": {
          "amenity": "fast_food",
          "name": "Wow Momos",
          "survey:date": "2023-01-20"
        }
      },
      {
        "type": "node",
        "id": 10574927043,
        "lat": 28.6465831,
        "lon": 77.189438,
        "tags": {
          "amenity": "fast_food",
          "name": "Punjab Sweet Corner",
          "opening_hours": "Mo-Su 09:00-18:00+"
        }
      },
      {
        "type": "node",
        "id": 10591289305,
        "lat": 28.6479199,
        "lon": 77.1911263,
        "tags": {
          "brand": "Vishal Mega Mart",
          "brand:wikidata": "Q126895037",
          "name": "Vishal Mega Mart",
          "shop": "supermarket"
        }
      },
      {
        "type": "node",
        "id": 11403077870,
        "lat": 28.6444124,
        "lon": 77.1882702,
        "tags": {
          "amenity": "fast_food",
          "brand": "Jumbo King",
          "brand:wikidata": "Q6310895",
          "cuisine": "burger",
          "name": "Jumbo King",
          "takeaway": "yes"
        }
      },
      {
        "type": "node",
        "id": 11449264969,
        "lat": 28.6452103,
        "lon": 77.1954815,
        "tags": {
          "amenity": "cafe",
          "brand": "Starbucks",
          "brand:wikidata": "Q37158",
          "cuisine": "coffee_shop",
          "name": "Starbucks",
          "official_name": "Starbucks Coffee",
          "takeaway": "yes"
        }
      },
      {
        "type": "node",
        "id": 11609607883,
        "lat": 28.6448879,
        "lon": 77.1930892,
        "tags": {
          "alt_name": "Haldiram",
          "amenity": "fast_food",
          "brand": "Haldiram's",
          "brand:wikidata": "Q17054442",
          "cuisine": "indian",
          "level": "0",
          "name": "Haldiram's",
          "takeaway": "yes"
        }
      },
      {
        "type": "node",
        "id": 11609607899,
        "lat": 28.6445453,
        "lon": 77.1904718,
        "tags": {
          "amenity": "bank",
          "branch": "Commercial",
          "brand": "State Bank of India",
          "brand:wikidata": "Q1340361",
          "level": "1",
          "name": "State Bank of India",
          "short_name": "SBI"
        }
      },
      {
        "type": "node",
        "id": 11778364550,
        "lat": 28.645968,
        "lon": 77.196814,
        "tags": {
          "amenity": "bank",
          "brand": "Federal Bank",
          "brand:wikidata": "Q2044983",
          "name": "Federal Bank"
        }
      },
      {
        "type": "node",
        "id": 11799187510,
        "lat": 28.6444389,
        "lon": 77.2004624,
        "tags": {
          "amenity": "bank",
          "atm": "yes",
          "branch": "Jhandewalan",
          "brand": "HDFC Bank",
          "brand:wikidata": "Q631047",
          "level": "0",
          "name": "HDFC Bank",
          "short_name": "HDFC",
          "wheelchair": "no"
        }
      },
      {
        "type": "node",
        "id": 11808931820,
        "lat": 28.6482157,
        "lon": 77.2001362,
        "tags": {
          "amenity": "cafe",
          "brand": "Barista",
          "brand:wikidata": "Q644735",
          "cuisine": "coffee_shop",
          "name": "Barista",
          "takeaway": "yes"
        }
      },
      {
        "type": "node",
        "id": 11808931821,
        "lat": 28.6482341,
        "lon": 77.2001091,
        "tags": {
          "alt_name": "Haldiram",
          "amenity": "fast_food",
          "brand": "Haldiram's",
          "brand:wikidata": "Q17054442",
          "cuisine": "indian",
          "name": "Haldiram's",
          "takeaway": "yes"
        }
      },
      {
        "type": "node",
        "id": 11808931822,
        "lat": 28.6481858,
        "lon": 77.2001834,
        "tags": {
          "amenity": "restaurant",
          "brand": "California Burrito",
          "brand:wikidata": "Q124374596",
          "cuisine": "mexican",
          "name": "California Burrito"
        }
      },
      {
        "type": "node",
        "id": 11959841125,
        "lat": 28.645047,
        "lon": 77.2012362,
        "tags": {
          "amenity": "bank",
          "atm": "no",
          "brand": "ICICI Bank",
          "brand:wikidata": "Q1653258",
          "level": "1",
          "name": "ICICI Bank",
          "operator": "ICICI Securities Limited",
          "short_name": "ICICI",
          "wheelchair": "no"
        }
      },
      {
        "type": "node",
        "id": 11971462027,
        "lat": 28.6439521,
        "lon": 77.2013826,
        "tags": {
          "amenity": "bank",
          "atm": "yes",
          "branch": "Jhandewalan",
          "brand": "ICICI Bank",
          "brand:wikidata": "Q1653258",
          "level": "0",
          "name": "ICICI Bank",
          "short_name": "ICICI",
          "wheelchair": "no"
        }
      },
      {
        "type": "node",
        "id": 11971462046,
        "lat": 28.6440102,
        "lon": 77.2012615,
        "tags": {
          "amenity": "fast_food",
          "brand": "Domino's",
          "brand:wikidata": "Q839466",
          "cuisine": "pizza",
          "level": "0",
          "name": "Domino's",
          "takeaway": "yes",
          "wheelchair": "no"
        }
      },
      {
        "type": "node",
        "id": 11971465774,
        "lat": 28.6440611,
        "lon": 77.2014836,
        "tags": {
          "amenity": "cafe",
          "indoor_seating": "yes",
          "level": "0",
          "name": "Del Bite",
          "wheelchair": "no"
        }
      },
      {
        "type": "node",
        "id": 11971465780,
        "lat": 28.64426,
        "lon": 77.2014351,
        "tags": {
          "amenity": "bank",
          "atm": "yes",
          "branch": "Jhandewalan Extension",
          "brand": "Bank of Baroda",
          "brand:wikidata": "Q2003797",
          "level": "0",
          "name": "Bank of Baroda",
          "wheelchair": "no"
        }
      },
      {
        "type": "node",
        "id": 12052454984,
        "lat": 28.644963,
        "lon": 77.1897926,
        "tags": {
          "amenity": "restaurant",
          "bar": "yes",
          "level": "1",
          "name": "Crossroads"
        }
      },
      {
        "type": "node",
        "id": 12135340724,
        "lat": 28.6474998,
        "lon": 77.1923348,
        "tags": {
          "amenity": "bank",
          "atm": "yes",
          "branch": "Padam Singh Road",
          "brand": "HDFC Bank",
          "brand:wikidata": "Q631047",
          "check_date": "2024-08-25",
          "name": "HDFC Bank",
          "name:en": "HDFC Bank",
          "short_name": "HDFC"
        }
      },
      {
        "type": "node",
        "id": 12135340725,
        "lat": 28.6476251,
        "lon": 77.1921758,
        "tags": {
          "amenity": "bank",
          "atm": "yes",
          "branch": "Karol Bagh",
          "brand": "Bandhan Bank",
          "brand:wikidata": "Q19882235",
          "check_date": "2024-08-25",
          "drive_through": "no",
          "level": "0",
          "name": "Bandhan Bank",
          "name:en": "Bandhan Bank",
          "opening_hours": "Mo-Sa 09:30-16:30; PH closed; Su closed; Sa[2,4] closed",
          "wheelchair": "yes"
        }
      },
      {
        "type": "node",
        "id": 12135340726,
        "lat": 28.6475785,
        "lon": 77.1921406,
        "tags": {
          "amenity": "bank",
          "branch": "Karol Bagh",
          "brand": "Indian Bank",
          "check_date": "2024-08-25",
          "level": "0",
          "name": "Indian Bank",
          "name:en": "Indian Bank & Allahabad Bank",
          "opening_hours": "Mo-Sa 10:00-16:00; PH closed; Su closed; Sa[2,4] closed",
          "wheelchair": "no"
        }
      },
      {
        "type": "node",
        "id": 12135340727,
        "lat": 28.6474925,
        "lon": 77.1919734,
        "tags": {
          "amenity": "bank",
          "branch": "Gurudwara Road, Karol Bagh",
          "brand": "AU Small Finance Bank",
          "brand:wikidata": "Q48729722",
          "check_date": "2024-08-25",
          "name": "AU Small Finance Bank",
          "name:en": "AU Small Finance Bank"
        }
      },
      {
        "type": "node",
        "id": 12135340729,
        "lat": 28.647544,
        "lon": 77.1918739,
        "tags": {
          "amenity": "bank",
          "branch": "Karol Bagh",
          "brand": "Indian Overseas Bank",
          "brand:wikidata": "Q2003611",
          "check_date": "2024-08-25",
          "name": "Indian Overseas Bank",
          "name:en": "Indian Overseas Bank"
        }
      },
      {
        "type": "node",
        "id": 12135351290,
        "lat": 28.6458277,
        "lon": 77.1920817,
        "tags": {
          "addr:housenumber": "-",
          "addr:street": "Abdul Aziz Road",
          "amenity": "bank",
          "branch": "Abdul Aziz Road, Karol Bagh",
          "brand": "Punjab National Bank",
          "brand:wikidata": "Q2743499",
          "check_date": "2024-08-25",
          "name": "Punjab National Bank",
          "name:en": "Punjab National Bank"
        }
      },
      {
        "type": "node",
        "id": 12135558983,
        "lat": 28.6467726,
        "lon": 77.1878823,
        "tags": {
          "addr:floor": "0;1",
          "air_conditioning": "yes",
          "amenity": "restaurant",
          "bar": "yes",
          "check_date": "2024-08-25",
          "level": "0",
          "name": "Hooter",
          "wheelchair": "no"
        }
      },
      {
        "type": "node",
        "id": 12135595311,
        "lat": 28.6465675,
        "lon": 77.1877558,
        "tags": {
          "amenity": "fast_food",
          "name": "Snacks Time"
        }
      },
      {
        "type": "node",
        "id": 12135624521,
        "lat": 28.6467732,
        "lon": 77.1879984,
        "tags": {
          "addr:floor": "0",
          "addr:housenumber": "15A/28",
          "addr:street": "Saraswati Marg",
          "addr:unit": "WEA",
          "amenity": "fast_food",
          "check_date": "2024-08-25",
          "cuisine": "juice",
          "diet:vegetarian": "yes",
          "drive_through": "no",
          "level": "0",
          "name": "Deepak Juice & Shakes",
          "wheelchair": "no"
        }
      },
      {
        "type": "node",
        "id": 12135627822,
        "lat": 28.6469386,
        "lon": 77.1879658,
        "tags": {
          "amenity": "restaurant",
          "name": "Chawlas2"
        }
      },
      {
        "type": "node",
        "id": 12135641575,
        "lat": 28.6470426,
        "lon": 77.1881214,
        "tags": {
          "addr:floor": "0",
          "amenity": "restaurant",
          "check_date": "2024-08-25",
          "diet:vegetarian": "yes",
          "level": "0",
          "name": "Radhey Krishna Udupi Restaurant",
          "wheelchair": "no"
        }
      },
      {
        "type": "node",
        "id": 12135643544,
        "lat": 28.6478782,
        "lon": 77.1886384,
        "tags": {
          "amenity": "pharmacy",
          "healthcare": "pharmacy",
          "name": "SR Medicos"
        }
      },
      {
        "type": "node",
        "id": 12135662432,
        "lat": 28.6480158,
        "lon": 77.1887282,
        "tags": {
          "amenity": "pharmacy",
          "healthcare": "pharmacy",
          "name": "Geeta Medicos"
        }
      },
      {
        "type": "node",
        "id": 12205008401,
        "lat": 28.6534508,
        "lon": 77.1892179,
        "tags": {
          "leisure": "park",
          "name": "Shiv Nagar Park",
          "opening_hours": "Mo-Su 05:00-22:30"
        }
      },
      {
        "type": "node",
        "id": 12307160292,
        "lat": 28.647351,
        "lon": 77.1918284,
        "tags": {
          "amenity": "restaurant",
          "level": "0",
          "name": "Flavour of Southvaala",
          "wheelchair": "no"
        }
      },
      {
        "type": "node",
        "id": 12307167502,
        "lat": 28.653992,
        "lon": 77.1898706,
        "tags": {
          "amenity": "restaurant",
          "contact:mobile": "+91 99109 50531;+91 99990 30701",
          "cuisine": "Punjabi",
          "diet:lacto_vegetarian": "only",
          "level": "0",
          "name": "Om Corner",
          "wheelchair": "limited"
        }
      },
      {
        "type": "node",
        "id": 12307595323,
        "lat": 28.6533614,
        "lon": 77.19226,
        "tags": {
          "addr:city": "New Delhi",
          "amenity": "bank",
          "branch": "DB Gupta Road",
          "brand": "RBL Bank",
          "brand:wikidata": "Q13120398",
          "name": "RBL Bank"
        }
      },
      {
        "type": "node",
        "id": 12307601409,
        "lat": 28.6493692,
        "lon": 77.1938736,
        "tags": {
          "addr:city": "New Delhi",
          "addr:country": "IN",
          "addr:place": "Karol Bagh",
          "addr:postcode": "110005",
          "addr:street": "Gurudwara Road",
          "amenity": "bank",
          "branch": "Gurudwara Road, Karol Bagh",
          "brand": "ICICI Bank",
          "brand:wikidata": "Q1653258",
          "name": "ICICI Bank",
          "short_name": "ICICI"
        }
      },
      {
        "type": "node",
        "id": 12307601415,
        "lat": 28.6493408,
        "lon": 77.1938637,
        "tags": {
          "addr:city": "New Delhi",
          "addr:country": "IN",
          "addr:place": "Karol Bagh",
          "addr:postcode": "110005",
          "addr:street": "Gurudwara Road",
          "amenity": "bank",
          "branch": "Gurudwara Road, Karol Bagh",
          "brand": "HDFC Bank",
          "brand:wikidata": "Q631047",
          "level": "0",
          "name": "HDFC Bank",
          "short_name": "HDFC"
        }
      },
      {
        "type": "node",
        "id": 12307601417,
        "lat": 28.6517334,
        "lon": 77.1943078,
        "tags": {
          "addr:city": "New Delhi",
          "amenity": "bank",
          "branch": "Karol Bagh",
          "brand": "ICICI Bank",
          "brand:wikidata": "Q1653258",
          "level": "0",
          "name": "ICICI Bank",
          "short_name": "ICICI"
        }
      },
      {
        "type": "node",
        "id": 12307601419,
        "lat": 28.6517481,
        "lon": 77.1942974,
        "tags": {
          "amenity": "atm",
          "branch": "Karol Bagh",
          "brand": "ICICI Bank",
          "brand:en": "ICICI Bank",
          "brand:wikidata": "Q1653258",
          "currency:INR": "yes",
          "drive_through": "no",
          "indoor": "yes",
          "level": "0",
          "name": "ICICI Bank",
          "note": "Contributors are requested to not edit the \"brand\", \"brand:en\", \"brand:wikidata\", \"operator\", \"operator:en\" and \"operator:wikidata\" tags. (2025/02/19)",
          "opening_hours": "24/7",
          "operator": "ICICI Bank",
          "operator:en": "ICICI Bank",
          "operator:wikidata": "Q1653258",
          "short_name": "ICICI",
          "wheelchair": "no"
        }
      },
      {
        "type": "node",
        "id": 12307601420,
        "lat": 28.6493851,
        "lon": 77.1938823,
        "tags": {
          "addr:city": "New Delhi",
          "addr:country": "IN",
          "addr:place": "Karol Bagh",
          "addr:postcode": "110005",
          "addr:street": "Gurudwara Road",
          "amenity": "atm",
          "brand": "ICICI Bank",
          "brand:en": "ICICI Bank",
          "brand:wikidata": "Q1653258",
          "currency:INR": "yes",
          "drive_through": "no",
          "indoor": "yes",
          "level": "0",
          "name": "ICICI Bank",
          "note": "Contributors are requested to not edit the \"brand\", \"brand:en\", \"brand:wikidata\", \"operator\", \"operator:en\" and \"operator:wikidata\" tags. (2025/02/19)",
          "opening_hours": "24/7",
          "operator": "ICICI Bank",
          "operator:en": "ICICI Bank",
          "operator:wikidata": "Q1653258",
          "short_name": "ICICI"
        }
      }
    ]
  },
  "pois_2_5km": {
    "version": 0.6,
    "generator": "Overpass API 0.7.62.8 e802775f",
    "osm3s": {
      "timestamp_osm_base": "2025-09-06T07:21:56Z",
      "copyright": "The data included in this document is from www.openstreetmap.org. The data is made available under ODbL."
    },
    "elements": [
      {
        "type": "node",
        "id": 268381457,
        "lat": 28.6667177,
        "lon": 77.1988974,
        "tags": {
          "name": "Pratap Nagar",
          "name:hi": "\u092a\u094d\u0930\u0924\u093e\u092a \u0928\u0917\u0930",
          "name:ur": "\u067e\u0631\u062a\u0627\u067e \u0646\u06af\u0631",
          "network": "Delhi Metro",
          "note": "Contributors are requested to not edit the \"network\" and the \"operator\" tags. (2023/06/22)",
          "operator": "Delhi Metro Rail Corporation Limited",
          "public_transport": "station",
          "railway": "station",
          "station": "subway",
          "subway": "yes",
          "wikidata": "Q7238590",
          "wikipedia": "en:Pratap Nagar metro station"
        }
      },
      {
        "type": "node",
        "id": 268381463,
        "lat": 28.6664068,
        "lon": 77.2074156,
        "tags": {
          "alt_name:ur": "\u067e\u0644 \u0628\u0646\u06af\u0634",
          "name": "Pul Bangash",
          "name:en": "Pul Bangash",
          "name:hi": "\u092a\u0941\u0932 \u092c\u0902\u0917\u0936",
          "name:ur": "\u067e\u064f\u0644 \u0628\u0646\u06af\u0634",
          "network": "Delhi Metro",
          "note": "Contributors are requested to not edit the \"network\" and the \"operator\" tags. (2023/06/22)",
          "operator": "Delhi Metro Rail Corporation Limited",
          "public_transport": "station",
          "railway": "station",
          "station": "subway",
          "subway": "yes",
          "wikidata": "Q7259157",
          "wikipedia": "en:Pul Bangash metro station"
        }
      },
      {
        "type": "node",
        "id": 345234440,
        "lat": 28.6424765,
        "lon": 77.1782794,
        "tags": {
          "name": "Rajendra Place",
          "name:kn": "\u0cb0\u0cbe\u0c9c\u0cc7\u0c82\u0ca6\u0ccd\u0cb0 \u0caa\u0ccd\u0caf\u0cbe\u0cb2\u0cc7\u0cb8\u0ccd",
          "network": "Delhi Metro",
          "note": "Contributors are requested to not edit the \"network\" and the \"operator\" tags. (2023/06/22)",
          "operator": "Delhi Metro Rail Corporation Limited",
          "public_transport": "stop_position",
          "railway": "stop",
          "subway": "yes"
        }
      },
      {
        "type": "node",
        "id": 345234441,
        "lat": 28.6440122,
        "lon": 77.1885235,
        "tags": {
          "name": "Karol Bagh",
          "name:hi": "\u0915\u0930\u094b\u0932 \u092c\u093e\u0917",
          "name:kn": "\u0c95\u0cb0\u0ccb\u0cb2\u0ccd \u0cad\u0cbe\u0c97\u0ccd",
          "name:ur": "\u0642\u0631\u0648\u0644 \u0628\u0627\u063a",
          "network": "Delhi Metro",
          "network:wikidata": "Q271195",
          "note": "Contributors are requested to not edit the \"network\" and the \"operator\" tags. (2023/06/22)",
          "operator": "Delhi Metro Rail Corporation Limited",
          "operator:wikidata": "Q1029339",
          "public_transport": "station",
          "railway": "station",
          "station": "subway",
          "subway": "yes",
          "wikidata": "Q6373014",
          "wikipedia": "en:Karol Bagh metro station"
        }
      },
      {
        "type": "node",
        "id": 345234443,
        "lat": 28.6442998,
        "lon": 77.1999053,
        "tags": {
          "name": "Jhandewalan",
          "name:kn": "\u0c9d\u0cbe\u0c82\u0ca1\u0cc6\u0cb5\u0cbe\u0cb2\u0ca8\u0ccd",
          "network": "Delhi Metro",
          "note": "Contributors are requested to not edit the \"network\" and the \"operator\" tags. (2023/06/22)",
          "operator": "Delhi Metro Rail Corporation Limited",
          "public_transport": "stop_position",
          "railway": "stop",
          "subway": "yes"
        }
      },
      {
        "type": "node",
        "id": 554257820,
        "lat": 28.6392249,
        "lon": 77.2085684,
        "tags": {
          "name": "Ramakrishna Ashram Marg",
          "network": "Delhi Metro",
          "note": "Contributors are requested to not edit the \"network\" and the \"operator\" tags. (2023/06/22)",
          "operator": "Delhi Metro Rail Corporation Limited",
          "public_transport": "stop_position",
          "railway": "stop",
          "subway": "yes"
        }
      },
      {
        "type": "node",
        "id": 913081055,
        "lat": 28.6685068,
        "lon": 77.2004935,
        "tags": {
          "internet_access": "no",
          "name": "Subzimandi",
          "name:ur": "\u0633\u0628\u0632\u06cc \u0645\u0646\u0688\u06cc",
          "network": "IR",
          "operator": "NR",
          "public_transport": "station",
          "railway": "station",
          "ref": "SZM",
          "train": "yes",
          "wikidata": "Q18386051",
          "wikipedia": "en:Subzi Mandi railway station"
        }
      },
      {
        "type": "node",
        "id": 915407469,
        "lat": 28.6627515,
        "lon": 77.1852561,
        "tags": {
          "internet_access": "no",
          "name": "Delhi Sarai Rohilla",
          "name:ur": "\u062f\u06c1\u0644\u06cc \u0633\u0631\u0627\u0626\u06d2 \u0631\u0648\u06c1\u0644\u06c1",
          "network": "Indian Railways",
          "operator": "Northern Railway",
          "public_transport": "station",
          "railway": "station",
          "ref": "DEE",
          "train": "yes",
          "wheelchair": "yes",
          "wikidata": "Q3635051",
          "wikipedia": "en:Delhi Sarai Rohilla railway station"
        }
      },
      {
        "type": "node",
        "id": 915408117,
        "lat": 28.6630897,
        "lon": 77.1855428,
        "tags": {
          "name": "Sarai Rohilla",
          "public_transport": "stop_position",
          "ref": "2",
          "train": "yes"
        }
      },
      {
        "type": "node",
        "id": 915408380,
        "lat": 28.6633457,
        "lon": 77.1856369,
        "tags": {
          "name": "Sarai Rohilla",
          "public_transport": "stop_position",
          "ref": "4",
          "train": "yes"
        }
      },
      {
        "type": "node",
        "id": 938372444,
        "lat": 28.6424872,
        "lon": 77.2203479,
        "tags": {
          "alt_name:ar": "\u0646\u064a\u0648\u062f\u0644\u0647\u064a",
          "alt_name:ks": "\u0646\u0654\u0648 \u062f\u0650\u0644",
          "alt_name:ur": "\u0646\u0626\u06cc \u062f\u0644\u06cc",
          "name": "New Delhi",
          "name:ar": "\u062f\u0644\u0647\u064a \u0627\u0644\u062c\u062f\u064a\u062f\u0629",
          "name:az-Arab": "\u06cc\u0626\u0646\u06cc \u062f\u0647\u0644\u06cc",
          "name:azb": "\u06cc\u0626\u0646\u06cc \u062f\u0647\u0644\u06cc",
          "name:de": "Neu-Delhi",
          "name:el": "\u039d\u03ad\u03bf \u0394\u03b5\u03bb\u03c7\u03af",
          "name:es": "Nueva Delhi",
          "name:grc": "\u039d\u03b5\u03bf\u03b4\u03b5\u03bb\u03af\u03c2",
          "name:hy": "\u0546\u0575\u0578\u0582 \u0534\u0565\u056c\u056b",
          "name:hyw": "\u0546\u056b\u0582 \u054f\u0565\u056c\u0570\u056b",
          "name:ks": "\u0646\u0654\u0648 \u062f\u0644\u06be\u06cc",
          "name:pa": "\u0a28\u0a35\u0a40\u0a02 \u0a26\u0a3f\u0a71\u0a32\u0a40",
          "name:ug": "\u064a\u06d0\u06ad\u0649 \u062f\u06d0\u06be\u0644\u0649",
          "name:ur": "\u0646\u0626\u06cc \u062f\u06c1\u0644\u06cc",
          "public_transport": "stop_position",
          "railway": "stop",
          "ref": "NDLS:7",
          "train": "yes"
        }
      },
      {
        "type": "node",
        "id": 938372462,
        "lat": 28.6424665,
        "lon": 77.2202063,
        "tags": {
          "alt_name:ar": "\u0646\u064a\u0648\u062f\u0644\u0647\u064a",
          "alt_name:ks": "\u0646\u0654\u0648 \u062f\u0650\u0644",
          "alt_name:ur": "\u0646\u0626\u06cc \u062f\u0644\u06cc",
          "name": "New Delhi",
          "name:ar": "\u062f\u0644\u0647\u064a \u0627\u0644\u062c\u062f\u064a\u062f\u0629",
          "name:az-Arab": "\u06cc\u0626\u0646\u06cc \u062f\u0647\u0644\u06cc",
          "name:azb": "\u06cc\u0626\u0646\u06cc \u062f\u0647\u0644\u06cc",
          "name:de": "Neu-Delhi",
          "name:el": "\u039d\u03ad\u03bf \u0394\u03b5\u03bb\u03c7\u03af",
          "name:es": "Nueva Delhi",
          "name:grc": "\u039d\u03b5\u03bf\u03b4\u03b5\u03bb\u03af\u03c2",
          "name:hy": "\u0546\u0575\u0578\u0582 \u0534\u0565\u056c\u056b",
          "name:hyw": "\u0546\u056b\u0582 \u054f\u0565\u056c\u0570\u056b",
          "name:ks": "\u0646\u0654\u0648 \u062f\u0644\u06be\u06cc",
          "name:pa": "\u0a28\u0a35\u0a40\u0a02 \u0a26\u0a3f\u0a71\u0a32\u0a40",
          "name:ug": "\u064a\u06d0\u06ad\u0649 \u062f\u06d0\u06be\u0644\u0649",
          "name:ur": "\u0646\u0626\u06cc \u062f\u06c1\u0644\u06cc",
          "public_transport": "stop_position",
          "railway": "stop",
          "ref": "NDLS:6",
          "train": "yes"
        }
      },
      {
        "type": "node",
        "id": 938372479,
        "lat": 28.642519,
        "lon": 77.2206742,
        "tags": {
          "alt_name:ar": "\u0646\u064a\u0648\u062f\u0644\u0647\u064a",
          "alt_name:ks": "\u0646\u0654\u0648 \u062f\u0650\u0644",
          "alt_name:ur": "\u0646\u0626\u06cc \u062f\u0644\u06cc",
          "name": "New Delhi",
          "name:ar": "\u062f\u0644\u0647\u064a \u0627\u0644\u062c\u062f\u064a\u062f\u0629",
          "name:az-Arab": "\u06cc\u0626\u0646\u06cc \u062f\u0647\u0644\u06cc",
          "name:azb": "\u06cc\u0626\u0646\u06cc \u062f\u0647\u0644\u06cc",
          "name:de": "Neu-Delhi",
          "name:el": "\u039d\u03ad\u03bf \u0394\u03b5\u03bb\u03c7\u03af",
          "name:es": "Nueva Delhi",
          "name:grc": "\u039d\u03b5\u03bf\u03b4\u03b5\u03bb\u03af\u03c2",
          "name:hy": "\u0546\u0575\u0578\u0582 \u0534\u0565\u056c\u056b",
          "name:hyw": "\u0546\u056b\u0582 \u054f\u0565\u056c\u0570\u056b",
          "name:ks": "\u0646\u0654\u0648 \u062f\u0644\u06be\u06cc",
          "name:pa": "\u0a28\u0a35\u0a40\u0a02 \u0a26\u0a3f\u0a71\u0a32\u0a40",
          "name:ug": "\u064a\u06d0\u06ad\u0649 \u062f\u06d0\u06be\u0644\u0649",
          "name:ur": "\u0646\u0626\u06cc \u062f\u06c1\u0644\u06cc",
          "public_transport": "stop_position",
          "railway": "stop",
          "ref": "NDLS:10",
          "train": "yes"
        }
      },
      {
        "type": "node",
        "id": 938372497,
        "lat": 28.6424462,
        "lon": 77.2201074,
        "tags": {
          "alt_name:ar": "\u0646\u064a\u0648\u062f\u0644\u0647\u064a",
          "alt_name:ks": "\u0646\u0654\u0648 \u062f\u0650\u0644",
          "alt_name:ur": "\u0646\u0626\u06cc \u062f\u0644\u06cc",
          "name": "New Delhi",
          "name:ar": "\u062f\u0644\u0647\u064a \u0627\u0644\u062c\u062f\u064a\u062f\u0629",
          "name:az-Arab": "\u06cc\u0626\u0646\u06cc \u062f\u0647\u0644\u06cc",
          "name:azb": "\u06cc\u0626\u0646\u06cc \u062f\u0647\u0644\u06cc",
          "name:de": "Neu-Delhi",
          "name:el": "\u039d\u03ad\u03bf \u0394\u03b5\u03bb\u03c7\u03af",
          "name:es": "Nueva Delhi",
          "name:grc": "\u039d\u03b5\u03bf\u03b4\u03b5\u03bb\u03af\u03c2",
          "name:hy": "\u0546\u0575\u0578\u0582 \u0534\u0565\u056c\u056b",
          "name:hyw": "\u0546\u056b\u0582 \u054f\u0565\u056c\u0570\u056b",
          "name:ks": "\u0646\u0654\u0648 \u062f\u0644\u06be\u06cc",
          "name:pa": "\u0a28\u0a35\u0a40\u0a02 \u0a26\u0a3f\u0a71\u0a32\u0a40",
          "name:ug": "\u064a\u06d0\u06ad\u0649 \u062f\u06d0\u06be\u0644\u0649",
          "name:ur": "\u0646\u0626\u06cc \u062f\u06c1\u0644\u06cc",
          "public_transport": "stop_position",
          "railway": "stop",
          "ref": "NDLS:5",
          "train": "yes"
        }
      },
      {
        "type": "node",
        "id": 938372516,
        "lat": 28.6425119,
        "lon": 77.220615,
        "tags": {
          "alt_name:ar": "\u0646\u064a\u0648\u062f\u0644\u0647\u064a",
          "alt_name:ks": "\u0646\u0654\u0648 \u062f\u0650\u0644",
          "alt_name:ur": "\u0646\u0626\u06cc \u062f\u0644\u06cc",
          "name": "New Delhi",
          "name:ar": "\u062f\u0644\u0647\u064a \u0627\u0644\u062c\u062f\u064a\u062f\u0629",
          "name:az-Arab": "\u06cc\u0626\u0646\u06cc \u062f\u0647\u0644\u06cc",
          "name:azb": "\u06cc\u0626\u0646\u06cc \u062f\u0647\u0644\u06cc",
          "name:de": "Neu-Delhi",
          "name:el": "\u039d\u03ad\u03bf \u0394\u03b5\u03bb\u03c7\u03af",
          "name:es": "Nueva Delhi",
          "name:grc": "\u039d\u03b5\u03bf\u03b4\u03b5\u03bb\u03af\u03c2",
          "name:hy": "\u0546\u0575\u0578\u0582 \u0534\u0565\u056c\u056b",
          "name:hyw": "\u0546\u056b\u0582 \u054f\u0565\u056c\u0570\u056b",
          "name:ks": "\u0646\u0654\u0648 \u062f\u0644\u06be\u06cc",
          "name:pa": "\u0a28\u0a35\u0a40\u0a02 \u0a26\u0a3f\u0a71\u0a32\u0a40",
          "name:ug": "\u064a\u06d0\u06ad\u0649 \u062f\u06d0\u06be\u0644\u0649",
          "name:ur": "\u0646\u0626\u06cc \u062f\u06c1\u0644\u06cc",
          "public_transport": "stop_position",
          "railway": "stop",
          "ref": "NDLS:9",
          "train": "yes"
        }
      },
      {
        "type": "node",
        "id": 938372549,
        "lat": 28.6423739,
        "lon": 77.2197333,
        "tags": {
          "alt_name:ar": "\u0646\u064a\u0648\u062f\u0644\u0647\u064a",
          "alt_name:ks": "\u0646\u0654\u0648 \u062f\u0650\u0644",
          "alt_name:ur": "\u0646\u0626\u06cc \u062f\u0644\u06cc",
          "electrified": "contact_line",
          "frequency": "50",
          "name": "New Delhi",
          "name:ar": "\u062f\u0644\u0647\u064a \u0627\u0644\u062c\u062f\u064a\u062f\u0629",
          "name:az-Arab": "\u06cc\u0626\u0646\u06cc \u062f\u0647\u0644\u06cc",
          "name:azb": "\u06cc\u0626\u0646\u06cc \u062f\u0647\u0644\u06cc",
          "name:de": "Neu-Delhi",
          "name:el": "\u039d\u03ad\u03bf \u0394\u03b5\u03bb\u03c7\u03af",
          "name:es": "Nueva Delhi",
          "name:grc": "\u039d\u03b5\u03bf\u03b4\u03b5\u03bb\u03af\u03c2",
          "name:hy": "\u0546\u0575\u0578\u0582 \u0534\u0565\u056c\u056b",
          "name:hyw": "\u0546\u056b\u0582 \u054f\u0565\u056c\u0570\u056b",
          "name:ks": "\u0646\u0654\u0648 \u062f\u0644\u06be\u06cc",
          "name:pa": "\u0a28\u0a35\u0a40\u0a02 \u0a26\u0a3f\u0a71\u0a32\u0a40",
          "name:ug": "\u064a\u06d0\u06ad\u0649 \u062f\u06d0\u06be\u0644\u0649",
          "name:ur": "\u0646\u0626\u06cc \u062f\u06c1\u0644\u06cc",
          "public_transport": "stop_position",
          "railway": "stop",
          "ref": "NDLS:2",
          "train": "yes",
          "usage": "main",
          "voltage": "25000"
        }
      },
      {
        "type": "node",
        "id": 938372552,
        "lat": 28.642417,
        "lon": 77.2199605,
        "tags": {
          "alt_name:ar": "\u0646\u064a\u0648\u062f\u0644\u0647\u064a",
          "alt_name:ks": "\u0646\u0654\u0648 \u062f\u0650\u0644",
          "alt_name:ur": "\u0646\u0626\u06cc \u062f\u0644\u06cc",
          "name": "New Delhi",
          "name:ar": "\u062f\u0644\u0647\u064a \u0627\u0644\u062c\u062f\u064a\u062f\u0629",
          "name:az-Arab": "\u06cc\u0626\u0646\u06cc \u062f\u0647\u0644\u06cc",
          "name:azb": "\u06cc\u0626\u0646\u06cc \u062f\u0647\u0644\u06cc",
          "name:de": "Neu-Delhi",
          "name:el": "\u039d\u03ad\u03bf \u0394\u03b5\u03bb\u03c7\u03af",
          "name:es": "Nueva Delhi",
          "name:grc": "\u039d\u03b5\u03bf\u03b4\u03b5\u03bb\u03af\u03c2",
          "name:hy": "\u0546\u0575\u0578\u0582 \u0534\u0565\u056c\u056b",
          "name:hyw": "\u0546\u056b\u0582 \u054f\u0565\u056c\u0570\u056b",
          "name:ks": "\u0646\u0654\u0648 \u062f\u0644\u06be\u06cc",
          "name:pa": "\u0a28\u0a35\u0a40\u0a02 \u0a26\u0a3f\u0a71\u0a32\u0a40",
          "name:ug": "\u064a\u06d0\u06ad\u0649 \u062f\u06d0\u06be\u0644\u0649",
          "name:ur": "\u0646\u0626\u06cc \u062f\u06c1\u0644\u06cc",
          "public_transport": "stop_position",
          "railway": "stop",
          "ref": "NDLS:4",
          "train": "yes"
        }
      },
      {
        "type": "node",
        "id": 938372557,
        "lat": 28.6425394,
        "lon": 77.2208372,
        "tags": {
          "alt_name:ar": "\u0646\u064a\u0648\u062f\u0644\u0647\u064a",
          "alt_name:ks": "\u0646\u0654\u0648 \u062f\u0650\u0644",
          "alt_name:ur": "\u0646\u0626\u06cc \u062f\u0644\u06cc",
          "name": "New Delhi",
          "name:ar": "\u062f\u0644\u0647\u064a \u0627\u0644\u062c\u062f\u064a\u062f\u0629",
          "name:az-Arab": "\u06cc\u0626\u0646\u06cc \u062f\u0647\u0644\u06cc",
          "name:azb": "\u06cc\u0626\u0646\u06cc \u062f\u0647\u0644\u06cc",
          "name:de": "Neu-Delhi",
          "name:el": "\u039d\u03ad\u03bf \u0394\u03b5\u03bb\u03c7\u03af",
          "name:es": "Nueva Delhi",
          "name:grc": "\u039d\u03b5\u03bf\u03b4\u03b5\u03bb\u03af\u03c2",
          "name:hy": "\u0546\u0575\u0578\u0582 \u0534\u0565\u056c\u056b",
          "name:hyw": "\u0546\u056b\u0582 \u054f\u0565\u056c\u0570\u056b",
          "name:ks": "\u0646\u0654\u0648 \u062f\u0644\u06be\u06cc",
          "name:pa": "\u0a28\u0a35\u0a40\u0a02 \u0a26\u0a3f\u0a71\u0a32\u0a40",
          "name:ug": "\u064a\u06d0\u06ad\u0649 \u062f\u06d0\u06be\u0644\u0649",
          "name:ur": "\u0646\u0626\u06cc \u062f\u06c1\u0644\u06cc",
          "public_transport": "stop_position",
          "railway": "stop",
          "ref": "NDLS:11",
          "train": "yes"
        }
      },
      {
        "type": "node",
        "id": 938372570,
        "lat": 28.642495,
        "lon": 77.220482,
        "tags": {
          "alt_name:ar": "\u0646\u064a\u0648\u062f\u0644\u0647\u064a",
          "alt_name:ks": "\u0646\u0654\u0648 \u062f\u0650\u0644",
          "alt_name:ur": "\u0646\u0626\u06cc \u062f\u0644\u06cc",
          "name": "New Delhi",
          "name:ar": "\u062f\u0644\u0647\u064a \u0627\u0644\u062c\u062f\u064a\u062f\u0629",
          "name:az-Arab": "\u06cc\u0626\u0646\u06cc \u062f\u0647\u0644\u06cc",
          "name:azb": "\u06cc\u0626\u0646\u06cc \u062f\u0647\u0644\u06cc",
          "name:de": "Neu-Delhi",
          "name:el": "\u039d\u03ad\u03bf \u0394\u03b5\u03bb\u03c7\u03af",
          "name:es": "Nueva Delhi",
          "name:grc": "\u039d\u03b5\u03bf\u03b4\u03b5\u03bb\u03af\u03c2",
          "name:hy": "\u0546\u0575\u0578\u0582 \u0534\u0565\u056c\u056b",
          "name:hyw": "\u0546\u056b\u0582 \u054f\u0565\u056c\u0570\u056b",
          "name:ks": "\u0646\u0654\u0648 \u062f\u0644\u06be\u06cc",
          "name:pa": "\u0a28\u0a35\u0a40\u0a02 \u0a26\u0a3f\u0a71\u0a32\u0a40",
          "name:ug": "\u064a\u06d0\u06ad\u0649 \u062f\u06d0\u06be\u0644\u0649",
          "name:ur": "\u0646\u0626\u06cc \u062f\u06c1\u0644\u06cc",
          "public_transport": "stop_position",
          "railway": "stop",
          "ref": "NDLS:8",
          "train": "yes"
        }
      },
      {
        "type": "node",
        "id": 938372581,
        "lat": 28.6423596,
        "lon": 77.2196366,
        "tags": {
          "alt_name:ar": "\u0646\u064a\u0648\u062f\u0644\u0647\u064a",
          "alt_name:ks": "\u0646\u0654\u0648 \u062f\u0650\u0644",
          "alt_name:ur": "\u0646\u0626\u06cc \u062f\u0644\u06cc",
          "name": "New Delhi",
          "name:ar": "\u062f\u0644\u0647\u064a \u0627\u0644\u062c\u062f\u064a\u062f\u0629",
          "name:az-Arab": "\u06cc\u0626\u0646\u06cc \u062f\u0647\u0644\u06cc",
          "name:azb": "\u06cc\u0626\u0646\u06cc \u062f\u0647\u0644\u06cc",
          "name:de": "Neu-Delhi",
          "name:el": "\u039d\u03ad\u03bf \u0394\u03b5\u03bb\u03c7\u03af",
          "name:es": "Nueva Delhi",
          "name:grc": "\u039d\u03b5\u03bf\u03b4\u03b5\u03bb\u03af\u03c2",
          "name:hy": "\u0546\u0575\u0578\u0582 \u0534\u0565\u056c\u056b",
          "name:hyw": "\u0546\u056b\u0582 \u054f\u0565\u056c\u0570\u056b",
          "name:ks": "\u0646\u0654\u0648 \u062f\u0644\u06be\u06cc",
          "name:pa": "\u0a28\u0a35\u0a40\u0a02 \u0a26\u0a3f\u0a71\u0a32\u0a40",
          "name:ug": "\u064a\u06d0\u06ad\u0649 \u062f\u06d0\u06be\u0644\u0649",
          "name:ur": "\u0646\u0626\u06cc \u062f\u06c1\u0644\u06cc",
          "public_transport": "stop_position",
          "railway": "stop",
          "ref": "NDLS:1",
          "train": "yes"
        }
      },
      {
        "type": "node",
        "id": 938372585,
        "lat": 28.6424082,
        "lon": 77.2199116,
        "tags": {
          "alt_name:ar": "\u0646\u064a\u0648\u062f\u0644\u0647\u064a",
          "alt_name:ks": "\u0646\u0654\u0648 \u062f\u0650\u0644",
          "alt_name:ur": "\u0646\u0626\u06cc \u062f\u0644\u06cc",
          "name": "New Delhi",
          "name:ar": "\u062f\u0644\u0647\u064a \u0627\u0644\u062c\u062f\u064a\u062f\u0629",
          "name:az-Arab": "\u06cc\u0626\u0646\u06cc \u062f\u0647\u0644\u06cc",
          "name:azb": "\u06cc\u0626\u0646\u06cc \u062f\u0647\u0644\u06cc",
          "name:de": "Neu-Delhi",
          "name:el": "\u039d\u03ad\u03bf \u0394\u03b5\u03bb\u03c7\u03af",
          "name:es": "Nueva Delhi",
          "name:grc": "\u039d\u03b5\u03bf\u03b4\u03b5\u03bb\u03af\u03c2",
          "name:hy": "\u0546\u0575\u0578\u0582 \u0534\u0565\u056c\u056b",
          "name:hyw": "\u0546\u056b\u0582 \u054f\u0565\u056c\u0570\u056b",
          "name:ks": "\u0646\u0654\u0648 \u062f\u0644\u06be\u06cc",
          "name:pa": "\u0a28\u0a35\u0a40\u0a02 \u0a26\u0a3f\u0a71\u0a32\u0a40",
          "name:ug": "\u064a\u06d0\u06ad\u0649 \u062f\u06d0\u06be\u0644\u0649",
          "name:ur": "\u0646\u0626\u06cc \u062f\u06c1\u0644\u06cc",
          "public_transport": "stop_position",
          "railway": "stop",
          "ref": "NDLS:3",
          "train": "yes"
        }
      },
      {
        "type": "node",
        "id": 974361599,
        "lat": 28.6411555,
        "lon": 77.2108258,
        "tags": {
          "amenity": "cinema",
          "name": "Imperial"
        }
      },
      {
        "type": "node",
        "id": 1669069398,
        "lat": 28.6397503,
        "lon": 77.1739956,
        "tags": {
          "amenity": "fuel"
        }
      },
      {
        "type": "node",
        "id": 1669092652,
        "lat": 28.6396139,
        "lon": 77.1740466,
        "tags": {
          "amenity": "fuel"
        }
      },
      {
        "type": "node",
        "id": 1669092717,
        "lat": 28.640496,
        "lon": 77.1741764,
        "tags": {
          "amenity": "bus_station",
          "bus": "yes",
          "name": "Pusa Institute",
          "name:ur": "\u067e\u0648\u0633\u0627 \u0627\u0646\u0633\u0679\u06cc\u0679\u06cc\u0648\u0679",
          "public_transport": "station"
        }
      },
      {
        "type": "node",
        "id": 1988513580,
        "lat": 28.6627442,
        "lon": 77.1979077,
        "tags": {
          "alt_name": "Delhi Kishan Ganj",
          "alt_name:ur": "\u062f\u06c1\u0644\u06cc \u06a9\u0634\u0646 \u06af\u0646\u062c",
          "internet_access": "no",
          "name": "Delhi Kishanganj",
          "name:ur": "\u062f\u06c1\u0644\u06cc \u06a9\u0650\u0634\u0646 \u06af\u0646\u062c",
          "network": "IR",
          "operator": "NR",
          "public_transport": "station",
          "railway": "station",
          "ref": "DKZ",
          "train": "yes",
          "wikidata": "Q6416546",
          "wikipedia": "en:Kishanganj railway station"
        }
      },
      {
        "type": "node",
        "id": 1988513600,
        "lat": 28.6644729,
        "lon": 77.1838135,
        "tags": {
          "alt_name": "Sarai Rohilla",
          "internet_access": "no",
          "name": "Vivekanand Puri",
          "network": "IR",
          "operator": "NR",
          "public_transport": "station",
          "railway": "station",
          "ref": "WKP",
          "train": "yes",
          "wikidata": "Q12453008"
        }
      },
      {
        "type": "node",
        "id": 4122590190,
        "lat": 28.6288906,
        "lon": 77.210219,
        "tags": {
          "amenity": "fuel",
          "brand": "Bharat Petroleum",
          "brand:wikidata": "Q854826",
          "name": "Bharat Petroleum"
        }
      },
      {
        "type": "node",
        "id": 5338584665,
        "lat": 28.6259776,
        "lon": 77.2032745,
        "tags": {
          "amenity": "theatre",
          "name": "Akshara",
          "name:hi": "\u0905\u0915\u094d\u0937\u0930"
        }
      },
      {
        "type": "node",
        "id": 5537643921,
        "lat": 28.6483622,
        "lon": 77.213419,
        "tags": {
          "amenity": "fuel"
        }
      },
      {
        "type": "node",
        "id": 5638613753,
        "lat": 28.6444395,
        "lon": 77.1987994,
        "tags": {
          "amenity": "fuel"
        }
      },
      {
        "type": "node",
        "id": 5638613754,
        "lat": 28.6450079,
        "lon": 77.1989094,
        "tags": {
          "amenity": "fuel"
        }
      },
      {
        "type": "node",
        "id": 5737167211,
        "lat": 28.6392594,
        "lon": 77.2085944,
        "tags": {
          "name": "Ramakrishna Ashram Marg",
          "network": "Delhi Metro",
          "note": "Contributors are requested to not edit the \"network\" and the \"operator\" tags. (2023/06/22)",
          "operator": "Delhi Metro Rail Corporation Limited",
          "public_transport": "stop_position",
          "railway": "stop",
          "subway": "yes"
        }
      },
      {
        "type": "node",
        "id": 5737167621,
        "lat": 28.6443363,
        "lon": 77.1999274,
        "tags": {
          "name": "Jhandewalan",
          "name:kn": "\u0c9d\u0cbe\u0c82\u0ca1\u0cc6\u0cb5\u0cbe\u0cb2\u0ca8\u0ccd",
          "network": "Delhi Metro",
          "note": "Contributors are requested to not edit the \"network\" and the \"operator\" tags. (2023/06/22)",
          "operator": "Delhi Metro Rail Corporation Limited",
          "public_transport": "stop_position",
          "railway": "stop",
          "subway": "yes"
        }
      },
      {
        "type": "node",
        "id": 5737167627,
        "lat": 28.6440313,
        "lon": 77.1885202,
        "tags": {
          "name": "Karol Bagh",
          "name:hi": "\u0915\u0930\u094b\u0932 \u092c\u093e\u0917",
          "name:kn": "\u0c95\u0cb0\u0ccb\u0cb2\u0ccd \u0cad\u0cbe\u0c97\u0ccd",
          "network": "Delhi Metro",
          "note": "Contributors are requested to not edit the \"network\" and the \"operator\" tags. (2023/06/22)",
          "operator": "Delhi Metro Rail Corporation Limited",
          "public_transport": "stop_position",
          "railway": "stop",
          "subway": "yes"
        }
      },
      {
        "type": "node",
        "id": 5737167628,
        "lat": 28.6425172,
        "lon": 77.1782713,
        "tags": {
          "name": "Rajendra Place",
          "name:kn": "\u0cb0\u0cbe\u0c9c\u0cc7\u0c82\u0ca6\u0ccd\u0cb0 \u0caa\u0ccd\u0caf\u0cbe\u0cb2\u0cc7\u0cb8\u0ccd",
          "network": "Delhi Metro",
          "note": "Contributors are requested to not edit the \"network\" and the \"operator\" tags. (2023/06/22)",
          "operator": "Delhi Metro Rail Corporation Limited",
          "public_transport": "stop_position",
          "railway": "stop",
          "subway": "yes"
        }
      },
      {
        "type": "node",
        "id": 5758574006,
        "lat": 28.6425083,
        "lon": 77.1764239,
        "tags": {
          "amenity": "fuel",
          "brand": "Bharat Petroleum",
          "brand:wikidata": "Q854826",
          "name": "Bharat Petroleum"
        }
      },
      {
        "type": "node",
        "id": 5781445033,
        "lat": 28.6424955,
        "lon": 77.1782756,
        "tags": {
          "name": "Rajendra Place",
          "name:hi": "\u0930\u093e\u091c\u0947\u0902\u0926\u094d\u0930 \u092a\u094d\u0932\u0947\u0938",
          "name:kn": "\u0cb0\u0cbe\u0c9c\u0cc7\u0c82\u0ca6\u0ccd\u0cb0 \u0caa\u0ccd\u0caf\u0cbe\u0cb2\u0cc7\u0cb8\u0ccd",
          "network": "Delhi Metro",
          "note": "Contributors are requested to not edit the \"network\" and the \"operator\" tags. (2023/06/23)",
          "operator": "Delhi Metro Rail Corporation Limited",
          "railway": "station",
          "station": "subway",
          "wikidata": "Q7286033",
          "wikipedia": "en:Rajendra Place metro station"
        }
      },
      {
        "type": "node",
        "id": 5854161857,
        "lat": 28.658087,
        "lon": 77.2170087,
        "tags": {
          "internet_access": "no",
          "name": "Sadar Bazar",
          "name:hi": "\u0938\u0926\u0930 \u092c\u093e\u091c\u093c\u093e\u0930",
          "name:ur": "\u0635\u062f\u0631 \u0628\u0627\u0632\u0627\u0631",
          "network": "IR",
          "operator": "NR",
          "public_transport": "station",
          "railway": "station",
          "ref": "DSB",
          "train": "yes",
          "wheelchair": "yes",
          "wikidata": "Q24947943",
          "wikipedia": "en:Sadar Bazar railway station"
        }
      },
      {
        "type": "node",
        "id": 6507350891,
        "lat": 28.657125,
        "lon": 77.1960191,
        "tags": {
          "amenity": "fuel",
          "brand": "Indian Oil",
          "brand:wikidata": "Q1289348",
          "name": "Indian Oil"
        }
      },
      {
        "type": "node",
        "id": 6539894849,
        "lat": 28.6443188,
        "lon": 77.1999165,
        "tags": {
          "name": "Jhandewalan",
          "name:hi": "\u091d\u0902\u0921\u0947\u0935\u093e\u0932\u093e\u0928",
          "name:kn": "\u0c9d\u0cbe\u0c82\u0ca1\u0cc6\u0cb5\u0cbe\u0cb2\u0ca8\u0ccd",
          "network": "Delhi Metro",
          "network:wikidata": "Q271195",
          "note": "Contributors are requested to not edit the \"network\" and the \"operator\" tags. (2023/06/22)",
          "operator": "Delhi Metro Rail Corporation Limited",
          "operator:wikidata": "Q1029339",
          "public_transport": "station",
          "railway": "station",
          "station": "subway",
          "subway": "yes",
          "wikidata": "Q6190836",
          "wikipedia": "en:Jhandewalan metro station"
        }
      },
      {
        "type": "node",
        "id": 6539894850,
        "lat": 28.6392436,
        "lon": 77.2085787,
        "tags": {
          "name": "Ramakrishna Ashram Marg",
          "name:hi": "\u0930\u093e\u092e\u0915\u0943\u0937\u094d\u0923 \u0906\u0936\u094d\u0930\u092e \u092e\u093e\u0930\u094d\u0917",
          "network": "Delhi Metro",
          "network:wikidata": "Q271195",
          "note": "Contributors are requested to not edit the \"network\" and the \"operator\" tags. (2023/06/22)",
          "operator": "Delhi Metro Rail Corporation Limited",
          "operator:wikidata": "Q1029339",
          "public_transport": "station",
          "railway": "station",
          "station": "subway",
          "subway": "yes",
          "wikidata": "Q7288800",
          "wikipedia": "en:Ramakrishna Ashram Marg metro station"
        }
      },
      {
        "type": "node",
        "id": 6547772123,
        "lat": 28.6439905,
        "lon": 77.1885276,
        "tags": {
          "name": "Karol Bagh",
          "name:hi": "\u0915\u0930\u094b\u0932 \u092c\u093e\u0917",
          "name:kn": "\u0c95\u0cb0\u0ccb\u0cb2\u0ccd \u0cad\u0cbe\u0c97\u0ccd",
          "network": "Delhi Metro",
          "note": "Contributors are requested to not edit the \"network\" and the \"operator\" tags. (2023/06/22)",
          "operator": "Delhi Metro Rail Corporation Limited",
          "public_transport": "stop_position",
          "railway": "stop",
          "subway": "yes"
        }
      },
      {
        "type": "node",
        "id": 6743312153,
        "lat": 28.6442084,
        "lon": 77.1882129,
        "tags": {
          "public_transport": "stop_position",
          "share_taxi": "yes"
        }
      },
      {
        "type": "node",
        "id": 6743318629,
        "lat": 28.6528118,
        "lon": 77.192371,
        "tags": {
          "public_transport": "stop_position",
          "share_taxi": "yes"
        }
      },
      {
        "type": "node",
        "id": 7037640885,
        "lat": 28.6594215,
        "lon": 77.190059,
        "tags": {
          "amenity": "cinema",
          "name": "Liberty Cinema"
        }
      },
      {
        "type": "node",
        "id": 7274125614,
        "lat": 28.6311731,
        "lon": 77.204936,
        "tags": {
          "amenity": "theatre",
          "name": "Muktadhara Auditorium"
        }
      },
      {
        "type": "node",
        "id": 9544997484,
        "lat": 28.6480292,
        "lon": 77.2008439,
        "tags": {
          "amenity": "bus_station",
          "bench": "yes",
          "bus": "yes",
          "name": "Karol Bagh Terminal",
          "operator": "DTC",
          "public_transport": "station",
          "shelter": "yes"
        }
      },
      {
        "type": "node",
        "id": 9730042238,
        "lat": 28.6436988,
        "lon": 77.196868,
        "tags": {
          "bus": "yes",
          "name": "Karol Bagh",
          "public_transport": "stop_position"
        }
      },
      {
        "type": "node",
        "id": 11765231237,
        "lat": 28.648275,
        "lon": 77.2008227,
        "tags": {
          "amenity": "bus_station",
          "bench": "yes",
          "bus": "yes",
          "name": "Karol Bagh Terminal",
          "operator": "DTC",
          "public_transport": "station",
          "shelter": "yes"
        }
      },
      {
        "type": "node",
        "id": 11833042043,
        "lat": 28.6512729,
        "lon": 77.2046862,
        "tags": {
          "amenity": "fuel",
          "brand": "Hindustan Petroleum",
          "brand:wikidata": "Q1619375",
          "name": "HP",
          "official_name": "Hindustan Petroleum"
        }
      },
      {
        "type": "node",
        "id": 12186858958,
        "lat": 28.6632589,
        "lon": 77.1856042,
        "tags": {
          "name": "Sarai Rohilla",
          "public_transport": "stop_position",
          "ref": "3",
          "train": "yes"
        }
      }
    ]
  }
}