{
  "pois_1km": {
    "version": 0.6,
    "generator": "Overpass API 0.7.62.8 e802775f",
    "osm3s": {
      "timestamp_osm_base": "2025-09-06T07:24:00Z",
      "copyright": "The data included in this document is from www.openstreetmap.org. The data is made available under ODbL."
    },
    "elements": [
      {
        "type": "node",
        "id": 4299439390,
        "lat": 28.69579,
        "lon": 77.1403379,
        "tags": {
          "name": "Local Shopping Complex",
          "shop": "supermarket"
        }
      },
      {
        "type": "node",
        "id": 4483838798,
        "lat": 28.7009228,
        "lon": 77.1359545,
        "tags": {
          "addr:city": "Delhi",
          "addr:housenumber": "Shop No 2",
          "addr:postcode": "110089",
          "addr:street": "JD24A, PitamPura",
          "amenity": "cafe",
          "name": "Shake square",
          "name:en": "Shake square"
        }
      },
      {
        "type": "node",
        "id": 4483863293,
        "lat": 28.7015222,
        "lon": 77.1351148,
        "tags": {
          "name": "Reliance store",
          "name:en": "Reliance store",
          "shop": "department_store"
        }
      },
      {
        "type": "node",
        "id": 6075069485,
        "lat": 28.6944136,
        "lon": 77.1287968,
        "tags": {
          "addr:postcode": "110034",
          "addr:street": "Maharishi Parshuram Marg",
          "amenity": "hospital",
          "name": "Saral Diagnostics"
        }
      },
      {
        "type": "node",
        "id": 7138632137,
        "lat": 28.700019,
        "lon": 77.141187,
        "tags": {
          "addr:block": "KD",
          "addr:district": "North West",
          "addr:full": "KD-Block, Muni Maya Ram Marg, Pitampura",
          "addr:postcode": "110034",
          "addr:state": "Delhi",
          "addr:suburb": "Pitampura",
          "amenity": "hospital",
          "contact:phone": "27317401",
          "description": "<100 Bedded Hospital",
          "name": "Muni Maya Ram Jain Hospital",
          "source": "OpenGovernmentData"
        }
      },
      {
        "type": "node",
        "id": 7138632146,
        "lat": 28.7061564,
        "lon": 77.1290461,
        "tags": {
          "addr:city": "Delhi",
          "addr:district": "North",
          "addr:full": "Sector-14 Extn., Rohini Madhuban Chowk",
          "addr:postcode": "110085",
          "addr:state": "Delhi",
          "addr:street": "Nr Madhuban Chowk",
          "amenity": "hospital",
          "contact:phone": "27903333",
          "description": "011 4944 4444\nhttp://www.sarojhospital.com/",
          "emergency": "yes",
          "healthcare": "hospital",
          "healthcare:speciality": "general",
          "name": "Saroj Hospital",
          "source": "OpenGovernmentData"
        }
      },
      {
        "type": "node",
        "id": 7138632175,
        "lat": 28.7044629,
        "lon": 77.1355978,
        "tags": {
          "addr:district": "North West",
          "addr:full": "CD-Block, Vishaka Enclave, Pitampura",
          "addr:postcode": "110034",
          "addr:state": "Delhi",
          "amenity": "clinic",
          "contact:phone": "27324895",
          "description": "Dispensaries",
          "health_facility:type": "dispensary",
          "healthcare": "centre",
          "name": "DGD Pitampura",
          "source": "OpenGovernmentData"
        }
      },
      {
        "type": "node",
        "id": 7138632198,
        "lat": 28.6972083,
        "lon": 77.1267268,
        "tags": {
          "addr:district": "North West",
          "addr:full": "C-Block, Guru Sandeepan Marg, Near Sbi Bank, Saraswati Vihar",
          "addr:postcode": "110034",
          "addr:state": "Delhi",
          "amenity": "clinic",
          "contact:phone": "27023849",
          "description": "Dispensaries",
          "health_facility:type": "dispensary",
          "healthcare": "centre",
          "name": "Aam aadmi polyclinic, Saraswati Vihar",
          "source": "OpenGovernmentData"
        }
      },
      {
        "type": "node",
        "id": 7138632208,
        "lat": 28.7057477,
        "lon": 77.1294721,
        "tags": {
          "addr:city": "New Delhi",
          "addr:district": "North",
          "addr:full": "Sector-14 Extension, Near Madhuban Chowk, Rohini",
          "addr:neighbourhood": "Sector 14",
          "addr:postcode": "110085",
          "addr:state": "Delhi",
          "addr:street": "Bhagwan Mahavir Marg",
          "addr:suburb": "Rohini",
          "amenity": "hospital",
          "contact:phone": "+91-11-2755-0441;+91-11-4993-4042",
          "description": "<100 Bedded Hospital",
          "healthcare:speciality": "general",
          "name": "Bhagwan Mahavir Super Speciality Hospital",
          "operator": "Charitable trust",
          "operator:type": "private",
          "source": "OpenGovernmentData"
        }
      },
      {
        "type": "node",
        "id": 7545203207,
        "lat": 28.6942651,
        "lon": 77.1302581,
        "tags": {
          "addr:district": "North West Delhi",
          "addr:full": "50, Shakti Vihar, Near Government Primary School, Pitam Pura",
          "addr:postcode": "110034",
          "addr:state": "Delhi",
          "amenity": "hospital",
          "name": "Shri Multan Sewa Samiti Eye Care Hospital",
          "source": "Local Knowledge"
        }
      },
      {
        "type": "node",
        "id": 7545203236,
        "lat": 28.6944125,
        "lon": 77.129999,
        "tags": {
          "addr:district": "North West Delhi",
          "addr:full": "11, Parwana Road, Shakti Vihar, Pitam Pura",
          "addr:postcode": "110034",
          "addr:state": "Delhi",
          "amenity": "doctors",
          "name": "Dr. Rajeev Arora",
          "source": "Local Knowledge"
        }
      },
      {
        "type": "node",
        "id": 7887163357,
        "lat": 28.7008342,
        "lon": 77.1361351,
        "tags": {
          "addr:city": "Delhi",
          "addr:housenumber": "Shop No 2 JD21A",
          "addr:postcode": "110089",
          "addr:street": "Pitampura",
          "amenity": "restaurant",
          "cuisine": "Samosa;burger;Gulab_Jamun",
          "name": "TMR Samosa"
        }
      },
      {
        "type": "node",
        "id": 11578114948,
        "lat": 28.7050206,
        "lon": 77.1299643,
        "tags": {
          "amenity": "atm",
          "brand": "Punjab National Bank",
          "level": "0",
          "operator": "Punjab National Bank",
          "operator:wikidata": "Q2743499"
        }
      },
      {
        "type": "node",
        "id": 11590988873,
        "lat": 28.7001373,
        "lon": 77.1412257,
        "tags": {
          "amenity": "pharmacy",
          "contact:phone": "+91-11-4550-4613",
          "delivery": "yes",
          "healthcare": "pharmacy",
          "name": "Jain Medicos",
          "opening_hours": "24/7"
        }
      },
      {
        "type": "node",
        "id": 11692125040,
        "lat": 28.6956983,
        "lon": 77.1316889,
        "tags": {
          "leisure": "park"
        }
      },
      {
        "type": "node",
        "id": 11708683614,
        "lat": 28.6939522,
        "lon": 77.1304674,
        "tags": {
          "addr:housenumber": "Pitampura",
          "addr:street": "66, Shakti Vihar",
          "amenity": "restaurant",
          "name": "Culinaria by Meet",
          "opening_hours": "Mo-Su 11:00-00:00",
          "phone": "07290083344"
        }
      },
      {
        "type": "node",
        "id": 11778838197,
        "lat": 28.6959517,
        "lon": 77.1315769,
        "tags": {
          "leisure": "park"
        }
      },
      {
        "type": "node",
        "id": 12512081938,
        "lat": 28.694877,
        "lon": 77.1346958,
        "tags": {
          "addr:city": "Delhi",
          "addr:postcode": "110034",
          "addr:street": "Lok Vihar",
          "amenity": "bank",
          "atm": "yes",
          "drive_through": "no",
          "name": "ICICI Bank",
          "opening_hours": "Mo-Fr 09:00-17:00",
          "operator": "ICICI"
        }
      }
    ]
  },
  "pois_2_5km": {
    "version": 0.6,
    "generator": "Overpass API 0.7.62.8 e802775f",
    "osm3s": {
      "timestamp_osm_base": "2025-09-06T07:24:00Z",
      "copyright": "The data included in this document is from www.openstreetmap.org. The data is made available under ODbL."
    },
    "elements": [
      {
        "type": "node",
        "id": 311963955,
        "lat": 28.6980415,
        "lon": 77.1405393,
        "tags": {
          "name": "Kohat Enclave",
          "name:hi": "\u0915\u094b\u0939\u093e\u091f \u090f\u0928\u0915\u094d\u0932\u0947\u0935",
          "network": "Delhi Metro",
          "note": "Contributors are requested to not edit the \"network\" and the \"operator\" tags. (2023/06/22)",
          "operator": "Delhi Metro Rail Corporation Limited",
          "public_transport": "station",
          "railway": "station",
          "station": "subway",
          "subway": "yes",
          "wikidata": "Q6425927",
          "wikipedia": "en:Kohat Enclave metro station"
        }
      },
      {
        "type": "node",
        "id": 663762964,
        "lat": 28.6960485,
        "lon": 77.1524856,
        "tags": {
          "name": "Netaji Subhash Place (Red Line)",
          "name:hi": "\u0928\u0947\u0924\u093e\u091c\u0940 \u0938\u0941\u092d\u093e\u0937 \u092a\u094d\u0932\u0947\u0938",
          "network": "Delhi Metro",
          "note": "Contributors are requested to not edit the \"network\" and the \"operator\" tags. (2023/06/22)",
          "operator": "Delhi Metro Rail Corporation Limited",
          "public_transport": "station",
          "railway": "station",
          "station": "subway",
          "subway": "yes",
          "wikidata": "Q6998648",
          "wikipedia": "en:Netaji Subhash Place metro station"
        }
      },
      {
        "type": "node",
        "id": 663765153,
        "lat": 28.7032676,
        "lon": 77.1322497,
        "tags": {
          "name": "Pitam Pura",
          "name:hi": "\u092a\u0940\u0924\u092e\u092a\u0941\u0930\u093e",
          "name:ur": "\u067e\u06cc\u062a\u0645 \u067e\u0648\u0631\u06c1",
          "network": "Delhi Metro",
          "note": "Contributors are requested to not edit the \"network\" and the \"operator\" tags. (2023/06/22)",
          "operator": "Delhi Metro Rail Corporation Limited",
          "public_transport": "station",
          "railway": "station",
          "station": "subway",
          "subway": "yes",
          "wheelchair": "limited",
          "wikidata": "Q7198601",
          "wikipedia": "en:Pitampura metro station"
        }
      },
      {
        "type": "node",
        "id": 663766390,
        "lat": 28.7075774,
        "lon": 77.1259971,
        "tags": {
          "name": "Rohini East",
          "name:hi": "\u0930\u094b\u0939\u093f\u0923\u0940 \u0908\u0938\u094d\u091f",
          "network": "Delhi Metro",
          "note": "Contributors are requested to not edit the \"network\" and the \"operator\" tags. (2023/06/22)",
          "operator": "Delhi Metro Rail Corporation Limited",
          "public_transport": "station",
          "railway": "station",
          "station": "subway",
          "subway": "yes",
          "wheelchair": "limited",
          "wikidata": "Q11351030",
          "wikipedia": "en:Rohini East metro station"
        }
      },
      {
        "type": "node",
        "id": 1014350394,
        "lat": 28.7026476,
        "lon": 77.1583077,
        "tags": {
          "amenity": "cinema",
          "name": "DT City Center"
        }
      },
      {
        "type": "node",
        "id": 1825166559,
        "lat": 28.7008618,
        "lon": 77.1151548,
        "tags": {
          "amenity": "fuel"
        }
      },
      {
        "type": "node",
        "id": 1825425942,
        "lat": 28.6814073,
        "lon": 77.1275679,
        "tags": {
          "internet_access": "no",
          "name": "Shakurbasti",
          "name:ur": "\u0634\u06a9\u0648\u0631 \u0628\u0633\u062a\u06cc",
          "network": "IR",
          "operator": "NR",
          "public_transport": "station",
          "railway": "station",
          "ref": "SSB",
          "train": "yes",
          "wikidata": "Q24947948"
        }
      },
      {
        "type": "node",
        "id": 2833531954,
        "lat": 28.6859099,
        "lon": 77.1494753,
        "tags": {
          "name": "Shakurpur",
          "name:hi": "\u0936\u0915\u0942\u0930\u092a\u0941\u0930",
          "network": "Delhi Metro",
          "note": "Contributors are requested to not edit the \"network\" and the \"operator\" tags. (2023/06/22)",
          "operator": "Delhi Metro Rail Corporation Limited",
          "public_transport": "stop_position",
          "railway": "stop",
          "subway": "yes"
        }
      },
      {
        "type": "node",
        "id": 2833531964,
        "lat": 28.6947226,
        "lon": 77.1542356,
        "tags": {
          "name": "Netaji Subhash Place (Pink Line)",
          "name:hi": "\u0928\u0947\u0924\u093e\u091c\u0940 \u0938\u0941\u092d\u093e\u0937 \u092a\u094d\u0932\u0947\u0938",
          "network": "Delhi Metro",
          "note": "Contributors are requested to not edit the \"network\" and the \"operator\" tags. (2023/06/23)",
          "operator": "Delhi Metro Rail Corporation Limited",
          "public_transport": "stop_position",
          "railway": "stop",
          "subway": "yes"
        }
      },
      {
        "type": "node",
        "id": 4330973390,
        "lat": 28.6896904,
        "lon": 77.1351273,
        "tags": {
          "amenity": "fuel"
        }
      },
      {
        "type": "node",
        "id": 4511544390,
        "lat": 28.7011545,
        "lon": 77.1163405,
        "tags": {
          "amenity": "theatre",
          "name": "M2K"
        }
      },
      {
        "type": "node",
        "id": 5777614216,
        "lat": 28.7075969,
        "lon": 77.1260218,
        "tags": {
          "name": "Rohini East",
          "name:hi": "\u0930\u094b\u0939\u093f\u0923\u0940 \u0908\u0938\u094d\u091f",
          "public_transport": "stop_position",
          "subway": "yes"
        }
      },
      {
        "type": "node",
        "id": 5777629837,
        "lat": 28.6947028,
        "lon": 77.1543015,
        "tags": {
          "name": "Netaji Subhash Place (Pink Line)",
          "name:hi": "\u0928\u0947\u0924\u093e\u091c\u0940 \u0938\u0941\u092d\u093e\u0937 \u092a\u094d\u0932\u0947\u0938",
          "network": "Delhi Metro",
          "note": "Contributors are requested to not edit the \"network\" and the \"operator\" tags. (2023/06/23)",
          "operator": "Delhi Metro Rail Corporation Limited",
          "public_transport": "stop_position",
          "railway": "stop",
          "subway": "yes"
        }
      },
      {
        "type": "node",
        "id": 5777630123,
        "lat": 28.6856756,
        "lon": 77.1496639,
        "tags": {
          "name": "Shakurpur",
          "name:hi": "\u0936\u0915\u0942\u0930\u092a\u0941\u0930",
          "network": "Delhi Metro",
          "note": "Contributors are requested to not edit the \"network\" and the \"operator\" tags. (2023/06/22)",
          "operator": "Delhi Metro Rail Corporation Limited",
          "public_transport": "stop_position",
          "railway": "stop",
          "subway": "yes"
        }
      },
      {
        "type": "node",
        "id": 6258194792,
        "lat": 28.6864539,
        "lon": 77.1519609,
        "tags": {
          "amenity": "fuel",
          "brand": "Indian Oil"
        }
      },
      {
        "type": "node",
        "id": 6258194801,
        "lat": 28.6854999,
        "lon": 77.1487473,
        "tags": {
          "amenity": "fuel",
          "brand": "Indraprastha Gas Limited",
          "fuel:cng": "yes"
        }
      },
      {
        "type": "node",
        "id": 6405278634,
        "lat": 28.7075492,
        "lon": 77.1259785,
        "tags": {
          "name": "Rohini East",
          "name:hi": "\u0930\u094b\u0939\u093f\u0923\u0940 \u0908\u0938\u094d\u091f",
          "public_transport": "stop_position",
          "subway": "yes"
        }
      },
      {
        "type": "node",
        "id": 6453992650,
        "lat": 28.6947146,
        "lon": 77.1542607,
        "tags": {
          "name": "Netaji Subhash Place (Pink Line)",
          "name:hi": "\u0928\u0947\u0924\u093e\u091c\u0940 \u0938\u0941\u092d\u093e\u0937 \u092a\u094d\u0932\u0947\u0938",
          "network": "Delhi Metro",
          "note": "Contributors are requested to not edit the \"network\" and the \"operator\" tags. (2023/06/22)",
          "operator": "Delhi Metro Rail Corporation Limited",
          "public_transport": "station",
          "railway": "station",
          "station": "subway",
          "subway": "yes",
          "wikidata": "Q6998648",
          "wikipedia": "en:Netaji Subhash Place metro station"
        }
      },
      {
        "type": "node",
        "id": 6458202841,
        "lat": 28.6857668,
        "lon": 77.1496094,
        "tags": {
          "name": "Shakurpur",
          "name:hi": "\u0936\u0915\u0942\u0930\u092a\u0941\u0930",
          "name:ur": "\u0634\u06a9\u0648\u0631 \u067e\u0648\u0631",
          "network": "Delhi Metro",
          "note": "Contributors are requested to not edit the \"network\" and the \"operator\" tags. (2023/06/22)",
          "operator": "Delhi Metro Rail Corporation Limited",
          "public_transport": "station",
          "railway": "station",
          "station": "subway",
          "subway": "yes",
          "wikidata": "Q28172658",
          "wikipedia": "en:Shakurpur metro station"
        }
      },
      {
        "type": "node",
        "id": 6825399939,
        "lat": 28.6804485,
        "lon": 77.1287805,
        "tags": {
          "name": "Shakur Basti",
          "name:hi": "\u0936\u0915\u0942\u0930 \u092c\u0938\u094d\u0924\u0940",
          "name:ur": "\u0634\u06a9\u0648\u0631 \u0628\u0633\u062a\u06cc",
          "public_transport": "station",
          "train": "yes"
        }
      },
      {
        "type": "node",
        "id": 6993567623,
        "lat": 28.691873,
        "lon": 77.1534862,
        "tags": {
          "bus": "yes",
          "name": "Wazirpur Depot",
          "public_transport": "stop_position"
        }
      },
      {
        "type": "node",
        "id": 6993567624,
        "lat": 28.691918,
        "lon": 77.1536923,
        "tags": {
          "bus": "yes",
          "name": "Wazirpur Depot",
          "public_transport": "stop_position"
        }
      },
      {
        "type": "node",
        "id": 12031381328,
        "lat": 28.7124023,
        "lon": 77.1360008,
        "tags": {
          "amenity": "cinema",
          "brand": "PVR Cinemas",
          "brand:wikidata": "Q3359908",
          "name": "PVR Cinemas",
          "short_name": "PVR"
        }
      },
      {
        "type": "node",
        "id": 12722875210,
        "lat": 28.7192742,
        "lon": 77.1404461,
        "tags": {
          "advertising": "totem",
          "amenity": "fuel",
          "brand": "Indian Oil",
          "name": "Indian Oil"
        }
      },
      {
        "type": "node",
        "id": 12791142282,
        "lat": 28.7201815,
        "lon": 77.1350893,
        "tags": {
          "public_transport": "stop_position",
          "share_taxi": "yes"
        }
      },
      {
        "type": "node",
        "id": 12791142283,
        "lat": 28.7088448,
        "lon": 77.1249782,
        "tags": {
          "public_transport": "stop_position",
          "share_taxi": "yes"
        }
      }
    ]
  }
}