{
  "pois_1km": {
    "version": 0.6,
    "generator": "Overpass API 0.7.62.8 e802775f",
    "osm3s": {
      "timestamp_osm_base": "2025-09-06T07:28:06Z",
      "copyright": "The data included in this document is from www.openstreetmap.org. The data is made available under ODbL."
    },
    "elements": [
      {
        "type": "node",
        "id": 9451667583,
        "lat": 28.7241201,
        "lon": 77.0886094,
        "tags": {
          "addr:street": "shri balaji babosa marg",
          "amenity": "restaurant",
          "name": "Chaap factory"
        }
      },
      {
        "type": "node",
        "id": 11009508923,
        "lat": 28.7328276,
        "lon": 77.0885737,
        "tags": {
          "addr:city": "New Delhi",
          "addr:postcode": "110085",
          "addr:street": "Sector 23 Road",
          "level": "1",
          "name": "The Super Market",
          "shop": "supermarket"
        }
      },
      {
        "type": "node",
        "id": 11009508924,
        "lat": 28.7326849,
        "lon": 77.0884608,
        "tags": {
          "addr:city": "New Delhi",
          "addr:postcode": "110085",
          "amenity": "bank",
          "atm": "yes",
          "branch": "Sector-24, Rohini",
          "brand": "State Bank of India",
          "brand:wikidata": "Q1340361",
          "name": "State Bank of India",
          "short_name": "SBI"
        }
      },
      {
        "type": "node",
        "id": 11009542445,
        "lat": 28.7308098,
        "lon": 77.0867721,
        "tags": {
          "addr:city": "New Delhi",
          "addr:postcode": "110085",
          "addr:street": "Sector 23 Road",
          "amenity": "fast_food",
          "name": "Modakwala"
        }
      },
      {
        "type": "node",
        "id": 11009544105,
        "lat": 28.7308683,
        "lon": 77.0868336,
        "tags": {
          "addr:city": "New Delhi",
          "addr:postcode": "110085",
          "addr:street": "Sector 23 Road",
          "amenity": "fast_food",
          "name": "Hariram"
        }
      },
      {
        "type": "node",
        "id": 11917110708,
        "lat": 28.7321278,
        "lon": 77.0885115,
        "tags": {
          "addr:postcode": "110085",
          "amenity": "restaurant",
          "name": "24 Tikka Express",
          "phone": "+919319111815"
        }
      },
      {
        "type": "node",
        "id": 11917115004,
        "lat": 28.7327594,
        "lon": 77.088503,
        "tags": {
          "amenity": "bank",
          "brand": "Indian Bank",
          "brand:wikidata": "Q2003789",
          "level": "1",
          "name": "Indian Bank"
        }
      },
      {
        "type": "node",
        "id": 11917129208,
        "lat": 28.7323399,
        "lon": 77.0881948,
        "tags": {
          "amenity": "bank",
          "atm": "yes",
          "brand": "Bank of Baroda",
          "brand:wikidata": "Q2003797",
          "level": "0",
          "name": "Bank of Baroda",
          "wheelchair": "no"
        }
      },
      {
        "type": "node",
        "id": 11917129999,
        "lat": 28.7322032,
        "lon": 77.0880679,
        "tags": {
          "addr:postcode": "110085",
          "amenity": "bank",
          "brand": "Axis Bank",
          "brand:wikidata": "Q2003549",
          "level": "0",
          "name": "Axis Bank",
          "wheelchair": "no"
        }
      },
      {
        "type": "node",
        "id": 11917130005,
        "lat": 28.731353,
        "lon": 77.0878076,
        "tags": {
          "amenity": "restaurant",
          "level": "0",
          "name": "Apni Rasoi"
        }
      },
      {
        "type": "node",
        "id": 11917138776,
        "lat": 28.7319323,
        "lon": 77.0878297,
        "tags": {
          "amenity": "bank",
          "brand": "HDFC Bank",
          "brand:wikidata": "Q631047",
          "name": "HDFC Bank",
          "short_name": "HDFC"
        }
      },
      {
        "type": "node",
        "id": 11917152024,
        "lat": 28.7316296,
        "lon": 77.0880426,
        "tags": {
          "amenity": "restaurant",
          "name": "Wah Ji Wah",
          "website": "http://www.wahjiwahonline.com/"
        }
      },
      {
        "type": "node",
        "id": 11917164472,
        "lat": 28.7317285,
        "lon": 77.0876505,
        "tags": {
          "amenity": "bank",
          "atm": "yes",
          "brand": "Canara Bank",
          "brand:en": "Canara Bank",
          "brand:hi": "\u0915\u0947\u0928\u0930\u093e \u092c\u0948\u0902\u0915",
          "brand:kn": "\u0c95\u0cc6\u0ca8\u0cb0\u0cbe \u0cac\u0ccd\u0caf\u0cbe\u0c82\u0c95\u0ccd",
          "brand:pa": "\u0a15\u0a47\u0a28\u0a30\u0a3e \u0a2c\u0a48\u0a02\u0a15",
          "brand:pnb": "\u06a9\u06cc\u0646\u0631\u0627 \u0628\u06cc\u0646\u06a9",
          "brand:ur": "\u06a9\u06cc\u0646\u0631\u0627 \u0628\u06cc\u0646\u06a9",
          "brand:wikidata": "Q2003777",
          "name": "Canara Bank",
          "name:en": "Canara Bank",
          "name:hi": "\u0915\u0947\u0928\u0930\u093e \u092c\u0948\u0902\u0915",
          "name:kn": "\u0c95\u0cc6\u0ca8\u0cb0\u0cbe \u0cac\u0ccd\u0caf\u0cbe\u0c82\u0c95\u0ccd",
          "name:pa": "\u0a15\u0a47\u0a28\u0a30\u0a3e \u0a2c\u0a48\u0a02\u0a15",
          "name:pnb": "\u06a9\u06cc\u0646\u0631\u0627 \u0628\u06cc\u0646\u06a9",
          "name:ur": "\u06a9\u06cc\u0646\u0631\u0627 \u0628\u06cc\u0646\u06a9"
        }
      },
      {
        "type": "node",
        "id": 11917172685,
        "lat": 28.7262567,
        "lon": 77.0952114,
        "tags": {
          "amenity": "restaurant",
          "name": "Grill Masters"
        }
      },
      {
        "type": "node",
        "id": 11919113271,
        "lat": 28.7269918,
        "lon": 77.0834877,
        "tags": {
          "amenity": "bank",
          "atm": "yes",
          "brand": "Bank of India",
          "brand:wikidata": "Q2004439",
          "level": "0",
          "name": "Bank of India"
        }
      },
      {
        "type": "node",
        "id": 11919132880,
        "lat": 28.7321823,
        "lon": 77.0858799,
        "tags": {
          "amenity": "fast_food",
          "brand": "Domino's",
          "brand:wikidata": "Q839466",
          "cuisine": "pizza",
          "name": "Domino's",
          "takeaway": "yes"
        }
      }
    ]
  },
  "pois_2_5km": {
    "version": 0.6,
    "generator": "Overpass API 0.7.62.8 e802775f",
    "osm3s": {
      "timestamp_osm_base": "2025-09-06T07:28:06Z",
      "copyright": "The data included in this document is from www.openstreetmap.org. The data is made available under ODbL."
    },
    "elements": [
      {
        "type": "node",
        "id": 268381455,
        "lat": 28.7208064,
        "lon": 77.1071813,
        "tags": {
          "name": "Rithala",
          "name:hi": "\u0930\u093f\u0920\u093e\u0932\u093e",
          "name:ur": "\u0631\u0679\u06be\u0627\u0644\u0627",
          "network": "Delhi Metro",
          "note": "Contributors are requested to not edit the \"network\" and the \"operator\" tags. (2023/06/22)",
          "operator": "Delhi Metro Rail Corporation Limited",
          "public_transport": "station",
          "railway": "station",
          "station": "subway",
          "subway": "yes",
          "wikidata": "Q4207358",
          "wikipedia": "en:Rithala metro station"
        }
      },
      {
        "type": "node",
        "id": 3009827645,
        "lat": 28.7212501,
        "lon": 77.1093964,
        "tags": {
          "addr:city": "Sector - 10, Rohini,, Delhi",
          "addr:postcode": "110085",
          "amenity": "fuel"
        }
      },
      {
        "type": "node",
        "id": 3043578397,
        "lat": 28.7180141,
        "lon": 77.1103196,
        "tags": {
          "addr:city": "Sector - 5, Rohini, Delhi",
          "addr:postcode": "110085",
          "amenity": "fuel",
          "name": "Bharat Petroleum"
        }
      },
      {
        "type": "node",
        "id": 5777614209,
        "lat": 28.7207878,
        "lon": 77.1071611,
        "tags": {
          "name": "Rithala",
          "name:hi": "\u0930\u093f\u0920\u093e\u0932\u093e",
          "network": "Delhi Metro",
          "note": "Contributors are requested to not edit the \"network\" and the \"operator\" tags. (2023/06/23)",
          "operator": "Delhi Metro Rail Corporation Limited",
          "public_transport": "stop_position",
          "subway": "yes"
        }
      },
      {
        "type": "node",
        "id": 6405278635,
        "lat": 28.7207504,
        "lon": 77.1071112,
        "tags": {
          "name": "Rithala",
          "name:hi": "\u0930\u093f\u0920\u093e\u0932\u093e",
          "network": "Delhi Metro",
          "note": "Contributors are requested to not edit the \"network\" and the \"operator\" tags. (2023/06/23)",
          "operator": "Delhi Metro Rail Corporation Limited",
          "public_transport": "stop_position",
          "subway": "yes"
        }
      },
      {
        "type": "node",
        "id": 11834901854,
        "lat": 28.7203101,
        "lon": 77.1082353,
        "tags": {
          "bus": "yes",
          "name": "Rithala",
          "public_transport": "stop_position"
        }
      },
      {
        "type": "node",
        "id": 11834901855,
        "lat": 28.7204697,
        "lon": 77.1082335,
        "tags": {
          "bus": "yes",
          "name": "Rithala",
          "public_transport": "stop_position"
        }
      }
    ]
  }
}