{
  "pois_1km": {
    "version": 0.6,
    "generator": "Overpass API 0.7.62.8 e802775f",
    "osm3s": {
      "timestamp_osm_base": "2025-09-06T07:26:02Z",
      "copyright": "The data included in this document is from www.openstreetmap.org. The data is made available under ODbL."
    },
    "elements": [
      {
        "type": "node",
        "id": 3067830699,
        "lat": 28.6297824,
        "lon": 77.2771944,
        "tags": {
          "amenity": "fast_food",
          "diet:lacto_vegetarian": "yes",
          "name": "Shree Ganesh Corner"
        }
      },
      {
        "type": "node",
        "id": 3067834623,
        "lat": 28.6293605,
        "lon": 77.276622,
        "tags": {
          "amenity": "hospital",
          "healthcare": "hospital",
          "name": "Somdatt Medical"
        }
      },
      {
        "type": "node",
        "id": 3067837877,
        "lat": 28.6268496,
        "lon": 77.2773355,
        "tags": {
          "amenity": "clinic",
          "healthcare": "clinic"
        }
      },
      {
        "type": "node",
        "id": 3525609096,
        "lat": 28.630963,
        "lon": 77.276507,
        "tags": {
          "addr:city": "new delhi",
          "addr:housenumber": "319",
          "addr:postcode": "110092",
          "addr:street": "Vikas Marg",
          "ele": "1",
          "name": "Sapp Enterprises",
          "name:en": "Sapp Enterprises",
          "opening_hours": "09:00-18:00",
          "operator": "http://antiwrinkleadvice.com/",
          "shop": "supermarket"
        }
      },
      {
        "type": "node",
        "id": 5437048621,
        "lat": 28.630345,
        "lon": 77.2776021,
        "tags": {
          "amenity": "restaurant",
          "cuisine": "south_indian",
          "name": "House of Anna"
        }
      },
      {
        "type": "node",
        "id": 5437048721,
        "lat": 28.6329164,
        "lon": 77.2808368,
        "tags": {
          "amenity": "restaurant",
          "name": "Priyanshi South Indian Restaurant"
        }
      },
      {
        "type": "node",
        "id": 5807089742,
        "lat": 28.6294048,
        "lon": 77.2774727,
        "tags": {
          "amenity": "atm",
          "brand": "Kotak Mahindra Bank",
          "brand:wikidata": "Q2040404",
          "level": "0",
          "name": "Kotak Mahindra Bank",
          "opening_hours": "24/7",
          "operator": "Kotak Mahindra Bank",
          "operator:wikidata": "Q2040404",
          "wheelchair": "limited"
        }
      },
      {
        "type": "node",
        "id": 5807089744,
        "lat": 28.629533,
        "lon": 77.2773928,
        "tags": {
          "amenity": "atm",
          "brand": "ICICI Bank",
          "brand:en": "ICICI Bank",
          "brand:wikidata": "Q1653258",
          "currency:INR": "yes",
          "drive_through": "no",
          "indoor": "yes",
          "name": "ICICI Bank",
          "note": "Contributors are requested to not edit the \"brand\", \"brand:en\", \"brand:wikidata\", \"operator\", \"operator:en\" and \"operator:wikidata\" tags. (2025/02/19)",
          "opening_hours": "24/7",
          "operator": "ICICI Bank",
          "operator:en": "ICICI Bank",
          "operator:wikidata": "Q1653258",
          "short_name": "ICICI"
        }
      },
      {
        "type": "node",
        "id": 5807089785,
        "lat": 28.6297128,
        "lon": 77.2772883,
        "tags": {
          "amenity": "bank",
          "branch": "Lakshmi Nagar",
          "brand": "Karnataka Bank",
          "brand:wikidata": "Q2042632",
          "name": "Karnataka Bank"
        }
      },
      {
        "type": "node",
        "id": 5807089786,
        "lat": 28.6293352,
        "lon": 77.2770099,
        "tags": {
          "amenity": "bank",
          "atm": "yes",
          "brand": "Yes Bank",
          "brand:wikidata": "Q2040394",
          "name": "Yes Bank"
        }
      },
      {
        "type": "node",
        "id": 6721164782,
        "lat": 28.6286179,
        "lon": 77.2777373,
        "tags": {
          "amenity": "atm",
          "brand": "State Bank of India",
          "brand:en": "State Bank of India",
          "brand:wikidata": "Q1340361",
          "currency:INR": "yes",
          "drive_through": "no",
          "indoor": "yes",
          "level": "0",
          "name": "State Bank of India",
          "note": "Contributors are requested to not edit the \"brand\", \"brand:en\", \"brand:wikidata\", \"operator\", \"operator:en\" and \"operator:wikidata\" tags. (2025/02/19)",
          "opening_hours": "24/7",
          "operator": "State Bank of India",
          "operator:en": "State Bank of India",
          "operator:wikidata": "Q1340361",
          "short_name": "SBI"
        }
      },
      {
        "type": "node",
        "id": 6721206085,
        "lat": 28.6277748,
        "lon": 77.2788539,
        "tags": {
          "amenity": "bank",
          "atm": "yes",
          "branch": "Shakarpur",
          "brand": "Canara Bank",
          "brand:en": "Canara Bank",
          "brand:hi": "\u0915\u0947\u0928\u0930\u093e \u092c\u0948\u0902\u0915",
          "brand:kn": "\u0c95\u0cc6\u0ca8\u0cb0\u0cbe \u0cac\u0ccd\u0caf\u0cbe\u0c82\u0c95\u0ccd",
          "brand:pa": "\u0a15\u0a47\u0a28\u0a30\u0a3e \u0a2c\u0a48\u0a02\u0a15",
          "brand:pnb": "\u06a9\u06cc\u0646\u0631\u0627 \u0628\u06cc\u0646\u06a9",
          "brand:ur": "\u06a9\u06cc\u0646\u0631\u0627 \u0628\u06cc\u0646\u06a9",
          "brand:wikidata": "Q2003777",
          "level": "0",
          "name": "Canara Bank",
          "name:en": "Canara Bank",
          "name:hi": "\u0915\u0947\u0928\u0930\u093e \u092c\u0948\u0902\u0915",
          "name:kn": "\u0c95\u0cc6\u0ca8\u0cb0\u0cbe \u0cac\u0ccd\u0caf\u0cbe\u0c82\u0c95\u0ccd",
          "name:pa": "\u0a15\u0a47\u0a28\u0a30\u0a3e \u0a2c\u0a48\u0a02\u0a15",
          "name:pnb": "\u06a9\u06cc\u0646\u0631\u0627 \u0628\u06cc\u0646\u06a9",
          "name:ur": "\u06a9\u06cc\u0646\u0631\u0627 \u0628\u06cc\u0646\u06a9"
        }
      },
      {
        "type": "node",
        "id": 6817191936,
        "lat": 28.6327625,
        "lon": 77.2805113,
        "tags": {
          "amenity": "pharmacy",
          "healthcare": "pharmacy"
        }
      },
      {
        "type": "node",
        "id": 6817191951,
        "lat": 28.6327268,
        "lon": 77.2804122,
        "tags": {
          "amenity": "clinic",
          "healthcare": "clinic"
        }
      },
      {
        "type": "node",
        "id": 6817191952,
        "lat": 28.6327144,
        "lon": 77.2804575,
        "tags": {
          "amenity": "pharmacy",
          "healthcare": "pharmacy",
          "name": "JMD Medical Store",
          "opening_hours": "24/7"
        }
      },
      {
        "type": "node",
        "id": 6837340216,
        "lat": 28.632053,
        "lon": 77.279436,
        "tags": {
          "amenity": "fast_food",
          "contact:phone": "+91-11-4984-1682;+91-98994-19977",
          "name": "Priyanshi South Indian Fast Food Point",
          "opening_hours": "PH,Mo-Su 10:00-11:00",
          "seats": "60",
          "tables": "15"
        }
      },
      {
        "type": "node",
        "id": 6853471524,
        "lat": 28.6317488,
        "lon": 77.2789716,
        "tags": {
          "amenity": "fast_food",
          "brand": "Domino's",
          "brand:ks": "\u0688\u0648\u0645\u06cc\u0646\u0648\u0632",
          "brand:pa": "\u0a21\u0a4b\u0a2e\u0a40\u0a28\u0a4b\u0a1c\u0a3c",
          "brand:ur": "\u0688\u0648\u0645\u06cc\u0646\u0648\u0632",
          "brand:wikidata": "Q839466",
          "brand:wikipedia": "en:Domino's Pizza",
          "cuisine": "pizza",
          "level": "1",
          "name": "Domino's",
          "name:ks": "\u0688\u0648\u0645\u06cc\u0646\u0648\u0632",
          "name:pa": "\u0a21\u0a4b\u0a2e\u0a40\u0a28\u0a4b\u0a1c\u0a3c",
          "name:ur": "\u0688\u0648\u0645\u06cc\u0646\u0648\u0632",
          "takeaway": "yes"
        }
      },
      {
        "type": "node",
        "id": 6853471525,
        "lat": 28.6322895,
        "lon": 77.2798028,
        "tags": {
          "amenity": "bank",
          "atm": "yes",
          "branch": "Shakarpur Khas",
          "brand": "State Bank of India",
          "brand:wikidata": "Q1340361",
          "name": "State Bank of India",
          "short_name": "SBI",
          "wheelchair": "no"
        }
      },
      {
        "type": "node",
        "id": 6853471528,
        "lat": 28.6312824,
        "lon": 77.2791253,
        "tags": {
          "amenity": "bank",
          "atm": "yes",
          "branch": "Shakarpur",
          "brand": "Bank of Baroda",
          "brand:wikidata": "Q2003797",
          "level": "0",
          "name": "Bank of Baroda",
          "wheelchair": "no"
        }
      },
      {
        "type": "node",
        "id": 6853471536,
        "lat": 28.6319921,
        "lon": 77.2801886,
        "tags": {
          "amenity": "bank",
          "atm": "yes",
          "branch": "Shakarpur, Vikas Marg",
          "brand": "HDFC Bank",
          "brand:wikidata": "Q631047",
          "name": "HDFC Bank",
          "short_name": "HDFC",
          "wheelchair": "no"
        }
      },
      {
        "type": "node",
        "id": 6992113685,
        "lat": 28.630052,
        "lon": 77.2732845,
        "tags": {
          "amenity": "restaurant",
          "name": "Tasty Muradabadi Chicken Biryani"
        }
      },
      {
        "type": "node",
        "id": 7280004309,
        "lat": 28.6275686,
        "lon": 77.2792239,
        "tags": {
          "amenity": "atm",
          "brand": "ICICI Bank",
          "brand:en": "ICICI Bank",
          "brand:wikidata": "Q1653258",
          "check_date": "2024-03-08",
          "currency:INR": "yes",
          "drive_through": "no",
          "indoor": "yes",
          "name": "ICICI Bank",
          "note": "Contributors are requested to not edit the \"brand\", \"brand:en\", \"brand:wikidata\", \"operator\", \"operator:en\" and \"operator:wikidata\" tags. (2025/02/19)",
          "opening_hours": "24/7",
          "operator": "ICICI Bank",
          "operator:en": "ICICI Bank",
          "operator:wikidata": "Q1653258",
          "short_name": "ICICI"
        }
      },
      {
        "type": "node",
        "id": 7280004311,
        "lat": 28.6275888,
        "lon": 77.2791976,
        "tags": {
          "amenity": "bank",
          "branch": "Shakarpur",
          "brand": "ICICI Bank",
          "brand:wikidata": "Q1653258",
          "name": "ICICI Bank",
          "short_name": "ICICI"
        }
      },
      {
        "type": "node",
        "id": 7280004312,
        "lat": 28.6271918,
        "lon": 77.2795974,
        "tags": {
          "amenity": "pharmacy",
          "healthcare": "pharmacy",
          "name": "Vishal Medical Store",
          "wheelchair": "yes"
        }
      },
      {
        "type": "node",
        "id": 7280004313,
        "lat": 28.6272422,
        "lon": 77.2795497,
        "tags": {
          "contact:phone": "+91 77009 77753",
          "delivery": "yes",
          "name": "EasyDay Fresh",
          "shop": "supermarket",
          "wheelchair": "no"
        }
      },
      {
        "type": "node",
        "id": 7280004314,
        "lat": 28.6270711,
        "lon": 77.2797514,
        "tags": {
          "amenity": "pharmacy",
          "healthcare": "pharmacy",
          "name": "Mediways Chemist",
          "wheelchair": "yes"
        }
      },
      {
        "type": "node",
        "id": 9209577751,
        "lat": 28.6324371,
        "lon": 77.2808477,
        "tags": {
          "amenity": "atm",
          "brand": "ICICI Bank",
          "brand:en": "ICICI Bank",
          "brand:wikidata": "Q1653258",
          "currency:INR": "yes",
          "drive_through": "no",
          "indoor": "yes",
          "name": "ICICI Bank",
          "note": "Contributors are requested to not edit the \"brand\", \"brand:en\", \"brand:wikidata\", \"operator\", \"operator:en\" and \"operator:wikidata\" tags. (2025/02/19)",
          "opening_hours": "24/7",
          "operator": "ICICI Bank",
          "operator:en": "ICICI Bank",
          "operator:wikidata": "Q1653258",
          "short_name": "ICICI",
          "wheelchair": "no"
        }
      },
      {
        "type": "node",
        "id": 9209577752,
        "lat": 28.6324098,
        "lon": 77.280814,
        "tags": {
          "addr:housename": "A-148",
          "addr:postcode": "110092",
          "addr:street": "Vikas Marg",
          "amenity": "bank",
          "brand": "ICICI Bank",
          "brand:wikidata": "Q1653258",
          "name": "ICICI Bank",
          "opening_hours": "Mo-Sa 09:30-15:00; Sa[2,4], PH off",
          "short_name": "ICICI",
          "wheelchair": "no"
        }
      },
      {
        "type": "node",
        "id": 9211703399,
        "lat": 28.633725,
        "lon": 77.2818744,
        "tags": {
          "amenity": "fast_food",
          "level": "0;1",
          "name": "Hira Sweets",
          "wheelchair": "no"
        }
      },
      {
        "type": "node",
        "id": 10027880529,
        "lat": 28.6300714,
        "lon": 77.2732351,
        "tags": {
          "amenity": "restaurant",
          "name": "Manakamana Restaurant"
        }
      },
      {
        "type": "node",
        "id": 10027880536,
        "lat": 28.6327388,
        "lon": 77.2714776,
        "tags": {
          "access": "yes",
          "leisure": "playground",
          "name": "Lalita Park Playground"
        }
      },
      {
        "type": "node",
        "id": 10027880539,
        "lat": 28.6352913,
        "lon": 77.270571,
        "tags": {
          "leisure": "park",
          "name": "Ramesh Park"
        }
      },
      {
        "type": "node",
        "id": 10777895636,
        "lat": 28.6298306,
        "lon": 77.2771541,
        "tags": {
          "amenity": "fast_food",
          "diet:lacto_vegetarian": "yes",
          "name": "Special Chhole Bhature Paneer Wale"
        }
      },
      {
        "type": "node",
        "id": 10804204204,
        "lat": 28.6296702,
        "lon": 77.2767741,
        "tags": {
          "amenity": "fast_food",
          "contact:phone": "+91-93107-16607",
          "name": "Pyari Kachaudi"
        }
      },
      {
        "type": "node",
        "id": 10893067282,
        "lat": 28.6282868,
        "lon": 77.2785052,
        "tags": {
          "amenity": "bank",
          "atm": "yes",
          "branch": "Laxmi Nagar",
          "brand": "Karur Vysya Bank",
          "brand:wikidata": "Q6373724",
          "name": "Karur Vysya Bank"
        }
      },
      {
        "type": "node",
        "id": 10893067287,
        "lat": 28.6272346,
        "lon": 77.2795725,
        "tags": {
          "amenity": "pharmacy",
          "healthcare": "pharmacy"
        }
      },
      {
        "type": "node",
        "id": 10893067291,
        "lat": 28.6285746,
        "lon": 77.2781948,
        "tags": {
          "amenity": "pharmacy",
          "contact:mobile": "+91-98106-15360",
          "contact:phone": "+91-11-4950-7123",
          "healthcare": "pharmacy",
          "name": "Vishnu Medicos"
        }
      },
      {
        "type": "node",
        "id": 10893067297,
        "lat": 28.6290131,
        "lon": 77.2777745,
        "tags": {
          "amenity": "fast_food",
          "contact:mobile": "+91-962800-4853",
          "name": "Graduate Chinese Hut"
        }
      },
      {
        "type": "node",
        "id": 10910601905,
        "lat": 28.6337082,
        "lon": 77.2779655,
        "tags": {
          "amenity": "restaurant",
          "name": "Good Morning Caf\u00e9"
        }
      },
      {
        "type": "node",
        "id": 10929179997,
        "lat": 28.6280135,
        "lon": 77.2783896,
        "tags": {
          "amenity": "fast_food",
          "name": "Bikaner Sweets & Snacks"
        }
      },
      {
        "type": "node",
        "id": 10941972227,
        "lat": 28.6272624,
        "lon": 77.2795261,
        "tags": {
          "amenity": "pharmacy",
          "brand": "Zeelab Pharmacy",
          "brand:wikidata": "Q123015627",
          "healthcare": "pharmacy",
          "name": "Zeelab Pharmacy"
        }
      },
      {
        "type": "node",
        "id": 10971085621,
        "lat": 28.6269934,
        "lon": 77.2798206,
        "tags": {
          "amenity": "fast_food",
          "cuisine": "indian",
          "name": "Aggarwal"
        }
      },
      {
        "type": "node",
        "id": 11097084199,
        "lat": 28.6302031,
        "lon": 77.2775119,
        "tags": {
          "amenity": "fast_food",
          "contact:phone": "+91-11-4340-7777",
          "level": "0",
          "name": "Rominus Pizza and Burger"
        }
      },
      {
        "type": "node",
        "id": 11098889649,
        "lat": 28.6303091,
        "lon": 77.2773847,
        "tags": {
          "amenity": "atm",
          "brand": "Punjab National Bank",
          "brand:wikidata": "Q2743499",
          "level": "1",
          "operator": "Punjab National Bank",
          "operator:wikidata": "Q2743499",
          "wheelchair": "yes"
        }
      },
      {
        "type": "node",
        "id": 11210260649,
        "lat": 28.6310699,
        "lon": 77.2764795,
        "tags": {
          "amenity": "pharmacy",
          "name": "Shiv medicos"
        }
      },
      {
        "type": "node",
        "id": 11210261200,
        "lat": 28.6365102,
        "lon": 77.2791763,
        "tags": {
          "amenity": "bank",
          "brand": "State Bank of India",
          "brand:wikidata": "Q1340361",
          "name": "State Bank of India",
          "short_name": "SBI"
        }
      },
      {
        "type": "node",
        "id": 11210262491,
        "lat": 28.6318135,
        "lon": 77.2777848,
        "tags": {
          "addr:street": "CR road",
          "amenity": "pharmacy",
          "name": "Om Medicos"
        }
      },
      {
        "type": "node",
        "id": 11210266056,
        "lat": 28.6309535,
        "lon": 77.2762183,
        "tags": {
          "amenity": "atm",
          "brand": "HDFC Bank",
          "brand:en": "HDFC Bank",
          "brand:wikidata": "Q631047",
          "cash_in": "no",
          "currency:INR": "yes",
          "drive_through": "no",
          "indoor": "yes",
          "name": "HDFC Bank",
          "note": "Contributors are requested to not edit the \"brand\", \"brand:en\", \"brand:wikidata\", \"operator\", \"operator:en\" and \"operator:wikidata\" tags. (2025/02/19)",
          "opening_hours": "24/7",
          "operator": "HDFC Bank",
          "operator:en": "HDFC Bank",
          "operator:wikidata": "Q631047",
          "short_name": "HDFC"
        }
      },
      {
        "type": "node",
        "id": 11210270018,
        "lat": 28.6310303,
        "lon": 77.2764644,
        "tags": {
          "addr:street": "street number 10",
          "amenity": "pharmacy",
          "name": "Fairdeal enterprises"
        }
      },
      {
        "type": "node",
        "id": 11210274634,
        "lat": 28.6321769,
        "lon": 77.2785795,
        "tags": {
          "addr:street": "CR road",
          "amenity": "clinic",
          "name": "Shikhar health care"
        }
      },
      {
        "type": "node",
        "id": 11210314788,
        "lat": 28.6362448,
        "lon": 77.2792047,
        "tags": {
          "amenity": "atm",
          "name": "PNB ATM"
        }
      },
      {
        "type": "node",
        "id": 11210394528,
        "lat": 28.6308734,
        "lon": 77.277575,
        "tags": {
          "amenity": "atm",
          "brand": "IndusInd Bank",
          "brand:wikidata": "Q2040323",
          "cash_in": "no",
          "check_date": "2024-05-18",
          "currency:INR": "yes",
          "level": "0",
          "name": "IndusInd Bank",
          "operator": "IndusInd Bank",
          "operator:wikidata": "Q2040323",
          "wheelchair": "no"
        }
      },
      {
        "type": "node",
        "id": 11212429994,
        "lat": 28.6310806,
        "lon": 77.2781194,
        "tags": {
          "amenity": "cafe",
          "name": "Chai Chulha"
        }
      },
      {
        "type": "node",
        "id": 11212461189,
        "lat": 28.631118,
        "lon": 77.2786742,
        "tags": {
          "amenity": "pharmacy",
          "name": "Pharmaville"
        }
      },
      {
        "type": "node",
        "id": 11212470450,
        "lat": 28.6317277,
        "lon": 77.2789089,
        "tags": {
          "amenity": "bank",
          "brand": "Axis Bank",
          "brand:wikidata": "Q2003549",
          "name": "Axis Bank",
          "opening_hours": "Mo-Su 08:00"
        }
      },
      {
        "type": "node",
        "id": 11212474924,
        "lat": 28.6293819,
        "lon": 77.2773516,
        "tags": {
          "amenity": "atm",
          "name": "Kotak Mahendra Bank ATM"
        }
      },
      {
        "type": "node",
        "id": 11212510416,
        "lat": 28.6323835,
        "lon": 77.28062,
        "tags": {
          "amenity": "clinic",
          "name": "Sharma clinic & Maternity Home",
          "phone": "+911143042385"
        }
      },
      {
        "type": "node",
        "id": 11212541720,
        "lat": 28.6309485,
        "lon": 77.2784303,
        "tags": {
          "amenity": "bank",
          "name": "DCB Bank",
          "opening_hours": "PH,Mo-Su 08:00"
        }
      },
      {
        "type": "node",
        "id": 11212543196,
        "lat": 28.6318101,
        "lon": 77.2797791,
        "tags": {
          "amenity": "bank",
          "brand": "Equitas Small Finance Bank",
          "brand:wikidata": "Q29467249",
          "name": "Equitas Small Finance Bank"
        }
      },
      {
        "type": "node",
        "id": 11215641550,
        "lat": 28.6305138,
        "lon": 77.2729482,
        "tags": {
          "amenity": "atm",
          "brand": "Bank of India",
          "brand:wikidata": "Q2004439",
          "check_date": "2023-10-24",
          "currency:INR": "yes",
          "name": "Bank Of India ATM",
          "operator": "Bank of India",
          "operator:wikidata": "Q2004439"
        }
      },
      {
        "type": "node",
        "id": 11215720072,
        "lat": 28.6313335,
        "lon": 77.2724034,
        "tags": {
          "amenity": "atm",
          "brand": "Bank of Baroda",
          "brand:wikidata": "Q2003797",
          "name": "Bank of Baroda ATM",
          "operator": "Bank of Baroda",
          "operator:wikidata": "Q2003797"
        }
      },
      {
        "type": "node",
        "id": 11215979041,
        "lat": 28.6316974,
        "lon": 77.2775823,
        "tags": {
          "addr:street": "CR ROAD",
          "amenity": "atm",
          "brand": "State Bank of India",
          "brand:en": "State Bank of India",
          "brand:wikidata": "Q1340361",
          "currency:INR": "yes",
          "drive_through": "no",
          "indoor": "yes",
          "name": "State Bank of India",
          "note": "Contributors are requested to not edit the \"brand\", \"brand:en\", \"brand:wikidata\", \"operator\", \"operator:en\" and \"operator:wikidata\" tags. (2025/02/19)",
          "opening_hours": "24/7",
          "operator": "State Bank of India",
          "operator:en": "State Bank of India",
          "operator:wikidata": "Q1340361",
          "short_name": "SBI"
        }
      },
      {
        "type": "node",
        "id": 11215991493,
        "lat": 28.6323261,
        "lon": 77.2806507,
        "tags": {
          "amenity": "pharmacy",
          "name": "Medical store"
        }
      },
      {
        "type": "node",
        "id": 11216000144,
        "lat": 28.6309844,
        "lon": 77.2786114,
        "tags": {
          "amenity": "atm",
          "name": "Kotak Bank ATM"
        }
      },
      {
        "type": "node",
        "id": 11216000939,
        "lat": 28.6310597,
        "lon": 77.2762883,
        "tags": {
          "addr:street": "CR road",
          "amenity": "atm",
          "brand": "Axis Bank",
          "brand:wikidata": "Q2003549",
          "name": "Axis Bank ATM",
          "operator": "Axis Bank",
          "operator:wikidata": "Q2003549"
        }
      },
      {
        "type": "node",
        "id": 11216002635,
        "lat": 28.6316831,
        "lon": 77.2789493,
        "tags": {
          "amenity": "atm",
          "brand": "Axis Bank",
          "brand:wikidata": "Q2003549",
          "check_date": "2023-10-24",
          "currency:INR": "yes",
          "name": "Axis Bank ATM",
          "operator": "Axis Bank",
          "operator:wikidata": "Q2003549"
        }
      },
      {
        "type": "node",
        "id": 11216007045,
        "lat": 28.63107,
        "lon": 77.2779403,
        "tags": {
          "amenity": "fast_food",
          "check_date": "2024-05-18",
          "name": "Babusha Kathi Rolls & More"
        }
      },
      {
        "type": "node",
        "id": 11227522438,
        "lat": 28.6295758,
        "lon": 77.2757035,
        "tags": {
          "amenity": "restaurant",
          "name": "City hearts sweets & restaurant"
        }
      },
      {
        "type": "node",
        "id": 11236680831,
        "lat": 28.6309852,
        "lon": 77.2777773,
        "tags": {
          "air_conditioning": "yes",
          "amenity": "restaurant",
          "check_date": "2024-05-18",
          "cuisine": "south_indian",
          "diet:vegetarian": "yes",
          "level": "0",
          "name": "Southvala",
          "name:ta": "\u0ba4\u0bc6\u0ba9\u0bcd\u0ba9\u0bbf\u0ba8\u0bcd\u0ba4\u0bbf\u0baf \u0b9a\u0bc6\u0b9f\u0bcd\u0b9f\u0bbf\u0ba8\u0bbe\u0b9f\u0bc1 \u0b89\u0ba3\u0bb5\u0b95\u0bae\u0bcd",
          "payment:cash": "yes",
          "payment:credit_cards": "yes",
          "payment:debit_cards": "yes",
          "source": "survey",
          "wheelchair": "limited"
        }
      },
      {
        "type": "node",
        "id": 11236741487,
        "lat": 28.6308822,
        "lon": 77.2775978,
        "tags": {
          "air_conditioning": "yes",
          "amenity": "restaurant",
          "check_date": "2024-05-18",
          "diet:vegetarian": "yes",
          "level": "0;1",
          "name": "Foodie Beach"
        }
      },
      {
        "type": "node",
        "id": 11236756113,
        "lat": 28.6309666,
        "lon": 77.2777035,
        "tags": {
          "amenity": "restaurant",
          "name": "The mb cafe"
        }
      },
      {
        "type": "node",
        "id": 11236763102,
        "lat": 28.6311287,
        "lon": 77.2780469,
        "tags": {
          "amenity": "fast_food",
          "name": "Burnout"
        }
      },
      {
        "type": "node",
        "id": 11236764938,
        "lat": 28.6308004,
        "lon": 77.2774507,
        "tags": {
          "air_conditioning": "no",
          "amenity": "fast_food",
          "contact:mobile": "+91-80108-38522;+91-93154-50015",
          "diet:halal": "only",
          "indoor_seating": "yes",
          "name": "Al Zaika Chicken Corner"
        }
      },
      {
        "type": "node",
        "id": 11238395697,
        "lat": 28.6314184,
        "lon": 77.2790201,
        "tags": {
          "amenity": "bank",
          "brand": "Bank of Baroda",
          "brand:wikidata": "Q2003797",
          "name": "Bank of Baroda"
        }
      },
      {
        "type": "node",
        "id": 11238396921,
        "lat": 28.6334376,
        "lon": 77.2820976,
        "tags": {
          "amenity": "clinic",
          "name": "Rediant Clinic"
        }
      },
      {
        "type": "node",
        "id": 11238406906,
        "lat": 28.6308656,
        "lon": 77.2783314,
        "tags": {
          "amenity": "hospital",
          "name": "Patel Hospital"
        }
      },
      {
        "type": "node",
        "id": 11238410846,
        "lat": 28.6320173,
        "lon": 77.2800925,
        "tags": {
          "amenity": "bank",
          "brand": "HDFC Bank",
          "brand:wikidata": "Q631047",
          "name": "HDFC Bank",
          "short_name": "HDFC"
        }
      },
      {
        "type": "node",
        "id": 11238413146,
        "lat": 28.6324377,
        "lon": 77.280759,
        "tags": {
          "amenity": "bank",
          "brand": "ICICI Bank",
          "brand:wikidata": "Q1653258",
          "name": "ICICI Bank",
          "short_name": "ICICI"
        }
      },
      {
        "type": "node",
        "id": 11238427278,
        "lat": 28.6309285,
        "lon": 77.2783792,
        "tags": {
          "amenity": "bank",
          "brand": "CSB Bank",
          "brand:wikidata": "Q5053244",
          "name": "CSB Bank",
          "official_name": "Catholic Syrian Bank"
        }
      },
      {
        "type": "node",
        "id": 11238492962,
        "lat": 28.6312998,
        "lon": 77.2788927,
        "tags": {
          "amenity": "bank",
          "brand": "City Union Bank",
          "brand:en": "City Union Bank",
          "brand:hi": "\u0938\u093f\u091f\u0940 \u092f\u0942\u0928\u093f\u092f\u0928 \u092c\u0948\u0902\u0915",
          "brand:ta": "\u0b9a\u0bbf\u0b9f\u0bcd\u0b9f\u0bbf \u0baf\u0bc2\u0ba9\u0bbf\u0baf\u0ba9\u0bcd \u0bb5\u0b99\u0bcd\u0b95\u0bbf",
          "brand:wikidata": "Q2040264",
          "name": "City Union Bank",
          "name:en": "City Union Bank",
          "name:hi": "\u0938\u093f\u091f\u0940 \u092f\u0942\u0928\u093f\u092f\u0928 \u092c\u0948\u0902\u0915",
          "name:ta": "\u0b9a\u0bbf\u0b9f\u0bcd\u0b9f\u0bbf \u0baf\u0bc2\u0ba9\u0bbf\u0baf\u0ba9\u0bcd \u0bb5\u0b99\u0bcd\u0b95\u0bbf",
          "short_name": "CUB"
        }
      },
      {
        "type": "node",
        "id": 11260915138,
        "lat": 28.6310637,
        "lon": 77.2779204,
        "tags": {
          "amenity": "fast_food",
          "check_date": "2024-05-18",
          "name": "Burnout Rolles & Shawarma"
        }
      },
      {
        "type": "node",
        "id": 11262730928,
        "lat": 28.634958,
        "lon": 77.2774691,
        "tags": {
          "leisure": "park",
          "name": "Jagat ram park"
        }
      },
      {
        "type": "node",
        "id": 11399268327,
        "lat": 28.6303763,
        "lon": 77.2776338,
        "tags": {
          "amenity": "fast_food",
          "contact:mobile": "+91-7838-406-000",
          "contact:phone": "+91-11-4052-0112",
          "name": "Rom's Pizza",
          "operator": "Ruhi Foods"
        }
      },
      {
        "type": "node",
        "id": 11432412016,
        "lat": 28.629686,
        "lon": 77.2772861,
        "tags": {
          "addr:block": "U",
          "addr:city": "Delhi",
          "addr:housenumber": "75",
          "addr:neighbourhood": "Shakarpur",
          "addr:postcode": "110092",
          "addr:suburb": "Laxmi Nagar",
          "amenity": "fast_food",
          "level": "-1",
          "name": "Top Cafe",
          "wheelchair": "no"
        }
      },
      {
        "type": "node",
        "id": 11446142353,
        "lat": 28.6304699,
        "lon": 77.2777279,
        "tags": {
          "amenity": "fast_food",
          "cuisine": "juice;shake",
          "level": "0",
          "name": "Standard Juice Centre",
          "toilets": "no"
        }
      },
      {
        "type": "node",
        "id": 11446142356,
        "lat": 28.6305719,
        "lon": 77.2779478,
        "tags": {
          "amenity": "fast_food",
          "cuisine": "juice;shake",
          "level": "0",
          "name": "Fiza Juice and Shakes",
          "toilets": "no"
        }
      },
      {
        "type": "node",
        "id": 11446142358,
        "lat": 28.6305127,
        "lon": 77.2778173,
        "tags": {
          "amenity": "fast_food",
          "cuisine": "juice;shake",
          "level": "0",
          "name": "Baba Juice and Shakes",
          "toilets": "no"
        }
      },
      {
        "type": "node",
        "id": 11738938312,
        "lat": 28.6320309,
        "lon": 77.2793095,
        "tags": {
          "amenity": "restaurant",
          "name": "Big Bites"
        }
      },
      {
        "type": "node",
        "id": 11914745200,
        "lat": 28.6282139,
        "lon": 77.2763694,
        "tags": {
          "amenity": "fast_food",
          "check_date": "2024-05-18",
          "cuisine": "juice",
          "internet_access": "wlan",
          "internet_access:fee": "no",
          "name": "Street Juice Shop",
          "payment:cards": "no",
          "payment:cash": "yes",
          "payment:credit_cards": "no",
          "payment:debit_cards": "no"
        }
      },
      {
        "type": "node",
        "id": 11914764461,
        "lat": 28.6293532,
        "lon": 77.276336,
        "tags": {
          "amenity": "restaurant",
          "check_date": "2024-05-18",
          "cuisine": "Mughlai",
          "diet:halal": "yes",
          "diet:non-vegetarian": "yes",
          "level": "0",
          "name": "Karim\u2019s",
          "outdoor_seating": "no",
          "payment:cash": "yes",
          "payment:credit_cards": "yes",
          "payment:debit_cards": "yes",
          "wheelchair": "no"
        }
      },
      {
        "type": "node",
        "id": 11914765395,
        "lat": 28.6287332,
        "lon": 77.2765754,
        "tags": {
          "amenity": "fast_food",
          "check_date": "2024-05-18",
          "internet_access": "wlan",
          "internet_access:fee": "customers",
          "name": "Mukesh Bhojanalay",
          "payment:cash": "yes",
          "payment:credit_cards": "yes",
          "payment:debit_cards": "yes",
          "phone": "+91 81307 35338; +91 86306 84862"
        }
      },
      {
        "type": "node",
        "id": 11914850896,
        "lat": 28.631006,
        "lon": 77.2778063,
        "tags": {
          "amenity": "atm",
          "brand": "Bank of Maharashtra",
          "brand:wikidata": "Q2004304",
          "check_date": "2024-05-18",
          "operator": "Bank of Maharashtra",
          "operator:wikidata": "Q2004304"
        }
      },
      {
        "type": "node",
        "id": 11914851182,
        "lat": 28.6282509,
        "lon": 77.2763357,
        "tags": {
          "amenity": "restaurant",
          "bar": "no",
          "check_date": "2024-05-18",
          "level": "0",
          "name": "Radha Krishna Dhaba",
          "name:hi": "\u0930\u093e\u0927\u093e \u0915\u0943\u0937\u094d\u0923 \u0922\u093e\u092c\u093e"
        }
      },
      {
        "type": "node",
        "id": 11914851237,
        "lat": 28.6308108,
        "lon": 77.2774683,
        "tags": {
          "amenity": "cafe",
          "check_date": "2024-05-18",
          "cuisine": "coffee_shop",
          "name": "Parichai"
        }
      },
      {
        "type": "node",
        "id": 11914861946,
        "lat": 28.6294206,
        "lon": 77.2764746,
        "tags": {
          "amenity": "bank",
          "atm": "yes",
          "branch": "Vikas Marg",
          "brand": "State Bank of India",
          "brand:wikidata": "Q1340361",
          "check_date": "2024-05-18",
          "level": "0",
          "name": "State Bank of India",
          "short_name": "SBI",
          "wheelchair": "no"
        }
      },
      {
        "type": "node",
        "id": 11914864930,
        "lat": 28.6310026,
        "lon": 77.2778049,
        "tags": {
          "amenity": "bank",
          "brand": "Bank of Maharashtra",
          "brand:wikidata": "Q2004304",
          "check_date": "2024-05-18",
          "internet_access": "wlan",
          "internet_access:fee": "customers",
          "name": "Bank of Maharashtra",
          "name:hi": "\u092c\u0948\u0902\u0915 \u0914\u092b \u092e\u0939\u093e\u0930\u093e\u0937\u094d\u091f\u094d\u0930"
        }
      },
      {
        "type": "node",
        "id": 11914865411,
        "lat": 28.6308477,
        "lon": 77.2775269,
        "tags": {
          "amenity": "fast_food",
          "check_date": "2024-05-18",
          "cuisine": "juice",
          "name": "Fruit Power"
        }
      },
      {
        "type": "node",
        "id": 11914868633,
        "lat": 28.6310175,
        "lon": 77.2778303,
        "tags": {
          "amenity": "fast_food",
          "check_date": "2024-05-18",
          "cuisine": "chicken;indian",
          "drive_through": "no",
          "internet_access": "wlan",
          "internet_access:fee": "customers",
          "name": "Muradabadi Chicken Biriyani And Chicken Corner",
          "phone": "+91 63971 20960"
        }
      },
      {
        "type": "node",
        "id": 11914871706,
        "lat": 28.6309792,
        "lon": 77.2777584,
        "tags": {
          "amenity": "bank",
          "branch": "Laxmi Nagar Branch",
          "brand": "Bank of Maharashtra",
          "brand:wikidata": "Q2004304",
          "check_date": "2024-05-18",
          "name": "Bank of Maharashtra"
        }
      },
      {
        "type": "node",
        "id": 11915038287,
        "lat": 28.6305237,
        "lon": 77.2770991,
        "tags": {
          "amenity": "fast_food",
          "contact:mobile": "+91-90278-51006",
          "name": "Yadav Ji Ki Lassi"
        }
      },
      {
        "type": "node",
        "id": 11915038290,
        "lat": 28.6304803,
        "lon": 77.2770886,
        "tags": {
          "amenity": "fast_food",
          "contact:mobile": "+91-78270-92608",
          "cuisine": "parantha"
        }
      },
      {
        "type": "node",
        "id": 11918192861,
        "lat": 28.629578,
        "lon": 77.2773708,
        "tags": {
          "amenity": "fast_food",
          "contact:mobile": "+91-90155-47934;+91-98914-27843",
          "level": "0",
          "name": "Al-Kadeer Chicken Corner",
          "smoking": "no",
          "wheelchair": "no"
        }
      },
      {
        "type": "node",
        "id": 12105834047,
        "lat": 28.6331492,
        "lon": 77.2817834,
        "tags": {
          "air_conditioning": "yes",
          "amenity": "fast_food",
          "indoor_seating": "yes",
          "level": "0",
          "name": "The Waffle Co.",
          "outdoor_seating": "yes",
          "seats": "9",
          "tables": "4"
        }
      },
      {
        "type": "node",
        "id": 12105834057,
        "lat": 28.6329547,
        "lon": 77.2821179,
        "tags": {
          "air_conditioning": "no",
          "amenity": "cafe",
          "indoor_seating": "yes",
          "level": "0",
          "name": "Chaiorama",
          "outdoor_seating": "no",
          "seats": "9"
        }
      },
      {
        "type": "node",
        "id": 12105834066,
        "lat": 28.6330862,
        "lon": 77.2816989,
        "tags": {
          "amenity": "clinic",
          "contact:mobile": "+91-96548-72263;+91-96541-50771;+91-93184-49460;+91-78381-80991",
          "healthcare": "clinic",
          "healthcare:speciality": "dermatology;dentistry",
          "level": "0",
          "name": "Surat Dental and Skin Care"
        }
      },
      {
        "type": "node",
        "id": 12105834075,
        "lat": 28.6330706,
        "lon": 77.2816822,
        "tags": {
          "amenity": "pharmacy",
          "contact:mobile": "+91-999-009-9710",
          "contact:phone": "+91-11-490-684-15",
          "healthcare": "pharmacy",
          "level": "0",
          "name": "Sai Raj Chemist"
        }
      },
      {
        "type": "node",
        "id": 12564260199,
        "lat": 28.6283859,
        "lon": 77.278409,
        "tags": {
          "amenity": "atm",
          "brand": "HDFC Bank",
          "brand:en": "HDFC Bank",
          "brand:wikidata": "Q631047",
          "currency:INR": "yes",
          "drive_through": "no",
          "indoor": "yes",
          "level": "1",
          "name": "HDFC Bank",
          "note": "Contributors are requested to not edit the \"brand\", \"brand:en\", \"brand:wikidata\", \"operator\", \"operator:en\" and \"operator:wikidata\" tags. (2025/02/19)",
          "opening_hours": "24/7",
          "operator": "HDFC Bank",
          "operator:en": "HDFC Bank",
          "operator:wikidata": "Q631047",
          "short_name": "HDFC",
          "wheelchair": "no"
        }
      },
      {
        "type": "node",
        "id": 12621046761,
        "lat": 28.6336021,
        "lon": 77.2824644,
        "tags": {
          "amenity": "fast_food",
          "capacity": "7",
          "contact:email": "niteshpandit2020@gmail.com",
          "contact:mobile": "+91 78271 28485;+91 70420 65356",
          "cuisine": "pav_bhaji;vada_pav;dabeli;pulao",
          "delivery": "yes",
          "indoor_seating": "yes",
          "level": "0",
          "name": "Kumar Pav Bhaji Centre",
          "name:hi": "\u0915\u0941\u092e\u093e\u0930 \u092a\u093e\u0935 \u092d\u093e\u091c\u0940 \u0938\u0947\u0902\u091f\u0930",
          "tables": "3",
          "takeaway": "yes",
          "wheelchair": "limited"
        }
      },
      {
        "type": "node",
        "id": 13061668001,
        "lat": 28.6289503,
        "lon": 77.2774811,
        "tags": {
          "amenity": "fast_food",
          "name": "Faraz Foods",
          "opening_hours": "We-Mo 01:00-23:30",
          "phone": "+91-9563887786;+91-7982506605;+91-8882214901;+91-90275529835"
        }
      },
      {
        "type": "node",
        "id": 13061852503,
        "lat": 28.6290955,
        "lon": 77.277709,
        "tags": {
          "amenity": "bank",
          "branch": "Shakarpur",
          "brand": "Keshav Sehkari Bank Limited",
          "contact:email": "shakarpur@keshavbank.com",
          "contact:phone": "+91-11-4602-1402",
          "contact:website": "https://keshavbank.com",
          "level": "0",
          "name": "Keshav Sehkari Bank Limited",
          "wheelchair": "no"
        }
      }
    ]
  },
  "pois_2_5km": {
    "version": 0.6,
    "generator": "Overpass API 0.7.62.8 e802775f",
    "osm3s": {
      "timestamp_osm_base": "2025-09-06T07:26:02Z",
      "copyright": "The data included in this document is from www.openstreetmap.org. The data is made available under ODbL."
    },
    "elements": [
      {
        "type": "node",
        "id": 554257844,
        "lat": 28.6231869,
        "lon": 77.2677362,
        "tags": {
          "name": "Yamuna Bank",
          "network": "Delhi Metro",
          "note": "Contributors are requested to not edit the \"network\" and the \"operator\" tags. (2023/06/22)",
          "operator": "Delhi Metro Rail Corporation Limited",
          "public_transport": "stop_position",
          "railway": "stop",
          "subway": "yes"
        }
      },
      {
        "type": "node",
        "id": 663793549,
        "lat": 28.6414409,
        "lon": 77.2952594,
        "tags": {
          "name": "Preet Vihar",
          "name:hi": "\u092a\u094d\u0930\u0940\u0924 \u0935\u093f\u0939\u093e\u0930",
          "network": "Delhi Metro",
          "note": "Contributors are requested to not edit the \"network\" and the \"operator\" tags. (2023/06/22)",
          "operator": "Delhi Metro Rail Corporation Limited",
          "public_transport": "stop_position",
          "railway": "stop",
          "subway": "yes",
          "wikidata": "Q7239761"
        }
      },
      {
        "type": "node",
        "id": 663793972,
        "lat": 28.6365579,
        "lon": 77.2867522,
        "tags": {
          "name": "Nirman Vihar",
          "name:hi": "\u0928\u093f\u0930\u094d\u092e\u093e\u0923 \u0935\u093f\u0939\u093e\u0930",
          "network": "Delhi Metro",
          "note": "Contributors are requested to not edit the \"network\" and the \"operator\" tags. (2023/06/22)",
          "operator": "Delhi Metro Rail Corporation Limited",
          "public_transport": "stop_position",
          "railway": "stop",
          "subway": "yes"
        }
      },
      {
        "type": "node",
        "id": 663794722,
        "lat": 28.6306223,
        "lon": 77.2775015,
        "tags": {
          "alt_name": "Lakshmi Nagar",
          "name": "Laxmi Nagar",
          "name:hi": "\u0932\u0915\u094d\u0937\u094d\u092e\u0940 \u0928\u0917\u0930",
          "name:kn": "\u0cb2\u0c95\u0ccd\u0cb7\u0ccd\u0cae\u0cbf \u0ca8\u0c97\u0cb0\u0ccd",
          "network": "Delhi Metro",
          "note": "Contributors are requested to not edit the \"network\" and the \"operator\" tags. (2023/06/22)",
          "operator": "Delhi Metro Rail Corporation Limited",
          "public_transport": "stop_position",
          "railway": "stop",
          "subway": "yes"
        }
      },
      {
        "type": "node",
        "id": 906780885,
        "lat": 28.6178918,
        "lon": 77.2795648,
        "tags": {
          "name": "Akshardham",
          "network": "Delhi Metro",
          "note": "Contributors are requested to not edit the \"network\" and the \"operator\" tags. (2023/06/22)",
          "operator": "Delhi Metro Rail Corporation Limited",
          "public_transport": "stop_position",
          "railway": "stop",
          "subway": "yes"
        }
      },
      {
        "type": "node",
        "id": 944888808,
        "lat": 28.6111916,
        "lon": 77.2788687,
        "tags": {
          "amenity": "theatre"
        }
      },
      {
        "type": "node",
        "id": 5737168028,
        "lat": 28.6233069,
        "lon": 77.2679515,
        "tags": {
          "name": "Yamuna Bank",
          "network": "Delhi Metro",
          "note": "Contributors are requested to not edit the \"network\" and the \"operator\" tags. (2023/06/22)",
          "operator": "Delhi Metro Rail Corporation Limited",
          "public_transport": "stop_position",
          "railway": "stop",
          "subway": "yes"
        }
      },
      {
        "type": "node",
        "id": 5743508501,
        "lat": 28.6503691,
        "lon": 77.2682627,
        "tags": {
          "amenity": "fuel",
          "brand": "Indraprastha Gas Limited",
          "fuel:cng": "yes"
        }
      },
      {
        "type": "node",
        "id": 5777613940,
        "lat": 28.6178791,
        "lon": 77.2795258,
        "tags": {
          "name": "Akshardham",
          "network": "Delhi Metro",
          "note": "Contributors are requested to not edit the \"network\" and the \"operator\" tags. (2023/06/22)",
          "operator": "Delhi Metro Rail Corporation Limited",
          "public_transport": "stop_position",
          "railway": "stop",
          "subway": "yes"
        }
      },
      {
        "type": "node",
        "id": 5777613981,
        "lat": 28.641388,
        "lon": 77.2953132,
        "tags": {
          "name": "Preet Vihar",
          "network": "Delhi Metro",
          "note": "Contributors are requested to not edit the \"network\" and the \"operator\" tags. (2023/06/22)",
          "operator": "Delhi Metro Rail Corporation Limited",
          "public_transport": "stop_position",
          "railway": "stop",
          "subway": "yes"
        }
      },
      {
        "type": "node",
        "id": 5777613985,
        "lat": 28.6365129,
        "lon": 77.286776,
        "tags": {
          "light_rail": "yes",
          "name": "Nirman Vihar",
          "name:hi": "\u0928\u093f\u0930\u094d\u092e\u093e\u0923 \u0935\u093f\u0939\u093e\u0930",
          "network": "Delhi Metro",
          "note": "Contributors are requested to not edit the \"network\" and the \"operator\" tags. (2023/06/23)",
          "operator": "Delhi Metro Rail Corporation Limited",
          "public_transport": "stop_position",
          "railway": "stop",
          "subway": "yes"
        }
      },
      {
        "type": "node",
        "id": 5777613988,
        "lat": 28.6305657,
        "lon": 77.2775503,
        "tags": {
          "alt_name": "Lakshmi Nagar",
          "name": "Laxmi Nagar",
          "name:hi": "\u0932\u0915\u094d\u0937\u094d\u092e\u0940 \u0928\u0917\u0930",
          "name:kn": "\u0cb2\u0c95\u0ccd\u0cb7\u0ccd\u0cae\u0cbf \u0ca8\u0c97\u0cb0\u0ccd",
          "network": "Delhi Metro",
          "note": "Contributors are requested to not edit the \"network\" and the \"operator\" tags. (2023/06/22)",
          "operator": "Delhi Metro Rail Corporation Limited",
          "public_transport": "stop_position",
          "railway": "stop",
          "subway": "yes"
        }
      },
      {
        "type": "node",
        "id": 6499063500,
        "lat": 28.6401874,
        "lon": 77.2564926,
        "tags": {
          "amenity": "fuel",
          "brand": "Indraprastha Gas Limited",
          "fuel:cng": "yes"
        }
      },
      {
        "type": "node",
        "id": 6537193576,
        "lat": 28.6233124,
        "lon": 77.268013,
        "tags": {
          "name": "Yamuna Bank",
          "name:hi": "\u092f\u092e\u0941\u0928\u093e \u092c\u0948\u0902\u0915",
          "name:kn": "\u0caf\u0cae\u0cc1\u0ca8\u0cbe \u0cac\u0ccd\u0caf\u0cbe\u0c82\u0c95\u0ccd",
          "name:ur": "\u06cc\u0645\u0646\u0627 \u0628\u06cc\u0646\u06a9",
          "network": "Delhi Metro",
          "note": "Contributors are requested to not edit the \"network\" and the \"operator\" tags. (2023/06/22)",
          "operator": "Delhi Metro Rail Corporation Limited",
          "public_transport": "station",
          "railway": "station",
          "station": "subway",
          "subway": "yes",
          "wikidata": "Q12525001",
          "wikipedia": "en:Yamuna Bank metro station"
        }
      },
      {
        "type": "node",
        "id": 6537317881,
        "lat": 28.6233628,
        "lon": 77.267662,
        "tags": {
          "name": "Yamuna Bank",
          "network": "Delhi Metro",
          "note": "Contributors are requested to not edit the \"network\" and the \"operator\" tags. (2023/06/22)",
          "operator": "Delhi Metro Rail Corporation Limited",
          "public_transport": "stop_position",
          "railway": "stop",
          "subway": "yes"
        }
      },
      {
        "type": "node",
        "id": 6537317882,
        "lat": 28.6231406,
        "lon": 77.2680442,
        "tags": {
          "name": "Yamuna Bank",
          "network": "Delhi Metro",
          "note": "Contributors are requested to not edit the \"network\" and the \"operator\" tags. (2023/06/22)",
          "operator": "Delhi Metro Rail Corporation Limited",
          "public_transport": "stop_position",
          "railway": "stop",
          "subway": "yes"
        }
      },
      {
        "type": "node",
        "id": 6636947594,
        "lat": 28.6217835,
        "lon": 77.2949586,
        "tags": {
          "name": "Mangalam",
          "public_transport": "stop_position",
          "share_taxi": "yes"
        }
      },
      {
        "type": "node",
        "id": 7277245330,
        "lat": 28.6376698,
        "lon": 77.2527061,
        "tags": {
          "alt_name": "Delhi Secretariat",
          "bus": "yes",
          "name": "Rajghat Power House",
          "public_transport": "stop_position"
        }
      },
      {
        "type": "node",
        "id": 8948790096,
        "lat": 28.6214714,
        "lon": 77.2936333,
        "tags": {
          "amenity": "charging_station",
          "name": "Plug N Go"
        }
      },
      {
        "type": "node",
        "id": 9415047898,
        "lat": 28.6305974,
        "lon": 77.277523,
        "tags": {
          "alt_name": "Lakshmi Nagar",
          "name": "Laxmi Nagar",
          "name:hi": "\u0932\u0915\u094d\u0937\u094d\u092e\u0940 \u0928\u0917\u0930",
          "name:kn": "\u0cb2\u0c95\u0ccd\u0cb7\u0ccd\u0cae\u0cbf \u0ca8\u0c97\u0cb0\u0ccd",
          "name:ur": "\u0644\u06a9\u0634\u0645\u06cc \u0646\u06af\u0631",
          "network": "Delhi Metro",
          "note": "Contributors are requested to not edit the \"network\" and the \"operator\" tags. (2023/06/22)",
          "operator": "Delhi Metro Rail Corporation Limited",
          "public_transport": "station",
          "railway": "station",
          "station": "subway",
          "subway": "yes",
          "wheelchair": "yes",
          "wikidata": "Q6505213"
        }
      },
      {
        "type": "node",
        "id": 9415047899,
        "lat": 28.6414176,
        "lon": 77.2952819,
        "tags": {
          "name": "Preet Vihar",
          "name:hi": "\u092a\u094d\u0930\u0940\u0924 \u0935\u093f\u0939\u093e\u0930",
          "name:ur": "\u067e\u0631\u06cc\u062a \u0648\u06c1\u0627\u0631",
          "network": "Delhi Metro",
          "note": "Contributors are requested to not edit the \"network\" and the \"operator\" tags. (2023/06/22)",
          "operator": "Delhi Metro Rail Corporation Limited",
          "public_transport": "station",
          "railway": "station",
          "station": "subway",
          "subway": "yes",
          "wikidata": "Q7239761"
        }
      },
      {
        "type": "node",
        "id": 9540218254,
        "lat": 28.6296236,
        "lon": 77.2770745,
        "tags": {
          "bus": "yes",
          "name": "Shakarpur School Block, S-1",
          "public_transport": "stop_position"
        }
      },
      {
        "type": "node",
        "id": 9540218255,
        "lat": 28.6292314,
        "lon": 77.2773301,
        "tags": {
          "bus": "yes",
          "name": "Shakarpur School Block, S-1",
          "public_transport": "stop_position"
        }
      },
      {
        "type": "node",
        "id": 9887713367,
        "lat": 28.6219604,
        "lon": 77.2962408,
        "tags": {
          "name": "Mangalam Hospital",
          "public_transport": "stop_position",
          "share_taxi": "yes"
        }
      },
      {
        "type": "node",
        "id": 10008994593,
        "lat": 28.622372,
        "lon": 77.290246,
        "tags": {
          "amenity": "charging_station"
        }
      },
      {
        "type": "node",
        "id": 10008994594,
        "lat": 28.6223602,
        "lon": 77.2902508,
        "tags": {
          "amenity": "charging_station"
        }
      },
      {
        "type": "node",
        "id": 10314380321,
        "lat": 28.6364592,
        "lon": 77.2868145,
        "tags": {
          "name": "Nirman Vihar",
          "name:hi": "\u0928\u093f\u0930\u094d\u092e\u093e\u0923 \u0935\u093f\u0939\u093e\u0930",
          "name:ur": "\u0646\u0631\u0645\u0627\u0646 \u0648\u06c1\u0627\u0631",
          "network": "Delhi Metro",
          "note": "Contributors are requested to not edit the \"network\" and the \"operator\" tags. (2023/06/22)",
          "operator": "Delhi Metro Rail Corporation Limited",
          "public_transport": "station",
          "public_transport:version": "2",
          "railway": "station",
          "ref": "NV",
          "station": "subway",
          "subway": "yes",
          "wheelchair": "yes",
          "wikidata": "Q7040065",
          "wikipedia": "en:Nirman Vihar metro station"
        }
      },
      {
        "type": "node",
        "id": 11142029176,
        "lat": 28.6297024,
        "lon": 77.2768897,
        "tags": {
          "name": "Laxmi Nagar",
          "public_transport": "stop_position",
          "share_taxi": "yes"
        }
      },
      {
        "type": "node",
        "id": 11142029178,
        "lat": 28.6216402,
        "lon": 77.2948497,
        "tags": {
          "name": "Mangalam",
          "public_transport": "stop_position",
          "share_taxi": "yes"
        }
      },
      {
        "type": "node",
        "id": 11142029180,
        "lat": 28.6297709,
        "lon": 77.2769406,
        "tags": {
          "name": "Laxmi Nagar",
          "public_transport": "stop_position",
          "share_taxi": "yes"
        }
      },
      {
        "type": "node",
        "id": 11148213616,
        "lat": 28.622435,
        "lon": 77.2890724,
        "tags": {
          "amenity": "charging_station"
        }
      },
      {
        "type": "node",
        "id": 11421789517,
        "lat": 28.6177007,
        "lon": 77.28703,
        "tags": {
          "amenity": "charging_station"
        }
      },
      {
        "type": "node",
        "id": 11421789521,
        "lat": 28.6176864,
        "lon": 77.2870367,
        "tags": {
          "amenity": "charging_station"
        }
      },
      {
        "type": "node",
        "id": 11478464616,
        "lat": 28.6229566,
        "lon": 77.2989161,
        "tags": {
          "amenity": "charging_station"
        }
      },
      {
        "type": "node",
        "id": 12064267225,
        "lat": 28.6382309,
        "lon": 77.2873054,
        "tags": {
          "amenity": "charging_station"
        }
      },
      {
        "type": "node",
        "id": 12066237020,
        "lat": 28.6375403,
        "lon": 77.2861768,
        "tags": {
          "addr:unit": "25",
          "amenity": "cinema",
          "level": "2",
          "name": "Wow Zone"
        }
      }
    ]
  }
}