{
  "pois_1km": {
    "version": 0.6,
    "generator": "Overpass API 0.7.62.8 e802775f",
    "osm3s": {
      "timestamp_osm_base": "2025-09-06T07:17:45Z",
      "copyright": "The data included in this document is from www.openstreetmap.org. The data is made available under ODbL."
    },
    "elements": [
      {
        "type": "node",
        "id": 4197303866,
        "lat": 28.6328321,
        "lon": 77.0867027,
        "tags": {
          "amenity": "restaurant",
          "diet:vegetarian": "yes",
          "name": "Hira Sweets"
        }
      },
      {
        "type": "node",
        "id": 4470999317,
        "lat": 28.6289565,
        "lon": 77.0767263,
        "tags": {
          "addr:housenumber": "GF22 Unity One",
          "addr:postcode": "110058",
          "addr:street": "Shivaji Road",
          "amenity": "cafe",
          "name": "Keventers",
          "name:en": "Keventers",
          "name:hi": "\u0915\u0947\u0935\u0947\u0902\u091f\u0930\u094d\u0938",
          "opening_hours": "Mo-Su 09:00-23:55",
          "phone": "+91 92053 45002",
          "website": "https://www.keventers.com/"
        }
      },
      {
        "type": "node",
        "id": 4470999592,
        "lat": 28.629042,
        "lon": 77.076916,
        "tags": {
          "addr:housenumber": "710",
          "addr:postcode": "110058",
          "addr:street": "Shivaji Road",
          "amenity": "restaurant",
          "cuisine": "indian",
          "name": "Khan Chacha",
          "name:en": "Khan Chacha",
          "name:hi": "\u0916\u093e\u0928 \u091a\u093e\u091a\u093e",
          "opening_hours": "Mo-Su 11:00-23:00",
          "website": "https://www.khanchacha.in/"
        }
      },
      {
        "type": "node",
        "id": 4783007725,
        "lat": 28.6306468,
        "lon": 77.0764733,
        "tags": {
          "addr:postcode": "110018",
          "addr:street": "C-20/A New Krishnapark",
          "amenity": "clinic",
          "email": "dr.skjain@yahoo.com",
          "name": "Dr Jain's Clinic",
          "name:en": "Dr Jain's Clinic",
          "opening_hours": "Mo-Su 18:00-21:00",
          "operator": "Dr S K Jain",
          "phone": "9811147070"
        }
      },
      {
        "type": "node",
        "id": 4783048321,
        "lat": 28.6309047,
        "lon": 77.0764877,
        "tags": {
          "addr:housenumber": "C-20/A",
          "addr:postcode": "110018",
          "addr:street": "New Krishna Park",
          "amenity": "clinic",
          "internet_access": "wlan",
          "name": "Dr S K Jain's Clinic",
          "name:en": "Dr S K Jain's Clinic",
          "opening_hours": "Mo-Sa 18:00-20:00",
          "operator": "Dr S K Jain",
          "phone": "9811147070"
        }
      },
      {
        "type": "node",
        "id": 5841894911,
        "lat": 28.6329087,
        "lon": 77.086855,
        "tags": {
          "amenity": "cafe",
          "brand": "Cafe Coffee Day",
          "brand:wikidata": "Q5017235",
          "cuisine": "coffee_shop",
          "level": "0",
          "name": "Cafe Coffee Day",
          "takeaway": "yes"
        }
      },
      {
        "type": "node",
        "id": 7543715664,
        "lat": 28.634107,
        "lon": 77.076458,
        "tags": {
          "addr:district": "West Delhi",
          "addr:full": "M-1, Main PVR Road, Block M, Vikaspuri",
          "addr:postcode": "110018",
          "addr:state": "Delhi",
          "amenity": "hospital",
          "name": "UK Nursing Home",
          "source": "Local Knowledge"
        }
      },
      {
        "type": "node",
        "id": 7543715750,
        "lat": 28.621501,
        "lon": 77.081707,
        "tags": {
          "addr:district": "West Delhi",
          "addr:full": "18, Block A3, Janakpuri",
          "addr:postcode": "110058",
          "addr:state": "Delhi",
          "amenity": "hospital",
          "name": "Sai Nursing Home",
          "source": "Local Knowledge"
        }
      },
      {
        "type": "node",
        "id": 7543715762,
        "lat": 28.620503,
        "lon": 77.080925,
        "tags": {
          "addr:district": "West Delhi",
          "addr:full": "C-1-127,Janakpuri",
          "addr:postcode": "110058",
          "addr:state": "Delhi",
          "amenity": "clinic",
          "name": "Jainak Medical and Orthopaedic Center",
          "source": "Local Knowledge"
        }
      },
      {
        "type": "node",
        "id": 7543715767,
        "lat": 28.620674,
        "lon": 77.08125,
        "tags": {
          "addr:district": "West Delhi",
          "addr:full": "C-1/130, Block C1, Janakpuri",
          "addr:postcode": "110058",
          "addr:state": "Delhi",
          "amenity": "hospital",
          "name": "Genesis Hospital",
          "source": "Local Knowledge"
        }
      },
      {
        "type": "node",
        "id": 9378798600,
        "lat": 28.6292748,
        "lon": 77.0827141,
        "tags": {
          "addr:city": "new Delhi",
          "addr:housenumber": "G-38 to 42,",
          "addr:postcode": "110058",
          "addr:street": "ground floor, Suneja Tower-1-Plot-7, Janakpuri District Center, Janakpuri",
          "air_conditioning": "yes",
          "amenity": "restaurant",
          "bar": "yes",
          "brand": "Talli station",
          "capacity": "50",
          "cuisine": "indian;chinese;italian",
          "delivery": "yes",
          "diet:halal": "yes",
          "diet:vegan": "yes",
          "diet:vegetarian": "yes",
          "name": "Talli Station Janakpuri",
          "opening_hours": "Mo-Su 12:00-23:00",
          "opening_hours:covid19": "Mo-Su 12:00-20:00",
          "phone": "+91 9911054940",
          "takeaway": "yes",
          "website": "https://tallistation.in"
        }
      },
      {
        "type": "node",
        "id": 12295741301,
        "lat": 28.6300526,
        "lon": 77.0814155,
        "tags": {
          "addr:housenumber": "G14",
          "addr:street": "Shivaji Marg",
          "amenity": "restaurant",
          "name": "PizzaExpress",
          "opening_hours": "Mo-Su 11:30-23:30"
        }
      }
    ]
  },
  "pois_2_5km": {
    "version": 0.6,
    "generator": "Overpass API 0.7.62.8 e802775f",
    "osm3s": {
      "timestamp_osm_base": "2025-09-06T07:17:45Z",
      "copyright": "The data included in this document is from www.openstreetmap.org. The data is made available under ODbL."
    },
    "elements": [
      {
        "type": "node",
        "id": 249823566,
        "lat": 28.6217367,
        "lon": 77.0557191,
        "tags": {
          "name": "Uttam Nagar West",
          "network": "Delhi Metro",
          "note": "Contributors are requested to not edit the \"network\" and the \"operator\" tags. (2023/06/22)",
          "operator": "Delhi Metro Rail Corporation Limited",
          "public_transport": "stop_position",
          "railway": "stop",
          "subway": "yes"
        }
      },
      {
        "type": "node",
        "id": 347677816,
        "lat": 28.6365265,
        "lon": 77.096482,
        "tags": {
          "name": "Tilak Nagar",
          "name:hi": "\u0924\u093f\u0932\u0915 \u0928\u0917\u0930",
          "network": "Delhi Metro",
          "note": "Contributors are requested to not edit the \"network\" and the \"operator\" tags. (2023/06/23)",
          "operator": "Delhi Metro Rail Corporation Limited",
          "public_transport": "stop_position",
          "railway": "stop",
          "subway": "yes",
          "wikidata": "Q11318978",
          "wikipedia": "en:Tilak Nagar metro station"
        }
      },
      {
        "type": "node",
        "id": 347685176,
        "lat": 28.6248301,
        "lon": 77.0652972,
        "tags": {
          "name": "Uttam Nagar East",
          "network": "Delhi Metro",
          "note": "Contributors are requested to not edit the \"network\" and the \"operator\" tags. (2023/06/22)",
          "operator": "Delhi Metro Rail Corporation Limited",
          "public_transport": "stop_position",
          "railway": "stop",
          "subway": "yes"
        }
      },
      {
        "type": "node",
        "id": 347685192,
        "lat": 28.6295652,
        "lon": 77.0780939,
        "tags": {
          "name": "Janakpuri West",
          "network": "Delhi Metro",
          "note": "Contributors are requested to not edit the \"network\" and the \"operator\" tags. (2023/06/22)",
          "operator": "Delhi Metro Rail Corporation Limited",
          "public_transport": "stop_position",
          "railway": "stop",
          "ref": "JPW",
          "subway": "yes"
        }
      },
      {
        "type": "node",
        "id": 913550169,
        "lat": 28.6329889,
        "lon": 77.0867273,
        "tags": {
          "name": "Janakpuri East",
          "name:hi": "\u091c\u0928\u0915\u092a\u0941\u0930\u0940 \u092a\u0942\u0930\u094d\u0935",
          "network": "Delhi Metro",
          "note": "Contributors are requested to not edit the \"network\" and the \"operator\" tags. (2023/06/22)",
          "operator": "Delhi Metro Rail Corporation Limited",
          "public_transport": "stop_position",
          "railway": "stop",
          "subway": "yes",
          "wikidata": "Q11309886"
        }
      },
      {
        "type": "node",
        "id": 1179296138,
        "lat": 28.6390596,
        "lon": 77.0747469,
        "tags": {
          "amenity": "cinema",
          "key": "PVR, Vikaspuri"
        }
      },
      {
        "type": "node",
        "id": 1179299675,
        "lat": 28.6297371,
        "lon": 77.0819031,
        "tags": {
          "addr:street": "janakpuri",
          "amenity": "cinema",
          "name": "Satyam",
          "note": "District Center"
        }
      },
      {
        "type": "node",
        "id": 1374470970,
        "lat": 28.6226568,
        "lon": 77.0955455,
        "tags": {
          "amenity": "fuel"
        }
      },
      {
        "type": "node",
        "id": 1374470981,
        "lat": 28.6225631,
        "lon": 77.0952665,
        "tags": {
          "amenity": "fuel"
        }
      },
      {
        "type": "node",
        "id": 2682211311,
        "lat": 28.6304459,
        "lon": 77.0683725,
        "tags": {
          "amenity": "fuel"
        }
      },
      {
        "type": "node",
        "id": 2832938325,
        "lat": 28.6157555,
        "lon": 77.085178,
        "tags": {
          "name": "Dabri Mor - Janakpuri South",
          "name:hi": "\u0921\u093e\u092c\u0930\u0940 \u092e\u094b\u0921\u093c - \u091c\u0928\u0915\u092a\u0941\u0930\u0940 \u0938\u093e\u0909\u0925",
          "network": "Delhi Metro",
          "note": "Contributors are requested to not edit the \"network\" and the \"operator\" tags. (2023/06/22)",
          "operator": "Delhi Metro Rail Corporation Limited",
          "public_transport": "stop_position",
          "railway": "stop",
          "ref": "DBMR",
          "subway": "yes"
        }
      },
      {
        "type": "node",
        "id": 2832938329,
        "lat": 28.6289471,
        "lon": 77.0779492,
        "tags": {
          "name": "Janakpuri West",
          "name:hi": "\u091c\u0928\u0915\u092a\u0941\u0930\u0940 \u0935\u0947\u0938\u094d\u091f",
          "network": "Delhi Metro",
          "note": "Contributors are requested to not edit the \"network\" and the \"operator\" tags. (2023/06/22)",
          "operator": "Delhi Metro Rail Corporation Limited",
          "public_transport": "station",
          "railway": "station",
          "ref": "JPW",
          "station": "subway",
          "subway": "yes",
          "wheelchair": "yes",
          "wikidata": "Q6150737",
          "wikipedia": "en:Janakpuri West metro station"
        }
      },
      {
        "type": "node",
        "id": 4805164134,
        "lat": 28.6254532,
        "lon": 77.0658383,
        "tags": {
          "bus": "yes",
          "name": "Uttam Nagar Terminal",
          "public_transport": "stop_position"
        }
      },
      {
        "type": "node",
        "id": 5716106713,
        "lat": 28.6242375,
        "lon": 77.0678057,
        "tags": {
          "bus": "yes",
          "public_transport": "stop_position"
        }
      },
      {
        "type": "node",
        "id": 5737167703,
        "lat": 28.636564,
        "lon": 77.0964621,
        "tags": {
          "name": "Tilak Nagar",
          "name:hi": "\u0924\u093f\u0932\u0915 \u0928\u0917\u0930",
          "network": "Delhi Metro",
          "note": "Contributors are requested to not edit the \"network\" and the \"operator\" tags. (2023/06/23)",
          "operator": "Delhi Metro Rail Corporation Limited",
          "public_transport": "stop_position",
          "subway": "yes",
          "wikidata": "Q11318978",
          "wikipedia": "en:Tilak Nagar metro station"
        }
      },
      {
        "type": "node",
        "id": 5737167711,
        "lat": 28.633027,
        "lon": 77.086709,
        "tags": {
          "name": "Janakpuri East",
          "name:hi": "\u091c\u0928\u0915\u092a\u0941\u0930\u0940 \u092a\u0942\u0930\u094d\u0935",
          "network": "Delhi Metro",
          "note": "Contributors are requested to not edit the \"network\" and the \"operator\" tags. (2023/06/22)",
          "operator": "Delhi Metro Rail Corporation Limited",
          "public_transport": "stop_position",
          "railway": "stop",
          "subway": "yes",
          "wikidata": "Q11309886"
        }
      },
      {
        "type": "node",
        "id": 5737167717,
        "lat": 28.6296028,
        "lon": 77.0780743,
        "tags": {
          "name": "Janakpuri West",
          "network": "Delhi Metro",
          "note": "Contributors are requested to not edit the \"network\" and the \"operator\" tags. (2023/06/22)",
          "operator": "Delhi Metro Rail Corporation Limited",
          "public_transport": "stop_position",
          "railway": "stop",
          "ref": "JPW",
          "subway": "yes"
        }
      },
      {
        "type": "node",
        "id": 5737167932,
        "lat": 28.6248679,
        "lon": 77.0652782,
        "tags": {
          "name": "Uttam Nagar East",
          "network": "Delhi Metro",
          "note": "Contributors are requested to not edit the \"network\" and the \"operator\" tags. (2023/06/22)",
          "operator": "Delhi Metro Rail Corporation Limited",
          "public_transport": "stop_position",
          "railway": "stop",
          "subway": "yes"
        }
      },
      {
        "type": "node",
        "id": 5737167941,
        "lat": 28.6217769,
        "lon": 77.0557081,
        "tags": {
          "name": "Uttam Nagar West",
          "network": "Delhi Metro",
          "note": "Contributors are requested to not edit the \"network\" and the \"operator\" tags. (2023/06/22)",
          "operator": "Delhi Metro Rail Corporation Limited",
          "public_transport": "stop_position",
          "railway": "stop",
          "subway": "yes"
        }
      },
      {
        "type": "node",
        "id": 5777631155,
        "lat": 28.6157407,
        "lon": 77.0852269,
        "tags": {
          "name": "Dabri Mor - Janakpuri South",
          "name:hi": "\u0921\u093e\u092c\u0930\u0940 \u092e\u094b\u0921\u093c - \u091c\u0928\u0915\u092a\u0941\u0930\u0940 \u0938\u093e\u0909\u0925",
          "network": "Delhi Metro",
          "note": "Contributors are requested to not edit the \"network\" and the \"operator\" tags. (2023/06/22)",
          "operator": "Delhi Metro Rail Corporation Limited",
          "public_transport": "stop_position",
          "railway": "stop",
          "ref": "DBMR",
          "subway": "yes"
        }
      },
      {
        "type": "node",
        "id": 5777631164,
        "lat": 28.6289685,
        "lon": 77.0779709,
        "tags": {
          "name": "Janakpuri West",
          "name:hi": "\u091c\u0928\u0915\u092a\u0941\u0930\u0940 \u0935\u0947\u0938\u094d\u091f",
          "network": "Delhi Metro",
          "note": "Contributors are requested to not edit the \"network\" and the \"operator\" tags. (2023/06/22)",
          "operator": "Delhi Metro Rail Corporation Limited",
          "public_transport": "stop_position",
          "railway": "stop",
          "ref": "JPW",
          "subway": "yes"
        }
      },
      {
        "type": "node",
        "id": 5819987433,
        "lat": 28.6260795,
        "lon": 77.0683224,
        "tags": {
          "bus": "yes",
          "name": "Uttam Nagar Terminal",
          "public_transport": "stop_position"
        }
      },
      {
        "type": "node",
        "id": 6541854249,
        "lat": 28.6295839,
        "lon": 77.078085,
        "tags": {
          "name": "Janakpuri West",
          "name:hi": "\u091c\u0928\u0915\u092a\u0941\u0930\u0940 \u0935\u0947\u0938\u094d\u091f",
          "network": "Delhi Metro",
          "note": "Contributors are requested to not edit the \"network\" and the \"operator\" tags. (2023/06/22)",
          "operator": "Delhi Metro Rail Corporation Limited",
          "public_transport": "station",
          "railway": "station",
          "ref": "JPW",
          "station": "subway",
          "subway": "yes",
          "wikidata": "Q6150737",
          "wikipedia": "en:Janakpuri West metro station"
        }
      },
      {
        "type": "node",
        "id": 6541854250,
        "lat": 28.6248465,
        "lon": 77.0652861,
        "tags": {
          "name": "Uttam Nagar East",
          "name:hi": "\u0909\u0924\u094d\u0924\u092e \u0928\u0917\u0930 \u092a\u0942\u0930\u094d\u0935",
          "network": "Delhi Metro",
          "note": "Contributors are requested to not edit the \"network\" and the \"operator\" tags. (2023/06/22)",
          "operator": "Delhi Metro Rail Corporation Limited",
          "public_transport": "station",
          "railway": "station",
          "station": "subway",
          "subway": "yes",
          "wikidata": "Q11288933",
          "wikipedia": "en:Uttam Nagar East metro station"
        }
      },
      {
        "type": "node",
        "id": 6541854251,
        "lat": 28.621757,
        "lon": 77.0557122,
        "tags": {
          "name": "Uttam Nagar West",
          "name:hi": "\u0909\u0924\u094d\u0924\u092e \u0928\u0917\u0930 \u092a\u0936\u094d\u091a\u093f\u092e",
          "network": "Delhi Metro",
          "note": "Contributors are requested to not edit the \"network\" and the \"operator\" tags. (2023/06/22)",
          "operator": "Delhi Metro Rail Corporation Limited",
          "public_transport": "station",
          "railway": "station",
          "station": "subway",
          "subway": "yes",
          "wikidata": "Q11288937",
          "wikipedia": "en:Uttam Nagar West metro station"
        }
      },
      {
        "type": "node",
        "id": 6548798518,
        "lat": 28.633021,
        "lon": 77.086757,
        "tags": {
          "name": "Janakpuri East",
          "name:hi": "\u091c\u0928\u0915\u092a\u0941\u0930\u0940 \u092a\u0942\u0930\u094d\u0935",
          "network": "Delhi Metro",
          "note": "Contributors are requested to not edit the \"network\" and the \"operator\" tags. (2023/06/22)",
          "operator": "Delhi Metro Rail Corporation Limited",
          "public_transport": "station",
          "railway": "station",
          "station": "subway",
          "subway": "yes",
          "wikidata": "Q11309886",
          "wikipedia": "en:Janakpuri East metro station"
        }
      },
      {
        "type": "node",
        "id": 6548798519,
        "lat": 28.6365482,
        "lon": 77.0964961,
        "tags": {
          "name": "Tilak Nagar",
          "name:hi": "\u0924\u093f\u0932\u0915 \u0928\u0917\u0930",
          "network": "Delhi Metro",
          "network:wikidata": "Q271195",
          "note": "Contributors are requested to not edit the \"network\" and the \"operator\" tags. (2023/06/22)",
          "operator": "Delhi Metro Rail Corporation Limited",
          "operator:wikidata": "Q1029339",
          "public_transport": "station",
          "railway": "station",
          "station": "subway",
          "subway": "yes",
          "wikidata": "Q11318978",
          "wikipedia": "en:Tilak Nagar metro station"
        }
      },
      {
        "type": "node",
        "id": 9936590366,
        "lat": 28.61572,
        "lon": 77.0851893,
        "tags": {
          "name": "Dabri Mor - Janakpuri South",
          "name:hi": "\u0921\u093e\u092c\u0930\u0940 \u092e\u094b\u0921\u093c - \u091c\u0928\u0915\u092a\u0941\u0930\u0940 \u0938\u093e\u0909\u0925",
          "network": "Delhi Metro",
          "note": "Contributors are requested to not edit the \"network\" and the \"operator\" tags. (2023/06/22)",
          "operator": "Delhi Metro Rail Corporation Limited",
          "public_transport": "station",
          "railway": "station",
          "ref": "DBMR",
          "station": "subway",
          "subway": "yes",
          "wikidata": "Q24807633",
          "wikipedia": "en:Dabri Mor - Janakpuri South metro station"
        }
      },
      {
        "type": "node",
        "id": 9937092485,
        "lat": 28.6289502,
        "lon": 77.0779235,
        "tags": {
          "name": "Janakpuri West",
          "name:hi": "\u091c\u0928\u0915\u092a\u0941\u0930\u0940 \u0935\u0947\u0938\u094d\u091f",
          "network": "Delhi Metro",
          "note": "Contributors are requested to not edit the \"network\" and the \"operator\" tags. (2023/06/22)",
          "operator": "Delhi Metro Rail Corporation Limited",
          "public_transport": "stop_position",
          "railway": "stop",
          "ref": "JPW",
          "subway": "yes"
        }
      },
      {
        "type": "node",
        "id": 12149316873,
        "lat": 28.6477823,
        "lon": 77.0844169,
        "tags": {
          "name": "Krishna Park Extension",
          "name:hi": "\u0915\u0943\u0937\u094d\u0923\u093e \u092a\u093e\u0930\u094d\u0915 \u090f\u0915\u094d\u0938\u091f\u0947\u0902\u0936\u0928",
          "network": "Delhi Metro",
          "operator": "Delhi Metro Rail Corporation Limited",
          "public_transport": "station",
          "railway": "station",
          "station": "subway",
          "subway": "yes",
          "wheelchair": "yes",
          "wikidata": "Q131309538",
          "wikipedia": "en:Krishna Park Extension metro station"
        }
      },
      {
        "type": "node",
        "id": 12478112132,
        "lat": 28.6478016,
        "lon": 77.0843102,
        "tags": {
          "name": "Krishna Park Extension",
          "name:hi": "\u0915\u0943\u0937\u094d\u0923\u093e \u092a\u093e\u0930\u094d\u0915 \u090f\u0915\u094d\u0938\u091f\u0947\u0902\u0936\u0928",
          "public_transport": "stop_position",
          "subway": "yes"
        }
      },
      {
        "type": "node",
        "id": 12478112133,
        "lat": 28.6477914,
        "lon": 77.0843549,
        "tags": {
          "name": "Krishna Park Extension",
          "name:hi": "\u0915\u0943\u0937\u094d\u0923\u093e \u092a\u093e\u0930\u094d\u0915 \u090f\u0915\u094d\u0938\u091f\u0947\u0902\u0936\u0928",
          "public_transport": "stop_position",
          "subway": "yes"
        }
      }
    ]
  }
}