{
  "pois_1km": {
    "version": 0.6,
    "generator": "Overpass API 0.7.62.8 e802775f",
    "osm3s": {
      "timestamp_osm_base": "2025-09-06T07:27:06Z",
      "copyright": "The data included in this document is from www.openstreetmap.org. The data is made available under ODbL."
    },
    "elements": [
      {
        "type": "node",
        "id": 3954631321,
        "lat": 28.699593,
        "lon": 77.1045409,
        "tags": {
          "addr:city": "Noida",
          "addr:housenumber": "12",
          "addr:postcode": "201301",
          "addr:street": "Sector 22",
          "amenity": "hospital",
          "name": "Tamish",
          "operator": "abc"
        }
      },
      {
        "type": "node",
        "id": 4483884793,
        "lat": 28.692076,
        "lon": 77.1157636,
        "tags": {
          "amenity": "clinic",
          "name": "Radha Krishna Medilink",
          "name:en": "Radha Krishna Medilink"
        }
      },
      {
        "type": "node",
        "id": 4483884794,
        "lat": 28.6920999,
        "lon": 77.1160966,
        "tags": {
          "amenity": "doctors",
          "name": "MSS Hospital",
          "name:en": "MSS Hospital"
        }
      },
      {
        "type": "node",
        "id": 4483893392,
        "lat": 28.6920814,
        "lon": 77.1160257,
        "tags": {
          "amenity": "clinic",
          "name": "Patanjali store",
          "name:en": "Patanjali store"
        }
      },
      {
        "type": "node",
        "id": 5340920122,
        "lat": 28.7055417,
        "lon": 77.1112272,
        "tags": {
          "amenity": "clinic",
          "name": "Joshi Diabetes Centre"
        }
      },
      {
        "type": "node",
        "id": 7138632140,
        "lat": 28.7037242,
        "lon": 77.1025419,
        "tags": {
          "addr:district": "North West",
          "addr:full": "G-26 Block, Sector-03, Rohini",
          "addr:postcode": "110085",
          "addr:state": "Delhi",
          "amenity": "clinic",
          "contact:phone": "27510385",
          "description": "Maternity Home",
          "health_facility:type": "dispensary",
          "healthcare": "centre",
          "name": "Delhi Government Dispensary, Rohini, Sec 3",
          "source": "OpenGovernmentData"
        }
      },
      {
        "type": "node",
        "id": 7138632201,
        "lat": 28.6996241,
        "lon": 77.1002822,
        "tags": {
          "addr:district": "North West",
          "addr:full": "Delhi Govt Dispensary, Plot No.2, Sector-02, Rohini",
          "addr:postcode": "110085",
          "addr:state": "Delhi",
          "amenity": "clinic",
          "contact:phone": "27515024",
          "description": "Dispensaries",
          "health_facility:type": "dispensary",
          "healthcare": "centre",
          "name": "Aam Aadmi Polyclinic, Rohini Sector2",
          "source": "OpenGovernmentData"
        }
      },
      {
        "type": "node",
        "id": 7545203163,
        "lat": 28.6948742,
        "lon": 77.1088735,
        "tags": {
          "addr:district": "North West Delhi",
          "addr:full": "Golden Red Light, A-12 Pushpanjali Enclave, Outer Ring Road, Pitam Pura",
          "addr:postcode": "110088",
          "addr:state": "Delhi",
          "amenity": "hospital",
          "name": "Navjeevan Hospital",
          "source": "Local Knowledge"
        }
      },
      {
        "type": "node",
        "id": 7545203179,
        "lat": 28.6963424,
        "lon": 77.1018968,
        "tags": {
          "addr:district": "North West Delhi",
          "addr:full": "210, Street Number 20, Mangol Pur Kalan, Mangolpuri S Block",
          "addr:postcode": "110085",
          "addr:state": "Delhi",
          "amenity": "clinic",
          "name": "Aam Admi Polyclinic",
          "source": "Local Knowledge"
        }
      },
      {
        "type": "node",
        "id": 7545203204,
        "lat": 28.6979066,
        "lon": 77.1085167,
        "tags": {
          "addr:district": "North West Delhi",
          "addr:full": "A-3/8, Opposite Jaipur Golden Hospital, Sector 3, Rohini",
          "addr:postcode": "110085",
          "addr:state": "Delhi",
          "amenity": "hospital",
          "name": "Avantika Multispeciality Hospital",
          "source": "Local Knowledge"
        }
      },
      {
        "type": "node",
        "id": 8017632093,
        "lat": 28.6949173,
        "lon": 77.1184738,
        "tags": {
          "leisure": "park"
        }
      },
      {
        "type": "node",
        "id": 8017643959,
        "lat": 28.7015614,
        "lon": 77.1051336,
        "tags": {
          "leisure": "park"
        }
      },
      {
        "type": "node",
        "id": 12000552873,
        "lat": 28.7020305,
        "lon": 77.1171002,
        "tags": {
          "amenity": "cafe",
          "brand": "Starbucks",
          "brand:wikidata": "Q37158",
          "cuisine": "coffee_shop",
          "name": "Starbucks",
          "official_name": "Starbucks Coffee",
          "takeaway": "yes",
          "website:menu": "http://starbucks.in"
        }
      },
      {
        "type": "node",
        "id": 12842336342,
        "lat": 28.6999119,
        "lon": 77.1176992,
        "tags": {
          "amenity": "bank",
          "brand": "IDBI Bank",
          "name": "IDBI Bank",
          "short_name": "IDBI"
        }
      }
    ]
  },
  "pois_2_5km": {
    "version": 0.6,
    "generator": "Overpass API 0.7.62.8 e802775f",
    "osm3s": {
      "timestamp_osm_base": "2025-09-06T07:27:06Z",
      "copyright": "The data included in this document is from www.openstreetmap.org. The data is made available under ODbL."
    },
    "elements": [
      {
        "type": "node",
        "id": 600645512,
        "lat": 28.6773285,
        "lon": 77.1122776,
        "tags": {
          "name": "Paschim Vihar East",
          "name:hi": "\u092a\u0936\u094d\u091a\u093f\u092e \u0935\u093f\u0939\u093e\u0930 \u092a\u0942\u0930\u094d\u0935",
          "network": "Delhi Metro",
          "note": "Contributors are requested to not edit the \"network\" and the \"operator\" tags. (2023/06/23)",
          "operator": "Delhi Metro Rail Corporation Limited",
          "public_transport": "stop_position",
          "subway": "yes"
        }
      },
      {
        "type": "node",
        "id": 610889203,
        "lat": 28.6785848,
        "lon": 77.1022105,
        "tags": {
          "name": "Paschim Vihar West",
          "name:hi": "\u092a\u0936\u094d\u091a\u093f\u092e \u0935\u093f\u0939\u093e\u0930 \u092a\u0936\u094d\u091a\u093f\u092e",
          "network": "Delhi Metro",
          "note": "Contributors are requested to not edit the \"network\" and the \"operator\" tags. (2023/06/22)",
          "operator": "Delhi Metro Rail Corporation Limited",
          "public_transport": "stop_position",
          "railway": "stop",
          "subway": "yes"
        }
      },
      {
        "type": "node",
        "id": 663765153,
        "lat": 28.7032676,
        "lon": 77.1322497,
        "tags": {
          "name": "Pitam Pura",
          "name:hi": "\u092a\u0940\u0924\u092e\u092a\u0941\u0930\u093e",
          "name:ur": "\u067e\u06cc\u062a\u0645 \u067e\u0648\u0631\u06c1",
          "network": "Delhi Metro",
          "note": "Contributors are requested to not edit the \"network\" and the \"operator\" tags. (2023/06/22)",
          "operator": "Delhi Metro Rail Corporation Limited",
          "public_transport": "station",
          "railway": "station",
          "station": "subway",
          "subway": "yes",
          "wheelchair": "limited",
          "wikidata": "Q7198601",
          "wikipedia": "en:Pitampura metro station"
        }
      },
      {
        "type": "node",
        "id": 663766390,
        "lat": 28.7075774,
        "lon": 77.1259971,
        "tags": {
          "name": "Rohini East",
          "name:hi": "\u0930\u094b\u0939\u093f\u0923\u0940 \u0908\u0938\u094d\u091f",
          "network": "Delhi Metro",
          "note": "Contributors are requested to not edit the \"network\" and the \"operator\" tags. (2023/06/22)",
          "operator": "Delhi Metro Rail Corporation Limited",
          "public_transport": "station",
          "railway": "station",
          "station": "subway",
          "subway": "yes",
          "wheelchair": "limited",
          "wikidata": "Q11351030",
          "wikipedia": "en:Rohini East metro station"
        }
      },
      {
        "type": "node",
        "id": 1825166559,
        "lat": 28.7008618,
        "lon": 77.1151548,
        "tags": {
          "amenity": "fuel"
        }
      },
      {
        "type": "node",
        "id": 1826377964,
        "lat": 28.6882729,
        "lon": 77.0897215,
        "tags": {
          "amenity": "fuel"
        }
      },
      {
        "type": "node",
        "id": 1988598418,
        "lat": 28.7149569,
        "lon": 77.115385,
        "tags": {
          "name": "Rohini West",
          "name:hi": "\u0930\u094b\u0939\u093f\u0923\u0940 \u0935\u0947\u0938\u094d\u091f",
          "network": "Delhi Metro",
          "note": "Contributors are requested to not edit the \"network\" and the \"operator\" tags. (2023/06/22)",
          "operator": "Delhi Metro Rail Corporation Limited",
          "public_transport": "station",
          "railway": "station",
          "station": "subway",
          "subway": "yes",
          "wikidata": "Q7359754"
        }
      },
      {
        "type": "node",
        "id": 3043578397,
        "lat": 28.7180141,
        "lon": 77.1103196,
        "tags": {
          "addr:city": "Sector - 5, Rohini, Delhi",
          "addr:postcode": "110085",
          "amenity": "fuel",
          "name": "Bharat Petroleum"
        }
      },
      {
        "type": "node",
        "id": 4511544390,
        "lat": 28.7011545,
        "lon": 77.1163405,
        "tags": {
          "amenity": "theatre",
          "name": "M2K"
        }
      },
      {
        "type": "node",
        "id": 4511567591,
        "lat": 28.7150994,
        "lon": 77.1160674,
        "tags": {
          "air_conditioning": "yes",
          "amenity": "cinema",
          "brand": "Cin\u00e9polis",
          "name": "Cinepolis",
          "name:en": "Cinepolis",
          "not:brand:wikidata": "Q5686673",
          "wikidata": "Q5686673",
          "wikipedia": "en:Cin\u00e9polis"
        }
      },
      {
        "type": "node",
        "id": 5065142664,
        "lat": 28.6928006,
        "lon": 77.0997374,
        "tags": {
          "alt_name": "Sansad Vihar Terminal",
          "bus": "yes",
          "name": "West Enclave",
          "public_transport": "stop_position"
        }
      },
      {
        "type": "node",
        "id": 5777600345,
        "lat": 28.6773871,
        "lon": 77.1122873,
        "tags": {
          "name": "Paschim Vihar East",
          "name:hi": "\u092a\u0936\u094d\u091a\u093f\u092e \u0935\u093f\u0939\u093e\u0930 \u092a\u0942\u0930\u094d\u0935",
          "network": "Delhi Metro",
          "note": "Contributors are requested to not edit the \"network\" and the \"operator\" tags. (2023/06/23)",
          "operator": "Delhi Metro Rail Corporation Limited",
          "public_transport": "stop_position",
          "subway": "yes"
        }
      },
      {
        "type": "node",
        "id": 5777600347,
        "lat": 28.6786274,
        "lon": 77.1022176,
        "tags": {
          "name": "Paschim Vihar West",
          "name:hi": "\u092a\u0936\u094d\u091a\u093f\u092e \u0935\u093f\u0939\u093e\u0930 \u092a\u0936\u094d\u091a\u093f\u092e",
          "network": "Delhi Metro",
          "note": "Contributors are requested to not edit the \"network\" and the \"operator\" tags. (2023/06/22)",
          "operator": "Delhi Metro Rail Corporation Limited",
          "public_transport": "stop_position",
          "railway": "stop",
          "subway": "yes"
        }
      },
      {
        "type": "node",
        "id": 5777614216,
        "lat": 28.7075969,
        "lon": 77.1260218,
        "tags": {
          "name": "Rohini East",
          "name:hi": "\u0930\u094b\u0939\u093f\u0923\u0940 \u0908\u0938\u094d\u091f",
          "public_transport": "stop_position",
          "subway": "yes"
        }
      },
      {
        "type": "node",
        "id": 5818158988,
        "lat": 28.6939117,
        "lon": 77.1026607,
        "tags": {
          "amenity": "fuel",
          "brand": "Indian Oil"
        }
      },
      {
        "type": "node",
        "id": 6405278634,
        "lat": 28.7075492,
        "lon": 77.1259785,
        "tags": {
          "name": "Rohini East",
          "name:hi": "\u0930\u094b\u0939\u093f\u0923\u0940 \u0908\u0938\u094d\u091f",
          "public_transport": "stop_position",
          "subway": "yes"
        }
      },
      {
        "type": "node",
        "id": 6465991439,
        "lat": 28.6773563,
        "lon": 77.1122823,
        "tags": {
          "name": "Paschim Vihar East",
          "name:hi": "\u092a\u0936\u094d\u091a\u093f\u092e \u0935\u093f\u0939\u093e\u0930 \u092a\u0942\u0930\u094d\u0935",
          "network": "Delhi Metro",
          "note": "Contributors are requested to not edit the \"network\" and the \"operator\" tags. (2023/06/22)",
          "operator": "Delhi Metro Rail Corporation Limited",
          "public_transport": "station",
          "railway": "station",
          "station": "subway",
          "subway": "yes",
          "wikidata": "Q20718098",
          "wikipedia": "en:Paschim Vihar East metro station"
        }
      },
      {
        "type": "node",
        "id": 9066465094,
        "lat": 28.678613,
        "lon": 77.1022154,
        "tags": {
          "name": "Paschim Vihar West",
          "name:hi": "\u092a\u0936\u094d\u091a\u093f\u092e \u0935\u093f\u0939\u093e\u0930 \u092a\u0936\u094d\u091a\u093f\u092e",
          "network": "Delhi Metro",
          "note": "Contributors are requested to not edit the \"network\" and the \"operator\" tags. (2023/06/22)",
          "operator": "Delhi Metro Rail Corporation Limited",
          "public_transport": "station",
          "railway": "station",
          "station": "subway",
          "subway": "yes",
          "wikidata": "Q7141809"
        }
      },
      {
        "type": "node",
        "id": 9234884613,
        "lat": 28.691645,
        "lon": 77.1010123,
        "tags": {
          "bus": "yes",
          "name": "West Enclave",
          "public_transport": "stop_position"
        }
      },
      {
        "type": "node",
        "id": 9234884614,
        "lat": 28.6916293,
        "lon": 77.1008961,
        "tags": {
          "bus": "yes",
          "name": "West Enclave",
          "public_transport": "stop_position"
        }
      },
      {
        "type": "node",
        "id": 11834901854,
        "lat": 28.7203101,
        "lon": 77.1082353,
        "tags": {
          "bus": "yes",
          "name": "Rithala",
          "public_transport": "stop_position"
        }
      },
      {
        "type": "node",
        "id": 11834901855,
        "lat": 28.7204697,
        "lon": 77.1082335,
        "tags": {
          "bus": "yes",
          "name": "Rithala",
          "public_transport": "stop_position"
        }
      },
      {
        "type": "node",
        "id": 12791142283,
        "lat": 28.7088448,
        "lon": 77.1249782,
        "tags": {
          "public_transport": "stop_position",
          "share_taxi": "yes"
        }
      }
    ]
  }
}