{
  "pois_1km": {
    "version": 0.6,
    "generator": "Overpass API 0.7.62.8 e802775f",
    "osm3s": {
      "timestamp_osm_base": "2025-09-06T07:03:11Z",
      "copyright": "The data included in this document is from www.openstreetmap.org. The data is made available under ODbL."
    },
    "elements": [
      {
        "type": "node",
        "id": 544510362,
        "lat": 28.5342313,
        "lon": 77.2145639,
        "tags": {
          "amenity": "restaurant",
          "name": "Aggarwal Sweets"
        }
      },
      {
        "type": "node",
        "id": 544510366,
        "lat": 28.5349439,
        "lon": 77.2127469,
        "tags": {
          "amenity": "fast_food",
          "name": "South Indian Fast Food"
        }
      },
      {
        "type": "node",
        "id": 544510422,
        "lat": 28.534559,
        "lon": 77.2145726,
        "tags": {
          "amenity": "pharmacy",
          "name": "Vihan Medico"
        }
      },
      {
        "type": "node",
        "id": 544510423,
        "lat": 28.5323164,
        "lon": 77.2153932,
        "tags": {
          "amenity": "fast_food",
          "name": "Jai Baba Ki"
        }
      },
      {
        "type": "node",
        "id": 544510424,
        "lat": 28.5321445,
        "lon": 77.215931,
        "tags": {
          "amenity": "pharmacy",
          "name": "Sree Durga Chemist"
        }
      },
      {
        "type": "node",
        "id": 544510425,
        "lat": 28.5324543,
        "lon": 77.2174638,
        "tags": {
          "amenity": "fast_food",
          "name": "Om Sri Sai Snacks"
        }
      },
      {
        "type": "node",
        "id": 544510428,
        "lat": 28.5308092,
        "lon": 77.2179083,
        "tags": {
          "amenity": "restaurant",
          "name": "Raju Dhaba"
        }
      },
      {
        "type": "node",
        "id": 738197289,
        "lat": 28.5232994,
        "lon": 77.2071199,
        "tags": {
          "amenity": "atm"
        }
      },
      {
        "type": "node",
        "id": 1332267186,
        "lat": 28.5234495,
        "lon": 77.2073909,
        "tags": {
          "amenity": "fast_food",
          "brand": "McDonald's",
          "brand:pa": "\u0a2e\u0a48\u0a15\u0a21\u0a4b\u0a28\u0a32\u0a21\u2019\u0a1c\u0a3c",
          "brand:ur": "\u0645\u06a9\u0688\u0648\u0646\u0644\u0688\u0632",
          "brand:wikidata": "Q38076",
          "brand:wikipedia": "en:McDonald's",
          "brand:wikipedia:pa": "\u0a2e\u0a48\u0a15\u0a21\u0a4b\u0a28\u0a32\u0a21\u2019\u0a1c\u0a3c",
          "brand:wikipedia:ur": "\u0645\u06a9\u0688\u0648\u0646\u0644\u0688\u0632",
          "cuisine": "burger",
          "name": "McDonald's",
          "name:pa": "\u0a2e\u0a48\u0a15\u0a21\u0a4b\u0a28\u0a32\u0a21\u2019\u0a1c\u0a3c",
          "name:ur": "\u0645\u06a9\u0688\u0648\u0646\u0644\u0688\u0632",
          "takeaway": "yes"
        }
      },
      {
        "type": "node",
        "id": 2654012071,
        "lat": 28.5234052,
        "lon": 77.2076313,
        "tags": {
          "amenity": "cafe",
          "brand": "Cafe Coffee Day",
          "brand:wikidata": "Q5017235",
          "cuisine": "coffee_shop",
          "name": "Cafe Coffee Day",
          "takeaway": "yes"
        }
      },
      {
        "type": "node",
        "id": 2726664993,
        "lat": 28.5311318,
        "lon": 77.2185038,
        "tags": {
          "amenity": "atm"
        }
      },
      {
        "type": "node",
        "id": 2726668431,
        "lat": 28.5311271,
        "lon": 77.2185963,
        "tags": {
          "amenity": "fast_food",
          "name": "Aggarwal Sweets"
        }
      },
      {
        "type": "node",
        "id": 2833611505,
        "lat": 28.5226265,
        "lon": 77.2146736,
        "tags": {
          "shop": "supermarket"
        }
      },
      {
        "type": "node",
        "id": 3503120597,
        "lat": 28.5287087,
        "lon": 77.2126175,
        "tags": {
          "addr:housenumber": "92",
          "addr:street": "Hauz Rani",
          "amenity": "restaurant",
          "name": "Afghan Restaurant"
        }
      },
      {
        "type": "node",
        "id": 4461728238,
        "lat": 28.5279771,
        "lon": 77.2188973,
        "tags": {
          "air_conditioning": "yes",
          "amenity": "restaurant",
          "cuisine": "indian",
          "diet:vegan": "yes",
          "diet:vegetarian": "yes",
          "indoor_seating": "yes",
          "name": "Gulati Spice Market",
          "name:en": "Gulati Spice Market",
          "outdoor_seating": "no",
          "smoking": "no"
        }
      },
      {
        "type": "node",
        "id": 4483488493,
        "lat": 28.5269577,
        "lon": 77.2060927,
        "tags": {
          "amenity": "bank",
          "brand": "Yes Bank",
          "brand:wikidata": "Q2040394",
          "name": "Yes Bank",
          "website": "https://www.yesbank.in"
        }
      },
      {
        "type": "node",
        "id": 4814835721,
        "lat": 28.5271794,
        "lon": 77.2169494,
        "tags": {
          "amenity": "restaurant",
          "cuisine": "indian",
          "name": "Mahabelly",
          "name:en": "Mahabelly"
        }
      },
      {
        "type": "node",
        "id": 5117886626,
        "lat": 28.5294051,
        "lon": 77.2147726,
        "tags": {
          "name:ar": "\u0633\u0627\u0643\u062a \u0645\u0648\u0644",
          "shop": "supermarket"
        }
      },
      {
        "type": "node",
        "id": 5433538363,
        "lat": 28.5220709,
        "lon": 77.2150996,
        "tags": {
          "amenity": "pharmacy",
          "brand": "Apollo Pharmacy",
          "brand:wikidata": "Q62562612",
          "healthcare": "pharmacy",
          "level": "0",
          "name": "Apollo Pharmacy",
          "note": "This pharmacy is inside the hospital building."
        }
      },
      {
        "type": "node",
        "id": 5433538543,
        "lat": 28.5225508,
        "lon": 77.2145037,
        "tags": {
          "amenity": "pharmacy",
          "name": "Fortis Healthworld",
          "phone": "+91-11-4101-0609;+91-11-4101-0608"
        }
      },
      {
        "type": "node",
        "id": 5483330783,
        "lat": 28.5215986,
        "lon": 77.2161036,
        "tags": {
          "amenity": "bank",
          "atm": "yes",
          "branch": "Saket",
          "note": "closed every month's 2nd and 4th Saturday",
          "opening_hours": "Mo-Sa 10:00-16:00 \"cash transactions\", Mo-Sa 10:00-16:30 \"non-cash transactions\""
        }
      },
      {
        "type": "node",
        "id": 5483330784,
        "lat": 28.5243179,
        "lon": 77.2162014,
        "tags": {
          "amenity": "bank",
          "atm": "yes",
          "branch": "M Block, Saket",
          "brand": "ICICI Bank",
          "brand:wikidata": "Q1653258",
          "name": "ICICI Bank",
          "short_name": "ICICI"
        }
      },
      {
        "type": "node",
        "id": 5598384622,
        "lat": 28.5315336,
        "lon": 77.2075678,
        "tags": {
          "amenity": "clinic",
          "name": "Aggarwal Eye Institute"
        }
      },
      {
        "type": "node",
        "id": 5598384623,
        "lat": 28.5314875,
        "lon": 77.2077454,
        "tags": {
          "amenity": "fast_food",
          "name": "Go Foodie"
        }
      },
      {
        "type": "node",
        "id": 5630005875,
        "lat": 28.5182748,
        "lon": 77.2152203,
        "tags": {
          "amenity": "atm",
          "brand": "State Bank of India",
          "brand:en": "State Bank of India",
          "brand:wikidata": "Q1340361",
          "currency:INR": "yes",
          "drive_through": "no",
          "indoor": "yes",
          "note": "Contributors are requested to not edit the \"brand\", \"brand:en\", \"brand:wikidata\", \"operator\", \"operator:en\" and \"operator:wikidata\" tags. (2025/02/19)",
          "opening_hours": "24/7",
          "operator": "State Bank of India",
          "operator:en": "State Bank of India",
          "operator:wikidata": "Q1340361",
          "short_name": "SBI"
        }
      },
      {
        "type": "node",
        "id": 5630005876,
        "lat": 28.5251992,
        "lon": 77.2158892,
        "tags": {
          "amenity": "bank",
          "brand": "Kotak Mahindra Bank",
          "brand:wikidata": "Q2040404",
          "name": "Kotak Mahindra Bank"
        }
      },
      {
        "type": "node",
        "id": 5630005877,
        "lat": 28.5273626,
        "lon": 77.2060837,
        "tags": {
          "amenity": "fast_food",
          "cuisine": "indian",
          "name": "Bikaner Sweets"
        }
      },
      {
        "type": "node",
        "id": 5630005878,
        "lat": 28.5265864,
        "lon": 77.2058877,
        "tags": {
          "amenity": "atm",
          "brand": "Allahabad Bank",
          "brand:wikidata": "Q2018840",
          "operator": "Allahabad Bank",
          "operator:wikidata": "Q2018840"
        }
      },
      {
        "type": "node",
        "id": 5630005879,
        "lat": 28.5247847,
        "lon": 77.2063237,
        "tags": {
          "amenity": "fast_food",
          "diet:vegetarian": "yes",
          "name": "Wah Ji Wah"
        }
      },
      {
        "type": "node",
        "id": 5630005880,
        "lat": 28.5182823,
        "lon": 77.2151617,
        "tags": {
          "amenity": "bank",
          "branch": "Saket",
          "brand": "State Bank of India",
          "brand:wikidata": "Q1340361",
          "name": "State Bank of India",
          "opening_hours": "Mo-Sa 09:00-15:00; Sa[2,4] off",
          "short_name": "SBI"
        }
      },
      {
        "type": "node",
        "id": 5630006580,
        "lat": 28.5252369,
        "lon": 77.2158884,
        "tags": {
          "amenity": "atm",
          "brand": "Kotak Mahindra Bank",
          "brand:wikidata": "Q2040404",
          "opening_hours": "24/7",
          "operator": "Kotak Mahindra Bank",
          "operator:wikidata": "Q2040404"
        }
      },
      {
        "type": "node",
        "id": 5630006584,
        "lat": 28.5238706,
        "lon": 77.2069128,
        "tags": {
          "air_conditioning": "yes",
          "amenity": "fast_food",
          "brand": "Burger King",
          "cuisine": "burger",
          "level": "0",
          "name": "Burger Singh",
          "takeaway": "yes",
          "wheelchair": "no"
        }
      },
      {
        "type": "node",
        "id": 5799043496,
        "lat": 28.5253863,
        "lon": 77.2158378,
        "tags": {
          "amenity": "bank",
          "brand": "Syndicate Bank",
          "brand:wikidata": "Q2004088",
          "name": "Syndicate Bank"
        }
      },
      {
        "type": "node",
        "id": 5799044046,
        "lat": 28.5222089,
        "lon": 77.2149563,
        "tags": {
          "amenity": "atm",
          "brand": "Union Bank of India",
          "brand:wikidata": "Q2004078",
          "opening_hours": "24/7",
          "operator": "Union Bank of India",
          "operator:wikidata": "Q2004078"
        }
      },
      {
        "type": "node",
        "id": 5799044050,
        "lat": 28.5255607,
        "lon": 77.2157749,
        "tags": {
          "amenity": "bank",
          "brand": "State Bank of India",
          "brand:short": "SBI",
          "brand:wikidata": "Q1340361",
          "name": "State Bank of India",
          "short_name": "SBI"
        }
      },
      {
        "type": "node",
        "id": 5804017976,
        "lat": 28.524438,
        "lon": 77.2063699,
        "tags": {
          "amenity": "fast_food",
          "cuisine": "parantha"
        }
      },
      {
        "type": "node",
        "id": 5833418534,
        "lat": 28.5215529,
        "lon": 77.2160961,
        "tags": {
          "amenity": "atm",
          "brand": "Punjab National Bank",
          "brand:short": "PNB",
          "brand:wikidata": "Q2743499",
          "operator": "Punjab National Bank",
          "operator:wikidata": "Q2743499"
        }
      },
      {
        "type": "node",
        "id": 5833420547,
        "lat": 28.5220531,
        "lon": 77.2155672,
        "tags": {
          "amenity": "atm",
          "brand": "Allahabad Bank",
          "brand:wikidata": "Q2018840",
          "level": "0.5",
          "operator": "Allahabad Bank",
          "operator:wikidata": "Q2018840"
        }
      },
      {
        "type": "node",
        "id": 5833420548,
        "lat": 28.5220425,
        "lon": 77.2156177,
        "tags": {
          "amenity": "bank",
          "branch": "Saket",
          "brand": "Allahabad Bank",
          "brand:wikidata": "Q2018840",
          "level": "0.5",
          "name": "Allahabad Bank",
          "opening_hours": "Mo-Fr 10:00-14:00 \"cash and non-cash transactions\", 14:30-15:30 \"cash and non-cash transactions\", 15:30-16:00 \"non-cash transactions only\", Sa 10:00-12:30 \"cash and non-cash transactions\", 12:30-13:00 \"non-cash transactions\""
        }
      },
      {
        "type": "node",
        "id": 5833420627,
        "lat": 28.5221971,
        "lon": 77.2150114,
        "tags": {
          "amenity": "bank",
          "branch": "Saket",
          "brand": "Union Bank of India",
          "brand:wikidata": "Q2004078",
          "name": "Union Bank of India"
        }
      },
      {
        "type": "node",
        "id": 5952600457,
        "lat": 28.5280341,
        "lon": 77.2190795,
        "tags": {
          "addr:city": "Delhi",
          "addr:postcode": "110017",
          "air_conditioning": "yes",
          "amenity": "fast_food",
          "brand": "Carl's Jr.",
          "brand:wikidata": "Q1043486",
          "cuisine": "burger",
          "diet:vegan": "yes",
          "diet:vegetarian": "yes",
          "email": "info@carlsjr.in",
          "indoor_seating": "yes",
          "name": "Carl's Jr.",
          "opening_hours": "Mo-Su 10:00-01:00",
          "outdoor_seating": "no",
          "phone": "+91 74002 74002",
          "smoking": "no",
          "takeaway": "yes",
          "website": "http://carlsjr.in/delivery/"
        }
      },
      {
        "type": "node",
        "id": 5960714088,
        "lat": 28.5309415,
        "lon": 77.2176182,
        "tags": {
          "amenity": "fast_food",
          "name": "chole kulche "
        }
      },
      {
        "type": "node",
        "id": 5960718386,
        "lat": 28.5329875,
        "lon": 77.2183321,
        "tags": {
          "amenity": "atm"
        }
      },
      {
        "type": "node",
        "id": 5960718387,
        "lat": 28.5309525,
        "lon": 77.2178945,
        "tags": {
          "name": "Ram Sudhir Jha",
          "opening_hours": "Mo-Su 06:00-20:00",
          "shop": "department_store"
        }
      },
      {
        "type": "node",
        "id": 5960718389,
        "lat": 28.5309684,
        "lon": 77.2174597,
        "tags": {
          "amenity": "restaurant",
          "name": "Om bhojanalaya",
          "name:en": "Om bhojanaya",
          "opening_hours": "Mo-Su 09:00-23:00"
        }
      },
      {
        "type": "node",
        "id": 5960737888,
        "lat": 28.5309212,
        "lon": 77.2174989,
        "tags": {
          "name": "sahabul",
          "opening_hours": "Mo-Su 06:00-23:00",
          "shop": "department_store"
        }
      },
      {
        "type": "node",
        "id": 5960737891,
        "lat": 28.5309103,
        "lon": 77.2171542,
        "tags": {
          "addr:housenumber": "s26",
          "shop": "department_store"
        }
      },
      {
        "type": "node",
        "id": 5960737892,
        "lat": 28.5309414,
        "lon": 77.2172221,
        "tags": {
          "name": "Hirdosh store",
          "name:en": "Hirdosh Store",
          "opening_hours": "Mo-Su 06:00-22:00",
          "shop": "department_store"
        }
      },
      {
        "type": "node",
        "id": 5960737989,
        "lat": 28.5309296,
        "lon": 77.2172921,
        "tags": {
          "amenity": "atm"
        }
      },
      {
        "type": "node",
        "id": 5960751787,
        "lat": 28.5309331,
        "lon": 77.2172615,
        "tags": {
          "addr:housenumber": "s 19",
          "name": "Aman store",
          "opening_hours": "Mo-Su 06:00-22:00",
          "shop": "department_store"
        }
      },
      {
        "type": "node",
        "id": 5960751890,
        "lat": 28.5309188,
        "lon": 77.2162408,
        "tags": {
          "addr:housenumber": "j 4/56",
          "amenity": "fast_food",
          "name": "chacha chicken point",
          "opening_hours": "Mo-Su 07:00-23:00"
        }
      },
      {
        "type": "node",
        "id": 5960754387,
        "lat": 28.5309083,
        "lon": 77.2170892,
        "tags": {
          "amenity": "fast_food",
          "name": "Fuchi: Chinese, Tibetan and Nepali food"
        }
      },
      {
        "type": "node",
        "id": 5960755786,
        "lat": 28.530941,
        "lon": 77.2171906,
        "tags": {
          "name": "In city mart",
          "shop": "department_store"
        }
      },
      {
        "type": "node",
        "id": 5960755787,
        "lat": 28.5309376,
        "lon": 77.2171635,
        "tags": {
          "name": "Gupta communication",
          "shop": "department_store"
        }
      },
      {
        "type": "node",
        "id": 5960760885,
        "lat": 28.5309486,
        "lon": 77.2168303,
        "tags": {
          "name": "Zafar store",
          "shop": "department_store"
        }
      },
      {
        "type": "node",
        "id": 5960760889,
        "lat": 28.5341421,
        "lon": 77.2169982,
        "tags": {
          "amenity": "cafe",
          "name": "the food factory"
        }
      },
      {
        "type": "node",
        "id": 5960760891,
        "lat": 28.5348606,
        "lon": 77.2168007,
        "tags": {
          "amenity": "pharmacy",
          "name": "gotam medical stor"
        }
      },
      {
        "type": "node",
        "id": 5960760895,
        "lat": 28.5354028,
        "lon": 77.2168481,
        "tags": {
          "alt_name": "Goli Vada Pav No.1",
          "amenity": "fast_food",
          "brand": "Goli Vada Pav",
          "brand:wikidata": "Q5580697",
          "cuisine": "indian",
          "name": "Goli Vada Pav",
          "takeaway": "yes"
        }
      },
      {
        "type": "node",
        "id": 5960760896,
        "lat": 28.5355862,
        "lon": 77.2166825,
        "tags": {
          "amenity": "cafe",
          "name": "wake up cafe"
        }
      },
      {
        "type": "node",
        "id": 5960767985,
        "lat": 28.5309082,
        "lon": 77.2165552,
        "tags": {
          "amenity": "restaurant",
          "name": "Ronak hotel",
          "opening_hours": "Mo-Su 07:00-22:00"
        }
      },
      {
        "type": "node",
        "id": 5960767986,
        "lat": 28.5328634,
        "lon": 77.2177772,
        "tags": {
          "amenity": "pharmacy",
          "name": "Durga chemist"
        }
      },
      {
        "type": "node",
        "id": 5960767987,
        "lat": 28.5347718,
        "lon": 77.2168878,
        "tags": {
          "amenity": "fast_food",
          "name": "aayanamay"
        }
      },
      {
        "type": "node",
        "id": 5960768085,
        "lat": 28.5309138,
        "lon": 77.216516,
        "tags": {
          "name": "Aakib store",
          "opening_hours": "Mo-Su 08:00-22:00",
          "shop": "department_store"
        }
      },
      {
        "type": "node",
        "id": 5960768086,
        "lat": 28.5309128,
        "lon": 77.2164704,
        "tags": {
          "name": "Afgani dukan",
          "shop": "department_store"
        }
      },
      {
        "type": "node",
        "id": 5960770986,
        "lat": 28.5308597,
        "lon": 77.2159706,
        "tags": {
          "name": "Ansari stores",
          "opening_hours": "Mo-Su 09:00-23:00",
          "shop": "department_store"
        }
      },
      {
        "type": "node",
        "id": 5960772491,
        "lat": 28.5309435,
        "lon": 77.216876,
        "tags": {
          "name": "Rajesh store",
          "shop": "department_store"
        }
      },
      {
        "type": "node",
        "id": 5960774587,
        "lat": 28.5309146,
        "lon": 77.2167688,
        "tags": {
          "amenity": "pharmacy",
          "name": "Suhani Medicos and Cosmetics"
        }
      },
      {
        "type": "node",
        "id": 5960774589,
        "lat": 28.5309449,
        "lon": 77.2165211,
        "tags": {
          "amenity": "doctors",
          "name": "Bengali Doctor"
        }
      },
      {
        "type": "node",
        "id": 5960774592,
        "lat": 28.5309148,
        "lon": 77.2161637,
        "tags": {
          "amenity": "doctors",
          "name": "Dr. Vaquar Alam"
        }
      },
      {
        "type": "node",
        "id": 5960774593,
        "lat": 28.5309019,
        "lon": 77.2161069,
        "tags": {
          "amenity": "restaurant",
          "name": "Imtiyaz",
          "opening_hours": "Mo-Th,Sa-Su 07:30-22:30"
        }
      },
      {
        "type": "node",
        "id": 5960774596,
        "lat": 28.5305488,
        "lon": 77.2161958,
        "tags": {
          "amenity": "restaurant",
          "name": "Muradabadi Hotel",
          "opening_hours": "Mo-Su 12:00-11:00"
        }
      },
      {
        "type": "node",
        "id": 5960774598,
        "lat": 28.5305794,
        "lon": 77.2163816,
        "tags": {
          "shop": "department_store"
        }
      },
      {
        "type": "node",
        "id": 5960777186,
        "lat": 28.530861,
        "lon": 77.2160576,
        "tags": {
          "amenity": "restaurant",
          "name": "munna hotel",
          "opening_hours": "Mo-Su 09:00-23:00"
        }
      },
      {
        "type": "node",
        "id": 5960777188,
        "lat": 28.5307823,
        "lon": 77.2159471,
        "tags": {
          "name": "Shop number 2",
          "opening_hours": "Mo-Su 11:00-22:00",
          "shop": "department_store"
        }
      },
      {
        "type": "node",
        "id": 5960793686,
        "lat": 28.5332342,
        "lon": 77.2210796,
        "tags": {
          "amenity": "clinic",
          "name": "Kohli Clinic",
          "opening_hours": "Mo-Su 10:00-20:00"
        }
      },
      {
        "type": "node",
        "id": 5960793691,
        "lat": 28.5340857,
        "lon": 77.2170413,
        "tags": {
          "amenity": "pharmacy",
          "name": "eeshwar"
        }
      },
      {
        "type": "node",
        "id": 5960793695,
        "lat": 28.5349486,
        "lon": 77.2167873,
        "tags": {
          "amenity": "restaurant",
          "name": "new aggarwal sweets"
        }
      },
      {
        "type": "node",
        "id": 5960793696,
        "lat": 28.5352006,
        "lon": 77.2167394,
        "tags": {
          "amenity": "pharmacy",
          "name": "v.g and co. "
        }
      },
      {
        "type": "node",
        "id": 5960793698,
        "lat": 28.5353248,
        "lon": 77.2167802,
        "tags": {
          "name": "fashion mania(clothes)",
          "shop": "department_store"
        }
      },
      {
        "type": "node",
        "id": 5960793700,
        "lat": 28.5355875,
        "lon": 77.2167704,
        "tags": {
          "amenity": "atm",
          "brand": "ICICI Bank",
          "brand:en": "ICICI Bank",
          "brand:wikidata": "Q1653258",
          "check_date": "2023-05-04",
          "currency:INR": "yes",
          "drive_through": "no",
          "indoor": "yes",
          "name": "ICICI Bank",
          "note": "Contributors are requested to not edit the \"brand\", \"brand:en\", \"brand:wikidata\", \"operator\", \"operator:en\" and \"operator:wikidata\" tags. (2025/02/19)",
          "opening_hours": "24/7",
          "operator": "ICICI Bank",
          "operator:en": "ICICI Bank",
          "operator:wikidata": "Q1653258",
          "short_name": "ICICI"
        }
      },
      {
        "type": "node",
        "id": 5960793701,
        "lat": 28.5357824,
        "lon": 77.2168719,
        "tags": {
          "amenity": "clinic",
          "name": "hi tech dental clinic"
        }
      },
      {
        "type": "node",
        "id": 5960793785,
        "lat": 28.5307727,
        "lon": 77.2159258,
        "tags": {
          "amenity": "doctors",
          "name": "Arogya Rejuvenating Point"
        }
      },
      {
        "type": "node",
        "id": 5960793786,
        "lat": 28.5304856,
        "lon": 77.2160239,
        "tags": {
          "name": "yakub",
          "name:en": "Yakub\u2019s shop",
          "opening_hours": "Mo-Su 07:00-23:00",
          "shop": "department_store"
        }
      },
      {
        "type": "node",
        "id": 5960793787,
        "lat": 28.5305631,
        "lon": 77.2162592,
        "tags": {
          "name": "Goyal stores",
          "shop": "department_store"
        }
      },
      {
        "type": "node",
        "id": 5960810292,
        "lat": 28.5341134,
        "lon": 77.219189,
        "tags": {
          "amenity": "pharmacy",
          "name": "medicine point"
        }
      },
      {
        "type": "node",
        "id": 5960811186,
        "lat": 28.5330915,
        "lon": 77.2218476,
        "tags": {
          "amenity": "restaurant",
          "name": "Chauhan fast food corner",
          "opening_hours": "Mo-Su 08:00-23:00"
        }
      },
      {
        "type": "node",
        "id": 5960811188,
        "lat": 28.5346261,
        "lon": 77.2206104,
        "tags": {
          "amenity": "clinic",
          "name": "care medical center"
        }
      },
      {
        "type": "node",
        "id": 5960811190,
        "lat": 28.5341349,
        "lon": 77.2194522,
        "tags": {
          "amenity": "clinic",
          "name": "indraprastha poly clinic ",
          "opening_hours": "Mo-Sa 11:00-13:30, Mo-Sa 18:00-21:00, Su 11:00-13:30"
        }
      },
      {
        "type": "node",
        "id": 5960811191,
        "lat": 28.5340646,
        "lon": 77.2187337,
        "tags": {
          "amenity": "restaurant",
          "cuisine": "chinese",
          "name": "Chilli Dragon"
        }
      },
      {
        "type": "node",
        "id": 5960820194,
        "lat": 28.5316504,
        "lon": 77.2186674,
        "tags": {
          "amenity": "cafe",
          "name": "Coffee Cafe 9"
        }
      },
      {
        "type": "node",
        "id": 5960820379,
        "lat": 28.532931,
        "lon": 77.218321,
        "tags": {
          "amenity": "atm",
          "name": "Indicash"
        }
      },
      {
        "type": "node",
        "id": 5960821086,
        "lat": 28.5329514,
        "lon": 77.2183666,
        "tags": {
          "amenity": "atm",
          "operator": "canara "
        }
      },
      {
        "type": "node",
        "id": 5960821087,
        "lat": 28.5347196,
        "lon": 77.2168741,
        "tags": {
          "amenity": "pharmacy",
          "name": "health care medicos"
        }
      },
      {
        "type": "node",
        "id": 5960821088,
        "lat": 28.5347368,
        "lon": 77.2184111,
        "tags": {
          "name": "Easy Day",
          "shop": "supermarket"
        }
      },
      {
        "type": "node",
        "id": 5960832388,
        "lat": 28.5347536,
        "lon": 77.2168822,
        "tags": {
          "amenity": "atm",
          "brand": "HDFC Bank",
          "brand:en": "HDFC Bank",
          "brand:wikidata": "Q631047",
          "currency:INR": "yes",
          "drive_through": "no",
          "indoor": "yes",
          "note": "Contributors are requested to not edit the \"brand\", \"brand:en\", \"brand:wikidata\", \"operator\", \"operator:en\" and \"operator:wikidata\" tags. (2025/02/19)",
          "opening_hours": "24/7",
          "operator": "HDFC Bank",
          "operator:en": "HDFC Bank",
          "operator:wikidata": "Q631047",
          "short_name": "HDFC"
        }
      },
      {
        "type": "node",
        "id": 5960832485,
        "lat": 28.5328426,
        "lon": 77.217287,
        "tags": {
          "amenity": "clinic",
          "name": "prakash dental care and physiotherapy",
          "opening_hours": "Su 09:30-01:00, Su 05:30-08:00"
        }
      },
      {
        "type": "node",
        "id": 5960910788,
        "lat": 28.5346351,
        "lon": 77.220773,
        "tags": {
          "amenity": "cafe",
          "name": "chaudhry tea  stall"
        }
      },
      {
        "type": "node",
        "id": 5960921985,
        "lat": 28.5332807,
        "lon": 77.2218792,
        "tags": {
          "amenity": "cafe",
          "name": "pandji tea stall "
        }
      },
      {
        "type": "node",
        "id": 6107002528,
        "lat": 28.5274255,
        "lon": 77.2171745,
        "tags": {
          "amenity": "cafe",
          "name": "Laidback Caf\u00e9",
          "opening_hours": "Mo-Su 12:00-01:00"
        }
      },
      {
        "type": "node",
        "id": 6150154260,
        "lat": 28.5233237,
        "lon": 77.2072733,
        "tags": {
          "amenity": "fast_food",
          "brand": "Subway",
          "brand:pa": "\u0a38\u0a2c\u0a35\u0a47\u0a05",
          "brand:ur": "\u0633\u0628 \u0648\u06d2",
          "brand:wikidata": "Q244457",
          "brand:wikipedia": "en:Subway (restaurant)",
          "cuisine": "sandwich",
          "diet:vegetarian": "yes",
          "indoor_seating": "yes",
          "name": "Subway",
          "name:pa": "\u0a38\u0a2c\u0a35\u0a47\u0a05",
          "name:ur": "\u0633\u0628 \u0648\u06d2",
          "opening_hours": "Mo-Su 09:00-23:30",
          "takeaway": "yes"
        }
      },
      {
        "type": "node",
        "id": 6150155406,
        "lat": 28.5236004,
        "lon": 77.2071797,
        "tags": {
          "amenity": "fast_food",
          "cuisine": "south_indian",
          "indoor_seating": "no",
          "level": "0",
          "name": "Southy",
          "outdoor_seating": "yes"
        }
      },
      {
        "type": "node",
        "id": 6150155407,
        "lat": 28.5236422,
        "lon": 77.2068967,
        "tags": {
          "amenity": "atm",
          "brand": "Kotak Mahindra Bank",
          "brand:wikidata": "Q2040404",
          "opening_hours": "24/7",
          "operator": "Kotak Mahindra Bank",
          "operator:wikidata": "Q2040404"
        }
      },
      {
        "type": "node",
        "id": 6150155843,
        "lat": 28.5230693,
        "lon": 77.2070313,
        "tags": {
          "amenity": "fast_food",
          "cuisine": "momo",
          "indoor_seating": "yes",
          "name": "Moktoo",
          "outdoor_seating": "no"
        }
      },
      {
        "type": "node",
        "id": 6150155844,
        "lat": 28.5234182,
        "lon": 77.207561,
        "tags": {
          "alt_name": "Kentucky Fried Chicken",
          "alt_name:en": "Kentucky Fried Chicken",
          "alt_name:hi": "\u0915\u0947\u0902\u091f\u0941\u0915\u0940 \u092b\u094d\u0930\u093e\u0907\u0921 \u091a\u093f\u0915\u0928",
          "alt_name:pa": "\u0a15\u0a48\u0a02\u0a1f\u0a41\u0a15\u0a40 \u0a2b\u0a4d\u0a30\u0a3e\u0a08\u0a21 \u0a1a\u0a3f\u0a15\u0a28",
          "alt_name:pnb": "\u06a9\u06cc\u0646\u0679\u06a9\u06cc \u0641\u0631\u0627\u0626\u06cc\u0688 \u0686\u06a9\u0646",
          "alt_name:ur": "\u06a9\u06cc\u0646\u0679\u06a9\u06cc \u0641\u0631\u0627\u0626\u06cc\u0688 \u0686\u06a9\u0646",
          "amenity": "fast_food",
          "brand": "KFC",
          "brand:en": "KFC",
          "brand:hi": "\u0915\u0947\u090f\u092b\u0938\u0940",
          "brand:pa": "\u0a15\u0a47\u0a10\u0a2b\u0a38\u0a40",
          "brand:pnb": "\u06a9\u06d2 \u0627\u06cc\u0641 \u0633\u06cc",
          "brand:ur": "\u06a9\u06d2 \u0627\u06cc\u0641 \u0633\u06cc",
          "brand:wikidata": "Q524757",
          "brand:wikipedia": "en:KFC",
          "brand:wikipedia:pa": "\u0a15\u0a47\u0a10\u0a2b\u0a38\u0a40",
          "brand:wikipedia:ur": "\u06a9\u06cc\u0646\u0679\u06a9\u06cc \u0641\u0631\u0627\u0626\u06cc\u0688 \u0686\u06a9\u0646",
          "cuisine": "chicken",
          "indoor_seating": "yes",
          "name": "KFC",
          "name:en": "KFC",
          "name:hi": "\u0915\u0947\u090f\u092b\u0938\u0940",
          "name:pa": "\u0a15\u0a47\u0a10\u0a2b\u0a38\u0a40",
          "name:pnb": "\u06a9\u06d2 \u0627\u06cc\u0641 \u0633\u06cc",
          "name:ur": "\u06a9\u06d2 \u0627\u06cc\u0641 \u0633\u06cc",
          "opening_hours": "Mo-Su 11:00-01:00",
          "operator": "Sapphire Foods India Private Limited",
          "phone": "+91-11-3399-4444",
          "takeaway": "yes",
          "website": "https://online.kfc.co.in/"
        }
      },
      {
        "type": "node",
        "id": 6150155846,
        "lat": 28.5236116,
        "lon": 77.2071093,
        "tags": {
          "amenity": "fast_food",
          "brand": "Wow! Momo",
          "brand:wikidata": "Q8037446",
          "cuisine": "momo",
          "email": "info@wowmomo.co.in",
          "indoor_seating": "yes",
          "level": "0",
          "name": "Wow! Momo",
          "outdoor_seating": "yes",
          "payment:cash": "yes",
          "payment:debit_cards": "yes",
          "payment:paytm": "yes",
          "phone": "+91-99990-31402",
          "seats": "22",
          "takeaway": "yes"
        }
      },
      {
        "type": "node",
        "id": 6150156036,
        "lat": 28.52326,
        "lon": 77.2075482,
        "tags": {
          "amenity": "fast_food",
          "brand": "Domino's",
          "brand:ks": "\u0688\u0648\u0645\u06cc\u0646\u0648\u0632",
          "brand:pa": "\u0a21\u0a4b\u0a2e\u0a40\u0a28\u0a4b\u0a1c\u0a3c",
          "brand:ur": "\u0688\u0648\u0645\u06cc\u0646\u0648\u0632",
          "brand:wikidata": "Q839466",
          "brand:wikipedia": "en:Domino's Pizza",
          "check_date": "2024-07-24",
          "cuisine": "pizza",
          "name": "Domino's",
          "name:ks": "\u0688\u0648\u0645\u06cc\u0646\u0648\u0632",
          "name:pa": "\u0a21\u0a4b\u0a2e\u0a40\u0a28\u0a4b\u0a1c\u0a3c",
          "name:ur": "\u0688\u0648\u0645\u06cc\u0646\u0648\u0632",
          "takeaway": "yes"
        }
      },
      {
        "type": "node",
        "id": 6150156037,
        "lat": 28.5236062,
        "lon": 77.2071431,
        "tags": {
          "amenity": "fast_food",
          "indoor_seating": "no",
          "level": "0",
          "name": "Lebanese Point",
          "outdoor_seating": "yes"
        }
      },
      {
        "type": "node",
        "id": 6314478109,
        "lat": 28.5224473,
        "lon": 77.2079079,
        "tags": {
          "amenity": "bank",
          "atm": "no",
          "branch": "Saket",
          "brand": "HDFC Bank",
          "brand:wikidata": "Q631047",
          "name": "HDFC Bank",
          "short_name": "HDFC"
        }
      },
      {
        "type": "node",
        "id": 6314478110,
        "lat": 28.5224201,
        "lon": 77.2079718,
        "tags": {
          "amenity": "atm",
          "brand": "HDFC Bank",
          "brand:en": "HDFC Bank",
          "brand:wikidata": "Q631047",
          "currency:INR": "yes",
          "drive_through": "no",
          "indoor": "yes",
          "note": "Contributors are requested to not edit the \"brand\", \"brand:en\", \"brand:wikidata\", \"operator\", \"operator:en\" and \"operator:wikidata\" tags. (2025/02/19)",
          "opening_hours": "24/7",
          "operator": "HDFC Bank",
          "operator:en": "HDFC Bank",
          "operator:wikidata": "Q631047",
          "short_name": "HDFC"
        }
      },
      {
        "type": "node",
        "id": 6314478111,
        "lat": 28.5229264,
        "lon": 77.2079252,
        "tags": {
          "amenity": "restaurant",
          "brand": "Pizza Hut",
          "brand:wikidata": "Q191615",
          "cuisine": "pizza",
          "name": "Pizza Hut"
        }
      },
      {
        "type": "node",
        "id": 6314478112,
        "lat": 28.523522,
        "lon": 77.2083586,
        "tags": {
          "amenity": "bank",
          "atm": "no",
          "brand": "Canara Bank",
          "brand:en": "Canara Bank",
          "brand:hi": "\u0915\u0947\u0928\u0930\u093e \u092c\u0948\u0902\u0915",
          "brand:kn": "\u0c95\u0cc6\u0ca8\u0cb0\u0cbe \u0cac\u0ccd\u0caf\u0cbe\u0c82\u0c95\u0ccd",
          "brand:pa": "\u0a15\u0a47\u0a28\u0a30\u0a3e \u0a2c\u0a48\u0a02\u0a15",
          "brand:pnb": "\u06a9\u06cc\u0646\u0631\u0627 \u0628\u06cc\u0646\u06a9",
          "brand:ur": "\u06a9\u06cc\u0646\u0631\u0627 \u0628\u06cc\u0646\u06a9",
          "brand:wikidata": "Q2003777",
          "name": "Canara Bank",
          "name:en": "Canara Bank",
          "name:hi": "\u0915\u0947\u0928\u0930\u093e \u092c\u0948\u0902\u0915",
          "name:kn": "\u0c95\u0cc6\u0ca8\u0cb0\u0cbe \u0cac\u0ccd\u0caf\u0cbe\u0c82\u0c95\u0ccd",
          "name:pa": "\u0a15\u0a47\u0a28\u0a30\u0a3e \u0a2c\u0a48\u0a02\u0a15",
          "name:pnb": "\u06a9\u06cc\u0646\u0631\u0627 \u0628\u06cc\u0646\u06a9",
          "name:ur": "\u06a9\u06cc\u0646\u0631\u0627 \u0628\u06cc\u0646\u06a9",
          "opening_hours": "Mo-Sa 10:00-14:00, 14:30-15:30; Sa[2,4] closed",
          "wheelchair": "no"
        }
      },
      {
        "type": "node",
        "id": 6314478114,
        "lat": 28.5235881,
        "lon": 77.2083757,
        "tags": {
          "amenity": "atm",
          "brand": "Canara Bank",
          "brand:en": "Canara Bank",
          "brand:hi": "\u0915\u0947\u0928\u0930\u093e \u092c\u0948\u0902\u0915",
          "brand:kn": "\u0c95\u0cc6\u0ca8\u0cb0\u0cbe \u0cac\u0ccd\u0caf\u0cbe\u0c82\u0c95\u0ccd",
          "brand:pa": "\u0a15\u0a47\u0a28\u0a30\u0a3e \u0a2c\u0a48\u0a02\u0a15",
          "brand:pnb": "\u06a9\u06cc\u0646\u0631\u0627 \u0628\u06cc\u0646\u06a9",
          "brand:ur": "\u06a9\u06cc\u0646\u0631\u0627 \u0628\u06cc\u0646\u06a9",
          "brand:wikidata": "Q2003777",
          "name:en": "Canara Bank",
          "name:hi": "\u0915\u0947\u0928\u0930\u093e \u092c\u0948\u0902\u0915",
          "name:kn": "\u0c95\u0cc6\u0ca8\u0cb0\u0cbe \u0cac\u0ccd\u0caf\u0cbe\u0c82\u0c95\u0ccd",
          "name:pa": "\u0a15\u0a47\u0a28\u0a30\u0a3e \u0a2c\u0a48\u0a02\u0a15",
          "name:pnb": "\u06a9\u06cc\u0646\u0631\u0627 \u0628\u06cc\u0646\u06a9",
          "name:ur": "\u06a9\u06cc\u0646\u0631\u0627 \u0628\u06cc\u0646\u06a9",
          "opening_hours": "24/7",
          "operator": "Canara Bank",
          "operator:wikidata": "Q2003777",
          "wheelchair": "no"
        }
      },
      {
        "type": "node",
        "id": 6739451805,
        "lat": 28.5236136,
        "lon": 77.2070765,
        "tags": {
          "alt_name": "Koyla Kabab",
          "amenity": "fast_food",
          "diet:vegetarian": "yes",
          "level": "0",
          "name": "The Kathi's",
          "seats": "10"
        }
      },
      {
        "type": "node",
        "id": 6779419616,
        "lat": 28.5350359,
        "lon": 77.2148651,
        "tags": {
          "amenity": "hospital",
          "healthcare": "hospital",
          "name": "Aakash Hospital"
        }
      },
      {
        "type": "node",
        "id": 6779419626,
        "lat": 28.5342319,
        "lon": 77.2135082,
        "tags": {
          "amenity": "bank",
          "atm": "yes",
          "branch": "Malviya Nagar",
          "brand": "Bank of India",
          "brand:wikidata": "Q2004439",
          "check_date": "2023-05-03",
          "name": "Bank of India",
          "wheelchair": "no"
        }
      },
      {
        "type": "node",
        "id": 6911063131,
        "lat": 28.5234158,
        "lon": 77.2226606,
        "tags": {
          "amenity": "fast_food",
          "cuisine": "south_indian",
          "name": "Durai South Indian Cafe"
        }
      },
      {
        "type": "node",
        "id": 7041600585,
        "lat": 28.5270603,
        "lon": 77.2167659,
        "tags": {
          "amenity": "cafe",
          "name": "Roasters Coffee Company Book Cafe"
        }
      },
      {
        "type": "node",
        "id": 7114741288,
        "lat": 28.523264,
        "lon": 77.2080181,
        "tags": {
          "amenity": "fast_food",
          "brand": "Burger King",
          "brand:pa": "\u0a2c\u0a30\u0a17\u0a30 \u0a15\u0a3f\u0a70\u0a17",
          "brand:ur": "\u0628\u0631\u06af\u0631 \u06a9\u0646\u06af",
          "brand:wikidata": "Q177054",
          "brand:wikipedia": "en:Burger King",
          "brand:wikipedia:pa": "\u0a2c\u0a30\u0a17\u0a30 \u0a15\u0a3f\u0a70\u0a17",
          "brand:wikipedia:ur": "\u0628\u0631\u06af\u0631 \u06a9\u0646\u06af",
          "cuisine": "burger",
          "name": "Burger King",
          "name:pa": "\u0a2c\u0a30\u0a17\u0a30 \u0a15\u0a3f\u0a70\u0a17",
          "name:ru": "\u0411\u0443\u0440\u0433\u0435\u0440 \u041a\u0438\u043d\u0433",
          "name:ur": "\u0628\u0631\u06af\u0631 \u06a9\u0646\u06af",
          "takeaway": "yes"
        }
      },
      {
        "type": "node",
        "id": 7114741289,
        "lat": 28.528554,
        "lon": 77.2197605,
        "tags": {
          "air_conditioning": "yes",
          "amenity": "restaurant",
          "diet:vegan": "yes",
          "diet:vegetarian": "yes",
          "indoor_seating": "yes",
          "name": "Burma Burma",
          "outdoor_seating": "no"
        }
      },
      {
        "type": "node",
        "id": 7138534319,
        "lat": 28.534181,
        "lon": 77.212134,
        "tags": {
          "addr:district": "South",
          "addr:full": "Senior Secondary School, Nil Block, Shri Ram Lane Malviya Nagar, New Delhi",
          "addr:postcode": "110017",
          "addr:state": "Delhi",
          "amenity": "clinic",
          "contact:phone": "26671494",
          "description": "Dispensaries",
          "health_facility:type": "dispensary",
          "healthcare": "centre",
          "name": "CGHS, Malviya Nagar",
          "source": "OpenGovernmentData"
        }
      },
      {
        "type": "node",
        "id": 7138534400,
        "lat": 28.5232645,
        "lon": 77.2083793,
        "tags": {
          "addr:district": "South",
          "addr:full": "Delhi Government Dispensary Building, PVR Complex Saket",
          "addr:postcode": "110017",
          "addr:state": "Delhi",
          "amenity": "clinic",
          "description": "Dispensaries",
          "health_facility:type": "dispensary",
          "healthcare": "centre",
          "name": "Delhi Government Dispensary, PVR Complex Saket",
          "source": "OpenGovernmentData"
        }
      },
      {
        "type": "node",
        "id": 7149059093,
        "lat": 28.5295382,
        "lon": 77.2152345,
        "tags": {
          "amenity": "fast_food",
          "name": "Bikaner Sweets"
        }
      },
      {
        "type": "node",
        "id": 7149119093,
        "lat": 28.5295037,
        "lon": 77.2145284,
        "tags": {
          "amenity": "fast_food",
          "name": "Nawaab's Kitchen"
        }
      },
      {
        "type": "node",
        "id": 7149123090,
        "lat": 28.5291511,
        "lon": 77.2137981,
        "tags": {
          "addr:housenumber": "25A",
          "addr:place": "Hauz Rani",
          "amenity": "restaurant",
          "contact:phone": "+91 80103 55355;+91 88007 40222;+91 99900 01669",
          "level": "1",
          "name": "Teekoy Kerala Restaurant"
        }
      },
      {
        "type": "node",
        "id": 7149123091,
        "lat": 28.5291423,
        "lon": 77.2137686,
        "tags": {
          "addr:housenumber": "25A",
          "addr:place": "Hauz Rani",
          "level": "0",
          "name": "Nilgiri Super Mart",
          "shop": "supermarket"
        }
      },
      {
        "type": "node",
        "id": 7544955460,
        "lat": 28.533909,
        "lon": 77.210402,
        "tags": {
          "addr:district": "South Delhi",
          "addr:full": "57-60, Captain Hitesh Mehta Marg, Shvalik, Malviya Nagar",
          "addr:postcode": "110017",
          "addr:state": "Delhi",
          "amenity": "clinic",
          "name": "Kilkari Clinic",
          "source": "Local Knowledge"
        }
      },
      {
        "type": "node",
        "id": 7544955490,
        "lat": 28.522116,
        "lon": 77.215201,
        "tags": {
          "addr:district": "South Delhi",
          "addr:full": "J-293, Saket Road, Block J, Saket",
          "addr:postcode": "110017",
          "addr:state": "Delhi",
          "amenity": "hospital",
          "name": "Sawan Neelu Angel's Multispeciality Hospital",
          "source": "Local Knowledge"
        }
      },
      {
        "type": "node",
        "id": 7618454281,
        "lat": 28.5332223,
        "lon": 77.2155902,
        "tags": {
          "addr:city": "Delhi",
          "addr:housenumber": "J Block",
          "addr:postcode": "110017",
          "addr:street": "Malviya nagar",
          "amenity": "restaurant",
          "cuisine": "bengali",
          "name": "BongTaste",
          "opening_hours": "10:00-22:00",
          "opening_hours:covid19": "sa-su 10-22",
          "phone": "+91 9873646321"
        }
      },
      {
        "type": "node",
        "id": 10226187520,
        "lat": 28.5284896,
        "lon": 77.219227,
        "tags": {
          "air_conditioning": "yes",
          "amenity": "cafe",
          "brand": "Starbucks",
          "brand:wikidata": "Q37158",
          "cuisine": "coffee_shop",
          "diet:vegan": "yes",
          "diet:vegetarian": "yes",
          "indoor_seating": "yes",
          "name": "Starbucks",
          "official_name": "Starbucks Coffee",
          "outdoor_seating": "no",
          "smoking": "no",
          "takeaway": "yes",
          "wheelchair": "yes"
        }
      },
      {
        "type": "node",
        "id": 10574458709,
        "lat": 28.5283746,
        "lon": 77.2115924,
        "tags": {
          "amenity": "restaurant",
          "name": "Maqaayada"
        }
      },
      {
        "type": "node",
        "id": 10574458710,
        "lat": 28.5283092,
        "lon": 77.2110304,
        "tags": {
          "amenity": "pharmacy",
          "name": "The Helpline Pharmacy",
          "opening_hours": "24/7"
        }
      },
      {
        "type": "node",
        "id": 10574467809,
        "lat": 28.528449,
        "lon": 77.2108339,
        "tags": {
          "amenity": "pharmacy",
          "name": "Shree Narayan Pharmacy"
        }
      },
      {
        "type": "node",
        "id": 10574468213,
        "lat": 28.5283041,
        "lon": 77.2165116,
        "tags": {
          "amenity": "cafe",
          "name": "Cafe-Tesu",
          "survey:date": "2023-01-22"
        }
      },
      {
        "type": "node",
        "id": 10574470609,
        "lat": 28.5284356,
        "lon": 77.2105819,
        "tags": {
          "amenity": "pharmacy",
          "name": "Indian Medicos"
        }
      },
      {
        "type": "node",
        "id": 10574470610,
        "lat": 28.5284829,
        "lon": 77.2102559,
        "tags": {
          "amenity": "pharmacy",
          "name": "Krishna Help Pharmacy"
        }
      },
      {
        "type": "node",
        "id": 10574470709,
        "lat": 28.5284722,
        "lon": 77.2102825,
        "tags": {
          "amenity": "pharmacy",
          "name": "Irex Pharmacy"
        }
      },
      {
        "type": "node",
        "id": 10742633605,
        "lat": 28.5272714,
        "lon": 77.217214,
        "tags": {
          "amenity": "fast_food",
          "name": "Barbeque Nation"
        }
      },
      {
        "type": "node",
        "id": 10866706025,
        "lat": 28.5355285,
        "lon": 77.216594,
        "tags": {
          "brand": "More",
          "brand:wikidata": "Q6910891",
          "check_date": "2023-05-04",
          "name": "More",
          "shop": "supermarket"
        }
      },
      {
        "type": "node",
        "id": 10866706026,
        "lat": 28.5356411,
        "lon": 77.2167603,
        "tags": {
          "amenity": "fast_food",
          "check_date": "2023-05-04",
          "cuisine": "pizza",
          "name": "Pizza Lovers"
        }
      },
      {
        "type": "node",
        "id": 10866706028,
        "lat": 28.5357828,
        "lon": 77.2167375,
        "tags": {
          "amenity": "fast_food",
          "check_date": "2023-05-04",
          "cuisine": "chinese",
          "name": "Daksh Chinese Corner"
        }
      },
      {
        "type": "node",
        "id": 10903096394,
        "lat": 28.5231651,
        "lon": 77.2132041,
        "tags": {
          "addr:city": "mathura",
          "addr:housenumber": "Unit no. 240-241, First Floor, DLF Avenue, Saket, New Delhi, Delhi 110017",
          "addr:street": "Saket Road",
          "amenity": "cafe",
          "diet:vegan": "yes",
          "diet:vegetarian": "yes",
          "name": "laidback cafe"
        }
      },
      {
        "type": "node",
        "id": 10977070485,
        "lat": 28.5293143,
        "lon": 77.214581,
        "tags": {
          "amenity": "restaurant",
          "name": "Rumi's Rasoee"
        }
      },
      {
        "type": "node",
        "id": 12000324221,
        "lat": 28.5280402,
        "lon": 77.2198475,
        "tags": {
          "amenity": "restaurant",
          "cuisine": "japanese",
          "name": "Ebisu"
        }
      },
      {
        "type": "node",
        "id": 12000327695,
        "lat": 28.5282075,
        "lon": 77.2197949,
        "tags": {
          "name": "Market 99",
          "shop": "supermarket"
        }
      }
    ]
  },
  "pois_2_5km": {
    "version": 0.6,
    "generator": "Overpass API 0.7.62.8 e802775f",
    "osm3s": {
      "timestamp_osm_base": "2025-09-06T07:03:11Z",
      "copyright": "The data included in this document is from www.openstreetmap.org. The data is made available under ODbL."
    },
    "elements": [
      {
        "type": "node",
        "id": 415537896,
        "lat": 28.5247928,
        "lon": 77.2172399,
        "tags": {
          "amenity": "cinema",
          "name": "IRCON"
        }
      },
      {
        "type": "node",
        "id": 554257785,
        "lat": 28.5290666,
        "lon": 77.2048545,
        "tags": {
          "name": "Malviya Nagar",
          "name:kn": "\u0cae\u0cbe\u0cb3\u0ccd\u0cb5\u0cbf\u0caf \u0ca8\u0c97\u0cb0\u0ccd",
          "network": "Delhi Metro",
          "note": "Contributors are requested to not edit the \"network\" and the \"operator\" tags. (2023/06/22)",
          "operator": "Delhi Metro Rail Corporation Limited",
          "public_transport": "stop_position",
          "railway": "stop",
          "ref": "MVNR",
          "subway": "yes",
          "wikidata": "Q6745134",
          "wikipedia": "en:Malviya Nagar metro station"
        }
      },
      {
        "type": "node",
        "id": 554257787,
        "lat": 28.5442564,
        "lon": 77.2067072,
        "tags": {
          "internet_access": "no",
          "name": "Hauz Khas (Yellow Line)",
          "name:ar": "\u062d\u0648\u0636 \u062e\u0627\u0635",
          "name:hi": "\u0939\u094c\u091c \u0916\u093e\u0938",
          "name:kn": "\u0cb9\u0ccc\u0cb8\u0ccd \u0c96\u0cbe\u0c9c\u0cbc\u0ccd",
          "name:ur": "\u062d\u0648\u0636 \u062e\u0627\u0635",
          "network": "Delhi Metro",
          "note": "Contributors are requested to not edit the \"network\" and the \"operator\" tags. (2023/06/22)",
          "operator": "Delhi Metro Rail Corporation Limited",
          "payment:cards": "yes",
          "payment:cash": "yes",
          "payment:coins": "yes",
          "payment:contactless": "yes",
          "payment:electronic_purses": "yes",
          "public_transport": "station",
          "railway": "station",
          "ref": "HKS",
          "station": "subway",
          "subway": "yes",
          "wikidata": "Q5683002",
          "wikipedia": "en:Hauz Khas metro station"
        }
      },
      {
        "type": "node",
        "id": 738197290,
        "lat": 28.5237474,
        "lon": 77.2071344,
        "tags": {
          "amenity": "cinema",
          "brand": "PVR Cinemas",
          "brand:wikidata": "Q3359908",
          "name": "PVR Saket",
          "short_name": "PVR"
        }
      },
      {
        "type": "node",
        "id": 910665119,
        "lat": 28.5437217,
        "lon": 77.2051059,
        "tags": {
          "bus": "yes",
          "name": "Hauz Khas Metro Station",
          "name:en": "Hauz Khas Metro Station",
          "public_transport": "stop_position"
        }
      },
      {
        "type": "node",
        "id": 922910160,
        "lat": 28.5208731,
        "lon": 77.2018984,
        "tags": {
          "name": "Saket",
          "network": "Delhi Metro",
          "note": "Contributors are requested to not edit the \"network\" and the \"operator\" tags. (2023/06/22)",
          "operator": "Delhi Metro Rail Corporation Limited",
          "public_transport": "stop_position",
          "railway": "stop",
          "ref": "SAKT",
          "subway": "yes"
        }
      },
      {
        "type": "node",
        "id": 2832938172,
        "lat": 28.5433691,
        "lon": 77.2050447,
        "tags": {
          "depth": "32",
          "name": "Hauz Khas (Magenta Line)",
          "name:ar": "\u062d\u0648\u0636 \u062e\u0627\u0635",
          "name:ur": "\u062d\u0648\u0636 \u062e\u0627\u0635",
          "network": "Delhi Metro",
          "note": "Contributors are requested to not edit the \"network\" and the \"operator\" tags. (2023/06/22)",
          "operator": "Delhi Metro Rail Corporation Limited",
          "public_transport": "station",
          "railway": "station",
          "ref": "HKS",
          "station": "subway",
          "subway": "yes",
          "wikidata": "Q5683002",
          "wikipedia": "en:Hauz Khas metro station"
        }
      },
      {
        "type": "node",
        "id": 2833058721,
        "lat": 28.5423747,
        "lon": 77.2210916,
        "tags": {
          "name": "Panchsheel Park",
          "name:ar": "\u062d\u062f\u064a\u0642\u0629 \u0628\u0627\u0646\u0634\u064a\u0644",
          "name:hi": "\u092a\u0902\u091a\u0936\u0940\u0932 \u092a\u093e\u0930\u094d\u0915",
          "name:ur": "\u067e\u0646\u0686\u0634\u06cc\u0644 \u067e\u0627\u0631\u06a9",
          "network": "Delhi Metro",
          "note": "Contributors are requested to not edit the \"network\" and the \"operator\" tags. (2023/06/22)",
          "operator": "Delhi Metro Rail Corporation Limited",
          "public_transport": "station",
          "railway": "station",
          "ref": "PSPK",
          "station": "subway",
          "subway": "yes",
          "wikidata": "Q28172601",
          "wikipedia": "en:Panchsheel Park metro station"
        }
      },
      {
        "type": "node",
        "id": 3246081591,
        "lat": 28.5442254,
        "lon": 77.2015521,
        "tags": {
          "amenity": "fuel",
          "brand": "Indian Oil",
          "brand:wikidata": "Q1289348",
          "fuel:diesel": "yes",
          "fuel:octane_95": "yes",
          "name": "Indian Oil"
        }
      },
      {
        "type": "node",
        "id": 3832323219,
        "lat": 28.5411108,
        "lon": 77.2303164,
        "tags": {
          "name": "Chirag Delhi",
          "name:ar": "\u0634\u064a\u0631\u0627\u062c \u062f\u064a\u0644\u064a",
          "name:hi": "\u091a\u093f\u0930\u093e\u0917 \u0926\u093f\u0932\u094d\u0932\u0940",
          "name:ur": "\u0686\u0631\u0627\u063a \u062f\u06c1\u0644\u06cc",
          "network": "Delhi Metro",
          "note": "Contributors are requested to not edit the \"network\" and the \"operator\" tags. (2023/06/22)",
          "operator": "Delhi Metro Rail Corporation Limited",
          "public_transport": "station",
          "railway": "station",
          "ref": "CDLI",
          "station": "subway",
          "subway": "yes",
          "wikidata": "Q28172603",
          "wikipedia": "en:Chirag Delhi metro station"
        }
      },
      {
        "type": "node",
        "id": 4167260337,
        "lat": 28.5161695,
        "lon": 77.2266537,
        "tags": {
          "bus": "yes",
          "public_transport": "stop_position"
        }
      },
      {
        "type": "node",
        "id": 5258047460,
        "lat": 28.5421697,
        "lon": 77.2215027,
        "tags": {
          "amenity": "fuel",
          "brand": "Indian Oil",
          "brand:wikidata": "Q1289348",
          "name": "Indian Oil"
        }
      },
      {
        "type": "node",
        "id": 5305575046,
        "lat": 28.534509,
        "lon": 77.1964126,
        "tags": {
          "amenity": "fuel",
          "brand": "Indian Oil",
          "brand:wikidata": "Q1289348",
          "compressed_air": "yes",
          "name": "Qutub Service Station"
        }
      },
      {
        "type": "node",
        "id": 5331550502,
        "lat": 28.5380314,
        "lon": 77.2325592,
        "tags": {
          "amenity": "fuel",
          "brand": "Indian Oil",
          "brand:wikidata": "Q1289348",
          "name": "Indian Oil"
        }
      },
      {
        "type": "node",
        "id": 5431738835,
        "lat": 28.5161051,
        "lon": 77.226841,
        "tags": {
          "bus": "yes",
          "public_transport": "stop_position"
        }
      },
      {
        "type": "node",
        "id": 5432088592,
        "lat": 28.515239,
        "lon": 77.228459,
        "tags": {
          "bus": "yes",
          "public_transport": "stop_position"
        }
      },
      {
        "type": "node",
        "id": 5432088593,
        "lat": 28.5151612,
        "lon": 77.2283838,
        "tags": {
          "bus": "yes",
          "public_transport": "stop_position"
        }
      },
      {
        "type": "node",
        "id": 5777601896,
        "lat": 28.5442626,
        "lon": 77.2066794,
        "tags": {
          "name": "Hauz Khas (Yellow Line)",
          "name:ar": "\u062d\u0648\u0636 \u062e\u0627\u0635",
          "name:kn": "\u0cb9\u0ccc\u0cb8\u0ccd \u0c96\u0cbe\u0c9c\u0cbc\u0ccd",
          "name:ur": "\u062d\u0648\u0636 \u062e\u0627\u0635",
          "network": "Delhi Metro",
          "note": "Contributors are requested to not edit the \"network\" and the \"operator\" tags. (2023/06/22)",
          "operator": "Delhi Metro Rail Corporation Limited",
          "public_transport": "stop_position",
          "railway": "stop",
          "ref": "HKS",
          "subway": "yes"
        }
      },
      {
        "type": "node",
        "id": 5777601903,
        "lat": 28.529057,
        "lon": 77.2047957,
        "tags": {
          "name": "Malviya Nagar",
          "name:kn": "\u0cae\u0cbe\u0cb3\u0ccd\u0cb5\u0cbf\u0caf \u0ca8\u0c97\u0cb0\u0ccd",
          "network": "Delhi Metro",
          "note": "Contributors are requested to not edit the \"network\" and the \"operator\" tags. (2023/06/22)",
          "operator": "Delhi Metro Rail Corporation Limited",
          "public_transport": "stop_position",
          "railway": "stop",
          "ref": "MVNR",
          "subway": "yes",
          "wikidata": "Q6745134",
          "wikipedia": "en:Malviya Nagar metro station"
        }
      },
      {
        "type": "node",
        "id": 5777631218,
        "lat": 28.5411365,
        "lon": 77.2302972,
        "tags": {
          "name": "Chirag Delhi",
          "name:hi": "\u091a\u093f\u0930\u093e\u0917 \u0926\u093f\u0932\u094d\u0932\u0940",
          "network": "Delhi Metro",
          "note": "Contributors are requested to not edit the \"network\" and the \"operator\" tags. (2023/06/22)",
          "operator": "Delhi Metro Rail Corporation Limited",
          "public_transport": "stop_position",
          "railway": "stop",
          "ref": "CDLI",
          "subway": "yes"
        }
      },
      {
        "type": "node",
        "id": 5777631222,
        "lat": 28.542398,
        "lon": 77.2210953,
        "tags": {
          "name": "Panchsheel Park",
          "network": "Delhi Metro",
          "note": "Contributors are requested to not edit the \"network\" and the \"operator\" tags. (2023/06/22)",
          "operator": "Delhi Metro Rail Corporation Limited",
          "public_transport": "stop_position",
          "railway": "stop",
          "ref": "PSPK",
          "subway": "yes"
        }
      },
      {
        "type": "node",
        "id": 5777631224,
        "lat": 28.5433957,
        "lon": 77.2050267,
        "tags": {
          "name": "Hauz Khas (Magenta Line)",
          "network": "Delhi Metro",
          "note": "Contributors are requested to not edit the \"network\" and the \"operator\" tags. (2023/06/22)",
          "operator": "Delhi Metro Rail Corporation Limited",
          "public_transport": "stop_position",
          "railway": "stop",
          "ref": "HKS",
          "subway": "yes"
        }
      },
      {
        "type": "node",
        "id": 5960810487,
        "lat": 28.5345658,
        "lon": 77.220761,
        "tags": {
          "amenity": "fuel"
        }
      },
      {
        "type": "node",
        "id": 6147128568,
        "lat": 28.5203785,
        "lon": 77.2018585,
        "tags": {
          "public_transport": "stop_position",
          "share_taxi": "yes"
        }
      },
      {
        "type": "node",
        "id": 6177727059,
        "lat": 28.5208576,
        "lon": 77.2023194,
        "tags": {
          "public_transport": "stop_position",
          "share_taxi": "yes"
        }
      },
      {
        "type": "node",
        "id": 6179179025,
        "lat": 28.521168,
        "lon": 77.2022237,
        "tags": {
          "colour": "yellow",
          "name": "Saket",
          "name:hi": "\u0938\u093e\u0915\u0947\u0924",
          "name:kn": "\u0cb8\u0cbe\u0c95\u0cc7\u0ca4\u0ccd",
          "name:ur": "\u0633\u0627\u06a9\u06cc\u062a",
          "network": "Delhi Metro",
          "note": "Contributors are requested to not edit the \"network\" and the \"operator\" tags. (2023/06/22)",
          "operator": "Delhi Metro Rail Corporation Limited",
          "payment:cards": "yes",
          "payment:cash": "yes",
          "payment:coins": "yes",
          "payment:contactless": "yes",
          "payment:electronic_purses": "yes",
          "public_transport": "station",
          "railway": "station",
          "ref": "SAKT",
          "station": "subway",
          "subway": "yes",
          "wikidata": "Q7402900",
          "wikipedia": "en:Saket metro station"
        }
      },
      {
        "type": "node",
        "id": 6179179026,
        "lat": 28.5215434,
        "lon": 77.2026333,
        "tags": {
          "name": "Saket",
          "name:kn": "\u0cb8\u0cbe\u0c95\u0cc7\u0ca4\u0ccd",
          "network": "Delhi Metro",
          "note": "Contributors are requested to not edit the \"network\" and the \"operator\" tags. (2023/06/22)",
          "operator": "Delhi Metro Rail Corporation Limited",
          "public_transport": "stop_position",
          "railway": "stop",
          "ref": "SAKT",
          "subway": "yes"
        }
      },
      {
        "type": "node",
        "id": 6291553787,
        "lat": 28.5190807,
        "lon": 77.2087565,
        "tags": {
          "public_transport": "stop_position",
          "share_taxi": "yes"
        }
      },
      {
        "type": "node",
        "id": 6378786248,
        "lat": 28.5199223,
        "lon": 77.2058523,
        "tags": {
          "name": "Saket",
          "public_transport": "stop_position",
          "share_taxi": "yes"
        }
      },
      {
        "type": "node",
        "id": 6380514302,
        "lat": 28.5151294,
        "lon": 77.2285585,
        "tags": {
          "public_transport": "stop_position",
          "share_taxi": "yes"
        }
      },
      {
        "type": "node",
        "id": 6452412229,
        "lat": 28.5288021,
        "lon": 77.2149901,
        "tags": {
          "name": "Saket",
          "public_transport": "stop_position",
          "share_taxi": "yes"
        }
      },
      {
        "type": "node",
        "id": 6453673198,
        "lat": 28.5287945,
        "lon": 77.2149195,
        "tags": {
          "name": "Saket",
          "public_transport": "stop_position",
          "share_taxi": "yes"
        }
      },
      {
        "type": "node",
        "id": 6468339976,
        "lat": 28.5436549,
        "lon": 77.2061508,
        "tags": {
          "name": "Hauz Khas",
          "name:en": "Hauz Khas",
          "public_transport": "stop_position",
          "share_taxi": "yes"
        }
      },
      {
        "type": "node",
        "id": 6469652558,
        "lat": 28.5435377,
        "lon": 77.2061456,
        "tags": {
          "name": "Hauz Khas",
          "name:en": "Hauz Khas",
          "public_transport": "stop_position",
          "share_taxi": "yes"
        }
      },
      {
        "type": "node",
        "id": 6470520704,
        "lat": 28.5438618,
        "lon": 77.2051986,
        "tags": {
          "bus": "yes",
          "name": "Hauz Khas Metro Station",
          "name:en": "Hauz Khas Metro Station",
          "public_transport": "stop_position"
        }
      },
      {
        "type": "node",
        "id": 6490310070,
        "lat": 28.5266976,
        "lon": 77.2334702,
        "tags": {
          "amenity": "fuel",
          "brand": "Bharat Petroleum",
          "brand:wikidata": "Q854826",
          "name": "Bharat Petroleum"
        }
      },
      {
        "type": "node",
        "id": 6491633190,
        "lat": 28.5243296,
        "lon": 77.2374113,
        "tags": {
          "bus": "yes",
          "name": "Ambedkar Nagar Sector 4",
          "public_transport": "stop_position"
        }
      },
      {
        "type": "node",
        "id": 6491633192,
        "lat": 28.5243606,
        "lon": 77.2374638,
        "tags": {
          "bus": "yes",
          "name": "Ambedkar Nagar Sector 4",
          "public_transport": "stop_position"
        }
      },
      {
        "type": "node",
        "id": 6547772105,
        "lat": 28.5423526,
        "lon": 77.2210921,
        "tags": {
          "name": "Panchsheel Park",
          "network": "Delhi Metro",
          "note": "Contributors are requested to not edit the \"network\" and the \"operator\" tags. (2023/06/22)",
          "operator": "Delhi Metro Rail Corporation Limited",
          "public_transport": "stop_position",
          "railway": "stop",
          "ref": "PSPK",
          "subway": "yes"
        }
      },
      {
        "type": "node",
        "id": 6547772106,
        "lat": 28.5433508,
        "lon": 77.2050189,
        "tags": {
          "name": "Hauz Khas (Magenta Line)",
          "network": "Delhi Metro",
          "note": "Contributors are requested to not edit the \"network\" and the \"operator\" tags. (2023/06/22)",
          "operator": "Delhi Metro Rail Corporation Limited",
          "public_transport": "stop_position",
          "railway": "stop",
          "ref": "HKS",
          "subway": "yes"
        }
      },
      {
        "type": "node",
        "id": 6547772107,
        "lat": 28.544258,
        "lon": 77.2067402,
        "tags": {
          "name": "Hauz Khas (Yellow Line)",
          "name:ar": "\u062d\u0648\u0636 \u062e\u0627\u0635",
          "name:kn": "\u0cb9\u0ccc\u0cb8\u0ccd \u0c96\u0cbe\u0c9c\u0cbc\u0ccd",
          "name:ur": "\u062d\u0648\u0636 \u062e\u0627\u0635",
          "network": "Delhi Metro",
          "note": "Contributors are requested to not edit the \"network\" and the \"operator\" tags. (2023/06/22)",
          "operator": "Delhi Metro Rail Corporation Limited",
          "public_transport": "stop_position",
          "railway": "stop",
          "ref": "HKS",
          "subway": "yes"
        }
      },
      {
        "type": "node",
        "id": 6653239502,
        "lat": 28.5158486,
        "lon": 77.197375,
        "tags": {
          "amenity": "theatre",
          "description": "An open area where small musical performances are held."
        }
      },
      {
        "type": "node",
        "id": 7018316591,
        "lat": 28.5290656,
        "lon": 77.2048241,
        "tags": {
          "name": "Malviya Nagar",
          "name:hi": "\u092e\u093e\u0932\u0935\u0940\u092f \u0928\u0917\u0930",
          "name:kn": "\u0cae\u0cbe\u0cb3\u0ccd\u0cb5\u0cbf\u0caf \u0ca8\u0c97\u0cb0\u0ccd",
          "name:ur": "\u0645\u0627\u0644\u0648\u06cc\u06c1 \u0646\u06af\u0631",
          "network": "Delhi Metro",
          "note": "Contributors are requested to not edit the \"network\" and the \"operator\" tags. (2023/06/22)",
          "operator": "Delhi Metro Rail Corporation Limited",
          "payment:cards": "yes",
          "payment:cash": "yes",
          "payment:coins": "yes",
          "payment:contactless": "yes",
          "payment:electronic_purses": "yes",
          "public_transport": "station",
          "railway": "station",
          "ref": "MVNR",
          "station": "subway",
          "subway": "yes",
          "wikidata": "Q6745134",
          "wikipedia": "en:Malviya Nagar metro station"
        }
      },
      {
        "type": "node",
        "id": 7040468587,
        "lat": 28.528103,
        "lon": 77.2194333,
        "tags": {
          "amenity": "cinema",
          "brand": "PVR Cinemas",
          "brand:short": "PVR",
          "brand:wikidata": "Q3359908",
          "name": "PVR Cinemas",
          "short_name": "PVR",
          "wikidata": "Q119806295"
        }
      },
      {
        "type": "node",
        "id": 7040539785,
        "lat": 28.5282068,
        "lon": 77.2173667,
        "tags": {
          "amenity": "cinema",
          "brand": "Cin\u00e9polis",
          "brand:wikidata": "Q5686673",
          "name": "Cin\u00e9polis"
        }
      },
      {
        "type": "node",
        "id": 9104747115,
        "lat": 28.5288838,
        "lon": 77.2137728,
        "tags": {
          "amenity": "charging_station"
        }
      },
      {
        "type": "node",
        "id": 9937948269,
        "lat": 28.5410914,
        "lon": 77.2302907,
        "tags": {
          "name": "Chirag Delhi",
          "name:hi": "\u091a\u093f\u0930\u093e\u0917 \u0926\u093f\u0932\u094d\u0932\u0940",
          "network": "Delhi Metro",
          "note": "Contributors are requested to not edit the \"network\" and the \"operator\" tags. (2023/06/22)",
          "operator": "Delhi Metro Rail Corporation Limited",
          "public_transport": "stop_position",
          "railway": "stop",
          "ref": "CDLI",
          "subway": "yes"
        }
      },
      {
        "type": "node",
        "id": 10089151842,
        "lat": 28.5426954,
        "lon": 77.2219126,
        "tags": {
          "amenity": "charging_station",
          "capacity": "4",
          "covered": "yes",
          "operator": "ElectriVa"
        }
      },
      {
        "type": "node",
        "id": 10948867107,
        "lat": 28.5404442,
        "lon": 77.2349474,
        "tags": {
          "amenity": "charging_station"
        }
      },
      {
        "type": "node",
        "id": 11882034350,
        "lat": 28.5416057,
        "lon": 77.2328267,
        "tags": {
          "amenity": "charging_station",
          "charging_station:battery_swapping": "yes"
        }
      },
      {
        "type": "node",
        "id": 11882034351,
        "lat": 28.5333783,
        "lon": 77.2317719,
        "tags": {
          "amenity": "charging_station"
        }
      },
      {
        "type": "node",
        "id": 11882034353,
        "lat": 28.541597,
        "lon": 77.2328551,
        "tags": {
          "amenity": "charging_station"
        }
      }
    ]
  }
}