{
  "pois_1km": {
    "version": 0.6,
    "generator": "Overpass API 0.7.62.8 e802775f",
    "osm3s": {
      "timestamp_osm_base": "2025-09-06T07:08:27Z",
      "copyright": "The data included in this document is from www.openstreetmap.org. The data is made available under ODbL."
    },
    "elements": [
      {
        "type": "node",
        "id": 1556466158,
        "lat": 28.6253844,
        "lon": 77.2181175,
        "tags": {
          "addr:city": "New Delhi",
          "amenity": "restaurant",
          "cuisine": "thai",
          "name": "Spice Route"
        }
      },
      {
        "type": "node",
        "id": 2327524046,
        "lat": 28.6272942,
        "lon": 77.2195527,
        "tags": {
          "amenity": "atm",
          "brand": "Yes Bank",
          "brand:wikidata": "Q2040394",
          "name": "Yes Bank",
          "operator": "Yes Bank",
          "operator:wikidata": "Q2040394"
        }
      },
      {
        "type": "node",
        "id": 2327524049,
        "lat": 28.6278063,
        "lon": 77.2195823,
        "tags": {
          "amenity": "atm",
          "brand": "Central Bank of India",
          "brand:wikidata": "Q2007090",
          "name": "Central Bank of India",
          "operator": "Central Bank of India",
          "operator:wikidata": "Q2007090"
        }
      },
      {
        "type": "node",
        "id": 2327524052,
        "lat": 28.6286284,
        "lon": 77.2197267,
        "tags": {
          "amenity": "atm",
          "brand": "ICICI Bank",
          "brand:en": "ICICI Bank",
          "brand:wikidata": "Q1653258",
          "currency:INR": "yes",
          "drive_through": "no",
          "indoor": "yes",
          "name": "ICICI Bank",
          "note": "Contributors are requested to not edit the \"brand\", \"brand:en\", \"brand:wikidata\", \"operator\", \"operator:en\" and \"operator:wikidata\" tags. (2025/02/19)",
          "opening_hours": "24/7",
          "operator": "ICICI Bank",
          "operator:en": "ICICI Bank",
          "operator:wikidata": "Q1653258",
          "short_name": "ICICI"
        }
      },
      {
        "type": "node",
        "id": 2410180164,
        "lat": 28.6261056,
        "lon": 77.2197715,
        "tags": {
          "amenity": "atm",
          "brand": "State Bank of India",
          "brand:en": "State Bank of India",
          "brand:wikidata": "Q1340361",
          "currency:INR": "yes",
          "drive_through": "no",
          "indoor": "yes",
          "name": "State Bank of India",
          "note": "Contributors are requested to not edit the \"brand\", \"brand:en\", \"brand:wikidata\", \"operator\", \"operator:en\" and \"operator:wikidata\" tags. (2025/02/19)",
          "opening_hours": "24/7",
          "operator": "State Bank of India",
          "operator:en": "State Bank of India",
          "operator:wikidata": "Q1340361",
          "short_name": "SBI"
        }
      },
      {
        "type": "node",
        "id": 3862442973,
        "lat": 28.6301576,
        "lon": 77.2197258,
        "tags": {
          "addr:city": "New Delhi",
          "amenity": "fast_food",
          "brand": "Domino's",
          "brand:ks": "\u0688\u0648\u0645\u06cc\u0646\u0648\u0632",
          "brand:pa": "\u0a21\u0a4b\u0a2e\u0a40\u0a28\u0a4b\u0a1c\u0a3c",
          "brand:ur": "\u0688\u0648\u0645\u06cc\u0646\u0648\u0632",
          "brand:wikidata": "Q839466",
          "brand:wikipedia": "en:Domino's Pizza",
          "cuisine": "pizza",
          "diet:vegetarian": "yes",
          "indoor_seating": "yes",
          "level": "0",
          "name": "Domino's",
          "name:ks": "\u0688\u0648\u0645\u06cc\u0646\u0648\u0632",
          "name:pa": "\u0a21\u0a4b\u0a2e\u0a40\u0a28\u0a4b\u0a1c\u0a3c",
          "name:ur": "\u0688\u0648\u0645\u06cc\u0646\u0648\u0632",
          "takeaway": "yes"
        }
      },
      {
        "type": "node",
        "id": 4122549693,
        "lat": 28.6294722,
        "lon": 77.2129442,
        "tags": {
          "amenity": "bank",
          "branch": "Capital Point",
          "brand": "Ratnakar Bank Limited",
          "brand:short": "RNL Bank"
        }
      },
      {
        "type": "node",
        "id": 4122564391,
        "lat": 28.6294413,
        "lon": 77.212874,
        "tags": {
          "amenity": "atm",
          "check_date": "2023-12-15"
        }
      },
      {
        "type": "node",
        "id": 4336790092,
        "lat": 28.6269741,
        "lon": 77.2202933,
        "tags": {
          "amenity": "cafe",
          "internet_access": "wlan",
          "name": "Caf\u00e9 office office"
        }
      },
      {
        "type": "node",
        "id": 4385547591,
        "lat": 28.6135345,
        "lon": 77.2184328,
        "tags": {
          "amenity": "atm"
        }
      },
      {
        "type": "node",
        "id": 4389398989,
        "lat": 28.6303463,
        "lon": 77.217545,
        "tags": {
          "addr:city": "New Delhi",
          "addr:housenumber": "13",
          "addr:street": "Sansad Marg",
          "amenity": "restaurant",
          "cuisine": "punjabi",
          "name": "Pind Balluchi",
          "name:es": "Pind Baluchi",
          "name:fa": "\u067e\u06cc\u0646\u062f \u0628\u0644\u0648\u0686\u06cc",
          "opening_hours": "Mo-Su 12:00-23:00",
          "website": "https://www.pindballuchi.com/"
        }
      },
      {
        "type": "node",
        "id": 4391613189,
        "lat": 28.6298048,
        "lon": 77.2204846,
        "tags": {
          "addr:housename": "Atmaram Mansion, Scindia House",
          "addr:place": "Connaught Place",
          "addr:unit": "Shop 9A",
          "amenity": "restaurant",
          "name": "Rajdhani",
          "website": "https://www.rajdhani.co.in/"
        }
      },
      {
        "type": "node",
        "id": 4502144089,
        "lat": 28.6297305,
        "lon": 77.2201372,
        "tags": {
          "alt_name": "Kentucky Fried Chicken",
          "alt_name:en": "Kentucky Fried Chicken",
          "alt_name:hi": "\u0915\u0947\u0902\u091f\u0941\u0915\u0940 \u092b\u094d\u0930\u093e\u0907\u0921 \u091a\u093f\u0915\u0928",
          "alt_name:pa": "\u0a15\u0a48\u0a02\u0a1f\u0a41\u0a15\u0a40 \u0a2b\u0a4d\u0a30\u0a3e\u0a08\u0a21 \u0a1a\u0a3f\u0a15\u0a28",
          "alt_name:pnb": "\u06a9\u06cc\u0646\u0679\u06a9\u06cc \u0641\u0631\u0627\u0626\u06cc\u0688 \u0686\u06a9\u0646",
          "alt_name:ur": "\u06a9\u06cc\u0646\u0679\u06a9\u06cc \u0641\u0631\u0627\u0626\u06cc\u0688 \u0686\u06a9\u0646",
          "amenity": "fast_food",
          "brand": "KFC",
          "brand:en": "KFC",
          "brand:hi": "\u0915\u0947\u090f\u092b\u0938\u0940",
          "brand:pa": "\u0a15\u0a47\u0a10\u0a2b\u0a38\u0a40",
          "brand:pnb": "\u06a9\u06d2 \u0627\u06cc\u0641 \u0633\u06cc",
          "brand:ur": "\u06a9\u06d2 \u0627\u06cc\u0641 \u0633\u06cc",
          "brand:wikidata": "Q524757",
          "brand:wikipedia": "en:KFC",
          "brand:wikipedia:pa": "\u0a15\u0a47\u0a10\u0a2b\u0a38\u0a40",
          "brand:wikipedia:ur": "\u06a9\u06cc\u0646\u0679\u06a9\u06cc \u0641\u0631\u0627\u0626\u06cc\u0688 \u0686\u06a9\u0646",
          "cuisine": "chicken",
          "name": "KFC",
          "name:en": "KFC",
          "name:hi": "\u0915\u0947\u090f\u092b\u0938\u0940",
          "name:pa": "\u0a15\u0a47\u0a10\u0a2b\u0a38\u0a40",
          "name:pnb": "\u06a9\u06d2 \u0627\u06cc\u0641 \u0633\u06cc",
          "name:ur": "\u06a9\u06d2 \u0627\u06cc\u0641 \u0633\u06cc",
          "takeaway": "yes"
        }
      },
      {
        "type": "node",
        "id": 4541197689,
        "lat": 28.6266262,
        "lon": 77.2145324,
        "tags": {
          "amenity": "bank",
          "atm": "yes",
          "branch": "New Delhi",
          "brand": "State Bank of India",
          "brand:wikidata": "Q1340361",
          "name": "State Bank of India",
          "name:en": "State Bank of India",
          "short_name": "SBI"
        }
      },
      {
        "type": "node",
        "id": 4679882984,
        "lat": 28.6298227,
        "lon": 77.2205834,
        "tags": {
          "amenity": "restaurant",
          "name": "Biryani Blues"
        }
      },
      {
        "type": "node",
        "id": 4783668221,
        "lat": 28.6299114,
        "lon": 77.2172701,
        "tags": {
          "amenity": "restaurant",
          "cuisine": "indian",
          "name": "Kwality",
          "name:de": "Kwality",
          "name:en": "Kwality",
          "name:hi": "Kwality",
          "survey:date": "2023-01-22"
        }
      },
      {
        "type": "node",
        "id": 4959734121,
        "lat": 28.6270891,
        "lon": 77.2197178,
        "tags": {
          "addr:housenumber": "50",
          "addr:postcode": "110001",
          "addr:street": "Janpath",
          "amenity": "fast_food",
          "brand": "Saravana Bhavan",
          "brand:wikidata": "Q3528082",
          "contact:phone": "+91 11 2331 7755;+91 11 2331 6060",
          "cuisine": "indian;south_indian",
          "diet:lacto_vegetarian": "yes",
          "diet:vegan": "yes",
          "name": "Saravana Bhavan",
          "name:en": "Saravana Bhavan",
          "name:hi": "\u0938\u0930\u0935\u0923 \u092d\u0935\u0928",
          "official_name": "Hotel Saravana Bhavan",
          "opening_hours": "Mo-Su 08:00-23:00",
          "takeaway": "yes"
        }
      },
      {
        "type": "node",
        "id": 5017491421,
        "lat": 28.6275145,
        "lon": 77.2198691,
        "tags": {
          "addr:city": "New Delhi",
          "amenity": "restaurant",
          "brand": "Pizza Hut",
          "brand:wikidata": "Q191615",
          "cuisine": "pizza",
          "name": "Pizza Hut",
          "name:en": "Pizza Hut"
        }
      },
      {
        "type": "node",
        "id": 5073788621,
        "lat": 28.6249108,
        "lon": 77.2194157,
        "tags": {
          "amenity": "restaurant",
          "name": "saravan bhavan",
          "name:en": "saravan bhavan"
        }
      },
      {
        "type": "node",
        "id": 5345521629,
        "lat": 28.6215414,
        "lon": 77.2192588,
        "tags": {
          "amenity": "atm",
          "brand": "Union Bank of India",
          "brand:wikidata": "Q2004078",
          "operator": "Union Bank of India",
          "operator:wikidata": "Q2004078"
        }
      },
      {
        "type": "node",
        "id": 5345531970,
        "lat": 28.6236459,
        "lon": 77.2193948,
        "tags": {
          "amenity": "atm",
          "brand": "Axis Bank",
          "brand:wikidata": "Q2003549",
          "name": "Axis Bank",
          "operator": "Axis Bank",
          "operator:wikidata": "Q2003549"
        }
      },
      {
        "type": "node",
        "id": 5368454824,
        "lat": 28.62898,
        "lon": 77.2173598,
        "tags": {
          "amenity": "atm",
          "brand": "Bank of Baroda",
          "brand:wikidata": "Q2003797",
          "name": "Bank of Baroda",
          "operator": "Bank of Baroda",
          "operator:wikidata": "Q2003797"
        }
      },
      {
        "type": "node",
        "id": 5368463121,
        "lat": 28.6289357,
        "lon": 77.2174179,
        "tags": {
          "amenity": "bank",
          "brand": "Bank of Baroda",
          "brand:wikidata": "Q2003797",
          "name": "Bank of Baroda"
        }
      },
      {
        "type": "node",
        "id": 5634524438,
        "lat": 28.6291804,
        "lon": 77.219755,
        "tags": {
          "addr:city": "New Delhi",
          "amenity": "restaurant",
          "cuisine": "indian",
          "name": "Pind Balluchi",
          "phone": "07686948952",
          "website": "https://www.pindballuchi.com/"
        }
      },
      {
        "type": "node",
        "id": 5792048840,
        "lat": 28.6298283,
        "lon": 77.213752,
        "tags": {
          "amenity": "bank",
          "brand": "Citibank",
          "brand:wikidata": "Q857063",
          "name": "Citibank",
          "short_name": "Citi"
        }
      },
      {
        "type": "node",
        "id": 5792388053,
        "lat": 28.6271703,
        "lon": 77.2197132,
        "tags": {
          "addr:city": "New Delhi",
          "addr:street": "Janpath",
          "amenity": "restaurant",
          "cuisine": "south_indian",
          "diet:lacto_vegetarian": "yes",
          "diet:vegan": "yes",
          "name": "Padmanabham"
        }
      },
      {
        "type": "node",
        "id": 5799061869,
        "lat": 28.6297605,
        "lon": 77.217177,
        "tags": {
          "amenity": "bank",
          "branch": "Parliament Street",
          "brand": "ICICI Bank",
          "brand:wikidata": "Q1653258",
          "name": "ICICI Bank",
          "opening_hours": "24/7",
          "short_name": "ICICI"
        }
      },
      {
        "type": "node",
        "id": 5799061871,
        "lat": 28.6297028,
        "lon": 77.2171284,
        "tags": {
          "amenity": "atm",
          "brand": "State Bank of India",
          "brand:en": "State Bank of India",
          "brand:short": "SBI",
          "brand:wikidata": "Q1340361",
          "currency:INR": "yes",
          "drive_through": "no",
          "indoor": "yes",
          "name": "State Bank of India",
          "note": "Contributors are requested to not edit the \"brand\", \"brand:en\", \"brand:wikidata\", \"operator\", \"operator:en\" and \"operator:wikidata\" tags. (2025/02/19)",
          "opening_hours": "24/7",
          "operator": "State Bank of India",
          "operator:en": "State Bank of India",
          "operator:wikidata": "Q1340361",
          "short_name": "SBI"
        }
      },
      {
        "type": "node",
        "id": 5913957887,
        "lat": 28.6290782,
        "lon": 77.2202827,
        "tags": {
          "amenity": "bank"
        }
      },
      {
        "type": "node",
        "id": 5914043786,
        "lat": 28.6290515,
        "lon": 77.2200995,
        "tags": {
          "addr:housename": "Scindia House",
          "addr:postcode": "110001",
          "addr:unit": "G-34",
          "amenity": "fast_food",
          "email": "info@sagaworldtravels.in",
          "website": "http://sagatravels.in"
        }
      },
      {
        "type": "node",
        "id": 6161987878,
        "lat": 28.6291307,
        "lon": 77.2197582,
        "tags": {
          "amenity": "restaurant",
          "brand": "Hard Rock Cafe",
          "brand:wikidata": "Q918151",
          "cuisine": "american",
          "name": "Hard Rock Cafe",
          "takeaway": "yes"
        }
      },
      {
        "type": "node",
        "id": 6385537606,
        "lat": 28.6198985,
        "lon": 77.2106056,
        "tags": {
          "addr:city": "New Delhi",
          "amenity": "bank",
          "atm": "yes",
          "branch": "Raisina Road",
          "brand": "Canara Bank",
          "brand:en": "Canara Bank",
          "brand:hi": "\u0915\u0947\u0928\u0930\u093e \u092c\u0948\u0902\u0915",
          "brand:kn": "\u0c95\u0cc6\u0ca8\u0cb0\u0cbe \u0cac\u0ccd\u0caf\u0cbe\u0c82\u0c95\u0ccd",
          "brand:pa": "\u0a15\u0a47\u0a28\u0a30\u0a3e \u0a2c\u0a48\u0a02\u0a15",
          "brand:pnb": "\u06a9\u06cc\u0646\u0631\u0627 \u0628\u06cc\u0646\u06a9",
          "brand:ur": "\u06a9\u06cc\u0646\u0631\u0627 \u0628\u06cc\u0646\u06a9",
          "brand:wikidata": "Q2003777",
          "brand:wikipedia": "en:Canara Bank",
          "brand:wikipedia:pa": "\u0a15\u0a47\u0a28\u0a30\u0a3e \u0a2c\u0a48\u0a02\u0a15",
          "name": "Canara Bank",
          "name:en": "Canara Bank",
          "name:hi": "\u0915\u0947\u0928\u0930\u093e \u092c\u0948\u0902\u0915",
          "name:kn": "\u0c95\u0cc6\u0ca8\u0cb0\u0cbe \u0cac\u0ccd\u0caf\u0cbe\u0c82\u0c95\u0ccd",
          "name:pa": "\u0a15\u0a47\u0a28\u0a30\u0a3e \u0a2c\u0a48\u0a02\u0a15",
          "name:pnb": "\u06a9\u06cc\u0646\u0631\u0627 \u0628\u06cc\u0646\u06a9",
          "name:ur": "\u06a9\u06cc\u0646\u0631\u0627 \u0628\u06cc\u0646\u06a9"
        }
      },
      {
        "type": "node",
        "id": 6470072750,
        "lat": 28.6229665,
        "lon": 77.211944,
        "tags": {
          "amenity": "bank",
          "atm": "yes",
          "branch": "Sansad Marg",
          "brand": "UCO Bank",
          "brand:wikidata": "Q2005310",
          "level": "0",
          "name": "UCO Bank"
        }
      },
      {
        "type": "node",
        "id": 6470184614,
        "lat": 28.6175605,
        "lon": 77.2125512,
        "tags": {
          "amenity": "atm"
        }
      },
      {
        "type": "node",
        "id": 6539240961,
        "lat": 28.6248081,
        "lon": 77.2193721,
        "tags": {
          "amenity": "atm",
          "brand": "State Bank of India",
          "brand:en": "State Bank of India",
          "brand:wikidata": "Q1340361",
          "currency:INR": "yes",
          "drive_through": "no",
          "indoor": "yes",
          "name": "State Bank of India",
          "note": "Contributors are requested to not edit the \"brand\", \"brand:en\", \"brand:wikidata\", \"operator\", \"operator:en\" and \"operator:wikidata\" tags. (2025/02/19)",
          "opening_hours": "24/7",
          "operator": "State Bank of India",
          "operator:en": "State Bank of India",
          "operator:wikidata": "Q1340361",
          "short_name": "SBI"
        }
      },
      {
        "type": "node",
        "id": 6792923897,
        "lat": 28.6209452,
        "lon": 77.2180853,
        "tags": {
          "addr:city": "New Delhi",
          "addr:housenumber": "19",
          "addr:street": "Ashoka Road",
          "amenity": "restaurant",
          "cuisine": "italian",
          "name": "Sorento",
          "name:ru": "\u0421\u043e\u0440\u0435\u043d\u0442\u043e",
          "opening_hours": "Mo-Su 12:30-14:45, 19:00-23:45"
        }
      },
      {
        "type": "node",
        "id": 6814370612,
        "lat": 28.6288935,
        "lon": 77.2187659,
        "tags": {
          "addr:city": "New Delhi",
          "addr:district": "Connaught Place",
          "addr:housename": "Janpath Bhawan",
          "addr:subdistrict": "Janpath Market",
          "addr:unit": "19",
          "amenity": "fast_food",
          "contact:phone": "+91-99999-12566",
          "cuisine": "roll",
          "delivery": "yes",
          "name": "34, Chowringhee Lane",
          "opening_hours": "Mo-Su 11:00-22:00"
        }
      },
      {
        "type": "node",
        "id": 6814370613,
        "lat": 28.6288925,
        "lon": 77.2186728,
        "tags": {
          "amenity": "cafe",
          "name": "DePaul's"
        }
      },
      {
        "type": "node",
        "id": 7040223886,
        "lat": 28.6256334,
        "lon": 77.2201793,
        "tags": {
          "addr:city": "New Delhi",
          "name": "Cottage Emporium",
          "shop": "supermarket"
        }
      },
      {
        "type": "node",
        "id": 7138493247,
        "lat": 28.6227119,
        "lon": 77.2227032,
        "tags": {
          "addr:district": "New Delhi",
          "addr:full": "18-A, Telegraph Lane, Near Bhartiya Vidya Bhawan, Janpath , Diwanchand Imangning Centre",
          "addr:postcode": "110001",
          "addr:state": "Delhi",
          "amenity": "clinic",
          "contact:phone": "011-23717670 , 011-23326601",
          "description": "Dispensaries",
          "health_facility:type": "dispensary",
          "healthcare": "centre",
          "name": "H.C.M. Lane Allopathic Dispensary",
          "source": "OpenGovernmentData"
        }
      },
      {
        "type": "node",
        "id": 7943448213,
        "lat": 28.6211627,
        "lon": 77.2109121,
        "tags": {
          "addr:city": "New Delhi",
          "addr:housenumber": "Poolside, The Park Hotel,",
          "addr:postcode": "110001",
          "addr:street": "15 Parliament Street, Connaught Place, New Delhi, Delhi 110001",
          "name": "Delhi Organic Farmers Market (DOFM)",
          "organic": "only",
          "shop": "supermarket"
        }
      },
      {
        "type": "node",
        "id": 8151189839,
        "lat": 28.6287272,
        "lon": 77.2229395,
        "tags": {
          "addr:full": "Antriksh Bhavan, 22, KG Marg, Barakhamba, New Delhi, Delhi",
          "amenity": "restaurant",
          "name": "Parikrama - The Revolving Restaurant",
          "website": "www.thewoofytails.com"
        }
      },
      {
        "type": "node",
        "id": 8151219535,
        "lat": 28.6244261,
        "lon": 77.2197964,
        "tags": {
          "addr:city": "New Delhi",
          "addr:full": "Chander Lok, 36, Janpath Rd, Peeraghari, HC Mathur Lane, New Delhi, Delhi",
          "amenity": "bank",
          "name": "Chanderlok Building Bank Of India Govt Business Department"
        }
      },
      {
        "type": "node",
        "id": 8151219537,
        "lat": 28.6241327,
        "lon": 77.2139025,
        "tags": {
          "addr:city": "New Delhi",
          "addr:full": "10, Jeevan Deep Building, Sansad Marg, Janpath, Connaught Place, New Delhi, Delhi",
          "amenity": "bank",
          "brand": "Indian Overseas Bank",
          "brand:wikidata": "Q2003611",
          "name": "Indian Overseas Bank"
        }
      },
      {
        "type": "node",
        "id": 8151246349,
        "lat": 28.6267808,
        "lon": 77.2182706,
        "tags": {
          "addr:city": "New Delhi",
          "addr:full": "40, Tolstoy Rd, Atul Grove Road, Janpath, Connaught Place, New Delhi, Delhi",
          "amenity": "hospital",
          "name": "General Williams Hospital"
        }
      },
      {
        "type": "node",
        "id": 8982336371,
        "lat": 28.6267988,
        "lon": 77.2197099,
        "tags": {
          "amenity": "cafe",
          "brand": "Cafe Coffee Day",
          "brand:wikidata": "Q5017235",
          "cuisine": "coffee_shop",
          "name": "Cafe Coffee Day",
          "takeaway": "yes"
        }
      },
      {
        "type": "node",
        "id": 8982433114,
        "lat": 28.6274298,
        "lon": 77.2198655,
        "tags": {
          "amenity": "bank",
          "brand": "Yes Bank",
          "brand:wikidata": "Q2040394",
          "name": "Yes Bank"
        }
      },
      {
        "type": "node",
        "id": 8982438637,
        "lat": 28.6279832,
        "lon": 77.2198697,
        "tags": {
          "alt_name": "Haldiram",
          "amenity": "fast_food",
          "brand": "Haldiram's",
          "brand:wikidata": "Q17054442",
          "cuisine": "indian",
          "name": "Haldiram's",
          "takeaway": "yes"
        }
      },
      {
        "type": "node",
        "id": 8982438640,
        "lat": 28.6282217,
        "lon": 77.2198897,
        "tags": {
          "amenity": "bank",
          "branch": "Janpath",
          "brand": "Canara Bank",
          "brand:en": "Canara Bank",
          "brand:hi": "\u0915\u0947\u0928\u0930\u093e \u092c\u0948\u0902\u0915",
          "brand:kn": "\u0c95\u0cc6\u0ca8\u0cb0\u0cbe \u0cac\u0ccd\u0caf\u0cbe\u0c82\u0c95\u0ccd",
          "brand:pa": "\u0a15\u0a47\u0a28\u0a30\u0a3e \u0a2c\u0a48\u0a02\u0a15",
          "brand:pnb": "\u06a9\u06cc\u0646\u0631\u0627 \u0628\u06cc\u0646\u06a9",
          "brand:ur": "\u06a9\u06cc\u0646\u0631\u0627 \u0628\u06cc\u0646\u06a9",
          "brand:wikidata": "Q2003777",
          "name": "Canara Bank",
          "name:en": "Canara Bank",
          "name:hi": "\u0915\u0947\u0928\u0930\u093e \u092c\u0948\u0902\u0915",
          "name:kn": "\u0c95\u0cc6\u0ca8\u0cb0\u0cbe \u0cac\u0ccd\u0caf\u0cbe\u0c82\u0c95\u0ccd",
          "name:pa": "\u0a15\u0a47\u0a28\u0a30\u0a3e \u0a2c\u0a48\u0a02\u0a15",
          "name:pnb": "\u06a9\u06cc\u0646\u0631\u0627 \u0628\u06cc\u0646\u06a9",
          "name:ur": "\u06a9\u06cc\u0646\u0631\u0627 \u0628\u06cc\u0646\u06a9"
        }
      },
      {
        "type": "node",
        "id": 9182101626,
        "lat": 28.6248527,
        "lon": 77.2156648,
        "tags": {
          "amenity": "fast_food",
          "cuisine": "punjabi",
          "diet:lacto_vegetarian": "yes",
          "name": "Baba Ka Dhaba"
        }
      },
      {
        "type": "node",
        "id": 9182101627,
        "lat": 28.6249403,
        "lon": 77.2156614,
        "tags": {
          "amenity": "fast_food",
          "cuisine": "South Indian",
          "diet:vegan": "yes",
          "name": "Kutty's",
          "takeaway": "yes"
        }
      },
      {
        "type": "node",
        "id": 9182111845,
        "lat": 28.6258863,
        "lon": 77.213853,
        "tags": {
          "amenity": "atm",
          "brand": "State Bank of India",
          "brand:en": "State Bank of India",
          "brand:wikidata": "Q1340361",
          "currency:INR": "yes",
          "drive_through": "no",
          "indoor": "yes",
          "level": "0",
          "note": "Contributors are requested to not edit the \"brand\", \"brand:en\", \"brand:wikidata\", \"operator\", \"operator:en\" and \"operator:wikidata\" tags. (2025/02/19)",
          "opening_hours": "24/7",
          "operator": "State Bank of India",
          "operator:en": "State Bank of India",
          "operator:wikidata": "Q1340361",
          "short_name": "SBI"
        }
      },
      {
        "type": "node",
        "id": 9212682337,
        "lat": 28.6301065,
        "lon": 77.2174139,
        "tags": {
          "amenity": "fast_food",
          "name": "Daryaganj"
        }
      },
      {
        "type": "node",
        "id": 9234669613,
        "lat": 28.629755,
        "lon": 77.220236,
        "tags": {
          "amenity": "bank",
          "brand": "Punjab & Sind Bank",
          "brand:en": "Punjab & Sind Bank",
          "brand:hi": "\u092a\u0902\u091c\u093e\u092c \u090f\u0923\u094d\u0921 \u0938\u093f\u0902\u0927 \u092c\u0948\u0902\u0915",
          "brand:pa": "\u0a2a\u0a70\u0a1c\u0a3e\u0a2c \u0a10\u0a02\u0a21 \u0a38\u0a3f\u0a70\u0a27 \u0a2c\u0a48\u0a02\u0a15",
          "brand:ur": "\u067e\u0646\u062c\u0627\u0628 \u0627\u06cc\u0646\u0688 \u0633\u0646\u062f\u06be \u0628\u06cc\u0646\u06a9",
          "brand:website": "https://punjabandsindbank.co.in/",
          "brand:wikidata": "Q2003302",
          "name": "Punjab & Sind Bank",
          "name:en": "Punjab & Sind Bank",
          "name:hi": "\u092a\u0902\u091c\u093e\u092c \u090f\u0923\u094d\u0921 \u0938\u093f\u0902\u0927 \u092c\u0948\u0902\u0915",
          "name:pa": "\u0a2a\u0a70\u0a1c\u0a3e\u0a2c \u0a10\u0a02\u0a21 \u0a38\u0a3f\u0a70\u0a27 \u0a2c\u0a48\u0a02\u0a15",
          "name:ur": "\u067e\u0646\u062c\u0627\u0628 \u0627\u06cc\u0646\u0688 \u0633\u0646\u062f\u06be \u0628\u06cc\u0646\u06a9"
        }
      },
      {
        "type": "node",
        "id": 10570234009,
        "lat": 28.6254773,
        "lon": 77.2184377,
        "tags": {
          "amenity": "restaurant",
          "cuisine": "italian",
          "name": "San Gimignano"
        }
      },
      {
        "type": "node",
        "id": 10945664767,
        "lat": 28.6267693,
        "lon": 77.2092035,
        "tags": {
          "amenity": "hospital",
          "name": "Guru Harkrishan Polyclinic Bangla Sahib",
          "phone": "011 23340171"
        }
      },
      {
        "type": "node",
        "id": 11107300906,
        "lat": 28.6293136,
        "lon": 77.220411,
        "tags": {
          "addr:street": "Janpath",
          "amenity": "fast_food",
          "name": "Bhogal's Chhole Bhature"
        }
      },
      {
        "type": "node",
        "id": 11795527561,
        "lat": 28.6289157,
        "lon": 77.2197583,
        "tags": {
          "amenity": "restaurant",
          "name": "Gokulam"
        }
      },
      {
        "type": "node",
        "id": 11795614249,
        "lat": 28.6284596,
        "lon": 77.2197378,
        "tags": {
          "amenity": "restaurant",
          "brand": "Punjab Grill",
          "brand:wikidata": "Q124374761",
          "cuisine": "north_indian",
          "delivery": "yes",
          "name": "Punjab Grill",
          "takeaway": "yes"
        }
      },
      {
        "type": "node",
        "id": 11795618864,
        "lat": 28.6286352,
        "lon": 77.2197381,
        "tags": {
          "amenity": "bank",
          "brand": "ICICI Bank",
          "brand:wikidata": "Q1653258",
          "name": "ICICI Bank",
          "opening_hours": "Mo-Sa 09:30-15:00",
          "short_name": "ICICI"
        }
      },
      {
        "type": "node",
        "id": 11868686972,
        "lat": 28.6207747,
        "lon": 77.2269764,
        "tags": {
          "amenity": "fast_food",
          "level": "0",
          "wheelchair": "yes"
        }
      },
      {
        "type": "node",
        "id": 12185793075,
        "lat": 28.6264316,
        "lon": 77.2122984,
        "tags": {
          "air_conditioning": "no",
          "amenity": "fast_food",
          "level": "0",
          "name": "V Canteen",
          "outdoor_seating": "yes",
          "smoking": "no",
          "wheelchair": "yes"
        }
      },
      {
        "type": "node",
        "id": 12586887172,
        "lat": 28.6235066,
        "lon": 77.211871,
        "tags": {
          "amenity": "bank",
          "atm": "yes",
          "branch": "Sansad Marg",
          "brand": "Punjab National Bank",
          "level": "0",
          "name": "Punjab National Bank"
        }
      }
    ]
  },
  "pois_2_5km": {
    "version": 0.6,
    "generator": "Overpass API 0.7.62.8 e802775f",
    "osm3s": {
      "timestamp_osm_base": "2025-09-06T07:08:27Z",
      "copyright": "The data included in this document is from www.openstreetmap.org. The data is made available under ODbL."
    },
    "elements": [
      {
        "type": "node",
        "id": 395135114,
        "lat": 28.6421531,
        "lon": 77.2236285,
        "tags": {
          "bus": "yes",
          "name": "New Delhi Railway Station Gate Number 2",
          "public_transport": "stop_position"
        }
      },
      {
        "type": "node",
        "id": 554257800,
        "lat": 28.6095117,
        "lon": 77.2118249,
        "tags": {
          "name": "Udyog Bhavan",
          "network": "Delhi Metro",
          "note": "Contributors are requested to not edit the \"network\" and the \"operator\" tags. (2023/06/22)",
          "operator": "Delhi Metro Rail Corporation Limited",
          "public_transport": "stop_position",
          "railway": "stop",
          "ref": "UDB",
          "subway": "yes"
        }
      },
      {
        "type": "node",
        "id": 554257818,
        "lat": 28.6229537,
        "lon": 77.2140587,
        "tags": {
          "name": "Patel Chowk",
          "network": "Delhi Metro",
          "note": "Contributors are requested to not edit the \"network\" and the \"operator\" tags. (2023/06/22)",
          "operator": "Delhi Metro Rail Corporation Limited",
          "public_transport": "stop_position",
          "railway": "stop",
          "ref": "PTCK",
          "subway": "yes"
        }
      },
      {
        "type": "node",
        "id": 554257820,
        "lat": 28.6392249,
        "lon": 77.2085684,
        "tags": {
          "name": "Ramakrishna Ashram Marg",
          "network": "Delhi Metro",
          "note": "Contributors are requested to not edit the \"network\" and the \"operator\" tags. (2023/06/22)",
          "operator": "Delhi Metro Rail Corporation Limited",
          "public_transport": "stop_position",
          "railway": "stop",
          "subway": "yes"
        }
      },
      {
        "type": "node",
        "id": 554257827,
        "lat": 28.6255914,
        "lon": 77.2341954,
        "tags": {
          "name": "Mandi House",
          "name:hi": "\u092e\u0902\u0921\u0940 \u0939\u093e\u0909\u0938",
          "name:kn": "\u0cae\u0c82\u0ca1\u0cbf \u0cb9\u0ccc\u0cb8\u0ccd",
          "network": "Delhi Metro",
          "note": "Contributors are requested to not edit the \"network\" and the \"operator\" tags. (2023/06/22)",
          "operator": "Delhi Metro Rail Corporation Limited",
          "public_transport": "stop_position",
          "railway": "stop",
          "ref": "MDHS",
          "subway": "yes"
        }
      },
      {
        "type": "node",
        "id": 554257833,
        "lat": 28.6288963,
        "lon": 77.2113218,
        "tags": {
          "name": "Shivaji Stadium",
          "name:hi": "\u0936\u093f\u0935\u093e\u091c\u0940 \u0938\u094d\u091f\u0947\u0921\u093f\u092f\u092e",
          "name:kn": "\u0cb6\u0cbf\u0cb5\u0cbe\u0c9c\u0cbf \u0cb8\u0ccd\u0c9f\u0cc7\u0ca1\u0cbf\u0caf\u0cae\u0ccd",
          "network": "Delhi Metro",
          "network:wikidata": "Q271195",
          "note": "Contributors are requested to not edit the \"network\" and the \"operator\" tags. (2023/06/22)",
          "operator": "Delhi Metro Rail Corporation Limited",
          "operator:wikidata": "Q1029339",
          "public_transport": "station",
          "railway": "station",
          "ref": "SJSU",
          "station": "subway",
          "subway": "yes",
          "wikidata": "Q11308729",
          "wikipedia": "en:Shivaji Stadium metro station"
        }
      },
      {
        "type": "node",
        "id": 554257839,
        "lat": 28.6297527,
        "lon": 77.2249956,
        "tags": {
          "name": "Barakhambha Road",
          "network": "Delhi Metro",
          "note": "Contributors are requested to not edit the \"network\" and the \"operator\" tags. (2023/06/22)",
          "operator": "Delhi Metro Rail Corporation Limited",
          "public_transport": "stop_position",
          "railway": "stop",
          "subway": "yes"
        }
      },
      {
        "type": "node",
        "id": 927873481,
        "lat": 28.6022643,
        "lon": 77.2291415,
        "tags": {
          "name": "Khan Market",
          "name:en": "Khan Market",
          "name:hi": "\u0916\u093e\u0928 \u092c\u093e\u091c\u093e\u0930",
          "name:ur": "\u062e\u0627\u0646 \u0628\u0627\u0632\u0627\u0631",
          "network": "Delhi Metro",
          "note": "Contributors are requested to not edit the \"network\" and the \"operator\" tags. (2023/06/22)",
          "operator": "Delhi Metro Rail Corporation Limited",
          "public_transport": "stop_position",
          "railway": "stop",
          "subway": "yes"
        }
      },
      {
        "type": "node",
        "id": 928558280,
        "lat": 28.6350924,
        "lon": 77.2196937,
        "tags": {
          "amenity": "cinema",
          "brand": "PVR Cinemas",
          "brand:wikidata": "Q3359908",
          "name": "PVR Plaza Cinema",
          "short_name": "PVR",
          "wheelchair": "limited"
        }
      },
      {
        "type": "node",
        "id": 938372433,
        "lat": 28.6425708,
        "lon": 77.2211342,
        "tags": {
          "alt_name:ar": "\u0646\u064a\u0648\u062f\u0644\u0647\u064a",
          "alt_name:ks": "\u0646\u0654\u0648 \u062f\u0650\u0644",
          "alt_name:ur": "\u0646\u0626\u06cc \u062f\u0644\u06cc",
          "name": "New Delhi",
          "name:ar": "\u062f\u0644\u0647\u064a \u0627\u0644\u062c\u062f\u064a\u062f\u0629",
          "name:az-Arab": "\u06cc\u0626\u0646\u06cc \u062f\u0647\u0644\u06cc",
          "name:azb": "\u06cc\u0626\u0646\u06cc \u062f\u0647\u0644\u06cc",
          "name:de": "Neu-Delhi",
          "name:el": "\u039d\u03ad\u03bf \u0394\u03b5\u03bb\u03c7\u03af",
          "name:es": "Nueva Delhi",
          "name:grc": "\u039d\u03b5\u03bf\u03b4\u03b5\u03bb\u03af\u03c2",
          "name:hy": "\u0546\u0575\u0578\u0582 \u0534\u0565\u056c\u056b",
          "name:hyw": "\u0546\u056b\u0582 \u054f\u0565\u056c\u0570\u056b",
          "name:ks": "\u0646\u0654\u0648 \u062f\u0644\u06be\u06cc",
          "name:pa": "\u0a28\u0a35\u0a40\u0a02 \u0a26\u0a3f\u0a71\u0a32\u0a40",
          "name:ug": "\u064a\u06d0\u06ad\u0649 \u062f\u06d0\u06be\u0644\u0649",
          "name:ur": "\u0646\u0626\u06cc \u062f\u06c1\u0644\u06cc",
          "public_transport": "stop_position",
          "railway": "stop",
          "ref": "NDLS:14",
          "train": "yes"
        }
      },
      {
        "type": "node",
        "id": 938372444,
        "lat": 28.6424872,
        "lon": 77.2203479,
        "tags": {
          "alt_name:ar": "\u0646\u064a\u0648\u062f\u0644\u0647\u064a",
          "alt_name:ks": "\u0646\u0654\u0648 \u062f\u0650\u0644",
          "alt_name:ur": "\u0646\u0626\u06cc \u062f\u0644\u06cc",
          "name": "New Delhi",
          "name:ar": "\u062f\u0644\u0647\u064a \u0627\u0644\u062c\u062f\u064a\u062f\u0629",
          "name:az-Arab": "\u06cc\u0626\u0646\u06cc \u062f\u0647\u0644\u06cc",
          "name:azb": "\u06cc\u0626\u0646\u06cc \u062f\u0647\u0644\u06cc",
          "name:de": "Neu-Delhi",
          "name:el": "\u039d\u03ad\u03bf \u0394\u03b5\u03bb\u03c7\u03af",
          "name:es": "Nueva Delhi",
          "name:grc": "\u039d\u03b5\u03bf\u03b4\u03b5\u03bb\u03af\u03c2",
          "name:hy": "\u0546\u0575\u0578\u0582 \u0534\u0565\u056c\u056b",
          "name:hyw": "\u0546\u056b\u0582 \u054f\u0565\u056c\u0570\u056b",
          "name:ks": "\u0646\u0654\u0648 \u062f\u0644\u06be\u06cc",
          "name:pa": "\u0a28\u0a35\u0a40\u0a02 \u0a26\u0a3f\u0a71\u0a32\u0a40",
          "name:ug": "\u064a\u06d0\u06ad\u0649 \u062f\u06d0\u06be\u0644\u0649",
          "name:ur": "\u0646\u0626\u06cc \u062f\u06c1\u0644\u06cc",
          "public_transport": "stop_position",
          "railway": "stop",
          "ref": "NDLS:7",
          "train": "yes"
        }
      },
      {
        "type": "node",
        "id": 938372462,
        "lat": 28.6424665,
        "lon": 77.2202063,
        "tags": {
          "alt_name:ar": "\u0646\u064a\u0648\u062f\u0644\u0647\u064a",
          "alt_name:ks": "\u0646\u0654\u0648 \u062f\u0650\u0644",
          "alt_name:ur": "\u0646\u0626\u06cc \u062f\u0644\u06cc",
          "name": "New Delhi",
          "name:ar": "\u062f\u0644\u0647\u064a \u0627\u0644\u062c\u062f\u064a\u062f\u0629",
          "name:az-Arab": "\u06cc\u0626\u0646\u06cc \u062f\u0647\u0644\u06cc",
          "name:azb": "\u06cc\u0626\u0646\u06cc \u062f\u0647\u0644\u06cc",
          "name:de": "Neu-Delhi",
          "name:el": "\u039d\u03ad\u03bf \u0394\u03b5\u03bb\u03c7\u03af",
          "name:es": "Nueva Delhi",
          "name:grc": "\u039d\u03b5\u03bf\u03b4\u03b5\u03bb\u03af\u03c2",
          "name:hy": "\u0546\u0575\u0578\u0582 \u0534\u0565\u056c\u056b",
          "name:hyw": "\u0546\u056b\u0582 \u054f\u0565\u056c\u0570\u056b",
          "name:ks": "\u0646\u0654\u0648 \u062f\u0644\u06be\u06cc",
          "name:pa": "\u0a28\u0a35\u0a40\u0a02 \u0a26\u0a3f\u0a71\u0a32\u0a40",
          "name:ug": "\u064a\u06d0\u06ad\u0649 \u062f\u06d0\u06be\u0644\u0649",
          "name:ur": "\u0646\u0626\u06cc \u062f\u06c1\u0644\u06cc",
          "public_transport": "stop_position",
          "railway": "stop",
          "ref": "NDLS:6",
          "train": "yes"
        }
      },
      {
        "type": "node",
        "id": 938372468,
        "lat": 28.6425562,
        "lon": 77.2210249,
        "tags": {
          "alt_name:ar": "\u0646\u064a\u0648\u062f\u0644\u0647\u064a",
          "alt_name:ks": "\u0646\u0654\u0648 \u062f\u0650\u0644",
          "alt_name:ur": "\u0646\u0626\u06cc \u062f\u0644\u06cc",
          "name": "New Delhi",
          "name:ar": "\u062f\u0644\u0647\u064a \u0627\u0644\u062c\u062f\u064a\u062f\u0629",
          "name:az-Arab": "\u06cc\u0626\u0646\u06cc \u062f\u0647\u0644\u06cc",
          "name:azb": "\u06cc\u0626\u0646\u06cc \u062f\u0647\u0644\u06cc",
          "name:de": "Neu-Delhi",
          "name:el": "\u039d\u03ad\u03bf \u0394\u03b5\u03bb\u03c7\u03af",
          "name:es": "Nueva Delhi",
          "name:grc": "\u039d\u03b5\u03bf\u03b4\u03b5\u03bb\u03af\u03c2",
          "name:hy": "\u0546\u0575\u0578\u0582 \u0534\u0565\u056c\u056b",
          "name:hyw": "\u0546\u056b\u0582 \u054f\u0565\u056c\u0570\u056b",
          "name:ks": "\u0646\u0654\u0648 \u062f\u0644\u06be\u06cc",
          "name:pa": "\u0a28\u0a35\u0a40\u0a02 \u0a26\u0a3f\u0a71\u0a32\u0a40",
          "name:ug": "\u064a\u06d0\u06ad\u0649 \u062f\u06d0\u06be\u0644\u0649",
          "name:ur": "\u0646\u0626\u06cc \u062f\u06c1\u0644\u06cc",
          "public_transport": "stop_position",
          "railway": "stop",
          "ref": "NDLS:13",
          "train": "yes"
        }
      },
      {
        "type": "node",
        "id": 938372479,
        "lat": 28.642519,
        "lon": 77.2206742,
        "tags": {
          "alt_name:ar": "\u0646\u064a\u0648\u062f\u0644\u0647\u064a",
          "alt_name:ks": "\u0646\u0654\u0648 \u062f\u0650\u0644",
          "alt_name:ur": "\u0646\u0626\u06cc \u062f\u0644\u06cc",
          "name": "New Delhi",
          "name:ar": "\u062f\u0644\u0647\u064a \u0627\u0644\u062c\u062f\u064a\u062f\u0629",
          "name:az-Arab": "\u06cc\u0626\u0646\u06cc \u062f\u0647\u0644\u06cc",
          "name:azb": "\u06cc\u0626\u0646\u06cc \u062f\u0647\u0644\u06cc",
          "name:de": "Neu-Delhi",
          "name:el": "\u039d\u03ad\u03bf \u0394\u03b5\u03bb\u03c7\u03af",
          "name:es": "Nueva Delhi",
          "name:grc": "\u039d\u03b5\u03bf\u03b4\u03b5\u03bb\u03af\u03c2",
          "name:hy": "\u0546\u0575\u0578\u0582 \u0534\u0565\u056c\u056b",
          "name:hyw": "\u0546\u056b\u0582 \u054f\u0565\u056c\u0570\u056b",
          "name:ks": "\u0646\u0654\u0648 \u062f\u0644\u06be\u06cc",
          "name:pa": "\u0a28\u0a35\u0a40\u0a02 \u0a26\u0a3f\u0a71\u0a32\u0a40",
          "name:ug": "\u064a\u06d0\u06ad\u0649 \u062f\u06d0\u06be\u0644\u0649",
          "name:ur": "\u0646\u0626\u06cc \u062f\u06c1\u0644\u06cc",
          "public_transport": "stop_position",
          "railway": "stop",
          "ref": "NDLS:10",
          "train": "yes"
        }
      },
      {
        "type": "node",
        "id": 938372497,
        "lat": 28.6424462,
        "lon": 77.2201074,
        "tags": {
          "alt_name:ar": "\u0646\u064a\u0648\u062f\u0644\u0647\u064a",
          "alt_name:ks": "\u0646\u0654\u0648 \u062f\u0650\u0644",
          "alt_name:ur": "\u0646\u0626\u06cc \u062f\u0644\u06cc",
          "name": "New Delhi",
          "name:ar": "\u062f\u0644\u0647\u064a \u0627\u0644\u062c\u062f\u064a\u062f\u0629",
          "name:az-Arab": "\u06cc\u0626\u0646\u06cc \u062f\u0647\u0644\u06cc",
          "name:azb": "\u06cc\u0626\u0646\u06cc \u062f\u0647\u0644\u06cc",
          "name:de": "Neu-Delhi",
          "name:el": "\u039d\u03ad\u03bf \u0394\u03b5\u03bb\u03c7\u03af",
          "name:es": "Nueva Delhi",
          "name:grc": "\u039d\u03b5\u03bf\u03b4\u03b5\u03bb\u03af\u03c2",
          "name:hy": "\u0546\u0575\u0578\u0582 \u0534\u0565\u056c\u056b",
          "name:hyw": "\u0546\u056b\u0582 \u054f\u0565\u056c\u0570\u056b",
          "name:ks": "\u0646\u0654\u0648 \u062f\u0644\u06be\u06cc",
          "name:pa": "\u0a28\u0a35\u0a40\u0a02 \u0a26\u0a3f\u0a71\u0a32\u0a40",
          "name:ug": "\u064a\u06d0\u06ad\u0649 \u062f\u06d0\u06be\u0644\u0649",
          "name:ur": "\u0646\u0626\u06cc \u062f\u06c1\u0644\u06cc",
          "public_transport": "stop_position",
          "railway": "stop",
          "ref": "NDLS:5",
          "train": "yes"
        }
      },
      {
        "type": "node",
        "id": 938372516,
        "lat": 28.6425119,
        "lon": 77.220615,
        "tags": {
          "alt_name:ar": "\u0646\u064a\u0648\u062f\u0644\u0647\u064a",
          "alt_name:ks": "\u0646\u0654\u0648 \u062f\u0650\u0644",
          "alt_name:ur": "\u0646\u0626\u06cc \u062f\u0644\u06cc",
          "name": "New Delhi",
          "name:ar": "\u062f\u0644\u0647\u064a \u0627\u0644\u062c\u062f\u064a\u062f\u0629",
          "name:az-Arab": "\u06cc\u0626\u0646\u06cc \u062f\u0647\u0644\u06cc",
          "name:azb": "\u06cc\u0626\u0646\u06cc \u062f\u0647\u0644\u06cc",
          "name:de": "Neu-Delhi",
          "name:el": "\u039d\u03ad\u03bf \u0394\u03b5\u03bb\u03c7\u03af",
          "name:es": "Nueva Delhi",
          "name:grc": "\u039d\u03b5\u03bf\u03b4\u03b5\u03bb\u03af\u03c2",
          "name:hy": "\u0546\u0575\u0578\u0582 \u0534\u0565\u056c\u056b",
          "name:hyw": "\u0546\u056b\u0582 \u054f\u0565\u056c\u0570\u056b",
          "name:ks": "\u0646\u0654\u0648 \u062f\u0644\u06be\u06cc",
          "name:pa": "\u0a28\u0a35\u0a40\u0a02 \u0a26\u0a3f\u0a71\u0a32\u0a40",
          "name:ug": "\u064a\u06d0\u06ad\u0649 \u062f\u06d0\u06be\u0644\u0649",
          "name:ur": "\u0646\u0626\u06cc \u062f\u06c1\u0644\u06cc",
          "public_transport": "stop_position",
          "railway": "stop",
          "ref": "NDLS:9",
          "train": "yes"
        }
      },
      {
        "type": "node",
        "id": 938372520,
        "lat": 28.6425435,
        "lon": 77.2208925,
        "tags": {
          "alt_name:ar": "\u0646\u064a\u0648\u062f\u0644\u0647\u064a",
          "alt_name:ks": "\u0646\u0654\u0648 \u062f\u0650\u0644",
          "alt_name:ur": "\u0646\u0626\u06cc \u062f\u0644\u06cc",
          "name": "New Delhi",
          "name:ar": "\u062f\u0644\u0647\u064a \u0627\u0644\u062c\u062f\u064a\u062f\u0629",
          "name:az-Arab": "\u06cc\u0626\u0646\u06cc \u062f\u0647\u0644\u06cc",
          "name:azb": "\u06cc\u0626\u0646\u06cc \u062f\u0647\u0644\u06cc",
          "name:de": "Neu-Delhi",
          "name:el": "\u039d\u03ad\u03bf \u0394\u03b5\u03bb\u03c7\u03af",
          "name:es": "Nueva Delhi",
          "name:grc": "\u039d\u03b5\u03bf\u03b4\u03b5\u03bb\u03af\u03c2",
          "name:hy": "\u0546\u0575\u0578\u0582 \u0534\u0565\u056c\u056b",
          "name:hyw": "\u0546\u056b\u0582 \u054f\u0565\u056c\u0570\u056b",
          "name:ks": "\u0646\u0654\u0648 \u062f\u0644\u06be\u06cc",
          "name:pa": "\u0a28\u0a35\u0a40\u0a02 \u0a26\u0a3f\u0a71\u0a32\u0a40",
          "name:ug": "\u064a\u06d0\u06ad\u0649 \u062f\u06d0\u06be\u0644\u0649",
          "name:ur": "\u0646\u0626\u06cc \u062f\u06c1\u0644\u06cc",
          "public_transport": "stop_position",
          "railway": "stop",
          "ref": "NDLS:12",
          "train": "yes"
        }
      },
      {
        "type": "node",
        "id": 938372538,
        "lat": 28.6425995,
        "lon": 77.2213817,
        "tags": {
          "alt_name:ar": "\u0646\u064a\u0648\u062f\u0644\u0647\u064a",
          "alt_name:ks": "\u0646\u0654\u0648 \u062f\u0650\u0644",
          "alt_name:ur": "\u0646\u0626\u06cc \u062f\u0644\u06cc",
          "name": "New Delhi",
          "name:ar": "\u062f\u0644\u0647\u064a \u0627\u0644\u062c\u062f\u064a\u062f\u0629",
          "name:az-Arab": "\u06cc\u0626\u0646\u06cc \u062f\u0647\u0644\u06cc",
          "name:azb": "\u06cc\u0626\u0646\u06cc \u062f\u0647\u0644\u06cc",
          "name:de": "Neu-Delhi",
          "name:el": "\u039d\u03ad\u03bf \u0394\u03b5\u03bb\u03c7\u03af",
          "name:es": "Nueva Delhi",
          "name:grc": "\u039d\u03b5\u03bf\u03b4\u03b5\u03bb\u03af\u03c2",
          "name:hy": "\u0546\u0575\u0578\u0582 \u0534\u0565\u056c\u056b",
          "name:hyw": "\u0546\u056b\u0582 \u054f\u0565\u056c\u0570\u056b",
          "name:ks": "\u0646\u0654\u0648 \u062f\u0644\u06be\u06cc",
          "name:pa": "\u0a28\u0a35\u0a40\u0a02 \u0a26\u0a3f\u0a71\u0a32\u0a40",
          "name:ug": "\u064a\u06d0\u06ad\u0649 \u062f\u06d0\u06be\u0644\u0649",
          "name:ur": "\u0646\u0626\u06cc \u062f\u06c1\u0644\u06cc",
          "public_transport": "stop_position",
          "railway": "stop",
          "ref": "NDLS:16",
          "train": "yes"
        }
      },
      {
        "type": "node",
        "id": 938372549,
        "lat": 28.6423739,
        "lon": 77.2197333,
        "tags": {
          "alt_name:ar": "\u0646\u064a\u0648\u062f\u0644\u0647\u064a",
          "alt_name:ks": "\u0646\u0654\u0648 \u062f\u0650\u0644",
          "alt_name:ur": "\u0646\u0626\u06cc \u062f\u0644\u06cc",
          "electrified": "contact_line",
          "frequency": "50",
          "name": "New Delhi",
          "name:ar": "\u062f\u0644\u0647\u064a \u0627\u0644\u062c\u062f\u064a\u062f\u0629",
          "name:az-Arab": "\u06cc\u0626\u0646\u06cc \u062f\u0647\u0644\u06cc",
          "name:azb": "\u06cc\u0626\u0646\u06cc \u062f\u0647\u0644\u06cc",
          "name:de": "Neu-Delhi",
          "name:el": "\u039d\u03ad\u03bf \u0394\u03b5\u03bb\u03c7\u03af",
          "name:es": "Nueva Delhi",
          "name:grc": "\u039d\u03b5\u03bf\u03b4\u03b5\u03bb\u03af\u03c2",
          "name:hy": "\u0546\u0575\u0578\u0582 \u0534\u0565\u056c\u056b",
          "name:hyw": "\u0546\u056b\u0582 \u054f\u0565\u056c\u0570\u056b",
          "name:ks": "\u0646\u0654\u0648 \u062f\u0644\u06be\u06cc",
          "name:pa": "\u0a28\u0a35\u0a40\u0a02 \u0a26\u0a3f\u0a71\u0a32\u0a40",
          "name:ug": "\u064a\u06d0\u06ad\u0649 \u062f\u06d0\u06be\u0644\u0649",
          "name:ur": "\u0646\u0626\u06cc \u062f\u06c1\u0644\u06cc",
          "public_transport": "stop_position",
          "railway": "stop",
          "ref": "NDLS:2",
          "train": "yes",
          "usage": "main",
          "voltage": "25000"
        }
      },
      {
        "type": "node",
        "id": 938372552,
        "lat": 28.642417,
        "lon": 77.2199605,
        "tags": {
          "alt_name:ar": "\u0646\u064a\u0648\u062f\u0644\u0647\u064a",
          "alt_name:ks": "\u0646\u0654\u0648 \u062f\u0650\u0644",
          "alt_name:ur": "\u0646\u0626\u06cc \u062f\u0644\u06cc",
          "name": "New Delhi",
          "name:ar": "\u062f\u0644\u0647\u064a \u0627\u0644\u062c\u062f\u064a\u062f\u0629",
          "name:az-Arab": "\u06cc\u0626\u0646\u06cc \u062f\u0647\u0644\u06cc",
          "name:azb": "\u06cc\u0626\u0646\u06cc \u062f\u0647\u0644\u06cc",
          "name:de": "Neu-Delhi",
          "name:el": "\u039d\u03ad\u03bf \u0394\u03b5\u03bb\u03c7\u03af",
          "name:es": "Nueva Delhi",
          "name:grc": "\u039d\u03b5\u03bf\u03b4\u03b5\u03bb\u03af\u03c2",
          "name:hy": "\u0546\u0575\u0578\u0582 \u0534\u0565\u056c\u056b",
          "name:hyw": "\u0546\u056b\u0582 \u054f\u0565\u056c\u0570\u056b",
          "name:ks": "\u0646\u0654\u0648 \u062f\u0644\u06be\u06cc",
          "name:pa": "\u0a28\u0a35\u0a40\u0a02 \u0a26\u0a3f\u0a71\u0a32\u0a40",
          "name:ug": "\u064a\u06d0\u06ad\u0649 \u062f\u06d0\u06be\u0644\u0649",
          "name:ur": "\u0646\u0626\u06cc \u062f\u06c1\u0644\u06cc",
          "public_transport": "stop_position",
          "railway": "stop",
          "ref": "NDLS:4",
          "train": "yes"
        }
      },
      {
        "type": "node",
        "id": 938372557,
        "lat": 28.6425394,
        "lon": 77.2208372,
        "tags": {
          "alt_name:ar": "\u0646\u064a\u0648\u062f\u0644\u0647\u064a",
          "alt_name:ks": "\u0646\u0654\u0648 \u062f\u0650\u0644",
          "alt_name:ur": "\u0646\u0626\u06cc \u062f\u0644\u06cc",
          "name": "New Delhi",
          "name:ar": "\u062f\u0644\u0647\u064a \u0627\u0644\u062c\u062f\u064a\u062f\u0629",
          "name:az-Arab": "\u06cc\u0626\u0646\u06cc \u062f\u0647\u0644\u06cc",
          "name:azb": "\u06cc\u0626\u0646\u06cc \u062f\u0647\u0644\u06cc",
          "name:de": "Neu-Delhi",
          "name:el": "\u039d\u03ad\u03bf \u0394\u03b5\u03bb\u03c7\u03af",
          "name:es": "Nueva Delhi",
          "name:grc": "\u039d\u03b5\u03bf\u03b4\u03b5\u03bb\u03af\u03c2",
          "name:hy": "\u0546\u0575\u0578\u0582 \u0534\u0565\u056c\u056b",
          "name:hyw": "\u0546\u056b\u0582 \u054f\u0565\u056c\u0570\u056b",
          "name:ks": "\u0646\u0654\u0648 \u062f\u0644\u06be\u06cc",
          "name:pa": "\u0a28\u0a35\u0a40\u0a02 \u0a26\u0a3f\u0a71\u0a32\u0a40",
          "name:ug": "\u064a\u06d0\u06ad\u0649 \u062f\u06d0\u06be\u0644\u0649",
          "name:ur": "\u0646\u0626\u06cc \u062f\u06c1\u0644\u06cc",
          "public_transport": "stop_position",
          "railway": "stop",
          "ref": "NDLS:11",
          "train": "yes"
        }
      },
      {
        "type": "node",
        "id": 938372570,
        "lat": 28.642495,
        "lon": 77.220482,
        "tags": {
          "alt_name:ar": "\u0646\u064a\u0648\u062f\u0644\u0647\u064a",
          "alt_name:ks": "\u0646\u0654\u0648 \u062f\u0650\u0644",
          "alt_name:ur": "\u0646\u0626\u06cc \u062f\u0644\u06cc",
          "name": "New Delhi",
          "name:ar": "\u062f\u0644\u0647\u064a \u0627\u0644\u062c\u062f\u064a\u062f\u0629",
          "name:az-Arab": "\u06cc\u0626\u0646\u06cc \u062f\u0647\u0644\u06cc",
          "name:azb": "\u06cc\u0626\u0646\u06cc \u062f\u0647\u0644\u06cc",
          "name:de": "Neu-Delhi",
          "name:el": "\u039d\u03ad\u03bf \u0394\u03b5\u03bb\u03c7\u03af",
          "name:es": "Nueva Delhi",
          "name:grc": "\u039d\u03b5\u03bf\u03b4\u03b5\u03bb\u03af\u03c2",
          "name:hy": "\u0546\u0575\u0578\u0582 \u0534\u0565\u056c\u056b",
          "name:hyw": "\u0546\u056b\u0582 \u054f\u0565\u056c\u0570\u056b",
          "name:ks": "\u0646\u0654\u0648 \u062f\u0644\u06be\u06cc",
          "name:pa": "\u0a28\u0a35\u0a40\u0a02 \u0a26\u0a3f\u0a71\u0a32\u0a40",
          "name:ug": "\u064a\u06d0\u06ad\u0649 \u062f\u06d0\u06be\u0644\u0649",
          "name:ur": "\u0646\u0626\u06cc \u062f\u06c1\u0644\u06cc",
          "public_transport": "stop_position",
          "railway": "stop",
          "ref": "NDLS:8",
          "train": "yes"
        }
      },
      {
        "type": "node",
        "id": 938372576,
        "lat": 28.6425934,
        "lon": 77.2213173,
        "tags": {
          "alt_name:ar": "\u0646\u064a\u0648\u062f\u0644\u0647\u064a",
          "alt_name:ks": "\u0646\u0654\u0648 \u062f\u0650\u0644",
          "alt_name:ur": "\u0646\u0626\u06cc \u062f\u0644\u06cc",
          "name": "New Delhi",
          "name:ar": "\u062f\u0644\u0647\u064a \u0627\u0644\u062c\u062f\u064a\u062f\u0629",
          "name:az-Arab": "\u06cc\u0626\u0646\u06cc \u062f\u0647\u0644\u06cc",
          "name:azb": "\u06cc\u0626\u0646\u06cc \u062f\u0647\u0644\u06cc",
          "name:de": "Neu-Delhi",
          "name:el": "\u039d\u03ad\u03bf \u0394\u03b5\u03bb\u03c7\u03af",
          "name:es": "Nueva Delhi",
          "name:grc": "\u039d\u03b5\u03bf\u03b4\u03b5\u03bb\u03af\u03c2",
          "name:hy": "\u0546\u0575\u0578\u0582 \u0534\u0565\u056c\u056b",
          "name:hyw": "\u0546\u056b\u0582 \u054f\u0565\u056c\u0570\u056b",
          "name:ks": "\u0646\u0654\u0648 \u062f\u0644\u06be\u06cc",
          "name:pa": "\u0a28\u0a35\u0a40\u0a02 \u0a26\u0a3f\u0a71\u0a32\u0a40",
          "name:ug": "\u064a\u06d0\u06ad\u0649 \u062f\u06d0\u06be\u0644\u0649",
          "name:ur": "\u0646\u0626\u06cc \u062f\u06c1\u0644\u06cc",
          "public_transport": "stop_position",
          "railway": "stop",
          "ref": "NDLS:15",
          "train": "yes"
        }
      },
      {
        "type": "node",
        "id": 938372581,
        "lat": 28.6423596,
        "lon": 77.2196366,
        "tags": {
          "alt_name:ar": "\u0646\u064a\u0648\u062f\u0644\u0647\u064a",
          "alt_name:ks": "\u0646\u0654\u0648 \u062f\u0650\u0644",
          "alt_name:ur": "\u0646\u0626\u06cc \u062f\u0644\u06cc",
          "name": "New Delhi",
          "name:ar": "\u062f\u0644\u0647\u064a \u0627\u0644\u062c\u062f\u064a\u062f\u0629",
          "name:az-Arab": "\u06cc\u0626\u0646\u06cc \u062f\u0647\u0644\u06cc",
          "name:azb": "\u06cc\u0626\u0646\u06cc \u062f\u0647\u0644\u06cc",
          "name:de": "Neu-Delhi",
          "name:el": "\u039d\u03ad\u03bf \u0394\u03b5\u03bb\u03c7\u03af",
          "name:es": "Nueva Delhi",
          "name:grc": "\u039d\u03b5\u03bf\u03b4\u03b5\u03bb\u03af\u03c2",
          "name:hy": "\u0546\u0575\u0578\u0582 \u0534\u0565\u056c\u056b",
          "name:hyw": "\u0546\u056b\u0582 \u054f\u0565\u056c\u0570\u056b",
          "name:ks": "\u0646\u0654\u0648 \u062f\u0644\u06be\u06cc",
          "name:pa": "\u0a28\u0a35\u0a40\u0a02 \u0a26\u0a3f\u0a71\u0a32\u0a40",
          "name:ug": "\u064a\u06d0\u06ad\u0649 \u062f\u06d0\u06be\u0644\u0649",
          "name:ur": "\u0646\u0626\u06cc \u062f\u06c1\u0644\u06cc",
          "public_transport": "stop_position",
          "railway": "stop",
          "ref": "NDLS:1",
          "train": "yes"
        }
      },
      {
        "type": "node",
        "id": 938372585,
        "lat": 28.6424082,
        "lon": 77.2199116,
        "tags": {
          "alt_name:ar": "\u0646\u064a\u0648\u062f\u0644\u0647\u064a",
          "alt_name:ks": "\u0646\u0654\u0648 \u062f\u0650\u0644",
          "alt_name:ur": "\u0646\u0626\u06cc \u062f\u0644\u06cc",
          "name": "New Delhi",
          "name:ar": "\u062f\u0644\u0647\u064a \u0627\u0644\u062c\u062f\u064a\u062f\u0629",
          "name:az-Arab": "\u06cc\u0626\u0646\u06cc \u062f\u0647\u0644\u06cc",
          "name:azb": "\u06cc\u0626\u0646\u06cc \u062f\u0647\u0644\u06cc",
          "name:de": "Neu-Delhi",
          "name:el": "\u039d\u03ad\u03bf \u0394\u03b5\u03bb\u03c7\u03af",
          "name:es": "Nueva Delhi",
          "name:grc": "\u039d\u03b5\u03bf\u03b4\u03b5\u03bb\u03af\u03c2",
          "name:hy": "\u0546\u0575\u0578\u0582 \u0534\u0565\u056c\u056b",
          "name:hyw": "\u0546\u056b\u0582 \u054f\u0565\u056c\u0570\u056b",
          "name:ks": "\u0646\u0654\u0648 \u062f\u0644\u06be\u06cc",
          "name:pa": "\u0a28\u0a35\u0a40\u0a02 \u0a26\u0a3f\u0a71\u0a32\u0a40",
          "name:ug": "\u064a\u06d0\u06ad\u0649 \u062f\u06d0\u06be\u0644\u0649",
          "name:ur": "\u0646\u0626\u06cc \u062f\u06c1\u0644\u06cc",
          "public_transport": "stop_position",
          "railway": "stop",
          "ref": "NDLS:3",
          "train": "yes"
        }
      },
      {
        "type": "node",
        "id": 938409458,
        "lat": 28.6430709,
        "lon": 77.2237077,
        "tags": {
          "bus": "yes",
          "name": "New Delhi Railway Station Gate Number 2",
          "public_transport": "stop_position"
        }
      },
      {
        "type": "node",
        "id": 938409545,
        "lat": 28.6424786,
        "lon": 77.2231116,
        "tags": {
          "name": "New Delhi Airport Express Terminal",
          "name:hi": "\u0928\u0908 \u0926\u093f\u0932\u094d\u0932\u0940 \u090f\u092f\u0930\u092a\u094b\u0930\u094d\u091f \u090f\u0915\u094d\u0938\u092a\u094d\u0930\u0947\u0938 \u091f\u0930\u094d\u092e\u093f\u0928\u0932",
          "network": "Delhi Metro",
          "network:wikidata": "Q271195",
          "note": "Contributors are requested to not edit the \"network\" and the \"operator\" tags. (2023/06/22)",
          "operator": "Delhi Metro Rail Corporation Limited",
          "operator:wikidata": "Q1029339",
          "public_transport": "station",
          "railway": "station",
          "ref": "NDI",
          "station": "subway",
          "subway": "yes",
          "wikidata": "Q3634456",
          "wikipedia": "en:New Delhi metro station"
        }
      },
      {
        "type": "node",
        "id": 939091076,
        "lat": 28.6327591,
        "lon": 77.2196877,
        "tags": {
          "name": "Rajiv Chowk",
          "name:hi": "\u0930\u093e\u091c\u0940\u0935 \u091a\u094c\u0915",
          "name:kn": "\u0cb0\u0cbe\u0c9c\u0cc0\u0cb5\u0ccd \u0c9a\u0ccc\u0c95\u0ccd",
          "network": "Delhi Metro",
          "note": "Contributors are requested to not edit the \"network\" and the \"operator\" tags. (2023/06/22)",
          "operator": "Delhi Metro Rail Corporation Limited",
          "public_transport": "stop_position",
          "railway": "stop",
          "ref": "RCK",
          "subway": "yes"
        }
      },
      {
        "type": "node",
        "id": 974361599,
        "lat": 28.6411555,
        "lon": 77.2108258,
        "tags": {
          "amenity": "cinema",
          "name": "Imperial"
        }
      },
      {
        "type": "node",
        "id": 1665772897,
        "lat": 28.6158726,
        "lon": 77.2123897,
        "tags": {
          "name": "Central Secretariat",
          "name:hi": "\u0915\u0947\u0902\u0926\u094d\u0930\u0940\u092f \u0938\u091a\u093f\u0935\u093e\u0932\u092f",
          "name:kn": "\u0cb8\u0cc6\u0c82\u0c9f\u0ccd\u0cb0\u0cb2\u0ccd \u0cb8\u0cc6\u0c95\u0ccd\u0cb0\u0cc6\u0c9f\u0cb0\u0cbf\u0cb8\u0ccd\u0c9f\u0ccd",
          "network": "Delhi Metro",
          "note": "Contributors are requested to not edit the \"network\" and the \"operator\" tags. (2023/06/22)",
          "operator": "Delhi Metro Rail Corporation Limited",
          "public_transport": "stop_position",
          "railway": "stop",
          "ref": "CTST",
          "subway": "yes",
          "wikidata": "Q5061812"
        }
      },
      {
        "type": "node",
        "id": 1988513598,
        "lat": 28.6334521,
        "lon": 77.2266682,
        "tags": {
          "internet_access": "no",
          "name": "Shivaji Bridge",
          "name:hi": "\u0936\u093f\u0935\u093e\u091c\u0940 \u092a\u0941\u0932",
          "name:ur": "\u0634\u06cc\u0648\u0627 \u062c\u06cc \u0628\u0631\u062c",
          "network": "IR",
          "operator": "NR",
          "public_transport": "station",
          "railway": "station",
          "ref": "CSB",
          "train": "yes",
          "wheelchair": "yes",
          "wikidata": "Q24948842",
          "wikipedia": "en:Shivaji Bridge railway station"
        }
      },
      {
        "type": "node",
        "id": 1988513599,
        "lat": 28.6280278,
        "lon": 77.2378914,
        "tags": {
          "internet_access": "no",
          "name": "Tilak Bridge",
          "name:hi": "\u0924\u093f\u0932\u0915 \u092c\u094d\u0930\u093f\u091c",
          "name:ur": "\u062a\u0644\u06a9 \u0628\u0631\u062c",
          "network": "IR",
          "operator": "NR",
          "public_transport": "station",
          "railway": "station",
          "ref": "TKJ",
          "train": "yes",
          "wikidata": "Q12432167"
        }
      },
      {
        "type": "node",
        "id": 1988668271,
        "lat": 28.6240472,
        "lon": 77.2192877,
        "tags": {
          "name": "Janpath",
          "name:hi": "\u091c\u0928\u092a\u0925",
          "name:kn": "\u0c9c\u0ca8\u0ccd\u0caa\u0ca4\u0ccd",
          "network": "Delhi Metro",
          "note": "Contributors are requested to not edit the \"network\" and the \"operator\" tags. (2023/06/22)",
          "operator": "Delhi Metro Rail Corporation Limited",
          "public_transport": "stop_position",
          "railway": "stop",
          "ref": "JNPH",
          "subway": "yes"
        }
      },
      {
        "type": "node",
        "id": 2622338438,
        "lat": 28.6254928,
        "lon": 77.234191,
        "tags": {
          "name": "Mandi House",
          "name:hi": "\u092e\u0902\u0921\u0940 \u0939\u093e\u0909\u0938",
          "name:kn": "\u0cae\u0c82\u0ca1\u0cbf \u0cb9\u0ccc\u0cb8\u0ccd",
          "network": "Delhi Metro",
          "note": "Contributors are requested to not edit the \"network\" and the \"operator\" tags. (2023/06/22)",
          "operator": "Delhi Metro Rail Corporation Limited",
          "public_transport": "stop_position",
          "railway": "stop",
          "ref": "MDHS",
          "subway": "yes"
        }
      },
      {
        "type": "node",
        "id": 2654011278,
        "lat": 28.6337158,
        "lon": 77.2178321,
        "tags": {
          "addr:city": "New Delhi",
          "addr:housenumber": "A 23",
          "addr:postcode": "110001",
          "addr:street": "Connaught Circus (Indira Chowk), Connaught Place",
          "amenity": "fuel",
          "brand": "Indian Oil",
          "brand:wikidata": "Q1289348",
          "brand:wikipedia": "en:Indian Oil Corporation",
          "name": "Indian Oil Petrol Pump"
        }
      },
      {
        "type": "node",
        "id": 3580369626,
        "lat": 28.6281909,
        "lon": 77.2410728,
        "tags": {
          "addr:city": "New Delhi",
          "name": "ITO",
          "name:hi": "\u0906\u0908\u091f\u0940\u0913",
          "name:kn": "\u0c90\u0c9f\u0cbf\u0c93",
          "network": "Delhi Metro",
          "note": "Contributors are requested to not edit the \"network\" and the \"operator\" tags. (2023/06/22)",
          "operator": "Delhi Metro Rail Corporation Limited",
          "public_transport": "stop_position",
          "railway": "stop",
          "ref": "ITO",
          "subway": "yes"
        }
      },
      {
        "type": "node",
        "id": 3744502772,
        "lat": 28.6304632,
        "lon": 77.2238139,
        "tags": {
          "bus": "yes",
          "public_transport": "stop_position"
        }
      },
      {
        "type": "node",
        "id": 4122590190,
        "lat": 28.6288906,
        "lon": 77.210219,
        "tags": {
          "amenity": "fuel",
          "brand": "Bharat Petroleum",
          "brand:wikidata": "Q854826",
          "name": "Bharat Petroleum"
        }
      },
      {
        "type": "node",
        "id": 4543453289,
        "lat": 28.6306708,
        "lon": 77.2169833,
        "tags": {
          "addr:city": "New Delhi",
          "amenity": "cinema",
          "name:en": "Regal Cinema",
          "name:ru": "\u0420\u0435\u0433\u0430\u043b \u0441\u0438\u043d\u0435\u043c\u0430"
        }
      },
      {
        "type": "node",
        "id": 4692007714,
        "lat": 28.6045138,
        "lon": 77.2245624,
        "tags": {
          "amenity": "fuel",
          "brand": "Bharat Petroleum",
          "brand:wikidata": "Q854826",
          "name": "Jiwan Service Station",
          "opening_hours": "24/7"
        }
      },
      {
        "type": "node",
        "id": 4700705789,
        "lat": 28.6086972,
        "lon": 77.2302094,
        "tags": {
          "amenity": "bus_station",
          "bus": "yes",
          "name": "Bikaner Bus Depot",
          "name:hi": "Bikaner Bus Depot",
          "public_transport": "station"
        }
      },
      {
        "type": "node",
        "id": 5193360429,
        "lat": 28.6318815,
        "lon": 77.2215358,
        "tags": {
          "addr:housenumber": "24",
          "addr:place": "Connaught Place",
          "amenity": "fuel",
          "brand": "Hindustan Petroleum",
          "brand:wikidata": "Q1619375",
          "check_date": "2024-06-02",
          "compressed_air": "yes",
          "name": "Hindustan Petroleum",
          "official_name": "Hindustan Petroleum"
        }
      },
      {
        "type": "node",
        "id": 5338584665,
        "lat": 28.6259776,
        "lon": 77.2032745,
        "tags": {
          "amenity": "theatre",
          "name": "Akshara",
          "name:hi": "\u0905\u0915\u094d\u0937\u0930"
        }
      },
      {
        "type": "node",
        "id": 5345530305,
        "lat": 28.624526,
        "lon": 77.2188215,
        "tags": {
          "amenity": "fuel",
          "brand": "Bharat Petroleum",
          "brand:wikidata": "Q854826",
          "name": "Bharat Petroleum"
        }
      },
      {
        "type": "node",
        "id": 5345531969,
        "lat": 28.6264672,
        "lon": 77.2199591,
        "tags": {
          "amenity": "fuel",
          "brand": "Indian Oil",
          "brand:wikidata": "Q1289348",
          "name": "Indian Oil"
        }
      },
      {
        "type": "node",
        "id": 5453621429,
        "lat": 28.6327423,
        "lon": 77.2194242,
        "tags": {
          "name": "Rajiv Chowk",
          "name:hi": "\u0930\u093e\u091c\u0940\u0935 \u091a\u094c\u0915",
          "name:kn": "\u0cb0\u0cbe\u0c9c\u0cc0\u0cb5\u0ccd \u0c9a\u0ccc\u0c95\u0ccd",
          "network": "Delhi Metro",
          "note": "Contributors are requested to not edit the \"network\" and the \"operator\" tags. (2023/06/22)",
          "operator": "Delhi Metro Rail Corporation Limited",
          "public_transport": "stop_position",
          "railway": "stop",
          "ref": "RCK",
          "subway": "yes"
        }
      },
      {
        "type": "node",
        "id": 5453646586,
        "lat": 28.6158794,
        "lon": 77.2122822,
        "tags": {
          "name": "Central Secretariat",
          "name:hi": "\u0938\u0947\u0902\u091f\u094d\u0930\u0932 \u0938\u0947\u0915\u094d\u0930\u0947\u091f\u0947\u0930\u093f\u090f\u091f",
          "name:kn": "\u0cb8\u0cc6\u0c82\u0c9f\u0ccd\u0cb0\u0cb2\u0ccd \u0cb8\u0cc6\u0c95\u0ccd\u0cb0\u0cc6\u0c9f\u0cb0\u0cbf\u0cb8\u0ccd\u0c9f\u0ccd",
          "network": "Delhi Metro",
          "network:wikidata": "Q271195",
          "note": "Contributors are requested to not edit the \"network\" and the \"operator\" tags. (2023/06/22)",
          "operator": "Delhi Metro Rail Corporation Limited",
          "operator:wikidata": "Q1029339",
          "public_transport": "station",
          "railway": "station",
          "ref": "CTST",
          "station": "subway",
          "subway": "yes",
          "train": "yes",
          "wikidata": "Q5061812",
          "wikipedia": "en:Central Secretariat metro station"
        }
      },
      {
        "type": "node",
        "id": 5483954444,
        "lat": 28.6173486,
        "lon": 77.2038762,
        "tags": {
          "bus": "yes",
          "name": "Kendriya Terminal",
          "public_transport": "stop_position"
        }
      },
      {
        "type": "node",
        "id": 5561975423,
        "lat": 28.617422,
        "lon": 77.2038794,
        "tags": {
          "bus": "yes",
          "name": "Kendriya Terminal",
          "public_transport": "stop_position"
        }
      },
      {
        "type": "node",
        "id": 5637100896,
        "lat": 28.6415227,
        "lon": 77.2258674,
        "tags": {
          "amenity": "fuel",
          "brand": "Bharat Petroleum",
          "brand:wikidata": "Q854826",
          "name": "Bharat Petroleum"
        }
      },
      {
        "type": "node",
        "id": 5690505425,
        "lat": 28.6233298,
        "lon": 77.2184168,
        "tags": {
          "amenity": "bus_station",
          "bus": "yes",
          "name": "Western Court Bus Terminus",
          "public_transport": "station"
        }
      },
      {
        "type": "node",
        "id": 5737166761,
        "lat": 28.6288795,
        "lon": 77.211331,
        "tags": {
          "name": "Shivaji Stadium",
          "network": "Delhi Metro",
          "network:wikidata": "Q271195",
          "note": "Contributors are requested to not edit the \"network\" and the \"operator\" tags. (2023/06/22)",
          "operator": "Delhi Metro Rail Corporation Limited",
          "operator:wikidata": "Q1029339",
          "public_transport": "stop_position",
          "railway": "stop",
          "ref": "SJSU",
          "subway": "yes"
        }
      },
      {
        "type": "node",
        "id": 5737167170,
        "lat": 28.6424706,
        "lon": 77.2231333,
        "tags": {
          "name": "New Delhi Airport Express Terminal",
          "name:hi": "\u0928\u0908 \u0926\u093f\u0932\u094d\u0932\u0940 \u090f\u092f\u0930\u092a\u094b\u0930\u094d\u091f \u090f\u0915\u094d\u0938\u092a\u094d\u0930\u0947\u0938 \u091f\u0930\u094d\u092e\u093f\u0928\u0932",
          "network": "Delhi Metro",
          "network:wikidata": "Q271195",
          "note": "Contributors are requested to not edit the \"network\" and the \"operator\" tags. (2023/06/22)",
          "operator": "Delhi Metro Rail Corporation Limited",
          "operator:wikidata": "Q1029339",
          "public_transport": "stop_position",
          "railway": "stop",
          "ref": "NDI",
          "subway": "yes"
        }
      },
      {
        "type": "node",
        "id": 5737167205,
        "lat": 28.6256326,
        "lon": 77.2341984,
        "tags": {
          "name": "Mandi House",
          "name:hi": "\u092e\u0902\u0921\u0940 \u0939\u093e\u0909\u0938",
          "name:kn": "\u0cae\u0c82\u0ca1\u0cbf \u0cb9\u0ccc\u0cb8\u0ccd",
          "network": "Delhi Metro",
          "note": "Contributors are requested to not edit the \"network\" and the \"operator\" tags. (2023/06/22)",
          "operator": "Delhi Metro Rail Corporation Limited",
          "public_transport": "stop_position",
          "railway": "stop",
          "ref": "MDHS",
          "subway": "yes"
        }
      },
      {
        "type": "node",
        "id": 5737167209,
        "lat": 28.6297873,
        "lon": 77.2250214,
        "tags": {
          "name": "Barakhambha Road",
          "network": "Delhi Metro",
          "note": "Contributors are requested to not edit the \"network\" and the \"operator\" tags. (2023/06/22)",
          "operator": "Delhi Metro Rail Corporation Limited",
          "public_transport": "stop_position",
          "railway": "stop",
          "subway": "yes"
        }
      },
      {
        "type": "node",
        "id": 5737167211,
        "lat": 28.6392594,
        "lon": 77.2085944,
        "tags": {
          "name": "Ramakrishna Ashram Marg",
          "network": "Delhi Metro",
          "note": "Contributors are requested to not edit the \"network\" and the \"operator\" tags. (2023/06/22)",
          "operator": "Delhi Metro Rail Corporation Limited",
          "public_transport": "stop_position",
          "railway": "stop",
          "subway": "yes"
        }
      },
      {
        "type": "node",
        "id": 5777602002,
        "lat": 28.6229815,
        "lon": 77.2140067,
        "tags": {
          "name": "Patel Chowk",
          "network": "Delhi Metro",
          "note": "Contributors are requested to not edit the \"network\" and the \"operator\" tags. (2023/06/22)",
          "operator": "Delhi Metro Rail Corporation Limited",
          "public_transport": "stop_position",
          "railway": "stop",
          "ref": "PTCK",
          "subway": "yes"
        }
      },
      {
        "type": "node",
        "id": 5777602007,
        "lat": 28.615882,
        "lon": 77.212252,
        "tags": {
          "name": "Central Secretariat",
          "name:kn": "\u0cb8\u0cc6\u0c82\u0c9f\u0ccd\u0cb0\u0cb2\u0ccd \u0cb8\u0cc6\u0c95\u0ccd\u0cb0\u0cc6\u0c9f\u0cb0\u0cbf\u0cb8\u0ccd\u0c9f\u0ccd",
          "network": "Delhi Metro",
          "note": "Contributors are requested to not edit the \"network\" and the \"operator\" tags. (2023/06/22)",
          "operator": "Delhi Metro Rail Corporation Limited",
          "public_transport": "stop_position",
          "railway": "stop",
          "ref": "CTST",
          "subway": "yes"
        }
      },
      {
        "type": "node",
        "id": 5777602008,
        "lat": 28.6095152,
        "lon": 77.2117641,
        "tags": {
          "name": "Udyog Bhavan",
          "network": "Delhi Metro",
          "note": "Contributors are requested to not edit the \"network\" and the \"operator\" tags. (2023/06/22)",
          "operator": "Delhi Metro Rail Corporation Limited",
          "public_transport": "stop_position",
          "railway": "stop",
          "ref": "UDB",
          "subway": "yes"
        }
      },
      {
        "type": "node",
        "id": 5777629164,
        "lat": 28.6022239,
        "lon": 77.2291083,
        "tags": {
          "name": "Khan Market",
          "name:en": "Khan Market",
          "name:hi": "\u0916\u093e\u0928 \u092c\u093e\u091c\u093e\u0930",
          "name:ur": "\u062e\u0627\u0646 \u0628\u0627\u0632\u0627\u0631",
          "network": "Delhi Metro",
          "note": "Contributors are requested to not edit the \"network\" and the \"operator\" tags. (2023/06/22)",
          "operator": "Delhi Metro Rail Corporation Limited",
          "public_transport": "stop_position",
          "railway": "stop",
          "subway": "yes"
        }
      },
      {
        "type": "node",
        "id": 5777629169,
        "lat": 28.6158758,
        "lon": 77.2123449,
        "tags": {
          "name": "Central Secretariat",
          "name:hi": "\u0915\u0947\u0902\u0926\u094d\u0930\u0940\u092f \u0938\u091a\u093f\u0935\u093e\u0932\u092f",
          "name:kn": "\u0cb8\u0cc6\u0c82\u0c9f\u0ccd\u0cb0\u0cb2\u0ccd \u0cb8\u0cc6\u0c95\u0ccd\u0cb0\u0cc6\u0c9f\u0cb0\u0cbf\u0cb8\u0ccd\u0c9f\u0ccd",
          "network": "Delhi Metro",
          "note": "Contributors are requested to not edit the \"network\" and the \"operator\" tags. (2023/06/22)",
          "operator": "Delhi Metro Rail Corporation Limited",
          "public_transport": "stop_position",
          "railway": "stop",
          "ref": "CTST",
          "subway": "yes",
          "wikidata": "Q5061812"
        }
      },
      {
        "type": "node",
        "id": 5777629177,
        "lat": 28.6240499,
        "lon": 77.2192311,
        "tags": {
          "name": "Janpath",
          "name:hi": "\u091c\u0928\u092a\u0925",
          "name:kn": "\u0c9c\u0ca8\u0ccd\u0caa\u0ca4\u0ccd",
          "network": "Delhi Metro",
          "note": "Contributors are requested to not edit the \"network\" and the \"operator\" tags. (2023/06/22)",
          "operator": "Delhi Metro Rail Corporation Limited",
          "public_transport": "stop_position",
          "railway": "stop",
          "ref": "JNPH",
          "subway": "yes"
        }
      },
      {
        "type": "node",
        "id": 5777629183,
        "lat": 28.6255425,
        "lon": 77.2341948,
        "tags": {
          "name": "Mandi House",
          "name:hi": "\u092e\u0902\u0921\u0940 \u0939\u093e\u0909\u0938",
          "name:kn": "\u0cae\u0c82\u0ca1\u0cbf \u0cb9\u0ccc\u0cb8\u0ccd",
          "network": "Delhi Metro",
          "note": "Contributors are requested to not edit the \"network\" and the \"operator\" tags. (2023/06/22)",
          "operator": "Delhi Metro Rail Corporation Limited",
          "public_transport": "stop_position",
          "railway": "stop",
          "ref": "MDHS",
          "subway": "yes"
        }
      },
      {
        "type": "node",
        "id": 5777629192,
        "lat": 28.6281945,
        "lon": 77.2410162,
        "tags": {
          "addr:city": "New Delhi",
          "name": "ITO",
          "name:hi": "\u0906\u0908\u091f\u0940\u0913",
          "name:kn": "\u0c90\u0c9f\u0cbf\u0c93",
          "network": "Delhi Metro",
          "note": "Contributors are requested to not edit the \"network\" and the \"operator\" tags. (2023/06/22)",
          "operator": "Delhi Metro Rail Corporation Limited",
          "public_transport": "stop_position",
          "railway": "stop",
          "ref": "ITO",
          "subway": "yes"
        }
      },
      {
        "type": "node",
        "id": 5799061867,
        "lat": 28.6300536,
        "lon": 77.2172723,
        "tags": {
          "addr:city": "New Delhi",
          "amenity": "theatre",
          "level": "1",
          "name": "The Attic",
          "survey:date": "2023-01-22",
          "website": "https://www.theatticdelhi.org/"
        }
      },
      {
        "type": "node",
        "id": 6131069513,
        "lat": 28.6419258,
        "lon": 77.2217499,
        "tags": {
          "alt_name:ar": "\u0646\u064a\u0648\u062f\u0644\u0647\u064a",
          "alt_name:ks": "\u0646\u0654\u0648 \u062f\u0650\u0644",
          "alt_name:ur": "\u0646\u0626\u06cc \u062f\u0644\u06cc;\u0646\u0626\u06cc \u062f\u0650\u0644\u0651\u06cc",
          "internet_access": "wlan",
          "long_name": "\u0646\u0626\u06cc \u062f\u06c1\u0644\u06cc \u0631\u06cc\u0644\u0648\u06d2 \u0627\u0633\u0679\u06cc\u0634\u0646",
          "long_name:ur": "\u0646\u0626\u06cc \u062f\u06c1\u0644\u06cc \u0631\u06cc\u0644\u0648\u06d2 \u0627\u0633\u0679\u06cc\u0634\u0646",
          "name": "New Delhi",
          "name:ar": "\u062f\u0644\u0647\u064a \u0627\u0644\u062c\u062f\u064a\u062f\u0629",
          "name:az-Arab": "\u06cc\u0626\u0646\u06cc \u062f\u0647\u0644\u06cc",
          "name:azb": "\u06cc\u0626\u0646\u06cc \u062f\u0647\u0644\u06cc",
          "name:de": "Neu-Delhi",
          "name:el": "\u039d\u03ad\u03bf \u0394\u03b5\u03bb\u03c7\u03af",
          "name:es": "Nueva Delhi",
          "name:grc": "\u039d\u03b5\u03bf\u03b4\u03b5\u03bb\u03af\u03c2",
          "name:hi": "\u0928\u0908 \u0926\u093f\u0932\u094d\u0932\u0940",
          "name:hy": "\u0546\u0575\u0578\u0582 \u0534\u0565\u056c\u056b",
          "name:hyw": "\u0546\u056b\u0582 \u054f\u0565\u056c\u0570\u056b",
          "name:ks": "\u0646\u0654\u0648 \u062f\u0644\u06be\u06cc",
          "name:ml": "\u0d28\u0d4d\u0d2f\u0d42 \u0d21\u0d46\u0d7d\u0d39\u0d3f",
          "name:pa": "\u0a28\u0a35\u0a40\u0a02 \u0a26\u0a3f\u0a71\u0a32\u0a40",
          "name:ug": "\u064a\u06d0\u06ad\u0649 \u062f\u06d0\u06be\u0644\u0649",
          "name:ur": "\u0646\u0626\u06cc \u062f\u06c1\u0644\u06cc",
          "network": "IR",
          "operator": "NR",
          "public_transport": "station",
          "railway": "station",
          "ref": "NDLS",
          "train": "yes",
          "wheelchair": "yes",
          "wikimedia_commons": "File:New Delhi railway station from Ajmeri Gate side.jpg",
          "wikipedia": "en:New Delhi railway station",
          "wikipedia:ur": "\u0646\u0626\u06cc \u062f\u06c1\u0644\u06cc \u0631\u06cc\u0644\u0648\u06d2 \u0627\u0633\u0679\u06cc\u0634\u0646"
        }
      },
      {
        "type": "node",
        "id": 6161686836,
        "lat": 28.6346388,
        "lon": 77.2212509,
        "tags": {
          "amenity": "fuel",
          "brand": "Indian Oil",
          "brand:wikidata": "Q1289348",
          "compressed_air": "yes",
          "name": "Indian Oil"
        }
      },
      {
        "type": "node",
        "id": 6224257208,
        "lat": 28.627201,
        "lon": 77.2325397,
        "tags": {
          "amenity": "theatre",
          "theatre:type": "amphi"
        }
      },
      {
        "type": "node",
        "id": 6404118987,
        "lat": 28.6336834,
        "lon": 77.2219946,
        "tags": {
          "amenity": "charging_station",
          "capacity": "1",
          "operator": "Energy Efficiency Services Limited (EESL)"
        }
      },
      {
        "type": "node",
        "id": 6404118988,
        "lat": 28.6336147,
        "lon": 77.2218243,
        "tags": {
          "amenity": "charging_station",
          "brand": "Ather",
          "capacity": "2",
          "level": "0",
          "operator": "Energy Efficiency Services Limited (EESL)"
        }
      },
      {
        "type": "node",
        "id": 6539894850,
        "lat": 28.6392436,
        "lon": 77.2085787,
        "tags": {
          "name": "Ramakrishna Ashram Marg",
          "name:hi": "\u0930\u093e\u092e\u0915\u0943\u0937\u094d\u0923 \u0906\u0936\u094d\u0930\u092e \u092e\u093e\u0930\u094d\u0917",
          "network": "Delhi Metro",
          "network:wikidata": "Q271195",
          "note": "Contributors are requested to not edit the \"network\" and the \"operator\" tags. (2023/06/22)",
          "operator": "Delhi Metro Rail Corporation Limited",
          "operator:wikidata": "Q1029339",
          "public_transport": "station",
          "railway": "station",
          "station": "subway",
          "subway": "yes",
          "wikidata": "Q7288800",
          "wikipedia": "en:Ramakrishna Ashram Marg metro station"
        }
      },
      {
        "type": "node",
        "id": 6539894851,
        "lat": 28.6327062,
        "lon": 77.2193123,
        "tags": {
          "name": "Rajiv Chowk",
          "name:hi": "\u0930\u093e\u091c\u0940\u0935 \u091a\u094c\u0915",
          "name:kn": "\u0cb0\u0cbe\u0c9c\u0cc0\u0cb5\u0ccd \u0c9a\u0ccc\u0c95\u0ccd",
          "name:ur": "\u0631\u0627\u062c\u06cc\u0648 \u0686\u0648\u06a9",
          "network": "Delhi Metro",
          "network:wikidata": "Q271195",
          "note": "Contributors are requested to not edit the \"network\" and the \"operator\" tags. (2023/06/22)",
          "operator": "Delhi Metro Rail Corporation Limited",
          "operator:wikidata": "Q1029339",
          "public_transport": "station",
          "railway": "station",
          "ref": "RCK",
          "station": "subway",
          "subway": "yes",
          "wikidata": "Q7286183"
        }
      },
      {
        "type": "node",
        "id": 6539894852,
        "lat": 28.6327955,
        "lon": 77.2192419,
        "tags": {
          "name": "Rajiv Chowk",
          "name:hi": "\u0930\u093e\u091c\u0940\u0935 \u091a\u094c\u0915",
          "name:kn": "\u0cb0\u0cbe\u0c9c\u0cc0\u0cb5\u0ccd \u0c9a\u0ccc\u0c95\u0ccd",
          "network": "Delhi Metro",
          "note": "Contributors are requested to not edit the \"network\" and the \"operator\" tags. (2023/06/22)",
          "operator": "Delhi Metro Rail Corporation Limited",
          "public_transport": "stop_position",
          "railway": "stop",
          "ref": "RCK",
          "subway": "yes"
        }
      },
      {
        "type": "node",
        "id": 6539894853,
        "lat": 28.6327972,
        "lon": 77.2197106,
        "tags": {
          "name": "Rajiv Chowk",
          "name:hi": "\u0930\u093e\u091c\u0940\u0935 \u091a\u094c\u0915",
          "name:kn": "\u0cb0\u0cbe\u0c9c\u0cc0\u0cb5\u0ccd \u0c9a\u0ccc\u0c95\u0ccd",
          "network": "Delhi Metro",
          "note": "Contributors are requested to not edit the \"network\" and the \"operator\" tags. (2023/06/22)",
          "operator": "Delhi Metro Rail Corporation Limited",
          "public_transport": "stop_position",
          "railway": "stop",
          "ref": "RCK",
          "subway": "yes"
        }
      },
      {
        "type": "node",
        "id": 6539894855,
        "lat": 28.6297676,
        "lon": 77.2250046,
        "tags": {
          "name": "Barakhambha Road",
          "name:hi": "\u092c\u093e\u0930\u093e\u0916\u092e\u094d\u092c\u093e \u0930\u094b\u0921",
          "network": "Delhi Metro",
          "network:wikidata": "Q271195",
          "note": "Contributors are requested to not edit the \"network\" and the \"operator\" tags. (2023/06/22)",
          "operator": "Delhi Metro Rail Corporation Limited",
          "operator:wikidata": "Q1029339",
          "public_transport": "station",
          "railway": "station",
          "station": "subway",
          "subway": "yes",
          "wikidata": "Q4858265",
          "wikipedia": "en:Barakhamba Road metro station"
        }
      },
      {
        "type": "node",
        "id": 6539894856,
        "lat": 28.6256122,
        "lon": 77.2341966,
        "tags": {
          "name": "Mandi House",
          "name:hi": "\u092e\u0902\u0921\u0940 \u0939\u093e\u0909\u0938",
          "name:kn": "\u0cae\u0c82\u0ca1\u0cbf \u0cb9\u0ccc\u0cb8\u0ccd",
          "network": "Delhi Metro",
          "note": "Contributors are requested to not edit the \"network\" and the \"operator\" tags. (2023/06/22)",
          "operator": "Delhi Metro Rail Corporation Limited",
          "public_transport": "station",
          "railway": "station",
          "ref": "MDHS",
          "station": "subway",
          "subway": "yes",
          "wikidata": "Q6748047",
          "wikipedia": "en:Mandi House metro station"
        }
      },
      {
        "type": "node",
        "id": 6547772096,
        "lat": 28.64249,
        "lon": 77.2230952,
        "tags": {
          "name": "New Delhi Airport Express Terminal",
          "name:hi": "\u0928\u0908 \u0926\u093f\u0932\u094d\u0932\u0940 \u090f\u092f\u0930\u092a\u094b\u0930\u094d\u091f \u090f\u0915\u094d\u0938\u092a\u094d\u0930\u0947\u0938 \u091f\u0930\u094d\u092e\u093f\u0928\u0932",
          "network": "Delhi Metro",
          "network:wikidata": "Q271195",
          "note": "Contributors are requested to not edit the \"network\" and the \"operator\" tags. (2023/06/22)",
          "operator": "Delhi Metro Rail Corporation Limited",
          "operator:wikidata": "Q1029339",
          "public_transport": "stop_position",
          "railway": "stop",
          "ref": "NDI",
          "subway": "yes"
        }
      },
      {
        "type": "node",
        "id": 6547772108,
        "lat": 28.615878,
        "lon": 77.2123128,
        "tags": {
          "name": "Central Secretariat",
          "name:kn": "\u0cb8\u0cc6\u0c82\u0c9f\u0ccd\u0cb0\u0cb2\u0ccd \u0cb8\u0cc6\u0c95\u0ccd\u0cb0\u0cc6\u0c9f\u0cb0\u0cbf\u0cb8\u0ccd\u0c9f\u0ccd",
          "network": "Delhi Metro",
          "note": "Contributors are requested to not edit the \"network\" and the \"operator\" tags. (2023/06/22)",
          "operator": "Delhi Metro Rail Corporation Limited",
          "public_transport": "stop_position",
          "railway": "stop",
          "ref": "CTST",
          "subway": "yes"
        }
      },
      {
        "type": "node",
        "id": 6657891769,
        "lat": 28.6243192,
        "lon": 77.2344502,
        "tags": {
          "amenity": "theatre",
          "name": "Bahumukh",
          "name:hi": "\u092c\u0939\u0941\u092e\u0941\u0916",
          "old_name": "Circulation Unit"
        }
      },
      {
        "type": "node",
        "id": 6761961056,
        "lat": 28.6341092,
        "lon": 77.2202799,
        "tags": {
          "amenity": "charging_station",
          "capacity": "1"
        }
      },
      {
        "type": "node",
        "id": 6761961057,
        "lat": 28.633798,
        "lon": 77.2208339,
        "tags": {
          "amenity": "charging_station",
          "capacity": "1",
          "operator": "Energy Efficiency Services Limited (EESL)"
        }
      },
      {
        "type": "node",
        "id": 6988161557,
        "lat": 28.6342608,
        "lon": 77.2206422,
        "tags": {
          "amenity": "charging_station"
        }
      },
      {
        "type": "node",
        "id": 6988161559,
        "lat": 28.634276,
        "lon": 77.2209612,
        "tags": {
          "amenity": "charging_station"
        }
      },
      {
        "type": "node",
        "id": 7018886726,
        "lat": 28.6229664,
        "lon": 77.214031,
        "tags": {
          "name": "Patel Chowk",
          "name:hi": "\u092a\u091f\u0947\u0932 \u091a\u094c\u0915",
          "name:ur": "\u067e\u0679\u06cc\u0644 \u0686\u0648\u06a9",
          "network": "Delhi Metro",
          "network:wikidata": "Q271195",
          "note": "Contributors are requested to not edit the \"network\" and the \"operator\" tags. (2023/06/22)",
          "operator": "Delhi Metro Rail Corporation Limited",
          "operator:wikidata": "Q1029339",
          "public_transport": "station",
          "railway": "station",
          "ref": "PTCK",
          "station": "subway",
          "subway": "yes",
          "wikidata": "Q7144407",
          "wikipedia": "en:Patel Chowk metro station"
        }
      },
      {
        "type": "node",
        "id": 7018886727,
        "lat": 28.6095136,
        "lon": 77.211796,
        "tags": {
          "name": "Udyog Bhavan",
          "name:hi": "\u0909\u0926\u094d\u092f\u094b\u0917 \u092d\u0935\u0928",
          "name:ur": "\u0627\u064f\u062f\u06cc\u0648\u06af \u0628\u06be\u0648\u0646",
          "network": "Delhi Metro",
          "network:wikidata": "Q271195",
          "note": "Contributors are requested to not edit the \"network\" and the \"operator\" tags. (2023/06/22)",
          "operator": "Delhi Metro Rail Corporation Limited",
          "operator:wikidata": "Q1029339",
          "public_transport": "station",
          "railway": "station",
          "ref": "UDB",
          "station": "subway",
          "subway": "yes",
          "wikidata": "Q7877392",
          "wikipedia": "en:Udyog Bhawan metro station"
        }
      },
      {
        "type": "node",
        "id": 7040469986,
        "lat": 28.6309944,
        "lon": 77.2163377,
        "tags": {
          "addr:city": "New Delhi",
          "amenity": "cinema",
          "brand": "PVR Cinemas",
          "brand:wikidata": "Q3359908",
          "name": "PVR Rivoli Cinema",
          "short_name": "PVR"
        }
      },
      {
        "type": "node",
        "id": 7083796927,
        "lat": 28.6350123,
        "lon": 77.2197325,
        "tags": {
          "amenity": "charging_station"
        }
      },
      {
        "type": "node",
        "id": 7083916144,
        "lat": 28.6341151,
        "lon": 77.217651,
        "tags": {
          "amenity": "charging_station",
          "capacity": "1",
          "operator": "EESL"
        }
      },
      {
        "type": "node",
        "id": 7083972066,
        "lat": 28.6393711,
        "lon": 77.2239559,
        "tags": {
          "bus": "yes",
          "name": "Minto Road Terminal",
          "public_transport": "stop_position"
        }
      },
      {
        "type": "node",
        "id": 7086574353,
        "lat": 28.6394999,
        "lon": 77.2237176,
        "tags": {
          "bus": "yes",
          "name": "Minto Road Terminal",
          "public_transport": "stop_position"
        }
      },
      {
        "type": "node",
        "id": 7274125614,
        "lat": 28.6311731,
        "lon": 77.204936,
        "tags": {
          "amenity": "theatre",
          "name": "Muktadhara Auditorium"
        }
      },
      {
        "type": "node",
        "id": 7274257107,
        "lat": 28.6327684,
        "lon": 77.2228545,
        "tags": {
          "amenity": "charging_station",
          "capacity": "1"
        }
      },
      {
        "type": "node",
        "id": 7282286731,
        "lat": 28.6022446,
        "lon": 77.2291281,
        "tags": {
          "name": "Khan Market",
          "name:hi": "\u0916\u093e\u0928 \u092c\u093e\u091c\u093e\u0930",
          "name:ur": "\u062e\u0627\u0646 \u0628\u0627\u0632\u0627\u0631",
          "network": "Delhi Metro",
          "note": "Contributors are requested to not edit the \"network\" and the \"operator\" tags. (2023/06/22)",
          "operator": "Delhi Metro Rail Corporation Limited",
          "public_transport": "station",
          "railway": "station",
          "station": "subway",
          "subway": "yes"
        }
      },
      {
        "type": "node",
        "id": 7947401468,
        "lat": 28.6326616,
        "lon": 77.2358292,
        "tags": {
          "name": "Delhi",
          "network": "Bal Bhavan Toy Train",
          "operator": "Bal Bhavan",
          "public_transport": "stop_position",
          "railway": "stop",
          "station": "miniature",
          "train": "yes"
        }
      },
      {
        "type": "node",
        "id": 8018558072,
        "lat": 28.6327786,
        "lon": 77.2196985,
        "tags": {
          "name": "Rajiv Chowk",
          "name:hi": "\u0930\u093e\u091c\u0940\u0935 \u091a\u094c\u0915",
          "name:kn": "\u0cb0\u0cbe\u0c9c\u0cc0\u0cb5\u0ccd \u0c9a\u0ccc\u0c95\u0ccd",
          "name:ml": "\u0d30\u0d3e\u0d1c\u0d40\u0d35\u0d4d \u0d1a\u0d57\u0d15\u0d4d\u0d15\u0d4d",
          "name:ur": "\u0631\u0627\u062c\u06cc\u0648 \u0686\u0648\u06a9",
          "network": "Delhi Metro",
          "network:wikidata": "Q271195",
          "note": "Contributors are requested to not edit the \"network\" and the \"operator\" tags. (2023/06/22)",
          "operator": "Delhi Metro Rail Corporation Limited",
          "operator:wikidata": "Q1029339",
          "public_transport": "station",
          "railway": "station",
          "ref": "RCK",
          "station": "subway",
          "subway": "yes",
          "wikidata": "Q7286183",
          "wikipedia": "en:Rajiv Chowk metro station"
        }
      },
      {
        "type": "node",
        "id": 9237403818,
        "lat": 28.630944,
        "lon": 77.2233578,
        "tags": {
          "amenity": "charging_station"
        }
      },
      {
        "type": "node",
        "id": 9237403820,
        "lat": 28.6310563,
        "lon": 77.2230955,
        "tags": {
          "amenity": "charging_station"
        }
      },
      {
        "type": "node",
        "id": 9584236507,
        "lat": 28.6240485,
        "lon": 77.2192587,
        "tags": {
          "name": "Janpath",
          "name:en": "Janpath",
          "name:hi": "\u091c\u0928\u092a\u0925",
          "name:kn": "\u0c9c\u0ca8\u0ccd\u0caa\u0ca4\u0ccd",
          "name:ur": "\u062c\u0646 \u067e\u062a\u06be",
          "network": "Delhi Metro",
          "network:wikidata": "Q271195",
          "note": "Contributors are requested to not edit the \"network\" and the \"operator\" tags. (2023/06/22)",
          "operator": "Delhi Metro Rail Corporation Limited",
          "operator:wikidata": "Q1029339",
          "public_transport": "station",
          "railway": "station",
          "ref": "JNPH",
          "station": "subway",
          "subway": "yes",
          "wikidata": "Q16850982",
          "wikipedia": "en:Janpath metro station"
        }
      },
      {
        "type": "node",
        "id": 9584236508,
        "lat": 28.6281909,
        "lon": 77.2410437,
        "tags": {
          "addr:city": "New Delhi",
          "name": "ITO",
          "name:hi": "\u0906\u0908\u091f\u0940\u0913",
          "name:kn": "\u0c90\u0c9f\u0cbf\u0c93",
          "network": "Delhi Metro",
          "note": "Contributors are requested to not edit the \"network\" and the \"operator\" tags. (2023/06/22)",
          "operator": "Delhi Metro Rail Corporation Limited",
          "public_transport": "station",
          "railway": "station",
          "ref": "ITO",
          "station": "subway",
          "subway": "yes",
          "wikidata": "Q19580817",
          "wikipedia": "en:ITO metro station"
        }
      },
      {
        "type": "node",
        "id": 9920295123,
        "lat": 28.6255149,
        "lon": 77.2341926,
        "tags": {
          "name": "Mandi House",
          "name:hi": "\u092e\u0902\u0921\u0940 \u0939\u093e\u0909\u0938",
          "name:kn": "\u0cae\u0c82\u0ca1\u0cbf \u0cb9\u0ccc\u0cb8\u0ccd",
          "network": "Delhi Metro",
          "note": "Contributors are requested to not edit the \"network\" and the \"operator\" tags. (2023/06/22)",
          "operator": "Delhi Metro Rail Corporation Limited",
          "public_transport": "station",
          "railway": "station",
          "ref": "MDHS",
          "station": "subway",
          "subway": "yes",
          "wikidata": "Q6748047",
          "wikipedia": "en:Mandi House metro station"
        }
      },
      {
        "type": "node",
        "id": 9938725207,
        "lat": 28.6289139,
        "lon": 77.211311,
        "tags": {
          "name": "Shivaji Stadium",
          "network": "Delhi Metro",
          "network:wikidata": "Q271195",
          "note": "Contributors are requested to not edit the \"network\" and the \"operator\" tags. (2023/06/22)",
          "operator": "Delhi Metro Rail Corporation Limited",
          "operator:wikidata": "Q1029339",
          "public_transport": "stop_position",
          "railway": "stop",
          "ref": "SJSU",
          "subway": "yes"
        }
      },
      {
        "type": "node",
        "id": 10240014908,
        "lat": 28.633573,
        "lon": 77.2234733,
        "tags": {
          "amenity": "charging_station"
        }
      },
      {
        "type": "node",
        "id": 10579682141,
        "lat": 28.6343154,
        "lon": 77.221088,
        "tags": {
          "amenity": "cinema",
          "name": "Odeon Inox",
          "wheelchair": "limited"
        }
      },
      {
        "type": "node",
        "id": 10905351902,
        "lat": 28.6342282,
        "lon": 77.2195272,
        "tags": {
          "amenity": "charging_station",
          "disused:amenity": "yes"
        }
      },
      {
        "type": "node",
        "id": 10922054270,
        "lat": 28.6315233,
        "lon": 77.2199032,
        "tags": {
          "amenity": "charging_station"
        }
      },
      {
        "type": "node",
        "id": 11637354348,
        "lat": 28.6338798,
        "lon": 77.2175045,
        "tags": {
          "amenity": "charging_station"
        }
      },
      {
        "type": "node",
        "id": 11642004107,
        "lat": 28.6272979,
        "lon": 77.2319249,
        "tags": {
          "amenity": "charging_station"
        }
      },
      {
        "type": "node",
        "id": 11795617114,
        "lat": 28.6286105,
        "lon": 77.2196866,
        "tags": {
          "amenity": "charging_station",
          "brand": "Xicom",
          "capacity": "1"
        }
      },
      {
        "type": "node",
        "id": 11823656860,
        "lat": 28.6417761,
        "lon": 77.2259725,
        "tags": {
          "amenity": "fuel",
          "brand": "IGL",
          "brand:wikidata": "Q125553945",
          "construction": "yes",
          "name": "IGL"
        }
      },
      {
        "type": "node",
        "id": 11875926233,
        "lat": 28.6219707,
        "lon": 77.1948236,
        "tags": {
          "amenity": "charging_station",
          "brand": "EESL",
          "capacity": "4",
          "fee": "no",
          "level": "0"
        }
      },
      {
        "type": "node",
        "id": 11883580960,
        "lat": 28.6240292,
        "lon": 77.2345678,
        "tags": {
          "amenity": "theatre"
        }
      },
      {
        "type": "node",
        "id": 12098546110,
        "lat": 28.6316265,
        "lon": 77.222004,
        "tags": {
          "amenity": "charging_station",
          "brand": "Ather",
          "capacity": "2",
          "level": "0",
          "operator": "Energy Efficiency Services Limited (EESL)"
        }
      }
    ]
  }
}