{
  "pois_1km": {
    "version": 0.6,
    "generator": "Overpass API 0.7.62.8 e802775f",
    "osm3s": {
      "timestamp_osm_base": "2025-09-06T07:02:14Z",
      "copyright": "The data included in this document is from www.openstreetmap.org. The data is made available under ODbL."
    },
    "elements": [
      {
        "type": "node",
        "id": 939235096,
        "lat": 28.5408389,
        "lon": 77.2834999,
        "tags": {
          "alt_name": "Apollo Hospital",
          "amenity": "hospital",
          "emergency": "yes",
          "name": "Indraprastha Apollo Hospital"
        }
      },
      {
        "type": "node",
        "id": 1705406968,
        "lat": 28.5424661,
        "lon": 77.2975627,
        "tags": {
          "leisure": "playground",
          "name": "Children Playground",
          "source": "harshpuri84"
        }
      },
      {
        "type": "node",
        "id": 1837410835,
        "lat": 28.5412423,
        "lon": 77.297035,
        "tags": {
          "shop": "supermarket"
        }
      },
      {
        "type": "node",
        "id": 6243446986,
        "lat": 28.5403869,
        "lon": 77.2829628,
        "tags": {
          "addr:postcode": "1243",
          "amenity": "hospital",
          "healthcare": "hospital",
          "healthcare:speciality": "covid19",
          "name": "Apollo",
          "name:en": "Apollo hospital"
        }
      },
      {
        "type": "node",
        "id": 7544955438,
        "lat": 28.5452411,
        "lon": 77.3001922,
        "tags": {
          "addr:district": "South East Delhi",
          "addr:full": "Block D, Jasola",
          "addr:postcode": "110025",
          "addr:state": "Delhi",
          "amenity": "hospital",
          "name": "Sunrise Healthcare Centre",
          "source": "Local Knowledge"
        }
      },
      {
        "type": "node",
        "id": 7544955455,
        "lat": 28.5408332,
        "lon": 77.2958778,
        "tags": {
          "addr:district": "South East Delhi",
          "addr:full": "89, Jasola Vihar, Pocket-1",
          "addr:postcode": "110025",
          "addr:state": "Delhi",
          "amenity": "hospital",
          "name": "Kalindi Hospital",
          "source": "Local Knowledge"
        }
      },
      {
        "type": "node",
        "id": 7544955502,
        "lat": 28.543241,
        "lon": 77.300456,
        "tags": {
          "addr:district": "South East Delhi",
          "addr:full": "Dr Lal PathLabs, 40 Feet Road, Shaheen Bagh, Block D, Okhla",
          "addr:postcode": "110025",
          "addr:state": "Delhi",
          "amenity": "hospital",
          "name": "Cribs Hospital",
          "source": "Local Knowledge"
        }
      },
      {
        "type": "node",
        "id": 7544955522,
        "lat": 28.539926,
        "lon": 77.292145,
        "tags": {
          "addr:district": "South East Delhi",
          "addr:full": "FC-33/13, Institutional Area, Jasola",
          "addr:postcode": "110025",
          "addr:state": "Delhi",
          "amenity": "hospital",
          "name": "Delhi ENT Multispeciality Hospital",
          "source": "Local Knowledge"
        }
      },
      {
        "type": "node",
        "id": 8478072795,
        "lat": 28.5391557,
        "lon": 77.282953,
        "tags": {
          "addr:city": "New Delhi",
          "addr:country": "IN",
          "addr:housenumber": "UNIT - 209,",
          "addr:locality": "JASOLA",
          "addr:postcode": "110076",
          "addr:state": "Delhi",
          "addr:street": "2ND FLOOR, U.S. COMPLEX, OPP. APOLLO HOSPITAL,120, MATHURA ROAD",
          "amenity": "hospital",
          "healthcare": "hospital"
        }
      },
      {
        "type": "node",
        "id": 9295424879,
        "lat": 28.5408159,
        "lon": 77.2835195,
        "tags": {
          "addr:city": "Delhi",
          "addr:postcode": "110076",
          "addr:street": "Indraprastha Apollo Hospital, Mathura Rd, Jasola Vihar",
          "amenity": "hospital",
          "healthcare": "hospital",
          "healthcare:speciality": "orthopaedics",
          "name": "Indraprastha Apollo Hospital",
          "operator": "Novosalus",
          "operator:type": "private",
          "website": "https://www.dramitagarwal.in/"
        }
      },
      {
        "type": "node",
        "id": 10172949289,
        "lat": 28.5425781,
        "lon": 77.2941735,
        "tags": {
          "amenity": "bank",
          "brand": "HDFC Bank",
          "brand:wikidata": "Q631047",
          "name": "HDFC Bank",
          "short_name": "HDFC"
        }
      },
      {
        "type": "node",
        "id": 10172949309,
        "lat": 28.5436287,
        "lon": 77.2956314,
        "tags": {
          "amenity": "restaurant",
          "name": "restraunt"
        }
      },
      {
        "type": "node",
        "id": 12038166534,
        "lat": 28.5515911,
        "lon": 77.2954241,
        "tags": {
          "addr:city": "New Delhi",
          "addr:district": "SOUTH",
          "addr:housenumber": "M 91",
          "addr:postcode": "110025",
          "addr:street": "ABUL FAZAL ENCLAVE",
          "name": "RED BASKET STORE",
          "opening_hours": "Mo-Su 10:00-22:00",
          "operator": "SHAMS",
          "payment:cash": "yes",
          "payment:debit_cards": "yes",
          "payment:mastercard": "yes",
          "payment:upi": "yes",
          "payment:visa": "yes",
          "shop": "supermarket"
        }
      },
      {
        "type": "node",
        "id": 13061138057,
        "lat": 28.5391543,
        "lon": 77.2925052,
        "tags": {
          "amenity": "bank",
          "branch": "Periyar Centre",
          "brand": "UCO Bank",
          "name": "UCO Bank"
        }
      }
    ]
  },
  "pois_2_5km": {
    "version": 0.6,
    "generator": "Overpass API 0.7.62.8 e802775f",
    "osm3s": {
      "timestamp_osm_base": "2025-09-06T07:02:14Z",
      "copyright": "The data included in this document is from www.openstreetmap.org. The data is made available under ODbL."
    },
    "elements": [
      {
        "type": "node",
        "id": 367259160,
        "lat": 28.5465774,
        "lon": 77.3068494,
        "tags": {
          "alt_name": "Kalindi Kunj",
          "bus": "yes",
          "name": "Okhla Extension",
          "public_transport": "stop_position"
        }
      },
      {
        "type": "node",
        "id": 562622101,
        "lat": 28.5384251,
        "lon": 77.2830377,
        "tags": {
          "name": "Jasola Apollo",
          "name:hi": "\u091c\u0938\u094b\u0932\u093e \u0905\u092a\u094b\u0932\u094b",
          "network": "Delhi Metro",
          "note": "Contributors are requested to not edit the \"network\" and the \"operator\" tags. (2023/06/22)",
          "operator": "Delhi Metro Rail Corporation Limited",
          "public_transport": "stop_position",
          "railway": "stop",
          "subway": "yes"
        }
      },
      {
        "type": "node",
        "id": 562622242,
        "lat": 28.5285876,
        "lon": 77.2883155,
        "tags": {
          "name": "Sarita Vihar",
          "name:hi": "\u0938\u0930\u093f\u0924\u093e \u0935\u093f\u0939\u093e\u0930",
          "network": "Delhi Metro",
          "note": "Contributors are requested to not edit the \"network\" and the \"operator\" tags. (2023/06/22)",
          "operator": "Delhi Metro Rail Corporation Limited",
          "public_transport": "stop_position",
          "railway": "stop",
          "subway": "yes"
        }
      },
      {
        "type": "node",
        "id": 856302882,
        "lat": 28.5432816,
        "lon": 77.2756683,
        "tags": {
          "name": "Harkesh Nagar Okhla",
          "name:hi": "\u0939\u0930\u0915\u0947\u0936 \u0928\u0917\u0930",
          "network": "Delhi Metro",
          "note": "Contributors are requested to not edit the \"network\" and the \"operator\" tags. (2023/06/23)",
          "operator": "Delhi Metro Rail Corporation Limited",
          "public_transport": "stop_position",
          "ref": "OKA",
          "subway": "yes"
        }
      },
      {
        "type": "node",
        "id": 2716596291,
        "lat": 28.5377335,
        "lon": 77.2844736,
        "tags": {
          "amenity": "fuel",
          "brand": "Indian Oil",
          "brand:wikidata": "Q1289348",
          "name": "Indian Oil"
        }
      },
      {
        "type": "node",
        "id": 2832938187,
        "lat": 28.5597477,
        "lon": 77.2749004,
        "tags": {
          "name": "Sukhdev Vihar",
          "name:hi": "\u0938\u0941\u0916\u0926\u0947\u0935 \u0935\u093f\u0939\u093e\u0930",
          "name:ur": "\u0633\u06a9\u06be \u062f\u06cc\u0648 \u0648\u06c1\u0627\u0631",
          "network": "Delhi Metro",
          "note": "Contributors are requested to not edit the \"network\" and the \"operator\" tags. (2023/06/22)",
          "operator": "Delhi Metro Rail Corporation Limited",
          "public_transport": "station",
          "railway": "station",
          "ref": "IWNR",
          "station": "subway",
          "subway": "yes",
          "wikidata": "Q28172610",
          "wikipedia": "en:Sukhdev Vihar metro station"
        }
      },
      {
        "type": "node",
        "id": 2833058718,
        "lat": 28.542916,
        "lon": 77.3101107,
        "tags": {
          "name": "Kalindi Kunj",
          "name:hi": "\u0915\u093e\u0932\u093f\u0902\u0926\u0940 \u0915\u0941\u0902\u091c",
          "network": "Delhi Metro",
          "note": "Contributors are requested to not edit the \"network\" and the \"operator\" tags. (2023/06/22)",
          "operator": "Delhi Metro Rail Corporation Limited",
          "public_transport": "station",
          "railway": "station",
          "ref": "KIKJ",
          "station": "subway",
          "subway": "yes",
          "wikidata": "Q28169996",
          "wikipedia": "en:Kalindi Kunj metro station"
        }
      },
      {
        "type": "node",
        "id": 2833058720,
        "lat": 28.5613002,
        "lon": 77.2919304,
        "tags": {
          "name": "Okhla Vihar",
          "name:hi": "\u0913\u0916\u0932\u093e \u0935\u093f\u0939\u093e\u0930",
          "name:ur": "\u0627\u0648\u06a9\u06be\u0644\u0627 \u0648\u06c1\u0627\u0631",
          "network": "Delhi Metro",
          "note": "Contributors are requested to not edit the \"network\" and the \"operator\" tags. (2023/06/22)",
          "operator": "Delhi Metro Rail Corporation Limited",
          "public_transport": "station",
          "railway": "station",
          "ref": "OVA",
          "station": "subway",
          "subway": "yes",
          "wikidata": "Q28172613",
          "wikipedia": "en:Okhla Vihar metro station"
        }
      },
      {
        "type": "node",
        "id": 2833058723,
        "lat": 28.5458279,
        "lon": 77.2966578,
        "tags": {
          "name": "Jasola Vihar Shaheen Bagh",
          "name:hi": "\u091c\u0938\u094b\u0932\u093e \u0935\u093f\u0939\u093e\u0930 \u0936\u093e\u0939\u0940\u0928 \u092c\u093e\u0917",
          "network": "Delhi Metro",
          "note": "Contributors are requested to not edit the \"network\" and the \"operator\" tags. (2023/06/22)",
          "operator": "Delhi Metro Rail Corporation Limited",
          "public_transport": "station",
          "railway": "station",
          "ref": "JLA8",
          "station": "subway",
          "subway": "yes",
          "wikidata": "Q28169995",
          "wikipedia": "en:Jasola Vihar Shaheen Bagh metro station"
        }
      },
      {
        "type": "node",
        "id": 3284155408,
        "lat": 28.5630488,
        "lon": 77.2863387,
        "tags": {
          "name": "Jamia Millia Islamia",
          "name:hi": "\u091c\u093e\u092e\u093f\u092f\u093e \u092e\u093f\u0932\u093f\u092f\u093e \u0907\u0938\u094d\u0932\u093e\u092e\u093f\u092f\u093e",
          "name:ur": "\u062c\u0627\u0645\u0639 \u0645\u0644\u06cc\u06c1 \u0627\u0633\u0644\u0627\u0645\u06cc\u06c1",
          "network": "Delhi Metro",
          "note": "Contributors are requested to not edit the \"network\" and the \"operator\" tags. (2023/06/22)",
          "operator": "Delhi Metro Rail Corporation Limited",
          "public_transport": "station",
          "railway": "station",
          "ref": "JANR",
          "station": "subway",
          "subway": "yes",
          "wheelchair": "yes",
          "wikidata": "Q28169993",
          "wikipedia": "en:Jamia Millia Islamia metro station"
        }
      },
      {
        "type": "node",
        "id": 5554423624,
        "lat": 28.5293861,
        "lon": 77.2728188,
        "tags": {
          "amenity": "fuel",
          "brand": "IGL",
          "brand:wikidata": "Q125553945",
          "name": "IGL"
        }
      },
      {
        "type": "node",
        "id": 5554423817,
        "lat": 28.5292873,
        "lon": 77.2726974,
        "tags": {
          "amenity": "fuel",
          "brand": "Hindustan Petroleum",
          "brand:wikidata": "Q1619375",
          "name": "HP",
          "official_name": "Hindustan Petroleum"
        }
      },
      {
        "type": "node",
        "id": 5561733973,
        "lat": 28.5415844,
        "lon": 77.2809102,
        "tags": {
          "amenity": "fuel",
          "brand": "Hindustan Petroleum"
        }
      },
      {
        "type": "node",
        "id": 5777629785,
        "lat": 28.5432385,
        "lon": 77.2756968,
        "tags": {
          "name": "Harkesh Nagar Okhla",
          "name:hi": "\u0939\u0930\u0915\u0947\u0936 \u0928\u0917\u0930",
          "network": "Delhi Metro",
          "note": "Contributors are requested to not edit the \"network\" and the \"operator\" tags. (2023/06/23)",
          "operator": "Delhi Metro Rail Corporation Limited",
          "public_transport": "stop_position",
          "ref": "OKA",
          "subway": "yes"
        }
      },
      {
        "type": "node",
        "id": 5777629832,
        "lat": 28.5285679,
        "lon": 77.2882774,
        "tags": {
          "name": "Sarita Vihar",
          "name:hi": "\u0938\u0930\u093f\u0924\u093e \u0935\u093f\u0939\u093e\u0930",
          "network": "Delhi Metro",
          "note": "Contributors are requested to not edit the \"network\" and the \"operator\" tags. (2023/06/22)",
          "operator": "Delhi Metro Rail Corporation Limited",
          "public_transport": "stop_position",
          "railway": "stop",
          "subway": "yes"
        }
      },
      {
        "type": "node",
        "id": 5777631561,
        "lat": 28.5598162,
        "lon": 77.274952,
        "tags": {
          "name": "Sukhdev Vihar",
          "network": "Delhi Metro",
          "note": "Contributors are requested to not edit the \"network\" and the \"operator\" tags. (2023/06/22)",
          "operator": "Delhi Metro Rail Corporation Limited",
          "public_transport": "stop_position",
          "railway": "stop",
          "ref": "IWNR",
          "subway": "yes"
        }
      },
      {
        "type": "node",
        "id": 5777631562,
        "lat": 28.563067,
        "lon": 77.2863188,
        "tags": {
          "name": "Jamia Millia Islamia",
          "name:hi": "\u091c\u093e\u092e\u093f\u092f\u093e \u092e\u093f\u0932\u093f\u092f\u093e \u0907\u0938\u094d\u0932\u093e\u092e\u093f\u092f\u093e",
          "network": "Delhi Metro",
          "note": "Contributors are requested to not edit the \"network\" and the \"operator\" tags. (2023/06/22)",
          "operator": "Delhi Metro Rail Corporation Limited",
          "public_transport": "stop_position",
          "railway": "stop",
          "ref": "JANR",
          "subway": "yes"
        }
      },
      {
        "type": "node",
        "id": 5777631563,
        "lat": 28.561301,
        "lon": 77.2919531,
        "tags": {
          "name": "Okhla Vihar",
          "name:hi": "\u0913\u0916\u0932\u093e \u0935\u093f\u0939\u093e\u0930",
          "network": "Delhi Metro",
          "note": "Contributors are requested to not edit the \"network\" and the \"operator\" tags. (2023/06/22)",
          "operator": "Delhi Metro Rail Corporation Limited",
          "public_transport": "stop_position",
          "railway": "stop",
          "ref": "OVA",
          "subway": "yes"
        }
      },
      {
        "type": "node",
        "id": 5777631564,
        "lat": 28.5458386,
        "lon": 77.2966817,
        "tags": {
          "name": "Jasola Vihar Shaheen Bagh",
          "name:hi": "\u091c\u0938\u094b\u0932\u093e \u0935\u093f\u0939\u093e\u0930 \u0936\u093e\u0939\u0940\u0928 \u092c\u093e\u0917",
          "network": "Delhi Metro",
          "note": "Contributors are requested to not edit the \"network\" and the \"operator\" tags. (2023/06/22)",
          "operator": "Delhi Metro Rail Corporation Limited",
          "public_transport": "stop_position",
          "railway": "stop",
          "ref": "JLA8",
          "subway": "yes"
        }
      },
      {
        "type": "node",
        "id": 5777631565,
        "lat": 28.5429304,
        "lon": 77.3100941,
        "tags": {
          "name": "Kalindi Kunj",
          "name:hi": "\u0915\u093e\u0932\u093f\u0902\u0926\u0940 \u0915\u0941\u0902\u091c",
          "network": "Delhi Metro",
          "note": "Contributors are requested to not edit the \"network\" and the \"operator\" tags. (2023/06/22)",
          "operator": "Delhi Metro Rail Corporation Limited",
          "public_transport": "stop_position",
          "railway": "stop",
          "ref": "KIKJ",
          "subway": "yes"
        }
      },
      {
        "type": "node",
        "id": 6274317078,
        "lat": 28.5380888,
        "lon": 77.2901348,
        "tags": {
          "amenity": "fuel",
          "brand": "Indian Oil",
          "brand:wikidata": "Q1289348",
          "name": "Indian Oil"
        }
      },
      {
        "type": "node",
        "id": 6274317081,
        "lat": 28.5387125,
        "lon": 77.2916081,
        "tags": {
          "amenity": "fuel",
          "brand": "Hindustan Petroleum",
          "narrow": "Hindustan Petroleum"
        }
      },
      {
        "type": "node",
        "id": 6274736850,
        "lat": 28.5373249,
        "lon": 77.290492,
        "tags": {
          "amenity": "fuel",
          "brand": "Indian Oil",
          "brand:wikidata": "Q1289348",
          "name": "Indian Oil"
        }
      },
      {
        "type": "node",
        "id": 6475812093,
        "lat": 28.5466029,
        "lon": 77.3069314,
        "tags": {
          "alt_name": "Kalindi Kunj",
          "bus": "yes",
          "name": "Okhla Extension",
          "public_transport": "stop_position"
        }
      },
      {
        "type": "node",
        "id": 6547772116,
        "lat": 28.5597843,
        "lon": 77.2749693,
        "tags": {
          "name": "Sukhdev Vihar",
          "network": "Delhi Metro",
          "note": "Contributors are requested to not edit the \"network\" and the \"operator\" tags. (2023/06/22)",
          "operator": "Delhi Metro Rail Corporation Limited",
          "public_transport": "stop_position",
          "railway": "stop",
          "ref": "IWNR",
          "subway": "yes"
        }
      },
      {
        "type": "node",
        "id": 6547772117,
        "lat": 28.5630343,
        "lon": 77.2863588,
        "tags": {
          "name": "Jamia Millia Islamia",
          "name:hi": "\u091c\u093e\u092e\u093f\u092f\u093e \u092e\u093f\u0932\u093f\u092f\u093e \u0907\u0938\u094d\u0932\u093e\u092e\u093f\u092f\u093e",
          "network": "Delhi Metro",
          "note": "Contributors are requested to not edit the \"network\" and the \"operator\" tags. (2023/06/22)",
          "operator": "Delhi Metro Rail Corporation Limited",
          "public_transport": "stop_position",
          "railway": "stop",
          "ref": "JANR",
          "subway": "yes"
        }
      },
      {
        "type": "node",
        "id": 6547772118,
        "lat": 28.5613024,
        "lon": 77.2919014,
        "tags": {
          "name": "Okhla Vihar",
          "name:hi": "\u0913\u0916\u0932\u093e \u0935\u093f\u0939\u093e\u0930",
          "network": "Delhi Metro",
          "note": "Contributors are requested to not edit the \"network\" and the \"operator\" tags. (2023/06/22)",
          "operator": "Delhi Metro Rail Corporation Limited",
          "public_transport": "stop_position",
          "railway": "stop",
          "ref": "OVA",
          "subway": "yes"
        }
      },
      {
        "type": "node",
        "id": 6547772119,
        "lat": 28.5458187,
        "lon": 77.2966352,
        "tags": {
          "name": "Jasola Vihar Shaheen Bagh",
          "name:hi": "\u091c\u0938\u094b\u0932\u093e \u0935\u093f\u0939\u093e\u0930 \u0936\u093e\u0939\u0940\u0928 \u092c\u093e\u0917",
          "network": "Delhi Metro",
          "note": "Contributors are requested to not edit the \"network\" and the \"operator\" tags. (2023/06/22)",
          "operator": "Delhi Metro Rail Corporation Limited",
          "public_transport": "stop_position",
          "railway": "stop",
          "ref": "JLA8",
          "subway": "yes"
        }
      },
      {
        "type": "node",
        "id": 6547772120,
        "lat": 28.5428984,
        "lon": 77.3101309,
        "tags": {
          "name": "Kalindi Kunj",
          "name:hi": "\u0915\u093e\u0932\u093f\u0902\u0926\u0940 \u0915\u0941\u0902\u091c",
          "network": "Delhi Metro",
          "note": "Contributors are requested to not edit the \"network\" and the \"operator\" tags. (2023/06/22)",
          "operator": "Delhi Metro Rail Corporation Limited",
          "public_transport": "stop_position",
          "railway": "stop",
          "ref": "KIKJ",
          "subway": "yes"
        }
      },
      {
        "type": "node",
        "id": 9546632102,
        "lat": 28.5384071,
        "lon": 77.2829961,
        "tags": {
          "name": "Jasola Apollo",
          "name:hi": "\u091c\u0938\u094b\u0932\u093e \u0905\u092a\u094b\u0932\u094b",
          "network": "Delhi Metro",
          "note": "Contributors are requested to not edit the \"network\" and the \"operator\" tags. (2023/06/22)",
          "operator": "Delhi Metro Rail Corporation Limited",
          "public_transport": "stop_position",
          "railway": "stop",
          "subway": "yes"
        }
      },
      {
        "type": "node",
        "id": 9597709831,
        "lat": 28.5429338,
        "lon": 77.2750407,
        "tags": {
          "air_conditioning": "yes",
          "elevation": "1",
          "layer": "1",
          "level": "1",
          "name": "Harkesh Nagar Okhla",
          "name:hi": "\u0939\u0930\u0915\u0947\u0936 \u0928\u0917\u0930",
          "name:ur": "\u06c1\u0631\u06a9\u06cc\u0634 \u0646\u06af\u0631 \u0627\u0648\u06a9\u06be\u0644\u0627",
          "network": "Delhi Metro",
          "note": "Contributors are requested to not edit the \"network\" and the \"operator\" tags. (2023/06/22)",
          "operator": "Delhi Metro Rail Corporation Limited",
          "public_transport": "station",
          "railway": "station",
          "ref": "OKA",
          "station": "subway",
          "subway": "yes",
          "wheelchair": "yes",
          "wikidata": "Q7081967",
          "wikipedia": "en:Harkesh Nagar Okhla metro station"
        }
      },
      {
        "type": "node",
        "id": 10694515276,
        "lat": 28.5376366,
        "lon": 77.2910803,
        "tags": {
          "amenity": "fuel",
          "brand": "Bharat Petroleum",
          "name": "Bharat Petroleum"
        }
      },
      {
        "type": "node",
        "id": 12141997945,
        "lat": 28.5519463,
        "lon": 77.2728999,
        "tags": {
          "amenity": "fuel",
          "brand": "Hindustan Petroleum",
          "brand:wikidata": "Q1619375",
          "name": "HP",
          "official_name": "Hindustan Petroleum"
        }
      },
      {
        "type": "node",
        "id": 13061199765,
        "lat": 28.5378783,
        "lon": 77.2897981,
        "tags": {
          "amenity": "fuel",
          "brand": "IGL",
          "name": "IGL"
        }
      }
    ]
  }
}