{
  "pois_1km": {
    "version": 0.6,
    "generator": "Overpass API 0.7.62.8 e802775f",
    "osm3s": {
      "timestamp_osm_base": "2025-09-06T07:23:00Z",
      "copyright": "The data included in this document is from www.openstreetmap.org. The data is made available under ODbL."
    },
    "elements": [
      {
        "type": "node",
        "id": 7138493145,
        "lat": 28.6222683,
        "lon": 77.0643282,
        "tags": {
          "addr:district": "West",
          "addr:full": "A/11-12, Ram Dutt Enclave, Uttam Nagar",
          "addr:postcode": "110059",
          "addr:state": "Delhi",
          "amenity": "clinic",
          "contact:phone": "28565311",
          "description": "Dispensaries",
          "health_facility:type": "dispensary",
          "healthcare": "centre",
          "name": "DGD Ram Dutt Enclave",
          "source": "OpenGovernmentData"
        }
      },
      {
        "type": "node",
        "id": 7138493173,
        "lat": 28.6179621,
        "lon": 77.0737965,
        "tags": {
          "addr:district": "South West",
          "addr:full": "D-2/132, PANKHA ROAD, Jeevan Park",
          "addr:postcode": "110059",
          "addr:state": "Delhi",
          "amenity": "clinic",
          "contact:phone": "011-25631169",
          "description": "Dispensaries",
          "health_facility:type": "dispensary",
          "healthcare": "centre",
          "name": "DGD Jeevan Park",
          "source": "OpenGovernmentData"
        }
      },
      {
        "type": "node",
        "id": 7543715713,
        "lat": 28.6172035,
        "lon": 77.0794442,
        "tags": {
          "addr:district": "West Delhi",
          "addr:full": "C - 1/101, Pankha Road, Block C1, Janakpuri",
          "addr:postcode": "110058",
          "addr:state": "Delhi",
          "amenity": "hospital",
          "name": "Arya Hospital",
          "source": "Local Knowledge"
        }
      },
      {
        "type": "node",
        "id": 7543715738,
        "lat": 28.618749,
        "lon": 77.078224,
        "tags": {
          "addr:district": "West Delhi",
          "addr:full": "c1, Lal Sai Mandir Marg, Block C1, Janakpuri",
          "addr:postcode": "110058",
          "addr:state": "Delhi",
          "amenity": "hospital",
          "name": "Mata Chanan Devi Hospital",
          "source": "Local Knowledge",
          "wikidata": "Q30260551"
        }
      },
      {
        "type": "node",
        "id": 7543715750,
        "lat": 28.621501,
        "lon": 77.081707,
        "tags": {
          "addr:district": "West Delhi",
          "addr:full": "18, Block A3, Janakpuri",
          "addr:postcode": "110058",
          "addr:state": "Delhi",
          "amenity": "hospital",
          "name": "Sai Nursing Home",
          "source": "Local Knowledge"
        }
      },
      {
        "type": "node",
        "id": 7543715762,
        "lat": 28.620503,
        "lon": 77.080925,
        "tags": {
          "addr:district": "West Delhi",
          "addr:full": "C-1-127,Janakpuri",
          "addr:postcode": "110058",
          "addr:state": "Delhi",
          "amenity": "clinic",
          "name": "Jainak Medical and Orthopaedic Center",
          "source": "Local Knowledge"
        }
      },
      {
        "type": "node",
        "id": 7543715767,
        "lat": 28.620674,
        "lon": 77.08125,
        "tags": {
          "addr:district": "West Delhi",
          "addr:full": "C-1/130, Block C1, Janakpuri",
          "addr:postcode": "110058",
          "addr:state": "Delhi",
          "amenity": "hospital",
          "name": "Genesis Hospital",
          "source": "Local Knowledge"
        }
      },
      {
        "type": "node",
        "id": 7545203164,
        "lat": 28.6184538,
        "lon": 77.0658712,
        "tags": {
          "addr:district": "South West Delhi",
          "addr:full": "Vijay Vihar, Block E, Uttam Nagar East, Uttam Nagar",
          "addr:postcode": "110059",
          "addr:state": "Delhi",
          "amenity": "hospital",
          "name": "Bm Hospital",
          "source": "Local Knowledge"
        }
      },
      {
        "type": "node",
        "id": 7545203224,
        "lat": 28.6197885,
        "lon": 77.0684856,
        "tags": {
          "addr:district": "South West Delhi",
          "addr:full": "Mahavir Enclave, D- 293, 55, Part III, Gali Number 21",
          "addr:postcode": "110059",
          "addr:state": "Delhi",
          "amenity": "clinic",
          "name": "Public Health Centre",
          "source": "Local Knowledge"
        }
      },
      {
        "type": "node",
        "id": 7545203231,
        "lat": 28.614442,
        "lon": 77.071139,
        "tags": {
          "addr:district": "South West Delhi",
          "addr:full": "Ez a1, Adarsh Nagar, Bindapur Extn, Uttam Nagar",
          "addr:postcode": "110059",
          "addr:state": "Delhi",
          "amenity": "hospital",
          "name": "Apaar Nursing Home",
          "source": "Local Knowledge"
        }
      },
      {
        "type": "node",
        "id": 7545203254,
        "lat": 28.6186477,
        "lon": 77.0623437,
        "tags": {
          "addr:district": "South West Delhi",
          "addr:full": "Vijay Vihar, Vani Vihar, New Uttam Nagar, Bindapur",
          "addr:postcode": "110059",
          "addr:state": "Delhi",
          "amenity": "hospital",
          "name": "Chander Leela Hospital",
          "source": "Local Knowledge"
        }
      }
    ]
  },
  "pois_2_5km": {
    "version": 0.6,
    "generator": "Overpass API 0.7.62.8 e802775f",
    "osm3s": {
      "timestamp_osm_base": "2025-09-06T07:23:00Z",
      "copyright": "The data included in this document is from www.openstreetmap.org. The data is made available under ODbL."
    },
    "elements": [
      {
        "type": "node",
        "id": 249823566,
        "lat": 28.6217367,
        "lon": 77.0557191,
        "tags": {
          "name": "Uttam Nagar West",
          "network": "Delhi Metro",
          "note": "Contributors are requested to not edit the \"network\" and the \"operator\" tags. (2023/06/22)",
          "operator": "Delhi Metro Rail Corporation Limited",
          "public_transport": "stop_position",
          "railway": "stop",
          "subway": "yes"
        }
      },
      {
        "type": "node",
        "id": 347685176,
        "lat": 28.6248301,
        "lon": 77.0652972,
        "tags": {
          "name": "Uttam Nagar East",
          "network": "Delhi Metro",
          "note": "Contributors are requested to not edit the \"network\" and the \"operator\" tags. (2023/06/22)",
          "operator": "Delhi Metro Rail Corporation Limited",
          "public_transport": "stop_position",
          "railway": "stop",
          "subway": "yes"
        }
      },
      {
        "type": "node",
        "id": 347685192,
        "lat": 28.6295652,
        "lon": 77.0780939,
        "tags": {
          "name": "Janakpuri West",
          "network": "Delhi Metro",
          "note": "Contributors are requested to not edit the \"network\" and the \"operator\" tags. (2023/06/22)",
          "operator": "Delhi Metro Rail Corporation Limited",
          "public_transport": "stop_position",
          "railway": "stop",
          "ref": "JPW",
          "subway": "yes"
        }
      },
      {
        "type": "node",
        "id": 913550169,
        "lat": 28.6329889,
        "lon": 77.0867273,
        "tags": {
          "name": "Janakpuri East",
          "name:hi": "\u091c\u0928\u0915\u092a\u0941\u0930\u0940 \u092a\u0942\u0930\u094d\u0935",
          "network": "Delhi Metro",
          "note": "Contributors are requested to not edit the \"network\" and the \"operator\" tags. (2023/06/22)",
          "operator": "Delhi Metro Rail Corporation Limited",
          "public_transport": "stop_position",
          "railway": "stop",
          "subway": "yes",
          "wikidata": "Q11309886"
        }
      },
      {
        "type": "node",
        "id": 1179296138,
        "lat": 28.6390596,
        "lon": 77.0747469,
        "tags": {
          "amenity": "cinema",
          "key": "PVR, Vikaspuri"
        }
      },
      {
        "type": "node",
        "id": 1179299675,
        "lat": 28.6297371,
        "lon": 77.0819031,
        "tags": {
          "addr:street": "janakpuri",
          "amenity": "cinema",
          "name": "Satyam",
          "note": "District Center"
        }
      },
      {
        "type": "node",
        "id": 1374470970,
        "lat": 28.6226568,
        "lon": 77.0955455,
        "tags": {
          "amenity": "fuel"
        }
      },
      {
        "type": "node",
        "id": 1374470981,
        "lat": 28.6225631,
        "lon": 77.0952665,
        "tags": {
          "amenity": "fuel"
        }
      },
      {
        "type": "node",
        "id": 2178271096,
        "lat": 28.6048283,
        "lon": 77.0541707,
        "tags": {
          "amenity": "fuel"
        }
      },
      {
        "type": "node",
        "id": 2682211311,
        "lat": 28.6304459,
        "lon": 77.0683725,
        "tags": {
          "amenity": "fuel"
        }
      },
      {
        "type": "node",
        "id": 2832938324,
        "lat": 28.60185,
        "lon": 77.0823751,
        "tags": {
          "name": "Dashrath Puri",
          "name:hi": "\u0926\u0936\u0930\u0925 \u092a\u0941\u0930\u0940",
          "name:ur": "\u062f\u0634\u0631\u062a\u06be \u067e\u0648\u0631\u06cc",
          "network": "Delhi Metro",
          "note": "Contributors are requested to not edit the \"network\" and the \"operator\" tags. (2023/06/22)",
          "operator": "Delhi Metro Rail Corporation Limited",
          "public_transport": "station",
          "railway": "station",
          "station": "subway",
          "subway": "yes",
          "wikidata": "Q28169938",
          "wikipedia": "en:Dashrath Puri metro station"
        }
      },
      {
        "type": "node",
        "id": 2832938325,
        "lat": 28.6157555,
        "lon": 77.085178,
        "tags": {
          "name": "Dabri Mor - Janakpuri South",
          "name:hi": "\u0921\u093e\u092c\u0930\u0940 \u092e\u094b\u0921\u093c - \u091c\u0928\u0915\u092a\u0941\u0930\u0940 \u0938\u093e\u0909\u0925",
          "network": "Delhi Metro",
          "note": "Contributors are requested to not edit the \"network\" and the \"operator\" tags. (2023/06/22)",
          "operator": "Delhi Metro Rail Corporation Limited",
          "public_transport": "stop_position",
          "railway": "stop",
          "ref": "DBMR",
          "subway": "yes"
        }
      },
      {
        "type": "node",
        "id": 2832938329,
        "lat": 28.6289471,
        "lon": 77.0779492,
        "tags": {
          "name": "Janakpuri West",
          "name:hi": "\u091c\u0928\u0915\u092a\u0941\u0930\u0940 \u0935\u0947\u0938\u094d\u091f",
          "network": "Delhi Metro",
          "note": "Contributors are requested to not edit the \"network\" and the \"operator\" tags. (2023/06/22)",
          "operator": "Delhi Metro Rail Corporation Limited",
          "public_transport": "station",
          "railway": "station",
          "ref": "JPW",
          "station": "subway",
          "subway": "yes",
          "wheelchair": "yes",
          "wikidata": "Q6150737",
          "wikipedia": "en:Janakpuri West metro station"
        }
      },
      {
        "type": "node",
        "id": 4805164134,
        "lat": 28.6254532,
        "lon": 77.0658383,
        "tags": {
          "bus": "yes",
          "name": "Uttam Nagar Terminal",
          "public_transport": "stop_position"
        }
      },
      {
        "type": "node",
        "id": 5716106713,
        "lat": 28.6242375,
        "lon": 77.0678057,
        "tags": {
          "bus": "yes",
          "public_transport": "stop_position"
        }
      },
      {
        "type": "node",
        "id": 5737167711,
        "lat": 28.633027,
        "lon": 77.086709,
        "tags": {
          "name": "Janakpuri East",
          "name:hi": "\u091c\u0928\u0915\u092a\u0941\u0930\u0940 \u092a\u0942\u0930\u094d\u0935",
          "network": "Delhi Metro",
          "note": "Contributors are requested to not edit the \"network\" and the \"operator\" tags. (2023/06/22)",
          "operator": "Delhi Metro Rail Corporation Limited",
          "public_transport": "stop_position",
          "railway": "stop",
          "subway": "yes",
          "wikidata": "Q11309886"
        }
      },
      {
        "type": "node",
        "id": 5737167717,
        "lat": 28.6296028,
        "lon": 77.0780743,
        "tags": {
          "name": "Janakpuri West",
          "network": "Delhi Metro",
          "note": "Contributors are requested to not edit the \"network\" and the \"operator\" tags. (2023/06/22)",
          "operator": "Delhi Metro Rail Corporation Limited",
          "public_transport": "stop_position",
          "railway": "stop",
          "ref": "JPW",
          "subway": "yes"
        }
      },
      {
        "type": "node",
        "id": 5737167932,
        "lat": 28.6248679,
        "lon": 77.0652782,
        "tags": {
          "name": "Uttam Nagar East",
          "network": "Delhi Metro",
          "note": "Contributors are requested to not edit the \"network\" and the \"operator\" tags. (2023/06/22)",
          "operator": "Delhi Metro Rail Corporation Limited",
          "public_transport": "stop_position",
          "railway": "stop",
          "subway": "yes"
        }
      },
      {
        "type": "node",
        "id": 5737167941,
        "lat": 28.6217769,
        "lon": 77.0557081,
        "tags": {
          "name": "Uttam Nagar West",
          "network": "Delhi Metro",
          "note": "Contributors are requested to not edit the \"network\" and the \"operator\" tags. (2023/06/22)",
          "operator": "Delhi Metro Rail Corporation Limited",
          "public_transport": "stop_position",
          "railway": "stop",
          "subway": "yes"
        }
      },
      {
        "type": "node",
        "id": 5777631052,
        "lat": 28.6018663,
        "lon": 77.0824068,
        "tags": {
          "name": "Dashrath Puri",
          "network": "Delhi Metro",
          "note": "Contributors are requested to not edit the \"network\" and the \"operator\" tags. (2023/06/22)",
          "operator": "Delhi Metro Rail Corporation Limited",
          "public_transport": "stop_position",
          "railway": "stop",
          "ref": "DSHP",
          "subway": "yes"
        }
      },
      {
        "type": "node",
        "id": 5777631155,
        "lat": 28.6157407,
        "lon": 77.0852269,
        "tags": {
          "name": "Dabri Mor - Janakpuri South",
          "name:hi": "\u0921\u093e\u092c\u0930\u0940 \u092e\u094b\u0921\u093c - \u091c\u0928\u0915\u092a\u0941\u0930\u0940 \u0938\u093e\u0909\u0925",
          "network": "Delhi Metro",
          "note": "Contributors are requested to not edit the \"network\" and the \"operator\" tags. (2023/06/22)",
          "operator": "Delhi Metro Rail Corporation Limited",
          "public_transport": "stop_position",
          "railway": "stop",
          "ref": "DBMR",
          "subway": "yes"
        }
      },
      {
        "type": "node",
        "id": 5777631164,
        "lat": 28.6289685,
        "lon": 77.0779709,
        "tags": {
          "name": "Janakpuri West",
          "name:hi": "\u091c\u0928\u0915\u092a\u0941\u0930\u0940 \u0935\u0947\u0938\u094d\u091f",
          "network": "Delhi Metro",
          "note": "Contributors are requested to not edit the \"network\" and the \"operator\" tags. (2023/06/22)",
          "operator": "Delhi Metro Rail Corporation Limited",
          "public_transport": "stop_position",
          "railway": "stop",
          "ref": "JPW",
          "subway": "yes"
        }
      },
      {
        "type": "node",
        "id": 5819987433,
        "lat": 28.6260795,
        "lon": 77.0683224,
        "tags": {
          "bus": "yes",
          "name": "Uttam Nagar Terminal",
          "public_transport": "stop_position"
        }
      },
      {
        "type": "node",
        "id": 6541854249,
        "lat": 28.6295839,
        "lon": 77.078085,
        "tags": {
          "name": "Janakpuri West",
          "name:hi": "\u091c\u0928\u0915\u092a\u0941\u0930\u0940 \u0935\u0947\u0938\u094d\u091f",
          "network": "Delhi Metro",
          "note": "Contributors are requested to not edit the \"network\" and the \"operator\" tags. (2023/06/22)",
          "operator": "Delhi Metro Rail Corporation Limited",
          "public_transport": "station",
          "railway": "station",
          "ref": "JPW",
          "station": "subway",
          "subway": "yes",
          "wikidata": "Q6150737",
          "wikipedia": "en:Janakpuri West metro station"
        }
      },
      {
        "type": "node",
        "id": 6541854250,
        "lat": 28.6248465,
        "lon": 77.0652861,
        "tags": {
          "name": "Uttam Nagar East",
          "name:hi": "\u0909\u0924\u094d\u0924\u092e \u0928\u0917\u0930 \u092a\u0942\u0930\u094d\u0935",
          "network": "Delhi Metro",
          "note": "Contributors are requested to not edit the \"network\" and the \"operator\" tags. (2023/06/22)",
          "operator": "Delhi Metro Rail Corporation Limited",
          "public_transport": "station",
          "railway": "station",
          "station": "subway",
          "subway": "yes",
          "wikidata": "Q11288933",
          "wikipedia": "en:Uttam Nagar East metro station"
        }
      },
      {
        "type": "node",
        "id": 6541854251,
        "lat": 28.621757,
        "lon": 77.0557122,
        "tags": {
          "name": "Uttam Nagar West",
          "name:hi": "\u0909\u0924\u094d\u0924\u092e \u0928\u0917\u0930 \u092a\u0936\u094d\u091a\u093f\u092e",
          "network": "Delhi Metro",
          "note": "Contributors are requested to not edit the \"network\" and the \"operator\" tags. (2023/06/22)",
          "operator": "Delhi Metro Rail Corporation Limited",
          "public_transport": "station",
          "railway": "station",
          "station": "subway",
          "subway": "yes",
          "wikidata": "Q11288937",
          "wikipedia": "en:Uttam Nagar West metro station"
        }
      },
      {
        "type": "node",
        "id": 6548798518,
        "lat": 28.633021,
        "lon": 77.086757,
        "tags": {
          "name": "Janakpuri East",
          "name:hi": "\u091c\u0928\u0915\u092a\u0941\u0930\u0940 \u092a\u0942\u0930\u094d\u0935",
          "network": "Delhi Metro",
          "note": "Contributors are requested to not edit the \"network\" and the \"operator\" tags. (2023/06/22)",
          "operator": "Delhi Metro Rail Corporation Limited",
          "public_transport": "station",
          "railway": "station",
          "station": "subway",
          "subway": "yes",
          "wikidata": "Q11309886",
          "wikipedia": "en:Janakpuri East metro station"
        }
      },
      {
        "type": "node",
        "id": 9936590366,
        "lat": 28.61572,
        "lon": 77.0851893,
        "tags": {
          "name": "Dabri Mor - Janakpuri South",
          "name:hi": "\u0921\u093e\u092c\u0930\u0940 \u092e\u094b\u0921\u093c - \u091c\u0928\u0915\u092a\u0941\u0930\u0940 \u0938\u093e\u0909\u0925",
          "network": "Delhi Metro",
          "note": "Contributors are requested to not edit the \"network\" and the \"operator\" tags. (2023/06/22)",
          "operator": "Delhi Metro Rail Corporation Limited",
          "public_transport": "station",
          "railway": "station",
          "ref": "DBMR",
          "station": "subway",
          "subway": "yes",
          "wikidata": "Q24807633",
          "wikipedia": "en:Dabri Mor - Janakpuri South metro station"
        }
      },
      {
        "type": "node",
        "id": 9937092485,
        "lat": 28.6289502,
        "lon": 77.0779235,
        "tags": {
          "name": "Janakpuri West",
          "name:hi": "\u091c\u0928\u0915\u092a\u0941\u0930\u0940 \u0935\u0947\u0938\u094d\u091f",
          "network": "Delhi Metro",
          "note": "Contributors are requested to not edit the \"network\" and the \"operator\" tags. (2023/06/22)",
          "operator": "Delhi Metro Rail Corporation Limited",
          "public_transport": "stop_position",
          "railway": "stop",
          "ref": "JPW",
          "subway": "yes"
        }
      },
      {
        "type": "node",
        "id": 9937092486,
        "lat": 28.6018751,
        "lon": 77.0823561,
        "tags": {
          "name": "Dashrath Puri",
          "network": "Delhi Metro",
          "note": "Contributors are requested to not edit the \"network\" and the \"operator\" tags. (2023/06/22)",
          "operator": "Delhi Metro Rail Corporation Limited",
          "public_transport": "stop_position",
          "railway": "stop",
          "ref": "DSHP",
          "subway": "yes"
        }
      }
    ]
  }
}