{
  "pois_1km": {
    "version": 0.6,
    "generator": "Overpass API 0.7.62.8 e802775f",
    "osm3s": {
      "timestamp_osm_base": "2025-09-06T07:07:25Z",
      "copyright": "The data included in this document is from www.openstreetmap.org. The data is made available under ODbL."
    },
    "elements": [
      {
        "type": "node",
        "id": 355436037,
        "lat": 28.6458869,
        "lon": 77.1723786,
        "tags": {
          "amenity": "atm",
          "brand": "ICICI Bank",
          "brand:en": "ICICI Bank",
          "brand:wikidata": "Q1653258",
          "currency:INR": "yes",
          "drive_through": "no",
          "indoor": "yes",
          "name": "ICICI Bank",
          "note": "Contributors are requested to not edit the \"brand\", \"brand:en\", \"brand:wikidata\", \"operator\", \"operator:en\" and \"operator:wikidata\" tags. (2025/02/19)",
          "opening_hours": "24/7",
          "operator": "ICICI Bank",
          "operator:en": "ICICI Bank",
          "operator:wikidata": "Q1653258",
          "short_name": "ICICI"
        }
      },
      {
        "type": "node",
        "id": 355436042,
        "lat": 28.6457998,
        "lon": 77.1722681,
        "tags": {
          "amenity": "fast_food",
          "brand": "Domino's",
          "brand:ks": "\u0688\u0648\u0645\u06cc\u0646\u0648\u0632",
          "brand:pa": "\u0a21\u0a4b\u0a2e\u0a40\u0a28\u0a4b\u0a1c\u0a3c",
          "brand:ur": "\u0688\u0648\u0645\u06cc\u0646\u0648\u0632",
          "brand:wikidata": "Q839466",
          "brand:wikipedia": "en:Domino's Pizza",
          "cuisine": "pizza",
          "name": "Domino's",
          "name:ks": "\u0688\u0648\u0645\u06cc\u0646\u0648\u0632",
          "name:pa": "\u0a21\u0a4b\u0a2e\u0a40\u0a28\u0a4b\u0a1c\u0a3c",
          "name:ur": "\u0688\u0648\u0645\u06cc\u0646\u0648\u0632",
          "takeaway": "yes"
        }
      },
      {
        "type": "node",
        "id": 1669092762,
        "lat": 28.6388435,
        "lon": 77.1838163,
        "tags": {
          "amenity": "fast_food",
          "cuisine": "indian",
          "name": "Aggarwal Sweets"
        }
      },
      {
        "type": "node",
        "id": 1669092801,
        "lat": 28.6424922,
        "lon": 77.1762685,
        "tags": {
          "amenity": "fast_food",
          "brand": "McDonald's",
          "brand:pa": "\u0a2e\u0a48\u0a15\u0a21\u0a4b\u0a28\u0a32\u0a21\u2019\u0a1c\u0a3c",
          "brand:ur": "\u0645\u06a9\u0688\u0648\u0646\u0644\u0688\u0632",
          "brand:wikidata": "Q38076",
          "brand:wikipedia": "en:McDonald's",
          "brand:wikipedia:pa": "\u0a2e\u0a48\u0a15\u0a21\u0a4b\u0a28\u0a32\u0a21\u2019\u0a1c\u0a3c",
          "brand:wikipedia:ur": "\u0645\u06a9\u0688\u0648\u0646\u0644\u0688\u0632",
          "cuisine": "burger",
          "name": "McDonald's",
          "name:pa": "\u0a2e\u0a48\u0a15\u0a21\u0a4b\u0a28\u0a32\u0a21\u2019\u0a1c\u0a3c",
          "name:ur": "\u0645\u06a9\u0688\u0648\u0646\u0644\u0688\u0632",
          "takeaway": "yes"
        }
      },
      {
        "type": "node",
        "id": 2445994140,
        "lat": 28.6457808,
        "lon": 77.1727642,
        "tags": {
          "leisure": "park",
          "name": "Jogger's Park"
        }
      },
      {
        "type": "node",
        "id": 2445994438,
        "lat": 28.6453995,
        "lon": 77.173542,
        "tags": {
          "leisure": "park",
          "name": "Central Park"
        }
      },
      {
        "type": "node",
        "id": 2446003132,
        "lat": 28.6362518,
        "lon": 77.1789011,
        "tags": {
          "leisure": "park",
          "name": "R Block Park"
        }
      },
      {
        "type": "node",
        "id": 2446006349,
        "lat": 28.6371416,
        "lon": 77.1798452,
        "tags": {
          "leisure": "park",
          "name": "Haathi Park"
        }
      },
      {
        "type": "node",
        "id": 4209873991,
        "lat": 28.645305,
        "lon": 77.1785622,
        "tags": {
          "amenity": "restaurant",
          "name": "Imly"
        }
      },
      {
        "type": "node",
        "id": 4866328823,
        "lat": 28.6453864,
        "lon": 77.1839126,
        "tags": {
          "addr:housenumber": "8 A/ 37",
          "addr:street": "Pusa Road",
          "amenity": "restaurant",
          "name:ar": "\u0627\u0644\u0645\u0637\u0639\u0645 \u0627\u0644\u0639\u0631\u0627\u0642\u064a \u0627\u0644\u0631\u0627\u0642\u064a"
        }
      },
      {
        "type": "node",
        "id": 4866617321,
        "lat": 28.6433247,
        "lon": 77.1838674,
        "tags": {
          "addr:housenumber": "125",
          "addr:street": "Pusa Road",
          "amenity": "clinic",
          "operator": "\u062f. \u0645\u0627\u0644\u0648\u062a\u0631\u0627 \u0646\u064a\u0648\u062f\u0644\u0647\u064a \u0637\u0628\u064a\u0628 \u0627\u0633\u0646\u0627\u0646"
        }
      },
      {
        "type": "node",
        "id": 5810928927,
        "lat": 28.6477737,
        "lon": 77.1839471,
        "tags": {
          "amenity": "atm",
          "brand": "Union Bank of India",
          "brand:wikidata": "Q2004078",
          "name": "Union Bank of India",
          "operator": "Union Bank of India",
          "operator:wikidata": "Q2004078"
        }
      },
      {
        "type": "node",
        "id": 6225479823,
        "lat": 28.6383221,
        "lon": 77.1805949,
        "tags": {
          "amenity": "cafe",
          "brand": "Cafe Coffee Day",
          "brand:wikidata": "Q5017235",
          "cuisine": "coffee_shop",
          "name": "Cafe Coffee Day",
          "takeaway": "yes"
        }
      },
      {
        "type": "node",
        "id": 6225480444,
        "lat": 28.6451021,
        "lon": 77.1696998,
        "tags": {
          "amenity": "fast_food",
          "brand": "Domino's",
          "brand:ks": "\u0688\u0648\u0645\u06cc\u0646\u0648\u0632",
          "brand:pa": "\u0a21\u0a4b\u0a2e\u0a40\u0a28\u0a4b\u0a1c\u0a3c",
          "brand:ur": "\u0688\u0648\u0645\u06cc\u0646\u0648\u0632",
          "brand:wikidata": "Q839466",
          "brand:wikipedia": "en:Domino's Pizza",
          "cuisine": "pizza",
          "name": "Domino's",
          "name:ks": "\u0688\u0648\u0645\u06cc\u0646\u0648\u0632",
          "name:pa": "\u0a21\u0a4b\u0a2e\u0a40\u0a28\u0a4b\u0a1c\u0a3c",
          "name:ur": "\u0688\u0648\u0645\u06cc\u0646\u0648\u0632",
          "takeaway": "yes"
        }
      },
      {
        "type": "node",
        "id": 6225480471,
        "lat": 28.637461,
        "lon": 77.1814651,
        "tags": {
          "amenity": "bank",
          "branch": "DF-139 Shankar Road",
          "brand": "State Bank of India",
          "brand:short": "SBI",
          "brand:wikidata": "Q1340361",
          "name": "State Bank of India",
          "short_name": "SBI"
        }
      },
      {
        "type": "node",
        "id": 6225481236,
        "lat": 28.646576,
        "lon": 77.1671972,
        "tags": {
          "amenity": "bank",
          "branch": "Patel Nagar",
          "brand": "Federal Bank"
        }
      },
      {
        "type": "node",
        "id": 7543715718,
        "lat": 28.6376486,
        "lon": 77.1778655,
        "tags": {
          "addr:district": "West Delhi",
          "addr:full": "J-364, New Rajender Nagar, Shankar Road",
          "addr:postcode": "110060",
          "addr:state": "Delhi",
          "amenity": "clinic",
          "name": "Saaol Heart Center",
          "source": "Local Knowledge"
        }
      },
      {
        "type": "node",
        "id": 7544955473,
        "lat": 28.6458317,
        "lon": 77.1784997,
        "tags": {
          "addr:district": "Central Delhi",
          "addr:full": "Hemkunt Tower, 6, Street 1, Prasad Nagar",
          "addr:postcode": "110008",
          "addr:state": "Delhi",
          "amenity": "clinic",
          "name": "New Delhi Medical Centre",
          "source": "Local Knowledge"
        }
      },
      {
        "type": "node",
        "id": 9378736182,
        "lat": 28.6433841,
        "lon": 77.1777613,
        "tags": {
          "addr:city": "New Delhi",
          "addr:housenumber": "Unit No 167",
          "addr:postcode": "110008",
          "addr:street": "Rajendra Bhawan, Rajendra Place, New Delhi, Delhi",
          "air_conditioning": "yes",
          "amenity": "restaurant",
          "bar": "yes",
          "cuisine": "chinese;indian",
          "delivery": "yes",
          "diet:halal": "yes",
          "diet:vegan": "yes",
          "diet:vegetarian": "yes",
          "image": "https://tallistation.in",
          "name": "Talli Station Rajendra Place",
          "opening_hours": "Mo-Su 11:00-23:00",
          "opening_hours:covid19": "Mo-Su 12:00-20:00",
          "phone": "+91 9911054940",
          "takeaway": "yes",
          "website": "https://tallistation.in"
        }
      },
      {
        "type": "node",
        "id": 9542979272,
        "lat": 28.6434108,
        "lon": 77.172389,
        "tags": {
          "amenity": "bank",
          "brand": "Federal Bank",
          "brand:wikidata": "Q2044983",
          "name": "Federal Bank"
        }
      },
      {
        "type": "node",
        "id": 9542979273,
        "lat": 28.6445925,
        "lon": 77.1705075,
        "tags": {
          "amenity": "bank",
          "branch": "West Patel Nagar",
          "brand": "State Bank of India",
          "brand:wikidata": "Q1340361",
          "name": "State Bank of India",
          "short_name": "SBI"
        }
      },
      {
        "type": "node",
        "id": 9542979275,
        "lat": 28.6455023,
        "lon": 77.1690752,
        "tags": {
          "alt_name": "Kentucky Fried Chicken",
          "alt_name:en": "Kentucky Fried Chicken",
          "alt_name:hi": "\u0915\u0947\u0902\u091f\u0941\u0915\u0940 \u092b\u094d\u0930\u093e\u0907\u0921 \u091a\u093f\u0915\u0928",
          "alt_name:pa": "\u0a15\u0a48\u0a02\u0a1f\u0a41\u0a15\u0a40 \u0a2b\u0a4d\u0a30\u0a3e\u0a08\u0a21 \u0a1a\u0a3f\u0a15\u0a28",
          "alt_name:pnb": "\u06a9\u06cc\u0646\u0679\u06a9\u06cc \u0641\u0631\u0627\u0626\u06cc\u0688 \u0686\u06a9\u0646",
          "alt_name:ur": "\u06a9\u06cc\u0646\u0679\u06a9\u06cc \u0641\u0631\u0627\u0626\u06cc\u0688 \u0686\u06a9\u0646",
          "amenity": "fast_food",
          "brand": "KFC",
          "brand:en": "KFC",
          "brand:hi": "\u0915\u0947\u090f\u092b\u0938\u0940",
          "brand:pa": "\u0a15\u0a47\u0a10\u0a2b\u0a38\u0a40",
          "brand:pnb": "\u06a9\u06d2 \u0627\u06cc\u0641 \u0633\u06cc",
          "brand:ur": "\u06a9\u06d2 \u0627\u06cc\u0641 \u0633\u06cc",
          "brand:wikidata": "Q524757",
          "cuisine": "chicken",
          "name": "KFC",
          "name:en": "KFC",
          "name:hi": "\u0915\u0947\u090f\u092b\u0938\u0940",
          "name:pa": "\u0a15\u0a47\u0a10\u0a2b\u0a38\u0a40",
          "name:pnb": "\u06a9\u06d2 \u0627\u06cc\u0641 \u0633\u06cc",
          "name:ur": "\u06a9\u06d2 \u0627\u06cc\u0641 \u0633\u06cc",
          "takeaway": "yes"
        }
      },
      {
        "type": "node",
        "id": 11633754789,
        "lat": 28.6441476,
        "lon": 77.1712831,
        "tags": {
          "amenity": "bank",
          "brand": "Kotak Mahindra Bank",
          "brand:wikidata": "Q2040404",
          "level": "0",
          "name": "Kotak Mahindra Bank"
        }
      },
      {
        "type": "node",
        "id": 12211618701,
        "lat": 28.6477817,
        "lon": 77.1823209,
        "tags": {
          "leisure": "park",
          "name": "Trikona Park",
          "opening_hours": "24/7"
        }
      },
      {
        "type": "node",
        "id": 12915111699,
        "lat": 28.6486832,
        "lon": 77.1778933,
        "tags": {
          "amenity": "bank",
          "atm": "yes",
          "branch": "Kalindi College",
          "brand": "Canara Bank",
          "brand:en": "Canara Bank",
          "brand:hi": "\u0915\u0947\u0928\u0930\u093e \u092c\u0948\u0902\u0915",
          "brand:wikidata": "Q2003777",
          "level": "0",
          "name": "Canara Bank",
          "name:en": "Canara Bank",
          "name:hi": "\u0915\u0947\u0928\u0930\u093e \u092c\u0948\u0902\u0915",
          "wheelchair": "yes"
        }
      }
    ]
  },
  "pois_2_5km": {
    "version": 0.6,
    "generator": "Overpass API 0.7.62.8 e802775f",
    "osm3s": {
      "timestamp_osm_base": "2025-09-06T07:07:25Z",
      "copyright": "The data included in this document is from www.openstreetmap.org. The data is made available under ODbL."
    },
    "elements": [
      {
        "type": "node",
        "id": 268217229,
        "lat": 28.6450127,
        "lon": 77.1692817,
        "tags": {
          "name": "Patel Nagar",
          "name:hi": "\u092a\u091f\u0947\u0932 \u0928\u0917\u0930",
          "name:kn": "\u0caa\u0c9f\u0cc7\u0cb2\u0ccd \u0ca8\u0c97\u0cb0\u0ccd",
          "name:ur": "\u067e\u0679\u06cc\u0644 \u0646\u06af\u0631",
          "network": "Delhi Metro",
          "note": "Contributors are requested to not edit the \"network\" and the \"operator\" tags. (2023/06/22)",
          "operator": "Delhi Metro Rail Corporation Limited",
          "public_transport": "station",
          "railway": "station",
          "station": "subway",
          "subway": "yes",
          "wikidata": "Q7144412",
          "wikipedia": "en:Patel Nagar metro station"
        }
      },
      {
        "type": "node",
        "id": 345234440,
        "lat": 28.6424765,
        "lon": 77.1782794,
        "tags": {
          "name": "Rajendra Place",
          "name:kn": "\u0cb0\u0cbe\u0c9c\u0cc7\u0c82\u0ca6\u0ccd\u0cb0 \u0caa\u0ccd\u0caf\u0cbe\u0cb2\u0cc7\u0cb8\u0ccd",
          "network": "Delhi Metro",
          "note": "Contributors are requested to not edit the \"network\" and the \"operator\" tags. (2023/06/22)",
          "operator": "Delhi Metro Rail Corporation Limited",
          "public_transport": "stop_position",
          "railway": "stop",
          "subway": "yes"
        }
      },
      {
        "type": "node",
        "id": 345234441,
        "lat": 28.6440122,
        "lon": 77.1885235,
        "tags": {
          "name": "Karol Bagh",
          "name:hi": "\u0915\u0930\u094b\u0932 \u092c\u093e\u0917",
          "name:kn": "\u0c95\u0cb0\u0ccb\u0cb2\u0ccd \u0cad\u0cbe\u0c97\u0ccd",
          "name:ur": "\u0642\u0631\u0648\u0644 \u0628\u0627\u063a",
          "network": "Delhi Metro",
          "network:wikidata": "Q271195",
          "note": "Contributors are requested to not edit the \"network\" and the \"operator\" tags. (2023/06/22)",
          "operator": "Delhi Metro Rail Corporation Limited",
          "operator:wikidata": "Q1029339",
          "public_transport": "station",
          "railway": "station",
          "station": "subway",
          "subway": "yes",
          "wikidata": "Q6373014",
          "wikipedia": "en:Karol Bagh metro station"
        }
      },
      {
        "type": "node",
        "id": 345234443,
        "lat": 28.6442998,
        "lon": 77.1999053,
        "tags": {
          "name": "Jhandewalan",
          "name:kn": "\u0c9d\u0cbe\u0c82\u0ca1\u0cc6\u0cb5\u0cbe\u0cb2\u0ca8\u0ccd",
          "network": "Delhi Metro",
          "note": "Contributors are requested to not edit the \"network\" and the \"operator\" tags. (2023/06/22)",
          "operator": "Delhi Metro Rail Corporation Limited",
          "public_transport": "stop_position",
          "railway": "stop",
          "subway": "yes"
        }
      },
      {
        "type": "node",
        "id": 347676595,
        "lat": 28.6515829,
        "lon": 77.1582587,
        "tags": {
          "internet_access:fee": "no",
          "name": "Shadipur",
          "name:hi": "\u0936\u093e\u0926\u0940\u092a\u0941\u0930",
          "name:kn": "\u0cb7\u0cbe\u0ca6\u0cbf\u0caa\u0cc1\u0cb0\u0ccd",
          "name:ur": "\u0634\u0627\u062f\u06cc \u067e\u0648\u0631",
          "network": "Delhi Metro",
          "note": "Contributors are requested to not edit the \"network\" and the \"operator\" tags. (2023/06/22)",
          "operator": "Delhi Metro Rail Corporation Limited",
          "public_transport": "station",
          "railway": "station",
          "station": "subway",
          "subway": "yes",
          "wikidata": "Q11306954",
          "wikipedia": "en:Shadipur metro station"
        }
      },
      {
        "type": "node",
        "id": 915407469,
        "lat": 28.6627515,
        "lon": 77.1852561,
        "tags": {
          "internet_access": "no",
          "name": "Delhi Sarai Rohilla",
          "name:ur": "\u062f\u06c1\u0644\u06cc \u0633\u0631\u0627\u0626\u06d2 \u0631\u0648\u06c1\u0644\u06c1",
          "network": "Indian Railways",
          "operator": "Northern Railway",
          "public_transport": "station",
          "railway": "station",
          "ref": "DEE",
          "train": "yes",
          "wheelchair": "yes",
          "wikidata": "Q3635051",
          "wikipedia": "en:Delhi Sarai Rohilla railway station"
        }
      },
      {
        "type": "node",
        "id": 915408117,
        "lat": 28.6630897,
        "lon": 77.1855428,
        "tags": {
          "name": "Sarai Rohilla",
          "public_transport": "stop_position",
          "ref": "2",
          "train": "yes"
        }
      },
      {
        "type": "node",
        "id": 915408380,
        "lat": 28.6633457,
        "lon": 77.1856369,
        "tags": {
          "name": "Sarai Rohilla",
          "public_transport": "stop_position",
          "ref": "4",
          "train": "yes"
        }
      },
      {
        "type": "node",
        "id": 1669069398,
        "lat": 28.6397503,
        "lon": 77.1739956,
        "tags": {
          "amenity": "fuel"
        }
      },
      {
        "type": "node",
        "id": 1669092652,
        "lat": 28.6396139,
        "lon": 77.1740466,
        "tags": {
          "amenity": "fuel"
        }
      },
      {
        "type": "node",
        "id": 1669092717,
        "lat": 28.640496,
        "lon": 77.1741764,
        "tags": {
          "amenity": "bus_station",
          "bus": "yes",
          "name": "Pusa Institute",
          "name:ur": "\u067e\u0648\u0633\u0627 \u0627\u0646\u0633\u0679\u06cc\u0679\u06cc\u0648\u0679",
          "public_transport": "station"
        }
      },
      {
        "type": "node",
        "id": 5638613753,
        "lat": 28.6444395,
        "lon": 77.1987994,
        "tags": {
          "amenity": "fuel"
        }
      },
      {
        "type": "node",
        "id": 5638613754,
        "lat": 28.6450079,
        "lon": 77.1989094,
        "tags": {
          "amenity": "fuel"
        }
      },
      {
        "type": "node",
        "id": 5737167621,
        "lat": 28.6443363,
        "lon": 77.1999274,
        "tags": {
          "name": "Jhandewalan",
          "name:kn": "\u0c9d\u0cbe\u0c82\u0ca1\u0cc6\u0cb5\u0cbe\u0cb2\u0ca8\u0ccd",
          "network": "Delhi Metro",
          "note": "Contributors are requested to not edit the \"network\" and the \"operator\" tags. (2023/06/22)",
          "operator": "Delhi Metro Rail Corporation Limited",
          "public_transport": "stop_position",
          "railway": "stop",
          "subway": "yes"
        }
      },
      {
        "type": "node",
        "id": 5737167627,
        "lat": 28.6440313,
        "lon": 77.1885202,
        "tags": {
          "name": "Karol Bagh",
          "name:hi": "\u0915\u0930\u094b\u0932 \u092c\u093e\u0917",
          "name:kn": "\u0c95\u0cb0\u0ccb\u0cb2\u0ccd \u0cad\u0cbe\u0c97\u0ccd",
          "network": "Delhi Metro",
          "note": "Contributors are requested to not edit the \"network\" and the \"operator\" tags. (2023/06/22)",
          "operator": "Delhi Metro Rail Corporation Limited",
          "public_transport": "stop_position",
          "railway": "stop",
          "subway": "yes"
        }
      },
      {
        "type": "node",
        "id": 5737167628,
        "lat": 28.6425172,
        "lon": 77.1782713,
        "tags": {
          "name": "Rajendra Place",
          "name:kn": "\u0cb0\u0cbe\u0c9c\u0cc7\u0c82\u0ca6\u0ccd\u0cb0 \u0caa\u0ccd\u0caf\u0cbe\u0cb2\u0cc7\u0cb8\u0ccd",
          "network": "Delhi Metro",
          "note": "Contributors are requested to not edit the \"network\" and the \"operator\" tags. (2023/06/22)",
          "operator": "Delhi Metro Rail Corporation Limited",
          "public_transport": "stop_position",
          "railway": "stop",
          "subway": "yes"
        }
      },
      {
        "type": "node",
        "id": 5737167640,
        "lat": 28.6450294,
        "lon": 77.1692924,
        "tags": {
          "name": "Patel Nagar",
          "name:hi": "\u092a\u091f\u0947\u0932 \u0928\u0917\u0930",
          "name:kn": "\u0caa\u0c9f\u0cc7\u0cb2\u0ccd \u0ca8\u0c97\u0cb0\u0ccd",
          "network": "Delhi Metro",
          "note": "Contributors are requested to not edit the \"network\" and the \"operator\" tags. (2023/06/22)",
          "operator": "Delhi Metro Rail Corporation Limited",
          "public_transport": "stop_position",
          "railway": "stop",
          "subway": "yes"
        }
      },
      {
        "type": "node",
        "id": 5737167642,
        "lat": 28.6516006,
        "lon": 77.1582691,
        "tags": {
          "name": "Shadipur",
          "name:hi": "\u0936\u093e\u0926\u0940\u092a\u0941\u0930",
          "name:kn": "\u0cb7\u0cbe\u0ca6\u0cbf\u0caa\u0cc1\u0cb0\u0ccd",
          "name:ur": "\u0634\u0627\u062f\u06cc \u067e\u0648\u0631",
          "network": "Delhi Metro",
          "note": "Contributors are requested to not edit the \"network\" and the \"operator\" tags. (2023/06/22)",
          "operator": "Delhi Metro Rail Corporation Limited",
          "public_transport": "stop_position",
          "railway": "stop",
          "subway": "yes"
        }
      },
      {
        "type": "node",
        "id": 5758574006,
        "lat": 28.6425083,
        "lon": 77.1764239,
        "tags": {
          "amenity": "fuel",
          "brand": "Bharat Petroleum",
          "brand:wikidata": "Q854826",
          "name": "Bharat Petroleum"
        }
      },
      {
        "type": "node",
        "id": 5781445033,
        "lat": 28.6424955,
        "lon": 77.1782756,
        "tags": {
          "name": "Rajendra Place",
          "name:hi": "\u0930\u093e\u091c\u0947\u0902\u0926\u094d\u0930 \u092a\u094d\u0932\u0947\u0938",
          "name:kn": "\u0cb0\u0cbe\u0c9c\u0cc7\u0c82\u0ca6\u0ccd\u0cb0 \u0caa\u0ccd\u0caf\u0cbe\u0cb2\u0cc7\u0cb8\u0ccd",
          "network": "Delhi Metro",
          "note": "Contributors are requested to not edit the \"network\" and the \"operator\" tags. (2023/06/23)",
          "operator": "Delhi Metro Rail Corporation Limited",
          "railway": "station",
          "station": "subway",
          "wikidata": "Q7286033",
          "wikipedia": "en:Rajendra Place metro station"
        }
      },
      {
        "type": "node",
        "id": 6385598136,
        "lat": 28.6523726,
        "lon": 77.1561668,
        "tags": {
          "amenity": "fuel",
          "brand": "Indian Oil",
          "brand:wikidata": "Q1289348",
          "name": "Indian Oil"
        }
      },
      {
        "type": "node",
        "id": 6539894849,
        "lat": 28.6443188,
        "lon": 77.1999165,
        "tags": {
          "name": "Jhandewalan",
          "name:hi": "\u091d\u0902\u0921\u0947\u0935\u093e\u0932\u093e\u0928",
          "name:kn": "\u0c9d\u0cbe\u0c82\u0ca1\u0cc6\u0cb5\u0cbe\u0cb2\u0ca8\u0ccd",
          "network": "Delhi Metro",
          "network:wikidata": "Q271195",
          "note": "Contributors are requested to not edit the \"network\" and the \"operator\" tags. (2023/06/22)",
          "operator": "Delhi Metro Rail Corporation Limited",
          "operator:wikidata": "Q1029339",
          "public_transport": "station",
          "railway": "station",
          "station": "subway",
          "subway": "yes",
          "wikidata": "Q6190836",
          "wikipedia": "en:Jhandewalan metro station"
        }
      },
      {
        "type": "node",
        "id": 6547772114,
        "lat": 28.6515664,
        "lon": 77.1582426,
        "tags": {
          "name": "Shadipur",
          "name:hi": "\u0936\u093e\u0926\u0940\u092a\u0941\u0930",
          "name:kn": "\u0cb7\u0cbe\u0ca6\u0cbf\u0caa\u0cc1\u0cb0\u0ccd",
          "name:ur": "\u0634\u0627\u062f\u06cc \u067e\u0648\u0631",
          "network": "Delhi Metro",
          "note": "Contributors are requested to not edit the \"network\" and the \"operator\" tags. (2023/06/22)",
          "operator": "Delhi Metro Rail Corporation Limited",
          "public_transport": "stop_position",
          "railway": "stop",
          "subway": "yes"
        }
      },
      {
        "type": "node",
        "id": 6547772115,
        "lat": 28.6449953,
        "lon": 77.1692658,
        "tags": {
          "name": "Patel Nagar",
          "name:hi": "\u092a\u091f\u0947\u0932 \u0928\u0917\u0930",
          "name:kn": "\u0caa\u0c9f\u0cc7\u0cb2\u0ccd \u0ca8\u0c97\u0cb0\u0ccd",
          "network": "Delhi Metro",
          "note": "Contributors are requested to not edit the \"network\" and the \"operator\" tags. (2023/06/22)",
          "operator": "Delhi Metro Rail Corporation Limited",
          "public_transport": "stop_position",
          "railway": "stop",
          "subway": "yes"
        }
      },
      {
        "type": "node",
        "id": 6547772123,
        "lat": 28.6439905,
        "lon": 77.1885276,
        "tags": {
          "name": "Karol Bagh",
          "name:hi": "\u0915\u0930\u094b\u0932 \u092c\u093e\u0917",
          "name:kn": "\u0c95\u0cb0\u0ccb\u0cb2\u0ccd \u0cad\u0cbe\u0c97\u0ccd",
          "network": "Delhi Metro",
          "note": "Contributors are requested to not edit the \"network\" and the \"operator\" tags. (2023/06/22)",
          "operator": "Delhi Metro Rail Corporation Limited",
          "public_transport": "stop_position",
          "railway": "stop",
          "subway": "yes"
        }
      },
      {
        "type": "node",
        "id": 6743312153,
        "lat": 28.6442084,
        "lon": 77.1882129,
        "tags": {
          "public_transport": "stop_position",
          "share_taxi": "yes"
        }
      },
      {
        "type": "node",
        "id": 6743318629,
        "lat": 28.6528118,
        "lon": 77.192371,
        "tags": {
          "public_transport": "stop_position",
          "share_taxi": "yes"
        }
      },
      {
        "type": "node",
        "id": 6763955890,
        "lat": 28.6467672,
        "lon": 77.159575,
        "tags": {
          "amenity": "theatre",
          "level": "0"
        }
      },
      {
        "type": "node",
        "id": 7037640885,
        "lat": 28.6594215,
        "lon": 77.190059,
        "tags": {
          "amenity": "cinema",
          "name": "Liberty Cinema"
        }
      },
      {
        "type": "node",
        "id": 9730042238,
        "lat": 28.6436988,
        "lon": 77.196868,
        "tags": {
          "bus": "yes",
          "name": "Karol Bagh",
          "public_transport": "stop_position"
        }
      },
      {
        "type": "node",
        "id": 11601441778,
        "lat": 28.6531076,
        "lon": 77.1562309,
        "tags": {
          "amenity": "charging_station"
        }
      },
      {
        "type": "node",
        "id": 11601441779,
        "lat": 28.6530158,
        "lon": 77.1563495,
        "tags": {
          "amenity": "charging_station",
          "branch": "Shadipur",
          "charging_station:battery_swapping": "yes",
          "name": "Switch Station"
        }
      },
      {
        "type": "node",
        "id": 11601441781,
        "lat": 28.6531276,
        "lon": 77.1561984,
        "tags": {
          "amenity": "charging_station"
        }
      },
      {
        "type": "node",
        "id": 12186858958,
        "lat": 28.6632589,
        "lon": 77.1856042,
        "tags": {
          "name": "Sarai Rohilla",
          "public_transport": "stop_position",
          "ref": "3",
          "train": "yes"
        }
      }
    ]
  }
}