{
  "pois_1km": {
    "version": 0.6,
    "generator": "Overpass API 0.7.62.8 e802775f",
    "osm3s": {
      "timestamp_osm_base": "2025-09-06T07:04:14Z",
      "copyright": "The data included in this document is from www.openstreetmap.org. The data is made available under ODbL."
    },
    "elements": [
      {
        "type": "node",
        "id": 4692007665,
        "lat": 28.5432647,
        "lon": 77.1285737,
        "tags": {
          "amenity": "atm",
          "name": "Oriental Bank of Commerce"
        }
      },
      {
        "type": "node",
        "id": 4692007666,
        "lat": 28.5441966,
        "lon": 77.128262,
        "tags": {
          "amenity": "atm",
          "brand": "Axis Bank",
          "brand:wikidata": "Q2003549",
          "name": "Axis Bank",
          "operator": "Axis Bank",
          "operator:wikidata": "Q2003549"
        }
      },
      {
        "type": "node",
        "id": 5115687022,
        "lat": 28.54712,
        "lon": 77.1285872,
        "tags": {
          "amenity": "bank",
          "name": "ATM"
        }
      },
      {
        "type": "node",
        "id": 5257509521,
        "lat": 28.5546855,
        "lon": 77.1224691,
        "tags": {
          "amenity": "restaurant",
          "name": "Anna Maya"
        }
      },
      {
        "type": "node",
        "id": 5767395158,
        "lat": 28.5466823,
        "lon": 77.1361142,
        "tags": {
          "addr:neighbourhood": "Bana Singh Enclave",
          "addr:postcode": "110010",
          "addr:suburb": "Shankar Vihar",
          "leisure": "garden",
          "name": "Ajay Vatika"
        }
      },
      {
        "type": "node",
        "id": 5993580494,
        "lat": 28.5496346,
        "lon": 77.1293556,
        "tags": {
          "amenity": "restaurant",
          "cuisine": "indian",
          "name": "very good restaurant and no expensive",
          "name:fr": "resto excellent et pas cher",
          "opening_hours": "Mo-Su 11:00-21:00"
        }
      },
      {
        "type": "node",
        "id": 6091839588,
        "lat": 28.5529254,
        "lon": 77.1221459,
        "tags": {
          "amenity": "atm",
          "operator": "Next to Marriot. Ask security staff"
        }
      },
      {
        "type": "node",
        "id": 6091839589,
        "lat": 28.553332,
        "lon": 77.123463,
        "tags": {
          "amenity": "atm",
          "operator": "Next to Novotel. Ask security staff"
        }
      },
      {
        "type": "node",
        "id": 6091865785,
        "lat": 28.5513076,
        "lon": 77.1227004,
        "tags": {
          "amenity": "atm",
          "operator": "Inside WorldMart 2"
        }
      },
      {
        "type": "node",
        "id": 6093120974,
        "lat": 28.545136,
        "lon": 77.1277371,
        "tags": {
          "amenity": "bank",
          "branch": "Mahipalpur",
          "brand": "IDBI Bank",
          "brand:wikidata": "Q3633485",
          "name": "IDBI Bank",
          "short_name": "IDBI"
        }
      },
      {
        "type": "node",
        "id": 6093122260,
        "lat": 28.5429566,
        "lon": 77.1286516,
        "tags": {
          "amenity": "atm",
          "brand": "ICICI Bank",
          "brand:en": "ICICI Bank",
          "brand:wikidata": "Q1653258",
          "currency:INR": "yes",
          "drive_through": "no",
          "indoor": "yes",
          "note": "Contributors are requested to not edit the \"brand\", \"brand:en\", \"brand:wikidata\", \"operator\", \"operator:en\" and \"operator:wikidata\" tags. (2025/02/19)",
          "opening_hours": "24/7",
          "operator": "ICICI Bank",
          "operator:en": "ICICI Bank",
          "operator:wikidata": "Q1653258",
          "short_name": "ICICI"
        }
      },
      {
        "type": "node",
        "id": 6093122281,
        "lat": 28.5450651,
        "lon": 77.1277894,
        "tags": {
          "amenity": "atm",
          "brand": "IDBI Bank",
          "brand:wikidata": "Q3633485",
          "operator": "IDBI Bank",
          "operator:wikidata": "Q3633485",
          "short_name": "IDBI"
        }
      },
      {
        "type": "node",
        "id": 6093122421,
        "lat": 28.5440893,
        "lon": 77.1283049,
        "tags": {
          "amenity": "atm",
          "brand": "Kotak Mahindra Bank",
          "brand:wikidata": "Q2040404",
          "opening_hours": "24/7",
          "operator": "Kotak Mahindra Bank",
          "operator:wikidata": "Q2040404"
        }
      },
      {
        "type": "node",
        "id": 6309157274,
        "lat": 28.5468576,
        "lon": 77.1249166,
        "tags": {
          "amenity": "fast_food",
          "check_date": "2019-02-23",
          "name": "Prabhu",
          "shop": "pastry"
        }
      },
      {
        "type": "node",
        "id": 6309157275,
        "lat": 28.5469671,
        "lon": 77.1248898,
        "tags": {
          "amenity": "fast_food",
          "check_date": "2019-02-23",
          "name": "Jain Sweets"
        }
      },
      {
        "type": "node",
        "id": 6309157277,
        "lat": 28.5464347,
        "lon": 77.1246175,
        "tags": {
          "amenity": "pharmacy",
          "check_date": "2019-02-23",
          "name": "Gupta Brothers Druggist Private Limited"
        }
      },
      {
        "type": "node",
        "id": 6309157280,
        "lat": 28.5464606,
        "lon": 77.124875,
        "tags": {
          "amenity": "bank",
          "atm": "yes",
          "brand": "State Bank of India",
          "brand:wikidata": "Q1340361",
          "check_date": "2019-02-23",
          "name": "State Bank of India",
          "short_name": "SBI"
        }
      },
      {
        "type": "node",
        "id": 6309157281,
        "lat": 28.5464559,
        "lon": 77.1250038,
        "tags": {
          "brand": "Vishal Mega Mart",
          "brand:wikidata": "Q126895037",
          "check_date": "2019-02-23",
          "name": "Vishal Mega Mart",
          "shop": "supermarket"
        }
      },
      {
        "type": "node",
        "id": 6311067879,
        "lat": 28.5478153,
        "lon": 77.1260083,
        "tags": {
          "alcohol": "yes",
          "amenity": "restaurant",
          "check_date": "2019-02-23",
          "name": "Classic Diplomat"
        }
      },
      {
        "type": "node",
        "id": 6311069094,
        "lat": 28.5476734,
        "lon": 77.1258031,
        "tags": {
          "check_date": "2019-02-23",
          "level": "0",
          "name": "24Seven",
          "opening_hours": "24/7",
          "shop": "supermarket"
        }
      },
      {
        "type": "node",
        "id": 6311069095,
        "lat": 28.5476869,
        "lon": 77.1258178,
        "tags": {
          "amenity": "restaurant",
          "check_date": "2019-02-23",
          "name": "Metropolitan Express",
          "tourism": "hotel"
        }
      },
      {
        "type": "node",
        "id": 7138493189,
        "lat": 28.5463341,
        "lon": 77.1259322,
        "tags": {
          "addr:district": "New Delhi",
          "addr:full": "RZ-A-116, Road No. 4, Near Hotel Goodluck, Mahipalpur",
          "addr:postcode": "110076",
          "addr:state": "Delhi",
          "amenity": "clinic",
          "contact:phone": "011-26782850",
          "description": "Dispensaries",
          "health_facility:type": "dispensary",
          "healthcare": "centre",
          "name": "Rural Community Health Care Centre",
          "source": "OpenGovernmentData"
        }
      },
      {
        "type": "node",
        "id": 7138493220,
        "lat": 28.5460788,
        "lon": 77.1293232,
        "tags": {
          "addr:district": "New Delhi",
          "addr:full": "KH. No.524, Near Hanuman Mandir, Mahipalpur",
          "addr:postcode": "110037",
          "addr:state": "Delhi",
          "amenity": "clinic",
          "contact:phone": "26783169",
          "description": "Dispensaries",
          "health_facility:type": "dispensary",
          "healthcare": "centre",
          "name": "DGD Mahipalpur",
          "source": "OpenGovernmentData"
        }
      },
      {
        "type": "node",
        "id": 9765973817,
        "lat": 28.550666,
        "lon": 77.1217458,
        "tags": {
          "amenity": "cafe",
          "brand": "Starbucks",
          "brand:wikidata": "Q37158",
          "cuisine": "coffee_shop",
          "internet_access": "wlan",
          "name": "Starbucks",
          "official_name": "Starbucks Coffee",
          "takeaway": "yes"
        }
      },
      {
        "type": "node",
        "id": 9937843117,
        "lat": 28.5517564,
        "lon": 77.1225963,
        "tags": {
          "amenity": "restaurant",
          "name": "Dhaba est 1986"
        }
      },
      {
        "type": "node",
        "id": 9937845917,
        "lat": 28.551561,
        "lon": 77.1225437,
        "tags": {
          "addr:city": "New Delhi",
          "amenity": "restaurant",
          "name": "One8 commune",
          "name:en": "One8 commune",
          "owner": "Virat Kohli"
        }
      },
      {
        "type": "node",
        "id": 10223877817,
        "lat": 28.5434693,
        "lon": 77.1242076,
        "tags": {
          "addr:housenumber": "#2",
          "addr:postcode": "110037",
          "addr:street": "Mahipalpur",
          "amenity": "restaurant",
          "cuisine": "breakfast;burger;coffee_shop;indian;pizza",
          "name": "Pizza O\u2019bello",
          "phone": "+919205418659",
          "website": "https://pizzaobello.com/"
        }
      },
      {
        "type": "node",
        "id": 10706966644,
        "lat": 28.5518221,
        "lon": 77.1225864,
        "tags": {
          "amenity": "cafe",
          "brand": "Costa",
          "brand:wikidata": "Q608845",
          "cuisine": "coffee_shop",
          "name": "Costa",
          "takeaway": "yes"
        }
      },
      {
        "type": "node",
        "id": 10970131905,
        "lat": 28.5457525,
        "lon": 77.1230261,
        "tags": {
          "amenity": "restaurant",
          "name": "Satya Om Pure Veg"
        }
      },
      {
        "type": "node",
        "id": 11882034360,
        "lat": 28.5420264,
        "lon": 77.1292668,
        "tags": {
          "amenity": "atm",
          "brand": "HDFC Bank",
          "brand:en": "HDFC Bank",
          "brand:wikidata": "Q631047",
          "currency:INR": "yes",
          "drive_through": "no",
          "indoor": "yes",
          "level": "0",
          "note": "Contributors are requested to not edit the \"brand\", \"brand:en\", \"brand:wikidata\", \"operator\", \"operator:en\" and \"operator:wikidata\" tags. (2025/02/19)",
          "opening_hours": "24/7",
          "operator": "HDFC Bank",
          "operator:en": "HDFC Bank",
          "operator:wikidata": "Q631047",
          "short_name": "HDFC"
        }
      },
      {
        "type": "node",
        "id": 11882034363,
        "lat": 28.5464081,
        "lon": 77.1241563,
        "tags": {
          "amenity": "fast_food",
          "name": "Bikaner Sweets and Restaurant"
        }
      },
      {
        "type": "node",
        "id": 11907578769,
        "lat": 28.55072,
        "lon": 77.1217364,
        "tags": {
          "amenity": "restaurant",
          "name": "The Walk (food court)"
        }
      }
    ]
  },
  "pois_2_5km": {
    "version": 0.6,
    "generator": "Overpass API 0.7.62.8 e802775f",
    "osm3s": {
      "timestamp_osm_base": "2025-09-06T07:04:14Z",
      "copyright": "The data included in this document is from www.openstreetmap.org. The data is made available under ODbL."
    },
    "elements": [
      {
        "type": "node",
        "id": 410057535,
        "lat": 28.5351953,
        "lon": 77.1431664,
        "tags": {
          "amenity": "fuel"
        }
      },
      {
        "type": "node",
        "id": 554257763,
        "lat": 28.5487786,
        "lon": 77.1207949,
        "tags": {
          "name": "Delhi Aerocity",
          "name:hi": "\u0926\u093f\u0932\u094d\u0932\u0940 \u090f\u0930\u094b\u0938\u093f\u091f\u0940",
          "network": "Delhi Metro",
          "network:wikidata": "Q271195",
          "note": "Contributors are requested to not edit the \"network\" and the \"operator\" tags. (2023/06/22)",
          "operator": "Delhi Metro Rail Corporation Limited",
          "operator:wikidata": "Q1029339",
          "public_transport": "station",
          "railway": "station",
          "ref": "DACY",
          "station": "subway",
          "subway": "yes",
          "wikidata": "Q5253729",
          "wikipedia": "en:Delhi Aerocity metro station"
        }
      },
      {
        "type": "node",
        "id": 2511126268,
        "lat": 28.5403844,
        "lon": 77.116556,
        "tags": {
          "amenity": "fuel",
          "brand": "Hindustan Petroleum",
          "brand:wikidata": "Q1619375",
          "name": "HP",
          "official_name": "Hindustan Petroleum",
          "source:amenity": "survey"
        }
      },
      {
        "type": "node",
        "id": 2832938301,
        "lat": 28.5608462,
        "lon": 77.1402814,
        "tags": {
          "name": "Shankar Vihar",
          "name:hi": "\u0936\u0902\u0915\u0930 \u0935\u093f\u0939\u093e\u0930",
          "name:ur": "\u0634\u0646\u06a9\u0631 \u0648\u06c1\u0627\u0631",
          "network": "Delhi Metro",
          "note": "Contributors are requested to not edit the \"network\" and the \"operator\" tags. (2023/06/22)",
          "operator": "Delhi Metro Rail Corporation Limited",
          "public_transport": "station",
          "railway": "station",
          "ref": "SKVR",
          "station": "subway",
          "subway": "yes"
        }
      },
      {
        "type": "node",
        "id": 2833058753,
        "lat": 28.564835,
        "lon": 77.1226566,
        "tags": {
          "name": "Terminal 1 IGI Airport",
          "name:hi": "\u091f\u0930\u094d\u092e\u093f\u0928\u0932 1 \u0906\u0908\u091c\u0940\u0906\u0908 \u090f\u092f\u0930\u092a\u094b\u0930\u094d\u091f",
          "network": "Delhi Metro",
          "note": "Contributors are requested to not edit the \"network\" and the \"operator\" tags. (2023/06/22)",
          "operator": "Delhi Metro Rail Corporation Limited",
          "public_transport": "station",
          "railway": "station",
          "ref": "IGDA",
          "station": "subway",
          "subway": "yes",
          "wikidata": "Q28172567",
          "wikipedia": "en:Terminal 1-IGI Airport metro station"
        }
      },
      {
        "type": "node",
        "id": 4396969419,
        "lat": 28.5584543,
        "lon": 77.1067343,
        "tags": {
          "amenity": "fuel",
          "name": "CNG Pump"
        }
      },
      {
        "type": "node",
        "id": 4692006383,
        "lat": 28.5385446,
        "lon": 77.1326402,
        "tags": {
          "amenity": "fuel",
          "brand": "Indraprastha Gas Limited",
          "fuel:cng": "yes"
        }
      },
      {
        "type": "node",
        "id": 5604865251,
        "lat": 28.5450931,
        "lon": 77.1220987,
        "tags": {
          "amenity": "fuel",
          "brand": "Indian Oil",
          "brand:wikidata": "Q1289348",
          "fixme": "It seems to have two Gas Station tag here. A local survey required to verify/remove the tags.",
          "name": "Indian Oil"
        }
      },
      {
        "type": "node",
        "id": 5737167174,
        "lat": 28.5487597,
        "lon": 77.1208039,
        "tags": {
          "name": "Delhi Aerocity",
          "network": "Delhi Metro",
          "network:wikidata": "Q271195",
          "note": "Contributors are requested to not edit the \"network\" and the \"operator\" tags. (2023/06/22)",
          "operator": "Delhi Metro Rail Corporation Limited",
          "operator:wikidata": "Q1029339",
          "public_transport": "stop_position",
          "railway": "stop",
          "ref": "DACY",
          "subway": "yes"
        }
      },
      {
        "type": "node",
        "id": 5738752548,
        "lat": 28.5448893,
        "lon": 77.1217165,
        "tags": {
          "amenity": "fuel",
          "brand": "Hindustan Petroleum",
          "brand:wikidata": "Q1619375",
          "name": "HP",
          "official_name": "Hindustan Petroleum"
        }
      },
      {
        "type": "node",
        "id": 5753261921,
        "lat": 28.549499,
        "lon": 77.1045577,
        "tags": {
          "amenity": "bus_station",
          "bus": "yes",
          "name": "Transfer bus station",
          "public_transport": "station"
        }
      },
      {
        "type": "node",
        "id": 5777631192,
        "lat": 28.564868,
        "lon": 77.1226721,
        "tags": {
          "name": "Terminal 1 IGI Airport",
          "network": "Delhi Metro",
          "note": "Contributors are requested to not edit the \"network\" and the \"operator\" tags. (2023/06/22)",
          "operator": "Delhi Metro Rail Corporation Limited",
          "public_transport": "stop_position",
          "railway": "stop",
          "ref": "IGDA",
          "subway": "yes"
        }
      },
      {
        "type": "node",
        "id": 5777631205,
        "lat": 28.5608721,
        "lon": 77.1402639,
        "tags": {
          "name": "Shankar Vihar",
          "network": "Delhi Metro",
          "note": "Contributors are requested to not edit the \"network\" and the \"operator\" tags. (2023/06/22)",
          "operator": "Delhi Metro Rail Corporation Limited",
          "public_transport": "stop_position",
          "railway": "stop",
          "ref": "SKVR",
          "subway": "yes"
        }
      },
      {
        "type": "node",
        "id": 8932926096,
        "lat": 28.5407452,
        "lon": 77.1168164,
        "tags": {
          "amenity": "fuel",
          "brand": "Hindustan Petroleum",
          "brand:wikidata": "Q1619375",
          "name": "HP",
          "official_name": "Hindustan Petroleum"
        }
      },
      {
        "type": "node",
        "id": 9937092489,
        "lat": 28.5648599,
        "lon": 77.1226212,
        "tags": {
          "name": "Terminal 1 IGI Airport",
          "network": "Delhi Metro",
          "note": "Contributors are requested to not edit the \"network\" and the \"operator\" tags. (2023/06/22)",
          "operator": "Delhi Metro Rail Corporation Limited",
          "public_transport": "stop_position",
          "railway": "stop",
          "ref": "IGDA",
          "subway": "yes"
        }
      },
      {
        "type": "node",
        "id": 9937092490,
        "lat": 28.5608275,
        "lon": 77.140254,
        "tags": {
          "name": "Shankar Vihar",
          "network": "Delhi Metro",
          "note": "Contributors are requested to not edit the \"network\" and the \"operator\" tags. (2023/06/22)",
          "operator": "Delhi Metro Rail Corporation Limited",
          "public_transport": "stop_position",
          "railway": "stop",
          "ref": "SKVR",
          "subway": "yes"
        }
      },
      {
        "type": "node",
        "id": 9938725205,
        "lat": 28.5487998,
        "lon": 77.1208093,
        "tags": {
          "name": "Delhi Aerocity",
          "network": "Delhi Metro",
          "network:wikidata": "Q271195",
          "note": "Contributors are requested to not edit the \"network\" and the \"operator\" tags. (2023/06/22)",
          "operator": "Delhi Metro Rail Corporation Limited",
          "operator:wikidata": "Q1029339",
          "public_transport": "stop_position",
          "railway": "stop",
          "ref": "DACY",
          "subway": "yes"
        }
      }
    ]
  }
}