{
  "pois_1km": {
    "version": 0.6,
    "generator": "Overpass API 0.7.62.8 e802775f",
    "osm3s": {
      "timestamp_osm_base": "2025-09-06T07:14:41Z",
      "copyright": "The data included in this document is from www.openstreetmap.org. The data is made available under ODbL."
    },
    "elements": [
      {
        "type": "node",
        "id": 1556467803,
        "lat": 28.5995254,
        "lon": 77.226395,
        "tags": {
          "amenity": "restaurant",
          "cuisine": "thai",
          "name": "Good Earth",
          "website": "https://www.goodearth.in/"
        }
      },
      {
        "type": "node",
        "id": 4114512206,
        "lat": 28.5996402,
        "lon": 77.2262942,
        "tags": {
          "amenity": "restaurant",
          "internet_access": "wlan",
          "name": "Fat Lulu's",
          "survey:date": "2023-01-20"
        }
      },
      {
        "type": "node",
        "id": 4391608190,
        "lat": 28.5995342,
        "lon": 77.2251048,
        "tags": {
          "addr:housenumber": "50",
          "addr:street": "Khan Market",
          "amenity": "restaurant",
          "name:es": "Khan Chancha",
          "website": "http://khanchancha.in"
        }
      },
      {
        "type": "node",
        "id": 4535103790,
        "lat": 28.5997702,
        "lon": 77.2261911,
        "tags": {
          "amenity": "cafe",
          "cuisine": "mexican;italian;lebanese;american;indian",
          "name": "Out Of The Box (OTB)",
          "name:en": "OTB"
        }
      },
      {
        "type": "node",
        "id": 10570468911,
        "lat": 28.5998699,
        "lon": 77.2263436,
        "tags": {
          "amenity": "cafe",
          "contact:instagram": "https://www.instagram.com/bloomcafes/",
          "name": "Bloom Caf\u00e9 & Cakery",
          "survey:date": "2023-01-20"
        }
      },
      {
        "type": "node",
        "id": 10690508401,
        "lat": 28.6006559,
        "lon": 77.2257406,
        "tags": {
          "amenity": "fast_food",
          "name": "Laziz Kabab"
        }
      },
      {
        "type": "node",
        "id": 10732829707,
        "lat": 28.6081726,
        "lon": 77.2175333,
        "tags": {
          "amenity": "atm"
        }
      },
      {
        "type": "node",
        "id": 10778052404,
        "lat": 28.6008973,
        "lon": 77.2264443,
        "tags": {
          "amenity": "atm",
          "brand": "Central Bank of India",
          "brand:wikidata": "Q2007090",
          "name": "Central Bank of India",
          "operator": "Central Bank of India",
          "operator:wikidata": "Q2007090"
        }
      },
      {
        "type": "node",
        "id": 10982332457,
        "lat": 28.5997174,
        "lon": 77.2261777,
        "tags": {
          "addr:city": "New Delhi",
          "addr:place": "Khan Market",
          "addr:postcode": "110003",
          "addr:street": "Khan Market",
          "addr:suburb": "Rabindra Nagar",
          "addr:unit": "6",
          "amenity": "cafe",
          "branch": "Khan Market",
          "cuisine": "coffee_shop",
          "indoor_seating": "yes",
          "name": "Blue Tokai Coffee Roasters",
          "opening_hours": "07:00-23:00",
          "outdoor_seating": "no",
          "phone": "+91 98219 84555",
          "website": "https://bluetokaicoffee.com/pages/blue-tokai-coffee-roasters-khan-market",
          "wheelchair": "no"
        }
      },
      {
        "type": "node",
        "id": 10982334987,
        "lat": 28.5997717,
        "lon": 77.2261395,
        "tags": {
          "amenity": "cafe",
          "name": "The Big Chill"
        }
      },
      {
        "type": "node",
        "id": 12712686012,
        "lat": 28.600109,
        "lon": 77.2268124,
        "tags": {
          "amenity": "restaurant",
          "name": "Gola Sizzlers"
        }
      },
      {
        "type": "node",
        "id": 12875503326,
        "lat": 28.5998608,
        "lon": 77.2263453,
        "tags": {
          "amenity": "restaurant",
          "level": "1",
          "name": "Cicchetti Italiano"
        }
      },
      {
        "type": "node",
        "id": 12875503327,
        "lat": 28.6000106,
        "lon": 77.2262255,
        "tags": {
          "amenity": "restaurant",
          "level": "1",
          "name": "The Grammar Room"
        }
      }
    ]
  },
  "pois_2_5km": {
    "version": 0.6,
    "generator": "Overpass API 0.7.62.8 e802775f",
    "osm3s": {
      "timestamp_osm_base": "2025-09-06T07:14:41Z",
      "copyright": "The data included in this document is from www.openstreetmap.org. The data is made available under ODbL."
    },
    "elements": [
      {
        "type": "node",
        "id": 554257797,
        "lat": 28.5973548,
        "lon": 77.2111269,
        "tags": {
          "name": "Lok Kalyan Marg",
          "name:hi": "\u0932\u094b\u0915 \u0915\u0932\u094d\u092f\u093e\u0923 \u092e\u093e\u0930\u094d\u0917",
          "name:kn": "\u0cb2\u0ccb\u0c95\u0ccd \u0c95\u0cb2\u0ccd\u0caf\u0cbe\u0ca3\u0ccd",
          "network": "Delhi Metro",
          "note": "Contributors are requested to not edit the \"network\" and the \"operator\" tags. (2023/06/22)",
          "old_name": "Race Course",
          "operator": "Delhi Metro Rail Corporation Limited",
          "public_transport": "stop_position",
          "railway": "stop",
          "ref": "LKM",
          "subway": "yes"
        }
      },
      {
        "type": "node",
        "id": 554257800,
        "lat": 28.6095117,
        "lon": 77.2118249,
        "tags": {
          "name": "Udyog Bhavan",
          "network": "Delhi Metro",
          "note": "Contributors are requested to not edit the \"network\" and the \"operator\" tags. (2023/06/22)",
          "operator": "Delhi Metro Rail Corporation Limited",
          "public_transport": "stop_position",
          "railway": "stop",
          "ref": "UDB",
          "subway": "yes"
        }
      },
      {
        "type": "node",
        "id": 554257805,
        "lat": 28.5865942,
        "lon": 77.2125637,
        "tags": {
          "name": "Jor Bagh",
          "name:kn": "\u0c9c\u0ccb\u0cb0\u0ccd \u0cad\u0cbe\u0c97\u0ccd",
          "network": "Delhi Metro",
          "note": "Contributors are requested to not edit the \"network\" and the \"operator\" tags. (2023/06/22)",
          "operator": "Delhi Metro Rail Corporation Limited",
          "public_transport": "stop_position",
          "railway": "stop",
          "ref": "JB",
          "subway": "yes"
        }
      },
      {
        "type": "node",
        "id": 554257818,
        "lat": 28.6229537,
        "lon": 77.2140587,
        "tags": {
          "name": "Patel Chowk",
          "network": "Delhi Metro",
          "note": "Contributors are requested to not edit the \"network\" and the \"operator\" tags. (2023/06/22)",
          "operator": "Delhi Metro Rail Corporation Limited",
          "public_transport": "stop_position",
          "railway": "stop",
          "ref": "PTCK",
          "subway": "yes"
        }
      },
      {
        "type": "node",
        "id": 562620239,
        "lat": 28.5882486,
        "lon": 77.2338082,
        "tags": {
          "name": "Jawaharlal Nehru Stadium",
          "name:hi": "\u091c\u0935\u093e\u0939\u0930 \u0932\u093e\u0932 \u0928\u0947\u0939\u0930\u0942 \u0938\u094d\u091f\u0947\u0921\u093f\u092f\u092e",
          "network": "Delhi Metro",
          "note": "Contributors are requested to not edit the \"network\" and the \"operator\" tags. (2023/06/23)",
          "operator": "Delhi Metro Rail Corporation Limited",
          "public_transport": "stop_position",
          "subway": "yes"
        }
      },
      {
        "type": "node",
        "id": 927873481,
        "lat": 28.6022643,
        "lon": 77.2291415,
        "tags": {
          "name": "Khan Market",
          "name:en": "Khan Market",
          "name:hi": "\u0916\u093e\u0928 \u092c\u093e\u091c\u093e\u0930",
          "name:ur": "\u062e\u0627\u0646 \u0628\u0627\u0632\u0627\u0631",
          "network": "Delhi Metro",
          "note": "Contributors are requested to not edit the \"network\" and the \"operator\" tags. (2023/06/22)",
          "operator": "Delhi Metro Rail Corporation Limited",
          "public_transport": "stop_position",
          "railway": "stop",
          "subway": "yes"
        }
      },
      {
        "type": "node",
        "id": 1665772897,
        "lat": 28.6158726,
        "lon": 77.2123897,
        "tags": {
          "name": "Central Secretariat",
          "name:hi": "\u0915\u0947\u0902\u0926\u094d\u0930\u0940\u092f \u0938\u091a\u093f\u0935\u093e\u0932\u092f",
          "name:kn": "\u0cb8\u0cc6\u0c82\u0c9f\u0ccd\u0cb0\u0cb2\u0ccd \u0cb8\u0cc6\u0c95\u0ccd\u0cb0\u0cc6\u0c9f\u0cb0\u0cbf\u0cb8\u0ccd\u0c9f\u0ccd",
          "network": "Delhi Metro",
          "note": "Contributors are requested to not edit the \"network\" and the \"operator\" tags. (2023/06/22)",
          "operator": "Delhi Metro Rail Corporation Limited",
          "public_transport": "stop_position",
          "railway": "stop",
          "ref": "CTST",
          "subway": "yes",
          "wikidata": "Q5061812"
        }
      },
      {
        "type": "node",
        "id": 1665799172,
        "lat": 28.5796637,
        "lon": 77.2134862,
        "tags": {
          "amenity": "bus_station",
          "bus": "yes",
          "name": "Safdarjung Terminal",
          "name:ur": "\u0635\u0641\u062f\u0631 \u062c\u0646\u06af \u0679\u0631\u0645\u06cc\u0646\u0644",
          "public_transport": "station"
        }
      },
      {
        "type": "node",
        "id": 1988513582,
        "lat": 28.5797537,
        "lon": 77.2168728,
        "tags": {
          "internet_access": "no",
          "name": "Lodhi Colony",
          "name:ur": "\u0644\u0648\u062f\u06be\u06cc \u06a9\u0627\u0644\u0646\u06cc",
          "network": "IR",
          "operator": "NR",
          "public_transport": "station",
          "railway": "station",
          "ref": "LDCY",
          "train": "yes",
          "wikidata": "Q12451780"
        }
      },
      {
        "type": "node",
        "id": 1988513584,
        "lat": 28.5796053,
        "lon": 77.2167905,
        "tags": {
          "name": "Lodhi Colony",
          "public_transport": "stop_position",
          "railway": "stop",
          "train": "yes"
        }
      },
      {
        "type": "node",
        "id": 2416151585,
        "lat": 28.5924259,
        "lon": 77.2375948,
        "tags": {
          "amenity": "fuel",
          "brand": "Bharat Petroleum",
          "brand:wikidata": "Q854826",
          "compressed_air": "yes",
          "name": "Bharat Petroleum"
        }
      },
      {
        "type": "node",
        "id": 4692007714,
        "lat": 28.6045138,
        "lon": 77.2245624,
        "tags": {
          "amenity": "fuel",
          "brand": "Bharat Petroleum",
          "brand:wikidata": "Q854826",
          "name": "Jiwan Service Station",
          "opening_hours": "24/7"
        }
      },
      {
        "type": "node",
        "id": 4700705789,
        "lat": 28.6086972,
        "lon": 77.2302094,
        "tags": {
          "amenity": "bus_station",
          "bus": "yes",
          "name": "Bikaner Bus Depot",
          "name:hi": "Bikaner Bus Depot",
          "public_transport": "station"
        }
      },
      {
        "type": "node",
        "id": 5137961081,
        "lat": 28.5983604,
        "lon": 77.1912443,
        "tags": {
          "bus": "yes",
          "public_transport": "stop_position"
        }
      },
      {
        "type": "node",
        "id": 5137961083,
        "lat": 28.5984268,
        "lon": 77.1911759,
        "tags": {
          "bus": "yes",
          "public_transport": "stop_position"
        }
      },
      {
        "type": "node",
        "id": 5137961085,
        "lat": 28.6008681,
        "lon": 77.1925354,
        "tags": {
          "bus": "yes",
          "public_transport": "stop_position"
        }
      },
      {
        "type": "node",
        "id": 5137961087,
        "lat": 28.6008163,
        "lon": 77.1924158,
        "tags": {
          "bus": "yes",
          "public_transport": "stop_position"
        }
      },
      {
        "type": "node",
        "id": 5426405563,
        "lat": 28.5913816,
        "lon": 77.2120833,
        "tags": {
          "amenity": "fuel",
          "brand": "Hindustan Petroleum",
          "brand:wikidata": "Q1619375",
          "name": "HP",
          "official_name": "Hindustan Petroleum"
        }
      },
      {
        "type": "node",
        "id": 5426405944,
        "lat": 28.5869597,
        "lon": 77.2121034,
        "tags": {
          "amenity": "fuel",
          "brand": "Indian Oil",
          "brand:wikidata": "Q1289348",
          "compressed_air": "yes",
          "name": "Indian Oil",
          "opening_hours": "Mo-Su 06:00-23:00",
          "toilets": "yes"
        }
      },
      {
        "type": "node",
        "id": 5453646586,
        "lat": 28.6158794,
        "lon": 77.2122822,
        "tags": {
          "name": "Central Secretariat",
          "name:hi": "\u0938\u0947\u0902\u091f\u094d\u0930\u0932 \u0938\u0947\u0915\u094d\u0930\u0947\u091f\u0947\u0930\u093f\u090f\u091f",
          "name:kn": "\u0cb8\u0cc6\u0c82\u0c9f\u0ccd\u0cb0\u0cb2\u0ccd \u0cb8\u0cc6\u0c95\u0ccd\u0cb0\u0cc6\u0c9f\u0cb0\u0cbf\u0cb8\u0ccd\u0c9f\u0ccd",
          "network": "Delhi Metro",
          "network:wikidata": "Q271195",
          "note": "Contributors are requested to not edit the \"network\" and the \"operator\" tags. (2023/06/22)",
          "operator": "Delhi Metro Rail Corporation Limited",
          "operator:wikidata": "Q1029339",
          "public_transport": "station",
          "railway": "station",
          "ref": "CTST",
          "station": "subway",
          "subway": "yes",
          "train": "yes",
          "wikidata": "Q5061812",
          "wikipedia": "en:Central Secretariat metro station"
        }
      },
      {
        "type": "node",
        "id": 5483954444,
        "lat": 28.6173486,
        "lon": 77.2038762,
        "tags": {
          "bus": "yes",
          "name": "Kendriya Terminal",
          "public_transport": "stop_position"
        }
      },
      {
        "type": "node",
        "id": 5561975423,
        "lat": 28.617422,
        "lon": 77.2038794,
        "tags": {
          "bus": "yes",
          "name": "Kendriya Terminal",
          "public_transport": "stop_position"
        }
      },
      {
        "type": "node",
        "id": 5777602002,
        "lat": 28.6229815,
        "lon": 77.2140067,
        "tags": {
          "name": "Patel Chowk",
          "network": "Delhi Metro",
          "note": "Contributors are requested to not edit the \"network\" and the \"operator\" tags. (2023/06/22)",
          "operator": "Delhi Metro Rail Corporation Limited",
          "public_transport": "stop_position",
          "railway": "stop",
          "ref": "PTCK",
          "subway": "yes"
        }
      },
      {
        "type": "node",
        "id": 5777602007,
        "lat": 28.615882,
        "lon": 77.212252,
        "tags": {
          "name": "Central Secretariat",
          "name:kn": "\u0cb8\u0cc6\u0c82\u0c9f\u0ccd\u0cb0\u0cb2\u0ccd \u0cb8\u0cc6\u0c95\u0ccd\u0cb0\u0cc6\u0c9f\u0cb0\u0cbf\u0cb8\u0ccd\u0c9f\u0ccd",
          "network": "Delhi Metro",
          "note": "Contributors are requested to not edit the \"network\" and the \"operator\" tags. (2023/06/22)",
          "operator": "Delhi Metro Rail Corporation Limited",
          "public_transport": "stop_position",
          "railway": "stop",
          "ref": "CTST",
          "subway": "yes"
        }
      },
      {
        "type": "node",
        "id": 5777602008,
        "lat": 28.6095152,
        "lon": 77.2117641,
        "tags": {
          "name": "Udyog Bhavan",
          "network": "Delhi Metro",
          "note": "Contributors are requested to not edit the \"network\" and the \"operator\" tags. (2023/06/22)",
          "operator": "Delhi Metro Rail Corporation Limited",
          "public_transport": "stop_position",
          "railway": "stop",
          "ref": "UDB",
          "subway": "yes"
        }
      },
      {
        "type": "node",
        "id": 5777602010,
        "lat": 28.5973456,
        "lon": 77.2110668,
        "tags": {
          "name": "Lok Kalyan Marg",
          "name:hi": "\u0932\u094b\u0915 \u0915\u0932\u094d\u092f\u093e\u0923 \u092e\u093e\u0930\u094d\u0917",
          "name:kn": "\u0cb2\u0ccb\u0c95\u0ccd \u0c95\u0cb2\u0ccd\u0caf\u0cbe\u0ca3\u0ccd",
          "network": "Delhi Metro",
          "note": "Contributors are requested to not edit the \"network\" and the \"operator\" tags. (2023/06/22)",
          "old_name": "Race Course",
          "operator": "Delhi Metro Rail Corporation Limited",
          "public_transport": "stop_position",
          "railway": "stop",
          "ref": "LKM",
          "subway": "yes"
        }
      },
      {
        "type": "node",
        "id": 5777602013,
        "lat": 28.5865988,
        "lon": 77.212503,
        "tags": {
          "name": "Jor Bagh",
          "name:kn": "\u0c9c\u0ccb\u0cb0\u0ccd \u0cad\u0cbe\u0c97\u0ccd",
          "network": "Delhi Metro",
          "note": "Contributors are requested to not edit the \"network\" and the \"operator\" tags. (2023/06/22)",
          "operator": "Delhi Metro Rail Corporation Limited",
          "public_transport": "stop_position",
          "railway": "stop",
          "ref": "JB",
          "subway": "yes"
        }
      },
      {
        "type": "node",
        "id": 5777629158,
        "lat": 28.5882285,
        "lon": 77.2337552,
        "tags": {
          "name": "Jawaharlal Nehru Stadium",
          "name:hi": "\u091c\u0935\u093e\u0939\u0930 \u0932\u093e\u0932 \u0928\u0947\u0939\u0930\u0942 \u0938\u094d\u091f\u0947\u0921\u093f\u092f\u092e",
          "network": "Delhi Metro",
          "note": "Contributors are requested to not edit the \"network\" and the \"operator\" tags. (2023/06/23)",
          "operator": "Delhi Metro Rail Corporation Limited",
          "public_transport": "stop_position",
          "railway": "stop",
          "subway": "yes"
        }
      },
      {
        "type": "node",
        "id": 5777629164,
        "lat": 28.6022239,
        "lon": 77.2291083,
        "tags": {
          "name": "Khan Market",
          "name:en": "Khan Market",
          "name:hi": "\u0916\u093e\u0928 \u092c\u093e\u091c\u093e\u0930",
          "name:ur": "\u062e\u0627\u0646 \u0628\u0627\u0632\u0627\u0631",
          "network": "Delhi Metro",
          "note": "Contributors are requested to not edit the \"network\" and the \"operator\" tags. (2023/06/22)",
          "operator": "Delhi Metro Rail Corporation Limited",
          "public_transport": "stop_position",
          "railway": "stop",
          "subway": "yes"
        }
      },
      {
        "type": "node",
        "id": 5777629169,
        "lat": 28.6158758,
        "lon": 77.2123449,
        "tags": {
          "name": "Central Secretariat",
          "name:hi": "\u0915\u0947\u0902\u0926\u094d\u0930\u0940\u092f \u0938\u091a\u093f\u0935\u093e\u0932\u092f",
          "name:kn": "\u0cb8\u0cc6\u0c82\u0c9f\u0ccd\u0cb0\u0cb2\u0ccd \u0cb8\u0cc6\u0c95\u0ccd\u0cb0\u0cc6\u0c9f\u0cb0\u0cbf\u0cb8\u0ccd\u0c9f\u0ccd",
          "network": "Delhi Metro",
          "note": "Contributors are requested to not edit the \"network\" and the \"operator\" tags. (2023/06/22)",
          "operator": "Delhi Metro Rail Corporation Limited",
          "public_transport": "stop_position",
          "railway": "stop",
          "ref": "CTST",
          "subway": "yes",
          "wikidata": "Q5061812"
        }
      },
      {
        "type": "node",
        "id": 6287897762,
        "lat": 28.579649,
        "lon": 77.2167953,
        "tags": {
          "name": "Lodhi Colony",
          "public_transport": "stop_position",
          "railway": "stop",
          "train": "yes"
        }
      },
      {
        "type": "node",
        "id": 6336918971,
        "lat": 28.5795432,
        "lon": 77.2141916,
        "tags": {
          "bus": "yes",
          "name": "Safdarjung Terminal",
          "public_transport": "stop_position"
        }
      },
      {
        "type": "node",
        "id": 6547772108,
        "lat": 28.615878,
        "lon": 77.2123128,
        "tags": {
          "name": "Central Secretariat",
          "name:kn": "\u0cb8\u0cc6\u0c82\u0c9f\u0ccd\u0cb0\u0cb2\u0ccd \u0cb8\u0cc6\u0c95\u0ccd\u0cb0\u0cc6\u0c9f\u0cb0\u0cbf\u0cb8\u0ccd\u0c9f\u0ccd",
          "network": "Delhi Metro",
          "note": "Contributors are requested to not edit the \"network\" and the \"operator\" tags. (2023/06/22)",
          "operator": "Delhi Metro Rail Corporation Limited",
          "public_transport": "stop_position",
          "railway": "stop",
          "ref": "CTST",
          "subway": "yes"
        }
      },
      {
        "type": "node",
        "id": 6918479540,
        "lat": 28.5854347,
        "lon": 77.2203893,
        "tags": {
          "amenity": "charging_station"
        }
      },
      {
        "type": "node",
        "id": 6918479558,
        "lat": 28.587056,
        "lon": 77.2120476,
        "tags": {
          "amenity": "charging_station"
        }
      },
      {
        "type": "node",
        "id": 6961442948,
        "lat": 28.5908405,
        "lon": 77.1960832,
        "tags": {
          "amenity": "fuel",
          "brand": "Hindustan Petroleum",
          "brand:wikidata": "Q1619375",
          "name": "Angra HP Centre",
          "official_name": "Hindustan Petroleum"
        }
      },
      {
        "type": "node",
        "id": 7018886726,
        "lat": 28.6229664,
        "lon": 77.214031,
        "tags": {
          "name": "Patel Chowk",
          "name:hi": "\u092a\u091f\u0947\u0932 \u091a\u094c\u0915",
          "name:ur": "\u067e\u0679\u06cc\u0644 \u0686\u0648\u06a9",
          "network": "Delhi Metro",
          "network:wikidata": "Q271195",
          "note": "Contributors are requested to not edit the \"network\" and the \"operator\" tags. (2023/06/22)",
          "operator": "Delhi Metro Rail Corporation Limited",
          "operator:wikidata": "Q1029339",
          "public_transport": "station",
          "railway": "station",
          "ref": "PTCK",
          "station": "subway",
          "subway": "yes",
          "wikidata": "Q7144407",
          "wikipedia": "en:Patel Chowk metro station"
        }
      },
      {
        "type": "node",
        "id": 7018886727,
        "lat": 28.6095136,
        "lon": 77.211796,
        "tags": {
          "name": "Udyog Bhavan",
          "name:hi": "\u0909\u0926\u094d\u092f\u094b\u0917 \u092d\u0935\u0928",
          "name:ur": "\u0627\u064f\u062f\u06cc\u0648\u06af \u0628\u06be\u0648\u0646",
          "network": "Delhi Metro",
          "network:wikidata": "Q271195",
          "note": "Contributors are requested to not edit the \"network\" and the \"operator\" tags. (2023/06/22)",
          "operator": "Delhi Metro Rail Corporation Limited",
          "operator:wikidata": "Q1029339",
          "public_transport": "station",
          "railway": "station",
          "ref": "UDB",
          "station": "subway",
          "subway": "yes",
          "wikidata": "Q7877392",
          "wikipedia": "en:Udyog Bhawan metro station"
        }
      },
      {
        "type": "node",
        "id": 7018886728,
        "lat": 28.5973513,
        "lon": 77.2110967,
        "tags": {
          "name": "Lok Kalyan Marg",
          "name:hi": "\u0932\u094b\u0915 \u0915\u0932\u094d\u092f\u093e\u0923 \u092e\u093e\u0930\u094d\u0917",
          "name:kn": "\u0cb2\u0ccb\u0c95\u0ccd \u0c95\u0cb2\u0ccd\u0caf\u0cbe\u0ca3\u0ccd",
          "network": "Delhi Metro",
          "note": "Contributors are requested to not edit the \"network\" and the \"operator\" tags. (2023/06/22)",
          "old_name": "Race Course",
          "operator": "Delhi Metro Rail Corporation Limited",
          "public_transport": "station",
          "railway": "station",
          "station": "subway",
          "subway": "yes",
          "wikidata": "Q7278893",
          "wikipedia": "en:Lok Kalyan Marg metro station"
        }
      },
      {
        "type": "node",
        "id": 7018886729,
        "lat": 28.5865094,
        "lon": 77.2125273,
        "tags": {
          "name": "Jor Bagh",
          "name:hi": "\u091c\u094b\u0930 \u092c\u093e\u0917",
          "name:kn": "\u0c9c\u0ccb\u0cb0\u0ccd \u0cad\u0cbe\u0c97\u0ccd",
          "name:ur": "\u062c\u0648\u0631 \u0628\u0627\u063a",
          "network": "Delhi Metro",
          "network:wikidata": "Q271195",
          "note": "Contributors are requested to not edit the \"network\" and the \"operator\" tags. (2023/06/22)",
          "operator": "Delhi Metro Rail Corporation Limited",
          "operator:wikidata": "Q1029339",
          "public_transport": "station",
          "railway": "station",
          "ref": "JB",
          "station": "subway",
          "subway": "yes",
          "wikidata": "Q6276226",
          "wikipedia": "en:Jor Bagh metro station"
        }
      },
      {
        "type": "node",
        "id": 7282286731,
        "lat": 28.6022446,
        "lon": 77.2291281,
        "tags": {
          "name": "Khan Market",
          "name:hi": "\u0916\u093e\u0928 \u092c\u093e\u091c\u093e\u0930",
          "name:ur": "\u062e\u0627\u0646 \u0628\u0627\u0632\u0627\u0631",
          "network": "Delhi Metro",
          "note": "Contributors are requested to not edit the \"network\" and the \"operator\" tags. (2023/06/22)",
          "operator": "Delhi Metro Rail Corporation Limited",
          "public_transport": "station",
          "railway": "station",
          "station": "subway",
          "subway": "yes"
        }
      },
      {
        "type": "node",
        "id": 8124057196,
        "lat": 28.5996071,
        "lon": 77.1958058,
        "tags": {
          "addr:postcode": "110021",
          "addr:street": "Niti Marg",
          "amenity": "fuel",
          "brand": "Hindustan Petroleum",
          "brand:wikidata": "Q1619375",
          "brand:wikipedia": "en:Hindustan Petroleum",
          "fuel:diesel": "yes",
          "fuel:petrol": "yes",
          "name": "HP COCO Fuel Station",
          "official_name": "Hindustan Petroleum",
          "operator": "HPCL",
          "self_service": "no"
        }
      },
      {
        "type": "node",
        "id": 9584236506,
        "lat": 28.5882347,
        "lon": 77.2337833,
        "tags": {
          "name": "Jawaharlal Nehru Stadium",
          "name:hi": "\u091c\u0935\u093e\u0939\u0930 \u0932\u093e\u0932 \u0928\u0947\u0939\u0930\u0942 \u0938\u094d\u091f\u0947\u0921\u093f\u092f\u092e",
          "network": "Delhi Metro",
          "network:wikidata": "Q271195",
          "note": "Contributors are requested to not edit the \"network\" and the \"operator\" tags. (2023/06/22)",
          "operator": "Delhi Metro Rail Corporation Limited",
          "operator:wikidata": "Q1029339",
          "public_transport": "station",
          "railway": "station",
          "station": "subway",
          "subway": "yes"
        }
      },
      {
        "type": "node",
        "id": 9684753376,
        "lat": 28.6040475,
        "lon": 77.1977963,
        "tags": {
          "amenity": "charging_station"
        }
      },
      {
        "type": "node",
        "id": 9684753377,
        "lat": 28.6040394,
        "lon": 77.1977808,
        "tags": {
          "amenity": "charging_station"
        }
      },
      {
        "type": "node",
        "id": 9684753378,
        "lat": 28.6040316,
        "lon": 77.1977661,
        "tags": {
          "amenity": "charging_station"
        }
      },
      {
        "type": "node",
        "id": 10241768254,
        "lat": 28.5903206,
        "lon": 77.2201483,
        "tags": {
          "amenity": "charging_station"
        }
      },
      {
        "type": "node",
        "id": 10241775591,
        "lat": 28.5902808,
        "lon": 77.2197587,
        "tags": {
          "amenity": "charging_station"
        }
      },
      {
        "type": "node",
        "id": 10241805232,
        "lat": 28.5903207,
        "lon": 77.2201225,
        "tags": {
          "amenity": "charging_station"
        }
      },
      {
        "type": "node",
        "id": 10241808063,
        "lat": 28.5903054,
        "lon": 77.2199561,
        "tags": {
          "amenity": "charging_station"
        }
      },
      {
        "type": "node",
        "id": 10564130631,
        "lat": 28.6003513,
        "lon": 77.2267809,
        "tags": {
          "amenity": "charging_station"
        }
      },
      {
        "type": "node",
        "id": 10576228241,
        "lat": 28.596925,
        "lon": 77.2229085,
        "tags": {
          "access": "yes",
          "amenity": "charging_station",
          "covered": "yes"
        }
      },
      {
        "type": "node",
        "id": 11132023351,
        "lat": 28.5844378,
        "lon": 77.2205342,
        "tags": {
          "amenity": "charging_station"
        }
      },
      {
        "type": "node",
        "id": 11278156847,
        "lat": 28.5890626,
        "lon": 77.2252522,
        "tags": {
          "amenity": "theatre",
          "level": "0;1",
          "name": "Stein Auditorium"
        }
      },
      {
        "type": "node",
        "id": 11278174379,
        "lat": 28.5890358,
        "lon": 77.2252913,
        "tags": {
          "alt_name": "The Theatre",
          "amenity": "theatre",
          "level": "-1",
          "name": "Amaltas"
        }
      },
      {
        "type": "node",
        "id": 11406900271,
        "lat": 28.6019401,
        "lon": 77.2372754,
        "tags": {
          "amenity": "charging_station",
          "brand": "Tata Power",
          "capacity": "1",
          "socket:type2": "1"
        }
      },
      {
        "type": "node",
        "id": 12672890507,
        "lat": 28.5904687,
        "lon": 77.2331036,
        "tags": {
          "amenity": "charging_station",
          "charging_station:battery_swapping": "yes",
          "level": "0"
        }
      },
      {
        "type": "node",
        "id": 12901933482,
        "lat": 28.5875463,
        "lon": 77.226213,
        "tags": {
          "amenity": "charging_station"
        }
      },
      {
        "type": "node",
        "id": 12901933483,
        "lat": 28.58752,
        "lon": 77.226218,
        "tags": {
          "amenity": "charging_station"
        }
      }
    ]
  }
}