{
  "pois_1km": {
    "version": 0.6,
    "generator": "Overpass API 0.7.62.8 e802775f",
    "osm3s": {
      "timestamp_osm_base": "2025-09-06T07:02:14Z",
      "copyright": "The data included in this document is from www.openstreetmap.org. The data is made available under ODbL."
    },
    "elements": [
      {
        "type": "node",
        "id": 928563678,
        "lat": 28.6345525,
        "lon": 77.2176037,
        "tags": {
          "amenity": "atm",
          "brand": "HDFC Bank",
          "brand:en": "HDFC Bank",
          "brand:wikidata": "Q631047",
          "currency:INR": "yes",
          "drive_through": "no",
          "indoor": "yes",
          "level": "0",
          "name": "HDFC Bank",
          "note": "Contributors are requested to not edit the \"brand\", \"brand:en\", \"brand:wikidata\", \"operator\", \"operator:en\" and \"operator:wikidata\" tags. (2025/02/19)",
          "opening_hours": "24/7",
          "operator": "HDFC Bank",
          "operator:en": "HDFC Bank",
          "operator:wikidata": "Q631047",
          "short_name": "HDFC"
        }
      },
      {
        "type": "node",
        "id": 1241932078,
        "lat": 28.6333595,
        "lon": 77.2083619,
        "tags": {
          "amenity": "restaurant",
          "ele": "235.41",
          "name": "Bangla Foods",
          "source:ele": "gpx"
        }
      },
      {
        "type": "node",
        "id": 2327524028,
        "lat": 28.6323764,
        "lon": 77.2172154,
        "tags": {
          "addr:city": "New Delhi",
          "amenity": "restaurant",
          "cuisine": "asian;chinese;thai",
          "name": "Berco's"
        }
      },
      {
        "type": "node",
        "id": 2327524039,
        "lat": 28.6331146,
        "lon": 77.2179776,
        "tags": {
          "addr:housename": "A",
          "alt_name": "Kentucky Fried Chicken",
          "alt_name:en": "Kentucky Fried Chicken",
          "alt_name:hi": "\u0915\u0947\u0902\u091f\u0941\u0915\u0940 \u092b\u094d\u0930\u093e\u0907\u0921 \u091a\u093f\u0915\u0928",
          "alt_name:pa": "\u0a15\u0a48\u0a02\u0a1f\u0a41\u0a15\u0a40 \u0a2b\u0a4d\u0a30\u0a3e\u0a08\u0a21 \u0a1a\u0a3f\u0a15\u0a28",
          "alt_name:pnb": "\u06a9\u06cc\u0646\u0679\u06a9\u06cc \u0641\u0631\u0627\u0626\u06cc\u0688 \u0686\u06a9\u0646",
          "alt_name:ur": "\u06a9\u06cc\u0646\u0679\u06a9\u06cc \u0641\u0631\u0627\u0626\u06cc\u0688 \u0686\u06a9\u0646",
          "amenity": "fast_food",
          "brand": "KFC",
          "brand:en": "KFC",
          "brand:hi": "\u0915\u0947\u090f\u092b\u0938\u0940",
          "brand:pa": "\u0a15\u0a47\u0a10\u0a2b\u0a38\u0a40",
          "brand:pnb": "\u06a9\u06d2 \u0627\u06cc\u0641 \u0633\u06cc",
          "brand:ur": "\u06a9\u06d2 \u0627\u06cc\u0641 \u0633\u06cc",
          "brand:wikidata": "Q524757",
          "brand:wikipedia": "en:KFC",
          "brand:wikipedia:pa": "\u0a15\u0a47\u0a10\u0a2b\u0a38\u0a40",
          "brand:wikipedia:ur": "\u06a9\u06cc\u0646\u0679\u06a9\u06cc \u0641\u0631\u0627\u0626\u06cc\u0688 \u0686\u06a9\u0646",
          "cuisine": "chicken",
          "diet:vegan": "yes",
          "diet:vegetarian": "yes",
          "name": "KFC",
          "name:en": "KFC",
          "name:hi": "\u0915\u0947\u090f\u092b\u0938\u0940",
          "name:pa": "\u0a15\u0a47\u0a10\u0a2b\u0a38\u0a40",
          "name:pnb": "\u06a9\u06d2 \u0627\u06cc\u0641 \u0633\u06cc",
          "name:ur": "\u06a9\u06d2 \u0627\u06cc\u0641 \u0633\u06cc",
          "opening_hours": "Mo-Su 11:00-23:00",
          "takeaway": "yes"
        }
      },
      {
        "type": "node",
        "id": 2410180163,
        "lat": 28.6312577,
        "lon": 77.2153721,
        "tags": {
          "addr:city": "New Delhi",
          "name": "Delhi Emporium",
          "shop": "department_store"
        }
      },
      {
        "type": "node",
        "id": 2410180166,
        "lat": 28.6321974,
        "lon": 77.2177075,
        "tags": {
          "amenity": "cafe",
          "brand": "Starbucks",
          "brand:pa": "\u0a38\u0a1f\u0a3e\u0a30\u0a2c\u0a15\u0a38",
          "brand:ur": "\u0627\u0633\u0679\u0627\u0631\u0628\u06a9\u0633",
          "brand:wikidata": "Q37158",
          "brand:wikipedia": "en:Starbucks",
          "cuisine": "coffee_shop",
          "name": "Starbucks",
          "name:pa": "\u0a38\u0a1f\u0a3e\u0a30\u0a2c\u0a15\u0a38",
          "name:ur": "\u0627\u0633\u0679\u0627\u0631\u0628\u06a9\u0633",
          "official_name": "Starbucks Coffee",
          "official_name:pa": "\u0a38\u0a1f\u0a3e\u0a30\u0a2c\u0a15\u0a38 \u0a15\u0a4c\u0a2b\u0a40",
          "official_name:ur": "\u0627\u0633\u0679\u0627\u0631\u0628\u06a9\u0633 \u06a9\u0627\u0641\u06cc",
          "takeaway": "yes"
        }
      },
      {
        "type": "node",
        "id": 2591114289,
        "lat": 28.6306895,
        "lon": 77.2160507,
        "tags": {
          "addr:city": "New Delhi",
          "addr:housename": "Mohan Singh Place",
          "addr:postcode": "110001",
          "addr:street": "Baba Kharak Singh Marg",
          "addr:suburb": "Connaught Place",
          "amenity": "restaurant",
          "brand": "Indian Coffee House",
          "brand:wikidata": "Q3595301",
          "check_date": "2024-12-23",
          "contact:phone": "+91-11-2334-2994",
          "cuisine": "coffee_shop;indian",
          "diet:vegetarian": "yes",
          "level": "2",
          "name": "Indian Coffee House",
          "opening_hours": "08:30-21:00",
          "operator": "Indian Coffee Workers' Cooperative Society Limited",
          "outdoor_seating": "yes",
          "reservation": "no",
          "service:electricity": "ask",
          "start_date": "1957",
          "website": "http://indiancoffeehouse.com/",
          "wheelchair": "yes"
        }
      },
      {
        "type": "node",
        "id": 3242109751,
        "lat": 28.6318506,
        "lon": 77.2163093,
        "tags": {
          "addr:full": "P-5/90, Connaught Circus, New Delhi - 110001",
          "addr:housenumber": "P-5/90",
          "amenity": "cafe",
          "contact:phone": "+91-11-2336-3074",
          "indoor_seating": "yes",
          "level": "0",
          "name": "Madras Coffee House",
          "outdoor_seating": "no",
          "start_date": "1935"
        }
      },
      {
        "type": "node",
        "id": 4122535796,
        "lat": 28.6316863,
        "lon": 77.2166292,
        "tags": {
          "amenity": "atm"
        }
      },
      {
        "type": "node",
        "id": 4122549692,
        "lat": 28.6311221,
        "lon": 77.2164451,
        "tags": {
          "amenity": "atm",
          "brand": "Kotak Mahindra Bank",
          "brand:wikidata": "Q2040404",
          "name": "Kotak Mahindra Bank",
          "opening_hours": "24/7",
          "operator": "Kotak Mahindra Bank",
          "operator:wikidata": "Q2040404"
        }
      },
      {
        "type": "node",
        "id": 4122549693,
        "lat": 28.6294722,
        "lon": 77.2129442,
        "tags": {
          "amenity": "bank",
          "branch": "Capital Point",
          "brand": "Ratnakar Bank Limited",
          "brand:short": "RNL Bank"
        }
      },
      {
        "type": "node",
        "id": 4122549695,
        "lat": 28.6334535,
        "lon": 77.207037,
        "tags": {
          "amenity": "atm",
          "cash_in": "no",
          "check_date": "2025-06-08",
          "name": "IndusInd Bank"
        }
      },
      {
        "type": "node",
        "id": 4122549792,
        "lat": 28.6321307,
        "lon": 77.2163119,
        "tags": {
          "amenity": "bank"
        }
      },
      {
        "type": "node",
        "id": 4122564390,
        "lat": 28.6322738,
        "lon": 77.2162739,
        "tags": {
          "addr:city": "New Delhi",
          "amenity": "fast_food",
          "brand": "McDonald's",
          "brand:pa": "\u0a2e\u0a48\u0a15\u0a21\u0a4b\u0a28\u0a32\u0a21\u2019\u0a1c\u0a3c",
          "brand:ur": "\u0645\u06a9\u0688\u0648\u0646\u0644\u0688\u0632",
          "brand:wikidata": "Q38076",
          "brand:wikipedia": "en:McDonald's",
          "brand:wikipedia:pa": "\u0a2e\u0a48\u0a15\u0a21\u0a4b\u0a28\u0a32\u0a21\u2019\u0a1c\u0a3c",
          "brand:wikipedia:ur": "\u0645\u06a9\u0688\u0648\u0646\u0644\u0688\u0632",
          "cuisine": "burger",
          "name": "McDonald's",
          "name:pa": "\u0a2e\u0a48\u0a15\u0a21\u0a4b\u0a28\u0a32\u0a21\u2019\u0a1c\u0a3c",
          "name:ur": "\u0645\u06a9\u0688\u0648\u0646\u0644\u0688\u0632",
          "takeaway": "yes"
        }
      },
      {
        "type": "node",
        "id": 4122564391,
        "lat": 28.6294413,
        "lon": 77.212874,
        "tags": {
          "amenity": "atm",
          "check_date": "2023-12-15"
        }
      },
      {
        "type": "node",
        "id": 4122592290,
        "lat": 28.6333793,
        "lon": 77.2076665,
        "tags": {
          "amenity": "bank"
        }
      },
      {
        "type": "node",
        "id": 4122592291,
        "lat": 28.6334275,
        "lon": 77.2080471,
        "tags": {
          "amenity": "restaurant",
          "name": "Odeon sweets"
        }
      },
      {
        "type": "node",
        "id": 4389312993,
        "lat": 28.6320509,
        "lon": 77.2163058,
        "tags": {
          "addr:city": "New Delhi",
          "addr:housenumber": "P13/90",
          "addr:street": "Counnaught Circus, Block P",
          "amenity": "fast_food",
          "brand": "Saravana Bhavan",
          "brand:wikidata": "Q3528082",
          "cuisine": "indian;south_indian",
          "name": "Saravana Bhavan",
          "name:es": "Hotel Saravana Bhavan",
          "official_name": "Hotel Saravana Bhavan",
          "takeaway": "yes",
          "website": "https://saravanabhavan.com/"
        }
      },
      {
        "type": "node",
        "id": 4389398989,
        "lat": 28.6303463,
        "lon": 77.217545,
        "tags": {
          "addr:city": "New Delhi",
          "addr:housenumber": "13",
          "addr:street": "Sansad Marg",
          "amenity": "restaurant",
          "cuisine": "punjabi",
          "name": "Pind Balluchi",
          "name:es": "Pind Baluchi",
          "name:fa": "\u067e\u06cc\u0646\u062f \u0628\u0644\u0648\u0686\u06cc",
          "opening_hours": "Mo-Su 12:00-23:00",
          "website": "https://www.pindballuchi.com/"
        }
      },
      {
        "type": "node",
        "id": 4460479219,
        "lat": 28.6328293,
        "lon": 77.2172007,
        "tags": {
          "addr:city": "New Delhi",
          "amenity": "restaurant",
          "diet:vegan": "yes",
          "diet:vegetarian": "yes",
          "name": "Fa Yian The Chinese Restaurant",
          "website": "http://www.fayian.com"
        }
      },
      {
        "type": "node",
        "id": 4541197689,
        "lat": 28.6266262,
        "lon": 77.2145324,
        "tags": {
          "amenity": "bank",
          "atm": "yes",
          "branch": "New Delhi",
          "brand": "State Bank of India",
          "brand:wikidata": "Q1340361",
          "name": "State Bank of India",
          "name:en": "State Bank of India",
          "short_name": "SBI"
        }
      },
      {
        "type": "node",
        "id": 4713325589,
        "lat": 28.6246459,
        "lon": 77.2053756,
        "tags": {
          "amenity": "atm",
          "brand": "State Bank of India",
          "brand:en": "State Bank of India",
          "brand:wikidata": "Q1340361",
          "currency:INR": "yes",
          "drive_through": "no",
          "indoor": "yes",
          "note": "Contributors are requested to not edit the \"brand\", \"brand:en\", \"brand:wikidata\", \"operator\", \"operator:en\" and \"operator:wikidata\" tags. (2025/02/19)",
          "opening_hours": "24/7",
          "operator": "State Bank of India",
          "operator:en": "State Bank of India",
          "operator:wikidata": "Q1340361",
          "short_name": "SBI"
        }
      },
      {
        "type": "node",
        "id": 4772064342,
        "lat": 28.6319603,
        "lon": 77.2078492,
        "tags": {
          "amenity": "restaurant",
          "name": "Safari Restro Lounge"
        }
      },
      {
        "type": "node",
        "id": 4783668221,
        "lat": 28.6299114,
        "lon": 77.2172701,
        "tags": {
          "amenity": "restaurant",
          "cuisine": "indian",
          "name": "Kwality",
          "name:de": "Kwality",
          "name:en": "Kwality",
          "name:hi": "Kwality",
          "survey:date": "2023-01-22"
        }
      },
      {
        "type": "node",
        "id": 4875489421,
        "lat": 28.6317854,
        "lon": 77.2159495,
        "tags": {
          "addr:city": "New Delhi",
          "amenity": "fast_food",
          "diet:lacto_vegetarian": "yes",
          "level": "0",
          "name": "Jain Chawal Wale",
          "opening_hours": "Mo-Su 09:00-01:00"
        }
      },
      {
        "type": "node",
        "id": 5073788821,
        "lat": 28.6321991,
        "lon": 77.2163026,
        "tags": {
          "addr:housenumber": "P-13/90",
          "addr:place": "Connaught Circus",
          "addr:postcode": "110001",
          "amenity": "fast_food",
          "brand": "Saravana Bhavan",
          "brand:wikidata": "Q3528082",
          "contact:phone": "+91-11-2334-7755;+91-11-2334-5577",
          "cuisine": "indian;south_indian",
          "indoor_seating": "yes",
          "name": "Saravana Bhavan",
          "name:en": "Saravana Bhavan",
          "name:hi": "\u0938\u0930\u094d\u0935\u0923 \u092d\u0935\u0928",
          "official_name": "Hotel Saravana Bhavan",
          "takeaway": "yes"
        }
      },
      {
        "type": "node",
        "id": 5338583878,
        "lat": 28.6248302,
        "lon": 77.2029725,
        "tags": {
          "amenity": "atm",
          "brand": "State Bank",
          "opening_hours": "24/7"
        }
      },
      {
        "type": "node",
        "id": 5338584664,
        "lat": 28.6249115,
        "lon": 77.2010875,
        "tags": {
          "amenity": "atm",
          "brand": "Bank of Baroda",
          "brand:wikidata": "Q2003797",
          "opening_hours": "24/7",
          "operator": "Bank of Baroda",
          "operator:wikidata": "Q2003797"
        }
      },
      {
        "type": "node",
        "id": 5368454824,
        "lat": 28.62898,
        "lon": 77.2173598,
        "tags": {
          "amenity": "atm",
          "brand": "Bank of Baroda",
          "brand:wikidata": "Q2003797",
          "name": "Bank of Baroda",
          "operator": "Bank of Baroda",
          "operator:wikidata": "Q2003797"
        }
      },
      {
        "type": "node",
        "id": 5368463121,
        "lat": 28.6289357,
        "lon": 77.2174179,
        "tags": {
          "amenity": "bank",
          "brand": "Bank of Baroda",
          "brand:wikidata": "Q2003797",
          "name": "Bank of Baroda"
        }
      },
      {
        "type": "node",
        "id": 5368544822,
        "lat": 28.6325492,
        "lon": 77.2080312,
        "tags": {
          "amenity": "atm"
        }
      },
      {
        "type": "node",
        "id": 5432868321,
        "lat": 28.638233,
        "lon": 77.2120277,
        "tags": {
          "amenity": "cafe",
          "name:ru": "\u041d\u0443\u0434\u043b 30\u0440\u0443\u043f\u0438\u0439"
        }
      },
      {
        "type": "node",
        "id": 5545575717,
        "lat": 28.632967,
        "lon": 77.2179001,
        "tags": {
          "addr:housename": "A",
          "addr:place": "Connaught Place",
          "addr:unit": "9",
          "amenity": "bank",
          "atm": "yes",
          "brand": "Punjab National Bank",
          "brand:wikidata": "Q2743499",
          "name": "Punjab National Bank"
        }
      },
      {
        "type": "node",
        "id": 5545575720,
        "lat": 28.6310982,
        "lon": 77.2167474,
        "tags": {
          "addr:city": "New Delhi",
          "name": "Khadi India",
          "opening_hours": "Mo-Su 11:00-19:30; PH closed",
          "shop": "department_store",
          "wheelchair": "no"
        }
      },
      {
        "type": "node",
        "id": 5577533598,
        "lat": 28.6325327,
        "lon": 77.2179816,
        "tags": {
          "addr:housename": "A",
          "amenity": "atm",
          "brand": "ICICI Bank",
          "brand:en": "ICICI Bank",
          "brand:wikidata": "Q1653258",
          "currency:INR": "yes",
          "drive_through": "no",
          "indoor": "yes",
          "name": "ICICI Bank",
          "note": "Contributors are requested to not edit the \"brand\", \"brand:en\", \"brand:wikidata\", \"operator\", \"operator:en\" and \"operator:wikidata\" tags. (2025/02/19)",
          "opening_hours": "24/7",
          "operator": "ICICI Bank",
          "operator:en": "ICICI Bank",
          "operator:wikidata": "Q1653258",
          "short_name": "ICICI"
        }
      },
      {
        "type": "node",
        "id": 5577534202,
        "lat": 28.632608,
        "lon": 77.2179719,
        "tags": {
          "addr:housename": "A",
          "amenity": "bank",
          "brand": "ICICI Bank",
          "brand:wikidata": "Q1653258",
          "name": "ICICI Bank",
          "opening_hours": "Mo-Fr 08:00-20:00, 09:00-18:00; Sa 09:30-17:00; PH off; Sa[2,4] off",
          "short_name": "ICICI"
        }
      },
      {
        "type": "node",
        "id": 5577534325,
        "lat": 28.6342788,
        "lon": 77.2176384,
        "tags": {
          "amenity": "fast_food",
          "cuisine": "burger",
          "diet:vegan": "yes",
          "diet:vegetarian": "yes",
          "name": "Burger Singh",
          "phone": "+91-87671-21212",
          "toilets": "yes",
          "website": "https://burgersinghonline.com/"
        }
      },
      {
        "type": "node",
        "id": 5656397310,
        "lat": 28.633169,
        "lon": 77.2179864,
        "tags": {
          "addr:housename": "A",
          "amenity": "restaurant",
          "diet:vegan": "yes",
          "diet:vegetarian": "yes",
          "name": "Rodeo"
        }
      },
      {
        "type": "node",
        "id": 5784310847,
        "lat": 28.6337914,
        "lon": 77.217038,
        "tags": {
          "addr:block": "G",
          "addr:city": "New Delhi",
          "addr:housenumber": "8",
          "addr:street": "D00",
          "amenity": "pharmacy",
          "branch": "Connaught Place",
          "brand": "Apollo Pharmacy",
          "brand:wikidata": "Q62562612",
          "healthcare": "pharmacy",
          "name": "Apollo Pharmacy",
          "opening_hours": "24/7"
        }
      },
      {
        "type": "node",
        "id": 5784310848,
        "lat": 28.6339281,
        "lon": 77.217254,
        "tags": {
          "addr:block": "G",
          "addr:housenumber": "4;5;6",
          "amenity": "restaurant",
          "diet:vegan": "yes",
          "diet:vegetarian": "yes",
          "name": "Oriental Garden Chinese"
        }
      },
      {
        "type": "node",
        "id": 5784312103,
        "lat": 28.6336342,
        "lon": 77.2169575,
        "tags": {
          "addr:block": "G",
          "addr:housenumber": "13",
          "addr:street": "D00",
          "amenity": "bank",
          "atm": "yes",
          "brand": "State Bank of India",
          "brand:wikidata": "Q1340361",
          "name": "State Bank of India",
          "opening_hours": "Mo-Sa 10:00-16:00; Sa[2, 4] closed",
          "short_name": "SBI"
        }
      },
      {
        "type": "node",
        "id": 5784312104,
        "lat": 28.6337075,
        "lon": 77.2169847,
        "tags": {
          "addr:housenumber": "G09",
          "addr:street": "D00",
          "amenity": "restaurant",
          "diet:vegetarian": "yes",
          "name": "Xero degrees",
          "website": "https://www.xerodegrees.com/"
        }
      },
      {
        "type": "node",
        "id": 5784312301,
        "lat": 28.6338871,
        "lon": 77.2173285,
        "tags": {
          "addr:block": "G",
          "addr:city": "New Delhi",
          "addr:housename": "Marina Arcade",
          "addr:housenumber": "04",
          "addr:postcode": "110001",
          "addr:street": "D00",
          "amenity": "pharmacy",
          "name": "Medicine House",
          "phone": "+91-95825-34440;+91-11-2332-1747;+91-11-6590-8784;+91-11-2332-1758"
        }
      },
      {
        "type": "node",
        "id": 5784312302,
        "lat": 28.6338668,
        "lon": 77.2173585,
        "tags": {
          "addr:block": "G",
          "amenity": "pharmacy",
          "name": "Nath Brothers",
          "opening_hours": "Mo-Sa 10:00-20:30",
          "phone": "+91-98994-41605;+91-11-4151-6266;+91-11-2332-7284"
        }
      },
      {
        "type": "node",
        "id": 5790140091,
        "lat": 28.6326368,
        "lon": 77.2167019,
        "tags": {
          "amenity": "bank",
          "atm": "yes",
          "brand": "Kotak Mahindra Bank",
          "brand:wikidata": "Q2040404",
          "name": "Kotak Mahindra Bank"
        }
      },
      {
        "type": "node",
        "id": 5790140153,
        "lat": 28.6329277,
        "lon": 77.2173766,
        "tags": {
          "amenity": "atm",
          "brand": "Standard Chartered",
          "brand:wikidata": "Q548278",
          "name": "Standard Chartered",
          "operator": "Standard Chartered",
          "operator:wikidata": "Q548278"
        }
      },
      {
        "type": "node",
        "id": 5792048840,
        "lat": 28.6298283,
        "lon": 77.213752,
        "tags": {
          "amenity": "bank",
          "brand": "Citibank",
          "brand:wikidata": "Q857063",
          "name": "Citibank",
          "short_name": "Citi"
        }
      },
      {
        "type": "node",
        "id": 5792048841,
        "lat": 28.6310681,
        "lon": 77.2147904,
        "tags": {
          "addr:city": "New Delhi",
          "amenity": "fast_food",
          "cuisine": "indian",
          "name": "Coffee Home"
        }
      },
      {
        "type": "node",
        "id": 5792049366,
        "lat": 28.6315538,
        "lon": 77.2162363,
        "tags": {
          "amenity": "fast_food",
          "brand": "Subway",
          "brand:pa": "\u0a38\u0a2c\u0a35\u0a47\u0a05",
          "brand:ur": "\u0633\u0628 \u0648\u06d2",
          "brand:wikidata": "Q244457",
          "brand:wikipedia": "en:Subway (restaurant)",
          "cuisine": "sandwich",
          "diet:vegetarian": "yes",
          "level": "0",
          "name": "Subway",
          "name:pa": "\u0a38\u0a2c\u0a35\u0a47\u0a05",
          "name:ur": "\u0633\u0628 \u0648\u06d2",
          "operator": "Aarbee International LLP",
          "takeaway": "yes"
        }
      },
      {
        "type": "node",
        "id": 5799061869,
        "lat": 28.6297605,
        "lon": 77.217177,
        "tags": {
          "amenity": "bank",
          "branch": "Parliament Street",
          "brand": "ICICI Bank",
          "brand:wikidata": "Q1653258",
          "name": "ICICI Bank",
          "opening_hours": "24/7",
          "short_name": "ICICI"
        }
      },
      {
        "type": "node",
        "id": 5799061871,
        "lat": 28.6297028,
        "lon": 77.2171284,
        "tags": {
          "amenity": "atm",
          "brand": "State Bank of India",
          "brand:en": "State Bank of India",
          "brand:short": "SBI",
          "brand:wikidata": "Q1340361",
          "currency:INR": "yes",
          "drive_through": "no",
          "indoor": "yes",
          "name": "State Bank of India",
          "note": "Contributors are requested to not edit the \"brand\", \"brand:en\", \"brand:wikidata\", \"operator\", \"operator:en\" and \"operator:wikidata\" tags. (2025/02/19)",
          "opening_hours": "24/7",
          "operator": "State Bank of India",
          "operator:en": "State Bank of India",
          "operator:wikidata": "Q1340361",
          "short_name": "SBI"
        }
      },
      {
        "type": "node",
        "id": 5864629285,
        "lat": 28.632007,
        "lon": 77.2176823,
        "tags": {
          "amenity": "restaurant",
          "name": "Sharavana Bhavan",
          "name:en": "Sharavana Bhavan"
        }
      },
      {
        "type": "node",
        "id": 6495346837,
        "lat": 28.6336036,
        "lon": 77.2178165,
        "tags": {
          "addr:housename": "A",
          "amenity": "cafe",
          "brand": "Cafe Coffee Day",
          "brand:wikidata": "Q5017235",
          "cuisine": "coffee_shop",
          "diet:vegan": "yes",
          "diet:vegetarian": "yes",
          "name": "Cafe Coffee Day",
          "takeaway": "yes",
          "wheelchair": "no"
        }
      },
      {
        "type": "node",
        "id": 6898010185,
        "lat": 28.6305923,
        "lon": 77.2172927,
        "tags": {
          "addr:city": "New Delhi",
          "amenity": "fast_food",
          "name": "Mcdonald",
          "wheelchair": "no"
        }
      },
      {
        "type": "node",
        "id": 7138493163,
        "lat": 28.633024,
        "lon": 77.2111811,
        "tags": {
          "addr:district": "New Delhi",
          "addr:full": "Shaheed Bhagat Singh Marg, DIZ Area, Connaught Place",
          "addr:postcode": "110001",
          "addr:state": "Delhi",
          "amenity": "clinic",
          "contact:phone": "011-23365482",
          "description": "Polyclinic",
          "name": "New Delhi Municipal Council Polyclinic",
          "source": "OpenGovernmentData"
        }
      },
      {
        "type": "node",
        "id": 7138493193,
        "lat": 28.6357652,
        "lon": 77.2110664,
        "tags": {
          "addr:district": "New Delhi",
          "addr:full": "C- 604, Connaught Circus, DIZ Area, Connaught Place, New Delhi",
          "addr:postcode": "110001",
          "addr:state": "Delhi",
          "amenity": "hospital",
          "contact:phone": "011 2334 4147",
          "name": "Kalawati Saran Children's Hospital",
          "source": "OpenGovernmentData"
        }
      },
      {
        "type": "node",
        "id": 7138493252,
        "lat": 28.6288565,
        "lon": 77.2001398,
        "tags": {
          "addr:district": "New Delhi",
          "addr:full": "DIZ Area, Udyan marg, Kalibari Marg, Near Birla Mandir",
          "addr:postcode": "110001",
          "addr:state": "Delhi",
          "amenity": "clinic",
          "contact:phone": "011-23743142",
          "description": "Dispensaries",
          "health_facility:type": "dispensary",
          "healthcare": "centre",
          "name": "CGHS Wellness Centre Kali Bari",
          "source": "OpenGovernmentData"
        }
      },
      {
        "type": "node",
        "id": 7138534287,
        "lat": 28.634138,
        "lon": 77.212909,
        "tags": {
          "addr:district": "Central",
          "addr:full": "C-604, Shaheed Bhagat Singh Road, Diz Area, Connaught Place, New Delhi",
          "addr:postcode": "110001",
          "addr:state": "Delhi",
          "amenity": "hospital",
          "contact:nodal_officer_email": "serologyhailhmc@gmail.com",
          "contact:nodal_officer_mobile": "9868961269",
          "contact:phone": "1123363728",
          "healthcare": "hospital",
          "name": "Lady Hardinge Medical College & Associated Hospitals",
          "name:etymology:wikidata": "Q4020403",
          "source": "OpenGovernmentData"
        }
      },
      {
        "type": "node",
        "id": 8151219537,
        "lat": 28.6241327,
        "lon": 77.2139025,
        "tags": {
          "addr:city": "New Delhi",
          "addr:full": "10, Jeevan Deep Building, Sansad Marg, Janpath, Connaught Place, New Delhi, Delhi",
          "amenity": "bank",
          "brand": "Indian Overseas Bank",
          "brand:wikidata": "Q2003611",
          "name": "Indian Overseas Bank"
        }
      },
      {
        "type": "node",
        "id": 8151246340,
        "lat": 28.6311711,
        "lon": 77.2170294,
        "tags": {
          "addr:city": "New Delhi",
          "addr:full": "L-43, Connaught Cir, Hanuman Road Area, Connaught Place, New Delhi, Delhi",
          "amenity": "hospital",
          "name": "Arvind Medicare"
        }
      },
      {
        "type": "node",
        "id": 9182111845,
        "lat": 28.6258863,
        "lon": 77.213853,
        "tags": {
          "amenity": "atm",
          "brand": "State Bank of India",
          "brand:en": "State Bank of India",
          "brand:wikidata": "Q1340361",
          "currency:INR": "yes",
          "drive_through": "no",
          "indoor": "yes",
          "level": "0",
          "note": "Contributors are requested to not edit the \"brand\", \"brand:en\", \"brand:wikidata\", \"operator\", \"operator:en\" and \"operator:wikidata\" tags. (2025/02/19)",
          "opening_hours": "24/7",
          "operator": "State Bank of India",
          "operator:en": "State Bank of India",
          "operator:wikidata": "Q1340361",
          "short_name": "SBI"
        }
      },
      {
        "type": "node",
        "id": 9212682337,
        "lat": 28.6301065,
        "lon": 77.2174139,
        "tags": {
          "amenity": "fast_food",
          "name": "Daryaganj"
        }
      },
      {
        "type": "node",
        "id": 10230373027,
        "lat": 28.6313034,
        "lon": 77.1980381,
        "tags": {
          "amenity": "bank",
          "brand": "Bank of India",
          "brand:wikidata": "Q2004439",
          "name": "Bank of India"
        }
      },
      {
        "type": "node",
        "id": 10945664767,
        "lat": 28.6267693,
        "lon": 77.2092035,
        "tags": {
          "amenity": "hospital",
          "name": "Guru Harkrishan Polyclinic Bangla Sahib",
          "phone": "011 23340171"
        }
      },
      {
        "type": "node",
        "id": 11252471885,
        "lat": 28.6331447,
        "lon": 77.2179838,
        "tags": {
          "addr:street": "Connaught Place",
          "amenity": "restaurant",
          "diet:vegan": "yes",
          "diet:vegetarian": "yes",
          "name": "Diggin"
        }
      },
      {
        "type": "node",
        "id": 11449298391,
        "lat": 28.6315631,
        "lon": 77.2162842,
        "tags": {
          "amenity": "restaurant",
          "contact:mobile": "+91-9090-7070-83",
          "contact:phone": "+91-11-4143-5007",
          "cuisine": "south_indian",
          "level": "0;1",
          "name": "Bheemeshwara",
          "opening_hours": "Mo-Su 07:00-23:00",
          "operator": "Ashlyn Restaurant LLP"
        }
      },
      {
        "type": "node",
        "id": 11449298392,
        "lat": 28.6315236,
        "lon": 77.2161783,
        "tags": {
          "amenity": "restaurant",
          "contact:mobile": "+91-8468-00-5769",
          "contact:website": "https://www.bikkganebiryani.com",
          "name": "Bikkgane Biryani"
        }
      },
      {
        "type": "node",
        "id": 11449298397,
        "lat": 28.6316678,
        "lon": 77.216355,
        "tags": {
          "amenity": "atm",
          "brand": "State Bank of India",
          "brand:en": "State Bank of India",
          "brand:wikidata": "Q1340361",
          "currency:INR": "yes",
          "drive_through": "no",
          "indoor": "yes",
          "level": "0",
          "note": "Contributors are requested to not edit the \"brand\", \"brand:en\", \"brand:wikidata\", \"operator\", \"operator:en\" and \"operator:wikidata\" tags. (2025/02/19)",
          "opening_hours": "24/7",
          "operator": "State Bank of India",
          "operator:en": "State Bank of India",
          "operator:wikidata": "Q1340361",
          "short_name": "SBI",
          "wheelchair": "no"
        }
      },
      {
        "type": "node",
        "id": 11449298398,
        "lat": 28.6317223,
        "lon": 77.216345,
        "tags": {
          "amenity": "bank",
          "branch": "P Block, Connaught Circus",
          "brand": "State Bank of India",
          "brand:wikidata": "Q1340361",
          "name": "State Bank of India",
          "short_name": "SBI"
        }
      },
      {
        "type": "node",
        "id": 11637330958,
        "lat": 28.6336824,
        "lon": 77.2169663,
        "tags": {
          "addr:postcode": "110001",
          "amenity": "bank",
          "branch": "Connaught Place",
          "brand": "Karnataka Bank",
          "brand:wikidata": "Q2042632",
          "name": "Karnataka Bank"
        }
      },
      {
        "type": "node",
        "id": 11637354349,
        "lat": 28.6329073,
        "lon": 77.216686,
        "tags": {
          "amenity": "bank",
          "branch": "Connaught Place",
          "brand": "Bank of Baroda",
          "brand:wikidata": "Q2003797",
          "name": "Bank of Baroda"
        }
      },
      {
        "type": "node",
        "id": 11637362094,
        "lat": 28.6332625,
        "lon": 77.2166944,
        "tags": {
          "addr:block": "G",
          "addr:housenumber": "19",
          "addr:street": "D00",
          "amenity": "restaurant",
          "name": "The Art of Dumpling",
          "short_name": "TAOD"
        }
      },
      {
        "type": "node",
        "id": 11637365580,
        "lat": 28.6327615,
        "lon": 77.2166213,
        "tags": {
          "addr:block": "G",
          "addr:housenumber": "36",
          "addr:street": "D00",
          "amenity": "bank",
          "atm": "yes",
          "brand": "CSB Bank",
          "brand:wikidata": "Q5053244",
          "name": "CSB Bank",
          "official_name": "Catholic Syrian Bank",
          "opening_hours": "Mo-Fr 09:30-16:00"
        }
      },
      {
        "type": "node",
        "id": 11637592491,
        "lat": 28.6307063,
        "lon": 77.2156133,
        "tags": {
          "amenity": "cafe",
          "cuisine": "tea",
          "outdoor_seating": "yes"
        }
      },
      {
        "type": "node",
        "id": 11764334602,
        "lat": 28.6324882,
        "lon": 77.2161512,
        "tags": {
          "addr:city": "New Delhi",
          "addr:full": "P-15/90, Connaught Circle, New Delhi - 110001",
          "addr:postcode": "110001",
          "addr:street": "Outer Circle",
          "air_conditioning": "yes",
          "amenity": "restaurant",
          "brand": "Naivedyam",
          "changing_table": "no",
          "contact:phone": "+91-11-4059-1444;+91-11-4059-2444",
          "cuisine": "indian;southern_indian",
          "diet:sugar_free": "yes",
          "diet:vegan": "limited",
          "diet:vegetarian": "yes",
          "dog": "no",
          "fixme": "Freeform tag `cuisine` used, to be doublechecked",
          "indoor_seating": "yes",
          "level": "0;1",
          "name": "Naivedyam",
          "outdoor_seating": "no",
          "smoking": "no",
          "takeaway": "yes",
          "toilets": "yes",
          "toilets:fee": "no",
          "toilets:gender_segregated": "yes",
          "toilets:hands_drying": "paper_towel",
          "toilets:handwashing": "yes",
          "toilets:level": "0",
          "toilets:wheelchair": "no",
          "wheelchair": "no"
        }
      },
      {
        "type": "node",
        "id": 11801338398,
        "lat": 28.6391042,
        "lon": 77.2084744,
        "tags": {
          "amenity": "restaurant",
          "bar": "no",
          "level": "0",
          "name": "Bikanervala",
          "shop": "yes"
        }
      },
      {
        "type": "node",
        "id": 11801338399,
        "lat": 28.6391707,
        "lon": 77.2083739,
        "tags": {
          "amenity": "fast_food",
          "indoor_seating": "yes",
          "level": "0",
          "name": "Food Forum"
        }
      },
      {
        "type": "node",
        "id": 11801338400,
        "lat": 28.6391886,
        "lon": 77.2083409,
        "tags": {
          "amenity": "fast_food",
          "cuisine": "burger",
          "indoor_seating": "yes",
          "level": "0",
          "name": "The Burger Co."
        }
      },
      {
        "type": "node",
        "id": 11801338401,
        "lat": 28.639123,
        "lon": 77.2084365,
        "tags": {
          "amenity": "fast_food",
          "indoor_seating": "yes",
          "level": "0",
          "name": "Diana"
        }
      },
      {
        "type": "node",
        "id": 11801338402,
        "lat": 28.6390886,
        "lon": 77.2085054,
        "tags": {
          "amenity": "fast_food",
          "bar": "no",
          "brand": "Pizza Hut",
          "brand:wikidata": "Q191615",
          "cuisine": "pizza",
          "level": "0",
          "name": "Pizza Hut"
        }
      },
      {
        "type": "node",
        "id": 11801338403,
        "lat": 28.6391433,
        "lon": 77.208405,
        "tags": {
          "amenity": "fast_food",
          "brand": "Subway",
          "brand:wikidata": "Q244457",
          "cuisine": "sandwich",
          "level": "0",
          "name": "Subway",
          "takeaway": "yes"
        }
      },
      {
        "type": "node",
        "id": 11805134682,
        "lat": 28.639207,
        "lon": 77.2083127,
        "tags": {
          "amenity": "restaurant",
          "bar": "no",
          "level": "0",
          "name": "Fat Tiger"
        }
      },
      {
        "type": "node",
        "id": 12052465818,
        "lat": 28.6377937,
        "lon": 77.2114515,
        "tags": {
          "amenity": "pharmacy",
          "healthcare": "pharmacy",
          "level": "0",
          "name": "Vinod Medicos",
          "shop": "chemist"
        }
      },
      {
        "type": "node",
        "id": 12052474063,
        "lat": 28.6337258,
        "lon": 77.2085135,
        "tags": {
          "amenity": "pharmacy",
          "brand": "Apollo Pharmacy",
          "brand:wikidata": "Q62562612",
          "healthcare": "pharmacy",
          "level": "0",
          "name": "Apollo Pharmacy",
          "shop": "chemist"
        }
      },
      {
        "type": "node",
        "id": 12054358703,
        "lat": 28.6344804,
        "lon": 77.2175301,
        "tags": {
          "amenity": "restaurant",
          "bar": "yes",
          "cuisine": "chinese",
          "level": "0",
          "name": "Flavours Of China"
        }
      },
      {
        "type": "node",
        "id": 12054396922,
        "lat": 28.63814,
        "lon": 77.2109771,
        "tags": {
          "amenity": "bank",
          "atm": "no",
          "brand": "HDFC Bank",
          "brand:wikidata": "Q631047",
          "level": "1",
          "name": "HDFC Bank",
          "short_name": "HDFC"
        }
      },
      {
        "type": "node",
        "id": 12092828103,
        "lat": 28.6325936,
        "lon": 77.2167018,
        "tags": {
          "addr:city": "New Delhi",
          "addr:neighbourhood": "Connaught Circus",
          "addr:postcode": "110001",
          "addr:unit": "H-2",
          "amenity": "bank",
          "branch": "New Delhi overseas",
          "brand": "Bank of India",
          "brand:wikidata": "Q2004439",
          "level": "0",
          "name": "Bank of India"
        }
      },
      {
        "type": "node",
        "id": 12092828928,
        "lat": 28.6325537,
        "lon": 77.216701,
        "tags": {
          "addr:city": "New Delhi",
          "amenity": "bank",
          "branch": "New Delhi",
          "brand": "Indian Bank",
          "brand:wikidata": "Q2003789",
          "level": "0",
          "name": "Indian Bank"
        }
      },
      {
        "type": "node",
        "id": 12092831604,
        "lat": 28.6324968,
        "lon": 77.2167179,
        "tags": {
          "addr:city": "New Delhi",
          "amenity": "bank",
          "branch": "Connaught Place",
          "level": "0",
          "name": "J&K Bank"
        }
      },
      {
        "type": "node",
        "id": 12092832041,
        "lat": 28.6324472,
        "lon": 77.2167369,
        "tags": {
          "addr:city": "New Delhi",
          "amenity": "bank",
          "branch": "Connaught Circus",
          "brand": "Central Bank of India",
          "brand:wikidata": "Q2007090",
          "level": "0",
          "name": "Central Bank of India"
        }
      },
      {
        "type": "node",
        "id": 12185793075,
        "lat": 28.6264316,
        "lon": 77.2122984,
        "tags": {
          "air_conditioning": "no",
          "amenity": "fast_food",
          "level": "0",
          "name": "V Canteen",
          "outdoor_seating": "yes",
          "smoking": "no",
          "wheelchair": "yes"
        }
      },
      {
        "type": "node",
        "id": 12586887172,
        "lat": 28.6235066,
        "lon": 77.211871,
        "tags": {
          "amenity": "bank",
          "atm": "yes",
          "branch": "Sansad Marg",
          "brand": "Punjab National Bank",
          "level": "0",
          "name": "Punjab National Bank"
        }
      },
      {
        "type": "node",
        "id": 12833498600,
        "lat": 28.639392,
        "lon": 77.2084666,
        "tags": {
          "amenity": "bank",
          "atm": "yes",
          "branch": "Ramakrishna Ashram Marg Metro Station",
          "brand": "State Bank of India",
          "level": "0",
          "name": "State Bank of India",
          "opening_hours": "Mo-Fr 10:00-16:00",
          "short_name": "SBI"
        }
      },
      {
        "type": "node",
        "id": 12896513992,
        "lat": 28.6324913,
        "lon": 77.2067022,
        "tags": {
          "amenity": "restaurant",
          "name": "Gulshan Da Dhaba"
        }
      },
      {
        "type": "node",
        "id": 12896513993,
        "lat": 28.6324933,
        "lon": 77.2067303,
        "tags": {
          "amenity": "pharmacy",
          "healthcare": "pharmacy",
          "level": "0",
          "name": "R. K. Health Care"
        }
      },
      {
        "type": "node",
        "id": 12896531743,
        "lat": 28.6326142,
        "lon": 77.2062373,
        "tags": {
          "amenity": "fast_food",
          "changing_table": "no",
          "cuisine": "indian",
          "indoor_seating": "yes",
          "name": "Gopal Ji Foods",
          "phone": "+91 98117 53953",
          "toilets:wheelchair": "no",
          "wheelchair": "no"
        }
      },
      {
        "type": "node",
        "id": 12896534719,
        "lat": 28.6326424,
        "lon": 77.2066112,
        "tags": {
          "amenity": "restaurant",
          "level": "0",
          "name": "Flavours of Chaap"
        }
      },
      {
        "type": "node",
        "id": 12896559008,
        "lat": 28.6328593,
        "lon": 77.2086314,
        "tags": {
          "amenity": "bank",
          "brand": "Indian Overseas Bank",
          "name": "Indian Overseas Bank"
        }
      },
      {
        "type": "node",
        "id": 12896559010,
        "lat": 28.6330762,
        "lon": 77.2086634,
        "tags": {
          "amenity": "bank",
          "brand": "Canara Bank",
          "brand:en": "Canara Bank",
          "brand:hi": "\u0915\u0947\u0928\u0930\u093e \u092c\u0948\u0902\u0915",
          "brand:kn": "\u0c95\u0cc6\u0ca8\u0cb0\u0cbe \u0cac\u0ccd\u0caf\u0cbe\u0c82\u0c95\u0ccd",
          "brand:pa": "\u0a15\u0a47\u0a28\u0a30\u0a3e \u0a2c\u0a48\u0a02\u0a15",
          "brand:pnb": "\u06a9\u06cc\u0646\u0631\u0627 \u0628\u06cc\u0646\u06a9",
          "brand:ur": "\u06a9\u06cc\u0646\u0631\u0627 \u0628\u06cc\u0646\u06a9",
          "name": "Canara Bank",
          "name:en": "Canara Bank",
          "name:hi": "\u0915\u0947\u0928\u0930\u093e \u092c\u0948\u0902\u0915",
          "name:kn": "\u0c95\u0cc6\u0ca8\u0cb0\u0cbe \u0cac\u0ccd\u0caf\u0cbe\u0c82\u0c95\u0ccd",
          "name:pa": "\u0a15\u0a47\u0a28\u0a30\u0a3e \u0a2c\u0a48\u0a02\u0a15",
          "name:pnb": "\u06a9\u06cc\u0646\u0631\u0627 \u0628\u06cc\u0646\u06a9",
          "name:ur": "\u06a9\u06cc\u0646\u0631\u0627 \u0628\u06cc\u0646\u06a9"
        }
      },
      {
        "type": "node",
        "id": 12896559013,
        "lat": 28.6327401,
        "lon": 77.2086242,
        "tags": {
          "amenity": "bank",
          "brand": "Central Bank of India",
          "name": "Central Bank of India"
        }
      },
      {
        "type": "node",
        "id": 12896559014,
        "lat": 28.633125,
        "lon": 77.2086705,
        "tags": {
          "amenity": "bank",
          "brand": "ICICI Bank",
          "name": "ICICI Bank",
          "short_name": "ICICI"
        }
      },
      {
        "type": "node",
        "id": 12896559015,
        "lat": 28.6328172,
        "lon": 77.2086299,
        "tags": {
          "amenity": "bank",
          "brand": "State Bank of India",
          "name": "State Bank of India (Global)",
          "short_name": "SBI"
        }
      },
      {
        "type": "node",
        "id": 12896559016,
        "lat": 28.632595,
        "lon": 77.2086075,
        "tags": {
          "amenity": "bank",
          "brand": "Axis Bank",
          "name": "Axis Bank"
        }
      },
      {
        "type": "node",
        "id": 12896559854,
        "lat": 28.6330218,
        "lon": 77.2084316,
        "tags": {
          "air_conditioning": "yes",
          "amenity": "restaurant",
          "baby_feeding": "no",
          "name": "Kaleva All day Diner Family Restaurant",
          "opening_hours": "Mo-Su 08:30-22:30; PH closed",
          "smoking": "no",
          "takeaway": "yes",
          "wheelchair": "yes"
        }
      },
      {
        "type": "node",
        "id": 12896611359,
        "lat": 28.6325356,
        "lon": 77.207086,
        "tags": {
          "amenity": "clinic",
          "contact:mobile": "+91 92112 55993",
          "contact:phone": "+91 113442424",
          "healthcare": "clinic",
          "level": "0",
          "name": "Apollo Diagnostica Bones & Joints Clinic"
        }
      },
      {
        "type": "node",
        "id": 12896614406,
        "lat": 28.6324936,
        "lon": 77.2066109,
        "tags": {
          "amenity": "restaurant",
          "level": "0",
          "name": "Dayal Da Dhaba"
        }
      },
      {
        "type": "node",
        "id": 12896614411,
        "lat": 28.6325051,
        "lon": 77.2064292,
        "tags": {
          "amenity": "fast_food",
          "level": "0",
          "name": "Kababs N Roll",
          "takeaway": "yes"
        }
      },
      {
        "type": "node",
        "id": 12896628034,
        "lat": 28.6328201,
        "lon": 77.2073014,
        "tags": {
          "amenity": "doctors",
          "contact:mobile": "+91 96500 31223",
          "contact:phone": "+91 1122742",
          "healthcare": "doctor",
          "level": "1",
          "name": "Ballani Skin Aesthetics"
        }
      },
      {
        "type": "node",
        "id": 12896628035,
        "lat": 28.6328049,
        "lon": 77.2072974,
        "tags": {
          "amenity": "pharmacy",
          "contact:mobile": "+91 77019 72545",
          "healthcare": "pharmacy",
          "name": "Medsurg Pharma"
        }
      }
    ]
  },
  "pois_2_5km": {
    "version": 0.6,
    "generator": "Overpass API 0.7.62.8 e802775f",
    "osm3s": {
      "timestamp_osm_base": "2025-09-06T07:02:14Z",
      "copyright": "The data included in this document is from www.openstreetmap.org. The data is made available under ODbL."
    },
    "elements": [
      {
        "type": "node",
        "id": 345234441,
        "lat": 28.6440122,
        "lon": 77.1885235,
        "tags": {
          "name": "Karol Bagh",
          "name:hi": "\u0915\u0930\u094b\u0932 \u092c\u093e\u0917",
          "name:kn": "\u0c95\u0cb0\u0ccb\u0cb2\u0ccd \u0cad\u0cbe\u0c97\u0ccd",
          "name:ur": "\u0642\u0631\u0648\u0644 \u0628\u0627\u063a",
          "network": "Delhi Metro",
          "network:wikidata": "Q271195",
          "note": "Contributors are requested to not edit the \"network\" and the \"operator\" tags. (2023/06/22)",
          "operator": "Delhi Metro Rail Corporation Limited",
          "operator:wikidata": "Q1029339",
          "public_transport": "station",
          "railway": "station",
          "station": "subway",
          "subway": "yes",
          "wikidata": "Q6373014",
          "wikipedia": "en:Karol Bagh metro station"
        }
      },
      {
        "type": "node",
        "id": 345234443,
        "lat": 28.6442998,
        "lon": 77.1999053,
        "tags": {
          "name": "Jhandewalan",
          "name:kn": "\u0c9d\u0cbe\u0c82\u0ca1\u0cc6\u0cb5\u0cbe\u0cb2\u0ca8\u0ccd",
          "network": "Delhi Metro",
          "note": "Contributors are requested to not edit the \"network\" and the \"operator\" tags. (2023/06/22)",
          "operator": "Delhi Metro Rail Corporation Limited",
          "public_transport": "stop_position",
          "railway": "stop",
          "subway": "yes"
        }
      },
      {
        "type": "node",
        "id": 395135114,
        "lat": 28.6421531,
        "lon": 77.2236285,
        "tags": {
          "bus": "yes",
          "name": "New Delhi Railway Station Gate Number 2",
          "public_transport": "stop_position"
        }
      },
      {
        "type": "node",
        "id": 554257800,
        "lat": 28.6095117,
        "lon": 77.2118249,
        "tags": {
          "name": "Udyog Bhavan",
          "network": "Delhi Metro",
          "note": "Contributors are requested to not edit the \"network\" and the \"operator\" tags. (2023/06/22)",
          "operator": "Delhi Metro Rail Corporation Limited",
          "public_transport": "stop_position",
          "railway": "stop",
          "ref": "UDB",
          "subway": "yes"
        }
      },
      {
        "type": "node",
        "id": 554257818,
        "lat": 28.6229537,
        "lon": 77.2140587,
        "tags": {
          "name": "Patel Chowk",
          "network": "Delhi Metro",
          "note": "Contributors are requested to not edit the \"network\" and the \"operator\" tags. (2023/06/22)",
          "operator": "Delhi Metro Rail Corporation Limited",
          "public_transport": "stop_position",
          "railway": "stop",
          "ref": "PTCK",
          "subway": "yes"
        }
      },
      {
        "type": "node",
        "id": 554257820,
        "lat": 28.6392249,
        "lon": 77.2085684,
        "tags": {
          "name": "Ramakrishna Ashram Marg",
          "network": "Delhi Metro",
          "note": "Contributors are requested to not edit the \"network\" and the \"operator\" tags. (2023/06/22)",
          "operator": "Delhi Metro Rail Corporation Limited",
          "public_transport": "stop_position",
          "railway": "stop",
          "subway": "yes"
        }
      },
      {
        "type": "node",
        "id": 554257833,
        "lat": 28.6288963,
        "lon": 77.2113218,
        "tags": {
          "name": "Shivaji Stadium",
          "name:hi": "\u0936\u093f\u0935\u093e\u091c\u0940 \u0938\u094d\u091f\u0947\u0921\u093f\u092f\u092e",
          "name:kn": "\u0cb6\u0cbf\u0cb5\u0cbe\u0c9c\u0cbf \u0cb8\u0ccd\u0c9f\u0cc7\u0ca1\u0cbf\u0caf\u0cae\u0ccd",
          "network": "Delhi Metro",
          "network:wikidata": "Q271195",
          "note": "Contributors are requested to not edit the \"network\" and the \"operator\" tags. (2023/06/22)",
          "operator": "Delhi Metro Rail Corporation Limited",
          "operator:wikidata": "Q1029339",
          "public_transport": "station",
          "railway": "station",
          "ref": "SJSU",
          "station": "subway",
          "subway": "yes",
          "wikidata": "Q11308729",
          "wikipedia": "en:Shivaji Stadium metro station"
        }
      },
      {
        "type": "node",
        "id": 554257839,
        "lat": 28.6297527,
        "lon": 77.2249956,
        "tags": {
          "name": "Barakhambha Road",
          "network": "Delhi Metro",
          "note": "Contributors are requested to not edit the \"network\" and the \"operator\" tags. (2023/06/22)",
          "operator": "Delhi Metro Rail Corporation Limited",
          "public_transport": "stop_position",
          "railway": "stop",
          "subway": "yes"
        }
      },
      {
        "type": "node",
        "id": 554257841,
        "lat": 28.6434826,
        "lon": 77.2227421,
        "tags": {
          "alt_name:ar": "\u0646\u064a\u0648\u062f\u0644\u0647\u064a",
          "alt_name:ks": "\u0646\u0654\u0648 \u062f\u0650\u0644",
          "alt_name:ur": "\u0646\u0626\u06cc \u062f\u0644\u06cc",
          "name": "New Delhi",
          "name:ar": "\u062f\u0644\u0647\u064a \u0627\u0644\u062c\u062f\u064a\u062f\u0629",
          "name:az-Arab": "\u06cc\u0626\u0646\u06cc \u062f\u0647\u0644\u06cc",
          "name:azb": "\u06cc\u0626\u0646\u06cc \u062f\u0647\u0644\u06cc",
          "name:de": "Neu-Delhi",
          "name:el": "\u039d\u03ad\u03bf \u0394\u03b5\u03bb\u03c7\u03af",
          "name:es": "Nueva Delhi",
          "name:grc": "\u039d\u03b5\u03bf\u03b4\u03b5\u03bb\u03af\u03c2",
          "name:hi": "\u0928\u0908 \u0926\u093f\u0932\u094d\u0932\u0940",
          "name:hy": "\u0546\u0575\u0578\u0582 \u0534\u0565\u056c\u056b",
          "name:hyw": "\u0546\u056b\u0582 \u054f\u0565\u056c\u0570\u056b",
          "name:ks": "\u0646\u0654\u0648 \u062f\u0644\u06be\u06cc",
          "name:ml": "\u0d28\u0d4d\u0d2f\u0d42 \u0d21\u0d46\u0d7d\u0d39\u0d3f",
          "name:pa": "\u0a28\u0a35\u0a40\u0a02 \u0a26\u0a3f\u0a71\u0a32\u0a40",
          "name:ug": "\u064a\u06d0\u06ad\u0649 \u062f\u06d0\u06be\u0644\u0649",
          "name:ur": "\u0646\u0626\u06cc \u062f\u06c1\u0644\u06cc",
          "network": "Delhi Metro",
          "note": "Contributors are requested to not edit the \"network\" and the \"operator\" tags. (2023/06/22)",
          "operator": "Delhi Metro Rail Corporation Limited",
          "public_transport": "station",
          "railway": "station",
          "ref": "NDLS",
          "station": "subway",
          "subway": "yes",
          "wikidata": "Q3634456",
          "wikipedia": "en:New Delhi metro station"
        }
      },
      {
        "type": "node",
        "id": 928558280,
        "lat": 28.6350924,
        "lon": 77.2196937,
        "tags": {
          "amenity": "cinema",
          "brand": "PVR Cinemas",
          "brand:wikidata": "Q3359908",
          "name": "PVR Plaza Cinema",
          "short_name": "PVR",
          "wheelchair": "limited"
        }
      },
      {
        "type": "node",
        "id": 938372433,
        "lat": 28.6425708,
        "lon": 77.2211342,
        "tags": {
          "alt_name:ar": "\u0646\u064a\u0648\u062f\u0644\u0647\u064a",
          "alt_name:ks": "\u0646\u0654\u0648 \u062f\u0650\u0644",
          "alt_name:ur": "\u0646\u0626\u06cc \u062f\u0644\u06cc",
          "name": "New Delhi",
          "name:ar": "\u062f\u0644\u0647\u064a \u0627\u0644\u062c\u062f\u064a\u062f\u0629",
          "name:az-Arab": "\u06cc\u0626\u0646\u06cc \u062f\u0647\u0644\u06cc",
          "name:azb": "\u06cc\u0626\u0646\u06cc \u062f\u0647\u0644\u06cc",
          "name:de": "Neu-Delhi",
          "name:el": "\u039d\u03ad\u03bf \u0394\u03b5\u03bb\u03c7\u03af",
          "name:es": "Nueva Delhi",
          "name:grc": "\u039d\u03b5\u03bf\u03b4\u03b5\u03bb\u03af\u03c2",
          "name:hy": "\u0546\u0575\u0578\u0582 \u0534\u0565\u056c\u056b",
          "name:hyw": "\u0546\u056b\u0582 \u054f\u0565\u056c\u0570\u056b",
          "name:ks": "\u0646\u0654\u0648 \u062f\u0644\u06be\u06cc",
          "name:pa": "\u0a28\u0a35\u0a40\u0a02 \u0a26\u0a3f\u0a71\u0a32\u0a40",
          "name:ug": "\u064a\u06d0\u06ad\u0649 \u062f\u06d0\u06be\u0644\u0649",
          "name:ur": "\u0646\u0626\u06cc \u062f\u06c1\u0644\u06cc",
          "public_transport": "stop_position",
          "railway": "stop",
          "ref": "NDLS:14",
          "train": "yes"
        }
      },
      {
        "type": "node",
        "id": 938372444,
        "lat": 28.6424872,
        "lon": 77.2203479,
        "tags": {
          "alt_name:ar": "\u0646\u064a\u0648\u062f\u0644\u0647\u064a",
          "alt_name:ks": "\u0646\u0654\u0648 \u062f\u0650\u0644",
          "alt_name:ur": "\u0646\u0626\u06cc \u062f\u0644\u06cc",
          "name": "New Delhi",
          "name:ar": "\u062f\u0644\u0647\u064a \u0627\u0644\u062c\u062f\u064a\u062f\u0629",
          "name:az-Arab": "\u06cc\u0626\u0646\u06cc \u062f\u0647\u0644\u06cc",
          "name:azb": "\u06cc\u0626\u0646\u06cc \u062f\u0647\u0644\u06cc",
          "name:de": "Neu-Delhi",
          "name:el": "\u039d\u03ad\u03bf \u0394\u03b5\u03bb\u03c7\u03af",
          "name:es": "Nueva Delhi",
          "name:grc": "\u039d\u03b5\u03bf\u03b4\u03b5\u03bb\u03af\u03c2",
          "name:hy": "\u0546\u0575\u0578\u0582 \u0534\u0565\u056c\u056b",
          "name:hyw": "\u0546\u056b\u0582 \u054f\u0565\u056c\u0570\u056b",
          "name:ks": "\u0646\u0654\u0648 \u062f\u0644\u06be\u06cc",
          "name:pa": "\u0a28\u0a35\u0a40\u0a02 \u0a26\u0a3f\u0a71\u0a32\u0a40",
          "name:ug": "\u064a\u06d0\u06ad\u0649 \u062f\u06d0\u06be\u0644\u0649",
          "name:ur": "\u0646\u0626\u06cc \u062f\u06c1\u0644\u06cc",
          "public_transport": "stop_position",
          "railway": "stop",
          "ref": "NDLS:7",
          "train": "yes"
        }
      },
      {
        "type": "node",
        "id": 938372462,
        "lat": 28.6424665,
        "lon": 77.2202063,
        "tags": {
          "alt_name:ar": "\u0646\u064a\u0648\u062f\u0644\u0647\u064a",
          "alt_name:ks": "\u0646\u0654\u0648 \u062f\u0650\u0644",
          "alt_name:ur": "\u0646\u0626\u06cc \u062f\u0644\u06cc",
          "name": "New Delhi",
          "name:ar": "\u062f\u0644\u0647\u064a \u0627\u0644\u062c\u062f\u064a\u062f\u0629",
          "name:az-Arab": "\u06cc\u0626\u0646\u06cc \u062f\u0647\u0644\u06cc",
          "name:azb": "\u06cc\u0626\u0646\u06cc \u062f\u0647\u0644\u06cc",
          "name:de": "Neu-Delhi",
          "name:el": "\u039d\u03ad\u03bf \u0394\u03b5\u03bb\u03c7\u03af",
          "name:es": "Nueva Delhi",
          "name:grc": "\u039d\u03b5\u03bf\u03b4\u03b5\u03bb\u03af\u03c2",
          "name:hy": "\u0546\u0575\u0578\u0582 \u0534\u0565\u056c\u056b",
          "name:hyw": "\u0546\u056b\u0582 \u054f\u0565\u056c\u0570\u056b",
          "name:ks": "\u0646\u0654\u0648 \u062f\u0644\u06be\u06cc",
          "name:pa": "\u0a28\u0a35\u0a40\u0a02 \u0a26\u0a3f\u0a71\u0a32\u0a40",
          "name:ug": "\u064a\u06d0\u06ad\u0649 \u062f\u06d0\u06be\u0644\u0649",
          "name:ur": "\u0646\u0626\u06cc \u062f\u06c1\u0644\u06cc",
          "public_transport": "stop_position",
          "railway": "stop",
          "ref": "NDLS:6",
          "train": "yes"
        }
      },
      {
        "type": "node",
        "id": 938372468,
        "lat": 28.6425562,
        "lon": 77.2210249,
        "tags": {
          "alt_name:ar": "\u0646\u064a\u0648\u062f\u0644\u0647\u064a",
          "alt_name:ks": "\u0646\u0654\u0648 \u062f\u0650\u0644",
          "alt_name:ur": "\u0646\u0626\u06cc \u062f\u0644\u06cc",
          "name": "New Delhi",
          "name:ar": "\u062f\u0644\u0647\u064a \u0627\u0644\u062c\u062f\u064a\u062f\u0629",
          "name:az-Arab": "\u06cc\u0626\u0646\u06cc \u062f\u0647\u0644\u06cc",
          "name:azb": "\u06cc\u0626\u0646\u06cc \u062f\u0647\u0644\u06cc",
          "name:de": "Neu-Delhi",
          "name:el": "\u039d\u03ad\u03bf \u0394\u03b5\u03bb\u03c7\u03af",
          "name:es": "Nueva Delhi",
          "name:grc": "\u039d\u03b5\u03bf\u03b4\u03b5\u03bb\u03af\u03c2",
          "name:hy": "\u0546\u0575\u0578\u0582 \u0534\u0565\u056c\u056b",
          "name:hyw": "\u0546\u056b\u0582 \u054f\u0565\u056c\u0570\u056b",
          "name:ks": "\u0646\u0654\u0648 \u062f\u0644\u06be\u06cc",
          "name:pa": "\u0a28\u0a35\u0a40\u0a02 \u0a26\u0a3f\u0a71\u0a32\u0a40",
          "name:ug": "\u064a\u06d0\u06ad\u0649 \u062f\u06d0\u06be\u0644\u0649",
          "name:ur": "\u0646\u0626\u06cc \u062f\u06c1\u0644\u06cc",
          "public_transport": "stop_position",
          "railway": "stop",
          "ref": "NDLS:13",
          "train": "yes"
        }
      },
      {
        "type": "node",
        "id": 938372479,
        "lat": 28.642519,
        "lon": 77.2206742,
        "tags": {
          "alt_name:ar": "\u0646\u064a\u0648\u062f\u0644\u0647\u064a",
          "alt_name:ks": "\u0646\u0654\u0648 \u062f\u0650\u0644",
          "alt_name:ur": "\u0646\u0626\u06cc \u062f\u0644\u06cc",
          "name": "New Delhi",
          "name:ar": "\u062f\u0644\u0647\u064a \u0627\u0644\u062c\u062f\u064a\u062f\u0629",
          "name:az-Arab": "\u06cc\u0626\u0646\u06cc \u062f\u0647\u0644\u06cc",
          "name:azb": "\u06cc\u0626\u0646\u06cc \u062f\u0647\u0644\u06cc",
          "name:de": "Neu-Delhi",
          "name:el": "\u039d\u03ad\u03bf \u0394\u03b5\u03bb\u03c7\u03af",
          "name:es": "Nueva Delhi",
          "name:grc": "\u039d\u03b5\u03bf\u03b4\u03b5\u03bb\u03af\u03c2",
          "name:hy": "\u0546\u0575\u0578\u0582 \u0534\u0565\u056c\u056b",
          "name:hyw": "\u0546\u056b\u0582 \u054f\u0565\u056c\u0570\u056b",
          "name:ks": "\u0646\u0654\u0648 \u062f\u0644\u06be\u06cc",
          "name:pa": "\u0a28\u0a35\u0a40\u0a02 \u0a26\u0a3f\u0a71\u0a32\u0a40",
          "name:ug": "\u064a\u06d0\u06ad\u0649 \u062f\u06d0\u06be\u0644\u0649",
          "name:ur": "\u0646\u0626\u06cc \u062f\u06c1\u0644\u06cc",
          "public_transport": "stop_position",
          "railway": "stop",
          "ref": "NDLS:10",
          "train": "yes"
        }
      },
      {
        "type": "node",
        "id": 938372497,
        "lat": 28.6424462,
        "lon": 77.2201074,
        "tags": {
          "alt_name:ar": "\u0646\u064a\u0648\u062f\u0644\u0647\u064a",
          "alt_name:ks": "\u0646\u0654\u0648 \u062f\u0650\u0644",
          "alt_name:ur": "\u0646\u0626\u06cc \u062f\u0644\u06cc",
          "name": "New Delhi",
          "name:ar": "\u062f\u0644\u0647\u064a \u0627\u0644\u062c\u062f\u064a\u062f\u0629",
          "name:az-Arab": "\u06cc\u0626\u0646\u06cc \u062f\u0647\u0644\u06cc",
          "name:azb": "\u06cc\u0626\u0646\u06cc \u062f\u0647\u0644\u06cc",
          "name:de": "Neu-Delhi",
          "name:el": "\u039d\u03ad\u03bf \u0394\u03b5\u03bb\u03c7\u03af",
          "name:es": "Nueva Delhi",
          "name:grc": "\u039d\u03b5\u03bf\u03b4\u03b5\u03bb\u03af\u03c2",
          "name:hy": "\u0546\u0575\u0578\u0582 \u0534\u0565\u056c\u056b",
          "name:hyw": "\u0546\u056b\u0582 \u054f\u0565\u056c\u0570\u056b",
          "name:ks": "\u0646\u0654\u0648 \u062f\u0644\u06be\u06cc",
          "name:pa": "\u0a28\u0a35\u0a40\u0a02 \u0a26\u0a3f\u0a71\u0a32\u0a40",
          "name:ug": "\u064a\u06d0\u06ad\u0649 \u062f\u06d0\u06be\u0644\u0649",
          "name:ur": "\u0646\u0626\u06cc \u062f\u06c1\u0644\u06cc",
          "public_transport": "stop_position",
          "railway": "stop",
          "ref": "NDLS:5",
          "train": "yes"
        }
      },
      {
        "type": "node",
        "id": 938372516,
        "lat": 28.6425119,
        "lon": 77.220615,
        "tags": {
          "alt_name:ar": "\u0646\u064a\u0648\u062f\u0644\u0647\u064a",
          "alt_name:ks": "\u0646\u0654\u0648 \u062f\u0650\u0644",
          "alt_name:ur": "\u0646\u0626\u06cc \u062f\u0644\u06cc",
          "name": "New Delhi",
          "name:ar": "\u062f\u0644\u0647\u064a \u0627\u0644\u062c\u062f\u064a\u062f\u0629",
          "name:az-Arab": "\u06cc\u0626\u0646\u06cc \u062f\u0647\u0644\u06cc",
          "name:azb": "\u06cc\u0626\u0646\u06cc \u062f\u0647\u0644\u06cc",
          "name:de": "Neu-Delhi",
          "name:el": "\u039d\u03ad\u03bf \u0394\u03b5\u03bb\u03c7\u03af",
          "name:es": "Nueva Delhi",
          "name:grc": "\u039d\u03b5\u03bf\u03b4\u03b5\u03bb\u03af\u03c2",
          "name:hy": "\u0546\u0575\u0578\u0582 \u0534\u0565\u056c\u056b",
          "name:hyw": "\u0546\u056b\u0582 \u054f\u0565\u056c\u0570\u056b",
          "name:ks": "\u0646\u0654\u0648 \u062f\u0644\u06be\u06cc",
          "name:pa": "\u0a28\u0a35\u0a40\u0a02 \u0a26\u0a3f\u0a71\u0a32\u0a40",
          "name:ug": "\u064a\u06d0\u06ad\u0649 \u062f\u06d0\u06be\u0644\u0649",
          "name:ur": "\u0646\u0626\u06cc \u062f\u06c1\u0644\u06cc",
          "public_transport": "stop_position",
          "railway": "stop",
          "ref": "NDLS:9",
          "train": "yes"
        }
      },
      {
        "type": "node",
        "id": 938372520,
        "lat": 28.6425435,
        "lon": 77.2208925,
        "tags": {
          "alt_name:ar": "\u0646\u064a\u0648\u062f\u0644\u0647\u064a",
          "alt_name:ks": "\u0646\u0654\u0648 \u062f\u0650\u0644",
          "alt_name:ur": "\u0646\u0626\u06cc \u062f\u0644\u06cc",
          "name": "New Delhi",
          "name:ar": "\u062f\u0644\u0647\u064a \u0627\u0644\u062c\u062f\u064a\u062f\u0629",
          "name:az-Arab": "\u06cc\u0626\u0646\u06cc \u062f\u0647\u0644\u06cc",
          "name:azb": "\u06cc\u0626\u0646\u06cc \u062f\u0647\u0644\u06cc",
          "name:de": "Neu-Delhi",
          "name:el": "\u039d\u03ad\u03bf \u0394\u03b5\u03bb\u03c7\u03af",
          "name:es": "Nueva Delhi",
          "name:grc": "\u039d\u03b5\u03bf\u03b4\u03b5\u03bb\u03af\u03c2",
          "name:hy": "\u0546\u0575\u0578\u0582 \u0534\u0565\u056c\u056b",
          "name:hyw": "\u0546\u056b\u0582 \u054f\u0565\u056c\u0570\u056b",
          "name:ks": "\u0646\u0654\u0648 \u062f\u0644\u06be\u06cc",
          "name:pa": "\u0a28\u0a35\u0a40\u0a02 \u0a26\u0a3f\u0a71\u0a32\u0a40",
          "name:ug": "\u064a\u06d0\u06ad\u0649 \u062f\u06d0\u06be\u0644\u0649",
          "name:ur": "\u0646\u0626\u06cc \u062f\u06c1\u0644\u06cc",
          "public_transport": "stop_position",
          "railway": "stop",
          "ref": "NDLS:12",
          "train": "yes"
        }
      },
      {
        "type": "node",
        "id": 938372538,
        "lat": 28.6425995,
        "lon": 77.2213817,
        "tags": {
          "alt_name:ar": "\u0646\u064a\u0648\u062f\u0644\u0647\u064a",
          "alt_name:ks": "\u0646\u0654\u0648 \u062f\u0650\u0644",
          "alt_name:ur": "\u0646\u0626\u06cc \u062f\u0644\u06cc",
          "name": "New Delhi",
          "name:ar": "\u062f\u0644\u0647\u064a \u0627\u0644\u062c\u062f\u064a\u062f\u0629",
          "name:az-Arab": "\u06cc\u0626\u0646\u06cc \u062f\u0647\u0644\u06cc",
          "name:azb": "\u06cc\u0626\u0646\u06cc \u062f\u0647\u0644\u06cc",
          "name:de": "Neu-Delhi",
          "name:el": "\u039d\u03ad\u03bf \u0394\u03b5\u03bb\u03c7\u03af",
          "name:es": "Nueva Delhi",
          "name:grc": "\u039d\u03b5\u03bf\u03b4\u03b5\u03bb\u03af\u03c2",
          "name:hy": "\u0546\u0575\u0578\u0582 \u0534\u0565\u056c\u056b",
          "name:hyw": "\u0546\u056b\u0582 \u054f\u0565\u056c\u0570\u056b",
          "name:ks": "\u0646\u0654\u0648 \u062f\u0644\u06be\u06cc",
          "name:pa": "\u0a28\u0a35\u0a40\u0a02 \u0a26\u0a3f\u0a71\u0a32\u0a40",
          "name:ug": "\u064a\u06d0\u06ad\u0649 \u062f\u06d0\u06be\u0644\u0649",
          "name:ur": "\u0646\u0626\u06cc \u062f\u06c1\u0644\u06cc",
          "public_transport": "stop_position",
          "railway": "stop",
          "ref": "NDLS:16",
          "train": "yes"
        }
      },
      {
        "type": "node",
        "id": 938372549,
        "lat": 28.6423739,
        "lon": 77.2197333,
        "tags": {
          "alt_name:ar": "\u0646\u064a\u0648\u062f\u0644\u0647\u064a",
          "alt_name:ks": "\u0646\u0654\u0648 \u062f\u0650\u0644",
          "alt_name:ur": "\u0646\u0626\u06cc \u062f\u0644\u06cc",
          "electrified": "contact_line",
          "frequency": "50",
          "name": "New Delhi",
          "name:ar": "\u062f\u0644\u0647\u064a \u0627\u0644\u062c\u062f\u064a\u062f\u0629",
          "name:az-Arab": "\u06cc\u0626\u0646\u06cc \u062f\u0647\u0644\u06cc",
          "name:azb": "\u06cc\u0626\u0646\u06cc \u062f\u0647\u0644\u06cc",
          "name:de": "Neu-Delhi",
          "name:el": "\u039d\u03ad\u03bf \u0394\u03b5\u03bb\u03c7\u03af",
          "name:es": "Nueva Delhi",
          "name:grc": "\u039d\u03b5\u03bf\u03b4\u03b5\u03bb\u03af\u03c2",
          "name:hy": "\u0546\u0575\u0578\u0582 \u0534\u0565\u056c\u056b",
          "name:hyw": "\u0546\u056b\u0582 \u054f\u0565\u056c\u0570\u056b",
          "name:ks": "\u0646\u0654\u0648 \u062f\u0644\u06be\u06cc",
          "name:pa": "\u0a28\u0a35\u0a40\u0a02 \u0a26\u0a3f\u0a71\u0a32\u0a40",
          "name:ug": "\u064a\u06d0\u06ad\u0649 \u062f\u06d0\u06be\u0644\u0649",
          "name:ur": "\u0646\u0626\u06cc \u062f\u06c1\u0644\u06cc",
          "public_transport": "stop_position",
          "railway": "stop",
          "ref": "NDLS:2",
          "train": "yes",
          "usage": "main",
          "voltage": "25000"
        }
      },
      {
        "type": "node",
        "id": 938372552,
        "lat": 28.642417,
        "lon": 77.2199605,
        "tags": {
          "alt_name:ar": "\u0646\u064a\u0648\u062f\u0644\u0647\u064a",
          "alt_name:ks": "\u0646\u0654\u0648 \u062f\u0650\u0644",
          "alt_name:ur": "\u0646\u0626\u06cc \u062f\u0644\u06cc",
          "name": "New Delhi",
          "name:ar": "\u062f\u0644\u0647\u064a \u0627\u0644\u062c\u062f\u064a\u062f\u0629",
          "name:az-Arab": "\u06cc\u0626\u0646\u06cc \u062f\u0647\u0644\u06cc",
          "name:azb": "\u06cc\u0626\u0646\u06cc \u062f\u0647\u0644\u06cc",
          "name:de": "Neu-Delhi",
          "name:el": "\u039d\u03ad\u03bf \u0394\u03b5\u03bb\u03c7\u03af",
          "name:es": "Nueva Delhi",
          "name:grc": "\u039d\u03b5\u03bf\u03b4\u03b5\u03bb\u03af\u03c2",
          "name:hy": "\u0546\u0575\u0578\u0582 \u0534\u0565\u056c\u056b",
          "name:hyw": "\u0546\u056b\u0582 \u054f\u0565\u056c\u0570\u056b",
          "name:ks": "\u0646\u0654\u0648 \u062f\u0644\u06be\u06cc",
          "name:pa": "\u0a28\u0a35\u0a40\u0a02 \u0a26\u0a3f\u0a71\u0a32\u0a40",
          "name:ug": "\u064a\u06d0\u06ad\u0649 \u062f\u06d0\u06be\u0644\u0649",
          "name:ur": "\u0646\u0626\u06cc \u062f\u06c1\u0644\u06cc",
          "public_transport": "stop_position",
          "railway": "stop",
          "ref": "NDLS:4",
          "train": "yes"
        }
      },
      {
        "type": "node",
        "id": 938372557,
        "lat": 28.6425394,
        "lon": 77.2208372,
        "tags": {
          "alt_name:ar": "\u0646\u064a\u0648\u062f\u0644\u0647\u064a",
          "alt_name:ks": "\u0646\u0654\u0648 \u062f\u0650\u0644",
          "alt_name:ur": "\u0646\u0626\u06cc \u062f\u0644\u06cc",
          "name": "New Delhi",
          "name:ar": "\u062f\u0644\u0647\u064a \u0627\u0644\u062c\u062f\u064a\u062f\u0629",
          "name:az-Arab": "\u06cc\u0626\u0646\u06cc \u062f\u0647\u0644\u06cc",
          "name:azb": "\u06cc\u0626\u0646\u06cc \u062f\u0647\u0644\u06cc",
          "name:de": "Neu-Delhi",
          "name:el": "\u039d\u03ad\u03bf \u0394\u03b5\u03bb\u03c7\u03af",
          "name:es": "Nueva Delhi",
          "name:grc": "\u039d\u03b5\u03bf\u03b4\u03b5\u03bb\u03af\u03c2",
          "name:hy": "\u0546\u0575\u0578\u0582 \u0534\u0565\u056c\u056b",
          "name:hyw": "\u0546\u056b\u0582 \u054f\u0565\u056c\u0570\u056b",
          "name:ks": "\u0646\u0654\u0648 \u062f\u0644\u06be\u06cc",
          "name:pa": "\u0a28\u0a35\u0a40\u0a02 \u0a26\u0a3f\u0a71\u0a32\u0a40",
          "name:ug": "\u064a\u06d0\u06ad\u0649 \u062f\u06d0\u06be\u0644\u0649",
          "name:ur": "\u0646\u0626\u06cc \u062f\u06c1\u0644\u06cc",
          "public_transport": "stop_position",
          "railway": "stop",
          "ref": "NDLS:11",
          "train": "yes"
        }
      },
      {
        "type": "node",
        "id": 938372570,
        "lat": 28.642495,
        "lon": 77.220482,
        "tags": {
          "alt_name:ar": "\u0646\u064a\u0648\u062f\u0644\u0647\u064a",
          "alt_name:ks": "\u0646\u0654\u0648 \u062f\u0650\u0644",
          "alt_name:ur": "\u0646\u0626\u06cc \u062f\u0644\u06cc",
          "name": "New Delhi",
          "name:ar": "\u062f\u0644\u0647\u064a \u0627\u0644\u062c\u062f\u064a\u062f\u0629",
          "name:az-Arab": "\u06cc\u0626\u0646\u06cc \u062f\u0647\u0644\u06cc",
          "name:azb": "\u06cc\u0626\u0646\u06cc \u062f\u0647\u0644\u06cc",
          "name:de": "Neu-Delhi",
          "name:el": "\u039d\u03ad\u03bf \u0394\u03b5\u03bb\u03c7\u03af",
          "name:es": "Nueva Delhi",
          "name:grc": "\u039d\u03b5\u03bf\u03b4\u03b5\u03bb\u03af\u03c2",
          "name:hy": "\u0546\u0575\u0578\u0582 \u0534\u0565\u056c\u056b",
          "name:hyw": "\u0546\u056b\u0582 \u054f\u0565\u056c\u0570\u056b",
          "name:ks": "\u0646\u0654\u0648 \u062f\u0644\u06be\u06cc",
          "name:pa": "\u0a28\u0a35\u0a40\u0a02 \u0a26\u0a3f\u0a71\u0a32\u0a40",
          "name:ug": "\u064a\u06d0\u06ad\u0649 \u062f\u06d0\u06be\u0644\u0649",
          "name:ur": "\u0646\u0626\u06cc \u062f\u06c1\u0644\u06cc",
          "public_transport": "stop_position",
          "railway": "stop",
          "ref": "NDLS:8",
          "train": "yes"
        }
      },
      {
        "type": "node",
        "id": 938372576,
        "lat": 28.6425934,
        "lon": 77.2213173,
        "tags": {
          "alt_name:ar": "\u0646\u064a\u0648\u062f\u0644\u0647\u064a",
          "alt_name:ks": "\u0646\u0654\u0648 \u062f\u0650\u0644",
          "alt_name:ur": "\u0646\u0626\u06cc \u062f\u0644\u06cc",
          "name": "New Delhi",
          "name:ar": "\u062f\u0644\u0647\u064a \u0627\u0644\u062c\u062f\u064a\u062f\u0629",
          "name:az-Arab": "\u06cc\u0626\u0646\u06cc \u062f\u0647\u0644\u06cc",
          "name:azb": "\u06cc\u0626\u0646\u06cc \u062f\u0647\u0644\u06cc",
          "name:de": "Neu-Delhi",
          "name:el": "\u039d\u03ad\u03bf \u0394\u03b5\u03bb\u03c7\u03af",
          "name:es": "Nueva Delhi",
          "name:grc": "\u039d\u03b5\u03bf\u03b4\u03b5\u03bb\u03af\u03c2",
          "name:hy": "\u0546\u0575\u0578\u0582 \u0534\u0565\u056c\u056b",
          "name:hyw": "\u0546\u056b\u0582 \u054f\u0565\u056c\u0570\u056b",
          "name:ks": "\u0646\u0654\u0648 \u062f\u0644\u06be\u06cc",
          "name:pa": "\u0a28\u0a35\u0a40\u0a02 \u0a26\u0a3f\u0a71\u0a32\u0a40",
          "name:ug": "\u064a\u06d0\u06ad\u0649 \u062f\u06d0\u06be\u0644\u0649",
          "name:ur": "\u0646\u0626\u06cc \u062f\u06c1\u0644\u06cc",
          "public_transport": "stop_position",
          "railway": "stop",
          "ref": "NDLS:15",
          "train": "yes"
        }
      },
      {
        "type": "node",
        "id": 938372581,
        "lat": 28.6423596,
        "lon": 77.2196366,
        "tags": {
          "alt_name:ar": "\u0646\u064a\u0648\u062f\u0644\u0647\u064a",
          "alt_name:ks": "\u0646\u0654\u0648 \u062f\u0650\u0644",
          "alt_name:ur": "\u0646\u0626\u06cc \u062f\u0644\u06cc",
          "name": "New Delhi",
          "name:ar": "\u062f\u0644\u0647\u064a \u0627\u0644\u062c\u062f\u064a\u062f\u0629",
          "name:az-Arab": "\u06cc\u0626\u0646\u06cc \u062f\u0647\u0644\u06cc",
          "name:azb": "\u06cc\u0626\u0646\u06cc \u062f\u0647\u0644\u06cc",
          "name:de": "Neu-Delhi",
          "name:el": "\u039d\u03ad\u03bf \u0394\u03b5\u03bb\u03c7\u03af",
          "name:es": "Nueva Delhi",
          "name:grc": "\u039d\u03b5\u03bf\u03b4\u03b5\u03bb\u03af\u03c2",
          "name:hy": "\u0546\u0575\u0578\u0582 \u0534\u0565\u056c\u056b",
          "name:hyw": "\u0546\u056b\u0582 \u054f\u0565\u056c\u0570\u056b",
          "name:ks": "\u0646\u0654\u0648 \u062f\u0644\u06be\u06cc",
          "name:pa": "\u0a28\u0a35\u0a40\u0a02 \u0a26\u0a3f\u0a71\u0a32\u0a40",
          "name:ug": "\u064a\u06d0\u06ad\u0649 \u062f\u06d0\u06be\u0644\u0649",
          "name:ur": "\u0646\u0626\u06cc \u062f\u06c1\u0644\u06cc",
          "public_transport": "stop_position",
          "railway": "stop",
          "ref": "NDLS:1",
          "train": "yes"
        }
      },
      {
        "type": "node",
        "id": 938372585,
        "lat": 28.6424082,
        "lon": 77.2199116,
        "tags": {
          "alt_name:ar": "\u0646\u064a\u0648\u062f\u0644\u0647\u064a",
          "alt_name:ks": "\u0646\u0654\u0648 \u062f\u0650\u0644",
          "alt_name:ur": "\u0646\u0626\u06cc \u062f\u0644\u06cc",
          "name": "New Delhi",
          "name:ar": "\u062f\u0644\u0647\u064a \u0627\u0644\u062c\u062f\u064a\u062f\u0629",
          "name:az-Arab": "\u06cc\u0626\u0646\u06cc \u062f\u0647\u0644\u06cc",
          "name:azb": "\u06cc\u0626\u0646\u06cc \u062f\u0647\u0644\u06cc",
          "name:de": "Neu-Delhi",
          "name:el": "\u039d\u03ad\u03bf \u0394\u03b5\u03bb\u03c7\u03af",
          "name:es": "Nueva Delhi",
          "name:grc": "\u039d\u03b5\u03bf\u03b4\u03b5\u03bb\u03af\u03c2",
          "name:hy": "\u0546\u0575\u0578\u0582 \u0534\u0565\u056c\u056b",
          "name:hyw": "\u0546\u056b\u0582 \u054f\u0565\u056c\u0570\u056b",
          "name:ks": "\u0646\u0654\u0648 \u062f\u0644\u06be\u06cc",
          "name:pa": "\u0a28\u0a35\u0a40\u0a02 \u0a26\u0a3f\u0a71\u0a32\u0a40",
          "name:ug": "\u064a\u06d0\u06ad\u0649 \u062f\u06d0\u06be\u0644\u0649",
          "name:ur": "\u0646\u0626\u06cc \u062f\u06c1\u0644\u06cc",
          "public_transport": "stop_position",
          "railway": "stop",
          "ref": "NDLS:3",
          "train": "yes"
        }
      },
      {
        "type": "node",
        "id": 938409458,
        "lat": 28.6430709,
        "lon": 77.2237077,
        "tags": {
          "bus": "yes",
          "name": "New Delhi Railway Station Gate Number 2",
          "public_transport": "stop_position"
        }
      },
      {
        "type": "node",
        "id": 938409545,
        "lat": 28.6424786,
        "lon": 77.2231116,
        "tags": {
          "name": "New Delhi Airport Express Terminal",
          "name:hi": "\u0928\u0908 \u0926\u093f\u0932\u094d\u0932\u0940 \u090f\u092f\u0930\u092a\u094b\u0930\u094d\u091f \u090f\u0915\u094d\u0938\u092a\u094d\u0930\u0947\u0938 \u091f\u0930\u094d\u092e\u093f\u0928\u0932",
          "network": "Delhi Metro",
          "network:wikidata": "Q271195",
          "note": "Contributors are requested to not edit the \"network\" and the \"operator\" tags. (2023/06/22)",
          "operator": "Delhi Metro Rail Corporation Limited",
          "operator:wikidata": "Q1029339",
          "public_transport": "station",
          "railway": "station",
          "ref": "NDI",
          "station": "subway",
          "subway": "yes",
          "wikidata": "Q3634456",
          "wikipedia": "en:New Delhi metro station"
        }
      },
      {
        "type": "node",
        "id": 939091076,
        "lat": 28.6327591,
        "lon": 77.2196877,
        "tags": {
          "name": "Rajiv Chowk",
          "name:hi": "\u0930\u093e\u091c\u0940\u0935 \u091a\u094c\u0915",
          "name:kn": "\u0cb0\u0cbe\u0c9c\u0cc0\u0cb5\u0ccd \u0c9a\u0ccc\u0c95\u0ccd",
          "network": "Delhi Metro",
          "note": "Contributors are requested to not edit the \"network\" and the \"operator\" tags. (2023/06/22)",
          "operator": "Delhi Metro Rail Corporation Limited",
          "public_transport": "stop_position",
          "railway": "stop",
          "ref": "RCK",
          "subway": "yes"
        }
      },
      {
        "type": "node",
        "id": 974361599,
        "lat": 28.6411555,
        "lon": 77.2108258,
        "tags": {
          "amenity": "cinema",
          "name": "Imperial"
        }
      },
      {
        "type": "node",
        "id": 1665772897,
        "lat": 28.6158726,
        "lon": 77.2123897,
        "tags": {
          "name": "Central Secretariat",
          "name:hi": "\u0915\u0947\u0902\u0926\u094d\u0930\u0940\u092f \u0938\u091a\u093f\u0935\u093e\u0932\u092f",
          "name:kn": "\u0cb8\u0cc6\u0c82\u0c9f\u0ccd\u0cb0\u0cb2\u0ccd \u0cb8\u0cc6\u0c95\u0ccd\u0cb0\u0cc6\u0c9f\u0cb0\u0cbf\u0cb8\u0ccd\u0c9f\u0ccd",
          "network": "Delhi Metro",
          "note": "Contributors are requested to not edit the \"network\" and the \"operator\" tags. (2023/06/22)",
          "operator": "Delhi Metro Rail Corporation Limited",
          "public_transport": "stop_position",
          "railway": "stop",
          "ref": "CTST",
          "subway": "yes",
          "wikidata": "Q5061812"
        }
      },
      {
        "type": "node",
        "id": 1988513598,
        "lat": 28.6334521,
        "lon": 77.2266682,
        "tags": {
          "internet_access": "no",
          "name": "Shivaji Bridge",
          "name:hi": "\u0936\u093f\u0935\u093e\u091c\u0940 \u092a\u0941\u0932",
          "name:ur": "\u0634\u06cc\u0648\u0627 \u062c\u06cc \u0628\u0631\u062c",
          "network": "IR",
          "operator": "NR",
          "public_transport": "station",
          "railway": "station",
          "ref": "CSB",
          "train": "yes",
          "wheelchair": "yes",
          "wikidata": "Q24948842",
          "wikipedia": "en:Shivaji Bridge railway station"
        }
      },
      {
        "type": "node",
        "id": 1988668271,
        "lat": 28.6240472,
        "lon": 77.2192877,
        "tags": {
          "name": "Janpath",
          "name:hi": "\u091c\u0928\u092a\u0925",
          "name:kn": "\u0c9c\u0ca8\u0ccd\u0caa\u0ca4\u0ccd",
          "network": "Delhi Metro",
          "note": "Contributors are requested to not edit the \"network\" and the \"operator\" tags. (2023/06/22)",
          "operator": "Delhi Metro Rail Corporation Limited",
          "public_transport": "stop_position",
          "railway": "stop",
          "ref": "JNPH",
          "subway": "yes"
        }
      },
      {
        "type": "node",
        "id": 2654011278,
        "lat": 28.6337158,
        "lon": 77.2178321,
        "tags": {
          "addr:city": "New Delhi",
          "addr:housenumber": "A 23",
          "addr:postcode": "110001",
          "addr:street": "Connaught Circus (Indira Chowk), Connaught Place",
          "amenity": "fuel",
          "brand": "Indian Oil",
          "brand:wikidata": "Q1289348",
          "brand:wikipedia": "en:Indian Oil Corporation",
          "name": "Indian Oil Petrol Pump"
        }
      },
      {
        "type": "node",
        "id": 3744502772,
        "lat": 28.6304632,
        "lon": 77.2238139,
        "tags": {
          "bus": "yes",
          "public_transport": "stop_position"
        }
      },
      {
        "type": "node",
        "id": 4122590190,
        "lat": 28.6288906,
        "lon": 77.210219,
        "tags": {
          "amenity": "fuel",
          "brand": "Bharat Petroleum",
          "brand:wikidata": "Q854826",
          "name": "Bharat Petroleum"
        }
      },
      {
        "type": "node",
        "id": 4543453289,
        "lat": 28.6306708,
        "lon": 77.2169833,
        "tags": {
          "addr:city": "New Delhi",
          "amenity": "cinema",
          "name:en": "Regal Cinema",
          "name:ru": "\u0420\u0435\u0433\u0430\u043b \u0441\u0438\u043d\u0435\u043c\u0430"
        }
      },
      {
        "type": "node",
        "id": 5193360429,
        "lat": 28.6318815,
        "lon": 77.2215358,
        "tags": {
          "addr:housenumber": "24",
          "addr:place": "Connaught Place",
          "amenity": "fuel",
          "brand": "Hindustan Petroleum",
          "brand:wikidata": "Q1619375",
          "check_date": "2024-06-02",
          "compressed_air": "yes",
          "name": "Hindustan Petroleum",
          "official_name": "Hindustan Petroleum"
        }
      },
      {
        "type": "node",
        "id": 5338584665,
        "lat": 28.6259776,
        "lon": 77.2032745,
        "tags": {
          "amenity": "theatre",
          "name": "Akshara",
          "name:hi": "\u0905\u0915\u094d\u0937\u0930"
        }
      },
      {
        "type": "node",
        "id": 5345530305,
        "lat": 28.624526,
        "lon": 77.2188215,
        "tags": {
          "amenity": "fuel",
          "brand": "Bharat Petroleum",
          "brand:wikidata": "Q854826",
          "name": "Bharat Petroleum"
        }
      },
      {
        "type": "node",
        "id": 5345531969,
        "lat": 28.6264672,
        "lon": 77.2199591,
        "tags": {
          "amenity": "fuel",
          "brand": "Indian Oil",
          "brand:wikidata": "Q1289348",
          "name": "Indian Oil"
        }
      },
      {
        "type": "node",
        "id": 5453621429,
        "lat": 28.6327423,
        "lon": 77.2194242,
        "tags": {
          "name": "Rajiv Chowk",
          "name:hi": "\u0930\u093e\u091c\u0940\u0935 \u091a\u094c\u0915",
          "name:kn": "\u0cb0\u0cbe\u0c9c\u0cc0\u0cb5\u0ccd \u0c9a\u0ccc\u0c95\u0ccd",
          "network": "Delhi Metro",
          "note": "Contributors are requested to not edit the \"network\" and the \"operator\" tags. (2023/06/22)",
          "operator": "Delhi Metro Rail Corporation Limited",
          "public_transport": "stop_position",
          "railway": "stop",
          "ref": "RCK",
          "subway": "yes"
        }
      },
      {
        "type": "node",
        "id": 5453646586,
        "lat": 28.6158794,
        "lon": 77.2122822,
        "tags": {
          "name": "Central Secretariat",
          "name:hi": "\u0938\u0947\u0902\u091f\u094d\u0930\u0932 \u0938\u0947\u0915\u094d\u0930\u0947\u091f\u0947\u0930\u093f\u090f\u091f",
          "name:kn": "\u0cb8\u0cc6\u0c82\u0c9f\u0ccd\u0cb0\u0cb2\u0ccd \u0cb8\u0cc6\u0c95\u0ccd\u0cb0\u0cc6\u0c9f\u0cb0\u0cbf\u0cb8\u0ccd\u0c9f\u0ccd",
          "network": "Delhi Metro",
          "network:wikidata": "Q271195",
          "note": "Contributors are requested to not edit the \"network\" and the \"operator\" tags. (2023/06/22)",
          "operator": "Delhi Metro Rail Corporation Limited",
          "operator:wikidata": "Q1029339",
          "public_transport": "station",
          "railway": "station",
          "ref": "CTST",
          "station": "subway",
          "subway": "yes",
          "train": "yes",
          "wikidata": "Q5061812",
          "wikipedia": "en:Central Secretariat metro station"
        }
      },
      {
        "type": "node",
        "id": 5483954444,
        "lat": 28.6173486,
        "lon": 77.2038762,
        "tags": {
          "bus": "yes",
          "name": "Kendriya Terminal",
          "public_transport": "stop_position"
        }
      },
      {
        "type": "node",
        "id": 5537643921,
        "lat": 28.6483622,
        "lon": 77.213419,
        "tags": {
          "amenity": "fuel"
        }
      },
      {
        "type": "node",
        "id": 5561975423,
        "lat": 28.617422,
        "lon": 77.2038794,
        "tags": {
          "bus": "yes",
          "name": "Kendriya Terminal",
          "public_transport": "stop_position"
        }
      },
      {
        "type": "node",
        "id": 5637100896,
        "lat": 28.6415227,
        "lon": 77.2258674,
        "tags": {
          "amenity": "fuel",
          "brand": "Bharat Petroleum",
          "brand:wikidata": "Q854826",
          "name": "Bharat Petroleum"
        }
      },
      {
        "type": "node",
        "id": 5638613753,
        "lat": 28.6444395,
        "lon": 77.1987994,
        "tags": {
          "amenity": "fuel"
        }
      },
      {
        "type": "node",
        "id": 5638613754,
        "lat": 28.6450079,
        "lon": 77.1989094,
        "tags": {
          "amenity": "fuel"
        }
      },
      {
        "type": "node",
        "id": 5690505425,
        "lat": 28.6233298,
        "lon": 77.2184168,
        "tags": {
          "amenity": "bus_station",
          "bus": "yes",
          "name": "Western Court Bus Terminus",
          "public_transport": "station"
        }
      },
      {
        "type": "node",
        "id": 5737166761,
        "lat": 28.6288795,
        "lon": 77.211331,
        "tags": {
          "name": "Shivaji Stadium",
          "network": "Delhi Metro",
          "network:wikidata": "Q271195",
          "note": "Contributors are requested to not edit the \"network\" and the \"operator\" tags. (2023/06/22)",
          "operator": "Delhi Metro Rail Corporation Limited",
          "operator:wikidata": "Q1029339",
          "public_transport": "stop_position",
          "railway": "stop",
          "ref": "SJSU",
          "subway": "yes"
        }
      },
      {
        "type": "node",
        "id": 5737167170,
        "lat": 28.6424706,
        "lon": 77.2231333,
        "tags": {
          "name": "New Delhi Airport Express Terminal",
          "name:hi": "\u0928\u0908 \u0926\u093f\u0932\u094d\u0932\u0940 \u090f\u092f\u0930\u092a\u094b\u0930\u094d\u091f \u090f\u0915\u094d\u0938\u092a\u094d\u0930\u0947\u0938 \u091f\u0930\u094d\u092e\u093f\u0928\u0932",
          "network": "Delhi Metro",
          "network:wikidata": "Q271195",
          "note": "Contributors are requested to not edit the \"network\" and the \"operator\" tags. (2023/06/22)",
          "operator": "Delhi Metro Rail Corporation Limited",
          "operator:wikidata": "Q1029339",
          "public_transport": "stop_position",
          "railway": "stop",
          "ref": "NDI",
          "subway": "yes"
        }
      },
      {
        "type": "node",
        "id": 5737167209,
        "lat": 28.6297873,
        "lon": 77.2250214,
        "tags": {
          "name": "Barakhambha Road",
          "network": "Delhi Metro",
          "note": "Contributors are requested to not edit the \"network\" and the \"operator\" tags. (2023/06/22)",
          "operator": "Delhi Metro Rail Corporation Limited",
          "public_transport": "stop_position",
          "railway": "stop",
          "subway": "yes"
        }
      },
      {
        "type": "node",
        "id": 5737167211,
        "lat": 28.6392594,
        "lon": 77.2085944,
        "tags": {
          "name": "Ramakrishna Ashram Marg",
          "network": "Delhi Metro",
          "note": "Contributors are requested to not edit the \"network\" and the \"operator\" tags. (2023/06/22)",
          "operator": "Delhi Metro Rail Corporation Limited",
          "public_transport": "stop_position",
          "railway": "stop",
          "subway": "yes"
        }
      },
      {
        "type": "node",
        "id": 5737167621,
        "lat": 28.6443363,
        "lon": 77.1999274,
        "tags": {
          "name": "Jhandewalan",
          "name:kn": "\u0c9d\u0cbe\u0c82\u0ca1\u0cc6\u0cb5\u0cbe\u0cb2\u0ca8\u0ccd",
          "network": "Delhi Metro",
          "note": "Contributors are requested to not edit the \"network\" and the \"operator\" tags. (2023/06/22)",
          "operator": "Delhi Metro Rail Corporation Limited",
          "public_transport": "stop_position",
          "railway": "stop",
          "subway": "yes"
        }
      },
      {
        "type": "node",
        "id": 5737167627,
        "lat": 28.6440313,
        "lon": 77.1885202,
        "tags": {
          "name": "Karol Bagh",
          "name:hi": "\u0915\u0930\u094b\u0932 \u092c\u093e\u0917",
          "name:kn": "\u0c95\u0cb0\u0ccb\u0cb2\u0ccd \u0cad\u0cbe\u0c97\u0ccd",
          "network": "Delhi Metro",
          "note": "Contributors are requested to not edit the \"network\" and the \"operator\" tags. (2023/06/22)",
          "operator": "Delhi Metro Rail Corporation Limited",
          "public_transport": "stop_position",
          "railway": "stop",
          "subway": "yes"
        }
      },
      {
        "type": "node",
        "id": 5777602002,
        "lat": 28.6229815,
        "lon": 77.2140067,
        "tags": {
          "name": "Patel Chowk",
          "network": "Delhi Metro",
          "note": "Contributors are requested to not edit the \"network\" and the \"operator\" tags. (2023/06/22)",
          "operator": "Delhi Metro Rail Corporation Limited",
          "public_transport": "stop_position",
          "railway": "stop",
          "ref": "PTCK",
          "subway": "yes"
        }
      },
      {
        "type": "node",
        "id": 5777602007,
        "lat": 28.615882,
        "lon": 77.212252,
        "tags": {
          "name": "Central Secretariat",
          "name:kn": "\u0cb8\u0cc6\u0c82\u0c9f\u0ccd\u0cb0\u0cb2\u0ccd \u0cb8\u0cc6\u0c95\u0ccd\u0cb0\u0cc6\u0c9f\u0cb0\u0cbf\u0cb8\u0ccd\u0c9f\u0ccd",
          "network": "Delhi Metro",
          "note": "Contributors are requested to not edit the \"network\" and the \"operator\" tags. (2023/06/22)",
          "operator": "Delhi Metro Rail Corporation Limited",
          "public_transport": "stop_position",
          "railway": "stop",
          "ref": "CTST",
          "subway": "yes"
        }
      },
      {
        "type": "node",
        "id": 5777602008,
        "lat": 28.6095152,
        "lon": 77.2117641,
        "tags": {
          "name": "Udyog Bhavan",
          "network": "Delhi Metro",
          "note": "Contributors are requested to not edit the \"network\" and the \"operator\" tags. (2023/06/22)",
          "operator": "Delhi Metro Rail Corporation Limited",
          "public_transport": "stop_position",
          "railway": "stop",
          "ref": "UDB",
          "subway": "yes"
        }
      },
      {
        "type": "node",
        "id": 5777602033,
        "lat": 28.6434908,
        "lon": 77.2227137,
        "tags": {
          "alt_name:ar": "\u0646\u064a\u0648\u062f\u0644\u0647\u064a",
          "alt_name:ks": "\u0646\u0654\u0648 \u062f\u0650\u0644",
          "alt_name:ur": "\u0646\u0626\u06cc \u062f\u0644\u06cc",
          "name": "New Delhi",
          "name:ar": "\u062f\u0644\u0647\u064a \u0627\u0644\u062c\u062f\u064a\u062f\u0629",
          "name:az-Arab": "\u06cc\u0626\u0646\u06cc \u062f\u0647\u0644\u06cc",
          "name:azb": "\u06cc\u0626\u0646\u06cc \u062f\u0647\u0644\u06cc",
          "name:de": "Neu-Delhi",
          "name:el": "\u039d\u03ad\u03bf \u0394\u03b5\u03bb\u03c7\u03af",
          "name:es": "Nueva Delhi",
          "name:grc": "\u039d\u03b5\u03bf\u03b4\u03b5\u03bb\u03af\u03c2",
          "name:hi": "\u0928\u0908 \u0926\u093f\u0932\u094d\u0932\u0940",
          "name:hy": "\u0546\u0575\u0578\u0582 \u0534\u0565\u056c\u056b",
          "name:hyw": "\u0546\u056b\u0582 \u054f\u0565\u056c\u0570\u056b",
          "name:ks": "\u0646\u0654\u0648 \u062f\u0644\u06be\u06cc",
          "name:pa": "\u0a28\u0a35\u0a40\u0a02 \u0a26\u0a3f\u0a71\u0a32\u0a40",
          "name:ug": "\u064a\u06d0\u06ad\u0649 \u062f\u06d0\u06be\u0644\u0649",
          "name:ur": "\u0646\u0626\u06cc \u062f\u06c1\u0644\u06cc",
          "network": "Delhi Metro",
          "note": "Contributors are requested to not edit the \"network\" and the \"operator\" tags. (2023/06/22)",
          "operator": "Delhi Metro Rail Corporation Limited",
          "public_transport": "stop_position",
          "railway": "stop",
          "ref": "NDLS",
          "subway": "yes"
        }
      },
      {
        "type": "node",
        "id": 5777629169,
        "lat": 28.6158758,
        "lon": 77.2123449,
        "tags": {
          "name": "Central Secretariat",
          "name:hi": "\u0915\u0947\u0902\u0926\u094d\u0930\u0940\u092f \u0938\u091a\u093f\u0935\u093e\u0932\u092f",
          "name:kn": "\u0cb8\u0cc6\u0c82\u0c9f\u0ccd\u0cb0\u0cb2\u0ccd \u0cb8\u0cc6\u0c95\u0ccd\u0cb0\u0cc6\u0c9f\u0cb0\u0cbf\u0cb8\u0ccd\u0c9f\u0ccd",
          "network": "Delhi Metro",
          "note": "Contributors are requested to not edit the \"network\" and the \"operator\" tags. (2023/06/22)",
          "operator": "Delhi Metro Rail Corporation Limited",
          "public_transport": "stop_position",
          "railway": "stop",
          "ref": "CTST",
          "subway": "yes",
          "wikidata": "Q5061812"
        }
      },
      {
        "type": "node",
        "id": 5777629177,
        "lat": 28.6240499,
        "lon": 77.2192311,
        "tags": {
          "name": "Janpath",
          "name:hi": "\u091c\u0928\u092a\u0925",
          "name:kn": "\u0c9c\u0ca8\u0ccd\u0caa\u0ca4\u0ccd",
          "network": "Delhi Metro",
          "note": "Contributors are requested to not edit the \"network\" and the \"operator\" tags. (2023/06/22)",
          "operator": "Delhi Metro Rail Corporation Limited",
          "public_transport": "stop_position",
          "railway": "stop",
          "ref": "JNPH",
          "subway": "yes"
        }
      },
      {
        "type": "node",
        "id": 5799061867,
        "lat": 28.6300536,
        "lon": 77.2172723,
        "tags": {
          "addr:city": "New Delhi",
          "amenity": "theatre",
          "level": "1",
          "name": "The Attic",
          "survey:date": "2023-01-22",
          "website": "https://www.theatticdelhi.org/"
        }
      },
      {
        "type": "node",
        "id": 6131069513,
        "lat": 28.6419258,
        "lon": 77.2217499,
        "tags": {
          "alt_name:ar": "\u0646\u064a\u0648\u062f\u0644\u0647\u064a",
          "alt_name:ks": "\u0646\u0654\u0648 \u062f\u0650\u0644",
          "alt_name:ur": "\u0646\u0626\u06cc \u062f\u0644\u06cc;\u0646\u0626\u06cc \u062f\u0650\u0644\u0651\u06cc",
          "internet_access": "wlan",
          "long_name": "\u0646\u0626\u06cc \u062f\u06c1\u0644\u06cc \u0631\u06cc\u0644\u0648\u06d2 \u0627\u0633\u0679\u06cc\u0634\u0646",
          "long_name:ur": "\u0646\u0626\u06cc \u062f\u06c1\u0644\u06cc \u0631\u06cc\u0644\u0648\u06d2 \u0627\u0633\u0679\u06cc\u0634\u0646",
          "name": "New Delhi",
          "name:ar": "\u062f\u0644\u0647\u064a \u0627\u0644\u062c\u062f\u064a\u062f\u0629",
          "name:az-Arab": "\u06cc\u0626\u0646\u06cc \u062f\u0647\u0644\u06cc",
          "name:azb": "\u06cc\u0626\u0646\u06cc \u062f\u0647\u0644\u06cc",
          "name:de": "Neu-Delhi",
          "name:el": "\u039d\u03ad\u03bf \u0394\u03b5\u03bb\u03c7\u03af",
          "name:es": "Nueva Delhi",
          "name:grc": "\u039d\u03b5\u03bf\u03b4\u03b5\u03bb\u03af\u03c2",
          "name:hi": "\u0928\u0908 \u0926\u093f\u0932\u094d\u0932\u0940",
          "name:hy": "\u0546\u0575\u0578\u0582 \u0534\u0565\u056c\u056b",
          "name:hyw": "\u0546\u056b\u0582 \u054f\u0565\u056c\u0570\u056b",
          "name:ks": "\u0646\u0654\u0648 \u062f\u0644\u06be\u06cc",
          "name:ml": "\u0d28\u0d4d\u0d2f\u0d42 \u0d21\u0d46\u0d7d\u0d39\u0d3f",
          "name:pa": "\u0a28\u0a35\u0a40\u0a02 \u0a26\u0a3f\u0a71\u0a32\u0a40",
          "name:ug": "\u064a\u06d0\u06ad\u0649 \u062f\u06d0\u06be\u0644\u0649",
          "name:ur": "\u0646\u0626\u06cc \u062f\u06c1\u0644\u06cc",
          "network": "IR",
          "operator": "NR",
          "public_transport": "station",
          "railway": "station",
          "ref": "NDLS",
          "train": "yes",
          "wheelchair": "yes",
          "wikimedia_commons": "File:New Delhi railway station from Ajmeri Gate side.jpg",
          "wikipedia": "en:New Delhi railway station",
          "wikipedia:ur": "\u0646\u0626\u06cc \u062f\u06c1\u0644\u06cc \u0631\u06cc\u0644\u0648\u06d2 \u0627\u0633\u0679\u06cc\u0634\u0646"
        }
      },
      {
        "type": "node",
        "id": 6161686836,
        "lat": 28.6346388,
        "lon": 77.2212509,
        "tags": {
          "amenity": "fuel",
          "brand": "Indian Oil",
          "brand:wikidata": "Q1289348",
          "compressed_air": "yes",
          "name": "Indian Oil"
        }
      },
      {
        "type": "node",
        "id": 6224257208,
        "lat": 28.627201,
        "lon": 77.2325397,
        "tags": {
          "amenity": "theatre",
          "theatre:type": "amphi"
        }
      },
      {
        "type": "node",
        "id": 6404118987,
        "lat": 28.6336834,
        "lon": 77.2219946,
        "tags": {
          "amenity": "charging_station",
          "capacity": "1",
          "operator": "Energy Efficiency Services Limited (EESL)"
        }
      },
      {
        "type": "node",
        "id": 6404118988,
        "lat": 28.6336147,
        "lon": 77.2218243,
        "tags": {
          "amenity": "charging_station",
          "brand": "Ather",
          "capacity": "2",
          "level": "0",
          "operator": "Energy Efficiency Services Limited (EESL)"
        }
      },
      {
        "type": "node",
        "id": 6539894849,
        "lat": 28.6443188,
        "lon": 77.1999165,
        "tags": {
          "name": "Jhandewalan",
          "name:hi": "\u091d\u0902\u0921\u0947\u0935\u093e\u0932\u093e\u0928",
          "name:kn": "\u0c9d\u0cbe\u0c82\u0ca1\u0cc6\u0cb5\u0cbe\u0cb2\u0ca8\u0ccd",
          "network": "Delhi Metro",
          "network:wikidata": "Q271195",
          "note": "Contributors are requested to not edit the \"network\" and the \"operator\" tags. (2023/06/22)",
          "operator": "Delhi Metro Rail Corporation Limited",
          "operator:wikidata": "Q1029339",
          "public_transport": "station",
          "railway": "station",
          "station": "subway",
          "subway": "yes",
          "wikidata": "Q6190836",
          "wikipedia": "en:Jhandewalan metro station"
        }
      },
      {
        "type": "node",
        "id": 6539894850,
        "lat": 28.6392436,
        "lon": 77.2085787,
        "tags": {
          "name": "Ramakrishna Ashram Marg",
          "name:hi": "\u0930\u093e\u092e\u0915\u0943\u0937\u094d\u0923 \u0906\u0936\u094d\u0930\u092e \u092e\u093e\u0930\u094d\u0917",
          "network": "Delhi Metro",
          "network:wikidata": "Q271195",
          "note": "Contributors are requested to not edit the \"network\" and the \"operator\" tags. (2023/06/22)",
          "operator": "Delhi Metro Rail Corporation Limited",
          "operator:wikidata": "Q1029339",
          "public_transport": "station",
          "railway": "station",
          "station": "subway",
          "subway": "yes",
          "wikidata": "Q7288800",
          "wikipedia": "en:Ramakrishna Ashram Marg metro station"
        }
      },
      {
        "type": "node",
        "id": 6539894851,
        "lat": 28.6327062,
        "lon": 77.2193123,
        "tags": {
          "name": "Rajiv Chowk",
          "name:hi": "\u0930\u093e\u091c\u0940\u0935 \u091a\u094c\u0915",
          "name:kn": "\u0cb0\u0cbe\u0c9c\u0cc0\u0cb5\u0ccd \u0c9a\u0ccc\u0c95\u0ccd",
          "name:ur": "\u0631\u0627\u062c\u06cc\u0648 \u0686\u0648\u06a9",
          "network": "Delhi Metro",
          "network:wikidata": "Q271195",
          "note": "Contributors are requested to not edit the \"network\" and the \"operator\" tags. (2023/06/22)",
          "operator": "Delhi Metro Rail Corporation Limited",
          "operator:wikidata": "Q1029339",
          "public_transport": "station",
          "railway": "station",
          "ref": "RCK",
          "station": "subway",
          "subway": "yes",
          "wikidata": "Q7286183"
        }
      },
      {
        "type": "node",
        "id": 6539894852,
        "lat": 28.6327955,
        "lon": 77.2192419,
        "tags": {
          "name": "Rajiv Chowk",
          "name:hi": "\u0930\u093e\u091c\u0940\u0935 \u091a\u094c\u0915",
          "name:kn": "\u0cb0\u0cbe\u0c9c\u0cc0\u0cb5\u0ccd \u0c9a\u0ccc\u0c95\u0ccd",
          "network": "Delhi Metro",
          "note": "Contributors are requested to not edit the \"network\" and the \"operator\" tags. (2023/06/22)",
          "operator": "Delhi Metro Rail Corporation Limited",
          "public_transport": "stop_position",
          "railway": "stop",
          "ref": "RCK",
          "subway": "yes"
        }
      },
      {
        "type": "node",
        "id": 6539894853,
        "lat": 28.6327972,
        "lon": 77.2197106,
        "tags": {
          "name": "Rajiv Chowk",
          "name:hi": "\u0930\u093e\u091c\u0940\u0935 \u091a\u094c\u0915",
          "name:kn": "\u0cb0\u0cbe\u0c9c\u0cc0\u0cb5\u0ccd \u0c9a\u0ccc\u0c95\u0ccd",
          "network": "Delhi Metro",
          "note": "Contributors are requested to not edit the \"network\" and the \"operator\" tags. (2023/06/22)",
          "operator": "Delhi Metro Rail Corporation Limited",
          "public_transport": "stop_position",
          "railway": "stop",
          "ref": "RCK",
          "subway": "yes"
        }
      },
      {
        "type": "node",
        "id": 6539894855,
        "lat": 28.6297676,
        "lon": 77.2250046,
        "tags": {
          "name": "Barakhambha Road",
          "name:hi": "\u092c\u093e\u0930\u093e\u0916\u092e\u094d\u092c\u093e \u0930\u094b\u0921",
          "network": "Delhi Metro",
          "network:wikidata": "Q271195",
          "note": "Contributors are requested to not edit the \"network\" and the \"operator\" tags. (2023/06/22)",
          "operator": "Delhi Metro Rail Corporation Limited",
          "operator:wikidata": "Q1029339",
          "public_transport": "station",
          "railway": "station",
          "station": "subway",
          "subway": "yes",
          "wikidata": "Q4858265",
          "wikipedia": "en:Barakhamba Road metro station"
        }
      },
      {
        "type": "node",
        "id": 6547772096,
        "lat": 28.64249,
        "lon": 77.2230952,
        "tags": {
          "name": "New Delhi Airport Express Terminal",
          "name:hi": "\u0928\u0908 \u0926\u093f\u0932\u094d\u0932\u0940 \u090f\u092f\u0930\u092a\u094b\u0930\u094d\u091f \u090f\u0915\u094d\u0938\u092a\u094d\u0930\u0947\u0938 \u091f\u0930\u094d\u092e\u093f\u0928\u0932",
          "network": "Delhi Metro",
          "network:wikidata": "Q271195",
          "note": "Contributors are requested to not edit the \"network\" and the \"operator\" tags. (2023/06/22)",
          "operator": "Delhi Metro Rail Corporation Limited",
          "operator:wikidata": "Q1029339",
          "public_transport": "stop_position",
          "railway": "stop",
          "ref": "NDI",
          "subway": "yes"
        }
      },
      {
        "type": "node",
        "id": 6547772097,
        "lat": 28.6434707,
        "lon": 77.2227708,
        "tags": {
          "alt_name:ar": "\u0646\u064a\u0648\u062f\u0644\u0647\u064a",
          "alt_name:ks": "\u0646\u0654\u0648 \u062f\u0650\u0644",
          "alt_name:ur": "\u0646\u0626\u06cc \u062f\u0644\u06cc",
          "name": "New Delhi",
          "name:ar": "\u062f\u0644\u0647\u064a \u0627\u0644\u062c\u062f\u064a\u062f\u0629",
          "name:az-Arab": "\u06cc\u0626\u0646\u06cc \u062f\u0647\u0644\u06cc",
          "name:azb": "\u06cc\u0626\u0646\u06cc \u062f\u0647\u0644\u06cc",
          "name:de": "Neu-Delhi",
          "name:el": "\u039d\u03ad\u03bf \u0394\u03b5\u03bb\u03c7\u03af",
          "name:es": "Nueva Delhi",
          "name:grc": "\u039d\u03b5\u03bf\u03b4\u03b5\u03bb\u03af\u03c2",
          "name:hi": "\u0928\u0908 \u0926\u093f\u0932\u094d\u0932\u0940",
          "name:hy": "\u0546\u0575\u0578\u0582 \u0534\u0565\u056c\u056b",
          "name:hyw": "\u0546\u056b\u0582 \u054f\u0565\u056c\u0570\u056b",
          "name:ks": "\u0646\u0654\u0648 \u062f\u0644\u06be\u06cc",
          "name:pa": "\u0a28\u0a35\u0a40\u0a02 \u0a26\u0a3f\u0a71\u0a32\u0a40",
          "name:ug": "\u064a\u06d0\u06ad\u0649 \u062f\u06d0\u06be\u0644\u0649",
          "name:ur": "\u0646\u0626\u06cc \u062f\u06c1\u0644\u06cc",
          "network": "Delhi Metro",
          "note": "Contributors are requested to not edit the \"network\" and the \"operator\" tags. (2023/06/22)",
          "operator": "Delhi Metro Rail Corporation Limited",
          "public_transport": "stop_position",
          "railway": "stop",
          "ref": "NDLS",
          "subway": "yes"
        }
      },
      {
        "type": "node",
        "id": 6547772108,
        "lat": 28.615878,
        "lon": 77.2123128,
        "tags": {
          "name": "Central Secretariat",
          "name:kn": "\u0cb8\u0cc6\u0c82\u0c9f\u0ccd\u0cb0\u0cb2\u0ccd \u0cb8\u0cc6\u0c95\u0ccd\u0cb0\u0cc6\u0c9f\u0cb0\u0cbf\u0cb8\u0ccd\u0c9f\u0ccd",
          "network": "Delhi Metro",
          "note": "Contributors are requested to not edit the \"network\" and the \"operator\" tags. (2023/06/22)",
          "operator": "Delhi Metro Rail Corporation Limited",
          "public_transport": "stop_position",
          "railway": "stop",
          "ref": "CTST",
          "subway": "yes"
        }
      },
      {
        "type": "node",
        "id": 6547772123,
        "lat": 28.6439905,
        "lon": 77.1885276,
        "tags": {
          "name": "Karol Bagh",
          "name:hi": "\u0915\u0930\u094b\u0932 \u092c\u093e\u0917",
          "name:kn": "\u0c95\u0cb0\u0ccb\u0cb2\u0ccd \u0cad\u0cbe\u0c97\u0ccd",
          "network": "Delhi Metro",
          "note": "Contributors are requested to not edit the \"network\" and the \"operator\" tags. (2023/06/22)",
          "operator": "Delhi Metro Rail Corporation Limited",
          "public_transport": "stop_position",
          "railway": "stop",
          "subway": "yes"
        }
      },
      {
        "type": "node",
        "id": 6743312153,
        "lat": 28.6442084,
        "lon": 77.1882129,
        "tags": {
          "public_transport": "stop_position",
          "share_taxi": "yes"
        }
      },
      {
        "type": "node",
        "id": 6761961056,
        "lat": 28.6341092,
        "lon": 77.2202799,
        "tags": {
          "amenity": "charging_station",
          "capacity": "1"
        }
      },
      {
        "type": "node",
        "id": 6761961057,
        "lat": 28.633798,
        "lon": 77.2208339,
        "tags": {
          "amenity": "charging_station",
          "capacity": "1",
          "operator": "Energy Efficiency Services Limited (EESL)"
        }
      },
      {
        "type": "node",
        "id": 6988161557,
        "lat": 28.6342608,
        "lon": 77.2206422,
        "tags": {
          "amenity": "charging_station"
        }
      },
      {
        "type": "node",
        "id": 6988161559,
        "lat": 28.634276,
        "lon": 77.2209612,
        "tags": {
          "amenity": "charging_station"
        }
      },
      {
        "type": "node",
        "id": 7018886726,
        "lat": 28.6229664,
        "lon": 77.214031,
        "tags": {
          "name": "Patel Chowk",
          "name:hi": "\u092a\u091f\u0947\u0932 \u091a\u094c\u0915",
          "name:ur": "\u067e\u0679\u06cc\u0644 \u0686\u0648\u06a9",
          "network": "Delhi Metro",
          "network:wikidata": "Q271195",
          "note": "Contributors are requested to not edit the \"network\" and the \"operator\" tags. (2023/06/22)",
          "operator": "Delhi Metro Rail Corporation Limited",
          "operator:wikidata": "Q1029339",
          "public_transport": "station",
          "railway": "station",
          "ref": "PTCK",
          "station": "subway",
          "subway": "yes",
          "wikidata": "Q7144407",
          "wikipedia": "en:Patel Chowk metro station"
        }
      },
      {
        "type": "node",
        "id": 7018886727,
        "lat": 28.6095136,
        "lon": 77.211796,
        "tags": {
          "name": "Udyog Bhavan",
          "name:hi": "\u0909\u0926\u094d\u092f\u094b\u0917 \u092d\u0935\u0928",
          "name:ur": "\u0627\u064f\u062f\u06cc\u0648\u06af \u0628\u06be\u0648\u0646",
          "network": "Delhi Metro",
          "network:wikidata": "Q271195",
          "note": "Contributors are requested to not edit the \"network\" and the \"operator\" tags. (2023/06/22)",
          "operator": "Delhi Metro Rail Corporation Limited",
          "operator:wikidata": "Q1029339",
          "public_transport": "station",
          "railway": "station",
          "ref": "UDB",
          "station": "subway",
          "subway": "yes",
          "wikidata": "Q7877392",
          "wikipedia": "en:Udyog Bhawan metro station"
        }
      },
      {
        "type": "node",
        "id": 7040469986,
        "lat": 28.6309944,
        "lon": 77.2163377,
        "tags": {
          "addr:city": "New Delhi",
          "amenity": "cinema",
          "brand": "PVR Cinemas",
          "brand:wikidata": "Q3359908",
          "name": "PVR Rivoli Cinema",
          "short_name": "PVR"
        }
      },
      {
        "type": "node",
        "id": 7083796927,
        "lat": 28.6350123,
        "lon": 77.2197325,
        "tags": {
          "amenity": "charging_station"
        }
      },
      {
        "type": "node",
        "id": 7083916144,
        "lat": 28.6341151,
        "lon": 77.217651,
        "tags": {
          "amenity": "charging_station",
          "capacity": "1",
          "operator": "EESL"
        }
      },
      {
        "type": "node",
        "id": 7083972066,
        "lat": 28.6393711,
        "lon": 77.2239559,
        "tags": {
          "bus": "yes",
          "name": "Minto Road Terminal",
          "public_transport": "stop_position"
        }
      },
      {
        "type": "node",
        "id": 7086574353,
        "lat": 28.6394999,
        "lon": 77.2237176,
        "tags": {
          "bus": "yes",
          "name": "Minto Road Terminal",
          "public_transport": "stop_position"
        }
      },
      {
        "type": "node",
        "id": 7274125614,
        "lat": 28.6311731,
        "lon": 77.204936,
        "tags": {
          "amenity": "theatre",
          "name": "Muktadhara Auditorium"
        }
      },
      {
        "type": "node",
        "id": 7274257107,
        "lat": 28.6327684,
        "lon": 77.2228545,
        "tags": {
          "amenity": "charging_station",
          "capacity": "1"
        }
      },
      {
        "type": "node",
        "id": 8018558072,
        "lat": 28.6327786,
        "lon": 77.2196985,
        "tags": {
          "name": "Rajiv Chowk",
          "name:hi": "\u0930\u093e\u091c\u0940\u0935 \u091a\u094c\u0915",
          "name:kn": "\u0cb0\u0cbe\u0c9c\u0cc0\u0cb5\u0ccd \u0c9a\u0ccc\u0c95\u0ccd",
          "name:ml": "\u0d30\u0d3e\u0d1c\u0d40\u0d35\u0d4d \u0d1a\u0d57\u0d15\u0d4d\u0d15\u0d4d",
          "name:ur": "\u0631\u0627\u062c\u06cc\u0648 \u0686\u0648\u06a9",
          "network": "Delhi Metro",
          "network:wikidata": "Q271195",
          "note": "Contributors are requested to not edit the \"network\" and the \"operator\" tags. (2023/06/22)",
          "operator": "Delhi Metro Rail Corporation Limited",
          "operator:wikidata": "Q1029339",
          "public_transport": "station",
          "railway": "station",
          "ref": "RCK",
          "station": "subway",
          "subway": "yes",
          "wikidata": "Q7286183",
          "wikipedia": "en:Rajiv Chowk metro station"
        }
      },
      {
        "type": "node",
        "id": 9052026091,
        "lat": 28.6446605,
        "lon": 77.2237611,
        "tags": {
          "alt_name": "Kamla Market",
          "bus": "yes",
          "name": "Kamala Market",
          "name:hi": "\u0915\u092e\u0932\u093e \u092e\u093e\u0930\u094d\u0915\u093f\u091f",
          "public_transport": "stop_position"
        }
      },
      {
        "type": "node",
        "id": 9052026101,
        "lat": 28.6441445,
        "lon": 77.2239601,
        "tags": {
          "alt_name": "Kamla Market",
          "bus": "yes",
          "name": "Kamala Market",
          "name:hi": "\u0915\u092e\u0932\u093e \u092e\u093e\u0930\u094d\u0915\u093f\u091f",
          "public_transport": "stop_position"
        }
      },
      {
        "type": "node",
        "id": 9052026102,
        "lat": 28.6452425,
        "lon": 77.2240232,
        "tags": {
          "alt_name": "Kamla Market",
          "bus": "yes",
          "name": "Kamala Market",
          "name:hi": "\u0915\u092e\u0932\u093e \u092e\u093e\u0930\u094d\u0915\u093f\u091f",
          "public_transport": "stop_position"
        }
      },
      {
        "type": "node",
        "id": 9237403818,
        "lat": 28.630944,
        "lon": 77.2233578,
        "tags": {
          "amenity": "charging_station"
        }
      },
      {
        "type": "node",
        "id": 9237403820,
        "lat": 28.6310563,
        "lon": 77.2230955,
        "tags": {
          "amenity": "charging_station"
        }
      },
      {
        "type": "node",
        "id": 9544997484,
        "lat": 28.6480292,
        "lon": 77.2008439,
        "tags": {
          "amenity": "bus_station",
          "bench": "yes",
          "bus": "yes",
          "name": "Karol Bagh Terminal",
          "operator": "DTC",
          "public_transport": "station",
          "shelter": "yes"
        }
      },
      {
        "type": "node",
        "id": 9584236507,
        "lat": 28.6240485,
        "lon": 77.2192587,
        "tags": {
          "name": "Janpath",
          "name:en": "Janpath",
          "name:hi": "\u091c\u0928\u092a\u0925",
          "name:kn": "\u0c9c\u0ca8\u0ccd\u0caa\u0ca4\u0ccd",
          "name:ur": "\u062c\u0646 \u067e\u062a\u06be",
          "network": "Delhi Metro",
          "network:wikidata": "Q271195",
          "note": "Contributors are requested to not edit the \"network\" and the \"operator\" tags. (2023/06/22)",
          "operator": "Delhi Metro Rail Corporation Limited",
          "operator:wikidata": "Q1029339",
          "public_transport": "station",
          "railway": "station",
          "ref": "JNPH",
          "station": "subway",
          "subway": "yes",
          "wikidata": "Q16850982",
          "wikipedia": "en:Janpath metro station"
        }
      },
      {
        "type": "node",
        "id": 9730042238,
        "lat": 28.6436988,
        "lon": 77.196868,
        "tags": {
          "bus": "yes",
          "name": "Karol Bagh",
          "public_transport": "stop_position"
        }
      },
      {
        "type": "node",
        "id": 9938725207,
        "lat": 28.6289139,
        "lon": 77.211311,
        "tags": {
          "name": "Shivaji Stadium",
          "network": "Delhi Metro",
          "network:wikidata": "Q271195",
          "note": "Contributors are requested to not edit the \"network\" and the \"operator\" tags. (2023/06/22)",
          "operator": "Delhi Metro Rail Corporation Limited",
          "operator:wikidata": "Q1029339",
          "public_transport": "stop_position",
          "railway": "stop",
          "ref": "SJSU",
          "subway": "yes"
        }
      },
      {
        "type": "node",
        "id": 10240014908,
        "lat": 28.633573,
        "lon": 77.2234733,
        "tags": {
          "amenity": "charging_station"
        }
      },
      {
        "type": "node",
        "id": 10579682141,
        "lat": 28.6343154,
        "lon": 77.221088,
        "tags": {
          "amenity": "cinema",
          "name": "Odeon Inox",
          "wheelchair": "limited"
        }
      },
      {
        "type": "node",
        "id": 10905351902,
        "lat": 28.6342282,
        "lon": 77.2195272,
        "tags": {
          "amenity": "charging_station",
          "disused:amenity": "yes"
        }
      },
      {
        "type": "node",
        "id": 10922054270,
        "lat": 28.6315233,
        "lon": 77.2199032,
        "tags": {
          "amenity": "charging_station"
        }
      },
      {
        "type": "node",
        "id": 11637354348,
        "lat": 28.6338798,
        "lon": 77.2175045,
        "tags": {
          "amenity": "charging_station"
        }
      },
      {
        "type": "node",
        "id": 11642004107,
        "lat": 28.6272979,
        "lon": 77.2319249,
        "tags": {
          "amenity": "charging_station"
        }
      },
      {
        "type": "node",
        "id": 11765231237,
        "lat": 28.648275,
        "lon": 77.2008227,
        "tags": {
          "amenity": "bus_station",
          "bench": "yes",
          "bus": "yes",
          "name": "Karol Bagh Terminal",
          "operator": "DTC",
          "public_transport": "station",
          "shelter": "yes"
        }
      },
      {
        "type": "node",
        "id": 11795617114,
        "lat": 28.6286105,
        "lon": 77.2196866,
        "tags": {
          "amenity": "charging_station",
          "brand": "Xicom",
          "capacity": "1"
        }
      },
      {
        "type": "node",
        "id": 11823656860,
        "lat": 28.6417761,
        "lon": 77.2259725,
        "tags": {
          "amenity": "fuel",
          "brand": "IGL",
          "brand:wikidata": "Q125553945",
          "construction": "yes",
          "name": "IGL"
        }
      },
      {
        "type": "node",
        "id": 11833042043,
        "lat": 28.6512729,
        "lon": 77.2046862,
        "tags": {
          "amenity": "fuel",
          "brand": "Hindustan Petroleum",
          "brand:wikidata": "Q1619375",
          "name": "HP",
          "official_name": "Hindustan Petroleum"
        }
      },
      {
        "type": "node",
        "id": 11875926233,
        "lat": 28.6219707,
        "lon": 77.1948236,
        "tags": {
          "amenity": "charging_station",
          "brand": "EESL",
          "capacity": "4",
          "fee": "no",
          "level": "0"
        }
      },
      {
        "type": "node",
        "id": 12098546110,
        "lat": 28.6316265,
        "lon": 77.222004,
        "tags": {
          "amenity": "charging_station",
          "brand": "Ather",
          "capacity": "2",
          "level": "0",
          "operator": "Energy Efficiency Services Limited (EESL)"
        }
      }
    ]
  }
}