{
  "pois_1km": {
    "version": 0.6,
    "generator": "Overpass API 0.7.62.8 e802775f",
    "osm3s": {
      "timestamp_osm_base": "2025-09-06T07:15:45Z",
      "copyright": "The data included in this document is from www.openstreetmap.org. The data is made available under ODbL."
    },
    "elements": [
      {
        "type": "node",
        "id": 5715392988,
        "lat": 28.5858839,
        "lon": 77.2136747,
        "tags": {
          "amenity": "fast_food",
          "cuisine": "milkshake",
          "name": "Bottle Opener"
        }
      },
      {
        "type": "node",
        "id": 5790138413,
        "lat": 28.585425,
        "lon": 77.2121784,
        "tags": {
          "amenity": "atm",
          "brand": "State Bank of India",
          "brand:en": "State Bank of India",
          "brand:wikidata": "Q1340361",
          "currency:INR": "yes",
          "drive_through": "no",
          "indoor": "yes",
          "note": "Contributors are requested to not edit the \"brand\", \"brand:en\", \"brand:wikidata\", \"operator\", \"operator:en\" and \"operator:wikidata\" tags. (2025/02/19)",
          "opening_hours": "24/7",
          "operator": "State Bank of India",
          "operator:en": "State Bank of India",
          "operator:wikidata": "Q1340361",
          "short_name": "SBI"
        }
      },
      {
        "type": "node",
        "id": 6203987726,
        "lat": 28.5922707,
        "lon": 77.2222351,
        "tags": {
          "amenity": "bank",
          "branch": "Khan Market",
          "brand": "Bank of India",
          "brand:wikidata": "Q2004439",
          "name": "Bank of India"
        }
      },
      {
        "type": "node",
        "id": 6203988023,
        "lat": 28.5899247,
        "lon": 77.2195873,
        "tags": {
          "amenity": "fast_food",
          "cuisine": "chinese",
          "diet:vegetarian": "yes",
          "indoor_seating": "no",
          "name": "Garden Chef",
          "outdoor_seating": "no"
        }
      },
      {
        "type": "node",
        "id": 6670017050,
        "lat": 28.5932298,
        "lon": 77.2238136,
        "tags": {
          "amenity": "atm"
        }
      },
      {
        "type": "node",
        "id": 7017467458,
        "lat": 28.5895394,
        "lon": 77.2195741,
        "tags": {
          "amenity": "cafe",
          "opening_hours": "Mo-Su 09:00-21:00",
          "shop": "convenience"
        }
      },
      {
        "type": "node",
        "id": 10013071188,
        "lat": 28.5896726,
        "lon": 77.2190508,
        "tags": {
          "amenity": "atm",
          "brand": "India Post Payments Bank",
          "brand:en": "India Post Payments Bank",
          "brand:hi": "\u092d\u093e\u0930\u0924\u0940\u092f \u0921\u093e\u0915 \u092d\u0941\u0917\u0924\u093e\u0928 \u092c\u0948\u0902\u0915",
          "brand:wikidata": "Q19895346",
          "description": "24 hour ATM",
          "drive_through": "no",
          "name": "India Post Payments Bank",
          "name:en": "India Post Payments Bank",
          "name:hi": "\u092d\u093e\u0930\u0924\u0940\u092f \u0921\u093e\u0915 \u092d\u0941\u0917\u0924\u093e\u0928 \u092c\u0948\u0902\u0915",
          "network": "India Post",
          "operator": "India Post Payments Bank",
          "operator:wikidata": "Q19895346"
        }
      },
      {
        "type": "node",
        "id": 12334823941,
        "lat": 28.5876151,
        "lon": 77.2166248,
        "tags": {
          "amenity": "clinic",
          "check_date": "2024-11-12",
          "healthcare": "clinic"
        }
      }
    ]
  },
  "pois_2_5km": {
    "version": 0.6,
    "generator": "Overpass API 0.7.62.8 e802775f",
    "osm3s": {
      "timestamp_osm_base": "2025-09-06T07:15:45Z",
      "copyright": "The data included in this document is from www.openstreetmap.org. The data is made available under ODbL."
    },
    "elements": [
      {
        "type": "node",
        "id": 312102918,
        "lat": 28.5737882,
        "lon": 77.2089741,
        "tags": {
          "amenity": "fuel",
          "brand": "Hindustan Petroleum",
          "brand:wikidata": "Q1619375",
          "name": "HP",
          "official_name": "Hindustan Petroleum"
        }
      },
      {
        "type": "node",
        "id": 554257793,
        "lat": 28.5741591,
        "lon": 77.2093306,
        "tags": {
          "alt_name": "Indian National Airways",
          "name": "Dilli Haat - INA",
          "name:kn": "\u0c90\u0c8e\u0ca8\u0ccd\u0c8f",
          "network": "Delhi Metro",
          "note": "Contributors are requested to not edit the \"network\" and the \"operator\" tags. (2023/06/22)",
          "operator": "Delhi Metro Rail Corporation Limited",
          "public_transport": "stop_position",
          "railway": "stop",
          "ref": "INA",
          "subway": "yes",
          "wikidata": "Q17055892",
          "wikipedia": "en:Dilli Haat - INA metro station"
        }
      },
      {
        "type": "node",
        "id": 554257797,
        "lat": 28.5973548,
        "lon": 77.2111269,
        "tags": {
          "name": "Lok Kalyan Marg",
          "name:hi": "\u0932\u094b\u0915 \u0915\u0932\u094d\u092f\u093e\u0923 \u092e\u093e\u0930\u094d\u0917",
          "name:kn": "\u0cb2\u0ccb\u0c95\u0ccd \u0c95\u0cb2\u0ccd\u0caf\u0cbe\u0ca3\u0ccd",
          "network": "Delhi Metro",
          "note": "Contributors are requested to not edit the \"network\" and the \"operator\" tags. (2023/06/22)",
          "old_name": "Race Course",
          "operator": "Delhi Metro Rail Corporation Limited",
          "public_transport": "stop_position",
          "railway": "stop",
          "ref": "LKM",
          "subway": "yes"
        }
      },
      {
        "type": "node",
        "id": 554257800,
        "lat": 28.6095117,
        "lon": 77.2118249,
        "tags": {
          "name": "Udyog Bhavan",
          "network": "Delhi Metro",
          "note": "Contributors are requested to not edit the \"network\" and the \"operator\" tags. (2023/06/22)",
          "operator": "Delhi Metro Rail Corporation Limited",
          "public_transport": "stop_position",
          "railway": "stop",
          "ref": "UDB",
          "subway": "yes"
        }
      },
      {
        "type": "node",
        "id": 554257805,
        "lat": 28.5865942,
        "lon": 77.2125637,
        "tags": {
          "name": "Jor Bagh",
          "name:kn": "\u0c9c\u0ccb\u0cb0\u0ccd \u0cad\u0cbe\u0c97\u0ccd",
          "network": "Delhi Metro",
          "note": "Contributors are requested to not edit the \"network\" and the \"operator\" tags. (2023/06/22)",
          "operator": "Delhi Metro Rail Corporation Limited",
          "public_transport": "stop_position",
          "railway": "stop",
          "ref": "JB",
          "subway": "yes"
        }
      },
      {
        "type": "node",
        "id": 562620239,
        "lat": 28.5882486,
        "lon": 77.2338082,
        "tags": {
          "name": "Jawaharlal Nehru Stadium",
          "name:hi": "\u091c\u0935\u093e\u0939\u0930 \u0932\u093e\u0932 \u0928\u0947\u0939\u0930\u0942 \u0938\u094d\u091f\u0947\u0921\u093f\u092f\u092e",
          "network": "Delhi Metro",
          "note": "Contributors are requested to not edit the \"network\" and the \"operator\" tags. (2023/06/23)",
          "operator": "Delhi Metro Rail Corporation Limited",
          "public_transport": "stop_position",
          "subway": "yes"
        }
      },
      {
        "type": "node",
        "id": 910356522,
        "lat": 28.5789548,
        "lon": 77.2276886,
        "tags": {
          "internet_access": "no",
          "name": "Sewa Nagar",
          "name:ur": "\u0633\u06cc\u0648\u0627 \u0646\u06af\u0631",
          "network": "IR",
          "operator": "NR",
          "public_transport": "station",
          "railway": "station",
          "ref": "SWNR",
          "train": "yes",
          "wikidata": "Q12458603"
        }
      },
      {
        "type": "node",
        "id": 927873481,
        "lat": 28.6022643,
        "lon": 77.2291415,
        "tags": {
          "name": "Khan Market",
          "name:en": "Khan Market",
          "name:hi": "\u0916\u093e\u0928 \u092c\u093e\u091c\u093e\u0930",
          "name:ur": "\u062e\u0627\u0646 \u0628\u0627\u0632\u0627\u0631",
          "network": "Delhi Metro",
          "note": "Contributors are requested to not edit the \"network\" and the \"operator\" tags. (2023/06/22)",
          "operator": "Delhi Metro Rail Corporation Limited",
          "public_transport": "stop_position",
          "railway": "stop",
          "subway": "yes"
        }
      },
      {
        "type": "node",
        "id": 1665799172,
        "lat": 28.5796637,
        "lon": 77.2134862,
        "tags": {
          "amenity": "bus_station",
          "bus": "yes",
          "name": "Safdarjung Terminal",
          "name:ur": "\u0635\u0641\u062f\u0631 \u062c\u0646\u06af \u0679\u0631\u0645\u06cc\u0646\u0644",
          "public_transport": "station"
        }
      },
      {
        "type": "node",
        "id": 1988513582,
        "lat": 28.5797537,
        "lon": 77.2168728,
        "tags": {
          "internet_access": "no",
          "name": "Lodhi Colony",
          "name:ur": "\u0644\u0648\u062f\u06be\u06cc \u06a9\u0627\u0644\u0646\u06cc",
          "network": "IR",
          "operator": "NR",
          "public_transport": "station",
          "railway": "station",
          "ref": "LDCY",
          "train": "yes",
          "wikidata": "Q12451780"
        }
      },
      {
        "type": "node",
        "id": 1988513584,
        "lat": 28.5796053,
        "lon": 77.2167905,
        "tags": {
          "name": "Lodhi Colony",
          "public_transport": "stop_position",
          "railway": "stop",
          "train": "yes"
        }
      },
      {
        "type": "node",
        "id": 1988513597,
        "lat": 28.5812101,
        "lon": 77.1963127,
        "tags": {
          "internet_access": "no",
          "name": "Sarojini Nagar",
          "name:ur": "\u0633\u0631\u0648\u062c\u0646\u06cc \u0646\u06af\u0631",
          "network": "IR",
          "operator": "NR",
          "public_transport": "station",
          "railway": "station",
          "ref": "SOJ",
          "train": "yes",
          "wikidata": "Q12455998"
        }
      },
      {
        "type": "node",
        "id": 2416151585,
        "lat": 28.5924259,
        "lon": 77.2375948,
        "tags": {
          "amenity": "fuel",
          "brand": "Bharat Petroleum",
          "brand:wikidata": "Q854826",
          "compressed_air": "yes",
          "name": "Bharat Petroleum"
        }
      },
      {
        "type": "node",
        "id": 2833526634,
        "lat": 28.573627,
        "lon": 77.2075791,
        "tags": {
          "alt_name": "Indian National Airways",
          "name": "Dilli Haat - INA",
          "name:hi": "\u0926\u093f\u0932\u094d\u0932\u0940 \u0939\u093e\u091f - \u0906\u0908 \u090f\u0928 \u090f",
          "network": "Delhi Metro",
          "note": "Contributors are requested to not edit the \"network\" and the \"operator\" tags. (2023/06/22)",
          "operator": "Delhi Metro Rail Corporation Limited",
          "public_transport": "stop_position",
          "railway": "stop",
          "ref": "INA",
          "subway": "yes"
        }
      },
      {
        "type": "node",
        "id": 2833526638,
        "lat": 28.5757936,
        "lon": 77.1980768,
        "tags": {
          "name": "Sarojini Nagar",
          "name:hi": "\u0938\u0930\u094b\u091c\u093f\u0928\u0940 \u0928\u0917\u0930",
          "network": "Delhi Metro",
          "note": "Contributors are requested to not edit the \"network\" and the \"operator\" tags. (2023/06/22)",
          "operator": "Delhi Metro Rail Corporation Limited",
          "public_transport": "stop_position",
          "railway": "stop",
          "ref": "SOJI",
          "subway": "yes"
        }
      },
      {
        "type": "node",
        "id": 4692007714,
        "lat": 28.6045138,
        "lon": 77.2245624,
        "tags": {
          "amenity": "fuel",
          "brand": "Bharat Petroleum",
          "brand:wikidata": "Q854826",
          "name": "Jiwan Service Station",
          "opening_hours": "24/7"
        }
      },
      {
        "type": "node",
        "id": 4700705789,
        "lat": 28.6086972,
        "lon": 77.2302094,
        "tags": {
          "amenity": "bus_station",
          "bus": "yes",
          "name": "Bikaner Bus Depot",
          "name:hi": "Bikaner Bus Depot",
          "public_transport": "station"
        }
      },
      {
        "type": "node",
        "id": 5137961078,
        "lat": 28.5924902,
        "lon": 77.1882204,
        "tags": {
          "bus": "yes",
          "public_transport": "stop_position"
        }
      },
      {
        "type": "node",
        "id": 5137961081,
        "lat": 28.5983604,
        "lon": 77.1912443,
        "tags": {
          "bus": "yes",
          "public_transport": "stop_position"
        }
      },
      {
        "type": "node",
        "id": 5137961083,
        "lat": 28.5984268,
        "lon": 77.1911759,
        "tags": {
          "bus": "yes",
          "public_transport": "stop_position"
        }
      },
      {
        "type": "node",
        "id": 5137961085,
        "lat": 28.6008681,
        "lon": 77.1925354,
        "tags": {
          "bus": "yes",
          "public_transport": "stop_position"
        }
      },
      {
        "type": "node",
        "id": 5137961087,
        "lat": 28.6008163,
        "lon": 77.1924158,
        "tags": {
          "bus": "yes",
          "public_transport": "stop_position"
        }
      },
      {
        "type": "node",
        "id": 5426405563,
        "lat": 28.5913816,
        "lon": 77.2120833,
        "tags": {
          "amenity": "fuel",
          "brand": "Hindustan Petroleum",
          "brand:wikidata": "Q1619375",
          "name": "HP",
          "official_name": "Hindustan Petroleum"
        }
      },
      {
        "type": "node",
        "id": 5426405944,
        "lat": 28.5869597,
        "lon": 77.2121034,
        "tags": {
          "amenity": "fuel",
          "brand": "Indian Oil",
          "brand:wikidata": "Q1289348",
          "compressed_air": "yes",
          "name": "Indian Oil",
          "opening_hours": "Mo-Su 06:00-23:00",
          "toilets": "yes"
        }
      },
      {
        "type": "node",
        "id": 5777602008,
        "lat": 28.6095152,
        "lon": 77.2117641,
        "tags": {
          "name": "Udyog Bhavan",
          "network": "Delhi Metro",
          "note": "Contributors are requested to not edit the \"network\" and the \"operator\" tags. (2023/06/22)",
          "operator": "Delhi Metro Rail Corporation Limited",
          "public_transport": "stop_position",
          "railway": "stop",
          "ref": "UDB",
          "subway": "yes"
        }
      },
      {
        "type": "node",
        "id": 5777602010,
        "lat": 28.5973456,
        "lon": 77.2110668,
        "tags": {
          "name": "Lok Kalyan Marg",
          "name:hi": "\u0932\u094b\u0915 \u0915\u0932\u094d\u092f\u093e\u0923 \u092e\u093e\u0930\u094d\u0917",
          "name:kn": "\u0cb2\u0ccb\u0c95\u0ccd \u0c95\u0cb2\u0ccd\u0caf\u0cbe\u0ca3\u0ccd",
          "network": "Delhi Metro",
          "note": "Contributors are requested to not edit the \"network\" and the \"operator\" tags. (2023/06/22)",
          "old_name": "Race Course",
          "operator": "Delhi Metro Rail Corporation Limited",
          "public_transport": "stop_position",
          "railway": "stop",
          "ref": "LKM",
          "subway": "yes"
        }
      },
      {
        "type": "node",
        "id": 5777602013,
        "lat": 28.5865988,
        "lon": 77.212503,
        "tags": {
          "name": "Jor Bagh",
          "name:kn": "\u0c9c\u0ccb\u0cb0\u0ccd \u0cad\u0cbe\u0c97\u0ccd",
          "network": "Delhi Metro",
          "note": "Contributors are requested to not edit the \"network\" and the \"operator\" tags. (2023/06/22)",
          "operator": "Delhi Metro Rail Corporation Limited",
          "public_transport": "stop_position",
          "railway": "stop",
          "ref": "JB",
          "subway": "yes"
        }
      },
      {
        "type": "node",
        "id": 5777602018,
        "lat": 28.5741693,
        "lon": 77.2092708,
        "tags": {
          "alt_name": "Indian National Airways",
          "name": "Dilli Haat - INA",
          "name:kn": "\u0c90\u0c8e\u0ca8\u0ccd\u0c8f",
          "network": "Delhi Metro",
          "note": "Contributors are requested to not edit the \"network\" and the \"operator\" tags. (2023/06/22)",
          "operator": "Delhi Metro Rail Corporation Limited",
          "public_transport": "stop_position",
          "railway": "stop",
          "ref": "INA",
          "subway": "yes",
          "wikidata": "Q17055892",
          "wikipedia": "en:Dilli Haat - INA metro station"
        }
      },
      {
        "type": "node",
        "id": 5777629158,
        "lat": 28.5882285,
        "lon": 77.2337552,
        "tags": {
          "name": "Jawaharlal Nehru Stadium",
          "name:hi": "\u091c\u0935\u093e\u0939\u0930 \u0932\u093e\u0932 \u0928\u0947\u0939\u0930\u0942 \u0938\u094d\u091f\u0947\u0921\u093f\u092f\u092e",
          "network": "Delhi Metro",
          "note": "Contributors are requested to not edit the \"network\" and the \"operator\" tags. (2023/06/23)",
          "operator": "Delhi Metro Rail Corporation Limited",
          "public_transport": "stop_position",
          "railway": "stop",
          "subway": "yes"
        }
      },
      {
        "type": "node",
        "id": 5777629164,
        "lat": 28.6022239,
        "lon": 77.2291083,
        "tags": {
          "name": "Khan Market",
          "name:en": "Khan Market",
          "name:hi": "\u0916\u093e\u0928 \u092c\u093e\u091c\u093e\u0930",
          "name:ur": "\u062e\u0627\u0646 \u0628\u0627\u0632\u0627\u0631",
          "network": "Delhi Metro",
          "note": "Contributors are requested to not edit the \"network\" and the \"operator\" tags. (2023/06/22)",
          "operator": "Delhi Metro Rail Corporation Limited",
          "public_transport": "stop_position",
          "railway": "stop",
          "subway": "yes"
        }
      },
      {
        "type": "node",
        "id": 5777630330,
        "lat": 28.5736686,
        "lon": 77.2075986,
        "tags": {
          "alt_name": "Indian National Airways",
          "name": "Dilli Haat - INA",
          "name:hi": "\u0926\u093f\u0932\u094d\u0932\u0940 \u0939\u093e\u091f - \u0906\u0908 \u090f\u0928 \u090f",
          "network": "Delhi Metro",
          "note": "Contributors are requested to not edit the \"network\" and the \"operator\" tags. (2023/06/22)",
          "operator": "Delhi Metro Rail Corporation Limited",
          "public_transport": "stop_position",
          "railway": "stop",
          "ref": "INA",
          "subway": "yes"
        }
      },
      {
        "type": "node",
        "id": 5777630338,
        "lat": 28.5758359,
        "lon": 77.1980823,
        "tags": {
          "name": "Sarojini Nagar",
          "name:hi": "\u0938\u0930\u094b\u091c\u093f\u0928\u0940 \u0928\u0917\u0930",
          "network": "Delhi Metro",
          "note": "Contributors are requested to not edit the \"network\" and the \"operator\" tags. (2023/06/22)",
          "operator": "Delhi Metro Rail Corporation Limited",
          "public_transport": "stop_position",
          "railway": "stop",
          "ref": "SOJI",
          "subway": "yes"
        }
      },
      {
        "type": "node",
        "id": 6287897762,
        "lat": 28.579649,
        "lon": 77.2167953,
        "tags": {
          "name": "Lodhi Colony",
          "public_transport": "stop_position",
          "railway": "stop",
          "train": "yes"
        }
      },
      {
        "type": "node",
        "id": 6287897763,
        "lat": 28.5812355,
        "lon": 77.1963156,
        "tags": {
          "name": "Sarojini Nagar",
          "public_transport": "stop_position",
          "railway": "stop",
          "train": "yes"
        }
      },
      {
        "type": "node",
        "id": 6336918971,
        "lat": 28.5795432,
        "lon": 77.2141916,
        "tags": {
          "bus": "yes",
          "name": "Safdarjung Terminal",
          "public_transport": "stop_position"
        }
      },
      {
        "type": "node",
        "id": 6453544487,
        "lat": 28.5736524,
        "lon": 77.2075857,
        "tags": {
          "name": "Dilli Haat - INA (Pink Line)",
          "name:hi": "\u0926\u093f\u0932\u094d\u0932\u0940 \u0939\u093e\u091f - \u0906\u0908 \u090f\u0928 \u090f",
          "network": "Delhi Metro",
          "note": "Contributors are requested to not edit the \"network\" and the \"operator\" tags. (2023/06/22)",
          "operator": "Delhi Metro Rail Corporation Limited",
          "public_transport": "station",
          "railway": "station",
          "ref": "INA",
          "station": "subway",
          "subway": "yes",
          "wikidata": "Q17055892",
          "wikipedia": "en:Dilli Haat - INA metro station"
        }
      },
      {
        "type": "node",
        "id": 6453992653,
        "lat": 28.5741769,
        "lon": 77.2093017,
        "tags": {
          "name": "Dilli Haat - INA (Yellow Line)",
          "name:hi": "\u0926\u093f\u0932\u094d\u0932\u0940 \u0939\u093e\u091f - \u0906\u0908 \u090f\u0928 \u090f",
          "network": "Delhi Metro",
          "note": "Contributors are requested to not edit the \"network\" and the \"operator\" tags. (2023/06/22)",
          "operator": "Delhi Metro Rail Corporation Limited",
          "public_transport": "station",
          "railway": "station",
          "station": "subway",
          "subway": "yes",
          "wikidata": "Q17055892",
          "wikipedia": "en:Dilli Haat - INA metro station"
        }
      },
      {
        "type": "node",
        "id": 6458202842,
        "lat": 28.575817,
        "lon": 77.1980786,
        "tags": {
          "name": "Sarojini Nagar",
          "name:hi": "\u0938\u0930\u094b\u091c\u093f\u0928\u0940 \u0928\u0917\u0930",
          "name:ur": "\u0633\u0631\u0648\u062c\u0646\u06cc \u0646\u06af\u0631",
          "network": "Delhi Metro",
          "note": "Contributors are requested to not edit the \"network\" and the \"operator\" tags. (2023/06/22)",
          "operator": "Delhi Metro Rail Corporation Limited",
          "public_transport": "station",
          "railway": "station",
          "ref": "SOJI",
          "station": "subway",
          "subway": "yes",
          "wikidata": "Q28172662",
          "wikipedia": "en:Sarojini Nagar metro station"
        }
      },
      {
        "type": "node",
        "id": 6918479540,
        "lat": 28.5854347,
        "lon": 77.2203893,
        "tags": {
          "amenity": "charging_station"
        }
      },
      {
        "type": "node",
        "id": 6918479558,
        "lat": 28.587056,
        "lon": 77.2120476,
        "tags": {
          "amenity": "charging_station"
        }
      },
      {
        "type": "node",
        "id": 6961442929,
        "lat": 28.5865591,
        "lon": 77.1934263,
        "tags": {
          "amenity": "charging_station"
        }
      },
      {
        "type": "node",
        "id": 6961442948,
        "lat": 28.5908405,
        "lon": 77.1960832,
        "tags": {
          "amenity": "fuel",
          "brand": "Hindustan Petroleum",
          "brand:wikidata": "Q1619375",
          "name": "Angra HP Centre",
          "official_name": "Hindustan Petroleum"
        }
      },
      {
        "type": "node",
        "id": 6961442954,
        "lat": 28.5866112,
        "lon": 77.1934058,
        "tags": {
          "amenity": "charging_station"
        }
      },
      {
        "type": "node",
        "id": 7018886727,
        "lat": 28.6095136,
        "lon": 77.211796,
        "tags": {
          "name": "Udyog Bhavan",
          "name:hi": "\u0909\u0926\u094d\u092f\u094b\u0917 \u092d\u0935\u0928",
          "name:ur": "\u0627\u064f\u062f\u06cc\u0648\u06af \u0628\u06be\u0648\u0646",
          "network": "Delhi Metro",
          "network:wikidata": "Q271195",
          "note": "Contributors are requested to not edit the \"network\" and the \"operator\" tags. (2023/06/22)",
          "operator": "Delhi Metro Rail Corporation Limited",
          "operator:wikidata": "Q1029339",
          "public_transport": "station",
          "railway": "station",
          "ref": "UDB",
          "station": "subway",
          "subway": "yes",
          "wikidata": "Q7877392",
          "wikipedia": "en:Udyog Bhawan metro station"
        }
      },
      {
        "type": "node",
        "id": 7018886728,
        "lat": 28.5973513,
        "lon": 77.2110967,
        "tags": {
          "name": "Lok Kalyan Marg",
          "name:hi": "\u0932\u094b\u0915 \u0915\u0932\u094d\u092f\u093e\u0923 \u092e\u093e\u0930\u094d\u0917",
          "name:kn": "\u0cb2\u0ccb\u0c95\u0ccd \u0c95\u0cb2\u0ccd\u0caf\u0cbe\u0ca3\u0ccd",
          "network": "Delhi Metro",
          "note": "Contributors are requested to not edit the \"network\" and the \"operator\" tags. (2023/06/22)",
          "old_name": "Race Course",
          "operator": "Delhi Metro Rail Corporation Limited",
          "public_transport": "station",
          "railway": "station",
          "station": "subway",
          "subway": "yes",
          "wikidata": "Q7278893",
          "wikipedia": "en:Lok Kalyan Marg metro station"
        }
      },
      {
        "type": "node",
        "id": 7018886729,
        "lat": 28.5865094,
        "lon": 77.2125273,
        "tags": {
          "name": "Jor Bagh",
          "name:hi": "\u091c\u094b\u0930 \u092c\u093e\u0917",
          "name:kn": "\u0c9c\u0ccb\u0cb0\u0ccd \u0cad\u0cbe\u0c97\u0ccd",
          "name:ur": "\u062c\u0648\u0631 \u0628\u0627\u063a",
          "network": "Delhi Metro",
          "network:wikidata": "Q271195",
          "note": "Contributors are requested to not edit the \"network\" and the \"operator\" tags. (2023/06/22)",
          "operator": "Delhi Metro Rail Corporation Limited",
          "operator:wikidata": "Q1029339",
          "public_transport": "station",
          "railway": "station",
          "ref": "JB",
          "station": "subway",
          "subway": "yes",
          "wikidata": "Q6276226",
          "wikipedia": "en:Jor Bagh metro station"
        }
      },
      {
        "type": "node",
        "id": 7040474785,
        "lat": 28.584378,
        "lon": 77.1910554,
        "tags": {
          "amenity": "cinema",
          "brand": "PVR Cinemas",
          "brand:wikidata": "Q3359908",
          "name": "PVR ECX Chanakyapuri Cinema",
          "short_name": "PVR"
        }
      },
      {
        "type": "node",
        "id": 7282286731,
        "lat": 28.6022446,
        "lon": 77.2291281,
        "tags": {
          "name": "Khan Market",
          "name:hi": "\u0916\u093e\u0928 \u092c\u093e\u091c\u093e\u0930",
          "name:ur": "\u062e\u0627\u0646 \u0628\u0627\u0632\u0627\u0631",
          "network": "Delhi Metro",
          "note": "Contributors are requested to not edit the \"network\" and the \"operator\" tags. (2023/06/22)",
          "operator": "Delhi Metro Rail Corporation Limited",
          "public_transport": "station",
          "railway": "station",
          "station": "subway",
          "subway": "yes"
        }
      },
      {
        "type": "node",
        "id": 8124057196,
        "lat": 28.5996071,
        "lon": 77.1958058,
        "tags": {
          "addr:postcode": "110021",
          "addr:street": "Niti Marg",
          "amenity": "fuel",
          "brand": "Hindustan Petroleum",
          "brand:wikidata": "Q1619375",
          "brand:wikipedia": "en:Hindustan Petroleum",
          "fuel:diesel": "yes",
          "fuel:petrol": "yes",
          "name": "HP COCO Fuel Station",
          "official_name": "Hindustan Petroleum",
          "operator": "HPCL",
          "self_service": "no"
        }
      },
      {
        "type": "node",
        "id": 9584236506,
        "lat": 28.5882347,
        "lon": 77.2337833,
        "tags": {
          "name": "Jawaharlal Nehru Stadium",
          "name:hi": "\u091c\u0935\u093e\u0939\u0930 \u0932\u093e\u0932 \u0928\u0947\u0939\u0930\u0942 \u0938\u094d\u091f\u0947\u0921\u093f\u092f\u092e",
          "network": "Delhi Metro",
          "network:wikidata": "Q271195",
          "note": "Contributors are requested to not edit the \"network\" and the \"operator\" tags. (2023/06/22)",
          "operator": "Delhi Metro Rail Corporation Limited",
          "operator:wikidata": "Q1029339",
          "public_transport": "station",
          "railway": "station",
          "station": "subway",
          "subway": "yes"
        }
      },
      {
        "type": "node",
        "id": 9684753376,
        "lat": 28.6040475,
        "lon": 77.1977963,
        "tags": {
          "amenity": "charging_station"
        }
      },
      {
        "type": "node",
        "id": 9684753377,
        "lat": 28.6040394,
        "lon": 77.1977808,
        "tags": {
          "amenity": "charging_station"
        }
      },
      {
        "type": "node",
        "id": 9684753378,
        "lat": 28.6040316,
        "lon": 77.1977661,
        "tags": {
          "amenity": "charging_station"
        }
      },
      {
        "type": "node",
        "id": 10241768254,
        "lat": 28.5903206,
        "lon": 77.2201483,
        "tags": {
          "amenity": "charging_station"
        }
      },
      {
        "type": "node",
        "id": 10241775591,
        "lat": 28.5902808,
        "lon": 77.2197587,
        "tags": {
          "amenity": "charging_station"
        }
      },
      {
        "type": "node",
        "id": 10241805232,
        "lat": 28.5903207,
        "lon": 77.2201225,
        "tags": {
          "amenity": "charging_station"
        }
      },
      {
        "type": "node",
        "id": 10241808063,
        "lat": 28.5903054,
        "lon": 77.2199561,
        "tags": {
          "amenity": "charging_station"
        }
      },
      {
        "type": "node",
        "id": 10564130631,
        "lat": 28.6003513,
        "lon": 77.2267809,
        "tags": {
          "amenity": "charging_station"
        }
      },
      {
        "type": "node",
        "id": 10576228241,
        "lat": 28.596925,
        "lon": 77.2229085,
        "tags": {
          "access": "yes",
          "amenity": "charging_station",
          "covered": "yes"
        }
      },
      {
        "type": "node",
        "id": 11132023351,
        "lat": 28.5844378,
        "lon": 77.2205342,
        "tags": {
          "amenity": "charging_station"
        }
      },
      {
        "type": "node",
        "id": 11278156847,
        "lat": 28.5890626,
        "lon": 77.2252522,
        "tags": {
          "amenity": "theatre",
          "level": "0;1",
          "name": "Stein Auditorium"
        }
      },
      {
        "type": "node",
        "id": 11278174379,
        "lat": 28.5890358,
        "lon": 77.2252913,
        "tags": {
          "alt_name": "The Theatre",
          "amenity": "theatre",
          "level": "-1",
          "name": "Amaltas"
        }
      },
      {
        "type": "node",
        "id": 11998754854,
        "lat": 28.5801992,
        "lon": 77.2028679,
        "tags": {
          "amenity": "fuel"
        }
      },
      {
        "type": "node",
        "id": 12155450688,
        "lat": 28.5811854,
        "lon": 77.19631,
        "tags": {
          "name": "Sarojini Nagar",
          "public_transport": "stop_position",
          "railway": "stop",
          "train": "yes"
        }
      },
      {
        "type": "node",
        "id": 12672890507,
        "lat": 28.5904687,
        "lon": 77.2331036,
        "tags": {
          "amenity": "charging_station",
          "charging_station:battery_swapping": "yes",
          "level": "0"
        }
      },
      {
        "type": "node",
        "id": 12901933482,
        "lat": 28.5875463,
        "lon": 77.226213,
        "tags": {
          "amenity": "charging_station"
        }
      },
      {
        "type": "node",
        "id": 12901933483,
        "lat": 28.58752,
        "lon": 77.226218,
        "tags": {
          "amenity": "charging_station"
        }
      }
    ]
  }
}