{
  "pois_1km": {
    "version": 0.6,
    "generator": "Overpass API 0.7.62.8 e802775f",
    "osm3s": {
      "timestamp_osm_base": "2025-09-06T07:12:35Z",
      "copyright": "The data included in this document is from www.openstreetmap.org. The data is made available under ODbL."
    },
    "elements": [
      {
        "type": "node",
        "id": 5810932193,
        "lat": 28.6499529,
        "lon": 77.1832307,
        "tags": {
          "amenity": "atm",
          "brand": "Kotak Mahindra Bank",
          "brand:wikidata": "Q2040404",
          "name": "Kotak Mahindra Bank",
          "opening_hours": "24/7",
          "operator": "Kotak Mahindra Bank",
          "operator:wikidata": "Q2040404"
        }
      },
      {
        "type": "node",
        "id": 5810932194,
        "lat": 28.6499265,
        "lon": 77.1832978,
        "tags": {
          "amenity": "atm",
          "brand": "Axis Bank",
          "brand:wikidata": "Q2003549",
          "name": "Axis Bank",
          "operator": "Axis Bank",
          "operator:wikidata": "Q2003549"
        }
      },
      {
        "type": "node",
        "id": 5995059734,
        "lat": 28.6578827,
        "lon": 77.1888491,
        "tags": {
          "addr:housenumber": "block no 18b, new market, karol bagh, new Delhi, 110005",
          "addr:street": "7726",
          "amenity": "restaurant",
          "description": "restaurant and takeaway",
          "name": "Bawarchi khana",
          "phone": "9560476123",
          "website": "bawarchikhana.co.in"
        }
      },
      {
        "type": "node",
        "id": 6507350888,
        "lat": 28.6624722,
        "lon": 77.1853223,
        "tags": {
          "amenity": "atm",
          "brand": "State Bank of India",
          "brand:en": "State Bank of India",
          "brand:wikidata": "Q1340361",
          "currency:INR": "yes",
          "drive_through": "no",
          "indoor": "yes",
          "note": "Contributors are requested to not edit the \"brand\", \"brand:en\", \"brand:wikidata\", \"operator\", \"operator:en\" and \"operator:wikidata\" tags. (2025/02/19)",
          "opening_hours": "24/7",
          "operator": "State Bank of India",
          "operator:en": "State Bank of India",
          "operator:wikidata": "Q1340361",
          "short_name": "SBI"
        }
      },
      {
        "type": "node",
        "id": 6741865637,
        "lat": 28.6539198,
        "lon": 77.191078,
        "tags": {
          "addr:city": "New Delhi",
          "amenity": "bank",
          "atm": "yes",
          "branch": "Dev Nagar",
          "brand": "State Bank of India",
          "brand:wikidata": "Q1340361",
          "level": "0",
          "name": "State Bank of India",
          "short_name": "SBI",
          "wheelchair": "no"
        }
      },
      {
        "type": "node",
        "id": 7138534291,
        "lat": 28.6520034,
        "lon": 77.1855285,
        "tags": {
          "addr:district": "Central",
          "addr:full": "5439, Arya Samaj Road,Karol Bagh, Dev Nagar",
          "addr:postcode": "110005",
          "addr:state": "Delhi",
          "amenity": "clinic",
          "contact:phone": "25736101",
          "name": "NGO Parivar Sewa Clinic",
          "source": "OpenGovernmentData"
        }
      },
      {
        "type": "node",
        "id": 7138534330,
        "lat": 28.6543709,
        "lon": 77.1835213,
        "tags": {
          "addr:district": "Central",
          "addr:full": "Block No.12, Govt. Quarters, Karol Bagh, New Delhi-5, Opp. Mother Dairy",
          "addr:postcode": "110005",
          "addr:state": "Delhi",
          "amenity": "clinic",
          "contact:phone": "25860275",
          "description": "Dispensaries",
          "health_facility:type": "dispensary",
          "healthcare": "centre",
          "name": "CGHS, Dev Nagar",
          "source": "OpenGovernmentData"
        }
      },
      {
        "type": "node",
        "id": 7138534399,
        "lat": 28.660396,
        "lon": 77.18014,
        "tags": {
          "addr:district": "Central",
          "addr:full": "Gali No.16, Karol Bagh, Nai Basti, Anand Parvat",
          "addr:postcode": "110005",
          "addr:state": "Delhi",
          "amenity": "clinic",
          "contact:phone": "28764106",
          "description": "Dispensaries",
          "health_facility:type": "dispensary",
          "healthcare": "centre",
          "name": "DGD, Anand Parbat",
          "source": "OpenGovernmentData"
        }
      },
      {
        "type": "node",
        "id": 12205008401,
        "lat": 28.6534508,
        "lon": 77.1892179,
        "tags": {
          "leisure": "park",
          "name": "Shiv Nagar Park",
          "opening_hours": "Mo-Su 05:00-22:30"
        }
      },
      {
        "type": "node",
        "id": 12307165299,
        "lat": 28.6545835,
        "lon": 77.189109,
        "tags": {
          "addr:city": "New Delhi",
          "addr:housenumber": "5060/1",
          "addr:place": "Sant Nagar",
          "addr:street": "Deshbandhu Gupta Road",
          "amenity": "restaurant",
          "contact:mobile": "+91 98100 55621",
          "level": "0",
          "name": "Amritsari Chaap Corner",
          "wheelchair": "no"
        }
      },
      {
        "type": "node",
        "id": 12307167502,
        "lat": 28.653992,
        "lon": 77.1898706,
        "tags": {
          "amenity": "restaurant",
          "contact:mobile": "+91 99109 50531;+91 99990 30701",
          "cuisine": "Punjabi",
          "diet:lacto_vegetarian": "only",
          "level": "0",
          "name": "Om Corner",
          "wheelchair": "limited"
        }
      }
    ]
  },
  "pois_2_5km": {
    "version": 0.6,
    "generator": "Overpass API 0.7.62.8 e802775f",
    "osm3s": {
      "timestamp_osm_base": "2025-09-06T07:12:35Z",
      "copyright": "The data included in this document is from www.openstreetmap.org. The data is made available under ODbL."
    },
    "elements": [
      {
        "type": "node",
        "id": 268217229,
        "lat": 28.6450127,
        "lon": 77.1692817,
        "tags": {
          "name": "Patel Nagar",
          "name:hi": "\u092a\u091f\u0947\u0932 \u0928\u0917\u0930",
          "name:kn": "\u0caa\u0c9f\u0cc7\u0cb2\u0ccd \u0ca8\u0c97\u0cb0\u0ccd",
          "name:ur": "\u067e\u0679\u06cc\u0644 \u0646\u06af\u0631",
          "network": "Delhi Metro",
          "note": "Contributors are requested to not edit the \"network\" and the \"operator\" tags. (2023/06/22)",
          "operator": "Delhi Metro Rail Corporation Limited",
          "public_transport": "station",
          "railway": "station",
          "station": "subway",
          "subway": "yes",
          "wikidata": "Q7144412",
          "wikipedia": "en:Patel Nagar metro station"
        }
      },
      {
        "type": "node",
        "id": 268381457,
        "lat": 28.6667177,
        "lon": 77.1988974,
        "tags": {
          "name": "Pratap Nagar",
          "name:hi": "\u092a\u094d\u0930\u0924\u093e\u092a \u0928\u0917\u0930",
          "name:ur": "\u067e\u0631\u062a\u0627\u067e \u0646\u06af\u0631",
          "network": "Delhi Metro",
          "note": "Contributors are requested to not edit the \"network\" and the \"operator\" tags. (2023/06/22)",
          "operator": "Delhi Metro Rail Corporation Limited",
          "public_transport": "station",
          "railway": "station",
          "station": "subway",
          "subway": "yes",
          "wikidata": "Q7238590",
          "wikipedia": "en:Pratap Nagar metro station"
        }
      },
      {
        "type": "node",
        "id": 345234440,
        "lat": 28.6424765,
        "lon": 77.1782794,
        "tags": {
          "name": "Rajendra Place",
          "name:kn": "\u0cb0\u0cbe\u0c9c\u0cc7\u0c82\u0ca6\u0ccd\u0cb0 \u0caa\u0ccd\u0caf\u0cbe\u0cb2\u0cc7\u0cb8\u0ccd",
          "network": "Delhi Metro",
          "note": "Contributors are requested to not edit the \"network\" and the \"operator\" tags. (2023/06/22)",
          "operator": "Delhi Metro Rail Corporation Limited",
          "public_transport": "stop_position",
          "railway": "stop",
          "subway": "yes"
        }
      },
      {
        "type": "node",
        "id": 345234441,
        "lat": 28.6440122,
        "lon": 77.1885235,
        "tags": {
          "name": "Karol Bagh",
          "name:hi": "\u0915\u0930\u094b\u0932 \u092c\u093e\u0917",
          "name:kn": "\u0c95\u0cb0\u0ccb\u0cb2\u0ccd \u0cad\u0cbe\u0c97\u0ccd",
          "name:ur": "\u0642\u0631\u0648\u0644 \u0628\u0627\u063a",
          "network": "Delhi Metro",
          "network:wikidata": "Q271195",
          "note": "Contributors are requested to not edit the \"network\" and the \"operator\" tags. (2023/06/22)",
          "operator": "Delhi Metro Rail Corporation Limited",
          "operator:wikidata": "Q1029339",
          "public_transport": "station",
          "railway": "station",
          "station": "subway",
          "subway": "yes",
          "wikidata": "Q6373014",
          "wikipedia": "en:Karol Bagh metro station"
        }
      },
      {
        "type": "node",
        "id": 345234443,
        "lat": 28.6442998,
        "lon": 77.1999053,
        "tags": {
          "name": "Jhandewalan",
          "name:kn": "\u0c9d\u0cbe\u0c82\u0ca1\u0cc6\u0cb5\u0cbe\u0cb2\u0ca8\u0ccd",
          "network": "Delhi Metro",
          "note": "Contributors are requested to not edit the \"network\" and the \"operator\" tags. (2023/06/22)",
          "operator": "Delhi Metro Rail Corporation Limited",
          "public_transport": "stop_position",
          "railway": "stop",
          "subway": "yes"
        }
      },
      {
        "type": "node",
        "id": 347676595,
        "lat": 28.6515829,
        "lon": 77.1582587,
        "tags": {
          "internet_access:fee": "no",
          "name": "Shadipur",
          "name:hi": "\u0936\u093e\u0926\u0940\u092a\u0941\u0930",
          "name:kn": "\u0cb7\u0cbe\u0ca6\u0cbf\u0caa\u0cc1\u0cb0\u0ccd",
          "name:ur": "\u0634\u0627\u062f\u06cc \u067e\u0648\u0631",
          "network": "Delhi Metro",
          "note": "Contributors are requested to not edit the \"network\" and the \"operator\" tags. (2023/06/22)",
          "operator": "Delhi Metro Rail Corporation Limited",
          "public_transport": "station",
          "railway": "station",
          "station": "subway",
          "subway": "yes",
          "wikidata": "Q11306954",
          "wikipedia": "en:Shadipur metro station"
        }
      },
      {
        "type": "node",
        "id": 663761411,
        "lat": 28.6700885,
        "lon": 77.1818589,
        "tags": {
          "name": "Shastri Nagar",
          "name:hi": "\u0936\u093e\u0938\u094d\u0924\u094d\u0930\u0940 \u0928\u0917\u0930",
          "network": "Delhi Metro",
          "note": "Contributors are requested to not edit the \"network\" and the \"operator\" tags. (2023/06/22)",
          "operator": "Delhi Metro Rail Corporation Limited",
          "public_transport": "station",
          "railway": "station",
          "station": "subway",
          "subway": "yes",
          "wikipedia": "en:Shastri Nagar metro station"
        }
      },
      {
        "type": "node",
        "id": 663761428,
        "lat": 28.6735891,
        "lon": 77.1703467,
        "tags": {
          "alt_name": "Trinagar",
          "name": "Inderlok (Red Line)",
          "name:hi": "\u0907\u0902\u0926\u094d\u0930\u0932\u094b\u0915",
          "network": "Delhi Metro",
          "note": "Contributors are requested to not edit the \"network\" and the \"operator\" tags. (2023/06/22)",
          "operator": "Delhi Metro Rail Corporation Limited",
          "public_transport": "station",
          "railway": "station",
          "station": "subway",
          "subway": "yes",
          "wikidata": "Q4207366",
          "wikipedia": "en:Inderlok metro station"
        }
      },
      {
        "type": "node",
        "id": 913081055,
        "lat": 28.6685068,
        "lon": 77.2004935,
        "tags": {
          "internet_access": "no",
          "name": "Subzimandi",
          "name:ur": "\u0633\u0628\u0632\u06cc \u0645\u0646\u0688\u06cc",
          "network": "IR",
          "operator": "NR",
          "public_transport": "station",
          "railway": "station",
          "ref": "SZM",
          "train": "yes",
          "wikidata": "Q18386051",
          "wikipedia": "en:Subzi Mandi railway station"
        }
      },
      {
        "type": "node",
        "id": 914644353,
        "lat": 28.6671217,
        "lon": 77.17119,
        "tags": {
          "internet_access": "no",
          "name": "Dayabasti",
          "name:ur": "\u062f\u06cc\u0627 \u0628\u0633\u062a\u06cc",
          "network": "IR",
          "operator": "NR",
          "public_transport": "station",
          "railway": "station",
          "ref": "DBSI",
          "train": "yes",
          "wikidata": "Q12433306"
        }
      },
      {
        "type": "node",
        "id": 915232317,
        "lat": 28.6726319,
        "lon": 77.1691376,
        "tags": {
          "alt_name": "Trinagar",
          "name": "Inderlok (Green Line)",
          "name:hi": "\u0907\u0902\u0926\u094d\u0930\u0932\u094b\u0915",
          "network": "Delhi Metro",
          "note": "Contributors are requested to not edit the \"network\" and the \"operator\" tags. (2023/06/22)",
          "operator": "Delhi Metro Rail Corporation Limited",
          "public_transport": "stop_position",
          "railway": "stop",
          "subway": "yes"
        }
      },
      {
        "type": "node",
        "id": 915407469,
        "lat": 28.6627515,
        "lon": 77.1852561,
        "tags": {
          "internet_access": "no",
          "name": "Delhi Sarai Rohilla",
          "name:ur": "\u062f\u06c1\u0644\u06cc \u0633\u0631\u0627\u0626\u06d2 \u0631\u0648\u06c1\u0644\u06c1",
          "network": "Indian Railways",
          "operator": "Northern Railway",
          "public_transport": "station",
          "railway": "station",
          "ref": "DEE",
          "train": "yes",
          "wheelchair": "yes",
          "wikidata": "Q3635051",
          "wikipedia": "en:Delhi Sarai Rohilla railway station"
        }
      },
      {
        "type": "node",
        "id": 915408117,
        "lat": 28.6630897,
        "lon": 77.1855428,
        "tags": {
          "name": "Sarai Rohilla",
          "public_transport": "stop_position",
          "ref": "2",
          "train": "yes"
        }
      },
      {
        "type": "node",
        "id": 915408380,
        "lat": 28.6633457,
        "lon": 77.1856369,
        "tags": {
          "name": "Sarai Rohilla",
          "public_transport": "stop_position",
          "ref": "4",
          "train": "yes"
        }
      },
      {
        "type": "node",
        "id": 1669069398,
        "lat": 28.6397503,
        "lon": 77.1739956,
        "tags": {
          "amenity": "fuel"
        }
      },
      {
        "type": "node",
        "id": 1669092652,
        "lat": 28.6396139,
        "lon": 77.1740466,
        "tags": {
          "amenity": "fuel"
        }
      },
      {
        "type": "node",
        "id": 1669092717,
        "lat": 28.640496,
        "lon": 77.1741764,
        "tags": {
          "amenity": "bus_station",
          "bus": "yes",
          "name": "Pusa Institute",
          "name:ur": "\u067e\u0648\u0633\u0627 \u0627\u0646\u0633\u0679\u06cc\u0679\u06cc\u0648\u0679",
          "public_transport": "station"
        }
      },
      {
        "type": "node",
        "id": 1988513580,
        "lat": 28.6627442,
        "lon": 77.1979077,
        "tags": {
          "alt_name": "Delhi Kishan Ganj",
          "alt_name:ur": "\u062f\u06c1\u0644\u06cc \u06a9\u0634\u0646 \u06af\u0646\u062c",
          "internet_access": "no",
          "name": "Delhi Kishanganj",
          "name:ur": "\u062f\u06c1\u0644\u06cc \u06a9\u0650\u0634\u0646 \u06af\u0646\u062c",
          "network": "IR",
          "operator": "NR",
          "public_transport": "station",
          "railway": "station",
          "ref": "DKZ",
          "train": "yes",
          "wikidata": "Q6416546",
          "wikipedia": "en:Kishanganj railway station"
        }
      },
      {
        "type": "node",
        "id": 1988513600,
        "lat": 28.6644729,
        "lon": 77.1838135,
        "tags": {
          "alt_name": "Sarai Rohilla",
          "internet_access": "no",
          "name": "Vivekanand Puri",
          "network": "IR",
          "operator": "NR",
          "public_transport": "station",
          "railway": "station",
          "ref": "WKP",
          "train": "yes",
          "wikidata": "Q12453008"
        }
      },
      {
        "type": "node",
        "id": 5638613753,
        "lat": 28.6444395,
        "lon": 77.1987994,
        "tags": {
          "amenity": "fuel"
        }
      },
      {
        "type": "node",
        "id": 5638613754,
        "lat": 28.6450079,
        "lon": 77.1989094,
        "tags": {
          "amenity": "fuel"
        }
      },
      {
        "type": "node",
        "id": 5737167621,
        "lat": 28.6443363,
        "lon": 77.1999274,
        "tags": {
          "name": "Jhandewalan",
          "name:kn": "\u0c9d\u0cbe\u0c82\u0ca1\u0cc6\u0cb5\u0cbe\u0cb2\u0ca8\u0ccd",
          "network": "Delhi Metro",
          "note": "Contributors are requested to not edit the \"network\" and the \"operator\" tags. (2023/06/22)",
          "operator": "Delhi Metro Rail Corporation Limited",
          "public_transport": "stop_position",
          "railway": "stop",
          "subway": "yes"
        }
      },
      {
        "type": "node",
        "id": 5737167627,
        "lat": 28.6440313,
        "lon": 77.1885202,
        "tags": {
          "name": "Karol Bagh",
          "name:hi": "\u0915\u0930\u094b\u0932 \u092c\u093e\u0917",
          "name:kn": "\u0c95\u0cb0\u0ccb\u0cb2\u0ccd \u0cad\u0cbe\u0c97\u0ccd",
          "network": "Delhi Metro",
          "note": "Contributors are requested to not edit the \"network\" and the \"operator\" tags. (2023/06/22)",
          "operator": "Delhi Metro Rail Corporation Limited",
          "public_transport": "stop_position",
          "railway": "stop",
          "subway": "yes"
        }
      },
      {
        "type": "node",
        "id": 5737167628,
        "lat": 28.6425172,
        "lon": 77.1782713,
        "tags": {
          "name": "Rajendra Place",
          "name:kn": "\u0cb0\u0cbe\u0c9c\u0cc7\u0c82\u0ca6\u0ccd\u0cb0 \u0caa\u0ccd\u0caf\u0cbe\u0cb2\u0cc7\u0cb8\u0ccd",
          "network": "Delhi Metro",
          "note": "Contributors are requested to not edit the \"network\" and the \"operator\" tags. (2023/06/22)",
          "operator": "Delhi Metro Rail Corporation Limited",
          "public_transport": "stop_position",
          "railway": "stop",
          "subway": "yes"
        }
      },
      {
        "type": "node",
        "id": 5737167640,
        "lat": 28.6450294,
        "lon": 77.1692924,
        "tags": {
          "name": "Patel Nagar",
          "name:hi": "\u092a\u091f\u0947\u0932 \u0928\u0917\u0930",
          "name:kn": "\u0caa\u0c9f\u0cc7\u0cb2\u0ccd \u0ca8\u0c97\u0cb0\u0ccd",
          "network": "Delhi Metro",
          "note": "Contributors are requested to not edit the \"network\" and the \"operator\" tags. (2023/06/22)",
          "operator": "Delhi Metro Rail Corporation Limited",
          "public_transport": "stop_position",
          "railway": "stop",
          "subway": "yes"
        }
      },
      {
        "type": "node",
        "id": 5737167642,
        "lat": 28.6516006,
        "lon": 77.1582691,
        "tags": {
          "name": "Shadipur",
          "name:hi": "\u0936\u093e\u0926\u0940\u092a\u0941\u0930",
          "name:kn": "\u0cb7\u0cbe\u0ca6\u0cbf\u0caa\u0cc1\u0cb0\u0ccd",
          "name:ur": "\u0634\u0627\u062f\u06cc \u067e\u0648\u0631",
          "network": "Delhi Metro",
          "note": "Contributors are requested to not edit the \"network\" and the \"operator\" tags. (2023/06/22)",
          "operator": "Delhi Metro Rail Corporation Limited",
          "public_transport": "stop_position",
          "railway": "stop",
          "subway": "yes"
        }
      },
      {
        "type": "node",
        "id": 5758574006,
        "lat": 28.6425083,
        "lon": 77.1764239,
        "tags": {
          "amenity": "fuel",
          "brand": "Bharat Petroleum",
          "brand:wikidata": "Q854826",
          "name": "Bharat Petroleum"
        }
      },
      {
        "type": "node",
        "id": 5777600303,
        "lat": 28.6726752,
        "lon": 77.1690916,
        "tags": {
          "alt_name": "Trinagar",
          "name": "Inderlok (Green Line)",
          "name:hi": "\u0907\u0902\u0926\u094d\u0930\u0932\u094b\u0915",
          "network": "Delhi Metro",
          "note": "Contributors are requested to not edit the \"network\" and the \"operator\" tags. (2023/06/23)",
          "operator": "Delhi Metro Rail Corporation Limited",
          "public_transport": "stop_position",
          "subway": "yes"
        }
      },
      {
        "type": "node",
        "id": 5781445033,
        "lat": 28.6424955,
        "lon": 77.1782756,
        "tags": {
          "name": "Rajendra Place",
          "name:hi": "\u0930\u093e\u091c\u0947\u0902\u0926\u094d\u0930 \u092a\u094d\u0932\u0947\u0938",
          "name:kn": "\u0cb0\u0cbe\u0c9c\u0cc7\u0c82\u0ca6\u0ccd\u0cb0 \u0caa\u0ccd\u0caf\u0cbe\u0cb2\u0cc7\u0cb8\u0ccd",
          "network": "Delhi Metro",
          "note": "Contributors are requested to not edit the \"network\" and the \"operator\" tags. (2023/06/23)",
          "operator": "Delhi Metro Rail Corporation Limited",
          "railway": "station",
          "station": "subway",
          "wikidata": "Q7286033",
          "wikipedia": "en:Rajendra Place metro station"
        }
      },
      {
        "type": "node",
        "id": 6465991434,
        "lat": 28.6727066,
        "lon": 77.1691872,
        "tags": {
          "alt_name": "Trinagar",
          "name": "Inderlok (Green Line)",
          "name:hi": "\u0907\u0902\u0926\u094d\u0930\u0932\u094b\u0915",
          "network": "Delhi Metro",
          "note": "Contributors are requested to not edit the \"network\" and the \"operator\" tags. (2023/06/22)",
          "operator": "Delhi Metro Rail Corporation Limited",
          "public_transport": "station",
          "railway": "station",
          "station": "subway",
          "subway": "yes",
          "wikidata": "Q4207366",
          "wikipedia": "en:Inderlok metro station"
        }
      },
      {
        "type": "node",
        "id": 6507350891,
        "lat": 28.657125,
        "lon": 77.1960191,
        "tags": {
          "amenity": "fuel",
          "brand": "Indian Oil",
          "brand:wikidata": "Q1289348",
          "name": "Indian Oil"
        }
      },
      {
        "type": "node",
        "id": 6539894849,
        "lat": 28.6443188,
        "lon": 77.1999165,
        "tags": {
          "name": "Jhandewalan",
          "name:hi": "\u091d\u0902\u0921\u0947\u0935\u093e\u0932\u093e\u0928",
          "name:kn": "\u0c9d\u0cbe\u0c82\u0ca1\u0cc6\u0cb5\u0cbe\u0cb2\u0ca8\u0ccd",
          "network": "Delhi Metro",
          "network:wikidata": "Q271195",
          "note": "Contributors are requested to not edit the \"network\" and the \"operator\" tags. (2023/06/22)",
          "operator": "Delhi Metro Rail Corporation Limited",
          "operator:wikidata": "Q1029339",
          "public_transport": "station",
          "railway": "station",
          "station": "subway",
          "subway": "yes",
          "wikidata": "Q6190836",
          "wikipedia": "en:Jhandewalan metro station"
        }
      },
      {
        "type": "node",
        "id": 6547772114,
        "lat": 28.6515664,
        "lon": 77.1582426,
        "tags": {
          "name": "Shadipur",
          "name:hi": "\u0936\u093e\u0926\u0940\u092a\u0941\u0930",
          "name:kn": "\u0cb7\u0cbe\u0ca6\u0cbf\u0caa\u0cc1\u0cb0\u0ccd",
          "name:ur": "\u0634\u0627\u062f\u06cc \u067e\u0648\u0631",
          "network": "Delhi Metro",
          "note": "Contributors are requested to not edit the \"network\" and the \"operator\" tags. (2023/06/22)",
          "operator": "Delhi Metro Rail Corporation Limited",
          "public_transport": "stop_position",
          "railway": "stop",
          "subway": "yes"
        }
      },
      {
        "type": "node",
        "id": 6547772115,
        "lat": 28.6449953,
        "lon": 77.1692658,
        "tags": {
          "name": "Patel Nagar",
          "name:hi": "\u092a\u091f\u0947\u0932 \u0928\u0917\u0930",
          "name:kn": "\u0caa\u0c9f\u0cc7\u0cb2\u0ccd \u0ca8\u0c97\u0cb0\u0ccd",
          "network": "Delhi Metro",
          "note": "Contributors are requested to not edit the \"network\" and the \"operator\" tags. (2023/06/22)",
          "operator": "Delhi Metro Rail Corporation Limited",
          "public_transport": "stop_position",
          "railway": "stop",
          "subway": "yes"
        }
      },
      {
        "type": "node",
        "id": 6547772123,
        "lat": 28.6439905,
        "lon": 77.1885276,
        "tags": {
          "name": "Karol Bagh",
          "name:hi": "\u0915\u0930\u094b\u0932 \u092c\u093e\u0917",
          "name:kn": "\u0c95\u0cb0\u0ccb\u0cb2\u0ccd \u0cad\u0cbe\u0c97\u0ccd",
          "network": "Delhi Metro",
          "note": "Contributors are requested to not edit the \"network\" and the \"operator\" tags. (2023/06/22)",
          "operator": "Delhi Metro Rail Corporation Limited",
          "public_transport": "stop_position",
          "railway": "stop",
          "subway": "yes"
        }
      },
      {
        "type": "node",
        "id": 6743312153,
        "lat": 28.6442084,
        "lon": 77.1882129,
        "tags": {
          "public_transport": "stop_position",
          "share_taxi": "yes"
        }
      },
      {
        "type": "node",
        "id": 6743318629,
        "lat": 28.6528118,
        "lon": 77.192371,
        "tags": {
          "public_transport": "stop_position",
          "share_taxi": "yes"
        }
      },
      {
        "type": "node",
        "id": 7037640885,
        "lat": 28.6594215,
        "lon": 77.190059,
        "tags": {
          "amenity": "cinema",
          "name": "Liberty Cinema"
        }
      },
      {
        "type": "node",
        "id": 8985517002,
        "lat": 28.6781383,
        "lon": 77.188526,
        "tags": {
          "amenity": "fuel"
        }
      },
      {
        "type": "node",
        "id": 9544997484,
        "lat": 28.6480292,
        "lon": 77.2008439,
        "tags": {
          "amenity": "bus_station",
          "bench": "yes",
          "bus": "yes",
          "name": "Karol Bagh Terminal",
          "operator": "DTC",
          "public_transport": "station",
          "shelter": "yes"
        }
      },
      {
        "type": "node",
        "id": 9730042238,
        "lat": 28.6436988,
        "lon": 77.196868,
        "tags": {
          "bus": "yes",
          "name": "Karol Bagh",
          "public_transport": "stop_position"
        }
      },
      {
        "type": "node",
        "id": 11765231237,
        "lat": 28.648275,
        "lon": 77.2008227,
        "tags": {
          "amenity": "bus_station",
          "bench": "yes",
          "bus": "yes",
          "name": "Karol Bagh Terminal",
          "operator": "DTC",
          "public_transport": "station",
          "shelter": "yes"
        }
      },
      {
        "type": "node",
        "id": 11833042043,
        "lat": 28.6512729,
        "lon": 77.2046862,
        "tags": {
          "amenity": "fuel",
          "brand": "Hindustan Petroleum",
          "brand:wikidata": "Q1619375",
          "name": "HP",
          "official_name": "Hindustan Petroleum"
        }
      },
      {
        "type": "node",
        "id": 12186858958,
        "lat": 28.6632589,
        "lon": 77.1856042,
        "tags": {
          "name": "Sarai Rohilla",
          "public_transport": "stop_position",
          "ref": "3",
          "train": "yes"
        }
      }
    ]
  }
}