{
  "pois_1km": {
    "version": 0.6,
    "generator": "Overpass API 0.7.62.8 e802775f",
    "osm3s": {
      "timestamp_osm_base": "2025-09-06T07:15:45Z",
      "copyright": "The data included in this document is from www.openstreetmap.org. The data is made available under ODbL."
    },
    "elements": [
      {
        "type": "node",
        "id": 4472374796,
        "lat": 28.688357,
        "lon": 77.1218252,
        "tags": {
          "amenity": "fast_food",
          "name": "Foodpanda",
          "name:en": "Foodpanda"
        }
      },
      {
        "type": "node",
        "id": 4474590390,
        "lat": 28.6883445,
        "lon": 77.1218091,
        "tags": {
          "amenity": "restaurant",
          "name": "Keswi",
          "name:en": "Keswi"
        }
      },
      {
        "type": "node",
        "id": 4474611689,
        "lat": 28.6882438,
        "lon": 77.1212148,
        "tags": {
          "amenity": "restaurant",
          "name": "NCR",
          "name:en": "NCR"
        }
      },
      {
        "type": "node",
        "id": 4474634989,
        "lat": 28.6882544,
        "lon": 77.1214711,
        "tags": {
          "amenity": "restaurant",
          "name": "Punjabi's",
          "name:en": "Punjabi's"
        }
      },
      {
        "type": "node",
        "id": 4475061192,
        "lat": 28.6884962,
        "lon": 77.1222079,
        "tags": {
          "addr:district": "North West",
          "addr:full": "3,Sainik Vihar, Pitam Pura",
          "addr:postcode": "110034",
          "addr:state": "Delhi",
          "amenity": "hospital",
          "description": "<100 Bedded Hospital",
          "name": "Savera Hospital",
          "name:en": "Savera Hospital",
          "source": "OpenGovernmentData"
        }
      },
      {
        "type": "node",
        "id": 4475127990,
        "lat": 28.6883696,
        "lon": 77.1217654,
        "tags": {
          "amenity": "clinic",
          "name": "Dr. Akash Juneja (ENT)",
          "name:en": "Dr. Akash Juneja (ENT)"
        }
      },
      {
        "type": "node",
        "id": 4475158895,
        "lat": 28.6891334,
        "lon": 77.1259071,
        "tags": {
          "amenity": "bank",
          "brand:wikidata": "Q2743499",
          "name": "Punjab National Bank",
          "name:en": "Punjab National Bank",
          "name:fa": "\u0628\u0627\u0646\u06a9 \u0645\u0644\u06cc \u067e\u0646\u062c\u0627\u0628",
          "short_name": "PNB",
          "website": "https://www.pnbindia.in",
          "wikidata": "Q2743499",
          "wikimedia_commons": "Category:Punjab National Bank",
          "wikipedia": "en:Punjab National Bank"
        }
      },
      {
        "type": "node",
        "id": 4475201991,
        "lat": 28.6883534,
        "lon": 77.1216542,
        "tags": {
          "amenity": "atm",
          "operator": "Punjab National Bank ATM"
        }
      },
      {
        "type": "node",
        "id": 4475206689,
        "lat": 28.6884528,
        "lon": 77.1221833,
        "tags": {
          "amenity": "clinic",
          "name": "Health touch medicine",
          "name:en": "Health touch medicine"
        }
      },
      {
        "type": "node",
        "id": 4483884793,
        "lat": 28.692076,
        "lon": 77.1157636,
        "tags": {
          "amenity": "clinic",
          "name": "Radha Krishna Medilink",
          "name:en": "Radha Krishna Medilink"
        }
      },
      {
        "type": "node",
        "id": 4483884794,
        "lat": 28.6920999,
        "lon": 77.1160966,
        "tags": {
          "amenity": "doctors",
          "name": "MSS Hospital",
          "name:en": "MSS Hospital"
        }
      },
      {
        "type": "node",
        "id": 4483893392,
        "lat": 28.6920814,
        "lon": 77.1160257,
        "tags": {
          "amenity": "clinic",
          "name": "Patanjali store",
          "name:en": "Patanjali store"
        }
      },
      {
        "type": "node",
        "id": 6075069485,
        "lat": 28.6944136,
        "lon": 77.1287968,
        "tags": {
          "addr:postcode": "110034",
          "addr:street": "Maharishi Parshuram Marg",
          "amenity": "hospital",
          "name": "Saral Diagnostics"
        }
      },
      {
        "type": "node",
        "id": 7138632198,
        "lat": 28.6972083,
        "lon": 77.1267268,
        "tags": {
          "addr:district": "North West",
          "addr:full": "C-Block, Guru Sandeepan Marg, Near Sbi Bank, Saraswati Vihar",
          "addr:postcode": "110034",
          "addr:state": "Delhi",
          "amenity": "clinic",
          "contact:phone": "27023849",
          "description": "Dispensaries",
          "health_facility:type": "dispensary",
          "healthcare": "centre",
          "name": "Aam aadmi polyclinic, Saraswati Vihar",
          "source": "OpenGovernmentData"
        }
      },
      {
        "type": "node",
        "id": 7947290195,
        "lat": 28.6910247,
        "lon": 77.1197309,
        "tags": {
          "addr:city": "New Delhi",
          "addr:housenumber": "7/D34",
          "addr:postcode": "110034",
          "addr:street": "Road no. 42",
          "air_conditioning": "yes",
          "amenity": "restaurant",
          "bar": "yes",
          "capacity": "50",
          "cuisine": "indian;italian;american;north_indian",
          "diet:non-vegetarian": "yes",
          "diet:vegetarian": "yes",
          "name": "Grand Celebration Party Hub",
          "phone": "+91 98911 28518",
          "reservation": "recommended"
        }
      },
      {
        "type": "node",
        "id": 8017632093,
        "lat": 28.6949173,
        "lon": 77.1184738,
        "tags": {
          "leisure": "park"
        }
      }
    ]
  },
  "pois_2_5km": {
    "version": 0.6,
    "generator": "Overpass API 0.7.62.8 e802775f",
    "osm3s": {
      "timestamp_osm_base": "2025-09-06T07:16:45Z",
      "copyright": "The data included in this document is from www.openstreetmap.org. The data is made available under ODbL."
    },
    "elements": [
      {
        "type": "node",
        "id": 311963955,
        "lat": 28.6980415,
        "lon": 77.1405393,
        "tags": {
          "name": "Kohat Enclave",
          "name:hi": "\u0915\u094b\u0939\u093e\u091f \u090f\u0928\u0915\u094d\u0932\u0947\u0935",
          "network": "Delhi Metro",
          "note": "Contributors are requested to not edit the \"network\" and the \"operator\" tags. (2023/06/22)",
          "operator": "Delhi Metro Rail Corporation Limited",
          "public_transport": "station",
          "railway": "station",
          "station": "subway",
          "subway": "yes",
          "wikidata": "Q6425927",
          "wikipedia": "en:Kohat Enclave metro station"
        }
      },
      {
        "type": "node",
        "id": 600644828,
        "lat": 28.6764051,
        "lon": 77.119345,
        "tags": {
          "name": "Madipur",
          "name:hi": "\u092e\u093e\u0926\u0940\u092a\u0941\u0930",
          "network": "Delhi Metro",
          "note": "Contributors are requested to not edit the \"network\" and the \"operator\" tags. (2023/06/23)",
          "operator": "Delhi Metro Rail Corporation Limited",
          "public_transport": "stop_position",
          "subway": "yes"
        }
      },
      {
        "type": "node",
        "id": 600644865,
        "lat": 28.6749602,
        "lon": 77.1304571,
        "tags": {
          "name": "Shivaji Park",
          "name:hi": "\u0936\u093f\u0935\u093e\u091c\u0940 \u092a\u093e\u0930\u094d\u0915",
          "network": "Delhi Metro",
          "note": "Contributors are requested to not edit the \"network\" and the \"operator\" tags. (2023/06/22)",
          "operator": "Delhi Metro Rail Corporation Limited",
          "public_transport": "stop_position",
          "railway": "stop",
          "subway": "yes"
        }
      },
      {
        "type": "node",
        "id": 600645512,
        "lat": 28.6773285,
        "lon": 77.1122776,
        "tags": {
          "name": "Paschim Vihar East",
          "name:hi": "\u092a\u0936\u094d\u091a\u093f\u092e \u0935\u093f\u0939\u093e\u0930 \u092a\u0942\u0930\u094d\u0935",
          "network": "Delhi Metro",
          "note": "Contributors are requested to not edit the \"network\" and the \"operator\" tags. (2023/06/23)",
          "operator": "Delhi Metro Rail Corporation Limited",
          "public_transport": "stop_position",
          "subway": "yes"
        }
      },
      {
        "type": "node",
        "id": 610889203,
        "lat": 28.6785848,
        "lon": 77.1022105,
        "tags": {
          "name": "Paschim Vihar West",
          "name:hi": "\u092a\u0936\u094d\u091a\u093f\u092e \u0935\u093f\u0939\u093e\u0930 \u092a\u0936\u094d\u091a\u093f\u092e",
          "network": "Delhi Metro",
          "note": "Contributors are requested to not edit the \"network\" and the \"operator\" tags. (2023/06/22)",
          "operator": "Delhi Metro Rail Corporation Limited",
          "public_transport": "stop_position",
          "railway": "stop",
          "subway": "yes"
        }
      },
      {
        "type": "node",
        "id": 663765153,
        "lat": 28.7032676,
        "lon": 77.1322497,
        "tags": {
          "name": "Pitam Pura",
          "name:hi": "\u092a\u0940\u0924\u092e\u092a\u0941\u0930\u093e",
          "name:ur": "\u067e\u06cc\u062a\u0645 \u067e\u0648\u0631\u06c1",
          "network": "Delhi Metro",
          "note": "Contributors are requested to not edit the \"network\" and the \"operator\" tags. (2023/06/22)",
          "operator": "Delhi Metro Rail Corporation Limited",
          "public_transport": "station",
          "railway": "station",
          "station": "subway",
          "subway": "yes",
          "wheelchair": "limited",
          "wikidata": "Q7198601",
          "wikipedia": "en:Pitampura metro station"
        }
      },
      {
        "type": "node",
        "id": 663766390,
        "lat": 28.7075774,
        "lon": 77.1259971,
        "tags": {
          "name": "Rohini East",
          "name:hi": "\u0930\u094b\u0939\u093f\u0923\u0940 \u0908\u0938\u094d\u091f",
          "network": "Delhi Metro",
          "note": "Contributors are requested to not edit the \"network\" and the \"operator\" tags. (2023/06/22)",
          "operator": "Delhi Metro Rail Corporation Limited",
          "public_transport": "station",
          "railway": "station",
          "station": "subway",
          "subway": "yes",
          "wheelchair": "limited",
          "wikidata": "Q11351030",
          "wikipedia": "en:Rohini East metro station"
        }
      },
      {
        "type": "node",
        "id": 1825166559,
        "lat": 28.7008618,
        "lon": 77.1151548,
        "tags": {
          "amenity": "fuel"
        }
      },
      {
        "type": "node",
        "id": 1825425942,
        "lat": 28.6814073,
        "lon": 77.1275679,
        "tags": {
          "internet_access": "no",
          "name": "Shakurbasti",
          "name:ur": "\u0634\u06a9\u0648\u0631 \u0628\u0633\u062a\u06cc",
          "network": "IR",
          "operator": "NR",
          "public_transport": "station",
          "railway": "station",
          "ref": "SSB",
          "train": "yes",
          "wikidata": "Q24947948"
        }
      },
      {
        "type": "node",
        "id": 2445916143,
        "lat": 28.6746734,
        "lon": 77.1300259,
        "tags": {
          "amenity": "fuel"
        }
      },
      {
        "type": "node",
        "id": 4330973390,
        "lat": 28.6896904,
        "lon": 77.1351273,
        "tags": {
          "amenity": "fuel"
        }
      },
      {
        "type": "node",
        "id": 4511544390,
        "lat": 28.7011545,
        "lon": 77.1163405,
        "tags": {
          "amenity": "theatre",
          "name": "M2K"
        }
      },
      {
        "type": "node",
        "id": 5065142664,
        "lat": 28.6928006,
        "lon": 77.0997374,
        "tags": {
          "alt_name": "Sansad Vihar Terminal",
          "bus": "yes",
          "name": "West Enclave",
          "public_transport": "stop_position"
        }
      },
      {
        "type": "node",
        "id": 5777600341,
        "lat": 28.6750188,
        "lon": 77.1304664,
        "tags": {
          "name": "Shivaji Park",
          "name:hi": "\u0936\u093f\u0935\u093e\u091c\u0940 \u092a\u093e\u0930\u094d\u0915",
          "network": "Delhi Metro",
          "note": "Contributors are requested to not edit the \"network\" and the \"operator\" tags. (2023/06/22)",
          "operator": "Delhi Metro Rail Corporation Limited",
          "public_transport": "stop_position",
          "railway": "stop",
          "subway": "yes"
        }
      },
      {
        "type": "node",
        "id": 5777600344,
        "lat": 28.6764636,
        "lon": 77.1193553,
        "tags": {
          "name": "Madipur",
          "name:hi": "\u092e\u093e\u0926\u0940\u092a\u0941\u0930",
          "network": "Delhi Metro",
          "note": "Contributors are requested to not edit the \"network\" and the \"operator\" tags. (2023/06/23)",
          "operator": "Delhi Metro Rail Corporation Limited",
          "public_transport": "stop_position",
          "subway": "yes"
        }
      },
      {
        "type": "node",
        "id": 5777600345,
        "lat": 28.6773871,
        "lon": 77.1122873,
        "tags": {
          "name": "Paschim Vihar East",
          "name:hi": "\u092a\u0936\u094d\u091a\u093f\u092e \u0935\u093f\u0939\u093e\u0930 \u092a\u0942\u0930\u094d\u0935",
          "network": "Delhi Metro",
          "note": "Contributors are requested to not edit the \"network\" and the \"operator\" tags. (2023/06/23)",
          "operator": "Delhi Metro Rail Corporation Limited",
          "public_transport": "stop_position",
          "subway": "yes"
        }
      },
      {
        "type": "node",
        "id": 5777600347,
        "lat": 28.6786274,
        "lon": 77.1022176,
        "tags": {
          "name": "Paschim Vihar West",
          "name:hi": "\u092a\u0936\u094d\u091a\u093f\u092e \u0935\u093f\u0939\u093e\u0930 \u092a\u0936\u094d\u091a\u093f\u092e",
          "network": "Delhi Metro",
          "note": "Contributors are requested to not edit the \"network\" and the \"operator\" tags. (2023/06/22)",
          "operator": "Delhi Metro Rail Corporation Limited",
          "public_transport": "stop_position",
          "railway": "stop",
          "subway": "yes"
        }
      },
      {
        "type": "node",
        "id": 5777614216,
        "lat": 28.7075969,
        "lon": 77.1260218,
        "tags": {
          "name": "Rohini East",
          "name:hi": "\u0930\u094b\u0939\u093f\u0923\u0940 \u0908\u0938\u094d\u091f",
          "public_transport": "stop_position",
          "subway": "yes"
        }
      },
      {
        "type": "node",
        "id": 5818158988,
        "lat": 28.6939117,
        "lon": 77.1026607,
        "tags": {
          "amenity": "fuel",
          "brand": "Indian Oil"
        }
      },
      {
        "type": "node",
        "id": 6405278634,
        "lat": 28.7075492,
        "lon": 77.1259785,
        "tags": {
          "name": "Rohini East",
          "name:hi": "\u0930\u094b\u0939\u093f\u0923\u0940 \u0908\u0938\u094d\u091f",
          "public_transport": "stop_position",
          "subway": "yes"
        }
      },
      {
        "type": "node",
        "id": 6465991437,
        "lat": 28.6750317,
        "lon": 77.1304722,
        "tags": {
          "name": "Shivaji Park",
          "name:hi": "\u0936\u093f\u0935\u093e\u091c\u0940 \u092a\u093e\u0930\u094d\u0915",
          "name:ur": "\u0634\u06cc\u0648\u0627\u062c\u06cc \u067e\u0627\u0631\u06a9",
          "network": "Delhi Metro",
          "note": "Contributors are requested to not edit the \"network\" and the \"operator\" tags. (2023/06/22)",
          "operator": "Delhi Metro Rail Corporation Limited",
          "public_transport": "station",
          "railway": "station",
          "station": "subway",
          "subway": "yes",
          "wikidata": "Q7499286",
          "wikipedia": "en:Shivaji Park metro station"
        }
      },
      {
        "type": "node",
        "id": 6465991438,
        "lat": 28.6764752,
        "lon": 77.1193599,
        "tags": {
          "name": "Madipur",
          "name:hi": "\u092e\u093e\u0926\u0940\u092a\u0941\u0930",
          "name:ur": "\u0645\u0627\u062f\u06cc \u067e\u0648\u0631",
          "network": "Delhi Metro",
          "note": "Contributors are requested to not edit the \"network\" and the \"operator\" tags. (2023/06/22)",
          "operator": "Delhi Metro Rail Corporation Limited",
          "public_transport": "station",
          "railway": "station",
          "station": "subway",
          "subway": "yes",
          "wikidata": "Q6727807",
          "wikipedia": "en:Madipur metro station"
        }
      },
      {
        "type": "node",
        "id": 6465991439,
        "lat": 28.6773563,
        "lon": 77.1122823,
        "tags": {
          "name": "Paschim Vihar East",
          "name:hi": "\u092a\u0936\u094d\u091a\u093f\u092e \u0935\u093f\u0939\u093e\u0930 \u092a\u0942\u0930\u094d\u0935",
          "network": "Delhi Metro",
          "note": "Contributors are requested to not edit the \"network\" and the \"operator\" tags. (2023/06/22)",
          "operator": "Delhi Metro Rail Corporation Limited",
          "public_transport": "station",
          "railway": "station",
          "station": "subway",
          "subway": "yes",
          "wikidata": "Q20718098",
          "wikipedia": "en:Paschim Vihar East metro station"
        }
      },
      {
        "type": "node",
        "id": 6825399939,
        "lat": 28.6804485,
        "lon": 77.1287805,
        "tags": {
          "name": "Shakur Basti",
          "name:hi": "\u0936\u0915\u0942\u0930 \u092c\u0938\u094d\u0924\u0940",
          "name:ur": "\u0634\u06a9\u0648\u0631 \u0628\u0633\u062a\u06cc",
          "public_transport": "station",
          "train": "yes"
        }
      },
      {
        "type": "node",
        "id": 9066465094,
        "lat": 28.678613,
        "lon": 77.1022154,
        "tags": {
          "name": "Paschim Vihar West",
          "name:hi": "\u092a\u0936\u094d\u091a\u093f\u092e \u0935\u093f\u0939\u093e\u0930 \u092a\u0936\u094d\u091a\u093f\u092e",
          "network": "Delhi Metro",
          "note": "Contributors are requested to not edit the \"network\" and the \"operator\" tags. (2023/06/22)",
          "operator": "Delhi Metro Rail Corporation Limited",
          "public_transport": "station",
          "railway": "station",
          "station": "subway",
          "subway": "yes",
          "wikidata": "Q7141809"
        }
      },
      {
        "type": "node",
        "id": 9234884613,
        "lat": 28.691645,
        "lon": 77.1010123,
        "tags": {
          "bus": "yes",
          "name": "West Enclave",
          "public_transport": "stop_position"
        }
      },
      {
        "type": "node",
        "id": 9234884614,
        "lat": 28.6916293,
        "lon": 77.1008961,
        "tags": {
          "bus": "yes",
          "name": "West Enclave",
          "public_transport": "stop_position"
        }
      },
      {
        "type": "node",
        "id": 12791142283,
        "lat": 28.7088448,
        "lon": 77.1249782,
        "tags": {
          "public_transport": "stop_position",
          "share_taxi": "yes"
        }
      }
    ]
  }
}