{
  "pois_1km": {
    "version": 0.6,
    "generator": "Overpass API 0.7.62.8 e802775f",
    "osm3s": {
      "timestamp_osm_base": "2025-09-06T07:04:14Z",
      "copyright": "The data included in this document is from www.openstreetmap.org. The data is made available under ODbL."
    },
    "elements": [
      {
        "type": "node",
        "id": 4483838798,
        "lat": 28.7009228,
        "lon": 77.1359545,
        "tags": {
          "addr:city": "Delhi",
          "addr:housenumber": "Shop No 2",
          "addr:postcode": "110089",
          "addr:street": "JD24A, PitamPura",
          "amenity": "cafe",
          "name": "Shake square",
          "name:en": "Shake square"
        }
      },
      {
        "type": "node",
        "id": 4483863293,
        "lat": 28.7015222,
        "lon": 77.1351148,
        "tags": {
          "name": "Reliance store",
          "name:en": "Reliance store",
          "shop": "department_store"
        }
      },
      {
        "type": "node",
        "id": 7138632137,
        "lat": 28.700019,
        "lon": 77.141187,
        "tags": {
          "addr:block": "KD",
          "addr:district": "North West",
          "addr:full": "KD-Block, Muni Maya Ram Marg, Pitampura",
          "addr:postcode": "110034",
          "addr:state": "Delhi",
          "addr:suburb": "Pitampura",
          "amenity": "hospital",
          "contact:phone": "27317401",
          "description": "<100 Bedded Hospital",
          "name": "Muni Maya Ram Jain Hospital",
          "source": "OpenGovernmentData"
        }
      },
      {
        "type": "node",
        "id": 7138632143,
        "lat": 28.7045697,
        "lon": 77.1449278,
        "tags": {
          "addr:district": "North West",
          "addr:full": "L-p-12-a, B, Maya Enclave, Pitampura",
          "addr:postcode": "110034",
          "addr:state": "Delhi",
          "amenity": "hospital",
          "contact:phone": "27323960",
          "description": "<100 Bedded Hospital",
          "name": "Medha Hospital",
          "source": "OpenGovernmentData"
        }
      },
      {
        "type": "node",
        "id": 7138632175,
        "lat": 28.7044629,
        "lon": 77.1355978,
        "tags": {
          "addr:district": "North West",
          "addr:full": "CD-Block, Vishaka Enclave, Pitampura",
          "addr:postcode": "110034",
          "addr:state": "Delhi",
          "amenity": "clinic",
          "contact:phone": "27324895",
          "description": "Dispensaries",
          "health_facility:type": "dispensary",
          "healthcare": "centre",
          "name": "DGD Pitampura",
          "source": "OpenGovernmentData"
        }
      },
      {
        "type": "node",
        "id": 7138632203,
        "lat": 28.7025469,
        "lon": 77.1473691,
        "tags": {
          "addr:district": "North West",
          "addr:full": "JP-6, Maurya Enclave Pitam Pura",
          "addr:postcode": "110034",
          "addr:state": "Delhi",
          "amenity": "hospital",
          "description": "<100 Bedded Hospital",
          "name": "Rashmi Hospital",
          "source": "OpenGovernmentData"
        }
      },
      {
        "type": "node",
        "id": 7138632272,
        "lat": 28.7122011,
        "lon": 77.1419875,
        "tags": {
          "addr:district": "North West",
          "addr:full": "F-1 U /41, Pitampura",
          "addr:postcode": "110034",
          "addr:state": "Delhi",
          "amenity": "hospital",
          "contact:phone": "27341460",
          "description": "<100 Bedded Hospital",
          "healthcare": "hospital",
          "name": "Maheshwari Hospital",
          "source": "OpenGovernmentData"
        }
      },
      {
        "type": "node",
        "id": 7887163357,
        "lat": 28.7008342,
        "lon": 77.1361351,
        "tags": {
          "addr:city": "Delhi",
          "addr:housenumber": "Shop No 2 JD21A",
          "addr:postcode": "110089",
          "addr:street": "Pitampura",
          "amenity": "restaurant",
          "cuisine": "Samosa;burger;Gulab_Jamun",
          "name": "TMR Samosa"
        }
      },
      {
        "type": "node",
        "id": 10049925996,
        "lat": 28.7106424,
        "lon": 77.1364249,
        "tags": {
          "addr:block": "A",
          "addr:city": "Delhi",
          "addr:housenumber": "1/4",
          "addr:neighbourhood": "Prashant Vihar",
          "addr:postcode": "110085",
          "addr:street": "Outer Ring Road",
          "amenity": "hospital",
          "description": "Offers Radiology and Pathology Scans like X-Ray, MRI, CT Scan etc.",
          "emergency": "no",
          "healthcare": "hospital",
          "healthcare:speciality": "clinical_pathology;clinical_laboratory;radiology;diagnostic_radiology",
          "name": "HOD Rohini - House Of Diagnostics",
          "operator": "House Of Diagnostics",
          "operator:type": "private",
          "website": "https://www.hod.care/locate-us/north-delhi/rohini"
        }
      },
      {
        "type": "node",
        "id": 11579830772,
        "lat": 28.7105449,
        "lon": 77.1363557,
        "tags": {
          "contact:mobile": "+91-98113-80701",
          "level": "0",
          "name": "Rajeshwar Mandir Supermart",
          "shop": "supermarket",
          "wheelchair": "limited"
        }
      },
      {
        "type": "node",
        "id": 11583977996,
        "lat": 28.7131782,
        "lon": 77.1381322,
        "tags": {
          "amenity": "bank",
          "atm": "yes",
          "branch": "Prashant Vihar",
          "brand": "Utkarsh Small Finance Bank",
          "level": "0",
          "name": "Utkarsh Small Finance Bank"
        }
      },
      {
        "type": "node",
        "id": 11583978050,
        "lat": 28.7130892,
        "lon": 77.1380841,
        "tags": {
          "amenity": "bank",
          "brand": "Yes Bank",
          "brand:wikidata": "Q2040394",
          "level": "0",
          "name": "Yes Bank",
          "wheelchair": "limited"
        }
      },
      {
        "type": "node",
        "id": 11583978066,
        "lat": 28.7125089,
        "lon": 77.1377004,
        "tags": {
          "air_conditioning": "yes",
          "amenity": "restaurant",
          "contact:mobile": "+91-888-274-0707;+91-888-284-0707",
          "diet:lacto_vegetarian": "yes",
          "level": "0",
          "name": "Kukki da Dhaba",
          "operator": "Khosla Foods"
        }
      },
      {
        "type": "node",
        "id": 11583984572,
        "lat": 28.7128528,
        "lon": 77.1380001,
        "tags": {
          "amenity": "bank",
          "brand": "ICICI Bank",
          "brand:wikidata": "Q1653258",
          "level": "0",
          "name": "ICICI Bank",
          "short_name": "ICICI"
        }
      },
      {
        "type": "node",
        "id": 11583984575,
        "lat": 28.7129869,
        "lon": 77.138035,
        "tags": {
          "amenity": "bank",
          "atm": "yes",
          "brand": "Federal Bank",
          "brand:wikidata": "Q2044983",
          "level": "0",
          "name": "Federal Bank"
        }
      },
      {
        "type": "node",
        "id": 11590988873,
        "lat": 28.7001373,
        "lon": 77.1412257,
        "tags": {
          "amenity": "pharmacy",
          "contact:phone": "+91-11-4550-4613",
          "delivery": "yes",
          "healthcare": "pharmacy",
          "name": "Jain Medicos",
          "opening_hours": "24/7"
        }
      }
    ]
  },
  "pois_2_5km": {
    "version": 0.6,
    "generator": "Overpass API 0.7.62.8 e802775f",
    "osm3s": {
      "timestamp_osm_base": "2025-09-06T07:05:16Z",
      "copyright": "The data included in this document is from www.openstreetmap.org. The data is made available under ODbL."
    },
    "elements": [
      {
        "type": "node",
        "id": 311963955,
        "lat": 28.6980415,
        "lon": 77.1405393,
        "tags": {
          "name": "Kohat Enclave",
          "name:hi": "\u0915\u094b\u0939\u093e\u091f \u090f\u0928\u0915\u094d\u0932\u0947\u0935",
          "network": "Delhi Metro",
          "note": "Contributors are requested to not edit the \"network\" and the \"operator\" tags. (2023/06/22)",
          "operator": "Delhi Metro Rail Corporation Limited",
          "public_transport": "station",
          "railway": "station",
          "station": "subway",
          "subway": "yes",
          "wikidata": "Q6425927",
          "wikipedia": "en:Kohat Enclave metro station"
        }
      },
      {
        "type": "node",
        "id": 663762964,
        "lat": 28.6960485,
        "lon": 77.1524856,
        "tags": {
          "name": "Netaji Subhash Place (Red Line)",
          "name:hi": "\u0928\u0947\u0924\u093e\u091c\u0940 \u0938\u0941\u092d\u093e\u0937 \u092a\u094d\u0932\u0947\u0938",
          "network": "Delhi Metro",
          "note": "Contributors are requested to not edit the \"network\" and the \"operator\" tags. (2023/06/22)",
          "operator": "Delhi Metro Rail Corporation Limited",
          "public_transport": "station",
          "railway": "station",
          "station": "subway",
          "subway": "yes",
          "wikidata": "Q6998648",
          "wikipedia": "en:Netaji Subhash Place metro station"
        }
      },
      {
        "type": "node",
        "id": 663765153,
        "lat": 28.7032676,
        "lon": 77.1322497,
        "tags": {
          "name": "Pitam Pura",
          "name:hi": "\u092a\u0940\u0924\u092e\u092a\u0941\u0930\u093e",
          "name:ur": "\u067e\u06cc\u062a\u0645 \u067e\u0648\u0631\u06c1",
          "network": "Delhi Metro",
          "note": "Contributors are requested to not edit the \"network\" and the \"operator\" tags. (2023/06/22)",
          "operator": "Delhi Metro Rail Corporation Limited",
          "public_transport": "station",
          "railway": "station",
          "station": "subway",
          "subway": "yes",
          "wheelchair": "limited",
          "wikidata": "Q7198601",
          "wikipedia": "en:Pitampura metro station"
        }
      },
      {
        "type": "node",
        "id": 663766390,
        "lat": 28.7075774,
        "lon": 77.1259971,
        "tags": {
          "name": "Rohini East",
          "name:hi": "\u0930\u094b\u0939\u093f\u0923\u0940 \u0908\u0938\u094d\u091f",
          "network": "Delhi Metro",
          "note": "Contributors are requested to not edit the \"network\" and the \"operator\" tags. (2023/06/22)",
          "operator": "Delhi Metro Rail Corporation Limited",
          "public_transport": "station",
          "railway": "station",
          "station": "subway",
          "subway": "yes",
          "wheelchair": "limited",
          "wikidata": "Q11351030",
          "wikipedia": "en:Rohini East metro station"
        }
      },
      {
        "type": "node",
        "id": 1014350394,
        "lat": 28.7026476,
        "lon": 77.1583077,
        "tags": {
          "amenity": "cinema",
          "name": "DT City Center"
        }
      },
      {
        "type": "node",
        "id": 2833526614,
        "lat": 28.701988,
        "lon": 77.1654294,
        "tags": {
          "name": "Shalimar Bagh",
          "name:hi": "\u0936\u093e\u0932\u0940\u092e\u093e\u0930 \u092c\u093e\u0917",
          "network": "Delhi Metro",
          "note": "Contributors are requested to not edit the \"network\" and the \"operator\" tags. (2023/06/22)",
          "operator": "Delhi Metro Rail Corporation Limited",
          "public_transport": "stop_position",
          "railway": "stop",
          "ref": "SMBG",
          "subway": "yes"
        }
      },
      {
        "type": "node",
        "id": 2833531954,
        "lat": 28.6859099,
        "lon": 77.1494753,
        "tags": {
          "name": "Shakurpur",
          "name:hi": "\u0936\u0915\u0942\u0930\u092a\u0941\u0930",
          "network": "Delhi Metro",
          "note": "Contributors are requested to not edit the \"network\" and the \"operator\" tags. (2023/06/22)",
          "operator": "Delhi Metro Rail Corporation Limited",
          "public_transport": "stop_position",
          "railway": "stop",
          "subway": "yes"
        }
      },
      {
        "type": "node",
        "id": 2833531964,
        "lat": 28.6947226,
        "lon": 77.1542356,
        "tags": {
          "name": "Netaji Subhash Place (Pink Line)",
          "name:hi": "\u0928\u0947\u0924\u093e\u091c\u0940 \u0938\u0941\u092d\u093e\u0937 \u092a\u094d\u0932\u0947\u0938",
          "network": "Delhi Metro",
          "note": "Contributors are requested to not edit the \"network\" and the \"operator\" tags. (2023/06/23)",
          "operator": "Delhi Metro Rail Corporation Limited",
          "public_transport": "stop_position",
          "railway": "stop",
          "subway": "yes"
        }
      },
      {
        "type": "node",
        "id": 4330973390,
        "lat": 28.6896904,
        "lon": 77.1351273,
        "tags": {
          "amenity": "fuel"
        }
      },
      {
        "type": "node",
        "id": 5777614216,
        "lat": 28.7075969,
        "lon": 77.1260218,
        "tags": {
          "name": "Rohini East",
          "name:hi": "\u0930\u094b\u0939\u093f\u0923\u0940 \u0908\u0938\u094d\u091f",
          "public_transport": "stop_position",
          "subway": "yes"
        }
      },
      {
        "type": "node",
        "id": 5777629837,
        "lat": 28.6947028,
        "lon": 77.1543015,
        "tags": {
          "name": "Netaji Subhash Place (Pink Line)",
          "name:hi": "\u0928\u0947\u0924\u093e\u091c\u0940 \u0938\u0941\u092d\u093e\u0937 \u092a\u094d\u0932\u0947\u0938",
          "network": "Delhi Metro",
          "note": "Contributors are requested to not edit the \"network\" and the \"operator\" tags. (2023/06/23)",
          "operator": "Delhi Metro Rail Corporation Limited",
          "public_transport": "stop_position",
          "railway": "stop",
          "subway": "yes"
        }
      },
      {
        "type": "node",
        "id": 5777629845,
        "lat": 28.7019313,
        "lon": 77.1654554,
        "tags": {
          "name": "Shalimar Bagh",
          "name:hi": "\u0936\u093e\u0932\u0940\u092e\u093e\u0930 \u092c\u093e\u0917",
          "network": "Delhi Metro",
          "note": "Contributors are requested to not edit the \"network\" and the \"operator\" tags. (2023/06/22)",
          "operator": "Delhi Metro Rail Corporation Limited",
          "public_transport": "stop_position",
          "railway": "stop",
          "ref": "SMBG",
          "subway": "yes"
        }
      },
      {
        "type": "node",
        "id": 5777630123,
        "lat": 28.6856756,
        "lon": 77.1496639,
        "tags": {
          "name": "Shakurpur",
          "name:hi": "\u0936\u0915\u0942\u0930\u092a\u0941\u0930",
          "network": "Delhi Metro",
          "note": "Contributors are requested to not edit the \"network\" and the \"operator\" tags. (2023/06/22)",
          "operator": "Delhi Metro Rail Corporation Limited",
          "public_transport": "stop_position",
          "railway": "stop",
          "subway": "yes"
        }
      },
      {
        "type": "node",
        "id": 6258194792,
        "lat": 28.6864539,
        "lon": 77.1519609,
        "tags": {
          "amenity": "fuel",
          "brand": "Indian Oil"
        }
      },
      {
        "type": "node",
        "id": 6258194801,
        "lat": 28.6854999,
        "lon": 77.1487473,
        "tags": {
          "amenity": "fuel",
          "brand": "Indraprastha Gas Limited",
          "fuel:cng": "yes"
        }
      },
      {
        "type": "node",
        "id": 6405278634,
        "lat": 28.7075492,
        "lon": 77.1259785,
        "tags": {
          "name": "Rohini East",
          "name:hi": "\u0930\u094b\u0939\u093f\u0923\u0940 \u0908\u0938\u094d\u091f",
          "public_transport": "stop_position",
          "subway": "yes"
        }
      },
      {
        "type": "node",
        "id": 6453992650,
        "lat": 28.6947146,
        "lon": 77.1542607,
        "tags": {
          "name": "Netaji Subhash Place (Pink Line)",
          "name:hi": "\u0928\u0947\u0924\u093e\u091c\u0940 \u0938\u0941\u092d\u093e\u0937 \u092a\u094d\u0932\u0947\u0938",
          "network": "Delhi Metro",
          "note": "Contributors are requested to not edit the \"network\" and the \"operator\" tags. (2023/06/22)",
          "operator": "Delhi Metro Rail Corporation Limited",
          "public_transport": "station",
          "railway": "station",
          "station": "subway",
          "subway": "yes",
          "wikidata": "Q6998648",
          "wikipedia": "en:Netaji Subhash Place metro station"
        }
      },
      {
        "type": "node",
        "id": 6458202840,
        "lat": 28.7019574,
        "lon": 77.1654317,
        "tags": {
          "name": "Shalimar Bagh",
          "name:hi": "\u0936\u093e\u0932\u0940\u092e\u093e\u0930 \u092c\u093e\u0917",
          "name:ur": "\u0634\u0627\u0644\u06cc\u0645\u0627\u0631 \u0628\u0627\u063a",
          "network": "Delhi Metro",
          "note": "Contributors are requested to not edit the \"network\" and the \"operator\" tags. (2023/06/22)",
          "operator": "Delhi Metro Rail Corporation Limited",
          "public_transport": "station",
          "railway": "station",
          "ref": "SMBG",
          "station": "subway",
          "subway": "yes",
          "wikidata": "Q28172657",
          "wikipedia": "en:Shalimar Bagh metro station"
        }
      },
      {
        "type": "node",
        "id": 6458202841,
        "lat": 28.6857668,
        "lon": 77.1496094,
        "tags": {
          "name": "Shakurpur",
          "name:hi": "\u0936\u0915\u0942\u0930\u092a\u0941\u0930",
          "name:ur": "\u0634\u06a9\u0648\u0631 \u067e\u0648\u0631",
          "network": "Delhi Metro",
          "note": "Contributors are requested to not edit the \"network\" and the \"operator\" tags. (2023/06/22)",
          "operator": "Delhi Metro Rail Corporation Limited",
          "public_transport": "station",
          "railway": "station",
          "station": "subway",
          "subway": "yes",
          "wikidata": "Q28172658",
          "wikipedia": "en:Shakurpur metro station"
        }
      },
      {
        "type": "node",
        "id": 6993567623,
        "lat": 28.691873,
        "lon": 77.1534862,
        "tags": {
          "bus": "yes",
          "name": "Wazirpur Depot",
          "public_transport": "stop_position"
        }
      },
      {
        "type": "node",
        "id": 6993567624,
        "lat": 28.691918,
        "lon": 77.1536923,
        "tags": {
          "bus": "yes",
          "name": "Wazirpur Depot",
          "public_transport": "stop_position"
        }
      },
      {
        "type": "node",
        "id": 9105396079,
        "lat": 28.7258907,
        "lon": 77.1435129,
        "tags": {
          "amenity": "fuel",
          "brand": "Indian Oil",
          "brand:wikidata": "Q1289348",
          "name": "Indian Oil"
        }
      },
      {
        "type": "node",
        "id": 12031381328,
        "lat": 28.7124023,
        "lon": 77.1360008,
        "tags": {
          "amenity": "cinema",
          "brand": "PVR Cinemas",
          "brand:wikidata": "Q3359908",
          "name": "PVR Cinemas",
          "short_name": "PVR"
        }
      },
      {
        "type": "node",
        "id": 12722875210,
        "lat": 28.7192742,
        "lon": 77.1404461,
        "tags": {
          "advertising": "totem",
          "amenity": "fuel",
          "brand": "Indian Oil",
          "name": "Indian Oil"
        }
      },
      {
        "type": "node",
        "id": 12791142282,
        "lat": 28.7201815,
        "lon": 77.1350893,
        "tags": {
          "public_transport": "stop_position",
          "share_taxi": "yes"
        }
      },
      {
        "type": "node",
        "id": 12791142283,
        "lat": 28.7088448,
        "lon": 77.1249782,
        "tags": {
          "public_transport": "stop_position",
          "share_taxi": "yes"
        }
      }
    ]
  }
}