{
  "pois_1km": {
    "version": 0.6,
    "generator": "Overpass API 0.7.62.8 e802775f",
    "osm3s": {
      "timestamp_osm_base": "2025-09-06T06:59:11Z",
      "copyright": "The data included in this document is from www.openstreetmap.org. The data is made available under ODbL."
    },
    "elements": [
      {
        "type": "node",
        "id": 248852574,
        "lat": 28.533492,
        "lon": 77.1518947,
        "tags": {
          "amenity": "cafe",
          "name": "Cafe Coffee Day"
        }
      },
      {
        "type": "node",
        "id": 248852583,
        "lat": 28.5336472,
        "lon": 77.152001,
        "tags": {
          "amenity": "bank",
          "atm": "yes",
          "name": "ICICI, SBI, Citibank,"
        }
      },
      {
        "type": "node",
        "id": 4047437859,
        "lat": 28.5423944,
        "lon": 77.1468543,
        "tags": {
          "amenity": "atm",
          "name": "SBI"
        }
      },
      {
        "type": "node",
        "id": 4047437967,
        "lat": 28.5366824,
        "lon": 77.1480219,
        "tags": {
          "amenity": "atm",
          "name": "Kotak"
        }
      },
      {
        "type": "node",
        "id": 4047437969,
        "lat": 28.5340965,
        "lon": 77.1521686,
        "tags": {
          "amenity": "fast_food",
          "name": "China Bowl"
        }
      },
      {
        "type": "node",
        "id": 4047437970,
        "lat": 28.5332679,
        "lon": 77.1519572,
        "tags": {
          "amenity": "atm",
          "name": "ICICI"
        }
      },
      {
        "type": "node",
        "id": 5099590521,
        "lat": 28.5415537,
        "lon": 77.1552717,
        "tags": {
          "amenity": "restaurant",
          "name": "Food Court!",
          "name:en": "Food Court!"
        }
      },
      {
        "type": "node",
        "id": 6961335187,
        "lat": 28.5320219,
        "lon": 77.1528479,
        "tags": {
          "amenity": "bank",
          "atm": "yes",
          "brand": "Yes Bank"
        }
      },
      {
        "type": "node",
        "id": 7013350144,
        "lat": 28.531414,
        "lon": 77.1538432,
        "tags": {
          "amenity": "fast_food",
          "name": "Nirula's"
        }
      },
      {
        "type": "node",
        "id": 7031023363,
        "lat": 28.5336691,
        "lon": 77.1519207,
        "tags": {
          "amenity": "fast_food",
          "cuisine": "momo",
          "name": "Wow! Momo"
        }
      },
      {
        "type": "node",
        "id": 8014344672,
        "lat": 28.5413825,
        "lon": 77.1547385,
        "tags": {
          "addr:city": "gurugram",
          "addr:postcode": "122018",
          "addr:street": "Gurgaon - Delhi Expy, Shanti Nagar, DLF Phase 3, Sector 24, Gurugram, Delhi 122018",
          "name": "Inisfree, Ambience Mall",
          "organic": "yes",
          "shop": "supermarket"
        }
      },
      {
        "type": "node",
        "id": 10750293472,
        "lat": 28.5308944,
        "lon": 77.1492335,
        "tags": {
          "amenity": "bank",
          "atm": "yes",
          "name": "RBL Bank"
        }
      },
      {
        "type": "node",
        "id": 10750309798,
        "lat": 28.5312418,
        "lon": 77.1494722,
        "tags": {
          "amenity": "bank",
          "atm": "yes",
          "name": "IndusInd Bank"
        }
      },
      {
        "type": "node",
        "id": 10750314717,
        "lat": 28.5314895,
        "lon": 77.1495621,
        "tags": {
          "amenity": "bank",
          "name": "Punjab National Bank"
        }
      },
      {
        "type": "node",
        "id": 10750342307,
        "lat": 28.5352595,
        "lon": 77.1522948,
        "tags": {
          "amenity": "bank",
          "name": "HDFC Bank"
        }
      },
      {
        "type": "node",
        "id": 11242142971,
        "lat": 28.5428694,
        "lon": 77.1600819,
        "tags": {
          "amenity": "cafe",
          "check_date": "2023-10-06",
          "internet_access": "wlan",
          "internet_access:fee": "no",
          "name": "mugal darbar",
          "opening_hours": "Mo-Fr 11:00-20:00",
          "outdoor_seating": "no",
          "payment:mastercard": "yes",
          "payment:visa": "yes",
          "wheelchair": "yes"
        }
      }
    ]
  },
  "pois_2_5km": {
    "version": 0.6,
    "generator": "Overpass API 0.7.62.8 e802775f",
    "osm3s": {
      "timestamp_osm_base": "2025-09-06T07:00:12Z",
      "copyright": "The data included in this document is from www.openstreetmap.org. The data is made available under ODbL."
    },
    "elements": [
      {
        "type": "node",
        "id": 266442982,
        "lat": 28.5573088,
        "lon": 77.164493,
        "tags": {
          "amenity": "cinema",
          "brand": "PVR Cinemas",
          "brand:wikidata": "Q3359908",
          "name": "PVR Priya",
          "short_name": "PVR"
        }
      },
      {
        "type": "node",
        "id": 279161187,
        "lat": 28.5262695,
        "lon": 77.1561648,
        "tags": {
          "amenity": "fuel",
          "brand": "Indian Oil",
          "brand:wikidata": "Q1289348",
          "brand:wikipedia": "en:Indian Oil Corporation",
          "name": "Indian Oil"
        }
      },
      {
        "type": "node",
        "id": 410057535,
        "lat": 28.5351953,
        "lon": 77.1431664,
        "tags": {
          "amenity": "fuel"
        }
      },
      {
        "type": "node",
        "id": 2025439677,
        "lat": 28.5578343,
        "lon": 77.1633987,
        "tags": {
          "amenity": "fuel",
          "brand": "Indian Oil",
          "brand:wikidata": "Q1289348",
          "compressed_air": "yes",
          "name": "Indian Oil"
        }
      },
      {
        "type": "node",
        "id": 2706730316,
        "lat": 28.5217581,
        "lon": 77.1667456,
        "tags": {
          "amenity": "fuel",
          "brand": "Indraprastha Gas Limited",
          "fuel:cng": "yes"
        }
      },
      {
        "type": "node",
        "id": 2832938196,
        "lat": 28.557827,
        "lon": 77.1611168,
        "tags": {
          "name": "Vasant Vihar",
          "name:hi": "\u0935\u0938\u0902\u0924 \u0935\u093f\u0939\u093e\u0930",
          "name:ur": "\u0648\u0633\u0646\u062a \u0648\u06c1\u0627\u0631",
          "network": "Delhi Metro",
          "note": "Contributors are requested to not edit the \"network\" and the \"operator\" tags. (2023/06/22)",
          "operator": "Delhi Metro Rail Corporation Limited",
          "public_transport": "station",
          "railway": "station",
          "ref": "VTVR",
          "station": "subway",
          "subway": "yes",
          "wikidata": "Q28172570",
          "wikipedia": "en:Vasant Vihar metro station"
        }
      },
      {
        "type": "node",
        "id": 4692006383,
        "lat": 28.5385446,
        "lon": 77.1326402,
        "tags": {
          "amenity": "fuel",
          "brand": "Indraprastha Gas Limited",
          "fuel:cng": "yes"
        }
      },
      {
        "type": "node",
        "id": 5777631244,
        "lat": 28.5578532,
        "lon": 77.161095,
        "tags": {
          "name": "Vasant Vihar",
          "network": "Delhi Metro",
          "note": "Contributors are requested to not edit the \"network\" and the \"operator\" tags. (2023/06/22)",
          "operator": "Delhi Metro Rail Corporation Limited",
          "public_transport": "stop_position",
          "railway": "stop",
          "ref": "VTVR",
          "subway": "yes"
        }
      },
      {
        "type": "node",
        "id": 6854465822,
        "lat": 28.5544384,
        "lon": 77.1646913,
        "tags": {
          "bus": "yes",
          "name": "Vasant Vihar CPWD Colony",
          "public_transport": "stop_position"
        }
      },
      {
        "type": "node",
        "id": 7040468586,
        "lat": 28.5416333,
        "lon": 77.1548851,
        "tags": {
          "amenity": "cinema",
          "brand": "PVR Cinemas",
          "brand:wikidata": "Q3359908",
          "name": "PVR Directors Cut Cinema",
          "short_name": "PVR"
        }
      },
      {
        "type": "node",
        "id": 7040547485,
        "lat": 28.5427905,
        "lon": 77.1557308,
        "tags": {
          "amenity": "cinema",
          "name": "PVR DFL Promenade Cinema"
        }
      },
      {
        "type": "node",
        "id": 9937092491,
        "lat": 28.557808,
        "lon": 77.1610899,
        "tags": {
          "name": "Vasant Vihar",
          "network": "Delhi Metro",
          "note": "Contributors are requested to not edit the \"network\" and the \"operator\" tags. (2023/06/22)",
          "operator": "Delhi Metro Rail Corporation Limited",
          "public_transport": "stop_position",
          "railway": "stop",
          "ref": "VTVR",
          "subway": "yes"
        }
      }
    ]
  }
}