{
  "pois_1km": {
    "version": 0.6,
    "generator": "Overpass API 0.7.62.8 e802775f",
    "osm3s": {
      "timestamp_osm_base": "2025-09-06T07:26:02Z",
      "copyright": "The data included in this document is from www.openstreetmap.org. The data is made available under ODbL."
    },
    "elements": [
      {
        "type": "node",
        "id": 928550280,
        "lat": 28.6407045,
        "lon": 77.2105994,
        "tags": {
          "amenity": "restaurant",
          "cuisine": "international",
          "diet:vegetarian": "yes",
          "name": "Hotel Metropolis",
          "outdoor_seating": "yes",
          "tourism": "hotel"
        }
      },
      {
        "type": "node",
        "id": 928563678,
        "lat": 28.6345525,
        "lon": 77.2176037,
        "tags": {
          "amenity": "atm",
          "brand": "HDFC Bank",
          "brand:en": "HDFC Bank",
          "brand:wikidata": "Q631047",
          "currency:INR": "yes",
          "drive_through": "no",
          "indoor": "yes",
          "level": "0",
          "name": "HDFC Bank",
          "note": "Contributors are requested to not edit the \"brand\", \"brand:en\", \"brand:wikidata\", \"operator\", \"operator:en\" and \"operator:wikidata\" tags. (2025/02/19)",
          "opening_hours": "24/7",
          "operator": "HDFC Bank",
          "operator:en": "HDFC Bank",
          "operator:wikidata": "Q631047",
          "short_name": "HDFC"
        }
      },
      {
        "type": "node",
        "id": 928567979,
        "lat": 28.635243,
        "lon": 77.2196937,
        "tags": {
          "amenity": "restaurant",
          "diet:vegan": "yes",
          "diet:vegetarian": "yes",
          "disused": "yes",
          "name": "Piccadelhi"
        }
      },
      {
        "type": "node",
        "id": 1184509690,
        "lat": 28.6410051,
        "lon": 77.2125387,
        "tags": {
          "amenity": "cafe",
          "internet_access": "terminal",
          "name": "Internet"
        }
      },
      {
        "type": "node",
        "id": 1940318525,
        "lat": 28.6409319,
        "lon": 77.2137081,
        "tags": {
          "amenity": "restaurant",
          "name": "Club India Restaurant"
        }
      },
      {
        "type": "node",
        "id": 1940318533,
        "lat": 28.6407272,
        "lon": 77.2111472,
        "tags": {
          "amenity": "cafe",
          "diet:vegetarian": "yes",
          "name": "Madan Caf\u00e9"
        }
      },
      {
        "type": "node",
        "id": 1940318549,
        "lat": 28.641034,
        "lon": 77.213836,
        "tags": {
          "amenity": "restaurant",
          "name": "New Mt. Everest Restaurant"
        }
      },
      {
        "type": "node",
        "id": 2106104833,
        "lat": 28.6350182,
        "lon": 77.219418,
        "tags": {
          "amenity": "fast_food",
          "diet:vegan": "yes",
          "diet:vegetarian": "yes",
          "name": "Nizam's Kathi Kabab",
          "name:en": "Nizam's Kathi Kabab"
        }
      },
      {
        "type": "node",
        "id": 2569698442,
        "lat": 28.641178,
        "lon": 77.2106033,
        "tags": {
          "amenity": "atm"
        }
      },
      {
        "type": "node",
        "id": 2592537223,
        "lat": 28.6353527,
        "lon": 77.220063,
        "tags": {
          "addr:postcode": "110001",
          "air_conditioning": "yes",
          "amenity": "restaurant",
          "cuisine": "pizza;indian;burger;italian;chinese;sandwich;coffee_shop",
          "delivery": "yes",
          "diet:vegan": "yes",
          "diet:vegetarian": "yes",
          "name": "Hira Sweets",
          "opening_hours": "Mo-Su 08:00-23:00",
          "phone": "+91-97736 13336",
          "takeaway": "yes"
        }
      },
      {
        "type": "node",
        "id": 2592537225,
        "lat": 28.6411417,
        "lon": 77.2137445,
        "tags": {
          "amenity": "restaurant",
          "name": "Sayam Roof Top Restaurant"
        }
      },
      {
        "type": "node",
        "id": 3093873338,
        "lat": 28.6454365,
        "lon": 77.2251207,
        "tags": {
          "addr:city": "New Delhi",
          "addr:housenumber": "1/8B",
          "addr:postcode": "110002",
          "addr:street": "Asaf Ali Road",
          "amenity": "clinic",
          "name": "R D Jindal Charitable Clinic",
          "note": "Physiotherapy, Blood Collection, GP. Dentist available",
          "opening_hours": "10:00-14:00",
          "phone": "+91 11 3218206"
        }
      },
      {
        "type": "node",
        "id": 3185191993,
        "lat": 28.6413641,
        "lon": 77.2152163,
        "tags": {
          "amenity": "atm",
          "brand": "Yes Bank",
          "brand:wikidata": "Q2040394",
          "name": "Yes Bank",
          "operator": "Yes Bank",
          "operator:wikidata": "Q2040394"
        }
      },
      {
        "type": "node",
        "id": 3242109311,
        "lat": 28.6409844,
        "lon": 77.2137687,
        "tags": {
          "amenity": "restaurant",
          "cuisine": "indian",
          "name": "The exotic rooftop restaurant",
          "opening_hours": "Mo-Su 08:00-23:00"
        }
      },
      {
        "type": "node",
        "id": 3250376814,
        "lat": 28.6414451,
        "lon": 77.2132453,
        "tags": {
          "amenity": "restaurant",
          "cuisine": "korean",
          "name": "\uc27c\ud130",
          "name:en": "Shimtur",
          "name:fr": "Shimtur"
        }
      },
      {
        "type": "node",
        "id": 3269421783,
        "lat": 28.6412802,
        "lon": 77.2147522,
        "tags": {
          "amenity": "atm",
          "brand": "Axis Bank",
          "brand:wikidata": "Q2003549",
          "check_date": "2022-07-07",
          "name": "AXIS Bank",
          "operator": "Axis Bank",
          "operator:wikidata": "Q2003549"
        }
      },
      {
        "type": "node",
        "id": 3269429079,
        "lat": 28.6403009,
        "lon": 77.2131013,
        "tags": {
          "addr:housenumber": "4986",
          "addr:street": "Ramdwara Road",
          "amenity": "restaurant",
          "diet:vegetarian": "yes",
          "name": "Tadka",
          "name:es": "Tadka",
          "opening_hours": "Mo-Su 09:00-22:30"
        }
      },
      {
        "type": "node",
        "id": 3269441162,
        "lat": 28.6405917,
        "lon": 77.2108939,
        "tags": {
          "amenity": "fast_food",
          "brand": "Subway",
          "brand:pa": "\u0a38\u0a2c\u0a35\u0a47\u0a05",
          "brand:ur": "\u0633\u0628 \u0648\u06d2",
          "brand:wikidata": "Q244457",
          "brand:wikipedia": "en:Subway (restaurant)",
          "cuisine": "sandwich",
          "diet:vegetarian": "yes",
          "name": "Subway",
          "name:pa": "\u0a38\u0a2c\u0a35\u0a47\u0a05",
          "name:ur": "\u0633\u0628 \u0648\u06d2",
          "takeaway": "yes"
        }
      },
      {
        "type": "node",
        "id": 3947460096,
        "lat": 28.6491348,
        "lon": 77.2164415,
        "tags": {
          "addr:city": "New Delhi",
          "addr:housenumber": "15",
          "addr:postcode": "201301",
          "addr:street": "Qutab Road",
          "amenity": "hospital",
          "name": "Surbhi hospital"
        }
      },
      {
        "type": "node",
        "id": 4069815728,
        "lat": 28.6342635,
        "lon": 77.2190699,
        "tags": {
          "addr:housename": "B",
          "addr:housenumber": "B-23",
          "addr:place": "Connaught Place",
          "addr:postcode": "110001",
          "addr:street": "Inner Circle",
          "air_conditioning": "yes",
          "amenity": "restaurant",
          "diet:vegan": "yes",
          "diet:vegetarian": "yes",
          "indoor_seating": "yes",
          "level": "0",
          "name": "The Colonnade",
          "outdoor_seating": "no",
          "smoking": "separated",
          "wheelchair": "no"
        }
      },
      {
        "type": "node",
        "id": 4069858894,
        "lat": 28.6352724,
        "lon": 77.220127,
        "tags": {
          "amenity": "restaurant",
          "diet:vegan": "yes",
          "diet:vegetarian": "yes",
          "name": "Gola"
        }
      },
      {
        "type": "node",
        "id": 4076659278,
        "lat": 28.6467075,
        "lon": 77.2129328,
        "tags": {
          "amenity": "pharmacy",
          "name": "R. S. Medicos"
        }
      },
      {
        "type": "node",
        "id": 4076669376,
        "lat": 28.6467705,
        "lon": 77.2129317,
        "tags": {
          "amenity": "fast_food",
          "name": "Jai Maha Kali"
        }
      },
      {
        "type": "node",
        "id": 4076670789,
        "lat": 28.6467122,
        "lon": 77.212921,
        "tags": {
          "amenity": "clinic",
          "name": "Dr. Krishan Gola",
          "wheelchair": "no"
        }
      },
      {
        "type": "node",
        "id": 4076672535,
        "lat": 28.6467013,
        "lon": 77.2132438,
        "tags": {
          "amenity": "pharmacy",
          "name": "Bhagwati Medicos"
        }
      },
      {
        "type": "node",
        "id": 4077570689,
        "lat": 28.6466897,
        "lon": 77.2128151,
        "tags": {
          "amenity": "pharmacy"
        }
      },
      {
        "type": "node",
        "id": 4211994391,
        "lat": 28.6410445,
        "lon": 77.2105515,
        "tags": {
          "amenity": "restaurant",
          "name": "Malhotra"
        }
      },
      {
        "type": "node",
        "id": 4219631340,
        "lat": 28.6410923,
        "lon": 77.2126799,
        "tags": {
          "amenity": "restaurant",
          "name": "Sam's Cafe"
        }
      },
      {
        "type": "node",
        "id": 4262365091,
        "lat": 28.6409134,
        "lon": 77.2104527,
        "tags": {
          "amenity": "cafe",
          "name": "Festa Cafe "
        }
      },
      {
        "type": "node",
        "id": 4336565091,
        "lat": 28.6409875,
        "lon": 77.2128901,
        "tags": {
          "addr:postcode": "110055",
          "addr:street": "Main Bazaar",
          "amenity": "cafe",
          "name": "kitchen cafe roof top"
        }
      },
      {
        "type": "node",
        "id": 4341101093,
        "lat": 28.6411171,
        "lon": 77.2144269,
        "tags": {
          "amenity": "restaurant",
          "name": "Nepali Food"
        }
      },
      {
        "type": "node",
        "id": 4350522692,
        "lat": 28.6408661,
        "lon": 77.2103053,
        "tags": {
          "amenity": "restaurant",
          "name": "Malhotra"
        }
      },
      {
        "type": "node",
        "id": 4351002694,
        "lat": 28.644321,
        "lon": 77.2151897,
        "tags": {
          "amenity": "atm",
          "brand": "Yes Bank",
          "brand:wikidata": "Q2040394",
          "operator": "Yes Bank",
          "operator:wikidata": "Q2040394"
        }
      },
      {
        "type": "node",
        "id": 4373353502,
        "lat": 28.6453308,
        "lon": 77.211746,
        "tags": {
          "amenity": "atm"
        }
      },
      {
        "type": "node",
        "id": 4401493065,
        "lat": 28.6420621,
        "lon": 77.2179887,
        "tags": {
          "amenity": "restaurant",
          "name": "Neelam Restaurant"
        }
      },
      {
        "type": "node",
        "id": 4415219190,
        "lat": 28.645693,
        "lon": 77.2108527,
        "tags": {
          "addr:housenumber": "9008",
          "addr:postcode": "110055",
          "addr:street": "Deshbandhu Gupta Road",
          "brand": "Reliance Fresh",
          "brand:wikidata": "Q7311014",
          "name": "Reliance Fresh",
          "name:hi": "Reliance Fresh",
          "opening_hours": "Mo-Su 07:00-22:00",
          "phone": "02261220220",
          "shop": "supermarket"
        }
      },
      {
        "type": "node",
        "id": 4507814689,
        "lat": 28.6437322,
        "lon": 77.2095729,
        "tags": {
          "amenity": "atm"
        }
      },
      {
        "type": "node",
        "id": 4565027989,
        "lat": 28.6412137,
        "lon": 77.2147624,
        "tags": {
          "amenity": "restaurant",
          "name": "Wow Cafe",
          "name:en": "Wow Cafe",
          "name:ko": "\uc640\uc6b0\uce74\ud398 \ud55c\uc2dd\ub2f9"
        }
      },
      {
        "type": "node",
        "id": 4599840390,
        "lat": 28.6415909,
        "lon": 77.2155347,
        "tags": {
          "amenity": "restaurant",
          "name:ko": "\uc778\ub3c4\ubc29\ub791\uae30"
        }
      },
      {
        "type": "node",
        "id": 4654555590,
        "lat": 28.6452167,
        "lon": 77.2110064,
        "tags": {
          "amenity": "restaurant",
          "name": "U-Like",
          "name:en": "U-Like"
        }
      },
      {
        "type": "node",
        "id": 4656714717,
        "lat": 28.6424044,
        "lon": 77.2103819,
        "tags": {
          "amenity": "restaurant",
          "name": "NATRAJ restaurant",
          "name:en": "NATRAJ restaurant"
        }
      },
      {
        "type": "node",
        "id": 4715157790,
        "lat": 28.6423302,
        "lon": 77.2182562,
        "tags": {
          "amenity": "restaurant",
          "name": "Malabar Hotel",
          "name:en": "Malabar Hotel"
        }
      },
      {
        "type": "node",
        "id": 4715157791,
        "lat": 28.642273,
        "lon": 77.218265,
        "tags": {
          "amenity": "restaurant",
          "name": "Hotel Madras Dx",
          "name:en": "Hotel Madras Dx",
          "name:kn": "\u0cb9\u0ccb\u0c9f\u0cc6\u0cb2\u0ccd \u0cae\u0ca1\u0ccd\u0cb0\u0cbe\u0cb8\u0ccd \u0ca1\u0cc0\u0cb2\u0c95\u0ccd\u0cb8\u0ccd"
        }
      },
      {
        "type": "node",
        "id": 4715162190,
        "lat": 28.6424057,
        "lon": 77.2182489,
        "tags": {
          "addr:housenumber": "113",
          "addr:street": "Amir Kaur Market",
          "amenity": "restaurant",
          "description": "In side road of Babu Ram Solanki Marg near railway station",
          "name": "Hyderabadi Dum Biriyaani",
          "name:en": "Hyderabadi Dum Biriyaani",
          "phone": "+919717334256"
        }
      },
      {
        "type": "node",
        "id": 4715173889,
        "lat": 28.6424536,
        "lon": 77.2182429,
        "tags": {
          "amenity": "restaurant",
          "name": "South Indian Foods",
          "name:en": "South Indian Foods"
        }
      },
      {
        "type": "node",
        "id": 4752292921,
        "lat": 28.6417215,
        "lon": 77.2147806,
        "tags": {
          "amenity": "cafe",
          "cuisine": "italian_pizza;indian;italian",
          "diet:vegetarian": "yes",
          "name": "Everest Bakery Cafe",
          "opening_hours": "Mo-Su 10:00-22:00"
        }
      },
      {
        "type": "node",
        "id": 4772753924,
        "lat": 28.6405446,
        "lon": 77.217099,
        "tags": {
          "amenity": "restaurant",
          "cuisine": "indian",
          "diet:vegetarian": "yes",
          "name": "Rishi Vaishno Dhaba",
          "name:en": "Rishi Vaishno Dhaba"
        }
      },
      {
        "type": "node",
        "id": 4773105444,
        "lat": 28.6409944,
        "lon": 77.2127435,
        "tags": {
          "amenity": "restaurant",
          "name": "Sonu",
          "name:hi": "Sonu"
        }
      },
      {
        "type": "node",
        "id": 4857522521,
        "lat": 28.6411046,
        "lon": 77.2135151,
        "tags": {
          "amenity": "restaurant",
          "diet:vegetarian": "yes",
          "name": "Everest kitchen",
          "name:en": "Everest Caf\u00e9",
          "name:fr": "Everest Caf\u00e9"
        }
      },
      {
        "type": "node",
        "id": 4907281021,
        "lat": 28.6425769,
        "lon": 77.2193166,
        "tags": {
          "amenity": "atm",
          "check_date": "2023-08-27",
          "operator": "Union Bank"
        }
      },
      {
        "type": "node",
        "id": 4907281121,
        "lat": 28.6425338,
        "lon": 77.2193198,
        "tags": {
          "amenity": "atm",
          "brand": "Bank of Baroda",
          "brand:wikidata": "Q2003797",
          "check_date": "2023-08-27",
          "operator": "Bank of Baroda",
          "operator:wikidata": "Q2003797"
        }
      },
      {
        "type": "node",
        "id": 4908782321,
        "lat": 28.6418156,
        "lon": 77.2126057,
        "tags": {
          "amenity": "restaurant",
          "name": "Kathmandu Food Cafe",
          "name:en": "Kathmandu Food Cafe"
        }
      },
      {
        "type": "node",
        "id": 4928026922,
        "lat": 28.645479,
        "lon": 77.2163699,
        "tags": {
          "amenity": "cafe",
          "internet_access": "wlan",
          "name": "Brownie Cafe",
          "name:en": "Brownie Cafe"
        }
      },
      {
        "type": "node",
        "id": 4959734021,
        "lat": 28.6353146,
        "lon": 77.2206088,
        "tags": {
          "amenity": "restaurant",
          "diet:vegetarian": "yes",
          "name": "Lazeez Affaire"
        }
      },
      {
        "type": "node",
        "id": 4985058921,
        "lat": 28.6409867,
        "lon": 77.2108048,
        "tags": {
          "amenity": "restaurant",
          "name": "Thalee",
          "name:en": "Thalee",
          "name:fr": "Thalee"
        }
      },
      {
        "type": "node",
        "id": 5109849421,
        "lat": 28.6341541,
        "lon": 77.218784,
        "tags": {
          "addr:housename": "B",
          "addr:place": "Connaught Place",
          "addr:postcode": "110001",
          "air_conditioning": "no",
          "amenity": "restaurant",
          "diet:vegan": "yes",
          "diet:vegetarian": "yes",
          "indoor_seating": "yes",
          "level": "1",
          "name": "The Immigrant Cafe",
          "outdoor_seating": "no",
          "smoking": "yes",
          "wheelchair": "no"
        }
      },
      {
        "type": "node",
        "id": 5248543927,
        "lat": 28.64038,
        "lon": 77.213101,
        "tags": {
          "name": "Bhumi spices shop",
          "shop": "supermarket"
        }
      },
      {
        "type": "node",
        "id": 5323174525,
        "lat": 28.6408832,
        "lon": 77.213014,
        "tags": {
          "amenity": "restaurant"
        }
      },
      {
        "type": "node",
        "id": 5329504729,
        "lat": 28.6353446,
        "lon": 77.2203635,
        "tags": {
          "addr:block": "K",
          "addr:city": "New Delhi",
          "addr:housenumber": "15",
          "addr:neighbourhood": "Connaught Place",
          "addr:postcode": "110001",
          "air_conditioning": "yes",
          "amenity": "restaurant",
          "bar": "no",
          "branch": "Connaught Place",
          "brand": "Sagar Ratna",
          "check_date": "2024-09-17",
          "contact:facebook": "sagarratnaofficial",
          "cuisine": "indian",
          "diet:lactose_free": "yes",
          "diet:vegan": "yes",
          "diet:vegetarian": "yes",
          "image:menu": "d5c7fef7-7a20-4fee-92e2-b98c9c8bf758",
          "image:menu:0": "d1e87968-6f95-4826-87a7-221a8199360b",
          "image:menu:1": "3c754826-eb60-42b1-a0d8-67023b2329f4",
          "image:menu:2": "91010955-0ee4-4ed5-a373-df46286f6d81",
          "image:menu:3": "31813afa-4dbb-48eb-a5b0-64e602a9f843",
          "image:menu:4": "7c962b49-4088-4b14-bd86-bcee4ea70d98",
          "image:menu:5": "cd0420cc-d125-47ac-8bdb-3a6ee352b415",
          "image:menu:6": "a18ef6e5-43ee-4b5b-bdf6-e2a35b11bbe1",
          "image:menu:7": "da144236-2143-4bb6-979b-b2ecc69864b6",
          "internet_access": "no",
          "level": "0;1",
          "name": "Sagar Ratna",
          "name:hi": "\u0938\u093e\u0917\u0930 \u0930\u0924\u094d\u0928\u093e",
          "opening_hours": "08:00-23:00",
          "operator": "M/s Sagar Ratna Restaurants Pvt Ltd",
          "outdoor_seating": "no",
          "panoramax": "0429c2c4-bab1-44a4-88bd-43afbcde61b9",
          "panoramax:0": "1fd58a46-2970-4414-b75c-954acc43cc66",
          "panoramax:1": "aaca5a4b-377f-4651-bc28-12d3407a01c2",
          "panoramax:2": "2b440358-fb82-4a12-bb6d-b7a3dbe3e0bc",
          "payment:cash": "yes",
          "payment:credit_cards": "yes",
          "payment:debit_cards": "yes",
          "payment:upi": "yes",
          "phone": "+91 11 4737 7300",
          "smoking": "no",
          "source": "survey",
          "start_date": "1986",
          "takeaway": "yes",
          "toilets": "yes",
          "toilets:access": "customers",
          "toilets:fee": "no",
          "toilets:level": "1",
          "toilets:wheelchair": "no",
          "website": "https://www.sagarratna.in",
          "wheelchair": "no"
        }
      },
      {
        "type": "node",
        "id": 5432868321,
        "lat": 28.638233,
        "lon": 77.2120277,
        "tags": {
          "amenity": "cafe",
          "name:ru": "\u041d\u0443\u0434\u043b 30\u0440\u0443\u043f\u0438\u0439"
        }
      },
      {
        "type": "node",
        "id": 5488627982,
        "lat": 28.6411123,
        "lon": 77.2136081,
        "tags": {
          "amenity": "restaurant",
          "diet:vegetarian": "yes",
          "name": "Krishna Cafe",
          "wheelchair": "no"
        }
      },
      {
        "type": "node",
        "id": 5537049539,
        "lat": 28.6334848,
        "lon": 77.2181289,
        "tags": {
          "addr:housename": "A",
          "amenity": "cafe",
          "cuisine": "ice_cream",
          "diet:vegan": "yes",
          "diet:vegetarian": "yes",
          "name": "Keventer's Milkshake",
          "note": "I'm not sure if this is in the right block.",
          "website": "https://keventers.com/",
          "wikidata": "Q110654891",
          "wikipedia": "en:Keventers Milkshake"
        }
      },
      {
        "type": "node",
        "id": 5577534325,
        "lat": 28.6342788,
        "lon": 77.2176384,
        "tags": {
          "amenity": "fast_food",
          "cuisine": "burger",
          "diet:vegan": "yes",
          "diet:vegetarian": "yes",
          "name": "Burger Singh",
          "phone": "+91-87671-21212",
          "toilets": "yes",
          "website": "https://burgersinghonline.com/"
        }
      },
      {
        "type": "node",
        "id": 5601790638,
        "lat": 28.6429706,
        "lon": 77.2226296,
        "tags": {
          "amenity": "fast_food",
          "brand": "Burger King",
          "brand:wikidata": "Q177054",
          "cuisine": "burger",
          "name": "Burger King",
          "name:en": "Burger King",
          "takeaway": "yes"
        }
      },
      {
        "type": "node",
        "id": 5709171322,
        "lat": 28.6343655,
        "lon": 77.2179596,
        "tags": {
          "amenity": "cafe",
          "diet:vegan": "yes",
          "diet:vegetarian": "yes",
          "internet_access": "wlan",
          "name": "The Chai Kafe"
        }
      },
      {
        "type": "node",
        "id": 5771449331,
        "lat": 28.6421748,
        "lon": 77.2183515,
        "tags": {
          "amenity": "fast_food",
          "diet:vegetarian": "only",
          "name": "Pure Veg Foods"
        }
      },
      {
        "type": "node",
        "id": 5784310847,
        "lat": 28.6337914,
        "lon": 77.217038,
        "tags": {
          "addr:block": "G",
          "addr:city": "New Delhi",
          "addr:housenumber": "8",
          "addr:street": "D00",
          "amenity": "pharmacy",
          "branch": "Connaught Place",
          "brand": "Apollo Pharmacy",
          "brand:wikidata": "Q62562612",
          "healthcare": "pharmacy",
          "name": "Apollo Pharmacy",
          "opening_hours": "24/7"
        }
      },
      {
        "type": "node",
        "id": 5784310848,
        "lat": 28.6339281,
        "lon": 77.217254,
        "tags": {
          "addr:block": "G",
          "addr:housenumber": "4;5;6",
          "amenity": "restaurant",
          "diet:vegan": "yes",
          "diet:vegetarian": "yes",
          "name": "Oriental Garden Chinese"
        }
      },
      {
        "type": "node",
        "id": 5784312103,
        "lat": 28.6336342,
        "lon": 77.2169575,
        "tags": {
          "addr:block": "G",
          "addr:housenumber": "13",
          "addr:street": "D00",
          "amenity": "bank",
          "atm": "yes",
          "brand": "State Bank of India",
          "brand:wikidata": "Q1340361",
          "name": "State Bank of India",
          "opening_hours": "Mo-Sa 10:00-16:00; Sa[2, 4] closed",
          "short_name": "SBI"
        }
      },
      {
        "type": "node",
        "id": 5784312104,
        "lat": 28.6337075,
        "lon": 77.2169847,
        "tags": {
          "addr:housenumber": "G09",
          "addr:street": "D00",
          "amenity": "restaurant",
          "diet:vegetarian": "yes",
          "name": "Xero degrees",
          "website": "https://www.xerodegrees.com/"
        }
      },
      {
        "type": "node",
        "id": 5784312301,
        "lat": 28.6338871,
        "lon": 77.2173285,
        "tags": {
          "addr:block": "G",
          "addr:city": "New Delhi",
          "addr:housename": "Marina Arcade",
          "addr:housenumber": "04",
          "addr:postcode": "110001",
          "addr:street": "D00",
          "amenity": "pharmacy",
          "name": "Medicine House",
          "phone": "+91-95825-34440;+91-11-2332-1747;+91-11-6590-8784;+91-11-2332-1758"
        }
      },
      {
        "type": "node",
        "id": 5784312302,
        "lat": 28.6338668,
        "lon": 77.2173585,
        "tags": {
          "addr:block": "G",
          "amenity": "pharmacy",
          "name": "Nath Brothers",
          "opening_hours": "Mo-Sa 10:00-20:30",
          "phone": "+91-98994-41605;+91-11-4151-6266;+91-11-2332-7284"
        }
      },
      {
        "type": "node",
        "id": 5810592534,
        "lat": 28.6343883,
        "lon": 77.2183155,
        "tags": {
          "amenity": "atm",
          "brand": "Bank of Baroda",
          "brand:wikidata": "Q2003797",
          "name": "Bank of Baroda",
          "operator": "Bank of Baroda",
          "operator:wikidata": "Q2003797"
        }
      },
      {
        "type": "node",
        "id": 5810594585,
        "lat": 28.6339716,
        "lon": 77.2180188,
        "tags": {
          "amenity": "cafe",
          "brand": "Cafe Coffee Day",
          "brand:wikidata": "Q5017235",
          "cuisine": "coffee_shop",
          "diet:vegan": "yes",
          "diet:vegetarian": "yes",
          "name": "Cafe Coffee Day",
          "takeaway": "yes",
          "wheelchair": "no"
        }
      },
      {
        "type": "node",
        "id": 6047921386,
        "lat": 28.6410202,
        "lon": 77.2126034,
        "tags": {
          "amenity": "restaurant",
          "diet:vegetarian": "yes",
          "name": "Diamond restaurant"
        }
      },
      {
        "type": "node",
        "id": 6094909115,
        "lat": 28.6407001,
        "lon": 77.211572,
        "tags": {
          "amenity": "restaurant",
          "name": "Grand Singh restaurant"
        }
      },
      {
        "type": "node",
        "id": 6161686838,
        "lat": 28.6353515,
        "lon": 77.2190315,
        "tags": {
          "amenity": "restaurant",
          "diet:vegan": "yes",
          "diet:vegetarian": "yes",
          "name": "Mother India"
        }
      },
      {
        "type": "node",
        "id": 6161686839,
        "lat": 28.6352021,
        "lon": 77.2184123,
        "tags": {
          "amenity": "atm",
          "brand": "Yes Bank",
          "brand:wikidata": "Q2040394",
          "indoor": "yes",
          "name": "Yes Bank",
          "operator": "Yes Bank",
          "operator:wikidata": "Q2040394"
        }
      },
      {
        "type": "node",
        "id": 6161689894,
        "lat": 28.6353937,
        "lon": 77.2196262,
        "tags": {
          "amenity": "atm",
          "brand": "Punjab & Sind Bank",
          "brand:en": "Punjab & Sind Bank",
          "brand:hi": "\u092a\u0902\u091c\u093e\u092c \u090f\u0923\u094d\u0921 \u0938\u093f\u0902\u0927 \u092c\u0948\u0902\u0915",
          "brand:pa": "\u0a2a\u0a70\u0a1c\u0a3e\u0a2c \u0a10\u0a02\u0a21 \u0a38\u0a3f\u0a70\u0a27 \u0a2c\u0a48\u0a02\u0a15",
          "brand:ur": "\u067e\u0646\u062c\u0627\u0628 \u0627\u06cc\u0646\u0688 \u0633\u0646\u062f\u06be \u0628\u06cc\u0646\u06a9",
          "brand:website": "https://punjabandsindbank.co.in/",
          "brand:wikidata": "Q2003302",
          "indoor": "yes",
          "name": "Punjab & Sind Bank",
          "name:en": "Punjab & Sind Bank",
          "name:hi": "\u092a\u0902\u091c\u093e\u092c \u090f\u0923\u094d\u0921 \u0938\u093f\u0902\u0927 \u092c\u0948\u0902\u0915",
          "name:pa": "\u0a2a\u0a70\u0a1c\u0a3e\u0a2c \u0a10\u0a02\u0a21 \u0a38\u0a3f\u0a70\u0a27 \u0a2c\u0a48\u0a02\u0a15",
          "name:ur": "\u067e\u0646\u062c\u0627\u0628 \u0627\u06cc\u0646\u0688 \u0633\u0646\u062f\u06be \u0628\u06cc\u0646\u06a9",
          "operator": "Punjab & Sind Bank",
          "operator:wikidata": "Q2003302"
        }
      },
      {
        "type": "node",
        "id": 6161690528,
        "lat": 28.6352636,
        "lon": 77.2186749,
        "tags": {
          "amenity": "atm",
          "brand": "Canara Bank",
          "brand:en": "Canara Bank",
          "brand:hi": "\u0915\u0947\u0928\u0930\u093e \u092c\u0948\u0902\u0915",
          "brand:kn": "\u0c95\u0cc6\u0ca8\u0cb0\u0cbe \u0cac\u0ccd\u0caf\u0cbe\u0c82\u0c95\u0ccd",
          "brand:pa": "\u0a15\u0a47\u0a28\u0a30\u0a3e \u0a2c\u0a48\u0a02\u0a15",
          "brand:pnb": "\u06a9\u06cc\u0646\u0631\u0627 \u0628\u06cc\u0646\u06a9",
          "brand:ur": "\u06a9\u06cc\u0646\u0631\u0627 \u0628\u06cc\u0646\u06a9",
          "brand:wikidata": "Q2003777",
          "indoor": "yes",
          "name": "Canara Bank",
          "name:en": "Canara Bank",
          "name:hi": "\u0915\u0947\u0928\u0930\u093e \u092c\u0948\u0902\u0915",
          "name:kn": "\u0c95\u0cc6\u0ca8\u0cb0\u0cbe \u0cac\u0ccd\u0caf\u0cbe\u0c82\u0c95\u0ccd",
          "name:pa": "\u0a15\u0a47\u0a28\u0a30\u0a3e \u0a2c\u0a48\u0a02\u0a15",
          "name:pnb": "\u06a9\u06cc\u0646\u0631\u0627 \u0628\u06cc\u0646\u06a9",
          "name:ur": "\u06a9\u06cc\u0646\u0631\u0627 \u0628\u06cc\u0646\u06a9",
          "opening_hours": "24/7",
          "operator": "Canara Bank",
          "operator:wikidata": "Q2003777"
        }
      },
      {
        "type": "node",
        "id": 6161690529,
        "lat": 28.6350577,
        "lon": 77.2181263,
        "tags": {
          "amenity": "restaurant",
          "diet:vegan": "yes",
          "diet:vegetarian": "yes",
          "name": "V\u00e9da",
          "operator": "The Billiardiers"
        }
      },
      {
        "type": "node",
        "id": 6161690588,
        "lat": 28.6344013,
        "lon": 77.2214575,
        "tags": {
          "air_conditioning": "yes",
          "amenity": "restaurant",
          "diet:vegan": "yes",
          "diet:vegetarian": "yes",
          "indoor_seating": "yes",
          "name": "Unplugged Courtyard",
          "outdoor_seating": "no"
        }
      },
      {
        "type": "node",
        "id": 6161690589,
        "lat": 28.6351302,
        "lon": 77.2210229,
        "tags": {
          "addr:housenumber": "K-8",
          "addr:postcode": "110001",
          "addr:street": "Minto Road",
          "amenity": "bank",
          "atm": "yes",
          "branch": "Minto Road",
          "brand": "Punjab National Bank",
          "brand:short": "PNB",
          "brand:wikidata": "Q2743499",
          "name": "Punjab National Bank"
        }
      },
      {
        "type": "node",
        "id": 6161690590,
        "lat": 28.6352382,
        "lon": 77.218477,
        "tags": {
          "amenity": "atm",
          "brand": "IndusInd Bank",
          "brand:wikidata": "Q2040323",
          "indoor": "yes",
          "name": "IndusInd Bank",
          "opening_hours": "24/7",
          "operator": "IndusInd Bank",
          "operator:wikidata": "Q2040323"
        }
      },
      {
        "type": "node",
        "id": 6278067985,
        "lat": 28.6347294,
        "lon": 77.2203803,
        "tags": {
          "air_conditioning": "yes",
          "amenity": "restaurant",
          "cuisine": "rajasthani",
          "diet:vegan": "yes",
          "diet:vegetarian": "yes",
          "indoor_seating": "yes",
          "level": "0",
          "name": "Rajasthali",
          "opening_hours": "Mo-Su 12:00-16:00 \"lunch\", 19:00-23:00 \"dinner\"",
          "outdoor_seating": "no",
          "wheelchair": "no"
        }
      },
      {
        "type": "node",
        "id": 6278725085,
        "lat": 28.6412994,
        "lon": 77.215302,
        "tags": {
          "amenity": "atm",
          "brand": "ICICI Bank",
          "brand:en": "ICICI Bank",
          "brand:wikidata": "Q1653258",
          "currency:INR": "yes",
          "drive_through": "no",
          "indoor": "yes",
          "note": "Contributors are requested to not edit the \"brand\", \"brand:en\", \"brand:wikidata\", \"operator\", \"operator:en\" and \"operator:wikidata\" tags. (2025/02/19)",
          "opening_hours": "24/7",
          "operator": "ICICI Bank",
          "operator:en": "ICICI Bank",
          "operator:wikidata": "Q1653258",
          "short_name": "ICICI"
        }
      },
      {
        "type": "node",
        "id": 6322136985,
        "lat": 28.6407857,
        "lon": 77.213179,
        "tags": {
          "amenity": "fast_food",
          "name": "Tea Tchai to take away"
        }
      },
      {
        "type": "node",
        "id": 6487154686,
        "lat": 28.6440465,
        "lon": 77.2124248,
        "tags": {
          "amenity": "fast_food",
          "name": "Amazing chole stand"
        }
      },
      {
        "type": "node",
        "id": 6495330848,
        "lat": 28.6345172,
        "lon": 77.2195629,
        "tags": {
          "addr:housename": "B",
          "addr:place": "Connaught Place",
          "addr:postcode": "110001",
          "amenity": "bank",
          "atm": "yes",
          "branch": "Connaught Place",
          "brand": "Bank of Maharashtra",
          "brand:wikidata": "Q2004304",
          "level": "1",
          "name": "Bank of Maharashtra"
        }
      },
      {
        "type": "node",
        "id": 6495330860,
        "lat": 28.6343112,
        "lon": 77.2194624,
        "tags": {
          "addr:housename": "B",
          "addr:place": "Connaught Place",
          "addr:postcode": "110001",
          "amenity": "cafe",
          "brand": "Cafe Coffee Day",
          "brand:wikidata": "Q5017235",
          "cuisine": "coffee_shop",
          "diet:vegetarian": "yes",
          "level": "1",
          "name": "Cafe Coffee Day",
          "takeaway": "yes",
          "wheelchair": "no"
        }
      },
      {
        "type": "node",
        "id": 6495330865,
        "lat": 28.6345008,
        "lon": 77.219561,
        "tags": {
          "addr:housename": "B",
          "addr:place": "Connaught Place",
          "addr:postcode": "110001",
          "amenity": "atm",
          "brand": "Bank of Maharashtra",
          "brand:wikidata": "Q2004304",
          "level": "0",
          "name": "Bank of Maharashtra",
          "opening_hours": "24/7",
          "operator": "Bank of Maharashtra",
          "operator:wikidata": "Q2004304",
          "wheelchair": "no"
        }
      },
      {
        "type": "node",
        "id": 6495330876,
        "lat": 28.6342714,
        "lon": 77.2192315,
        "tags": {
          "addr:housename": "B-25",
          "addr:place": "Connaught Place",
          "addr:postcode": "110001",
          "air_conditioning": "yes",
          "alcohol": "yes",
          "amenity": "restaurant",
          "diet:vegan": "yes",
          "diet:vegetarian": "yes",
          "indoor_seating": "yes",
          "level": "0",
          "name": "Zen",
          "opening_hours": "PH,Mo-Su 11:30-19:45",
          "outdoor_seating": "no",
          "smoking": "separated",
          "wheelchair": "limited"
        }
      },
      {
        "type": "node",
        "id": 6495346837,
        "lat": 28.6336036,
        "lon": 77.2178165,
        "tags": {
          "addr:housename": "A",
          "amenity": "cafe",
          "brand": "Cafe Coffee Day",
          "brand:wikidata": "Q5017235",
          "cuisine": "coffee_shop",
          "diet:vegan": "yes",
          "diet:vegetarian": "yes",
          "name": "Cafe Coffee Day",
          "takeaway": "yes",
          "wheelchair": "no"
        }
      },
      {
        "type": "node",
        "id": 6495346838,
        "lat": 28.6342817,
        "lon": 77.2190663,
        "tags": {
          "addr:housename": "B",
          "addr:place": "Connaught Place",
          "addr:postcode": "110001",
          "air_conditioning": "no",
          "amenity": "restaurant",
          "diet:vegan": "yes",
          "diet:vegetarian": "yes",
          "indoor_seating": "yes",
          "level": "1",
          "name": "The Big Chill",
          "outdoor_seating": "no",
          "smoking": "yes"
        }
      },
      {
        "type": "node",
        "id": 6566966468,
        "lat": 28.6343601,
        "lon": 77.2182711,
        "tags": {
          "addr:city": "New Delhi",
          "addr:housenumber": "B-49",
          "addr:postcode": "110001",
          "addr:street": "Connaught Circus (Indira Chowk), Connaught Place",
          "amenity": "cafe",
          "diet:vegan": "yes",
          "diet:vegetarian": "yes",
          "name": "OTB Caf\u00e9"
        }
      },
      {
        "type": "node",
        "id": 6657141286,
        "lat": 28.6409128,
        "lon": 77.2136434,
        "tags": {
          "amenity": "restaurant",
          "internet_access": "wlan",
          "name": "Bistrot 55"
        }
      },
      {
        "type": "node",
        "id": 6707994776,
        "lat": 28.634703,
        "lon": 77.2205246,
        "tags": {
          "addr:block": "C",
          "addr:housenumber": "42/2",
          "addr:place": "Connaught Place",
          "addr:postcode": "110001",
          "addr:street": "Middle Circle",
          "amenity": "restaurant",
          "contact:email": "info@shakesquare.co.in",
          "contact:facebook": "https://www.facebook.com/Shake-Square-Connaught-Place-242986939074737",
          "contact:instagram": "https://www.instagram.com/shakesquare",
          "contact:website": "http://shakesquare.co.in",
          "cuisine": "shake;ice_cream;italian;salad;noodles;pizza;pasta",
          "diet:vegan": "yes",
          "diet:vegetarian": "only",
          "drink:shake": "yes",
          "level": "0;1",
          "name": "Shake Square",
          "operator": "M/s SS Milk Products",
          "seats": "23",
          "smoking": "no",
          "wheelchair": "no"
        }
      },
      {
        "type": "node",
        "id": 6734411085,
        "lat": 28.6405754,
        "lon": 77.2117485,
        "tags": {
          "amenity": "cafe",
          "name": "Open Hand Cafe (top top ;)"
        }
      },
      {
        "type": "node",
        "id": 6761961064,
        "lat": 28.6347974,
        "lon": 77.2201885,
        "tags": {
          "amenity": "fast_food",
          "cuisine": "roll",
          "diet:vegan": "yes",
          "diet:vegetarian": "yes",
          "level": "0",
          "name": "Halka Fulka",
          "name:hi": "\u0939\u0932\u0915\u093e \u092b\u093c\u0941\u0932\u0915\u093e",
          "wheelchair": "yes"
        }
      },
      {
        "type": "node",
        "id": 6832945794,
        "lat": 28.6347114,
        "lon": 77.2217366,
        "tags": {
          "amenity": "bank",
          "atm": "yes",
          "brand": "Saraswat Bank",
          "survey:date": "2023-01-24"
        }
      },
      {
        "type": "node",
        "id": 7043007385,
        "lat": 28.6348608,
        "lon": 77.2186893,
        "tags": {
          "amenity": "bank",
          "branch": "Connaught Circus",
          "brand": "Bank of India",
          "brand:wikidata": "Q2004439",
          "indoor": "yes",
          "name": "Bank of India",
          "operator": "Bank of India",
          "operator:wikidata": "Q2004439"
        }
      },
      {
        "type": "node",
        "id": 7083796923,
        "lat": 28.6350184,
        "lon": 77.2195254,
        "tags": {
          "addr:housename": "H",
          "addr:housenumber": "9",
          "addr:place": "Connaught Place",
          "addr:postcode": "110001",
          "air_conditioning": "yes",
          "amenity": "restaurant",
          "bar": "yes",
          "contact:phone": "+91 11 2332 0081;+91 11 4152 8042",
          "contact:website": "https://toninoindia.com/",
          "cuisine": "italian",
          "diet:vegan": "yes",
          "diet:vegetarian": "yes",
          "drink:beer": "served",
          "drink:wine": "served",
          "level": "1",
          "name": "Caff\u00e8 Tonino",
          "toilets": "yes",
          "toilets:access": "customers",
          "wheelchair": "no"
        }
      },
      {
        "type": "node",
        "id": 7083916145,
        "lat": 28.6342664,
        "lon": 77.2180918,
        "tags": {
          "alt_name": "Hashery",
          "amenity": "cafe",
          "diet:vegan": "yes",
          "diet:vegetarian": "yes",
          "drink:hot_chocolate": "served",
          "name": "#ashery",
          "seats": "17"
        }
      },
      {
        "type": "node",
        "id": 7109534085,
        "lat": 28.6412335,
        "lon": 77.2144015,
        "tags": {
          "amenity": "bank",
          "brand": "Western Union",
          "brand:wikidata": "Q861042",
          "name": "Western Union & Express Money"
        }
      },
      {
        "type": "node",
        "id": 7130326685,
        "lat": 28.6417766,
        "lon": 77.2104626,
        "tags": {
          "amenity": "atm",
          "check_date": "2025-01-22"
        }
      },
      {
        "type": "node",
        "id": 7138493193,
        "lat": 28.6357652,
        "lon": 77.2110664,
        "tags": {
          "addr:district": "New Delhi",
          "addr:full": "C- 604, Connaught Circus, DIZ Area, Connaught Place, New Delhi",
          "addr:postcode": "110001",
          "addr:state": "Delhi",
          "amenity": "hospital",
          "contact:phone": "011 2334 4147",
          "name": "Kalawati Saran Children's Hospital",
          "source": "OpenGovernmentData"
        }
      },
      {
        "type": "node",
        "id": 7138493258,
        "lat": 28.6365867,
        "lon": 77.2173905,
        "tags": {
          "addr:district": "New Delhi",
          "addr:full": "Basant Lane, Paharganj, Connaught Place",
          "addr:postcode": "110055",
          "addr:state": "Delhi",
          "amenity": "hospital",
          "contact:phone": "011- 2334 4092",
          "description": "100-500 Bedded Hospital",
          "healthcare": "hospital",
          "name": "Central Hospital (Northern Railways)",
          "source": "OpenGovernmentData"
        }
      },
      {
        "type": "node",
        "id": 7138534287,
        "lat": 28.634138,
        "lon": 77.212909,
        "tags": {
          "addr:district": "Central",
          "addr:full": "C-604, Shaheed Bhagat Singh Road, Diz Area, Connaught Place, New Delhi",
          "addr:postcode": "110001",
          "addr:state": "Delhi",
          "amenity": "hospital",
          "contact:nodal_officer_email": "serologyhailhmc@gmail.com",
          "contact:nodal_officer_mobile": "9868961269",
          "contact:phone": "1123363728",
          "healthcare": "hospital",
          "name": "Lady Hardinge Medical College & Associated Hospitals",
          "name:etymology:wikidata": "Q4020403",
          "source": "OpenGovernmentData"
        }
      },
      {
        "type": "node",
        "id": 7138534362,
        "lat": 28.6427947,
        "lon": 77.2098113,
        "tags": {
          "addr:district": "Central",
          "addr:full": "ESI Dispensary Chuna Mandi, gali No.-10, Pahargaj, New Delhi",
          "addr:postcode": "110055",
          "addr:state": "Delhi",
          "amenity": "clinic",
          "contact:phone": "23580679",
          "description": "Dispensaries",
          "health_facility:type": "dispensary",
          "healthcare": "centre",
          "name": "ESI Dispensary, Chuna Mandi Paharganj",
          "source": "OpenGovernmentData"
        }
      },
      {
        "type": "node",
        "id": 7138534396,
        "lat": 28.642259,
        "lon": 77.2084424,
        "tags": {
          "addr:district": "Central",
          "addr:full": "Aram Bagh, Behind Paharganj Police station, Pahargaj",
          "addr:postcode": "110055",
          "addr:state": "Delhi",
          "amenity": "clinic",
          "contact:phone": "23676019",
          "description": "Dispensaries",
          "health_facility:type": "dispensary",
          "healthcare": "centre",
          "name": "CGHS Dispensary, C.G. Road",
          "source": "OpenGovernmentData"
        }
      },
      {
        "type": "node",
        "id": 7222985985,
        "lat": 28.6411587,
        "lon": 77.2134007,
        "tags": {
          "addr:street": "1176 Main Bazar",
          "amenity": "restaurant",
          "internet_access": "wlan",
          "name": "Singh\u2019s caf\u00e9 & restaurant"
        }
      },
      {
        "type": "node",
        "id": 8042900291,
        "lat": 28.6408204,
        "lon": 77.2114592,
        "tags": {
          "addr:city": "New Delhi",
          "addr:housenumber": "1606,",
          "addr:postcode": "110055",
          "addr:street": "Main Bazar Road, Chuna Mandi, Paharganj 110055",
          "name": "Organic India Pharganj",
          "organic": "yes",
          "shop": "supermarket"
        }
      },
      {
        "type": "node",
        "id": 8044305077,
        "lat": 28.6357531,
        "lon": 77.2205669,
        "tags": {
          "amenity": "cafe",
          "diet:vegan": "yes",
          "diet:vegetarian": "yes",
          "name": "Travel Yoga Cafe"
        }
      },
      {
        "type": "node",
        "id": 9038318509,
        "lat": 28.6349683,
        "lon": 77.2190751,
        "tags": {
          "addr:block": "H",
          "addr:housenumber": "54",
          "amenity": "bank",
          "branch": "Connaught Circus",
          "brand": "Canara Bank",
          "brand:en": "Canara Bank",
          "brand:hi": "\u0915\u0947\u0928\u0930\u093e \u092c\u0948\u0902\u0915",
          "brand:kn": "\u0c95\u0cc6\u0ca8\u0cb0\u0cbe \u0cac\u0ccd\u0caf\u0cbe\u0c82\u0c95\u0ccd",
          "brand:pa": "\u0a15\u0a47\u0a28\u0a30\u0a3e \u0a2c\u0a48\u0a02\u0a15",
          "brand:pnb": "\u06a9\u06cc\u0646\u0631\u0627 \u0628\u06cc\u0646\u06a9",
          "brand:ur": "\u06a9\u06cc\u0646\u0631\u0627 \u0628\u06cc\u0646\u06a9",
          "brand:wikidata": "Q2003777",
          "name": "Canara Bank",
          "name:en": "Canara Bank",
          "name:hi": "\u0915\u0947\u0928\u0930\u093e \u092c\u0948\u0902\u0915",
          "name:kn": "\u0c95\u0cc6\u0ca8\u0cb0\u0cbe \u0cac\u0ccd\u0caf\u0cbe\u0c82\u0c95\u0ccd",
          "name:pa": "\u0a15\u0a47\u0a28\u0a30\u0a3e \u0a2c\u0a48\u0a02\u0a15",
          "name:pnb": "\u06a9\u06cc\u0646\u0631\u0627 \u0628\u06cc\u0646\u06a9",
          "name:ur": "\u06a9\u06cc\u0646\u0631\u0627 \u0628\u06cc\u0646\u06a9"
        }
      },
      {
        "type": "node",
        "id": 9202231252,
        "lat": 28.6348369,
        "lon": 77.219416,
        "tags": {
          "amenity": "atm",
          "brand": "Canara Bank",
          "brand:en": "Canara Bank",
          "brand:hi": "\u0915\u0947\u0928\u0930\u093e \u092c\u0948\u0902\u0915",
          "brand:kn": "\u0c95\u0cc6\u0ca8\u0cb0\u0cbe \u0cac\u0ccd\u0caf\u0cbe\u0c82\u0c95\u0ccd",
          "brand:pa": "\u0a15\u0a47\u0a28\u0a30\u0a3e \u0a2c\u0a48\u0a02\u0a15",
          "brand:pnb": "\u06a9\u06cc\u0646\u0631\u0627 \u0628\u06cc\u0646\u06a9",
          "brand:ur": "\u06a9\u06cc\u0646\u0631\u0627 \u0628\u06cc\u0646\u06a9",
          "brand:wikidata": "Q2003777",
          "name": "Canara Bank",
          "name:en": "Canara Bank",
          "name:hi": "\u0915\u0947\u0928\u0930\u093e \u092c\u0948\u0902\u0915",
          "name:kn": "\u0c95\u0cc6\u0ca8\u0cb0\u0cbe \u0cac\u0ccd\u0caf\u0cbe\u0c82\u0c95\u0ccd",
          "name:pa": "\u0a15\u0a47\u0a28\u0a30\u0a3e \u0a2c\u0a48\u0a02\u0a15",
          "name:pnb": "\u06a9\u06cc\u0646\u0631\u0627 \u0628\u06cc\u0646\u06a9",
          "name:ur": "\u06a9\u06cc\u0646\u0631\u0627 \u0628\u06cc\u0646\u06a9",
          "operator": "Canara Bank",
          "operator:wikidata": "Q2003777",
          "wheelchair": "no"
        }
      },
      {
        "type": "node",
        "id": 9202231253,
        "lat": 28.6348478,
        "lon": 77.2194897,
        "tags": {
          "amenity": "fast_food",
          "diet:vegan": "yes",
          "diet:vegetarian": "yes",
          "name": "Tau",
          "name:hi": "\u0924\u093e\u090a"
        }
      },
      {
        "type": "node",
        "id": 9202231254,
        "lat": 28.6348361,
        "lon": 77.2194004,
        "tags": {
          "amenity": "bank",
          "branch": "Super Bazar",
          "brand": "Canara Bank",
          "brand:en": "Canara Bank",
          "brand:hi": "\u0915\u0947\u0928\u0930\u093e \u092c\u0948\u0902\u0915",
          "brand:kn": "\u0c95\u0cc6\u0ca8\u0cb0\u0cbe \u0cac\u0ccd\u0caf\u0cbe\u0c82\u0c95\u0ccd",
          "brand:pa": "\u0a15\u0a47\u0a28\u0a30\u0a3e \u0a2c\u0a48\u0a02\u0a15",
          "brand:pnb": "\u06a9\u06cc\u0646\u0631\u0627 \u0628\u06cc\u0646\u06a9",
          "brand:ur": "\u06a9\u06cc\u0646\u0631\u0627 \u0628\u06cc\u0646\u06a9",
          "brand:wikidata": "Q2003777",
          "name": "Canara Bank",
          "name:en": "Canara Bank",
          "name:hi": "\u0915\u0947\u0928\u0930\u093e \u092c\u0948\u0902\u0915",
          "name:kn": "\u0c95\u0cc6\u0ca8\u0cb0\u0cbe \u0cac\u0ccd\u0caf\u0cbe\u0c82\u0c95\u0ccd",
          "name:pa": "\u0a15\u0a47\u0a28\u0a30\u0a3e \u0a2c\u0a48\u0a02\u0a15",
          "name:pnb": "\u06a9\u06cc\u0646\u0631\u0627 \u0628\u06cc\u0646\u06a9",
          "name:ur": "\u06a9\u06cc\u0646\u0631\u0627 \u0628\u06cc\u0646\u06a9",
          "wheelchair": "no"
        }
      },
      {
        "type": "node",
        "id": 9952989417,
        "lat": 28.6339819,
        "lon": 77.2185238,
        "tags": {
          "amenity": "cafe",
          "brand": "Cafe Coffee Day",
          "brand:wikidata": "Q5017235",
          "cuisine": "coffee_shop",
          "diet:vegan": "yes",
          "diet:vegetarian": "yes",
          "internet_access": "wlan",
          "name": "Cafe Coffee Day",
          "takeaway": "yes"
        }
      },
      {
        "type": "node",
        "id": 10129613417,
        "lat": 28.644045,
        "lon": 77.2093712,
        "tags": {
          "amenity": "cafe",
          "name:en": "Madras, south India food"
        }
      },
      {
        "type": "node",
        "id": 10278723509,
        "lat": 28.6433132,
        "lon": 77.214524,
        "tags": {
          "amenity": "fast_food",
          "name": "Shiv Dhaba"
        }
      },
      {
        "type": "node",
        "id": 10773291097,
        "lat": 28.6346728,
        "lon": 77.2180409,
        "tags": {
          "amenity": "restaurant",
          "cuisine": "indian",
          "diet:vegan": "yes",
          "diet:vegetarian": "yes",
          "name": "Dasaprakash"
        }
      },
      {
        "type": "node",
        "id": 10905351895,
        "lat": 28.6346501,
        "lon": 77.2195319,
        "tags": {
          "alcohol": "yes",
          "amenity": "restaurant",
          "diet:vegan": "yes",
          "diet:vegetarian": "yes",
          "level": "1",
          "name": "Harlequin"
        }
      },
      {
        "type": "node",
        "id": 10936327541,
        "lat": 28.6349675,
        "lon": 77.2201154,
        "tags": {
          "amenity": "restaurant",
          "diet:vegan": "yes",
          "diet:vegetarian": "yes",
          "internet_access": "yes",
          "internet_access:fee": "no",
          "level": "1",
          "name": "Ghoomar",
          "opening_hours:kitchen": "Mo-Su 12:00-17:00; Mo-Su 19:00-23:00",
          "takeaway": "yes",
          "wheelchair": "no"
        }
      },
      {
        "type": "node",
        "id": 11064409807,
        "lat": 28.6342696,
        "lon": 77.2190501,
        "tags": {
          "air_conditioning": "yes",
          "amenity": "restaurant",
          "cuisine": "punjabi",
          "diet:lacto_vegetarian": "yes",
          "diet:ovo_vegetarian": "yes",
          "diet:vegan": "yes",
          "diet:vegetarian": "yes",
          "indoor_seating": "yes",
          "level": "0",
          "name": "Dhaba",
          "outdoor_seating": "no",
          "smoking": "separated",
          "toilets": "yes"
        }
      },
      {
        "type": "node",
        "id": 11225066964,
        "lat": 28.633884,
        "lon": 77.2184716,
        "tags": {
          "amenity": "cafe",
          "brand": "Cafe Coffee Day",
          "brand:wikidata": "Q5017235",
          "cuisine": "coffee_shop",
          "diet:vegan": "yes",
          "diet:vegetarian": "yes",
          "level": "1",
          "name": "Cafe Coffee Day",
          "operator": "Cafe Coffee Day",
          "takeaway": "yes"
        }
      },
      {
        "type": "node",
        "id": 11242857869,
        "lat": 28.6431435,
        "lon": 77.2214256,
        "tags": {
          "amenity": "fast_food",
          "brand": "Wow! Momo",
          "brand:wikidata": "Q8037446",
          "cuisine": "momo",
          "level": "0",
          "name": "Wow! Momo",
          "takeaway": "yes",
          "wheelchair": "limited"
        }
      },
      {
        "type": "node",
        "id": 11242857870,
        "lat": 28.6431932,
        "lon": 77.2214202,
        "tags": {
          "alt_name": "Haldiram",
          "amenity": "fast_food",
          "brand": "Haldiram's",
          "brand:wikidata": "Q17054442",
          "cuisine": "indian",
          "level": "0",
          "name": "Haldiram's",
          "takeaway": "yes",
          "wheelchair": "no"
        }
      },
      {
        "type": "node",
        "id": 11242857871,
        "lat": 28.6429888,
        "lon": 77.2214491,
        "tags": {
          "amenity": "restaurant",
          "level": "0",
          "name": "Nazeer Foods"
        }
      },
      {
        "type": "node",
        "id": 11242857872,
        "lat": 28.6430902,
        "lon": 77.2214359,
        "tags": {
          "amenity": "fast_food",
          "level": "0",
          "name": "Diner & Burger"
        }
      },
      {
        "type": "node",
        "id": 11242857873,
        "lat": 28.6430383,
        "lon": 77.2214437,
        "tags": {
          "amenity": "restaurant",
          "level": "0",
          "name": "IRCTC Food Plaza",
          "operator": "Indian Railway Catering and Tourism Corporation Ltd."
        }
      },
      {
        "type": "node",
        "id": 11242857874,
        "lat": 28.6429353,
        "lon": 77.2214586,
        "tags": {
          "alt_name": "Kentucky Fried Chicken",
          "alt_name:en": "Kentucky Fried Chicken",
          "alt_name:hi": "\u0915\u0947\u0902\u091f\u0941\u0915\u0940 \u092b\u094d\u0930\u093e\u0907\u0921 \u091a\u093f\u0915\u0928",
          "alt_name:pa": "\u0a15\u0a48\u0a02\u0a1f\u0a41\u0a15\u0a40 \u0a2b\u0a4d\u0a30\u0a3e\u0a08\u0a21 \u0a1a\u0a3f\u0a15\u0a28",
          "alt_name:pnb": "\u06a9\u06cc\u0646\u0679\u06a9\u06cc \u0641\u0631\u0627\u0626\u06cc\u0688 \u0686\u06a9\u0646",
          "alt_name:ur": "\u06a9\u06cc\u0646\u0679\u06a9\u06cc \u0641\u0631\u0627\u0626\u06cc\u0688 \u0686\u06a9\u0646",
          "amenity": "fast_food",
          "brand": "KFC",
          "brand:en": "KFC",
          "brand:hi": "\u0915\u0947\u090f\u092b\u0938\u0940",
          "brand:pa": "\u0a15\u0a47\u0a10\u0a2b\u0a38\u0a40",
          "brand:pnb": "\u06a9\u06d2 \u0627\u06cc\u0641 \u0633\u06cc",
          "brand:ur": "\u06a9\u06d2 \u0627\u06cc\u0641 \u0633\u06cc",
          "brand:wikidata": "Q524757",
          "cuisine": "chicken",
          "level": "0",
          "name": "KFC",
          "name:en": "KFC",
          "name:hi": "\u0915\u0947\u090f\u092b\u0938\u0940",
          "name:pa": "\u0a15\u0a47\u0a10\u0a2b\u0a38\u0a40",
          "name:pnb": "\u06a9\u06d2 \u0627\u06cc\u0641 \u0633\u06cc",
          "name:ur": "\u06a9\u06d2 \u0627\u06cc\u0641 \u0633\u06cc",
          "takeaway": "yes"
        }
      },
      {
        "type": "node",
        "id": 11242865005,
        "lat": 28.642164,
        "lon": 77.2215364,
        "tags": {
          "amenity": "restaurant",
          "cuisine": "indian",
          "level": "0",
          "name": "Jan-Aahar",
          "operator": "Indian Railway Catering and Tourism Corporation Ltd."
        }
      },
      {
        "type": "node",
        "id": 11558063771,
        "lat": 28.6349668,
        "lon": 77.2220253,
        "tags": {
          "amenity": "fast_food",
          "name": "Kake-Da-Hotel",
          "takeaway": "yes",
          "url": "https://www.kakedahotel.in"
        }
      },
      {
        "type": "node",
        "id": 11601991069,
        "lat": 28.6410098,
        "lon": 77.2104547,
        "tags": {
          "amenity": "restaurant",
          "cuisine": "indian",
          "diet:vegetarian": "yes",
          "name": "Swagat"
        }
      },
      {
        "type": "node",
        "id": 11633581169,
        "lat": 28.6459236,
        "lon": 77.215431,
        "tags": {
          "amenity": "restaurant",
          "name": "Brahmin's Pure veg"
        }
      },
      {
        "type": "node",
        "id": 11633581269,
        "lat": 28.645817,
        "lon": 77.2154412,
        "tags": {
          "amenity": "cafe",
          "name": "Caf\u00e9 Brownie (coffee)"
        }
      },
      {
        "type": "node",
        "id": 11637330958,
        "lat": 28.6336824,
        "lon": 77.2169663,
        "tags": {
          "addr:postcode": "110001",
          "amenity": "bank",
          "branch": "Connaught Place",
          "brand": "Karnataka Bank",
          "brand:wikidata": "Q2042632",
          "name": "Karnataka Bank"
        }
      },
      {
        "type": "node",
        "id": 11637338912,
        "lat": 28.6349355,
        "lon": 77.2189047,
        "tags": {
          "addr:block": "H",
          "addr:housenumber": "2",
          "amenity": "bank",
          "atm": "yes",
          "branch": "Connaught Circus",
          "brand": "Bank of India",
          "brand:wikidata": "Q2004439",
          "name": "Bank of India"
        }
      },
      {
        "type": "node",
        "id": 11637338914,
        "lat": 28.6346813,
        "lon": 77.2183109,
        "tags": {
          "addr:block": "H",
          "addr:housename": "Tropical Building",
          "addr:housenumber": "22",
          "amenity": "bank",
          "branch": "Connaught Circus",
          "brand": "Punjab National Bank",
          "brand:wikidata": "Q2743499",
          "name": "Punjab National Bank"
        }
      },
      {
        "type": "node",
        "id": 11637338916,
        "lat": 28.6347571,
        "lon": 77.2184665,
        "tags": {
          "amenity": "cafe",
          "cuisine": "tea",
          "level": "0",
          "name": "Chai 24/7",
          "wheelchair": "yes"
        }
      },
      {
        "type": "node",
        "id": 11801338398,
        "lat": 28.6391042,
        "lon": 77.2084744,
        "tags": {
          "amenity": "restaurant",
          "bar": "no",
          "level": "0",
          "name": "Bikanervala",
          "shop": "yes"
        }
      },
      {
        "type": "node",
        "id": 11801338399,
        "lat": 28.6391707,
        "lon": 77.2083739,
        "tags": {
          "amenity": "fast_food",
          "indoor_seating": "yes",
          "level": "0",
          "name": "Food Forum"
        }
      },
      {
        "type": "node",
        "id": 11801338400,
        "lat": 28.6391886,
        "lon": 77.2083409,
        "tags": {
          "amenity": "fast_food",
          "cuisine": "burger",
          "indoor_seating": "yes",
          "level": "0",
          "name": "The Burger Co."
        }
      },
      {
        "type": "node",
        "id": 11801338401,
        "lat": 28.639123,
        "lon": 77.2084365,
        "tags": {
          "amenity": "fast_food",
          "indoor_seating": "yes",
          "level": "0",
          "name": "Diana"
        }
      },
      {
        "type": "node",
        "id": 11801338402,
        "lat": 28.6390886,
        "lon": 77.2085054,
        "tags": {
          "amenity": "fast_food",
          "bar": "no",
          "brand": "Pizza Hut",
          "brand:wikidata": "Q191615",
          "cuisine": "pizza",
          "level": "0",
          "name": "Pizza Hut"
        }
      },
      {
        "type": "node",
        "id": 11801338403,
        "lat": 28.6391433,
        "lon": 77.208405,
        "tags": {
          "amenity": "fast_food",
          "brand": "Subway",
          "brand:wikidata": "Q244457",
          "cuisine": "sandwich",
          "level": "0",
          "name": "Subway",
          "takeaway": "yes"
        }
      },
      {
        "type": "node",
        "id": 11805134682,
        "lat": 28.639207,
        "lon": 77.2083127,
        "tags": {
          "amenity": "restaurant",
          "bar": "no",
          "level": "0",
          "name": "Fat Tiger"
        }
      },
      {
        "type": "node",
        "id": 11833042044,
        "lat": 28.6455843,
        "lon": 77.209833,
        "tags": {
          "alt_name": "Kentucky Fried Chicken",
          "alt_name:en": "Kentucky Fried Chicken",
          "alt_name:hi": "\u0915\u0947\u0902\u091f\u0941\u0915\u0940 \u092b\u094d\u0930\u093e\u0907\u0921 \u091a\u093f\u0915\u0928",
          "alt_name:pa": "\u0a15\u0a48\u0a02\u0a1f\u0a41\u0a15\u0a40 \u0a2b\u0a4d\u0a30\u0a3e\u0a08\u0a21 \u0a1a\u0a3f\u0a15\u0a28",
          "alt_name:pnb": "\u06a9\u06cc\u0646\u0679\u06a9\u06cc \u0641\u0631\u0627\u0626\u06cc\u0688 \u0686\u06a9\u0646",
          "alt_name:ur": "\u06a9\u06cc\u0646\u0679\u06a9\u06cc \u0641\u0631\u0627\u0626\u06cc\u0688 \u0686\u06a9\u0646",
          "amenity": "fast_food",
          "brand": "KFC",
          "brand:en": "KFC",
          "brand:hi": "\u0915\u0947\u090f\u092b\u0938\u0940",
          "brand:pa": "\u0a15\u0a47\u0a10\u0a2b\u0a38\u0a40",
          "brand:pnb": "\u06a9\u06d2 \u0627\u06cc\u0641 \u0633\u06cc",
          "brand:ur": "\u06a9\u06d2 \u0627\u06cc\u0641 \u0633\u06cc",
          "brand:wikidata": "Q524757",
          "cuisine": "chicken",
          "level": "1",
          "name": "KFC",
          "name:en": "KFC",
          "name:hi": "\u0915\u0947\u090f\u092b\u0938\u0940",
          "name:pa": "\u0a15\u0a47\u0a10\u0a2b\u0a38\u0a40",
          "name:pnb": "\u06a9\u06d2 \u0627\u06cc\u0641 \u0633\u06cc",
          "name:ur": "\u06a9\u06d2 \u0627\u06cc\u0641 \u0633\u06cc",
          "takeaway": "yes",
          "wheelchair": "no"
        }
      },
      {
        "type": "node",
        "id": 11833042045,
        "lat": 28.6459492,
        "lon": 77.209867,
        "tags": {
          "amenity": "bank",
          "brand": "Punjab National Bank",
          "brand:wikidata": "Q2743499",
          "name": "Punjab National Bank"
        }
      },
      {
        "type": "node",
        "id": 12016180634,
        "lat": 28.6429981,
        "lon": 77.2221821,
        "tags": {
          "amenity": "restaurant",
          "bar": "no",
          "cuisine": "indian",
          "level": "0",
          "noname": "yes",
          "takeaway": "yes"
        }
      },
      {
        "type": "node",
        "id": 12016200924,
        "lat": 28.6429636,
        "lon": 77.2217381,
        "tags": {
          "amenity": "atm",
          "brand": "Indian Bank",
          "brand:wikidata": "Q2003789",
          "level": "0",
          "name": "Indian Bank",
          "operator": "Indian Bank",
          "operator:wikidata": "Q2003789",
          "wheelchair": "yes"
        }
      },
      {
        "type": "node",
        "id": 12016200928,
        "lat": 28.642959,
        "lon": 77.221716,
        "tags": {
          "amenity": "atm",
          "brand": "State Bank of India",
          "brand:en": "State Bank of India",
          "brand:wikidata": "Q1340361",
          "currency:INR": "yes",
          "drive_through": "no",
          "indoor": "yes",
          "level": "0",
          "name": "State Bank of India",
          "note": "Contributors are requested to not edit the \"brand\", \"brand:en\", \"brand:wikidata\", \"operator\", \"operator:en\" and \"operator:wikidata\" tags. (2025/02/19)",
          "opening_hours": "24/7",
          "operator": "State Bank of India",
          "operator:en": "State Bank of India",
          "operator:wikidata": "Q1340361",
          "short_name": "SBI",
          "wheelchair": "yes"
        }
      },
      {
        "type": "node",
        "id": 12016200929,
        "lat": 28.6429654,
        "lon": 77.2217571,
        "tags": {
          "amenity": "atm",
          "brand": "Canara Bank",
          "brand:en": "Canara Bank",
          "brand:hi": "\u0915\u0947\u0928\u0930\u093e \u092c\u0948\u0902\u0915",
          "brand:kn": "\u0c95\u0cc6\u0ca8\u0cb0\u0cbe \u0cac\u0ccd\u0caf\u0cbe\u0c82\u0c95\u0ccd",
          "brand:pa": "\u0a15\u0a47\u0a28\u0a30\u0a3e \u0a2c\u0a48\u0a02\u0a15",
          "brand:pnb": "\u06a9\u06cc\u0646\u0631\u0627 \u0628\u06cc\u0646\u06a9",
          "brand:ur": "\u06a9\u06cc\u0646\u0631\u0627 \u0628\u06cc\u0646\u06a9",
          "brand:wikidata": "Q2003777",
          "level": "0",
          "name": "Canara Bank",
          "name:en": "Canara Bank",
          "name:hi": "\u0915\u0947\u0928\u0930\u093e \u092c\u0948\u0902\u0915",
          "name:kn": "\u0c95\u0cc6\u0ca8\u0cb0\u0cbe \u0cac\u0ccd\u0caf\u0cbe\u0c82\u0c95\u0ccd",
          "name:pa": "\u0a15\u0a47\u0a28\u0a30\u0a3e \u0a2c\u0a48\u0a02\u0a15",
          "name:pnb": "\u06a9\u06cc\u0646\u0631\u0627 \u0628\u06cc\u0646\u06a9",
          "name:ur": "\u06a9\u06cc\u0646\u0631\u0627 \u0628\u06cc\u0646\u06a9",
          "operator": "Canara Bank",
          "operator:wikidata": "Q2003777",
          "wheelchair": "yes"
        }
      },
      {
        "type": "node",
        "id": 12052465818,
        "lat": 28.6377937,
        "lon": 77.2114515,
        "tags": {
          "amenity": "pharmacy",
          "healthcare": "pharmacy",
          "level": "0",
          "name": "Vinod Medicos",
          "shop": "chemist"
        }
      },
      {
        "type": "node",
        "id": 12054358703,
        "lat": 28.6344804,
        "lon": 77.2175301,
        "tags": {
          "amenity": "restaurant",
          "bar": "yes",
          "cuisine": "chinese",
          "level": "0",
          "name": "Flavours Of China"
        }
      },
      {
        "type": "node",
        "id": 12054396922,
        "lat": 28.63814,
        "lon": 77.2109771,
        "tags": {
          "amenity": "bank",
          "atm": "no",
          "brand": "HDFC Bank",
          "brand:wikidata": "Q631047",
          "level": "1",
          "name": "HDFC Bank",
          "short_name": "HDFC"
        }
      },
      {
        "type": "node",
        "id": 12718410901,
        "lat": 28.6457847,
        "lon": 77.216007,
        "tags": {
          "amenity": "restaurant",
          "cuisine": "indian",
          "name": "Cafe  Vagabond by Saffron",
          "website": "https://www.tripadvisor.de/Restaurant_Review-g304551-d1379255-Reviews-Cafe_Vagabond-New_Delhi_National_Capital_Territory_of_Delhi.html"
        }
      },
      {
        "type": "node",
        "id": 12833498600,
        "lat": 28.639392,
        "lon": 77.2084666,
        "tags": {
          "amenity": "bank",
          "atm": "yes",
          "branch": "Ramakrishna Ashram Marg Metro Station",
          "brand": "State Bank of India",
          "level": "0",
          "name": "State Bank of India",
          "opening_hours": "Mo-Fr 10:00-16:00",
          "short_name": "SBI"
        }
      }
    ]
  },
  "pois_2_5km": {
    "version": 0.6,
    "generator": "Overpass API 0.7.62.8 e802775f",
    "osm3s": {
      "timestamp_osm_base": "2025-09-06T07:26:02Z",
      "copyright": "The data included in this document is from www.openstreetmap.org. The data is made available under ODbL."
    },
    "elements": [
      {
        "type": "node",
        "id": 345234443,
        "lat": 28.6442998,
        "lon": 77.1999053,
        "tags": {
          "name": "Jhandewalan",
          "name:kn": "\u0c9d\u0cbe\u0c82\u0ca1\u0cc6\u0cb5\u0cbe\u0cb2\u0ca8\u0ccd",
          "network": "Delhi Metro",
          "note": "Contributors are requested to not edit the \"network\" and the \"operator\" tags. (2023/06/22)",
          "operator": "Delhi Metro Rail Corporation Limited",
          "public_transport": "stop_position",
          "railway": "stop",
          "subway": "yes"
        }
      },
      {
        "type": "node",
        "id": 395135114,
        "lat": 28.6421531,
        "lon": 77.2236285,
        "tags": {
          "bus": "yes",
          "name": "New Delhi Railway Station Gate Number 2",
          "public_transport": "stop_position"
        }
      },
      {
        "type": "node",
        "id": 554257818,
        "lat": 28.6229537,
        "lon": 77.2140587,
        "tags": {
          "name": "Patel Chowk",
          "network": "Delhi Metro",
          "note": "Contributors are requested to not edit the \"network\" and the \"operator\" tags. (2023/06/22)",
          "operator": "Delhi Metro Rail Corporation Limited",
          "public_transport": "stop_position",
          "railway": "stop",
          "ref": "PTCK",
          "subway": "yes"
        }
      },
      {
        "type": "node",
        "id": 554257820,
        "lat": 28.6392249,
        "lon": 77.2085684,
        "tags": {
          "name": "Ramakrishna Ashram Marg",
          "network": "Delhi Metro",
          "note": "Contributors are requested to not edit the \"network\" and the \"operator\" tags. (2023/06/22)",
          "operator": "Delhi Metro Rail Corporation Limited",
          "public_transport": "stop_position",
          "railway": "stop",
          "subway": "yes"
        }
      },
      {
        "type": "node",
        "id": 554257833,
        "lat": 28.6288963,
        "lon": 77.2113218,
        "tags": {
          "name": "Shivaji Stadium",
          "name:hi": "\u0936\u093f\u0935\u093e\u091c\u0940 \u0938\u094d\u091f\u0947\u0921\u093f\u092f\u092e",
          "name:kn": "\u0cb6\u0cbf\u0cb5\u0cbe\u0c9c\u0cbf \u0cb8\u0ccd\u0c9f\u0cc7\u0ca1\u0cbf\u0caf\u0cae\u0ccd",
          "network": "Delhi Metro",
          "network:wikidata": "Q271195",
          "note": "Contributors are requested to not edit the \"network\" and the \"operator\" tags. (2023/06/22)",
          "operator": "Delhi Metro Rail Corporation Limited",
          "operator:wikidata": "Q1029339",
          "public_transport": "station",
          "railway": "station",
          "ref": "SJSU",
          "station": "subway",
          "subway": "yes",
          "wikidata": "Q11308729",
          "wikipedia": "en:Shivaji Stadium metro station"
        }
      },
      {
        "type": "node",
        "id": 554257839,
        "lat": 28.6297527,
        "lon": 77.2249956,
        "tags": {
          "name": "Barakhambha Road",
          "network": "Delhi Metro",
          "note": "Contributors are requested to not edit the \"network\" and the \"operator\" tags. (2023/06/22)",
          "operator": "Delhi Metro Rail Corporation Limited",
          "public_transport": "stop_position",
          "railway": "stop",
          "subway": "yes"
        }
      },
      {
        "type": "node",
        "id": 554257841,
        "lat": 28.6434826,
        "lon": 77.2227421,
        "tags": {
          "alt_name:ar": "\u0646\u064a\u0648\u062f\u0644\u0647\u064a",
          "alt_name:ks": "\u0646\u0654\u0648 \u062f\u0650\u0644",
          "alt_name:ur": "\u0646\u0626\u06cc \u062f\u0644\u06cc",
          "name": "New Delhi",
          "name:ar": "\u062f\u0644\u0647\u064a \u0627\u0644\u062c\u062f\u064a\u062f\u0629",
          "name:az-Arab": "\u06cc\u0626\u0646\u06cc \u062f\u0647\u0644\u06cc",
          "name:azb": "\u06cc\u0626\u0646\u06cc \u062f\u0647\u0644\u06cc",
          "name:de": "Neu-Delhi",
          "name:el": "\u039d\u03ad\u03bf \u0394\u03b5\u03bb\u03c7\u03af",
          "name:es": "Nueva Delhi",
          "name:grc": "\u039d\u03b5\u03bf\u03b4\u03b5\u03bb\u03af\u03c2",
          "name:hi": "\u0928\u0908 \u0926\u093f\u0932\u094d\u0932\u0940",
          "name:hy": "\u0546\u0575\u0578\u0582 \u0534\u0565\u056c\u056b",
          "name:hyw": "\u0546\u056b\u0582 \u054f\u0565\u056c\u0570\u056b",
          "name:ks": "\u0646\u0654\u0648 \u062f\u0644\u06be\u06cc",
          "name:ml": "\u0d28\u0d4d\u0d2f\u0d42 \u0d21\u0d46\u0d7d\u0d39\u0d3f",
          "name:pa": "\u0a28\u0a35\u0a40\u0a02 \u0a26\u0a3f\u0a71\u0a32\u0a40",
          "name:ug": "\u064a\u06d0\u06ad\u0649 \u062f\u06d0\u06be\u0644\u0649",
          "name:ur": "\u0646\u0626\u06cc \u062f\u06c1\u0644\u06cc",
          "network": "Delhi Metro",
          "note": "Contributors are requested to not edit the \"network\" and the \"operator\" tags. (2023/06/22)",
          "operator": "Delhi Metro Rail Corporation Limited",
          "public_transport": "station",
          "railway": "station",
          "ref": "NDLS",
          "station": "subway",
          "subway": "yes",
          "wikidata": "Q3634456",
          "wikipedia": "en:New Delhi metro station"
        }
      },
      {
        "type": "node",
        "id": 554257842,
        "lat": 28.6492513,
        "lon": 77.2265435,
        "tags": {
          "addr:postcode": "110006",
          "name": "Chawri Bazaar",
          "network": "Delhi Metro",
          "note": "Contributors are requested to not edit the \"network\" and the \"operator\" tags. (2023/06/22)",
          "operator": "Delhi Metro Rail Corporation Limited",
          "public_transport": "stop_position",
          "railway": "stop",
          "ref": "CWBR",
          "subway": "yes"
        }
      },
      {
        "type": "node",
        "id": 554257862,
        "lat": 28.6584207,
        "lon": 77.230366,
        "tags": {
          "addr:postcode": "110006",
          "name": "Chandni Chowk",
          "name:ur": "\u0686\u0627\u0646\u062f\u0646\u06cc \u0686\u0648\u06a9",
          "network": "Delhi Metro",
          "note": "Contributors are requested to not edit the \"network\" and the \"operator\" tags. (2023/06/22)",
          "operator": "Delhi Metro Rail Corporation Limited",
          "operator:ur": "\u062f\u06c1\u0644\u06cc \u0645\u06cc\u0679\u0631\u0648",
          "public_transport": "stop_position",
          "railway": "stop",
          "ref": "CHK",
          "subway": "yes"
        }
      },
      {
        "type": "node",
        "id": 913095905,
        "lat": 28.660932,
        "lon": 77.2276494,
        "tags": {
          "alt_name": "Old Delhi Railway Station",
          "alt_name:ur": "\u067e\u0631\u0627\u0646\u06cc \u062f\u06c1\u0644\u06cc \u0631\u06cc\u0644\u0648\u06d2 \u0627\u0633\u0679\u06cc\u0634\u0646;\u062f\u0644\u06cc \u062c\u0646\u06a9\u0634\u0646;\u062f\u0650\u0644\u0651\u06cc \u062c\u0646\u06a9\u0634\u0646;\u067e\u0631\u0627\u0646\u06cc \u062f\u0644\u06cc",
          "internet_access": "wlan",
          "long_name": "\u062f\u06c1\u0644\u06cc \u062c\u0646\u06a9\u0634\u0646 \u0631\u06cc\u0644\u0648\u06d2 \u0627\u0633\u0679\u06cc\u0634\u0646",
          "long_name:ur": "\u062f\u06c1\u0644\u06cc \u062c\u0646\u06a9\u0634\u0646 \u0631\u06cc\u0644\u0648\u06d2 \u0627\u0633\u0679\u06cc\u0634\u0646",
          "name": "Delhi Junction",
          "name:ur": "\u062f\u06c1\u0644\u06cc \u062c\u0646\u06a9\u0634\u0646",
          "network": "IR",
          "operator": "NR",
          "public_transport": "station",
          "railway": "station",
          "ref": "DLI",
          "wikidata": "Q3633132"
        }
      },
      {
        "type": "node",
        "id": 913282201,
        "lat": 28.6602409,
        "lon": 77.2318743,
        "tags": {
          "bus": "yes",
          "name": "Purani Dilhi Railway Station",
          "name:ur": "\u067e\u0631\u0627\u0646\u06cc \u062f\u06c1\u0644\u06cc \u0631\u06cc\u0644\u0648\u06d2 \u0627\u0633\u0679\u06cc\u0634\u0646",
          "public_transport": "stop_position"
        }
      },
      {
        "type": "node",
        "id": 913325870,
        "lat": 28.6633196,
        "lon": 77.2185803,
        "tags": {
          "amenity": "fuel"
        }
      },
      {
        "type": "node",
        "id": 928558280,
        "lat": 28.6350924,
        "lon": 77.2196937,
        "tags": {
          "amenity": "cinema",
          "brand": "PVR Cinemas",
          "brand:wikidata": "Q3359908",
          "name": "PVR Plaza Cinema",
          "short_name": "PVR",
          "wheelchair": "limited"
        }
      },
      {
        "type": "node",
        "id": 938372433,
        "lat": 28.6425708,
        "lon": 77.2211342,
        "tags": {
          "alt_name:ar": "\u0646\u064a\u0648\u062f\u0644\u0647\u064a",
          "alt_name:ks": "\u0646\u0654\u0648 \u062f\u0650\u0644",
          "alt_name:ur": "\u0646\u0626\u06cc \u062f\u0644\u06cc",
          "name": "New Delhi",
          "name:ar": "\u062f\u0644\u0647\u064a \u0627\u0644\u062c\u062f\u064a\u062f\u0629",
          "name:az-Arab": "\u06cc\u0626\u0646\u06cc \u062f\u0647\u0644\u06cc",
          "name:azb": "\u06cc\u0626\u0646\u06cc \u062f\u0647\u0644\u06cc",
          "name:de": "Neu-Delhi",
          "name:el": "\u039d\u03ad\u03bf \u0394\u03b5\u03bb\u03c7\u03af",
          "name:es": "Nueva Delhi",
          "name:grc": "\u039d\u03b5\u03bf\u03b4\u03b5\u03bb\u03af\u03c2",
          "name:hy": "\u0546\u0575\u0578\u0582 \u0534\u0565\u056c\u056b",
          "name:hyw": "\u0546\u056b\u0582 \u054f\u0565\u056c\u0570\u056b",
          "name:ks": "\u0646\u0654\u0648 \u062f\u0644\u06be\u06cc",
          "name:pa": "\u0a28\u0a35\u0a40\u0a02 \u0a26\u0a3f\u0a71\u0a32\u0a40",
          "name:ug": "\u064a\u06d0\u06ad\u0649 \u062f\u06d0\u06be\u0644\u0649",
          "name:ur": "\u0646\u0626\u06cc \u062f\u06c1\u0644\u06cc",
          "public_transport": "stop_position",
          "railway": "stop",
          "ref": "NDLS:14",
          "train": "yes"
        }
      },
      {
        "type": "node",
        "id": 938372444,
        "lat": 28.6424872,
        "lon": 77.2203479,
        "tags": {
          "alt_name:ar": "\u0646\u064a\u0648\u062f\u0644\u0647\u064a",
          "alt_name:ks": "\u0646\u0654\u0648 \u062f\u0650\u0644",
          "alt_name:ur": "\u0646\u0626\u06cc \u062f\u0644\u06cc",
          "name": "New Delhi",
          "name:ar": "\u062f\u0644\u0647\u064a \u0627\u0644\u062c\u062f\u064a\u062f\u0629",
          "name:az-Arab": "\u06cc\u0626\u0646\u06cc \u062f\u0647\u0644\u06cc",
          "name:azb": "\u06cc\u0626\u0646\u06cc \u062f\u0647\u0644\u06cc",
          "name:de": "Neu-Delhi",
          "name:el": "\u039d\u03ad\u03bf \u0394\u03b5\u03bb\u03c7\u03af",
          "name:es": "Nueva Delhi",
          "name:grc": "\u039d\u03b5\u03bf\u03b4\u03b5\u03bb\u03af\u03c2",
          "name:hy": "\u0546\u0575\u0578\u0582 \u0534\u0565\u056c\u056b",
          "name:hyw": "\u0546\u056b\u0582 \u054f\u0565\u056c\u0570\u056b",
          "name:ks": "\u0646\u0654\u0648 \u062f\u0644\u06be\u06cc",
          "name:pa": "\u0a28\u0a35\u0a40\u0a02 \u0a26\u0a3f\u0a71\u0a32\u0a40",
          "name:ug": "\u064a\u06d0\u06ad\u0649 \u062f\u06d0\u06be\u0644\u0649",
          "name:ur": "\u0646\u0626\u06cc \u062f\u06c1\u0644\u06cc",
          "public_transport": "stop_position",
          "railway": "stop",
          "ref": "NDLS:7",
          "train": "yes"
        }
      },
      {
        "type": "node",
        "id": 938372462,
        "lat": 28.6424665,
        "lon": 77.2202063,
        "tags": {
          "alt_name:ar": "\u0646\u064a\u0648\u062f\u0644\u0647\u064a",
          "alt_name:ks": "\u0646\u0654\u0648 \u062f\u0650\u0644",
          "alt_name:ur": "\u0646\u0626\u06cc \u062f\u0644\u06cc",
          "name": "New Delhi",
          "name:ar": "\u062f\u0644\u0647\u064a \u0627\u0644\u062c\u062f\u064a\u062f\u0629",
          "name:az-Arab": "\u06cc\u0626\u0646\u06cc \u062f\u0647\u0644\u06cc",
          "name:azb": "\u06cc\u0626\u0646\u06cc \u062f\u0647\u0644\u06cc",
          "name:de": "Neu-Delhi",
          "name:el": "\u039d\u03ad\u03bf \u0394\u03b5\u03bb\u03c7\u03af",
          "name:es": "Nueva Delhi",
          "name:grc": "\u039d\u03b5\u03bf\u03b4\u03b5\u03bb\u03af\u03c2",
          "name:hy": "\u0546\u0575\u0578\u0582 \u0534\u0565\u056c\u056b",
          "name:hyw": "\u0546\u056b\u0582 \u054f\u0565\u056c\u0570\u056b",
          "name:ks": "\u0646\u0654\u0648 \u062f\u0644\u06be\u06cc",
          "name:pa": "\u0a28\u0a35\u0a40\u0a02 \u0a26\u0a3f\u0a71\u0a32\u0a40",
          "name:ug": "\u064a\u06d0\u06ad\u0649 \u062f\u06d0\u06be\u0644\u0649",
          "name:ur": "\u0646\u0626\u06cc \u062f\u06c1\u0644\u06cc",
          "public_transport": "stop_position",
          "railway": "stop",
          "ref": "NDLS:6",
          "train": "yes"
        }
      },
      {
        "type": "node",
        "id": 938372468,
        "lat": 28.6425562,
        "lon": 77.2210249,
        "tags": {
          "alt_name:ar": "\u0646\u064a\u0648\u062f\u0644\u0647\u064a",
          "alt_name:ks": "\u0646\u0654\u0648 \u062f\u0650\u0644",
          "alt_name:ur": "\u0646\u0626\u06cc \u062f\u0644\u06cc",
          "name": "New Delhi",
          "name:ar": "\u062f\u0644\u0647\u064a \u0627\u0644\u062c\u062f\u064a\u062f\u0629",
          "name:az-Arab": "\u06cc\u0626\u0646\u06cc \u062f\u0647\u0644\u06cc",
          "name:azb": "\u06cc\u0626\u0646\u06cc \u062f\u0647\u0644\u06cc",
          "name:de": "Neu-Delhi",
          "name:el": "\u039d\u03ad\u03bf \u0394\u03b5\u03bb\u03c7\u03af",
          "name:es": "Nueva Delhi",
          "name:grc": "\u039d\u03b5\u03bf\u03b4\u03b5\u03bb\u03af\u03c2",
          "name:hy": "\u0546\u0575\u0578\u0582 \u0534\u0565\u056c\u056b",
          "name:hyw": "\u0546\u056b\u0582 \u054f\u0565\u056c\u0570\u056b",
          "name:ks": "\u0646\u0654\u0648 \u062f\u0644\u06be\u06cc",
          "name:pa": "\u0a28\u0a35\u0a40\u0a02 \u0a26\u0a3f\u0a71\u0a32\u0a40",
          "name:ug": "\u064a\u06d0\u06ad\u0649 \u062f\u06d0\u06be\u0644\u0649",
          "name:ur": "\u0646\u0626\u06cc \u062f\u06c1\u0644\u06cc",
          "public_transport": "stop_position",
          "railway": "stop",
          "ref": "NDLS:13",
          "train": "yes"
        }
      },
      {
        "type": "node",
        "id": 938372479,
        "lat": 28.642519,
        "lon": 77.2206742,
        "tags": {
          "alt_name:ar": "\u0646\u064a\u0648\u062f\u0644\u0647\u064a",
          "alt_name:ks": "\u0646\u0654\u0648 \u062f\u0650\u0644",
          "alt_name:ur": "\u0646\u0626\u06cc \u062f\u0644\u06cc",
          "name": "New Delhi",
          "name:ar": "\u062f\u0644\u0647\u064a \u0627\u0644\u062c\u062f\u064a\u062f\u0629",
          "name:az-Arab": "\u06cc\u0626\u0646\u06cc \u062f\u0647\u0644\u06cc",
          "name:azb": "\u06cc\u0626\u0646\u06cc \u062f\u0647\u0644\u06cc",
          "name:de": "Neu-Delhi",
          "name:el": "\u039d\u03ad\u03bf \u0394\u03b5\u03bb\u03c7\u03af",
          "name:es": "Nueva Delhi",
          "name:grc": "\u039d\u03b5\u03bf\u03b4\u03b5\u03bb\u03af\u03c2",
          "name:hy": "\u0546\u0575\u0578\u0582 \u0534\u0565\u056c\u056b",
          "name:hyw": "\u0546\u056b\u0582 \u054f\u0565\u056c\u0570\u056b",
          "name:ks": "\u0646\u0654\u0648 \u062f\u0644\u06be\u06cc",
          "name:pa": "\u0a28\u0a35\u0a40\u0a02 \u0a26\u0a3f\u0a71\u0a32\u0a40",
          "name:ug": "\u064a\u06d0\u06ad\u0649 \u062f\u06d0\u06be\u0644\u0649",
          "name:ur": "\u0646\u0626\u06cc \u062f\u06c1\u0644\u06cc",
          "public_transport": "stop_position",
          "railway": "stop",
          "ref": "NDLS:10",
          "train": "yes"
        }
      },
      {
        "type": "node",
        "id": 938372497,
        "lat": 28.6424462,
        "lon": 77.2201074,
        "tags": {
          "alt_name:ar": "\u0646\u064a\u0648\u062f\u0644\u0647\u064a",
          "alt_name:ks": "\u0646\u0654\u0648 \u062f\u0650\u0644",
          "alt_name:ur": "\u0646\u0626\u06cc \u062f\u0644\u06cc",
          "name": "New Delhi",
          "name:ar": "\u062f\u0644\u0647\u064a \u0627\u0644\u062c\u062f\u064a\u062f\u0629",
          "name:az-Arab": "\u06cc\u0626\u0646\u06cc \u062f\u0647\u0644\u06cc",
          "name:azb": "\u06cc\u0626\u0646\u06cc \u062f\u0647\u0644\u06cc",
          "name:de": "Neu-Delhi",
          "name:el": "\u039d\u03ad\u03bf \u0394\u03b5\u03bb\u03c7\u03af",
          "name:es": "Nueva Delhi",
          "name:grc": "\u039d\u03b5\u03bf\u03b4\u03b5\u03bb\u03af\u03c2",
          "name:hy": "\u0546\u0575\u0578\u0582 \u0534\u0565\u056c\u056b",
          "name:hyw": "\u0546\u056b\u0582 \u054f\u0565\u056c\u0570\u056b",
          "name:ks": "\u0646\u0654\u0648 \u062f\u0644\u06be\u06cc",
          "name:pa": "\u0a28\u0a35\u0a40\u0a02 \u0a26\u0a3f\u0a71\u0a32\u0a40",
          "name:ug": "\u064a\u06d0\u06ad\u0649 \u062f\u06d0\u06be\u0644\u0649",
          "name:ur": "\u0646\u0626\u06cc \u062f\u06c1\u0644\u06cc",
          "public_transport": "stop_position",
          "railway": "stop",
          "ref": "NDLS:5",
          "train": "yes"
        }
      },
      {
        "type": "node",
        "id": 938372516,
        "lat": 28.6425119,
        "lon": 77.220615,
        "tags": {
          "alt_name:ar": "\u0646\u064a\u0648\u062f\u0644\u0647\u064a",
          "alt_name:ks": "\u0646\u0654\u0648 \u062f\u0650\u0644",
          "alt_name:ur": "\u0646\u0626\u06cc \u062f\u0644\u06cc",
          "name": "New Delhi",
          "name:ar": "\u062f\u0644\u0647\u064a \u0627\u0644\u062c\u062f\u064a\u062f\u0629",
          "name:az-Arab": "\u06cc\u0626\u0646\u06cc \u062f\u0647\u0644\u06cc",
          "name:azb": "\u06cc\u0626\u0646\u06cc \u062f\u0647\u0644\u06cc",
          "name:de": "Neu-Delhi",
          "name:el": "\u039d\u03ad\u03bf \u0394\u03b5\u03bb\u03c7\u03af",
          "name:es": "Nueva Delhi",
          "name:grc": "\u039d\u03b5\u03bf\u03b4\u03b5\u03bb\u03af\u03c2",
          "name:hy": "\u0546\u0575\u0578\u0582 \u0534\u0565\u056c\u056b",
          "name:hyw": "\u0546\u056b\u0582 \u054f\u0565\u056c\u0570\u056b",
          "name:ks": "\u0646\u0654\u0648 \u062f\u0644\u06be\u06cc",
          "name:pa": "\u0a28\u0a35\u0a40\u0a02 \u0a26\u0a3f\u0a71\u0a32\u0a40",
          "name:ug": "\u064a\u06d0\u06ad\u0649 \u062f\u06d0\u06be\u0644\u0649",
          "name:ur": "\u0646\u0626\u06cc \u062f\u06c1\u0644\u06cc",
          "public_transport": "stop_position",
          "railway": "stop",
          "ref": "NDLS:9",
          "train": "yes"
        }
      },
      {
        "type": "node",
        "id": 938372520,
        "lat": 28.6425435,
        "lon": 77.2208925,
        "tags": {
          "alt_name:ar": "\u0646\u064a\u0648\u062f\u0644\u0647\u064a",
          "alt_name:ks": "\u0646\u0654\u0648 \u062f\u0650\u0644",
          "alt_name:ur": "\u0646\u0626\u06cc \u062f\u0644\u06cc",
          "name": "New Delhi",
          "name:ar": "\u062f\u0644\u0647\u064a \u0627\u0644\u062c\u062f\u064a\u062f\u0629",
          "name:az-Arab": "\u06cc\u0626\u0646\u06cc \u062f\u0647\u0644\u06cc",
          "name:azb": "\u06cc\u0626\u0646\u06cc \u062f\u0647\u0644\u06cc",
          "name:de": "Neu-Delhi",
          "name:el": "\u039d\u03ad\u03bf \u0394\u03b5\u03bb\u03c7\u03af",
          "name:es": "Nueva Delhi",
          "name:grc": "\u039d\u03b5\u03bf\u03b4\u03b5\u03bb\u03af\u03c2",
          "name:hy": "\u0546\u0575\u0578\u0582 \u0534\u0565\u056c\u056b",
          "name:hyw": "\u0546\u056b\u0582 \u054f\u0565\u056c\u0570\u056b",
          "name:ks": "\u0646\u0654\u0648 \u062f\u0644\u06be\u06cc",
          "name:pa": "\u0a28\u0a35\u0a40\u0a02 \u0a26\u0a3f\u0a71\u0a32\u0a40",
          "name:ug": "\u064a\u06d0\u06ad\u0649 \u062f\u06d0\u06be\u0644\u0649",
          "name:ur": "\u0646\u0626\u06cc \u062f\u06c1\u0644\u06cc",
          "public_transport": "stop_position",
          "railway": "stop",
          "ref": "NDLS:12",
          "train": "yes"
        }
      },
      {
        "type": "node",
        "id": 938372538,
        "lat": 28.6425995,
        "lon": 77.2213817,
        "tags": {
          "alt_name:ar": "\u0646\u064a\u0648\u062f\u0644\u0647\u064a",
          "alt_name:ks": "\u0646\u0654\u0648 \u062f\u0650\u0644",
          "alt_name:ur": "\u0646\u0626\u06cc \u062f\u0644\u06cc",
          "name": "New Delhi",
          "name:ar": "\u062f\u0644\u0647\u064a \u0627\u0644\u062c\u062f\u064a\u062f\u0629",
          "name:az-Arab": "\u06cc\u0626\u0646\u06cc \u062f\u0647\u0644\u06cc",
          "name:azb": "\u06cc\u0626\u0646\u06cc \u062f\u0647\u0644\u06cc",
          "name:de": "Neu-Delhi",
          "name:el": "\u039d\u03ad\u03bf \u0394\u03b5\u03bb\u03c7\u03af",
          "name:es": "Nueva Delhi",
          "name:grc": "\u039d\u03b5\u03bf\u03b4\u03b5\u03bb\u03af\u03c2",
          "name:hy": "\u0546\u0575\u0578\u0582 \u0534\u0565\u056c\u056b",
          "name:hyw": "\u0546\u056b\u0582 \u054f\u0565\u056c\u0570\u056b",
          "name:ks": "\u0646\u0654\u0648 \u062f\u0644\u06be\u06cc",
          "name:pa": "\u0a28\u0a35\u0a40\u0a02 \u0a26\u0a3f\u0a71\u0a32\u0a40",
          "name:ug": "\u064a\u06d0\u06ad\u0649 \u062f\u06d0\u06be\u0644\u0649",
          "name:ur": "\u0646\u0626\u06cc \u062f\u06c1\u0644\u06cc",
          "public_transport": "stop_position",
          "railway": "stop",
          "ref": "NDLS:16",
          "train": "yes"
        }
      },
      {
        "type": "node",
        "id": 938372549,
        "lat": 28.6423739,
        "lon": 77.2197333,
        "tags": {
          "alt_name:ar": "\u0646\u064a\u0648\u062f\u0644\u0647\u064a",
          "alt_name:ks": "\u0646\u0654\u0648 \u062f\u0650\u0644",
          "alt_name:ur": "\u0646\u0626\u06cc \u062f\u0644\u06cc",
          "electrified": "contact_line",
          "frequency": "50",
          "name": "New Delhi",
          "name:ar": "\u062f\u0644\u0647\u064a \u0627\u0644\u062c\u062f\u064a\u062f\u0629",
          "name:az-Arab": "\u06cc\u0626\u0646\u06cc \u062f\u0647\u0644\u06cc",
          "name:azb": "\u06cc\u0626\u0646\u06cc \u062f\u0647\u0644\u06cc",
          "name:de": "Neu-Delhi",
          "name:el": "\u039d\u03ad\u03bf \u0394\u03b5\u03bb\u03c7\u03af",
          "name:es": "Nueva Delhi",
          "name:grc": "\u039d\u03b5\u03bf\u03b4\u03b5\u03bb\u03af\u03c2",
          "name:hy": "\u0546\u0575\u0578\u0582 \u0534\u0565\u056c\u056b",
          "name:hyw": "\u0546\u056b\u0582 \u054f\u0565\u056c\u0570\u056b",
          "name:ks": "\u0646\u0654\u0648 \u062f\u0644\u06be\u06cc",
          "name:pa": "\u0a28\u0a35\u0a40\u0a02 \u0a26\u0a3f\u0a71\u0a32\u0a40",
          "name:ug": "\u064a\u06d0\u06ad\u0649 \u062f\u06d0\u06be\u0644\u0649",
          "name:ur": "\u0646\u0626\u06cc \u062f\u06c1\u0644\u06cc",
          "public_transport": "stop_position",
          "railway": "stop",
          "ref": "NDLS:2",
          "train": "yes",
          "usage": "main",
          "voltage": "25000"
        }
      },
      {
        "type": "node",
        "id": 938372552,
        "lat": 28.642417,
        "lon": 77.2199605,
        "tags": {
          "alt_name:ar": "\u0646\u064a\u0648\u062f\u0644\u0647\u064a",
          "alt_name:ks": "\u0646\u0654\u0648 \u062f\u0650\u0644",
          "alt_name:ur": "\u0646\u0626\u06cc \u062f\u0644\u06cc",
          "name": "New Delhi",
          "name:ar": "\u062f\u0644\u0647\u064a \u0627\u0644\u062c\u062f\u064a\u062f\u0629",
          "name:az-Arab": "\u06cc\u0626\u0646\u06cc \u062f\u0647\u0644\u06cc",
          "name:azb": "\u06cc\u0626\u0646\u06cc \u062f\u0647\u0644\u06cc",
          "name:de": "Neu-Delhi",
          "name:el": "\u039d\u03ad\u03bf \u0394\u03b5\u03bb\u03c7\u03af",
          "name:es": "Nueva Delhi",
          "name:grc": "\u039d\u03b5\u03bf\u03b4\u03b5\u03bb\u03af\u03c2",
          "name:hy": "\u0546\u0575\u0578\u0582 \u0534\u0565\u056c\u056b",
          "name:hyw": "\u0546\u056b\u0582 \u054f\u0565\u056c\u0570\u056b",
          "name:ks": "\u0646\u0654\u0648 \u062f\u0644\u06be\u06cc",
          "name:pa": "\u0a28\u0a35\u0a40\u0a02 \u0a26\u0a3f\u0a71\u0a32\u0a40",
          "name:ug": "\u064a\u06d0\u06ad\u0649 \u062f\u06d0\u06be\u0644\u0649",
          "name:ur": "\u0646\u0626\u06cc \u062f\u06c1\u0644\u06cc",
          "public_transport": "stop_position",
          "railway": "stop",
          "ref": "NDLS:4",
          "train": "yes"
        }
      },
      {
        "type": "node",
        "id": 938372557,
        "lat": 28.6425394,
        "lon": 77.2208372,
        "tags": {
          "alt_name:ar": "\u0646\u064a\u0648\u062f\u0644\u0647\u064a",
          "alt_name:ks": "\u0646\u0654\u0648 \u062f\u0650\u0644",
          "alt_name:ur": "\u0646\u0626\u06cc \u062f\u0644\u06cc",
          "name": "New Delhi",
          "name:ar": "\u062f\u0644\u0647\u064a \u0627\u0644\u062c\u062f\u064a\u062f\u0629",
          "name:az-Arab": "\u06cc\u0626\u0646\u06cc \u062f\u0647\u0644\u06cc",
          "name:azb": "\u06cc\u0626\u0646\u06cc \u062f\u0647\u0644\u06cc",
          "name:de": "Neu-Delhi",
          "name:el": "\u039d\u03ad\u03bf \u0394\u03b5\u03bb\u03c7\u03af",
          "name:es": "Nueva Delhi",
          "name:grc": "\u039d\u03b5\u03bf\u03b4\u03b5\u03bb\u03af\u03c2",
          "name:hy": "\u0546\u0575\u0578\u0582 \u0534\u0565\u056c\u056b",
          "name:hyw": "\u0546\u056b\u0582 \u054f\u0565\u056c\u0570\u056b",
          "name:ks": "\u0646\u0654\u0648 \u062f\u0644\u06be\u06cc",
          "name:pa": "\u0a28\u0a35\u0a40\u0a02 \u0a26\u0a3f\u0a71\u0a32\u0a40",
          "name:ug": "\u064a\u06d0\u06ad\u0649 \u062f\u06d0\u06be\u0644\u0649",
          "name:ur": "\u0646\u0626\u06cc \u062f\u06c1\u0644\u06cc",
          "public_transport": "stop_position",
          "railway": "stop",
          "ref": "NDLS:11",
          "train": "yes"
        }
      },
      {
        "type": "node",
        "id": 938372570,
        "lat": 28.642495,
        "lon": 77.220482,
        "tags": {
          "alt_name:ar": "\u0646\u064a\u0648\u062f\u0644\u0647\u064a",
          "alt_name:ks": "\u0646\u0654\u0648 \u062f\u0650\u0644",
          "alt_name:ur": "\u0646\u0626\u06cc \u062f\u0644\u06cc",
          "name": "New Delhi",
          "name:ar": "\u062f\u0644\u0647\u064a \u0627\u0644\u062c\u062f\u064a\u062f\u0629",
          "name:az-Arab": "\u06cc\u0626\u0646\u06cc \u062f\u0647\u0644\u06cc",
          "name:azb": "\u06cc\u0626\u0646\u06cc \u062f\u0647\u0644\u06cc",
          "name:de": "Neu-Delhi",
          "name:el": "\u039d\u03ad\u03bf \u0394\u03b5\u03bb\u03c7\u03af",
          "name:es": "Nueva Delhi",
          "name:grc": "\u039d\u03b5\u03bf\u03b4\u03b5\u03bb\u03af\u03c2",
          "name:hy": "\u0546\u0575\u0578\u0582 \u0534\u0565\u056c\u056b",
          "name:hyw": "\u0546\u056b\u0582 \u054f\u0565\u056c\u0570\u056b",
          "name:ks": "\u0646\u0654\u0648 \u062f\u0644\u06be\u06cc",
          "name:pa": "\u0a28\u0a35\u0a40\u0a02 \u0a26\u0a3f\u0a71\u0a32\u0a40",
          "name:ug": "\u064a\u06d0\u06ad\u0649 \u062f\u06d0\u06be\u0644\u0649",
          "name:ur": "\u0646\u0626\u06cc \u062f\u06c1\u0644\u06cc",
          "public_transport": "stop_position",
          "railway": "stop",
          "ref": "NDLS:8",
          "train": "yes"
        }
      },
      {
        "type": "node",
        "id": 938372576,
        "lat": 28.6425934,
        "lon": 77.2213173,
        "tags": {
          "alt_name:ar": "\u0646\u064a\u0648\u062f\u0644\u0647\u064a",
          "alt_name:ks": "\u0646\u0654\u0648 \u062f\u0650\u0644",
          "alt_name:ur": "\u0646\u0626\u06cc \u062f\u0644\u06cc",
          "name": "New Delhi",
          "name:ar": "\u062f\u0644\u0647\u064a \u0627\u0644\u062c\u062f\u064a\u062f\u0629",
          "name:az-Arab": "\u06cc\u0626\u0646\u06cc \u062f\u0647\u0644\u06cc",
          "name:azb": "\u06cc\u0626\u0646\u06cc \u062f\u0647\u0644\u06cc",
          "name:de": "Neu-Delhi",
          "name:el": "\u039d\u03ad\u03bf \u0394\u03b5\u03bb\u03c7\u03af",
          "name:es": "Nueva Delhi",
          "name:grc": "\u039d\u03b5\u03bf\u03b4\u03b5\u03bb\u03af\u03c2",
          "name:hy": "\u0546\u0575\u0578\u0582 \u0534\u0565\u056c\u056b",
          "name:hyw": "\u0546\u056b\u0582 \u054f\u0565\u056c\u0570\u056b",
          "name:ks": "\u0646\u0654\u0648 \u062f\u0644\u06be\u06cc",
          "name:pa": "\u0a28\u0a35\u0a40\u0a02 \u0a26\u0a3f\u0a71\u0a32\u0a40",
          "name:ug": "\u064a\u06d0\u06ad\u0649 \u062f\u06d0\u06be\u0644\u0649",
          "name:ur": "\u0646\u0626\u06cc \u062f\u06c1\u0644\u06cc",
          "public_transport": "stop_position",
          "railway": "stop",
          "ref": "NDLS:15",
          "train": "yes"
        }
      },
      {
        "type": "node",
        "id": 938372581,
        "lat": 28.6423596,
        "lon": 77.2196366,
        "tags": {
          "alt_name:ar": "\u0646\u064a\u0648\u062f\u0644\u0647\u064a",
          "alt_name:ks": "\u0646\u0654\u0648 \u062f\u0650\u0644",
          "alt_name:ur": "\u0646\u0626\u06cc \u062f\u0644\u06cc",
          "name": "New Delhi",
          "name:ar": "\u062f\u0644\u0647\u064a \u0627\u0644\u062c\u062f\u064a\u062f\u0629",
          "name:az-Arab": "\u06cc\u0626\u0646\u06cc \u062f\u0647\u0644\u06cc",
          "name:azb": "\u06cc\u0626\u0646\u06cc \u062f\u0647\u0644\u06cc",
          "name:de": "Neu-Delhi",
          "name:el": "\u039d\u03ad\u03bf \u0394\u03b5\u03bb\u03c7\u03af",
          "name:es": "Nueva Delhi",
          "name:grc": "\u039d\u03b5\u03bf\u03b4\u03b5\u03bb\u03af\u03c2",
          "name:hy": "\u0546\u0575\u0578\u0582 \u0534\u0565\u056c\u056b",
          "name:hyw": "\u0546\u056b\u0582 \u054f\u0565\u056c\u0570\u056b",
          "name:ks": "\u0646\u0654\u0648 \u062f\u0644\u06be\u06cc",
          "name:pa": "\u0a28\u0a35\u0a40\u0a02 \u0a26\u0a3f\u0a71\u0a32\u0a40",
          "name:ug": "\u064a\u06d0\u06ad\u0649 \u062f\u06d0\u06be\u0644\u0649",
          "name:ur": "\u0646\u0626\u06cc \u062f\u06c1\u0644\u06cc",
          "public_transport": "stop_position",
          "railway": "stop",
          "ref": "NDLS:1",
          "train": "yes"
        }
      },
      {
        "type": "node",
        "id": 938372585,
        "lat": 28.6424082,
        "lon": 77.2199116,
        "tags": {
          "alt_name:ar": "\u0646\u064a\u0648\u062f\u0644\u0647\u064a",
          "alt_name:ks": "\u0646\u0654\u0648 \u062f\u0650\u0644",
          "alt_name:ur": "\u0646\u0626\u06cc \u062f\u0644\u06cc",
          "name": "New Delhi",
          "name:ar": "\u062f\u0644\u0647\u064a \u0627\u0644\u062c\u062f\u064a\u062f\u0629",
          "name:az-Arab": "\u06cc\u0626\u0646\u06cc \u062f\u0647\u0644\u06cc",
          "name:azb": "\u06cc\u0626\u0646\u06cc \u062f\u0647\u0644\u06cc",
          "name:de": "Neu-Delhi",
          "name:el": "\u039d\u03ad\u03bf \u0394\u03b5\u03bb\u03c7\u03af",
          "name:es": "Nueva Delhi",
          "name:grc": "\u039d\u03b5\u03bf\u03b4\u03b5\u03bb\u03af\u03c2",
          "name:hy": "\u0546\u0575\u0578\u0582 \u0534\u0565\u056c\u056b",
          "name:hyw": "\u0546\u056b\u0582 \u054f\u0565\u056c\u0570\u056b",
          "name:ks": "\u0646\u0654\u0648 \u062f\u0644\u06be\u06cc",
          "name:pa": "\u0a28\u0a35\u0a40\u0a02 \u0a26\u0a3f\u0a71\u0a32\u0a40",
          "name:ug": "\u064a\u06d0\u06ad\u0649 \u062f\u06d0\u06be\u0644\u0649",
          "name:ur": "\u0646\u0626\u06cc \u062f\u06c1\u0644\u06cc",
          "public_transport": "stop_position",
          "railway": "stop",
          "ref": "NDLS:3",
          "train": "yes"
        }
      },
      {
        "type": "node",
        "id": 938409458,
        "lat": 28.6430709,
        "lon": 77.2237077,
        "tags": {
          "bus": "yes",
          "name": "New Delhi Railway Station Gate Number 2",
          "public_transport": "stop_position"
        }
      },
      {
        "type": "node",
        "id": 938409465,
        "lat": 28.641256,
        "lon": 77.2360463,
        "tags": {
          "addr:postcode": "110006",
          "amenity": "cinema",
          "name": "Delite Diamond"
        }
      },
      {
        "type": "node",
        "id": 938409545,
        "lat": 28.6424786,
        "lon": 77.2231116,
        "tags": {
          "name": "New Delhi Airport Express Terminal",
          "name:hi": "\u0928\u0908 \u0926\u093f\u0932\u094d\u0932\u0940 \u090f\u092f\u0930\u092a\u094b\u0930\u094d\u091f \u090f\u0915\u094d\u0938\u092a\u094d\u0930\u0947\u0938 \u091f\u0930\u094d\u092e\u093f\u0928\u0932",
          "network": "Delhi Metro",
          "network:wikidata": "Q271195",
          "note": "Contributors are requested to not edit the \"network\" and the \"operator\" tags. (2023/06/22)",
          "operator": "Delhi Metro Rail Corporation Limited",
          "operator:wikidata": "Q1029339",
          "public_transport": "station",
          "railway": "station",
          "ref": "NDI",
          "station": "subway",
          "subway": "yes",
          "wikidata": "Q3634456",
          "wikipedia": "en:New Delhi metro station"
        }
      },
      {
        "type": "node",
        "id": 939091076,
        "lat": 28.6327591,
        "lon": 77.2196877,
        "tags": {
          "name": "Rajiv Chowk",
          "name:hi": "\u0930\u093e\u091c\u0940\u0935 \u091a\u094c\u0915",
          "name:kn": "\u0cb0\u0cbe\u0c9c\u0cc0\u0cb5\u0ccd \u0c9a\u0ccc\u0c95\u0ccd",
          "network": "Delhi Metro",
          "note": "Contributors are requested to not edit the \"network\" and the \"operator\" tags. (2023/06/22)",
          "operator": "Delhi Metro Rail Corporation Limited",
          "public_transport": "stop_position",
          "railway": "stop",
          "ref": "RCK",
          "subway": "yes"
        }
      },
      {
        "type": "node",
        "id": 974361599,
        "lat": 28.6411555,
        "lon": 77.2108258,
        "tags": {
          "amenity": "cinema",
          "name": "Imperial"
        }
      },
      {
        "type": "node",
        "id": 1988513598,
        "lat": 28.6334521,
        "lon": 77.2266682,
        "tags": {
          "internet_access": "no",
          "name": "Shivaji Bridge",
          "name:hi": "\u0936\u093f\u0935\u093e\u091c\u0940 \u092a\u0941\u0932",
          "name:ur": "\u0634\u06cc\u0648\u0627 \u062c\u06cc \u0628\u0631\u062c",
          "network": "IR",
          "operator": "NR",
          "public_transport": "station",
          "railway": "station",
          "ref": "CSB",
          "train": "yes",
          "wheelchair": "yes",
          "wikidata": "Q24948842",
          "wikipedia": "en:Shivaji Bridge railway station"
        }
      },
      {
        "type": "node",
        "id": 1988668271,
        "lat": 28.6240472,
        "lon": 77.2192877,
        "tags": {
          "name": "Janpath",
          "name:hi": "\u091c\u0928\u092a\u0925",
          "name:kn": "\u0c9c\u0ca8\u0ccd\u0caa\u0ca4\u0ccd",
          "network": "Delhi Metro",
          "note": "Contributors are requested to not edit the \"network\" and the \"operator\" tags. (2023/06/22)",
          "operator": "Delhi Metro Rail Corporation Limited",
          "public_transport": "stop_position",
          "railway": "stop",
          "ref": "JNPH",
          "subway": "yes"
        }
      },
      {
        "type": "node",
        "id": 1988668281,
        "lat": 28.6500446,
        "lon": 77.2376857,
        "tags": {
          "addr:postcode": "110006",
          "name": "Jama Masjid",
          "name:hi": "\u091c\u093e\u092e\u093e \u092e\u0938\u094d\u091c\u093f\u0926",
          "name:ur": "\u062c\u0627\u0645\u0639 \u0645\u0633\u062c\u062f",
          "network": "Delhi Metro",
          "note": "Contributors are requested to not edit the \"network\" and the \"operator\" tags. (2023/06/22)",
          "operator": "Delhi Metro Rail Corporation Limited",
          "public_transport": "stop_position",
          "railway": "stop",
          "ref": "JAMD",
          "subway": "yes"
        }
      },
      {
        "type": "node",
        "id": 2654011278,
        "lat": 28.6337158,
        "lon": 77.2178321,
        "tags": {
          "addr:city": "New Delhi",
          "addr:housenumber": "A 23",
          "addr:postcode": "110001",
          "addr:street": "Connaught Circus (Indira Chowk), Connaught Place",
          "amenity": "fuel",
          "brand": "Indian Oil",
          "brand:wikidata": "Q1289348",
          "brand:wikipedia": "en:Indian Oil Corporation",
          "name": "Indian Oil Petrol Pump"
        }
      },
      {
        "type": "node",
        "id": 2837165876,
        "lat": 28.6392211,
        "lon": 77.2408097,
        "tags": {
          "name": "Delhi Gate",
          "name:hi": "\u0926\u093f\u0932\u094d\u0932\u0940 \u0917\u0947\u091f",
          "network": "Delhi Metro",
          "note": "Contributors are requested to not edit the \"network\" and the \"operator\" tags. (2023/06/22)",
          "operator": "Delhi Metro Rail Corporation Limited",
          "public_transport": "stop_position",
          "railway": "stop",
          "ref": "DLIG",
          "subway": "yes",
          "wikidata": "Q19580569",
          "wikipedia": "en:Delhi Gate metro station"
        }
      },
      {
        "type": "node",
        "id": 3744502772,
        "lat": 28.6304632,
        "lon": 77.2238139,
        "tags": {
          "bus": "yes",
          "public_transport": "stop_position"
        }
      },
      {
        "type": "node",
        "id": 4122590190,
        "lat": 28.6288906,
        "lon": 77.210219,
        "tags": {
          "amenity": "fuel",
          "brand": "Bharat Petroleum",
          "brand:wikidata": "Q854826",
          "name": "Bharat Petroleum"
        }
      },
      {
        "type": "node",
        "id": 4543453289,
        "lat": 28.6306708,
        "lon": 77.2169833,
        "tags": {
          "addr:city": "New Delhi",
          "amenity": "cinema",
          "name:en": "Regal Cinema",
          "name:ru": "\u0420\u0435\u0433\u0430\u043b \u0441\u0438\u043d\u0435\u043c\u0430"
        }
      },
      {
        "type": "node",
        "id": 5193360429,
        "lat": 28.6318815,
        "lon": 77.2215358,
        "tags": {
          "addr:housenumber": "24",
          "addr:place": "Connaught Place",
          "amenity": "fuel",
          "brand": "Hindustan Petroleum",
          "brand:wikidata": "Q1619375",
          "check_date": "2024-06-02",
          "compressed_air": "yes",
          "name": "Hindustan Petroleum",
          "official_name": "Hindustan Petroleum"
        }
      },
      {
        "type": "node",
        "id": 5338584665,
        "lat": 28.6259776,
        "lon": 77.2032745,
        "tags": {
          "amenity": "theatre",
          "name": "Akshara",
          "name:hi": "\u0905\u0915\u094d\u0937\u0930"
        }
      },
      {
        "type": "node",
        "id": 5345530305,
        "lat": 28.624526,
        "lon": 77.2188215,
        "tags": {
          "amenity": "fuel",
          "brand": "Bharat Petroleum",
          "brand:wikidata": "Q854826",
          "name": "Bharat Petroleum"
        }
      },
      {
        "type": "node",
        "id": 5345531969,
        "lat": 28.6264672,
        "lon": 77.2199591,
        "tags": {
          "amenity": "fuel",
          "brand": "Indian Oil",
          "brand:wikidata": "Q1289348",
          "name": "Indian Oil"
        }
      },
      {
        "type": "node",
        "id": 5453621429,
        "lat": 28.6327423,
        "lon": 77.2194242,
        "tags": {
          "name": "Rajiv Chowk",
          "name:hi": "\u0930\u093e\u091c\u0940\u0935 \u091a\u094c\u0915",
          "name:kn": "\u0cb0\u0cbe\u0c9c\u0cc0\u0cb5\u0ccd \u0c9a\u0ccc\u0c95\u0ccd",
          "network": "Delhi Metro",
          "note": "Contributors are requested to not edit the \"network\" and the \"operator\" tags. (2023/06/22)",
          "operator": "Delhi Metro Rail Corporation Limited",
          "public_transport": "stop_position",
          "railway": "stop",
          "ref": "RCK",
          "subway": "yes"
        }
      },
      {
        "type": "node",
        "id": 5537643921,
        "lat": 28.6483622,
        "lon": 77.213419,
        "tags": {
          "amenity": "fuel"
        }
      },
      {
        "type": "node",
        "id": 5637100896,
        "lat": 28.6415227,
        "lon": 77.2258674,
        "tags": {
          "amenity": "fuel",
          "brand": "Bharat Petroleum",
          "brand:wikidata": "Q854826",
          "name": "Bharat Petroleum"
        }
      },
      {
        "type": "node",
        "id": 5638613753,
        "lat": 28.6444395,
        "lon": 77.1987994,
        "tags": {
          "amenity": "fuel"
        }
      },
      {
        "type": "node",
        "id": 5638613754,
        "lat": 28.6450079,
        "lon": 77.1989094,
        "tags": {
          "amenity": "fuel"
        }
      },
      {
        "type": "node",
        "id": 5690505425,
        "lat": 28.6233298,
        "lon": 77.2184168,
        "tags": {
          "amenity": "bus_station",
          "bus": "yes",
          "name": "Western Court Bus Terminus",
          "public_transport": "station"
        }
      },
      {
        "type": "node",
        "id": 5732544321,
        "lat": 28.6378975,
        "lon": 77.2413599,
        "tags": {
          "amenity": "fuel",
          "brand": "Hindustan Petroleum",
          "brand:wikidata": "Q1619375",
          "name": "HP",
          "official_name": "Hindustan Petroleum"
        }
      },
      {
        "type": "node",
        "id": 5732609883,
        "lat": 28.6597807,
        "lon": 77.2314477,
        "tags": {
          "bus": "yes",
          "name": "Purani Dilhi Railway Station",
          "name:ur": "\u067e\u0631\u0627\u0646\u06cc \u062f\u06c1\u0644\u06cc \u0631\u06cc\u0644\u0648\u06d2 \u0627\u0633\u0679\u06cc\u0634\u0646",
          "public_transport": "stop_position"
        }
      },
      {
        "type": "node",
        "id": 5737166761,
        "lat": 28.6288795,
        "lon": 77.211331,
        "tags": {
          "name": "Shivaji Stadium",
          "network": "Delhi Metro",
          "network:wikidata": "Q271195",
          "note": "Contributors are requested to not edit the \"network\" and the \"operator\" tags. (2023/06/22)",
          "operator": "Delhi Metro Rail Corporation Limited",
          "operator:wikidata": "Q1029339",
          "public_transport": "stop_position",
          "railway": "stop",
          "ref": "SJSU",
          "subway": "yes"
        }
      },
      {
        "type": "node",
        "id": 5737167170,
        "lat": 28.6424706,
        "lon": 77.2231333,
        "tags": {
          "name": "New Delhi Airport Express Terminal",
          "name:hi": "\u0928\u0908 \u0926\u093f\u0932\u094d\u0932\u0940 \u090f\u092f\u0930\u092a\u094b\u0930\u094d\u091f \u090f\u0915\u094d\u0938\u092a\u094d\u0930\u0947\u0938 \u091f\u0930\u094d\u092e\u093f\u0928\u0932",
          "network": "Delhi Metro",
          "network:wikidata": "Q271195",
          "note": "Contributors are requested to not edit the \"network\" and the \"operator\" tags. (2023/06/22)",
          "operator": "Delhi Metro Rail Corporation Limited",
          "operator:wikidata": "Q1029339",
          "public_transport": "stop_position",
          "railway": "stop",
          "ref": "NDI",
          "subway": "yes"
        }
      },
      {
        "type": "node",
        "id": 5737167209,
        "lat": 28.6297873,
        "lon": 77.2250214,
        "tags": {
          "name": "Barakhambha Road",
          "network": "Delhi Metro",
          "note": "Contributors are requested to not edit the \"network\" and the \"operator\" tags. (2023/06/22)",
          "operator": "Delhi Metro Rail Corporation Limited",
          "public_transport": "stop_position",
          "railway": "stop",
          "subway": "yes"
        }
      },
      {
        "type": "node",
        "id": 5737167211,
        "lat": 28.6392594,
        "lon": 77.2085944,
        "tags": {
          "name": "Ramakrishna Ashram Marg",
          "network": "Delhi Metro",
          "note": "Contributors are requested to not edit the \"network\" and the \"operator\" tags. (2023/06/22)",
          "operator": "Delhi Metro Rail Corporation Limited",
          "public_transport": "stop_position",
          "railway": "stop",
          "subway": "yes"
        }
      },
      {
        "type": "node",
        "id": 5737167621,
        "lat": 28.6443363,
        "lon": 77.1999274,
        "tags": {
          "name": "Jhandewalan",
          "name:kn": "\u0c9d\u0cbe\u0c82\u0ca1\u0cc6\u0cb5\u0cbe\u0cb2\u0ca8\u0ccd",
          "network": "Delhi Metro",
          "note": "Contributors are requested to not edit the \"network\" and the \"operator\" tags. (2023/06/22)",
          "operator": "Delhi Metro Rail Corporation Limited",
          "public_transport": "stop_position",
          "railway": "stop",
          "subway": "yes"
        }
      },
      {
        "type": "node",
        "id": 5777601993,
        "lat": 28.6584232,
        "lon": 77.2303051,
        "tags": {
          "addr:postcode": "110006",
          "name": "Chandni Chowk",
          "name:ur": "\u0686\u0627\u0646\u062f\u0646\u06cc \u0686\u0648\u06a9",
          "network": "Delhi Metro",
          "note": "Contributors are requested to not edit the \"network\" and the \"operator\" tags. (2023/06/22)",
          "operator": "Delhi Metro Rail Corporation Limited",
          "operator:ur": "\u062f\u06c1\u0644\u06cc \u0645\u06cc\u0679\u0631\u0648",
          "public_transport": "stop_position",
          "railway": "stop",
          "ref": "CHK",
          "subway": "yes"
        }
      },
      {
        "type": "node",
        "id": 5777601996,
        "lat": 28.6492758,
        "lon": 77.2264893,
        "tags": {
          "addr:postcode": "110006",
          "name": "Chawri Bazaar",
          "network": "Delhi Metro",
          "note": "Contributors are requested to not edit the \"network\" and the \"operator\" tags. (2023/06/22)",
          "operator": "Delhi Metro Rail Corporation Limited",
          "public_transport": "stop_position",
          "railway": "stop",
          "ref": "CWBR",
          "subway": "yes"
        }
      },
      {
        "type": "node",
        "id": 5777602002,
        "lat": 28.6229815,
        "lon": 77.2140067,
        "tags": {
          "name": "Patel Chowk",
          "network": "Delhi Metro",
          "note": "Contributors are requested to not edit the \"network\" and the \"operator\" tags. (2023/06/22)",
          "operator": "Delhi Metro Rail Corporation Limited",
          "public_transport": "stop_position",
          "railway": "stop",
          "ref": "PTCK",
          "subway": "yes"
        }
      },
      {
        "type": "node",
        "id": 5777602033,
        "lat": 28.6434908,
        "lon": 77.2227137,
        "tags": {
          "alt_name:ar": "\u0646\u064a\u0648\u062f\u0644\u0647\u064a",
          "alt_name:ks": "\u0646\u0654\u0648 \u062f\u0650\u0644",
          "alt_name:ur": "\u0646\u0626\u06cc \u062f\u0644\u06cc",
          "name": "New Delhi",
          "name:ar": "\u062f\u0644\u0647\u064a \u0627\u0644\u062c\u062f\u064a\u062f\u0629",
          "name:az-Arab": "\u06cc\u0626\u0646\u06cc \u062f\u0647\u0644\u06cc",
          "name:azb": "\u06cc\u0626\u0646\u06cc \u062f\u0647\u0644\u06cc",
          "name:de": "Neu-Delhi",
          "name:el": "\u039d\u03ad\u03bf \u0394\u03b5\u03bb\u03c7\u03af",
          "name:es": "Nueva Delhi",
          "name:grc": "\u039d\u03b5\u03bf\u03b4\u03b5\u03bb\u03af\u03c2",
          "name:hi": "\u0928\u0908 \u0926\u093f\u0932\u094d\u0932\u0940",
          "name:hy": "\u0546\u0575\u0578\u0582 \u0534\u0565\u056c\u056b",
          "name:hyw": "\u0546\u056b\u0582 \u054f\u0565\u056c\u0570\u056b",
          "name:ks": "\u0646\u0654\u0648 \u062f\u0644\u06be\u06cc",
          "name:pa": "\u0a28\u0a35\u0a40\u0a02 \u0a26\u0a3f\u0a71\u0a32\u0a40",
          "name:ug": "\u064a\u06d0\u06ad\u0649 \u062f\u06d0\u06be\u0644\u0649",
          "name:ur": "\u0646\u0626\u06cc \u062f\u06c1\u0644\u06cc",
          "network": "Delhi Metro",
          "note": "Contributors are requested to not edit the \"network\" and the \"operator\" tags. (2023/06/22)",
          "operator": "Delhi Metro Rail Corporation Limited",
          "public_transport": "stop_position",
          "railway": "stop",
          "ref": "NDLS",
          "subway": "yes"
        }
      },
      {
        "type": "node",
        "id": 5777629177,
        "lat": 28.6240499,
        "lon": 77.2192311,
        "tags": {
          "name": "Janpath",
          "name:hi": "\u091c\u0928\u092a\u0925",
          "name:kn": "\u0c9c\u0ca8\u0ccd\u0caa\u0ca4\u0ccd",
          "network": "Delhi Metro",
          "note": "Contributors are requested to not edit the \"network\" and the \"operator\" tags. (2023/06/22)",
          "operator": "Delhi Metro Rail Corporation Limited",
          "public_transport": "stop_position",
          "railway": "stop",
          "ref": "JNPH",
          "subway": "yes"
        }
      },
      {
        "type": "node",
        "id": 5777629197,
        "lat": 28.6392084,
        "lon": 77.2407549,
        "tags": {
          "name": "Delhi Gate",
          "name:hi": "\u0926\u093f\u0932\u094d\u0932\u0940 \u0917\u0947\u091f",
          "network": "Delhi Metro",
          "note": "Contributors are requested to not edit the \"network\" and the \"operator\" tags. (2023/06/22)",
          "operator": "Delhi Metro Rail Corporation Limited",
          "public_transport": "stop_position",
          "railway": "stop",
          "ref": "DLIG",
          "subway": "yes",
          "wikidata": "Q19580569",
          "wikipedia": "en:Delhi Gate metro station"
        }
      },
      {
        "type": "node",
        "id": 5777629203,
        "lat": 28.6500172,
        "lon": 77.2376384,
        "tags": {
          "addr:postcode": "110006",
          "name": "Jama Masjid",
          "name:hi": "\u091c\u093e\u092e\u093e \u092e\u0938\u094d\u091c\u093f\u0926",
          "name:ur": "\u062c\u0627\u0645\u0639 \u0645\u0633\u062c\u062f",
          "network": "Delhi Metro",
          "note": "Contributors are requested to not edit the \"network\" and the \"operator\" tags. (2023/06/22)",
          "operator": "Delhi Metro Rail Corporation Limited",
          "public_transport": "stop_position",
          "railway": "stop",
          "ref": "JAMD",
          "subway": "yes"
        }
      },
      {
        "type": "node",
        "id": 5799061867,
        "lat": 28.6300536,
        "lon": 77.2172723,
        "tags": {
          "addr:city": "New Delhi",
          "amenity": "theatre",
          "level": "1",
          "name": "The Attic",
          "survey:date": "2023-01-22",
          "website": "https://www.theatticdelhi.org/"
        }
      },
      {
        "type": "node",
        "id": 5854161857,
        "lat": 28.658087,
        "lon": 77.2170087,
        "tags": {
          "internet_access": "no",
          "name": "Sadar Bazar",
          "name:hi": "\u0938\u0926\u0930 \u092c\u093e\u091c\u093c\u093e\u0930",
          "name:ur": "\u0635\u062f\u0631 \u0628\u0627\u0632\u0627\u0631",
          "network": "IR",
          "operator": "NR",
          "public_transport": "station",
          "railway": "station",
          "ref": "DSB",
          "train": "yes",
          "wheelchair": "yes",
          "wikidata": "Q24947943",
          "wikipedia": "en:Sadar Bazar railway station"
        }
      },
      {
        "type": "node",
        "id": 6131069513,
        "lat": 28.6419258,
        "lon": 77.2217499,
        "tags": {
          "alt_name:ar": "\u0646\u064a\u0648\u062f\u0644\u0647\u064a",
          "alt_name:ks": "\u0646\u0654\u0648 \u062f\u0650\u0644",
          "alt_name:ur": "\u0646\u0626\u06cc \u062f\u0644\u06cc;\u0646\u0626\u06cc \u062f\u0650\u0644\u0651\u06cc",
          "internet_access": "wlan",
          "long_name": "\u0646\u0626\u06cc \u062f\u06c1\u0644\u06cc \u0631\u06cc\u0644\u0648\u06d2 \u0627\u0633\u0679\u06cc\u0634\u0646",
          "long_name:ur": "\u0646\u0626\u06cc \u062f\u06c1\u0644\u06cc \u0631\u06cc\u0644\u0648\u06d2 \u0627\u0633\u0679\u06cc\u0634\u0646",
          "name": "New Delhi",
          "name:ar": "\u062f\u0644\u0647\u064a \u0627\u0644\u062c\u062f\u064a\u062f\u0629",
          "name:az-Arab": "\u06cc\u0626\u0646\u06cc \u062f\u0647\u0644\u06cc",
          "name:azb": "\u06cc\u0626\u0646\u06cc \u062f\u0647\u0644\u06cc",
          "name:de": "Neu-Delhi",
          "name:el": "\u039d\u03ad\u03bf \u0394\u03b5\u03bb\u03c7\u03af",
          "name:es": "Nueva Delhi",
          "name:grc": "\u039d\u03b5\u03bf\u03b4\u03b5\u03bb\u03af\u03c2",
          "name:hi": "\u0928\u0908 \u0926\u093f\u0932\u094d\u0932\u0940",
          "name:hy": "\u0546\u0575\u0578\u0582 \u0534\u0565\u056c\u056b",
          "name:hyw": "\u0546\u056b\u0582 \u054f\u0565\u056c\u0570\u056b",
          "name:ks": "\u0646\u0654\u0648 \u062f\u0644\u06be\u06cc",
          "name:ml": "\u0d28\u0d4d\u0d2f\u0d42 \u0d21\u0d46\u0d7d\u0d39\u0d3f",
          "name:pa": "\u0a28\u0a35\u0a40\u0a02 \u0a26\u0a3f\u0a71\u0a32\u0a40",
          "name:ug": "\u064a\u06d0\u06ad\u0649 \u062f\u06d0\u06be\u0644\u0649",
          "name:ur": "\u0646\u0626\u06cc \u062f\u06c1\u0644\u06cc",
          "network": "IR",
          "operator": "NR",
          "public_transport": "station",
          "railway": "station",
          "ref": "NDLS",
          "train": "yes",
          "wheelchair": "yes",
          "wikimedia_commons": "File:New Delhi railway station from Ajmeri Gate side.jpg",
          "wikipedia": "en:New Delhi railway station",
          "wikipedia:ur": "\u0646\u0626\u06cc \u062f\u06c1\u0644\u06cc \u0631\u06cc\u0644\u0648\u06d2 \u0627\u0633\u0679\u06cc\u0634\u0646"
        }
      },
      {
        "type": "node",
        "id": 6161686836,
        "lat": 28.6346388,
        "lon": 77.2212509,
        "tags": {
          "amenity": "fuel",
          "brand": "Indian Oil",
          "brand:wikidata": "Q1289348",
          "compressed_air": "yes",
          "name": "Indian Oil"
        }
      },
      {
        "type": "node",
        "id": 6224257208,
        "lat": 28.627201,
        "lon": 77.2325397,
        "tags": {
          "amenity": "theatre",
          "theatre:type": "amphi"
        }
      },
      {
        "type": "node",
        "id": 6404118987,
        "lat": 28.6336834,
        "lon": 77.2219946,
        "tags": {
          "amenity": "charging_station",
          "capacity": "1",
          "operator": "Energy Efficiency Services Limited (EESL)"
        }
      },
      {
        "type": "node",
        "id": 6404118988,
        "lat": 28.6336147,
        "lon": 77.2218243,
        "tags": {
          "amenity": "charging_station",
          "brand": "Ather",
          "capacity": "2",
          "level": "0",
          "operator": "Energy Efficiency Services Limited (EESL)"
        }
      },
      {
        "type": "node",
        "id": 6539894849,
        "lat": 28.6443188,
        "lon": 77.1999165,
        "tags": {
          "name": "Jhandewalan",
          "name:hi": "\u091d\u0902\u0921\u0947\u0935\u093e\u0932\u093e\u0928",
          "name:kn": "\u0c9d\u0cbe\u0c82\u0ca1\u0cc6\u0cb5\u0cbe\u0cb2\u0ca8\u0ccd",
          "network": "Delhi Metro",
          "network:wikidata": "Q271195",
          "note": "Contributors are requested to not edit the \"network\" and the \"operator\" tags. (2023/06/22)",
          "operator": "Delhi Metro Rail Corporation Limited",
          "operator:wikidata": "Q1029339",
          "public_transport": "station",
          "railway": "station",
          "station": "subway",
          "subway": "yes",
          "wikidata": "Q6190836",
          "wikipedia": "en:Jhandewalan metro station"
        }
      },
      {
        "type": "node",
        "id": 6539894850,
        "lat": 28.6392436,
        "lon": 77.2085787,
        "tags": {
          "name": "Ramakrishna Ashram Marg",
          "name:hi": "\u0930\u093e\u092e\u0915\u0943\u0937\u094d\u0923 \u0906\u0936\u094d\u0930\u092e \u092e\u093e\u0930\u094d\u0917",
          "network": "Delhi Metro",
          "network:wikidata": "Q271195",
          "note": "Contributors are requested to not edit the \"network\" and the \"operator\" tags. (2023/06/22)",
          "operator": "Delhi Metro Rail Corporation Limited",
          "operator:wikidata": "Q1029339",
          "public_transport": "station",
          "railway": "station",
          "station": "subway",
          "subway": "yes",
          "wikidata": "Q7288800",
          "wikipedia": "en:Ramakrishna Ashram Marg metro station"
        }
      },
      {
        "type": "node",
        "id": 6539894851,
        "lat": 28.6327062,
        "lon": 77.2193123,
        "tags": {
          "name": "Rajiv Chowk",
          "name:hi": "\u0930\u093e\u091c\u0940\u0935 \u091a\u094c\u0915",
          "name:kn": "\u0cb0\u0cbe\u0c9c\u0cc0\u0cb5\u0ccd \u0c9a\u0ccc\u0c95\u0ccd",
          "name:ur": "\u0631\u0627\u062c\u06cc\u0648 \u0686\u0648\u06a9",
          "network": "Delhi Metro",
          "network:wikidata": "Q271195",
          "note": "Contributors are requested to not edit the \"network\" and the \"operator\" tags. (2023/06/22)",
          "operator": "Delhi Metro Rail Corporation Limited",
          "operator:wikidata": "Q1029339",
          "public_transport": "station",
          "railway": "station",
          "ref": "RCK",
          "station": "subway",
          "subway": "yes",
          "wikidata": "Q7286183"
        }
      },
      {
        "type": "node",
        "id": 6539894852,
        "lat": 28.6327955,
        "lon": 77.2192419,
        "tags": {
          "name": "Rajiv Chowk",
          "name:hi": "\u0930\u093e\u091c\u0940\u0935 \u091a\u094c\u0915",
          "name:kn": "\u0cb0\u0cbe\u0c9c\u0cc0\u0cb5\u0ccd \u0c9a\u0ccc\u0c95\u0ccd",
          "network": "Delhi Metro",
          "note": "Contributors are requested to not edit the \"network\" and the \"operator\" tags. (2023/06/22)",
          "operator": "Delhi Metro Rail Corporation Limited",
          "public_transport": "stop_position",
          "railway": "stop",
          "ref": "RCK",
          "subway": "yes"
        }
      },
      {
        "type": "node",
        "id": 6539894853,
        "lat": 28.6327972,
        "lon": 77.2197106,
        "tags": {
          "name": "Rajiv Chowk",
          "name:hi": "\u0930\u093e\u091c\u0940\u0935 \u091a\u094c\u0915",
          "name:kn": "\u0cb0\u0cbe\u0c9c\u0cc0\u0cb5\u0ccd \u0c9a\u0ccc\u0c95\u0ccd",
          "network": "Delhi Metro",
          "note": "Contributors are requested to not edit the \"network\" and the \"operator\" tags. (2023/06/22)",
          "operator": "Delhi Metro Rail Corporation Limited",
          "public_transport": "stop_position",
          "railway": "stop",
          "ref": "RCK",
          "subway": "yes"
        }
      },
      {
        "type": "node",
        "id": 6539894855,
        "lat": 28.6297676,
        "lon": 77.2250046,
        "tags": {
          "name": "Barakhambha Road",
          "name:hi": "\u092c\u093e\u0930\u093e\u0916\u092e\u094d\u092c\u093e \u0930\u094b\u0921",
          "network": "Delhi Metro",
          "network:wikidata": "Q271195",
          "note": "Contributors are requested to not edit the \"network\" and the \"operator\" tags. (2023/06/22)",
          "operator": "Delhi Metro Rail Corporation Limited",
          "operator:wikidata": "Q1029339",
          "public_transport": "station",
          "railway": "station",
          "station": "subway",
          "subway": "yes",
          "wikidata": "Q4858265",
          "wikipedia": "en:Barakhamba Road metro station"
        }
      },
      {
        "type": "node",
        "id": 6547772096,
        "lat": 28.64249,
        "lon": 77.2230952,
        "tags": {
          "name": "New Delhi Airport Express Terminal",
          "name:hi": "\u0928\u0908 \u0926\u093f\u0932\u094d\u0932\u0940 \u090f\u092f\u0930\u092a\u094b\u0930\u094d\u091f \u090f\u0915\u094d\u0938\u092a\u094d\u0930\u0947\u0938 \u091f\u0930\u094d\u092e\u093f\u0928\u0932",
          "network": "Delhi Metro",
          "network:wikidata": "Q271195",
          "note": "Contributors are requested to not edit the \"network\" and the \"operator\" tags. (2023/06/22)",
          "operator": "Delhi Metro Rail Corporation Limited",
          "operator:wikidata": "Q1029339",
          "public_transport": "stop_position",
          "railway": "stop",
          "ref": "NDI",
          "subway": "yes"
        }
      },
      {
        "type": "node",
        "id": 6547772097,
        "lat": 28.6434707,
        "lon": 77.2227708,
        "tags": {
          "alt_name:ar": "\u0646\u064a\u0648\u062f\u0644\u0647\u064a",
          "alt_name:ks": "\u0646\u0654\u0648 \u062f\u0650\u0644",
          "alt_name:ur": "\u0646\u0626\u06cc \u062f\u0644\u06cc",
          "name": "New Delhi",
          "name:ar": "\u062f\u0644\u0647\u064a \u0627\u0644\u062c\u062f\u064a\u062f\u0629",
          "name:az-Arab": "\u06cc\u0626\u0646\u06cc \u062f\u0647\u0644\u06cc",
          "name:azb": "\u06cc\u0626\u0646\u06cc \u062f\u0647\u0644\u06cc",
          "name:de": "Neu-Delhi",
          "name:el": "\u039d\u03ad\u03bf \u0394\u03b5\u03bb\u03c7\u03af",
          "name:es": "Nueva Delhi",
          "name:grc": "\u039d\u03b5\u03bf\u03b4\u03b5\u03bb\u03af\u03c2",
          "name:hi": "\u0928\u0908 \u0926\u093f\u0932\u094d\u0932\u0940",
          "name:hy": "\u0546\u0575\u0578\u0582 \u0534\u0565\u056c\u056b",
          "name:hyw": "\u0546\u056b\u0582 \u054f\u0565\u056c\u0570\u056b",
          "name:ks": "\u0646\u0654\u0648 \u062f\u0644\u06be\u06cc",
          "name:pa": "\u0a28\u0a35\u0a40\u0a02 \u0a26\u0a3f\u0a71\u0a32\u0a40",
          "name:ug": "\u064a\u06d0\u06ad\u0649 \u062f\u06d0\u06be\u0644\u0649",
          "name:ur": "\u0646\u0626\u06cc \u062f\u06c1\u0644\u06cc",
          "network": "Delhi Metro",
          "note": "Contributors are requested to not edit the \"network\" and the \"operator\" tags. (2023/06/22)",
          "operator": "Delhi Metro Rail Corporation Limited",
          "public_transport": "stop_position",
          "railway": "stop",
          "ref": "NDLS",
          "subway": "yes"
        }
      },
      {
        "type": "node",
        "id": 6761961056,
        "lat": 28.6341092,
        "lon": 77.2202799,
        "tags": {
          "amenity": "charging_station",
          "capacity": "1"
        }
      },
      {
        "type": "node",
        "id": 6761961057,
        "lat": 28.633798,
        "lon": 77.2208339,
        "tags": {
          "amenity": "charging_station",
          "capacity": "1",
          "operator": "Energy Efficiency Services Limited (EESL)"
        }
      },
      {
        "type": "node",
        "id": 6988161557,
        "lat": 28.6342608,
        "lon": 77.2206422,
        "tags": {
          "amenity": "charging_station"
        }
      },
      {
        "type": "node",
        "id": 6988161559,
        "lat": 28.634276,
        "lon": 77.2209612,
        "tags": {
          "amenity": "charging_station"
        }
      },
      {
        "type": "node",
        "id": 7018886724,
        "lat": 28.6584227,
        "lon": 77.2303375,
        "tags": {
          "addr:postcode": "110006",
          "name": "Chandni Chowk",
          "name:hi": "\u091a\u093e\u0901\u0926\u0928\u0940 \u091a\u094c\u0915",
          "name:ur": "\u0686\u0627\u0646\u062f\u0646\u06cc \u0686\u0648\u06a9",
          "network": "Delhi Metro",
          "note": "Contributors are requested to not edit the \"network\" and the \"operator\" tags. (2023/06/22)",
          "operator": "Delhi Metro Rail Corporation Limited",
          "operator:ur": "\u062f\u06c1\u0644\u06cc \u0645\u06cc\u0679\u0631\u0648",
          "public_transport": "station",
          "railway": "station",
          "ref": "CHK",
          "station": "subway",
          "subway": "yes",
          "wikidata": "Q5071227",
          "wikipedia": "en:Chandni Chowk metro station (Delhi)"
        }
      },
      {
        "type": "node",
        "id": 7018886725,
        "lat": 28.6492649,
        "lon": 77.2265153,
        "tags": {
          "addr:postcode": "110006",
          "name": "Chawri Bazaar",
          "name:hi": "\u091a\u093e\u0935\u0921\u093c\u0940 \u092c\u093e\u091c\u093c\u093e\u0930",
          "name:ur": "\u0686\u0627\u0624\u0691\u06cc \u0628\u0627\u0632\u0627\u0631",
          "network": "Delhi Metro",
          "note": "Contributors are requested to not edit the \"network\" and the \"operator\" tags. (2023/06/22)",
          "operator": "Delhi Metro Rail Corporation Limited",
          "public_transport": "station",
          "railway": "station",
          "ref": "CWBR",
          "station": "subway",
          "subway": "yes",
          "wikidata": "Q5088577",
          "wikipedia": "en:Chawri Bazar metro station"
        }
      },
      {
        "type": "node",
        "id": 7018886726,
        "lat": 28.6229664,
        "lon": 77.214031,
        "tags": {
          "name": "Patel Chowk",
          "name:hi": "\u092a\u091f\u0947\u0932 \u091a\u094c\u0915",
          "name:ur": "\u067e\u0679\u06cc\u0644 \u0686\u0648\u06a9",
          "network": "Delhi Metro",
          "network:wikidata": "Q271195",
          "note": "Contributors are requested to not edit the \"network\" and the \"operator\" tags. (2023/06/22)",
          "operator": "Delhi Metro Rail Corporation Limited",
          "operator:wikidata": "Q1029339",
          "public_transport": "station",
          "railway": "station",
          "ref": "PTCK",
          "station": "subway",
          "subway": "yes",
          "wikidata": "Q7144407",
          "wikipedia": "en:Patel Chowk metro station"
        }
      },
      {
        "type": "node",
        "id": 7040469986,
        "lat": 28.6309944,
        "lon": 77.2163377,
        "tags": {
          "addr:city": "New Delhi",
          "amenity": "cinema",
          "brand": "PVR Cinemas",
          "brand:wikidata": "Q3359908",
          "name": "PVR Rivoli Cinema",
          "short_name": "PVR"
        }
      },
      {
        "type": "node",
        "id": 7083796927,
        "lat": 28.6350123,
        "lon": 77.2197325,
        "tags": {
          "amenity": "charging_station"
        }
      },
      {
        "type": "node",
        "id": 7083916144,
        "lat": 28.6341151,
        "lon": 77.217651,
        "tags": {
          "amenity": "charging_station",
          "capacity": "1",
          "operator": "EESL"
        }
      },
      {
        "type": "node",
        "id": 7083972066,
        "lat": 28.6393711,
        "lon": 77.2239559,
        "tags": {
          "bus": "yes",
          "name": "Minto Road Terminal",
          "public_transport": "stop_position"
        }
      },
      {
        "type": "node",
        "id": 7086574353,
        "lat": 28.6394999,
        "lon": 77.2237176,
        "tags": {
          "bus": "yes",
          "name": "Minto Road Terminal",
          "public_transport": "stop_position"
        }
      },
      {
        "type": "node",
        "id": 7274125614,
        "lat": 28.6311731,
        "lon": 77.204936,
        "tags": {
          "amenity": "theatre",
          "name": "Muktadhara Auditorium"
        }
      },
      {
        "type": "node",
        "id": 7274257107,
        "lat": 28.6327684,
        "lon": 77.2228545,
        "tags": {
          "amenity": "charging_station",
          "capacity": "1"
        }
      },
      {
        "type": "node",
        "id": 7282286733,
        "lat": 28.6392174,
        "lon": 77.2407795,
        "tags": {
          "line": "Violet Line",
          "name": "Delhi Gate",
          "name:hi": "\u0926\u093f\u0932\u094d\u0932\u0940 \u0917\u0947\u091f",
          "name:ur": "\u062f\u06c1\u0644\u06cc \u062f\u0631\u0648\u0627\u0632\u06c1",
          "network": "Delhi Metro",
          "note": "Contributors are requested to not edit the \"network\" and the \"operator\" tags. (2023/06/22)",
          "operator": "Delhi Metro Rail Corporation Limited",
          "public_transport": "station",
          "railway": "station",
          "ref": "DLIG",
          "station": "subway",
          "subway": "yes",
          "wikidata": "Q19580569",
          "wikipedia": "en:Delhi Gate metro station"
        }
      },
      {
        "type": "node",
        "id": 7947401468,
        "lat": 28.6326616,
        "lon": 77.2358292,
        "tags": {
          "name": "Delhi",
          "network": "Bal Bhavan Toy Train",
          "operator": "Bal Bhavan",
          "public_transport": "stop_position",
          "railway": "stop",
          "station": "miniature",
          "train": "yes"
        }
      },
      {
        "type": "node",
        "id": 8018558072,
        "lat": 28.6327786,
        "lon": 77.2196985,
        "tags": {
          "name": "Rajiv Chowk",
          "name:hi": "\u0930\u093e\u091c\u0940\u0935 \u091a\u094c\u0915",
          "name:kn": "\u0cb0\u0cbe\u0c9c\u0cc0\u0cb5\u0ccd \u0c9a\u0ccc\u0c95\u0ccd",
          "name:ml": "\u0d30\u0d3e\u0d1c\u0d40\u0d35\u0d4d \u0d1a\u0d57\u0d15\u0d4d\u0d15\u0d4d",
          "name:ur": "\u0631\u0627\u062c\u06cc\u0648 \u0686\u0648\u06a9",
          "network": "Delhi Metro",
          "network:wikidata": "Q271195",
          "note": "Contributors are requested to not edit the \"network\" and the \"operator\" tags. (2023/06/22)",
          "operator": "Delhi Metro Rail Corporation Limited",
          "operator:wikidata": "Q1029339",
          "public_transport": "station",
          "railway": "station",
          "ref": "RCK",
          "station": "subway",
          "subway": "yes",
          "wikidata": "Q7286183",
          "wikipedia": "en:Rajiv Chowk metro station"
        }
      },
      {
        "type": "node",
        "id": 9048339562,
        "lat": 28.6417754,
        "lon": 77.2338061,
        "tags": {
          "amenity": "fuel",
          "brand": "Bharat Petroleum",
          "brand:wikidata": "Q854826",
          "name": "Bharat Petroleum"
        }
      },
      {
        "type": "node",
        "id": 9052026091,
        "lat": 28.6446605,
        "lon": 77.2237611,
        "tags": {
          "alt_name": "Kamla Market",
          "bus": "yes",
          "name": "Kamala Market",
          "name:hi": "\u0915\u092e\u0932\u093e \u092e\u093e\u0930\u094d\u0915\u093f\u091f",
          "public_transport": "stop_position"
        }
      },
      {
        "type": "node",
        "id": 9052026101,
        "lat": 28.6441445,
        "lon": 77.2239601,
        "tags": {
          "alt_name": "Kamla Market",
          "bus": "yes",
          "name": "Kamala Market",
          "name:hi": "\u0915\u092e\u0932\u093e \u092e\u093e\u0930\u094d\u0915\u093f\u091f",
          "public_transport": "stop_position"
        }
      },
      {
        "type": "node",
        "id": 9052026102,
        "lat": 28.6452425,
        "lon": 77.2240232,
        "tags": {
          "alt_name": "Kamla Market",
          "bus": "yes",
          "name": "Kamala Market",
          "name:hi": "\u0915\u092e\u0932\u093e \u092e\u093e\u0930\u094d\u0915\u093f\u091f",
          "public_transport": "stop_position"
        }
      },
      {
        "type": "node",
        "id": 9162635057,
        "lat": 28.6601979,
        "lon": 77.2262655,
        "tags": {
          "bus": "yes",
          "name": "Old Delhi Railway Station",
          "name:ur": "\u067e\u0631\u0627\u0646\u06cc \u062f\u06c1\u0644\u06cc \u0631\u06cc\u0644\u0648\u06d2 \u0627\u0633\u0679\u06cc\u0634\u0646",
          "public_transport": "stop_position"
        }
      },
      {
        "type": "node",
        "id": 9237403818,
        "lat": 28.630944,
        "lon": 77.2233578,
        "tags": {
          "amenity": "charging_station"
        }
      },
      {
        "type": "node",
        "id": 9237403820,
        "lat": 28.6310563,
        "lon": 77.2230955,
        "tags": {
          "amenity": "charging_station"
        }
      },
      {
        "type": "node",
        "id": 9544997484,
        "lat": 28.6480292,
        "lon": 77.2008439,
        "tags": {
          "amenity": "bus_station",
          "bench": "yes",
          "bus": "yes",
          "name": "Karol Bagh Terminal",
          "operator": "DTC",
          "public_transport": "station",
          "shelter": "yes"
        }
      },
      {
        "type": "node",
        "id": 9584236507,
        "lat": 28.6240485,
        "lon": 77.2192587,
        "tags": {
          "name": "Janpath",
          "name:en": "Janpath",
          "name:hi": "\u091c\u0928\u092a\u0925",
          "name:kn": "\u0c9c\u0ca8\u0ccd\u0caa\u0ca4\u0ccd",
          "name:ur": "\u062c\u0646 \u067e\u062a\u06be",
          "network": "Delhi Metro",
          "network:wikidata": "Q271195",
          "note": "Contributors are requested to not edit the \"network\" and the \"operator\" tags. (2023/06/22)",
          "operator": "Delhi Metro Rail Corporation Limited",
          "operator:wikidata": "Q1029339",
          "public_transport": "station",
          "railway": "station",
          "ref": "JNPH",
          "station": "subway",
          "subway": "yes",
          "wikidata": "Q16850982",
          "wikipedia": "en:Janpath metro station"
        }
      },
      {
        "type": "node",
        "id": 9730042238,
        "lat": 28.6436988,
        "lon": 77.196868,
        "tags": {
          "bus": "yes",
          "name": "Karol Bagh",
          "public_transport": "stop_position"
        }
      },
      {
        "type": "node",
        "id": 9938725207,
        "lat": 28.6289139,
        "lon": 77.211311,
        "tags": {
          "name": "Shivaji Stadium",
          "network": "Delhi Metro",
          "network:wikidata": "Q271195",
          "note": "Contributors are requested to not edit the \"network\" and the \"operator\" tags. (2023/06/22)",
          "operator": "Delhi Metro Rail Corporation Limited",
          "operator:wikidata": "Q1029339",
          "public_transport": "stop_position",
          "railway": "stop",
          "ref": "SJSU",
          "subway": "yes"
        }
      },
      {
        "type": "node",
        "id": 10240014908,
        "lat": 28.633573,
        "lon": 77.2234733,
        "tags": {
          "amenity": "charging_station"
        }
      },
      {
        "type": "node",
        "id": 10579682141,
        "lat": 28.6343154,
        "lon": 77.221088,
        "tags": {
          "amenity": "cinema",
          "name": "Odeon Inox",
          "wheelchair": "limited"
        }
      },
      {
        "type": "node",
        "id": 10905351902,
        "lat": 28.6342282,
        "lon": 77.2195272,
        "tags": {
          "amenity": "charging_station",
          "disused:amenity": "yes"
        }
      },
      {
        "type": "node",
        "id": 10922054270,
        "lat": 28.6315233,
        "lon": 77.2199032,
        "tags": {
          "amenity": "charging_station"
        }
      },
      {
        "type": "node",
        "id": 11017150571,
        "lat": 28.6618882,
        "lon": 77.2279088,
        "tags": {
          "alt_name": "Old Delhi",
          "name": "Delhi Junction",
          "public_transport": "stop_position",
          "railway": "stop",
          "ref": "15",
          "train": "yes"
        }
      },
      {
        "type": "node",
        "id": 11637354348,
        "lat": 28.6338798,
        "lon": 77.2175045,
        "tags": {
          "amenity": "charging_station"
        }
      },
      {
        "type": "node",
        "id": 11642004107,
        "lat": 28.6272979,
        "lon": 77.2319249,
        "tags": {
          "amenity": "charging_station"
        }
      },
      {
        "type": "node",
        "id": 11765231237,
        "lat": 28.648275,
        "lon": 77.2008227,
        "tags": {
          "amenity": "bus_station",
          "bench": "yes",
          "bus": "yes",
          "name": "Karol Bagh Terminal",
          "operator": "DTC",
          "public_transport": "station",
          "shelter": "yes"
        }
      },
      {
        "type": "node",
        "id": 11795617114,
        "lat": 28.6286105,
        "lon": 77.2196866,
        "tags": {
          "amenity": "charging_station",
          "brand": "Xicom",
          "capacity": "1"
        }
      },
      {
        "type": "node",
        "id": 11823656860,
        "lat": 28.6417761,
        "lon": 77.2259725,
        "tags": {
          "amenity": "fuel",
          "brand": "IGL",
          "brand:wikidata": "Q125553945",
          "construction": "yes",
          "name": "IGL"
        }
      },
      {
        "type": "node",
        "id": 11833042043,
        "lat": 28.6512729,
        "lon": 77.2046862,
        "tags": {
          "amenity": "fuel",
          "brand": "Hindustan Petroleum",
          "brand:wikidata": "Q1619375",
          "name": "HP",
          "official_name": "Hindustan Petroleum"
        }
      },
      {
        "type": "node",
        "id": 12098546110,
        "lat": 28.6316265,
        "lon": 77.222004,
        "tags": {
          "amenity": "charging_station",
          "brand": "Ather",
          "capacity": "2",
          "level": "0",
          "operator": "Energy Efficiency Services Limited (EESL)"
        }
      },
      {
        "type": "node",
        "id": 12194497185,
        "lat": 28.6617448,
        "lon": 77.2279026,
        "tags": {
          "alt_name": "Old Delhi",
          "name": "Delhi Junction",
          "public_transport": "stop_position",
          "railway": "stop",
          "ref": "14",
          "train": "yes"
        }
      }
    ]
  }
}