{
  "pois_1km": {
    "version": 0.6,
    "generator": "Overpass API 0.7.62.8 e802775f",
    "osm3s": {
      "timestamp_osm_base": "2025-09-06T07:08:27Z",
      "copyright": "The data included in this document is from www.openstreetmap.org. The data is made available under ODbL."
    },
    "elements": [
      {
        "type": "node",
        "id": 495944526,
        "lat": 28.5500151,
        "lon": 77.2511173,
        "tags": {
          "amenity": "fast_food",
          "brand": "McDonald's",
          "brand:pa": "\u0a2e\u0a48\u0a15\u0a21\u0a4b\u0a28\u0a32\u0a21\u2019\u0a1c\u0a3c",
          "brand:ur": "\u0645\u06a9\u0688\u0648\u0646\u0644\u0688\u0632",
          "brand:wikidata": "Q38076",
          "brand:wikipedia": "en:McDonald's",
          "brand:wikipedia:pa": "\u0a2e\u0a48\u0a15\u0a21\u0a4b\u0a28\u0a32\u0a21\u2019\u0a1c\u0a3c",
          "brand:wikipedia:ur": "\u0645\u06a9\u0688\u0648\u0646\u0644\u0688\u0632",
          "cuisine": "burger",
          "name": "McDonald's",
          "name:pa": "\u0a2e\u0a48\u0a15\u0a21\u0a4b\u0a28\u0a32\u0a21\u2019\u0a1c\u0a3c",
          "name:ur": "\u0645\u06a9\u0688\u0648\u0646\u0644\u0688\u0632",
          "opening_hours": "Mo-Su,PH 09:00-23:00",
          "takeaway": "yes"
        }
      },
      {
        "type": "node",
        "id": 495944527,
        "lat": 28.5500689,
        "lon": 77.2510928,
        "tags": {
          "amenity": "fast_food",
          "brand": "Subway",
          "brand:pa": "\u0a38\u0a2c\u0a35\u0a47\u0a05",
          "brand:ur": "\u0633\u0628 \u0648\u06d2",
          "brand:wikidata": "Q244457",
          "brand:wikipedia": "en:Subway (restaurant)",
          "check_date": "2024-05-19",
          "cuisine": "sandwich",
          "diet:non-vegetarian": "yes",
          "diet:vegetarian": "yes",
          "internet_access": "no",
          "name": "Subway",
          "name:pa": "\u0a38\u0a2c\u0a35\u0a47\u0a05",
          "name:ur": "\u0633\u0628 \u0648\u06d2",
          "opening_hours": "Mo-Su 11:00-01:00",
          "payment:cash": "yes",
          "payment:credit_cards": "yes",
          "payment:debit_cards": "yes",
          "takeaway": "yes",
          "wheelchair": "yes"
        }
      },
      {
        "type": "node",
        "id": 495944542,
        "lat": 28.5502602,
        "lon": 77.2519691,
        "tags": {
          "amenity": "bank",
          "atm": "yes",
          "brand": "Barclays",
          "brand:wikidata": "Q245343",
          "name": "Barclays"
        }
      },
      {
        "type": "node",
        "id": 1135146944,
        "lat": 28.5467274,
        "lon": 77.243926,
        "tags": {
          "amenity": "pharmacy"
        }
      },
      {
        "type": "node",
        "id": 1135148185,
        "lat": 28.5469254,
        "lon": 77.2445375,
        "tags": {
          "amenity": "hospital",
          "healthcare": "hospital",
          "name": "Sukhda Hospital"
        }
      },
      {
        "type": "node",
        "id": 2593805952,
        "lat": 28.5499121,
        "lon": 77.2589413,
        "tags": {
          "name": "Savemax",
          "opening_hours": "11:00-21:30",
          "shop": "supermarket"
        }
      },
      {
        "type": "node",
        "id": 3250377275,
        "lat": 28.5501843,
        "lon": 77.2517872,
        "tags": {
          "amenity": "restaurant",
          "cuisine": "chinese",
          "name": "Royal China"
        }
      },
      {
        "type": "node",
        "id": 4930359332,
        "lat": 28.5533068,
        "lon": 77.2420113,
        "tags": {
          "access": "yes",
          "leisure": "playground"
        }
      },
      {
        "type": "node",
        "id": 4930359333,
        "lat": 28.5503853,
        "lon": 77.2466033,
        "tags": {
          "leisure": "playground"
        }
      },
      {
        "type": "node",
        "id": 5000466085,
        "lat": 28.5526526,
        "lon": 77.2556362,
        "tags": {
          "amenity": "cafe",
          "name": "Toffe bar"
        }
      },
      {
        "type": "node",
        "id": 5094782821,
        "lat": 28.551203,
        "lon": 77.2515575,
        "tags": {
          "amenity": "restaurant",
          "name:ar": "\u0643\u0646\u062a\u0627\u0643\u064a kfc"
        }
      },
      {
        "type": "node",
        "id": 5099590621,
        "lat": 28.5471828,
        "lon": 77.2518032,
        "tags": {
          "amenity": "bank",
          "brand": "Bank of India",
          "brand:wikidata": "Q2004439",
          "name": "Bank of India",
          "name:en": "Bank of India"
        }
      },
      {
        "type": "node",
        "id": 5110975822,
        "lat": 28.5537018,
        "lon": 77.2407879,
        "tags": {
          "amenity": "restaurant",
          "contact:website": "https://www.cafe27.in",
          "level": "5",
          "name": "Cafe 27 Rooftop Bar"
        }
      },
      {
        "type": "node",
        "id": 5111038921,
        "lat": 28.5525546,
        "lon": 77.2414184,
        "tags": {
          "amenity": "restaurant",
          "name": "Uncultured Cafe Sky Culture"
        }
      },
      {
        "type": "node",
        "id": 5113488022,
        "lat": 28.5576249,
        "lon": 77.2453629,
        "tags": {
          "amenity": "cafe",
          "name": "Cafe Coffe Day"
        }
      },
      {
        "type": "node",
        "id": 5234749222,
        "lat": 28.5529818,
        "lon": 77.240823,
        "tags": {
          "air_conditioning": "yes",
          "amenity": "restaurant",
          "diet:gluten_free": "yes",
          "diet:lacto_vegetarian": "yes",
          "diet:vegan": "yes",
          "level": "0",
          "name": "Getafix",
          "outdoor_seating": "no",
          "tables": "12",
          "wheelchair": "no"
        }
      },
      {
        "type": "node",
        "id": 5276889687,
        "lat": 28.5531929,
        "lon": 77.242431,
        "tags": {
          "amenity": "atm",
          "brand": "Indian Overseas Bank",
          "brand:wikidata": "Q2003611",
          "cash_in": "no",
          "check_date": "2023-08-20",
          "operator": "Indian Overseas Bank",
          "operator:wikidata": "Q2003611"
        }
      },
      {
        "type": "node",
        "id": 5276893120,
        "lat": 28.5532225,
        "lon": 77.2424537,
        "tags": {
          "addr:housenumber": "HS-33",
          "addr:place": "Kailash Colony",
          "amenity": "bank",
          "brand": "Indian Overseas Bank",
          "brand:wikidata": "Q2743499",
          "name": "Indian Overseas Bank"
        }
      },
      {
        "type": "node",
        "id": 5276893421,
        "lat": 28.5555937,
        "lon": 77.2412436,
        "tags": {
          "amenity": "hospital",
          "name": "Apollo Spectra Hospitals"
        }
      },
      {
        "type": "node",
        "id": 5372987684,
        "lat": 28.5472443,
        "lon": 77.2493552,
        "tags": {
          "amenity": "bank",
          "atm": "yes",
          "branch": "Nehru Place",
          "brand": "Bank of Baroda",
          "brand:wikidata": "Q2003797",
          "name": "Bank of Baroda"
        }
      },
      {
        "type": "node",
        "id": 5372989235,
        "lat": 28.5557969,
        "lon": 77.2417664,
        "tags": {
          "amenity": "cafe",
          "level": "0",
          "name": "Crackpot Cafe"
        }
      },
      {
        "type": "node",
        "id": 5372989287,
        "lat": 28.5469888,
        "lon": 77.2494873,
        "tags": {
          "addr:housenumber": "B-16",
          "amenity": "hospital",
          "description": "Diabetes and allied disorders",
          "name": "Fortis C-DOC Hospital",
          "opening_hours": "24/7"
        }
      },
      {
        "type": "node",
        "id": 5372994253,
        "lat": 28.552896,
        "lon": 77.2408823,
        "tags": {
          "addr:block": "HS",
          "addr:city": "New Delhi",
          "addr:housenumber": "16",
          "addr:place": "Kailash Colony Market",
          "addr:postcode": "110048",
          "air_conditioning": "yes",
          "amenity": "restaurant",
          "cuisine": "south_indian",
          "delivery": "yes",
          "diet:vegetarian": "only",
          "level": "0;2;3",
          "name": "Juggernaut",
          "opening_hours": "Mo-Su 06:00-24:00",
          "phone": "+91-7777-97-4444;+91-11-4131-9991;+91-11-4131-9992",
          "website": "https://juggernaut.online",
          "wheelchair": "no"
        }
      },
      {
        "type": "node",
        "id": 5416434522,
        "lat": 28.5421501,
        "lon": 77.2529516,
        "tags": {
          "amenity": "restaurant",
          "name": "The American Connection"
        }
      },
      {
        "type": "node",
        "id": 5461916721,
        "lat": 28.542141,
        "lon": 77.252922,
        "tags": {
          "amenity": "cafe",
          "name": "the gol chakar"
        }
      },
      {
        "type": "node",
        "id": 5556605561,
        "lat": 28.5479351,
        "lon": 77.2507706,
        "tags": {
          "amenity": "cafe",
          "name": "Cafe Einstein"
        }
      },
      {
        "type": "node",
        "id": 5578382614,
        "lat": 28.5485292,
        "lon": 77.2529251,
        "tags": {
          "amenity": "atm",
          "brand": "Punjab & Sind Bank",
          "brand:en": "Punjab & Sind Bank",
          "brand:hi": "\u092a\u0902\u091c\u093e\u092c \u090f\u0923\u094d\u0921 \u0938\u093f\u0902\u0927 \u092c\u0948\u0902\u0915",
          "brand:wikidata": "Q2003302",
          "check_date": "2024-05-19",
          "covered": "yes",
          "currency:INR": "yes",
          "indoor": "yes",
          "lit": "yes",
          "name:en": "Punjab & Sind Bank",
          "name:hi": "\u092a\u0902\u091c\u093e\u092c \u090f\u0923\u094d\u0921 \u0938\u093f\u0902\u0927 \u092c\u0948\u0902\u0915",
          "opening_hours": "24/7",
          "operator": "Punjab & Sind Bank",
          "operator:wikidata": "Q2003302"
        }
      },
      {
        "type": "node",
        "id": 5794948565,
        "lat": 28.5466499,
        "lon": 77.2508159,
        "tags": {
          "amenity": "atm",
          "brand": "Canara Bank",
          "brand:en": "Canara Bank",
          "brand:hi": "\u0915\u0947\u0928\u0930\u093e \u092c\u0948\u0902\u0915",
          "brand:kn": "\u0c95\u0cc6\u0ca8\u0cb0\u0cbe \u0cac\u0ccd\u0caf\u0cbe\u0c82\u0c95\u0ccd",
          "brand:pa": "\u0a15\u0a47\u0a28\u0a30\u0a3e \u0a2c\u0a48\u0a02\u0a15",
          "brand:pnb": "\u06a9\u06cc\u0646\u0631\u0627 \u0628\u06cc\u0646\u06a9",
          "brand:ur": "\u06a9\u06cc\u0646\u0631\u0627 \u0628\u06cc\u0646\u06a9",
          "brand:wikidata": "Q2003777",
          "name:en": "Canara Bank",
          "name:hi": "\u0915\u0947\u0928\u0930\u093e \u092c\u0948\u0902\u0915",
          "name:kn": "\u0c95\u0cc6\u0ca8\u0cb0\u0cbe \u0cac\u0ccd\u0caf\u0cbe\u0c82\u0c95\u0ccd",
          "name:pa": "\u0a15\u0a47\u0a28\u0a30\u0a3e \u0a2c\u0a48\u0a02\u0a15",
          "name:pnb": "\u06a9\u06cc\u0646\u0631\u0627 \u0628\u06cc\u0646\u06a9",
          "name:ur": "\u06a9\u06cc\u0646\u0631\u0627 \u0628\u06cc\u0646\u06a9",
          "operator": "Canara Bank",
          "operator:wikidata": "Q2003777"
        }
      },
      {
        "type": "node",
        "id": 5794949112,
        "lat": 28.5477352,
        "lon": 77.251017,
        "tags": {
          "amenity": "atm",
          "bank": "ICICI Bank",
          "check_date": "2023-05-28"
        }
      },
      {
        "type": "node",
        "id": 5794949350,
        "lat": 28.5476754,
        "lon": 77.2510443,
        "tags": {
          "amenity": "bank",
          "branch": "Nehru Place",
          "brand": "ICICI Bank",
          "brand:wikidata": "Q1653258",
          "name": "ICICI Bank",
          "short_name": "ICICI"
        }
      },
      {
        "type": "node",
        "id": 5794949351,
        "lat": 28.5475095,
        "lon": 77.2511406,
        "tags": {
          "amenity": "bank",
          "branch": "Punj Essen House",
          "brand": "State Bank of India",
          "brand:short": "SBI",
          "brand:wikidata": "Q1340361",
          "name": "State Bank of India",
          "short_name": "SBI"
        }
      },
      {
        "type": "node",
        "id": 5794949352,
        "lat": 28.5474798,
        "lon": 77.2511546,
        "tags": {
          "amenity": "atm",
          "brand": "State Bank of India",
          "brand:en": "State Bank of India",
          "brand:short": "SBI",
          "brand:wikidata": "Q1340361",
          "currency:INR": "yes",
          "drive_through": "no",
          "indoor": "yes",
          "note": "Contributors are requested to not edit the \"brand\", \"brand:en\", \"brand:wikidata\", \"operator\", \"operator:en\" and \"operator:wikidata\" tags. (2025/02/19)",
          "opening_hours": "24/7",
          "operator": "State Bank of India",
          "operator:en": "State Bank of India",
          "operator:wikidata": "Q1340361",
          "short_name": "SBI"
        }
      },
      {
        "type": "node",
        "id": 5794949353,
        "lat": 28.5472015,
        "lon": 77.2509992,
        "tags": {
          "amenity": "bank",
          "branch": "Delhi Development Authority Building, Nehru Place",
          "brand": "State Bank of India",
          "brand:short": "SBI",
          "brand:wikidata": "Q1340361",
          "level": "0",
          "name": "State Bank of India",
          "short_name": "SBI"
        }
      },
      {
        "type": "node",
        "id": 6047132416,
        "lat": 28.5482926,
        "lon": 77.2521255,
        "tags": {
          "amenity": "fast_food",
          "name": "New Vishal Corner"
        }
      },
      {
        "type": "node",
        "id": 6112993591,
        "lat": 28.5478602,
        "lon": 77.2534551,
        "tags": {
          "amenity": "bank",
          "branch": "Nehru Place",
          "brand": "HDFC Bank",
          "brand:wikidata": "Q631047",
          "level": "0",
          "name": "HDFC Bank",
          "opening_hours": "Mo-Su 09:30-15:30",
          "short_name": "HDFC"
        }
      },
      {
        "type": "node",
        "id": 6112995975,
        "lat": 28.5479351,
        "lon": 77.256022,
        "tags": {
          "amenity": "atm",
          "brand": "State Bank of India",
          "brand:en": "State Bank of India",
          "brand:short": "SBI",
          "brand:wikidata": "Q1340361",
          "currency:INR": "yes",
          "drive_through": "no",
          "indoor": "yes",
          "note": "Contributors are requested to not edit the \"brand\", \"brand:en\", \"brand:wikidata\", \"operator\", \"operator:en\" and \"operator:wikidata\" tags. (2025/02/19)",
          "opening_hours": "24/7",
          "operator": "State Bank of India",
          "operator:en": "State Bank of India",
          "operator:wikidata": "Q1340361",
          "short_name": "SBI"
        }
      },
      {
        "type": "node",
        "id": 6115745984,
        "lat": 28.5498682,
        "lon": 77.2508584,
        "tags": {
          "amenity": "atm",
          "brand": "IDBI Bank",
          "brand:wikidata": "Q3633485",
          "level": "0",
          "operator": "IDBI Bank",
          "operator:wikidata": "Q3633485",
          "short_name": "IDBI",
          "wheelchair": "no"
        }
      },
      {
        "type": "node",
        "id": 6115749046,
        "lat": 28.5513298,
        "lon": 77.2514471,
        "tags": {
          "amenity": "atm",
          "brand": "State Bank of India",
          "brand:en": "State Bank of India",
          "brand:short": "SBI",
          "brand:wikidata": "Q1340361",
          "currency:INR": "yes",
          "drive_through": "no",
          "indoor": "yes",
          "level": "1",
          "note": "Contributors are requested to not edit the \"brand\", \"brand:en\", \"brand:wikidata\", \"operator\", \"operator:en\" and \"operator:wikidata\" tags. (2025/02/19)",
          "opening_hours": "24/7",
          "operator": "State Bank of India",
          "operator:en": "State Bank of India",
          "operator:wikidata": "Q1340361",
          "short_name": "SBI"
        }
      },
      {
        "type": "node",
        "id": 6115749181,
        "lat": 28.5486429,
        "lon": 77.2516738,
        "tags": {
          "amenity": "bank",
          "branch": "Nehru Place",
          "brand": "Bank of Baroda",
          "brand:wikidata": "Q2003797",
          "name": "Bank of Baroda",
          "opening_hours": "Mo-Sa 10:00-16:00; Sa[2,4] closed"
        }
      },
      {
        "type": "node",
        "id": 6115749665,
        "lat": 28.5422141,
        "lon": 77.2530021,
        "tags": {
          "amenity": "atm",
          "brand": "ICICI Bank",
          "brand:en": "ICICI Bank",
          "brand:wikidata": "Q1653258",
          "currency:INR": "yes",
          "drive_through": "no",
          "indoor": "yes",
          "note": "Contributors are requested to not edit the \"brand\", \"brand:en\", \"brand:wikidata\", \"operator\", \"operator:en\" and \"operator:wikidata\" tags. (2025/02/19)",
          "opening_hours": "24/7",
          "operator": "ICICI Bank",
          "operator:en": "ICICI Bank",
          "operator:wikidata": "Q1653258",
          "short_name": "ICICI"
        }
      },
      {
        "type": "node",
        "id": 6275719371,
        "lat": 28.5421614,
        "lon": 77.2542059,
        "tags": {
          "amenity": "atm",
          "brand": "IndusInd Bank",
          "brand:wikidata": "Q2040323",
          "opening_hours": "24/7",
          "operator": "IndusInd Bank",
          "operator:wikidata": "Q2040323",
          "wheelchair": "no"
        }
      },
      {
        "type": "node",
        "id": 6351880328,
        "lat": 28.5440197,
        "lon": 77.2513751,
        "tags": {
          "amenity": "bank",
          "atm": "no",
          "brand": "HDFC Bank",
          "brand:wikidata": "Q631047",
          "name": "HDFC Bank",
          "short_name": "HDFC"
        }
      },
      {
        "type": "node",
        "id": 6351880330,
        "lat": 28.5440559,
        "lon": 77.2513524,
        "tags": {
          "amenity": "atm",
          "brand": "HDFC Bank",
          "brand:en": "HDFC Bank",
          "brand:wikidata": "Q631047",
          "currency:INR": "yes",
          "drive_through": "no",
          "indoor": "yes",
          "note": "Contributors are requested to not edit the \"brand\", \"brand:en\", \"brand:wikidata\", \"operator\", \"operator:en\" and \"operator:wikidata\" tags. (2025/02/19)",
          "opening_hours": "24/7",
          "operator": "HDFC Bank",
          "operator:en": "HDFC Bank",
          "operator:wikidata": "Q631047",
          "short_name": "HDFC"
        }
      },
      {
        "type": "node",
        "id": 6403497366,
        "lat": 28.5497267,
        "lon": 77.2503461,
        "tags": {
          "amenity": "restaurant",
          "diet:vegetarian": "yes",
          "drink:alcohol": "served",
          "name": "Sandoz"
        }
      },
      {
        "type": "node",
        "id": 6403500830,
        "lat": 28.5513144,
        "lon": 77.2516633,
        "tags": {
          "amenity": "atm",
          "brand": "Citibank",
          "brand:wikidata": "Q857063",
          "level": "0",
          "operator": "Citibank",
          "operator:wikidata": "Q857063",
          "short_name": "Citi"
        }
      },
      {
        "type": "node",
        "id": 6403500831,
        "lat": 28.5513772,
        "lon": 77.2516676,
        "tags": {
          "alcohol": "yes",
          "amenity": "restaurant",
          "brand": "Nando's",
          "brand:wikidata": "Q3472954",
          "cuisine": "chicken;portuguese",
          "level": "0",
          "name": "Nando's",
          "opening_hours": "Mo-Su 11:30-23:45"
        }
      },
      {
        "type": "node",
        "id": 6403500833,
        "lat": 28.5514625,
        "lon": 77.2516742,
        "tags": {
          "amenity": "restaurant",
          "cuisine": "north_indian",
          "name": "Dhaba"
        }
      },
      {
        "type": "node",
        "id": 6403500835,
        "lat": 28.5513268,
        "lon": 77.2518752,
        "tags": {
          "amenity": "cafe",
          "brand": "Chaayos",
          "brand:wikidata": "Q117235235",
          "check_date": "2025-08-18",
          "cuisine": "tea",
          "diet:vegan": "yes",
          "level": "0",
          "name": "Chaayos",
          "takeaway": "yes"
        }
      },
      {
        "type": "node",
        "id": 6403528198,
        "lat": 28.5514625,
        "lon": 77.2519617,
        "tags": {
          "alcohol": "yes",
          "amenity": "restaurant",
          "cuisine": "japanese",
          "drink:sake": "yes",
          "level": "0",
          "name": "Yuzu"
        }
      },
      {
        "type": "node",
        "id": 6403528199,
        "lat": 28.5514607,
        "lon": 77.251537,
        "tags": {
          "amenity": "cafe",
          "level": "0",
          "name": "United Coffee House"
        }
      },
      {
        "type": "node",
        "id": 6403528201,
        "lat": 28.5514558,
        "lon": 77.2514485,
        "tags": {
          "alcohol": "yes",
          "amenity": "restaurant",
          "level": "0",
          "name": "Nehru Place Social"
        }
      },
      {
        "type": "node",
        "id": 6416175685,
        "lat": 28.5481958,
        "lon": 77.2412278,
        "tags": {
          "amenity": "atm",
          "brand": "HSBC",
          "brand:wikidata": "Q190464",
          "operator": "HSBC",
          "operator:wikidata": "Q190464"
        }
      },
      {
        "type": "node",
        "id": 6458623082,
        "lat": 28.5422098,
        "lon": 77.2532333,
        "tags": {
          "amenity": "pharmacy",
          "brand": "Apollo Pharmacy",
          "brand:wikidata": "Q62562612",
          "healthcare": "pharmacy",
          "name": "Apollo Pharmacy",
          "wheelchair": "no"
        }
      },
      {
        "type": "node",
        "id": 6458625086,
        "lat": 28.5422366,
        "lon": 77.2531203,
        "tags": {
          "amenity": "pharmacy",
          "delivery": "yes",
          "name": "Krishna Medicos",
          "operator": "Just Relief",
          "phone": "+91-98189-20410;+91-11-4100-2560",
          "wheelchair": "no"
        }
      },
      {
        "type": "node",
        "id": 6459196260,
        "lat": 28.5420974,
        "lon": 77.2534301,
        "tags": {
          "addr:housenumber": "F-4",
          "addr:place": "Kalkaji",
          "addr:postcode": "110019",
          "alt_name": "Kentucky Fried Chicken",
          "alt_name:en": "Kentucky Fried Chicken",
          "alt_name:hi": "\u0915\u0947\u0902\u091f\u0941\u0915\u0940 \u092b\u094d\u0930\u093e\u0907\u0921 \u091a\u093f\u0915\u0928",
          "alt_name:pa": "\u0a15\u0a48\u0a02\u0a1f\u0a41\u0a15\u0a40 \u0a2b\u0a4d\u0a30\u0a3e\u0a08\u0a21 \u0a1a\u0a3f\u0a15\u0a28",
          "alt_name:pnb": "\u06a9\u06cc\u0646\u0679\u06a9\u06cc \u0641\u0631\u0627\u0626\u06cc\u0688 \u0686\u06a9\u0646",
          "alt_name:ur": "\u06a9\u06cc\u0646\u0679\u06a9\u06cc \u0641\u0631\u0627\u0626\u06cc\u0688 \u0686\u06a9\u0646",
          "amenity": "fast_food",
          "brand": "KFC",
          "brand:en": "KFC",
          "brand:hi": "\u0915\u0947\u090f\u092b\u0938\u0940",
          "brand:pa": "\u0a15\u0a47\u0a10\u0a2b\u0a38\u0a40",
          "brand:pnb": "\u06a9\u06d2 \u0627\u06cc\u0641 \u0633\u06cc",
          "brand:ur": "\u06a9\u06d2 \u0627\u06cc\u0641 \u0633\u06cc",
          "brand:wikidata": "Q524757",
          "brand:wikipedia": "en:KFC",
          "brand:wikipedia:pa": "\u0a15\u0a47\u0a10\u0a2b\u0a38\u0a40",
          "brand:wikipedia:ur": "\u06a9\u06cc\u0646\u0679\u06a9\u06cc \u0641\u0631\u0627\u0626\u06cc\u0688 \u0686\u06a9\u0646",
          "cuisine": "chicken",
          "level": "1",
          "name": "KFC",
          "name:en": "KFC",
          "name:hi": "\u0915\u0947\u090f\u092b\u0938\u0940",
          "name:pa": "\u0a15\u0a47\u0a10\u0a2b\u0a38\u0a40",
          "name:pnb": "\u06a9\u06d2 \u0627\u06cc\u0641 \u0633\u06cc",
          "name:ur": "\u06a9\u06d2 \u0627\u06cc\u0641 \u0633\u06cc",
          "opening_hours": "Mo-Su 11:00-23:00",
          "operator": "Sapphire Foods",
          "takeaway": "yes"
        }
      },
      {
        "type": "node",
        "id": 6535485502,
        "lat": 28.5472818,
        "lon": 77.2444724,
        "tags": {
          "amenity": "restaurant",
          "cuisine": "indian",
          "internet_access": "wlan",
          "name": "Nimtho",
          "name:en": "Nimtho",
          "name:fr": "Nimtho"
        }
      },
      {
        "type": "node",
        "id": 6544857030,
        "lat": 28.5421857,
        "lon": 77.2529083,
        "tags": {
          "contact:phone": "+91-11-4912-3949",
          "contact:whatsapp": "+91-97332-74620",
          "delivery": "yes",
          "level": "-0.5",
          "name": "Munafa Mart",
          "opening_hours": "Mo-Su 08:00-23:00",
          "shop": "supermarket",
          "wheelchair": "no"
        }
      },
      {
        "type": "node",
        "id": 6562190974,
        "lat": 28.5438131,
        "lon": 77.2509622,
        "tags": {
          "addr:housenumber": "A-113",
          "addr:place": "Kalkaji",
          "addr:postcode": "110049",
          "addr:street": "Kanshiram Takkar Marg",
          "amenity": "fast_food",
          "name": "34, Chowringhee Lane"
        }
      },
      {
        "type": "node",
        "id": 6563093637,
        "lat": 28.5491511,
        "lon": 77.2589454,
        "tags": {
          "amenity": "atm"
        }
      },
      {
        "type": "node",
        "id": 6795202891,
        "lat": 28.5442403,
        "lon": 77.2510224,
        "tags": {
          "amenity": "restaurant",
          "name": "Curry House",
          "name:en": "Muradabadi Curry"
        }
      },
      {
        "type": "node",
        "id": 6795214385,
        "lat": 28.5443046,
        "lon": 77.2512173,
        "tags": {
          "amenity": "restaurant",
          "name": "Bikaneri Sweets"
        }
      },
      {
        "type": "node",
        "id": 6795214386,
        "lat": 28.5438807,
        "lon": 77.2511713,
        "tags": {
          "amenity": "fast_food",
          "contact:instagram": "olddelhikitchen",
          "contact:phone": "+91-93117-90300",
          "contact:website": "https://olddelhikitchen.com",
          "cuisine": "mughlai",
          "name": "Old Delhi Kitchen"
        }
      },
      {
        "type": "node",
        "id": 6799103995,
        "lat": 28.5513314,
        "lon": 77.2521109,
        "tags": {
          "amenity": "cafe",
          "brand": "Starbucks",
          "brand:pa": "\u0a38\u0a1f\u0a3e\u0a30\u0a2c\u0a15\u0a38",
          "brand:ur": "\u0627\u0633\u0679\u0627\u0631\u0628\u06a9\u0633",
          "brand:wikidata": "Q37158",
          "brand:wikipedia": "en:Starbucks",
          "cuisine": "coffee_shop",
          "name": "Starbucks",
          "name:pa": "\u0a38\u0a1f\u0a3e\u0a30\u0a2c\u0a15\u0a38",
          "name:ur": "\u0627\u0633\u0679\u0627\u0631\u0628\u06a9\u0633",
          "official_name": "Starbucks Coffee",
          "official_name:pa": "\u0a38\u0a1f\u0a3e\u0a30\u0a2c\u0a15\u0a38 \u0a15\u0a4c\u0a2b\u0a40",
          "official_name:ur": "\u0627\u0633\u0679\u0627\u0631\u0628\u06a9\u0633 \u06a9\u0627\u0641\u06cc",
          "opening_hours": "Mo-Su 08:30-00:30",
          "takeaway": "yes"
        }
      },
      {
        "type": "node",
        "id": 6812471481,
        "lat": 28.552562,
        "lon": 77.24204,
        "tags": {
          "amenity": "restaurant",
          "level": "0",
          "name": "Green Chick Shop"
        }
      },
      {
        "type": "node",
        "id": 6817346146,
        "lat": 28.5494945,
        "lon": 77.2506119,
        "tags": {
          "amenity": "atm",
          "brand": "HDFC Bank",
          "brand:en": "HDFC Bank",
          "brand:wikidata": "Q631047",
          "check_date": "2023-05-28",
          "currency:INR": "yes",
          "drive_through": "no",
          "indoor": "yes",
          "level": "0",
          "note": "Contributors are requested to not edit the \"brand\", \"brand:en\", \"brand:wikidata\", \"operator\", \"operator:en\" and \"operator:wikidata\" tags. (2025/02/19)",
          "opening_hours": "24/7",
          "operator": "HDFC Bank",
          "operator:en": "HDFC Bank",
          "operator:wikidata": "Q631047",
          "short_name": "HDFC",
          "wheelchair": "no"
        }
      },
      {
        "type": "node",
        "id": 6817346151,
        "lat": 28.5498888,
        "lon": 77.2511493,
        "tags": {
          "air_conditioning": "yes",
          "amenity": "fast_food",
          "brand": "Domino's",
          "brand:ks": "\u0688\u0648\u0645\u06cc\u0646\u0648\u0632",
          "brand:pa": "\u0a21\u0a4b\u0a2e\u0a40\u0a28\u0a4b\u0a1c\u0a3c",
          "brand:ur": "\u0688\u0648\u0645\u06cc\u0646\u0648\u0632",
          "brand:wikidata": "Q839466",
          "brand:wikipedia": "en:Domino's Pizza",
          "check_date": "2024-05-19",
          "cuisine": "pizza",
          "delivery": "yes",
          "diet:chicken": "yes",
          "diet:halal": "yes",
          "diet:meat": "yes",
          "diet:non-vegetarian": "yes",
          "diet:vegetarian": "yes",
          "drive_through": "no",
          "internet_access": "no",
          "name": "Domino's",
          "name:ks": "\u0688\u0648\u0645\u06cc\u0646\u0648\u0632",
          "name:pa": "\u0a21\u0a4b\u0a2e\u0a40\u0a28\u0a4b\u0a1c\u0a3c",
          "name:ur": "\u0688\u0648\u0645\u06cc\u0646\u0648\u0632",
          "opening_hours": "Mo-Su,PH 11:00-23:00",
          "outdoor_seating": "no",
          "payment:cash": "yes",
          "payment:credit_cards": "yes",
          "payment:debit_cards": "yes",
          "smoking": "no",
          "takeaway": "yes",
          "wheelchair": "limited"
        }
      },
      {
        "type": "node",
        "id": 6817346160,
        "lat": 28.5498716,
        "lon": 77.2510781,
        "tags": {
          "air_conditioning": "yes",
          "amenity": "restaurant",
          "bar": "no",
          "brand": "Pizza Hut",
          "brand:wikidata": "Q191615",
          "brewery": "no",
          "changing_table": "no",
          "check_date": "2024-05-19",
          "contact:phone": "+91-11-3988-3988",
          "cuisine": "pizza",
          "diet:chicken": "yes",
          "diet:fish": "yes",
          "diet:halal": "yes",
          "diet:meat": "yes",
          "diet:non-vegetarian": "yes",
          "diet:omnivore": "yes",
          "diet:seafood": "yes",
          "diet:vegetarian": "yes",
          "highchair": "no",
          "internet_access": "no",
          "level": "0",
          "name": "Pizza Hut",
          "operator": "Devyani International Limited",
          "outdoor_seating": "no",
          "payment:cash": "yes",
          "payment:credit_cards": "yes",
          "payment:debit_cards": "yes",
          "reservation": "no",
          "smoking": "no",
          "tables": "12",
          "toilets": "no",
          "toilets:wheelchair": "no",
          "wheelchair": "no"
        }
      },
      {
        "type": "node",
        "id": 6817346165,
        "lat": 28.5494823,
        "lon": 77.2505878,
        "tags": {
          "amenity": "bank",
          "atm": "yes",
          "branch": "Nehru Place",
          "brand": "HDFC Bank",
          "brand:wikidata": "Q631047",
          "level": "0",
          "name": "HDFC Bank",
          "opening_hours": "Mo-Sa 09:30-15:30, Sa[2,4] off",
          "short_name": "HDFC",
          "wheelchair": "no"
        }
      },
      {
        "type": "node",
        "id": 6881897396,
        "lat": 28.5479695,
        "lon": 77.254282,
        "tags": {
          "amenity": "atm",
          "branch": "Nehru Place",
          "brand": "IDFC First Bank",
          "brand:wikidata": "Q22031467",
          "level": "0",
          "opening_hours": "24/7",
          "operator": "IDFC First Bank",
          "operator:wikidata": "Q22031467",
          "wheelchair": "no"
        }
      },
      {
        "type": "node",
        "id": 6881897407,
        "lat": 28.5478478,
        "lon": 77.2539139,
        "tags": {
          "amenity": "bank",
          "atm": "yes",
          "branch": "Nehru Place",
          "brand": "Oriental Bank of Commerce",
          "level": "0"
        }
      },
      {
        "type": "node",
        "id": 6881897423,
        "lat": 28.5479254,
        "lon": 77.2541397,
        "tags": {
          "amenity": "bank",
          "atm": "yes",
          "branch": "Nehru Place",
          "brand": "Federal Bank",
          "brand:wikidata": "Q2044983",
          "name": "Federal Bank"
        }
      },
      {
        "type": "node",
        "id": 6881897431,
        "lat": 28.5479637,
        "lon": 77.2542575,
        "tags": {
          "amenity": "bank",
          "branch": "Nehru Place",
          "brand": "IDFC First Bank",
          "brand:wikidata": "Q22031467",
          "level": "0",
          "name": "IDFC First Bank"
        }
      },
      {
        "type": "node",
        "id": 6929384385,
        "lat": 28.5469986,
        "lon": 77.2537901,
        "tags": {
          "amenity": "restaurant",
          "name": "Blue Parrott Cafe"
        }
      },
      {
        "type": "node",
        "id": 6966567735,
        "lat": 28.5543097,
        "lon": 77.2428971,
        "tags": {
          "check_date": "2024-11-14",
          "name": "Modern Bazar",
          "payment:cash": "yes",
          "payment:credit_cards": "yes",
          "payment:debit_cards": "yes",
          "shop": "supermarket",
          "wheelchair": "no"
        }
      },
      {
        "type": "node",
        "id": 6966575644,
        "lat": 28.5416245,
        "lon": 77.2482783,
        "tags": {
          "amenity": "bank",
          "atm": "yes",
          "branch": "Chittaranjan Park",
          "brand": "Oriental Bank of Commerce"
        }
      },
      {
        "type": "node",
        "id": 7021408976,
        "lat": 28.5481604,
        "lon": 77.2511816,
        "tags": {
          "amenity": "bank",
          "atm": "yes",
          "branch": "Nehru Place",
          "brand": "Indian Bank",
          "brand:wikidata": "Q2003789",
          "level": "0",
          "name": "Indian Bank"
        }
      },
      {
        "type": "node",
        "id": 7021408983,
        "lat": 28.5483497,
        "lon": 77.2515155,
        "tags": {
          "addr:full": "1-2/70 The Great Estern Centre Nehru Place 110019",
          "air_conditioning": "yes",
          "amenity": "fast_food",
          "contact:mobile": "+91 99587 62431;+91 98917 82482",
          "contact:website": "www.sonasweets.in",
          "cuisine": "chaat;south_indian",
          "drive_through": "yes",
          "indoor_seating": "yes",
          "level": "0",
          "name": "Sona",
          "opening_hours": "Mo-Su 11:00-22:00",
          "takeaway": "yes",
          "toilets": "no"
        }
      },
      {
        "type": "node",
        "id": 7021447890,
        "lat": 28.5481225,
        "lon": 77.2510734,
        "tags": {
          "amenity": "restaurant",
          "level": "1",
          "name": "Only Bar",
          "wheelchair": "no"
        }
      },
      {
        "type": "node",
        "id": 7040580433,
        "lat": 28.5413983,
        "lon": 77.2486219,
        "tags": {
          "amenity": "bank",
          "atm": "yes",
          "brand": "Oriental Bank of Commerce"
        }
      },
      {
        "type": "node",
        "id": 7066525227,
        "lat": 28.5428844,
        "lon": 77.2523787,
        "tags": {
          "amenity": "fast_food",
          "contact:phone": "+91 73036 71300;+91 73036 72300",
          "diet:vegetarian": "yes",
          "image:menu": "6f3716bc-d766-4fca-addc-fb110212f0fe",
          "image:menu:0": "875cdd5d-3de0-44f2-b599-85bb33b93016",
          "image:menu:1": "8c9c4861-803c-4284-b754-ce629c3d7921",
          "level": "0",
          "name": "La Pino'z Pizza",
          "wheelchair": "no"
        }
      },
      {
        "type": "node",
        "id": 7116250478,
        "lat": 28.5515214,
        "lon": 77.246076,
        "tags": {
          "amenity": "clinic",
          "name": "Sareen Hair Clinic"
        }
      },
      {
        "type": "node",
        "id": 7138632202,
        "lat": 28.5500671,
        "lon": 77.2440346,
        "tags": {
          "addr:district": "South East",
          "addr:full": "E60-62, Block E, Hansraj Gupta Rd, GK I",
          "addr:postcode": "110048",
          "addr:state": "Delhi",
          "amenity": "hospital",
          "contact:phone": "011 4686 3800",
          "name": "Phoenix Hopsital",
          "source": "OpenGovernmentData"
        }
      },
      {
        "type": "node",
        "id": 7544955479,
        "lat": 28.5497143,
        "lon": 77.2397747,
        "tags": {
          "addr:district": "South East Delhi",
          "addr:full": "C-96, Greater Kailash Part-1",
          "addr:postcode": "110048",
          "addr:state": "Delhi",
          "amenity": "clinic",
          "name": "Mokksh Clinic",
          "source": "Local Knowledge"
        }
      },
      {
        "type": "node",
        "id": 7831456512,
        "lat": 28.5552759,
        "lon": 77.2423659,
        "tags": {
          "air_conditioning": "yes",
          "amenity": "cafe",
          "brand": "Cafe Coffee Day",
          "brand:wikidata": "Q5017235",
          "check_date": "2024-11-12",
          "cuisine": "coffee_shop",
          "level": "0",
          "name": "Cafe Coffee Day",
          "takeaway": "yes",
          "wheelchair": "no"
        }
      },
      {
        "type": "node",
        "id": 8943610674,
        "lat": 28.5526305,
        "lon": 77.2420944,
        "tags": {
          "amenity": "bank",
          "branch": "Kailash Colony",
          "brand": "Punjab National Bank",
          "brand:wikidata": "Q2743499",
          "name": "Punjab National Bank"
        }
      },
      {
        "type": "node",
        "id": 8943610675,
        "lat": 28.5526379,
        "lon": 77.2412059,
        "tags": {
          "amenity": "fast_food",
          "contact:phone": "+91 11 2923 3311;+91 29243311;+91 41433311",
          "name": "Anupama Sweets",
          "shop": "confectionery"
        }
      },
      {
        "type": "node",
        "id": 8943610678,
        "lat": 28.5525647,
        "lon": 77.2419931,
        "tags": {
          "addr:housenumber": "HS-6",
          "addr:place": "Kailash Colony Market",
          "amenity": "pharmacy",
          "contact:phone": "+91 11 4173 1084;+91 11 2924 5904;+91-99535-86583",
          "healthcare": "pharmacy",
          "name": "Globe Medicos"
        }
      },
      {
        "type": "node",
        "id": 9502029145,
        "lat": 28.5533532,
        "lon": 77.2406799,
        "tags": {
          "amenity": "restaurant",
          "cuisine": "kebab",
          "diet:non-vegetarian": "yes",
          "name": "Relax Restaurant",
          "note": "Location is approximate"
        }
      },
      {
        "type": "node",
        "id": 9502048348,
        "lat": 28.5538041,
        "lon": 77.2410015,
        "tags": {
          "amenity": "bank",
          "atm": "yes",
          "branch": "Kailash Colony",
          "brand": "ICICI Bank",
          "brand:wikidata": "Q1653258",
          "name": "ICICI Bank",
          "short_name": "ICICI"
        }
      },
      {
        "type": "node",
        "id": 9938798412,
        "lat": 28.5476601,
        "lon": 77.2464008,
        "tags": {
          "amenity": "clinic",
          "branch": "Chirag Enclave",
          "healthcare": "clinic",
          "name": "Aam Aadmi Mohalla Clinic"
        }
      },
      {
        "type": "node",
        "id": 10262580371,
        "lat": 28.5534008,
        "lon": 77.2563793,
        "tags": {
          "access": "yes",
          "leisure": "playground"
        }
      },
      {
        "type": "node",
        "id": 10933890872,
        "lat": 28.5491128,
        "lon": 77.2508918,
        "tags": {
          "addr:buildingname": "Aggarwal Bhawan",
          "addr:postcode": "110019",
          "amenity": "restaurant",
          "name": "Punjabi Khana",
          "phone": "9811153620"
        }
      },
      {
        "type": "node",
        "id": 10933922036,
        "lat": 28.5488466,
        "lon": 77.2528032,
        "tags": {
          "addr:street": "Nehru Place",
          "amenity": "bank",
          "atm": "yes",
          "branch": "Nehru Place",
          "brand": "Central Bank of India",
          "brand:wikidata": "Q2007090",
          "name": "Central Bank of India"
        }
      },
      {
        "type": "node",
        "id": 10933923063,
        "lat": 28.5496897,
        "lon": 77.2507372,
        "tags": {
          "addr:street": "Nehru Place",
          "air_conditioning": "yes",
          "amenity": "bank",
          "atm": "no",
          "branch": "Nehru Place",
          "brand": "Kotak Mahindra Bank",
          "brand:wikidata": "Q2040404",
          "check_date": "2024-05-19",
          "currency:INR": "yes",
          "drive_through": "no",
          "internet_access": "no",
          "name": "Kotak Mahindra Bank",
          "name:en": "Kotak Mahindra Bank"
        }
      },
      {
        "type": "node",
        "id": 10933923174,
        "lat": 28.548526,
        "lon": 77.2519522,
        "tags": {
          "amenity": "bank",
          "atm": "yes",
          "branch": "Nehru Place",
          "name": "SVC Co-operative Bank"
        }
      },
      {
        "type": "node",
        "id": 10933936506,
        "lat": 28.5493727,
        "lon": 77.2505184,
        "tags": {
          "addr:buildingname": "Bakshi House",
          "amenity": "bank",
          "atm": "yes",
          "branch": "Nehru Place",
          "brand": "State Bank of India",
          "brand:wikidata": "Q1340361",
          "name": "State Bank of India",
          "short_name": "SBI"
        }
      },
      {
        "type": "node",
        "id": 10933956603,
        "lat": 28.5495304,
        "lon": 77.2507451,
        "tags": {
          "amenity": "bank",
          "atm": "yes",
          "brand": "Kotak Mahindra Bank",
          "brand:wikidata": "Q2040404",
          "check_date": "2024-05-23",
          "drive_through": "no",
          "internet_access": "no",
          "name": "Kotak Mahindra Bank",
          "name:en": "Kotak Mahindra Bank"
        }
      },
      {
        "type": "node",
        "id": 10933972834,
        "lat": 28.5497595,
        "lon": 77.2509754,
        "tags": {
          "air_conditioning": "yes",
          "amenity": "restaurant",
          "bar": "no",
          "brand": "Pizza Hut",
          "brand:wikidata": "Q191615",
          "brewery": "no",
          "changing_table": "no",
          "check_date": "2024-05-19",
          "cuisine": "pizza",
          "diet:chicken": "yes",
          "diet:fish": "yes",
          "diet:halal": "yes",
          "diet:meat": "yes",
          "diet:non-vegetarian": "yes",
          "diet:omnivore": "yes",
          "diet:seafood": "yes",
          "diet:vegetarian": "yes",
          "highchair": "no",
          "internet_access": "no",
          "microbrewery": "no",
          "name": "Pizza Hut",
          "outdoor_seating": "no",
          "payment:cash": "yes",
          "payment:credit_cards": "yes",
          "payment:debit_cards": "yes",
          "reservation": "no",
          "smoking": "no",
          "takeaway": "yes",
          "toilets": "no",
          "toilets:wheelchair": "no",
          "wheelchair": "no"
        }
      },
      {
        "type": "node",
        "id": 10934177147,
        "lat": 28.5490934,
        "lon": 77.2508412,
        "tags": {
          "addr:city": "New Delhi",
          "addr:housename": "Aggarwal Bhawan",
          "addr:housenumber": "35;36",
          "addr:postcode": "110019",
          "addr:street": "Nehru Place Road",
          "addr:suburb": "Nehru Place",
          "addr:unit": "G-4",
          "amenity": "restaurant",
          "contact:mobile": "+91-98111-53620",
          "level": "0"
        }
      },
      {
        "type": "node",
        "id": 10934185993,
        "lat": 28.55017,
        "lon": 77.2567158,
        "tags": {
          "amenity": "fast_food",
          "brand": "Jumbo King",
          "brand:wikidata": "Q6310895",
          "cuisine": "burger",
          "indoor_seating": "yes",
          "level": "0",
          "name": "Jumbo King",
          "takeaway": "yes"
        }
      },
      {
        "type": "node",
        "id": 10934185995,
        "lat": 28.5495704,
        "lon": 77.2593347,
        "tags": {
          "amenity": "fast_food",
          "name": "Food Track"
        }
      },
      {
        "type": "node",
        "id": 11131212713,
        "lat": 28.5535941,
        "lon": 77.242533,
        "tags": {
          "amenity": "atm",
          "brand": "Union Bank of India",
          "brand:wikidata": "Q2004078",
          "name": "Union Bank of India",
          "operator": "Union Bank of India",
          "operator:wikidata": "Q2004078"
        }
      },
      {
        "type": "node",
        "id": 11131967560,
        "lat": 28.5536507,
        "lon": 77.2408191,
        "tags": {
          "amenity": "atm",
          "brand": "Bank of Baroda",
          "brand:wikidata": "Q2003797",
          "level": "0",
          "operator": "Bank of Baroda",
          "operator:wikidata": "Q2003797",
          "wheelchair": "no"
        }
      },
      {
        "type": "node",
        "id": 11131967561,
        "lat": 28.5536609,
        "lon": 77.2408306,
        "tags": {
          "amenity": "bank",
          "branch": "Greater Kailash 1",
          "brand": "Bank of Baroda",
          "brand:wikidata": "Q2003797",
          "level": "0",
          "name": "Bank of Baroda"
        }
      },
      {
        "type": "node",
        "id": 11131967564,
        "lat": 28.5535963,
        "lon": 77.2407387,
        "tags": {
          "amenity": "restaurant",
          "cuisine": "mughlai",
          "level": "0",
          "name": "Saleem's"
        }
      },
      {
        "type": "node",
        "id": 11131967579,
        "lat": 28.5539381,
        "lon": 77.2411272,
        "tags": {
          "amenity": "restaurant",
          "level": "2",
          "name": "Konfidential"
        }
      },
      {
        "type": "node",
        "id": 11219740588,
        "lat": 28.5487919,
        "lon": 77.2535041,
        "tags": {
          "amenity": "atm",
          "brand": "Kotak Mahindra Bank",
          "brand:wikidata": "Q2040404",
          "check_date": "2024-05-19",
          "covered": "yes",
          "indoor": "yes",
          "level": "0",
          "lit": "yes",
          "name": "Kotak Mahindra Bank",
          "name:en": "Kotak Mahindra Bank",
          "operator": "Kotak Mahindra Bank",
          "operator:wikidata": "Q2040404",
          "wheelchair": "yes"
        }
      },
      {
        "type": "node",
        "id": 11219767351,
        "lat": 28.5485501,
        "lon": 77.252913,
        "tags": {
          "amenity": "atm",
          "check_date": "2024-05-19",
          "covered": "yes",
          "currency:INR": "yes",
          "drive_through": "no",
          "indoor": "yes",
          "lit": "yes",
          "name": "Punjab and Sindh Bank",
          "name:en": "Punjab and Sindh Bank"
        }
      },
      {
        "type": "node",
        "id": 11241096705,
        "lat": 28.5513363,
        "lon": 77.2516931,
        "tags": {
          "amenity": "atm",
          "brand": "Axis Bank",
          "brand:wikidata": "Q2003549",
          "level": "1",
          "operator": "Axis Bank",
          "operator:wikidata": "Q2003549"
        }
      },
      {
        "type": "node",
        "id": 11288533007,
        "lat": 28.5504732,
        "lon": 77.2568662,
        "tags": {
          "amenity": "fast_food",
          "name": "Pasta Bowl"
        }
      },
      {
        "type": "node",
        "id": 11288533009,
        "lat": 28.5504439,
        "lon": 77.2568377,
        "tags": {
          "amenity": "fast_food",
          "name": "Onli Eggs"
        }
      },
      {
        "type": "node",
        "id": 11304152239,
        "lat": 28.542225,
        "lon": 77.253804,
        "tags": {
          "amenity": "cafe",
          "name": "Third Wave",
          "payment:credit_cards": "yes",
          "payment:debit_cards": "yes"
        }
      },
      {
        "type": "node",
        "id": 11304153795,
        "lat": 28.5422268,
        "lon": 77.2537368,
        "tags": {
          "amenity": "cafe",
          "name": "Nothing Before Coffee",
          "payment:credit_cards": "yes",
          "payment:debit_cards": "yes"
        }
      },
      {
        "type": "node",
        "id": 11697454682,
        "lat": 28.5490524,
        "lon": 77.2511918,
        "tags": {
          "amenity": "fast_food",
          "cuisine": "biryani"
        }
      },
      {
        "type": "node",
        "id": 11697454684,
        "lat": 28.5488614,
        "lon": 77.2507114,
        "tags": {
          "amenity": "cafe",
          "cuisine": "tea"
        }
      },
      {
        "type": "node",
        "id": 11697454692,
        "lat": 28.5486186,
        "lon": 77.2521934,
        "tags": {
          "amenity": "fast_food",
          "cuisine": "biryani;chinese;north_indian",
          "name": "Snack Junction"
        }
      },
      {
        "type": "node",
        "id": 11697454697,
        "lat": 28.5486538,
        "lon": 77.2523011,
        "tags": {
          "amenity": "fast_food",
          "level": "0",
          "name": "Meena Juice Bar"
        }
      },
      {
        "type": "node",
        "id": 11697454702,
        "lat": 28.5486152,
        "lon": 77.2523289,
        "tags": {
          "amenity": "cafe",
          "cuisine": "coffee"
        }
      },
      {
        "type": "node",
        "id": 11697454704,
        "lat": 28.5499616,
        "lon": 77.2505784,
        "tags": {
          "amenity": "cafe",
          "cuisine": "tea"
        }
      },
      {
        "type": "node",
        "id": 11697454723,
        "lat": 28.5490252,
        "lon": 77.2512096,
        "tags": {
          "amenity": "cafe",
          "cuisine": "tea"
        }
      },
      {
        "type": "node",
        "id": 11704272916,
        "lat": 28.5490202,
        "lon": 77.2519011,
        "tags": {
          "amenity": "fast_food",
          "cuisine": "north_indian"
        }
      },
      {
        "type": "node",
        "id": 11704272917,
        "lat": 28.5490409,
        "lon": 77.2518356,
        "tags": {
          "amenity": "cafe",
          "cuisine": "tea",
          "shop": "tobacco"
        }
      },
      {
        "type": "node",
        "id": 11704272964,
        "lat": 28.5492453,
        "lon": 77.2515707,
        "tags": {
          "air_conditioning": "no",
          "amenity": "cafe",
          "cuisine": "tea",
          "outdoor_seating": "yes",
          "smoking": "yes"
        }
      },
      {
        "type": "node",
        "id": 11704453551,
        "lat": 28.551424,
        "lon": 77.2517065,
        "tags": {
          "amenity": "fast_food",
          "check_date": "2025-08-18",
          "cuisine": "pizza",
          "level": "0",
          "name": "Chicago Pizza"
        }
      },
      {
        "type": "node",
        "id": 11711417998,
        "lat": 28.5490677,
        "lon": 77.2533234,
        "tags": {
          "air_conditioning": "yes",
          "amenity": "restaurant",
          "bar": "no",
          "brewery": "no",
          "changing_table": "no",
          "check_date": "2024-05-19",
          "cuisine": "punjabi;south_indian;chinese",
          "diet:vegetarian": "yes",
          "highchair": "no",
          "internet_access": "no",
          "level": "0",
          "microbrewery": "no",
          "name": "Sona Dhaba",
          "name:en": "Sona Dhaba",
          "name:hi": "\u0938\u094b\u0928\u093e \u0922\u093e\u092c\u093e",
          "opening_hours": "11:00-23:00",
          "outdoor_seating": "no",
          "payment:cash": "yes",
          "payment:credit_cards": "yes",
          "payment:debit_cards": "yes",
          "phone": "+91 99587 62431; +91 98917 82842",
          "self_service": "yes",
          "smoking": "no",
          "toilets": "no",
          "toilets:wheelchair": "no",
          "website": "https://sonasweets.in",
          "wheelchair": "no"
        }
      },
      {
        "type": "node",
        "id": 11726857266,
        "lat": 28.5491579,
        "lon": 77.2532736,
        "tags": {
          "addr:city": "Delhi",
          "amenity": "bank",
          "atm": "yes",
          "brand": "Bandhan Bank",
          "brand:wikidata": "Q19882235",
          "check_date": "2024-03-13",
          "level": "Nehru Place",
          "name": "Bandhan Bank",
          "name:hi": "\u092c\u0928\u094d\u0927\u0928 \u092c\u0948\u0902\u0915",
          "opening_hours": "Mo-Sa 09:30-16:30; Su,Sa[2,4] off",
          "wheelchair": "no"
        }
      },
      {
        "type": "node",
        "id": 11766362694,
        "lat": 28.5507448,
        "lon": 77.2514636,
        "tags": {
          "amenity": "fast_food",
          "cuisine": "litti_chokha",
          "diet:vegetarian": "yes"
        }
      },
      {
        "type": "node",
        "id": 11766362711,
        "lat": 28.5507308,
        "lon": 77.251409,
        "tags": {
          "amenity": "fast_food",
          "contact:mobile": "+91-88265-19113;+91-99991-78410",
          "diet:ovo_vegetarian": "yes",
          "diet:vegetarian": "yes",
          "name": "Laziz Kathi Roll"
        }
      },
      {
        "type": "node",
        "id": 11775278179,
        "lat": 28.5483823,
        "lon": 77.2419692,
        "tags": {
          "amenity": "hospital",
          "name": "Indian Cancer Institute"
        }
      },
      {
        "type": "node",
        "id": 11917659197,
        "lat": 28.5495265,
        "lon": 77.2508121,
        "tags": {
          "amenity": "restaurant",
          "check_date": "2024-05-19",
          "level": "0",
          "name": "Rajshree South Indian Corner"
        }
      },
      {
        "type": "node",
        "id": 11917691935,
        "lat": 28.5490658,
        "lon": 77.250763,
        "tags": {
          "addr:housenumber": "35-46",
          "addr:neighbourhood": "Nehru Place",
          "amenity": "restaurant",
          "check_date": "2024-05-19",
          "level": "0",
          "name": "Masala Bite",
          "wheelchair": "yes"
        }
      },
      {
        "type": "node",
        "id": 11917699015,
        "lat": 28.5491316,
        "lon": 77.2509512,
        "tags": {
          "addr:housenumber": "35",
          "addr:neighbourhood": "Nehru Palace",
          "amenity": "bank",
          "brand": "Bank of Baroda",
          "brand:wikidata": "Q2003797",
          "check_date": "2024-05-19",
          "level": "1",
          "name": "Bank of Baroda"
        }
      },
      {
        "type": "node",
        "id": 11917702396,
        "lat": 28.5499984,
        "lon": 77.2512407,
        "tags": {
          "air_conditioning": "yes",
          "amenity": "restaurant",
          "contact:mobile": "+91-97118-99373",
          "level": "0",
          "name": "Massey's",
          "tables": "3"
        }
      },
      {
        "type": "node",
        "id": 11917709499,
        "lat": 28.5498634,
        "lon": 77.2509881,
        "tags": {
          "air_conditioning": "yes",
          "amenity": "restaurant",
          "bar": "no",
          "brewery": "no",
          "changing_table": "no",
          "check_date": "2024-05-19",
          "cuisine": "japanese",
          "diet:chicken": "yes",
          "diet:fish": "yes",
          "diet:halal": "yes",
          "diet:meat": "yes",
          "diet:non-vegetarian": "yes",
          "diet:omnivore": "yes",
          "diet:seafood": "yes",
          "diet:vegetarian": "yes",
          "highchair": "no",
          "internet_access": "no",
          "microbrewery": "no",
          "name": "Sukiya Tokyo Bowls",
          "outdoor_seating": "no",
          "payment:cash": "yes",
          "payment:credit_cards": "yes",
          "payment:debit_cards": "yes",
          "reservation": "no",
          "smoking": "no",
          "toilets": "no",
          "toilets:wheelchair": "no",
          "wheelchair": "no"
        }
      },
      {
        "type": "node",
        "id": 12162059480,
        "lat": 28.5466731,
        "lon": 77.2508062,
        "tags": {
          "amenity": "bank",
          "branch": "Nehru Place",
          "brand": "Canara Bank",
          "brand:en": "Canara Bank",
          "brand:hi": "\u0915\u0947\u0928\u0930\u093e \u092c\u0948\u0902\u0915",
          "brand:kn": "\u0c95\u0cc6\u0ca8\u0cb0\u0cbe \u0cac\u0ccd\u0caf\u0cbe\u0c82\u0c95\u0ccd",
          "brand:pa": "\u0a15\u0a47\u0a28\u0a30\u0a3e \u0a2c\u0a48\u0a02\u0a15",
          "brand:pnb": "\u06a9\u06cc\u0646\u0631\u0627 \u0628\u06cc\u0646\u06a9",
          "brand:ur": "\u06a9\u06cc\u0646\u0631\u0627 \u0628\u06cc\u0646\u06a9",
          "brand:wikidata": "Q2003777",
          "level": "0",
          "name": "Canara Bank",
          "name:en": "Canara Bank",
          "name:hi": "\u0915\u0947\u0928\u0930\u093e \u092c\u0948\u0902\u0915",
          "name:kn": "\u0c95\u0cc6\u0ca8\u0cb0\u0cbe \u0cac\u0ccd\u0caf\u0cbe\u0c82\u0c95\u0ccd",
          "name:pa": "\u0a15\u0a47\u0a28\u0a30\u0a3e \u0a2c\u0a48\u0a02\u0a15",
          "name:pnb": "\u06a9\u06cc\u0646\u0631\u0627 \u0628\u06cc\u0646\u06a9",
          "name:ur": "\u06a9\u06cc\u0646\u0631\u0627 \u0628\u06cc\u0646\u06a9"
        }
      },
      {
        "type": "node",
        "id": 12334507509,
        "lat": 28.5551516,
        "lon": 77.2432111,
        "tags": {
          "amenity": "restaurant",
          "bar": "no",
          "brand": "California Burrito",
          "brand:wikidata": "Q124374596",
          "check_date": "2024-11-12",
          "cuisine": "mexican",
          "diet:vegetarian": "yes",
          "name": "California Burrito",
          "outdoor_seating": "no",
          "payment:cash": "yes",
          "payment:credit_cards": "yes",
          "payment:debit_cards": "yes",
          "takeaway": "yes",
          "wheelchair": "no"
        }
      },
      {
        "type": "node",
        "id": 12334507511,
        "lat": 28.5552036,
        "lon": 77.2432534,
        "tags": {
          "amenity": "restaurant",
          "check_date": "2024-11-12",
          "cuisine": "indian",
          "diet:vegan": "yes",
          "diet:vegetarian": "yes",
          "name": "Thalairaj Biryani",
          "payment:cash": "yes",
          "payment:credit_cards": "yes",
          "payment:debit_cards": "yes",
          "website": "https://thalairajbiryani.com",
          "wheelchair": "no"
        }
      },
      {
        "type": "node",
        "id": 12344924790,
        "lat": 28.5561119,
        "lon": 77.2435683,
        "tags": {
          "amenity": "bank",
          "atm": "yes",
          "brand": "HDFC Bank",
          "brand:wikidata": "Q631047",
          "check_date": "2024-11-14",
          "name": "HDFC Bank",
          "short_name": "HDFC"
        }
      },
      {
        "type": "node",
        "id": 12799910139,
        "lat": 28.5551261,
        "lon": 77.241898,
        "tags": {
          "amenity": "atm",
          "brand": "Punjab National Bank",
          "brand:wikidata": "Q2743499",
          "level": "0",
          "name": "Punjab National Bank",
          "operator": "Punjab National Bank",
          "operator:wikidata": "Q2743499",
          "wheelchair": "no"
        }
      },
      {
        "type": "node",
        "id": 12800010170,
        "lat": 28.5528953,
        "lon": 77.2422983,
        "tags": {
          "amenity": "restaurant",
          "level": "2;3",
          "name": "Ilios"
        }
      },
      {
        "type": "node",
        "id": 12800054369,
        "lat": 28.5525551,
        "lon": 77.2417967,
        "tags": {
          "air_conditioning": "yes",
          "amenity": "restaurant",
          "bar": "yes",
          "name": "Paparizza",
          "toilets": "yes",
          "wheelchair": "no"
        }
      },
      {
        "type": "node",
        "id": 12800054370,
        "lat": 28.553674,
        "lon": 77.240784,
        "tags": {
          "amenity": "cafe",
          "name": "Gulbano"
        }
      },
      {
        "type": "node",
        "id": 12800054371,
        "lat": 28.5535178,
        "lon": 77.2406644,
        "tags": {
          "amenity": "bank",
          "branch": "Zamroodpur",
          "brand": "Axis Bank",
          "name": "Axis Bank"
        }
      },
      {
        "type": "node",
        "id": 12800054372,
        "lat": 28.553228,
        "lon": 77.2407022,
        "tags": {
          "amenity": "pharmacy",
          "brand": "Apollo Pharmacy",
          "healthcare": "pharmacy",
          "name": "Apollo Pharmacy",
          "operator": "Apollo Hospitals",
          "operator:type": "private",
          "operator:wikidata": "Q4780321",
          "shop": "tyres"
        }
      },
      {
        "type": "node",
        "id": 12800054375,
        "lat": 28.5526618,
        "lon": 77.2411541,
        "tags": {
          "amenity": "restaurant",
          "name": "Shree Nameshwaram"
        }
      },
      {
        "type": "node",
        "id": 12800054376,
        "lat": 28.5536387,
        "lon": 77.240787,
        "tags": {
          "amenity": "cafe",
          "brand": "Caf\u00e9 Amazon",
          "cuisine": "coffee_shop",
          "name": "The Snook House",
          "takeaway": "yes"
        }
      },
      {
        "type": "node",
        "id": 12800054378,
        "lat": 28.5525516,
        "lon": 77.2420265,
        "tags": {
          "amenity": "restaurant",
          "name": "Echoes"
        }
      },
      {
        "type": "node",
        "id": 12800054383,
        "lat": 28.5525241,
        "lon": 77.2419887,
        "tags": {
          "amenity": "pharmacy",
          "healthcare": "pharmacy",
          "name": "Globe Medicoz"
        }
      },
      {
        "type": "node",
        "id": 12800054384,
        "lat": 28.5525519,
        "lon": 77.2414882,
        "tags": {
          "amenity": "restaurant",
          "name": "Cecilia's Pizza"
        }
      },
      {
        "type": "node",
        "id": 12800054386,
        "lat": 28.5525949,
        "lon": 77.241285,
        "tags": {
          "amenity": "restaurant",
          "name": "The Old Delhi"
        }
      },
      {
        "type": "node",
        "id": 12800054387,
        "lat": 28.5525528,
        "lon": 77.2417227,
        "tags": {
          "amenity": "bank",
          "brand": "HDFC Bank",
          "name": "HDFC Bank",
          "operator": "HDFC Bank",
          "operator:wikidata": "Q631047",
          "short_name": "HDFC"
        }
      },
      {
        "type": "node",
        "id": 12800054389,
        "lat": 28.552532,
        "lon": 77.2419995,
        "tags": {
          "amenity": "restaurant",
          "name": "Caeli"
        }
      },
      {
        "type": "node",
        "id": 12800054390,
        "lat": 28.5538821,
        "lon": 77.2411139,
        "tags": {
          "amenity": "restaurant",
          "name": "Zariya",
          "operator": "Dal Samarkand"
        }
      },
      {
        "type": "node",
        "id": 12800054391,
        "lat": 28.5530446,
        "lon": 77.2407778,
        "tags": {
          "amenity": "bank",
          "atm": "yes",
          "branch": "Kailash Colony",
          "brand": "Punjab & Sind Bank",
          "brand:en": "Punjab & Sind Bank",
          "brand:hi": "\u092a\u0902\u091c\u093e\u092c \u090f\u0923\u094d\u0921 \u0938\u093f\u0902\u0927 \u092c\u0948\u0902\u0915",
          "name": "Punjab & Sind Bank",
          "name:en": "Punjab & Sind Bank",
          "name:hi": "\u092a\u0902\u091c\u093e\u092c \u090f\u0923\u094d\u0921 \u0938\u093f\u0902\u0927 \u092c\u0948\u0902\u0915",
          "operator": "Punjab & Sind Bank",
          "operator:wikidata": "Q2003302"
        }
      },
      {
        "type": "node",
        "id": 12800054392,
        "lat": 28.5525421,
        "lon": 77.2416154,
        "tags": {
          "amenity": "fast_food",
          "name": "Bikaner Namkeen Bhandar"
        }
      },
      {
        "type": "node",
        "id": 12800054395,
        "lat": 28.5531289,
        "lon": 77.2407372,
        "tags": {
          "name": "Kwality Departmental Store",
          "shop": "department_store"
        }
      },
      {
        "type": "node",
        "id": 12800077906,
        "lat": 28.5525001,
        "lon": 77.2421461,
        "tags": {
          "amenity": "fast_food",
          "name": "Chole Bhature Corner"
        }
      },
      {
        "type": "node",
        "id": 12800077908,
        "lat": 28.5535358,
        "lon": 77.2406791,
        "tags": {
          "amenity": "restaurant",
          "name": "Call Chotu"
        }
      },
      {
        "type": "node",
        "id": 12920687056,
        "lat": 28.550276,
        "lon": 77.2570275,
        "tags": {
          "amenity": "fast_food",
          "level": "1",
          "name": "Munch With Ava"
        }
      },
      {
        "type": "node",
        "id": 12920687057,
        "lat": 28.55014,
        "lon": 77.2567375,
        "tags": {
          "amenity": "fast_food",
          "cuisine": "momo;burger;vadapav",
          "indoor_seating": "yes",
          "level": "0",
          "name": "GV Vadapav"
        }
      },
      {
        "type": "node",
        "id": 12920687061,
        "lat": 28.5503286,
        "lon": 77.2569957,
        "tags": {
          "amenity": "fast_food",
          "level": "1",
          "name": "Food on the Go"
        }
      },
      {
        "type": "node",
        "id": 12920687063,
        "lat": 28.550381,
        "lon": 77.2569732,
        "tags": {
          "amenity": "fast_food",
          "cuisine": "pizza;burger;shake",
          "level": "1",
          "name": "Bistro 57"
        }
      },
      {
        "type": "node",
        "id": 13078233159,
        "lat": 28.5514204,
        "lon": 77.2517961,
        "tags": {
          "alt_name": "Dunkin' Donuts",
          "amenity": "fast_food",
          "brand": "Dunkin'",
          "cuisine": "donut;coffee_shop",
          "level": "0",
          "name": "Dunkin'",
          "takeaway": "yes"
        }
      }
    ]
  },
  "pois_2_5km": {
    "version": 0.6,
    "generator": "Overpass API 0.7.62.8 e802775f",
    "osm3s": {
      "timestamp_osm_base": "2025-09-06T07:08:27Z",
      "copyright": "The data included in this document is from www.openstreetmap.org. The data is made available under ODbL."
    },
    "elements": [
      {
        "type": "node",
        "id": 278163929,
        "lat": 28.5649694,
        "lon": 77.2427916,
        "tags": {
          "bus": "yes",
          "name": "Lajpat Nagar",
          "public_transport": "stop_position"
        }
      },
      {
        "type": "node",
        "id": 495944525,
        "lat": 28.5499722,
        "lon": 77.250948,
        "tags": {
          "air_conditioning": "yes",
          "amenity": "cinema",
          "check_date": "2024-05-19",
          "internet_access": "no",
          "name": "Satyam Cineplex",
          "payment:cash": "yes",
          "payment:credit_cards": "yes",
          "payment:debit_cards": "yes",
          "payment:mastercard": "yes",
          "payment:notes": "yes",
          "payment:visa": "yes",
          "wheelchair": "no"
        }
      },
      {
        "type": "node",
        "id": 562620810,
        "lat": 28.5644043,
        "lon": 77.2342783,
        "tags": {
          "name": "Moolchand",
          "name:hi": "\u092e\u0942\u0932\u091a\u0902\u0926",
          "network": "Delhi Metro",
          "note": "Contributors are requested to not edit the \"network\" and the \"operator\" tags. (2023/06/23)",
          "operator": "Delhi Metro Rail Corporation Limited",
          "public_transport": "stop_position",
          "subway": "yes"
        }
      },
      {
        "type": "node",
        "id": 786590765,
        "lat": 28.5490758,
        "lon": 77.2501351,
        "tags": {
          "amenity": "fuel",
          "brand": "Hindustan Petroleum",
          "brand:wikidata": "Q1619375",
          "name": "HP",
          "official_name": "Hindustan Petroleum"
        }
      },
      {
        "type": "node",
        "id": 786590792,
        "lat": 28.5503785,
        "lon": 77.2478224,
        "tags": {
          "amenity": "fuel",
          "brand": "Bharat Petroleum",
          "level": "0",
          "name": "In & Out",
          "shop": "convenience",
          "toilets": "yes"
        }
      },
      {
        "type": "node",
        "id": 910356583,
        "lat": 28.5594753,
        "lon": 77.2656232,
        "tags": {
          "internet_access": "no",
          "name": "Okhla",
          "name:ur": "\u0627\u0648\u06a9\u06be\u0644\u0627",
          "network": "IR",
          "operator": "NR",
          "public_transport": "station",
          "railway": "station",
          "ref": "OKA",
          "train": "yes",
          "wikidata": "Q24949163"
        }
      },
      {
        "type": "node",
        "id": 910664844,
        "lat": 28.5452347,
        "lon": 77.2505647,
        "tags": {
          "public_transport": "stop_position",
          "share_taxi": "yes"
        }
      },
      {
        "type": "node",
        "id": 927873461,
        "lat": 28.5443766,
        "lon": 77.264266,
        "tags": {
          "name": "Govind Puri",
          "name:hi": "\u0917\u094b\u0935\u093f\u0902\u0926 \u092a\u0941\u0930\u0940",
          "network": "Delhi Metro",
          "note": "Contributors are requested to not edit the \"network\" and the \"operator\" tags. (2023/06/23)",
          "operator": "Delhi Metro Rail Corporation Limited",
          "public_transport": "stop_position",
          "subway": "yes"
        }
      },
      {
        "type": "node",
        "id": 927873489,
        "lat": 28.5553442,
        "lon": 77.241984,
        "tags": {
          "name": "Kailash Colony",
          "name:hi": "\u0915\u0948\u0932\u093e\u0936 \u0915\u0949\u0932\u094b\u0928\u0940",
          "network": "Delhi Metro",
          "note": "Contributors are requested to not edit the \"network\" and the \"operator\" tags. (2023/06/22)",
          "operator": "Delhi Metro Rail Corporation Limited",
          "public_transport": "stop_position",
          "railway": "stop",
          "subway": "yes"
        }
      },
      {
        "type": "node",
        "id": 927873510,
        "lat": 28.5494785,
        "lon": 77.25909,
        "tags": {
          "name": "Kalkaji Mandir",
          "name:hi": "\u0915\u093e\u0932\u0915\u093e\u091c\u0940 \u092e\u0902\u0926\u093f\u0930",
          "name:ur": "\u06a9\u0627\u0644\u06a9\u0627\u062c\u06cc \u0645\u0646\u062f\u0631",
          "network": "Delhi Metro",
          "note": "Contributors are requested to not edit the \"network\" and the \"operator\" tags. (2023/06/22)",
          "operator": "Delhi Metro Rail Corporation Limited",
          "public_transport": "station",
          "railway": "station",
          "ref": "KJMD",
          "station": "subway",
          "subway": "yes",
          "wheelchair": "yes",
          "wikidata": "Q6353342",
          "wikipedia": "en:Kalkaji Mandir metro station"
        }
      },
      {
        "type": "node",
        "id": 1135153141,
        "lat": 28.5514411,
        "lon": 77.2517393,
        "tags": {
          "name": "Nehru Place",
          "name:hi": "\u0928\u0947\u0939\u0930\u0942 \u092a\u094d\u0932\u0947\u0938",
          "network": "Delhi Metro",
          "note": "Contributors are requested to not edit the \"network\" and the \"operator\" tags. (2023/06/22)",
          "operator": "Delhi Metro Rail Corporation Limited",
          "public_transport": "stop_position",
          "railway": "stop",
          "subway": "yes"
        }
      },
      {
        "type": "node",
        "id": 1387004898,
        "lat": 28.568231,
        "lon": 77.253059,
        "tags": {
          "amenity": "fuel",
          "brand": "Indian Oil",
          "brand:wikidata": "Q1289348",
          "brand:wikipedia": "en:Indian Oil Corporation",
          "name": "Indian oil"
        }
      },
      {
        "type": "node",
        "id": 2084482683,
        "lat": 28.5632467,
        "lon": 77.2647429,
        "tags": {
          "amenity": "fuel",
          "brand": "Bharat Petroleum",
          "brand:wikidata": "Q854826",
          "fuel:cng": "yes",
          "fuel:octane_98": "yes",
          "name": "Bharat Petroleum",
          "opening_hours": "24/7"
        }
      },
      {
        "type": "node",
        "id": 2832938174,
        "lat": 28.5460369,
        "lon": 77.251518,
        "tags": {
          "name": "Nehru Enclave",
          "network": "Delhi Metro",
          "note": "Contributors are requested to not edit the \"network\" and the \"operator\" tags. (2023/06/23)",
          "operator": "Delhi Metro Rail Corporation Limited",
          "public_transport": "stop_position",
          "subway": "yes"
        }
      },
      {
        "type": "node",
        "id": 2832938180,
        "lat": 28.5544871,
        "lon": 77.2647891,
        "tags": {
          "name": "Okhla NSIC",
          "network": "Delhi Metro",
          "note": "Contributors are requested to not edit the \"network\" and the \"operator\" tags. (2023/06/22)",
          "operator": "Delhi Metro Rail Corporation Limited",
          "public_transport": "stop_position",
          "railway": "stop",
          "subway": "yes"
        }
      },
      {
        "type": "node",
        "id": 2833058716,
        "lat": 28.5419077,
        "lon": 77.2384925,
        "tags": {
          "name": "Greater Kailash",
          "name:hi": "\u0917\u094d\u0930\u0947\u091f\u0930 \u0915\u0948\u0932\u093e\u0936 \u0939\u0949\u0938\u094d\u092a\u093f\u091f\u0932",
          "network": "Delhi Metro",
          "note": "Contributors are requested to not edit the \"network\" and the \"operator\" tags. (2023/06/22)",
          "operator": "Delhi Metro Rail Corporation Limited",
          "public_transport": "station",
          "railway": "station",
          "ref": "GKEI",
          "station": "subway",
          "subway": "yes",
          "wikidata": "Q28169988",
          "wikipedia": "en:Greater Kailash metro station"
        }
      },
      {
        "type": "node",
        "id": 2833058719,
        "lat": 28.5503522,
        "lon": 77.2569441,
        "tags": {
          "name": "Kalkaji Mandir",
          "name:hi": "\u0915\u093e\u0932\u0915\u093e\u091c\u0940 \u092e\u0902\u0926\u093f\u0930",
          "name:ur": "\u06a9\u0627\u0644\u06a9\u0627\u062c\u06cc \u0645\u0646\u062f\u0631",
          "network": "Delhi Metro",
          "note": "Contributors are requested to not edit the \"network\" and the \"operator\" tags. (2023/06/22)",
          "operator": "Delhi Metro Rail Corporation Limited",
          "public_transport": "station",
          "railway": "station",
          "ref": "KJMD",
          "station": "subway",
          "subway": "yes",
          "wikidata": "Q6353342",
          "wikipedia": "en:Kalkaji Mandir metro station"
        }
      },
      {
        "type": "node",
        "id": 2833526623,
        "lat": 28.5695405,
        "lon": 77.2382659,
        "tags": {
          "name": "Lajpat Nagar (Pink Line)",
          "name:ar": "\u0644\u0627\u062c\u0628\u062a \u0646\u063a\u0631",
          "name:hi": "\u0932\u093e\u091c\u092a\u0924 \u0928\u0917\u0930",
          "name:ur": "\u0644\u0627\u062c\u067e\u062a \u0646\u06af\u0631",
          "network": "Delhi Metro",
          "note": "Contributors are requested to not edit the \"network\" and the \"operator\" tags. (2023/06/23)",
          "operator": "Delhi Metro Rail Corporation Limited",
          "public_transport": "stop_position",
          "ref": "LPNR",
          "subway": "yes"
        }
      },
      {
        "type": "node",
        "id": 3246085161,
        "lat": 28.5479594,
        "lon": 77.2560882,
        "tags": {
          "amenity": "fuel",
          "brand": "Bharat Petroleum",
          "brand:wikidata": "Q854826",
          "name": "Bharat Petroleum"
        }
      },
      {
        "type": "node",
        "id": 3832323219,
        "lat": 28.5411108,
        "lon": 77.2303164,
        "tags": {
          "name": "Chirag Delhi",
          "name:ar": "\u0634\u064a\u0631\u0627\u062c \u062f\u064a\u0644\u064a",
          "name:hi": "\u091a\u093f\u0930\u093e\u0917 \u0926\u093f\u0932\u094d\u0932\u0940",
          "name:ur": "\u0686\u0631\u0627\u063a \u062f\u06c1\u0644\u06cc",
          "network": "Delhi Metro",
          "note": "Contributors are requested to not edit the \"network\" and the \"operator\" tags. (2023/06/22)",
          "operator": "Delhi Metro Rail Corporation Limited",
          "public_transport": "station",
          "railway": "station",
          "ref": "CDLI",
          "station": "subway",
          "subway": "yes",
          "wikidata": "Q28172603",
          "wikipedia": "en:Chirag Delhi metro station"
        }
      },
      {
        "type": "node",
        "id": 4236862896,
        "lat": 28.5414082,
        "lon": 77.2400613,
        "tags": {
          "addr:place": "Greater Kailash 2",
          "addr:postcode": "110048",
          "amenity": "cinema",
          "name": "DT Cinema",
          "old_name": "Savitri Cinema"
        }
      },
      {
        "type": "node",
        "id": 4342340490,
        "lat": 28.5552682,
        "lon": 77.2284238,
        "tags": {
          "addr:street": "Josip Broz Tito Marg",
          "amenity": "fuel",
          "brand": "Indian Oil",
          "brand:wikidata": "Q1289348",
          "name": "IOCL Sadiq nagar"
        }
      },
      {
        "type": "node",
        "id": 4510680878,
        "lat": 28.5485465,
        "lon": 77.2564465,
        "tags": {
          "bus": "yes",
          "name": "Nehru Place",
          "public_transport": "stop_position"
        }
      },
      {
        "type": "node",
        "id": 4510680885,
        "lat": 28.5480693,
        "lon": 77.2551838,
        "tags": {
          "bus": "yes",
          "name": "Nehru Place",
          "public_transport": "stop_position"
        }
      },
      {
        "type": "node",
        "id": 5120631349,
        "lat": 28.5621742,
        "lon": 77.2318251,
        "tags": {
          "amenity": "fuel",
          "brand": "Bharat Petroleum",
          "brand:wikidata": "Q854826",
          "name": "Bharat Petroleum"
        }
      },
      {
        "type": "node",
        "id": 5244045384,
        "lat": 28.5592774,
        "lon": 77.2320193,
        "tags": {
          "amenity": "fuel",
          "brand": "Bharat Petroleum",
          "brand:wikidata": "Q854826",
          "name": "Bharat Petroleum"
        }
      },
      {
        "type": "node",
        "id": 5331550502,
        "lat": 28.5380314,
        "lon": 77.2325592,
        "tags": {
          "amenity": "fuel",
          "brand": "Indian Oil",
          "brand:wikidata": "Q1289348",
          "name": "Indian Oil"
        }
      },
      {
        "type": "node",
        "id": 5455131672,
        "lat": 28.5478307,
        "lon": 77.2557271,
        "tags": {
          "amenity": "fuel",
          "brand": "Indian Oil",
          "brand:wikidata": "Q1289348",
          "fuel:diesel": "yes",
          "fuel:octane_95": "yes",
          "name": "Indian Oil"
        }
      },
      {
        "type": "node",
        "id": 5554423623,
        "lat": 28.545849,
        "lon": 77.2641796,
        "tags": {
          "amenity": "fuel",
          "brand": "Hindustan Petroleum",
          "brand:wikidata": "Q1619375",
          "name": "HP",
          "official_name": "Hindustan Petroleum",
          "opening_hours": "24/7"
        }
      },
      {
        "type": "node",
        "id": 5578382617,
        "lat": 28.5477136,
        "lon": 77.255391,
        "tags": {
          "amenity": "fuel",
          "brand": "IGL",
          "brand:wikidata": "Q125553945",
          "fuel:cng": "yes",
          "name": "IGL"
        }
      },
      {
        "type": "node",
        "id": 5694140128,
        "lat": 28.555381,
        "lon": 77.228418,
        "tags": {
          "amenity": "charging_station"
        }
      },
      {
        "type": "node",
        "id": 5777629235,
        "lat": 28.5553091,
        "lon": 77.2419438,
        "tags": {
          "name": "Kailash Colony",
          "name:hi": "\u0915\u0948\u0932\u093e\u0936 \u0915\u0949\u0932\u094b\u0928\u0940",
          "network": "Delhi Metro",
          "note": "Contributors are requested to not edit the \"network\" and the \"operator\" tags. (2023/06/22)",
          "operator": "Delhi Metro Rail Corporation Limited",
          "public_transport": "stop_position",
          "railway": "stop",
          "subway": "yes"
        }
      },
      {
        "type": "node",
        "id": 5777629803,
        "lat": 28.5443601,
        "lon": 77.2642125,
        "tags": {
          "name": "Govind Puri",
          "name:hi": "\u0917\u094b\u0935\u093f\u0902\u0926 \u092a\u0941\u0930\u0940",
          "network": "Delhi Metro",
          "note": "Contributors are requested to not edit the \"network\" and the \"operator\" tags. (2023/06/23)",
          "operator": "Delhi Metro Rail Corporation Limited",
          "public_transport": "stop_position",
          "subway": "yes"
        }
      },
      {
        "type": "node",
        "id": 5777629811,
        "lat": 28.5494666,
        "lon": 77.2590658,
        "tags": {
          "name": "Kalkaji Mandir",
          "network": "Delhi Metro",
          "note": "Contributors are requested to not edit the \"network\" and the \"operator\" tags. (2023/06/22)",
          "operator": "Delhi Metro Rail Corporation Limited",
          "public_transport": "stop_position",
          "railway": "stop",
          "ref": "KJMD",
          "subway": "yes"
        }
      },
      {
        "type": "node",
        "id": 5777629833,
        "lat": 28.5513913,
        "lon": 77.2517397,
        "tags": {
          "name": "Nehru Place",
          "name:hi": "\u0928\u0947\u0939\u0930\u0942 \u092a\u094d\u0932\u0947\u0938",
          "network": "Delhi Metro",
          "note": "Contributors are requested to not edit the \"network\" and the \"operator\" tags. (2023/06/22)",
          "operator": "Delhi Metro Rail Corporation Limited",
          "public_transport": "stop_position",
          "railway": "stop",
          "subway": "yes"
        }
      },
      {
        "type": "node",
        "id": 5777631212,
        "lat": 28.5460775,
        "lon": 77.2514948,
        "tags": {
          "name": "Nehru Enclave",
          "network": "Delhi Metro",
          "note": "Contributors are requested to not edit the \"network\" and the \"operator\" tags. (2023/06/23)",
          "operator": "Delhi Metro Rail Corporation Limited",
          "public_transport": "stop_position",
          "subway": "yes"
        }
      },
      {
        "type": "node",
        "id": 5777631214,
        "lat": 28.5419199,
        "lon": 77.2384358,
        "tags": {
          "name": "Greater Kailash",
          "network": "Delhi Metro",
          "note": "Contributors are requested to not edit the \"network\" and the \"operator\" tags. (2023/06/22)",
          "operator": "Delhi Metro Rail Corporation Limited",
          "public_transport": "stop_position",
          "railway": "stop",
          "ref": "GKEI",
          "subway": "yes"
        }
      },
      {
        "type": "node",
        "id": 5777631218,
        "lat": 28.5411365,
        "lon": 77.2302972,
        "tags": {
          "name": "Chirag Delhi",
          "name:hi": "\u091a\u093f\u0930\u093e\u0917 \u0926\u093f\u0932\u094d\u0932\u0940",
          "network": "Delhi Metro",
          "note": "Contributors are requested to not edit the \"network\" and the \"operator\" tags. (2023/06/22)",
          "operator": "Delhi Metro Rail Corporation Limited",
          "public_transport": "stop_position",
          "railway": "stop",
          "ref": "CDLI",
          "subway": "yes"
        }
      },
      {
        "type": "node",
        "id": 5777631557,
        "lat": 28.5503589,
        "lon": 77.2569177,
        "tags": {
          "name": "Kalkaji Mandir",
          "network": "Delhi Metro",
          "note": "Contributors are requested to not edit the \"network\" and the \"operator\" tags. (2023/06/22)",
          "operator": "Delhi Metro Rail Corporation Limited",
          "public_transport": "stop_position",
          "railway": "stop",
          "ref": "KJMD",
          "subway": "yes"
        }
      },
      {
        "type": "node",
        "id": 5795235047,
        "lat": 28.5460584,
        "lon": 77.2515057,
        "tags": {
          "name": "Nehru Enclave",
          "name:hi": "\u0928\u0947\u0939\u0930\u0942 \u090f\u0928\u094d\u0915\u094d\u0932\u0947\u0935",
          "network": "Delhi Metro",
          "note": "Contributors are requested to not edit the \"network\" and the \"operator\" tags. (2023/06/22)",
          "operator": "Delhi Metro Rail Corporation Limited",
          "public_transport": "station",
          "railway": "station",
          "ref": "NUEE",
          "station": "subway",
          "subway": "yes",
          "wikidata": "Q28172606",
          "wikipedia": "en:Nehru Enclave metro station"
        }
      },
      {
        "type": "node",
        "id": 6196100465,
        "lat": 28.5694844,
        "lon": 77.2388793,
        "tags": {
          "name": "Lajpat Nagar (Pink Line)",
          "name:ar": "\u0644\u0627\u062c\u0628\u062a \u0646\u063a\u0631",
          "name:hi": "\u0932\u093e\u091c\u092a\u0924 \u0928\u0917\u0930",
          "name:ur": "\u0644\u0627\u062c\u067e\u062a \u0646\u06af\u0631",
          "network": "Delhi Metro",
          "note": "Contributors are requested to not edit the \"network\" and the \"operator\" tags. (2023/06/23)",
          "operator": "Delhi Metro Rail Corporation Limited",
          "public_transport": "stop_position",
          "ref": "LPNR",
          "subway": "yes"
        }
      },
      {
        "type": "node",
        "id": 6196100469,
        "lat": 28.5659354,
        "lon": 77.2498114,
        "tags": {
          "name": "Vinobapuri",
          "network": "Delhi Metro",
          "note": "Contributors are requested to not edit the \"network\" and the \"operator\" tags. (2023/06/22)",
          "operator": "Delhi Metro Rail Corporation Limited",
          "public_transport": "stop_position",
          "railway": "stop",
          "ref": "VNPR",
          "subway": "yes"
        }
      },
      {
        "type": "node",
        "id": 6196100470,
        "lat": 28.5657942,
        "lon": 77.2487352,
        "tags": {
          "name": "Vinobapuri",
          "network": "Delhi Metro",
          "note": "Contributors are requested to not edit the \"network\" and the \"operator\" tags. (2023/06/22)",
          "operator": "Delhi Metro Rail Corporation Limited",
          "public_transport": "stop_position",
          "railway": "stop",
          "ref": "VNPR",
          "subway": "yes"
        }
      },
      {
        "type": "node",
        "id": 6196100477,
        "lat": 28.565871,
        "lon": 77.2492973,
        "tags": {
          "name": "Vinobapuri",
          "name:hi": "\u0935\u093f\u0928\u094b\u092c\u093e\u092a\u0941\u0930\u0940",
          "name:ur": "\u0648\u0646\u0648\u0628\u0627 \u067e\u0648\u0631\u06cc",
          "network": "Delhi Metro",
          "note": "Contributors are requested to not edit the \"network\" and the \"operator\" tags. (2023/06/22)",
          "operator": "Delhi Metro Rail Corporation Limited",
          "public_transport": "station",
          "railway": "station",
          "ref": "VNPR",
          "station": "subway",
          "subway": "yes",
          "wikidata": "Q28172738",
          "wikipedia": "en:Vinobapuri metro station"
        }
      },
      {
        "type": "node",
        "id": 6198749876,
        "lat": 28.5623487,
        "lon": 77.2662529,
        "tags": {
          "amenity": "fuel",
          "brand": "Indian Oil",
          "brand:wikidata": "Q1289348",
          "compressed_air": "yes",
          "name": "Indian Oil",
          "opening_hours": "Mo-Su,PH 00:00+"
        }
      },
      {
        "type": "node",
        "id": 6198752459,
        "lat": 28.5623227,
        "lon": 77.2652427,
        "tags": {
          "amenity": "fuel",
          "brand": "Hindustan Petroleum",
          "brand:wikidata": "Q1619375",
          "name": "HP",
          "official_name": "Hindustan Petroleum"
        }
      },
      {
        "type": "node",
        "id": 6258443993,
        "lat": 28.5650535,
        "lon": 77.2426083,
        "tags": {
          "bus": "yes",
          "name": "Lajpat Nagar",
          "public_transport": "stop_position"
        }
      },
      {
        "type": "node",
        "id": 6291591424,
        "lat": 28.5453313,
        "lon": 77.2508764,
        "tags": {
          "public_transport": "stop_position",
          "share_taxi": "yes"
        }
      },
      {
        "type": "node",
        "id": 6341801996,
        "lat": 28.5653209,
        "lon": 77.2446267,
        "tags": {
          "bus": "yes",
          "name": "Lajpat Nagar",
          "public_transport": "stop_position"
        }
      },
      {
        "type": "node",
        "id": 6453544488,
        "lat": 28.56958,
        "lon": 77.2385055,
        "tags": {
          "name": "Lajpat Nagar (Pink Line)",
          "name:ar": "\u0644\u0627\u062c\u0628\u062a \u0646\u063a\u0631",
          "name:hi": "\u0932\u093e\u091c\u092a\u0924 \u0928\u0917\u0930",
          "name:ur": "\u0644\u0627\u062c\u067e\u062a \u0646\u06af\u0631",
          "network": "Delhi Metro",
          "note": "Contributors are requested to not edit the \"network\" and the \"operator\" tags. (2023/06/22)",
          "operator": "Delhi Metro Rail Corporation Limited",
          "public_transport": "station",
          "railway": "station",
          "station": "subway",
          "subway": "yes",
          "wikidata": "Q6474492",
          "wikipedia": "en:Lajpat Nagar metro station"
        }
      },
      {
        "type": "node",
        "id": 6547772101,
        "lat": 28.5494963,
        "lon": 77.2591115,
        "tags": {
          "name": "Kalkaji Mandir",
          "network": "Delhi Metro",
          "note": "Contributors are requested to not edit the \"network\" and the \"operator\" tags. (2023/06/22)",
          "operator": "Delhi Metro Rail Corporation Limited",
          "public_transport": "stop_position",
          "railway": "stop",
          "ref": "KJMD",
          "subway": "yes"
        }
      },
      {
        "type": "node",
        "id": 6547772102,
        "lat": 28.550077,
        "lon": 77.2566811,
        "tags": {
          "name": "Kalkaji Mandir",
          "network": "Delhi Metro",
          "note": "Contributors are requested to not edit the \"network\" and the \"operator\" tags. (2023/06/22)",
          "operator": "Delhi Metro Rail Corporation Limited",
          "public_transport": "stop_position",
          "railway": "stop",
          "ref": "KJMD",
          "subway": "yes"
        }
      },
      {
        "type": "node",
        "id": 6773338024,
        "lat": 28.5293715,
        "lon": 77.2521986,
        "tags": {
          "bus": "yes",
          "name": "DDA Flats Kalkaji",
          "public_transport": "stop_position"
        }
      },
      {
        "type": "node",
        "id": 6841624827,
        "lat": 28.5439079,
        "lon": 77.2645982,
        "tags": {
          "name": "Govindpuri Metro Station",
          "public_transport": "stop_position",
          "share_taxi": "yes"
        }
      },
      {
        "type": "node",
        "id": 7040483586,
        "lat": 28.5676983,
        "lon": 77.2410235,
        "tags": {
          "amenity": "cinema",
          "brand": "PVR Cinemas",
          "brand:wikidata": "Q3359908",
          "name": "PVR 3C\u2019s Cinema",
          "short_name": "PVR"
        }
      },
      {
        "type": "node",
        "id": 7040536185,
        "lat": 28.549897,
        "lon": 77.2512556,
        "tags": {
          "amenity": "cinema",
          "brand": "INOX Leisure",
          "brand:wikidata": "Q5972349",
          "name": "INOX Nehru Place Cinema",
          "short_name": "INOX"
        }
      },
      {
        "type": "node",
        "id": 7040536285,
        "lat": 28.5513125,
        "lon": 77.2515622,
        "tags": {
          "amenity": "cinema",
          "brand": "INOX Leisure",
          "brand:wikidata": "Q5972349",
          "name": "INOX Insignia Epicuria Cinema",
          "short_name": "INOX"
        }
      },
      {
        "type": "node",
        "id": 7090905263,
        "lat": 28.544128,
        "lon": 77.2641662,
        "tags": {
          "name": "Govindpuri Metro Station",
          "public_transport": "stop_position",
          "share_taxi": "yes"
        }
      },
      {
        "type": "node",
        "id": 7113775475,
        "lat": 28.5473732,
        "lon": 77.2539857,
        "tags": {
          "name": "Nehru Place",
          "public_transport": "stop_position",
          "share_taxi": "yes"
        }
      },
      {
        "type": "node",
        "id": 7113775476,
        "lat": 28.548611,
        "lon": 77.2567708,
        "tags": {
          "name": "Nehru Place",
          "public_transport": "stop_position",
          "share_taxi": "yes"
        }
      },
      {
        "type": "node",
        "id": 7183720712,
        "lat": 28.562966,
        "lon": 77.2321119,
        "tags": {
          "amenity": "fuel",
          "brand": "Bharat Petroleum",
          "brand:wikidata": "Q854826",
          "compressed_air": "yes",
          "name": "Prem Service Station",
          "opening_hours": "Mo-Su,PH 06:00-12:00+",
          "self_service": "no"
        }
      },
      {
        "type": "node",
        "id": 7267374894,
        "lat": 28.5514171,
        "lon": 77.2517386,
        "tags": {
          "name": "Nehru Place",
          "name:hi": "\u0928\u0947\u0939\u0930\u0942 \u092a\u094d\u0932\u0947\u0938",
          "network": "Delhi Metro",
          "note": "Contributors are requested to not edit the \"network\" and the \"operator\" tags. (2023/06/23)",
          "operator": "Delhi Metro Rail Corporation Limited",
          "public_transport": "station",
          "railway": "station",
          "station": "subway"
        }
      },
      {
        "type": "node",
        "id": 7267374895,
        "lat": 28.5553298,
        "lon": 77.2419637,
        "tags": {
          "name": "Kailash Colony",
          "name:hi": "\u0915\u0948\u0932\u093e\u0936 \u0915\u0949\u0932\u094b\u0928\u0940",
          "network": "Delhi Metro",
          "note": "Contributors are requested to not edit the \"network\" and the \"operator\" tags. (2023/06/22)",
          "operator": "Delhi Metro Rail Corporation Limited",
          "public_transport": "station",
          "railway": "station",
          "station": "subway",
          "subway": "yes"
        }
      },
      {
        "type": "node",
        "id": 9546632101,
        "lat": 28.5644057,
        "lon": 77.2342329,
        "tags": {
          "name": "Moolchand",
          "name:hi": "\u092e\u0942\u0932\u091a\u0902\u0926",
          "network": "Delhi Metro",
          "note": "Contributors are requested to not edit the \"network\" and the \"operator\" tags. (2023/06/23)",
          "operator": "Delhi Metro Rail Corporation Limited",
          "public_transport": "stop_position",
          "subway": "yes"
        }
      },
      {
        "type": "node",
        "id": 9584236504,
        "lat": 28.5644044,
        "lon": 77.2342555,
        "tags": {
          "name": "Moolchand",
          "name:hi": "\u092e\u0942\u0932\u091a\u0902\u0926",
          "network": "Delhi Metro",
          "note": "Contributors are requested to not edit the \"network\" and the \"operator\" tags. (2023/06/22)",
          "operator": "Delhi Metro Rail Corporation Limited",
          "public_transport": "station",
          "railway": "station",
          "station": "subway",
          "subway": "yes"
        }
      },
      {
        "type": "node",
        "id": 9597709830,
        "lat": 28.5445521,
        "lon": 77.2642761,
        "tags": {
          "air_conditioning": "yes",
          "elevation": "1",
          "layer": "1",
          "level": "1",
          "name": "Govind Puri",
          "name:hi": "\u0917\u094b\u0935\u093f\u0902\u0926 \u092a\u0941\u0930\u0940",
          "network": "Delhi Metro",
          "note": "Contributors are requested to not edit the \"network\" and the \"operator\" tags. (2023/06/22)",
          "operator": "Delhi Metro Rail Corporation Limited",
          "public_transport": "station",
          "railway": "station",
          "station": "subway",
          "subway": "yes",
          "wikidata": "Q5589852"
        }
      },
      {
        "type": "node",
        "id": 9739382793,
        "lat": 28.5483686,
        "lon": 77.2547221,
        "tags": {
          "amenity": "charging_station"
        }
      },
      {
        "type": "node",
        "id": 9739382794,
        "lat": 28.5482674,
        "lon": 77.2545695,
        "tags": {
          "amenity": "charging_station"
        }
      },
      {
        "type": "node",
        "id": 9739382795,
        "lat": 28.5483966,
        "lon": 77.2547099,
        "tags": {
          "amenity": "charging_station"
        }
      },
      {
        "type": "node",
        "id": 9937948255,
        "lat": 28.5544479,
        "lon": 77.2648369,
        "tags": {
          "name": "Okhla NSIC",
          "network": "Delhi Metro",
          "note": "Contributors are requested to not edit the \"network\" and the \"operator\" tags. (2023/06/22)",
          "operator": "Delhi Metro Rail Corporation Limited",
          "public_transport": "stop_position",
          "railway": "stop",
          "subway": "yes"
        }
      },
      {
        "type": "node",
        "id": 9937948268,
        "lat": 28.5418724,
        "lon": 77.2384643,
        "tags": {
          "name": "Greater Kailash",
          "network": "Delhi Metro",
          "note": "Contributors are requested to not edit the \"network\" and the \"operator\" tags. (2023/06/22)",
          "operator": "Delhi Metro Rail Corporation Limited",
          "public_transport": "stop_position",
          "railway": "stop",
          "ref": "GKEI",
          "subway": "yes"
        }
      },
      {
        "type": "node",
        "id": 9937948269,
        "lat": 28.5410914,
        "lon": 77.2302907,
        "tags": {
          "name": "Chirag Delhi",
          "name:hi": "\u091a\u093f\u0930\u093e\u0917 \u0926\u093f\u0932\u094d\u0932\u0940",
          "network": "Delhi Metro",
          "note": "Contributors are requested to not edit the \"network\" and the \"operator\" tags. (2023/06/22)",
          "operator": "Delhi Metro Rail Corporation Limited",
          "public_transport": "stop_position",
          "railway": "stop",
          "ref": "CDLI",
          "subway": "yes"
        }
      },
      {
        "type": "node",
        "id": 10694475398,
        "lat": 28.5605303,
        "lon": 77.2675893,
        "tags": {
          "amenity": "fuel"
        }
      },
      {
        "type": "node",
        "id": 10694479767,
        "lat": 28.563383,
        "lon": 77.2647745,
        "tags": {
          "amenity": "charging_station",
          "capacity": "2"
        }
      },
      {
        "type": "node",
        "id": 10948867107,
        "lat": 28.5404442,
        "lon": 77.2349474,
        "tags": {
          "amenity": "charging_station"
        }
      },
      {
        "type": "node",
        "id": 11049659869,
        "lat": 28.5510463,
        "lon": 77.2435099,
        "tags": {
          "addr:block": "E",
          "addr:city": "New Delhi",
          "addr:housenumber": "300",
          "addr:postcode": "110048",
          "addr:suburb": "Greater Kailash 1",
          "amenity": "theatre",
          "name": "Trialogue Studio",
          "toilets": "yes",
          "toilets:access": "customers",
          "wheelchair": "no"
        }
      },
      {
        "type": "node",
        "id": 11083172400,
        "lat": 28.5443474,
        "lon": 77.2455856,
        "tags": {
          "amenity": "charging_station",
          "brand": "Charge Karo",
          "capacity": "6"
        }
      },
      {
        "type": "node",
        "id": 11083172401,
        "lat": 28.5443273,
        "lon": 77.2455165,
        "tags": {
          "amenity": "charging_station",
          "brand": "Charge Karo"
        }
      },
      {
        "type": "node",
        "id": 11091689264,
        "lat": 28.5335142,
        "lon": 77.2441718,
        "tags": {
          "amenity": "theatre",
          "level": "5",
          "name": "Theatre Kunzum 2"
        }
      },
      {
        "type": "node",
        "id": 11091689267,
        "lat": 28.5335228,
        "lon": 77.2441613,
        "tags": {
          "amenity": "theatre",
          "level": "4",
          "name": "Theatre Kunzum 1"
        }
      },
      {
        "type": "node",
        "id": 11288533005,
        "lat": 28.5497356,
        "lon": 77.2594429,
        "tags": {
          "amenity": "charging_station"
        }
      },
      {
        "type": "node",
        "id": 11288533006,
        "lat": 28.5497042,
        "lon": 77.2594888,
        "tags": {
          "amenity": "charging_station"
        }
      },
      {
        "type": "node",
        "id": 11288533008,
        "lat": 28.5496589,
        "lon": 77.2595584,
        "tags": {
          "amenity": "charging_station"
        }
      },
      {
        "type": "node",
        "id": 11288533010,
        "lat": 28.5496792,
        "lon": 77.2595256,
        "tags": {
          "amenity": "charging_station"
        }
      },
      {
        "type": "node",
        "id": 11288533011,
        "lat": 28.5497534,
        "lon": 77.2594016,
        "tags": {
          "amenity": "charging_station"
        }
      },
      {
        "type": "node",
        "id": 11368545133,
        "lat": 28.5697606,
        "lon": 77.2381099,
        "tags": {
          "amenity": "charging_station",
          "brand": "Charge Karo"
        }
      },
      {
        "type": "node",
        "id": 11414388215,
        "lat": 28.5508417,
        "lon": 77.2343743,
        "tags": {
          "amenity": "charging_station"
        }
      },
      {
        "type": "node",
        "id": 11414388216,
        "lat": 28.5508303,
        "lon": 77.2343614,
        "tags": {
          "amenity": "charging_station"
        }
      },
      {
        "type": "node",
        "id": 11697454694,
        "lat": 28.5508115,
        "lon": 77.2510865,
        "tags": {
          "amenity": "charging_station"
        }
      },
      {
        "type": "node",
        "id": 11697454712,
        "lat": 28.5508585,
        "lon": 77.2510569,
        "tags": {
          "amenity": "charging_station"
        }
      },
      {
        "type": "node",
        "id": 11882034350,
        "lat": 28.5416057,
        "lon": 77.2328267,
        "tags": {
          "amenity": "charging_station",
          "charging_station:battery_swapping": "yes"
        }
      },
      {
        "type": "node",
        "id": 11882034351,
        "lat": 28.5333783,
        "lon": 77.2317719,
        "tags": {
          "amenity": "charging_station"
        }
      },
      {
        "type": "node",
        "id": 11882034353,
        "lat": 28.541597,
        "lon": 77.2328551,
        "tags": {
          "amenity": "charging_station"
        }
      },
      {
        "type": "node",
        "id": 11891087067,
        "lat": 28.5483295,
        "lon": 77.2547433,
        "tags": {
          "amenity": "charging_station",
          "fixme": "Battery swapping station"
        }
      },
      {
        "type": "node",
        "id": 11891087068,
        "lat": 28.5482916,
        "lon": 77.2547553,
        "tags": {
          "amenity": "charging_station",
          "fixme": "Battery swapping station"
        }
      },
      {
        "type": "node",
        "id": 12031201050,
        "lat": 28.5442512,
        "lon": 77.264671,
        "tags": {
          "amenity": "charging_station",
          "brand": "Sun Mobility",
          "charging_station:battery_swapping": "yes",
          "covered": "yes",
          "level": "0",
          "name": "Swap Point"
        }
      },
      {
        "type": "node",
        "id": 12141997945,
        "lat": 28.5519463,
        "lon": 77.2728999,
        "tags": {
          "amenity": "fuel",
          "brand": "Hindustan Petroleum",
          "brand:wikidata": "Q1619375",
          "name": "HP",
          "official_name": "Hindustan Petroleum"
        }
      },
      {
        "type": "node",
        "id": 12811975823,
        "lat": 28.5679245,
        "lon": 77.2427016,
        "tags": {
          "amenity": "charging_station",
          "brand": "Okaya"
        }
      }
    ]
  }
}