{
  "pois_1km": {
    "version": 0.6,
    "generator": "Overpass API 0.7.62.8 e802775f",
    "osm3s": {
      "timestamp_osm_base": "2025-09-06T07:09:28Z",
      "copyright": "The data included in this document is from www.openstreetmap.org. The data is made available under ODbL."
    },
    "elements": [
      {
        "type": "node",
        "id": 308894803,
        "lat": 28.6069461,
        "lon": 77.2299189,
        "tags": {
          "amenity": "restaurant",
          "created_by": "Potlatch 0.10f"
        }
      },
      {
        "type": "node",
        "id": 1556467803,
        "lat": 28.5995254,
        "lon": 77.226395,
        "tags": {
          "amenity": "restaurant",
          "cuisine": "thai",
          "name": "Good Earth",
          "website": "https://www.goodearth.in/"
        }
      },
      {
        "type": "node",
        "id": 2421934883,
        "lat": 28.6002007,
        "lon": 77.2273465,
        "tags": {
          "addr:city": "New Delhi",
          "addr:street": "Khan Market",
          "amenity": "cafe",
          "email": "feedback@cafeturtle.com",
          "name": "Cafe Turtle",
          "phone": "+911124655641",
          "survey:date": "2023-01-23",
          "website": "https://cafeturtle.com/"
        }
      },
      {
        "type": "node",
        "id": 4114512206,
        "lat": 28.5996402,
        "lon": 77.2262942,
        "tags": {
          "amenity": "restaurant",
          "internet_access": "wlan",
          "name": "Fat Lulu's",
          "survey:date": "2023-01-20"
        }
      },
      {
        "type": "node",
        "id": 4391608190,
        "lat": 28.5995342,
        "lon": 77.2251048,
        "tags": {
          "addr:housenumber": "50",
          "addr:street": "Khan Market",
          "amenity": "restaurant",
          "name:es": "Khan Chancha",
          "website": "http://khanchancha.in"
        }
      },
      {
        "type": "node",
        "id": 4460476939,
        "lat": 28.6005777,
        "lon": 77.2273349,
        "tags": {
          "addr:housenumber": "51-A",
          "addr:street": "Khan Market, New Delhi",
          "amenity": "restaurant",
          "cuisine": "barbecue",
          "email": "contact.smokeys@gmail.com",
          "name": "Smokeys",
          "phone": "+911124611551",
          "survey:date": "2023-01-20",
          "website": "https://smokehousegrill.in/"
        }
      },
      {
        "type": "node",
        "id": 4535103790,
        "lat": 28.5997702,
        "lon": 77.2261911,
        "tags": {
          "amenity": "cafe",
          "cuisine": "mexican;italian;lebanese;american;indian",
          "name": "Out Of The Box (OTB)",
          "name:en": "OTB"
        }
      },
      {
        "type": "node",
        "id": 4628544689,
        "lat": 28.6078499,
        "lon": 77.2300673,
        "tags": {
          "addr:city": "New Delhi",
          "addr:housenumber": "6",
          "addr:street": "Pandara Road Market",
          "amenity": "restaurant",
          "name": "Gulati",
          "opening_hours": "Mo-Su 12:00-24:00",
          "phone": "+91 112338 8836",
          "website": "http://www.gulatirestaurant.in/"
        }
      },
      {
        "type": "node",
        "id": 4658824441,
        "lat": 28.6021414,
        "lon": 77.2279557,
        "tags": {
          "amenity": "restaurant",
          "name": "Latitude"
        }
      },
      {
        "type": "node",
        "id": 4971952422,
        "lat": 28.6006451,
        "lon": 77.2275063,
        "tags": {
          "amenity": "restaurant",
          "check_date": "2024-01-28",
          "level": "1;2",
          "name": "The Big Chill",
          "name:en": "Big Chill Restaurant",
          "wheelchair": "no"
        }
      },
      {
        "type": "node",
        "id": 5109833022,
        "lat": 28.6078554,
        "lon": 77.2296194,
        "tags": {
          "addr:housenumber": "16",
          "addr:postcode": "110003",
          "addr:street": "Pandara Road",
          "amenity": "restaurant",
          "name": "Pindi",
          "name:en": "Pindi restaurant Delhi",
          "phone": "911123387932"
        }
      },
      {
        "type": "node",
        "id": 5210748029,
        "lat": 28.6005614,
        "lon": 77.2273808,
        "tags": {
          "amenity": "restaurant",
          "name": "Wok In The Clouds"
        }
      },
      {
        "type": "node",
        "id": 5579870821,
        "lat": 28.6006978,
        "lon": 77.2273002,
        "tags": {
          "amenity": "fast_food",
          "check_date": "2024-01-28",
          "level": "1;2",
          "name": "Khan Chacha",
          "survey:date": "2023-01-23",
          "wheelchair": "no"
        }
      },
      {
        "type": "node",
        "id": 7116584985,
        "lat": 28.6090339,
        "lon": 77.2296678,
        "tags": {
          "amenity": "cafe",
          "cuisine": "french",
          "name": "L'Op\u00e9ra"
        }
      },
      {
        "type": "node",
        "id": 7138493150,
        "lat": 28.6001742,
        "lon": 77.230795,
        "tags": {
          "addr:district": "New Delhi",
          "addr:full": "Plot no 213, 1st Floor, Golf Link, Dispensary Complex",
          "addr:postcode": "110003",
          "addr:state": "Delhi",
          "amenity": "clinic",
          "contact:phone": "011-24646844",
          "description": "Dispensaries",
          "health_facility:type": "dispensary",
          "healthcare": "centre",
          "name": "NDMC Dispensary",
          "source": "OpenGovernmentData"
        }
      },
      {
        "type": "node",
        "id": 7138493210,
        "lat": 28.603382,
        "lon": 77.2279162,
        "tags": {
          "addr:district": "New Delhi",
          "addr:full": "D-II/365-367, Pandara Road",
          "addr:postcode": "110003",
          "addr:state": "Delhi",
          "amenity": "clinic",
          "contact:phone": "011-23385040",
          "description": "Dispensaries",
          "health_facility:type": "dispensary",
          "healthcare": "centre",
          "name": "CGHS Dispensary Pandara Road",
          "source": "OpenGovernmentData"
        }
      },
      {
        "type": "node",
        "id": 7138493271,
        "lat": 28.6002912,
        "lon": 77.2306526,
        "tags": {
          "addr:district": "New Delhi",
          "addr:full": "Plot no. 213, Golf Link",
          "addr:postcode": "110003",
          "addr:state": "Delhi",
          "amenity": "clinic",
          "contact:phone": "011-24652762",
          "description": "Dispensaries",
          "health_facility:type": "dispensary",
          "healthcare": "centre",
          "name": "Golf Link Allopathic Dispensary",
          "source": "OpenGovernmentData"
        }
      },
      {
        "type": "node",
        "id": 8943974605,
        "lat": 28.600863,
        "lon": 77.2270634,
        "tags": {
          "amenity": "cafe",
          "brand": "Starbucks",
          "brand:pa": "\u0a38\u0a1f\u0a3e\u0a30\u0a2c\u0a15\u0a38",
          "brand:ur": "\u0627\u0633\u0679\u0627\u0631\u0628\u06a9\u0633",
          "brand:wikidata": "Q37158",
          "brand:wikipedia": "en:Starbucks",
          "check_date": "2025-04-20",
          "cuisine": "coffee_shop",
          "internet_access": "wlan",
          "internet_access:fee": "customers",
          "name": "Starbucks",
          "name:pa": "\u0a38\u0a1f\u0a3e\u0a30\u0a2c\u0a15\u0a38",
          "name:ur": "\u0627\u0633\u0679\u0627\u0631\u0628\u06a9\u0633",
          "official_name": "Starbucks Coffee",
          "official_name:pa": "\u0a38\u0a1f\u0a3e\u0a30\u0a2c\u0a15\u0a38 \u0a15\u0a4c\u0a2b\u0a40",
          "official_name:ur": "\u0627\u0633\u0679\u0627\u0631\u0628\u06a9\u0633 \u06a9\u0627\u0641\u06cc",
          "opening_hours": "08:00-01:00",
          "takeaway": "yes"
        }
      },
      {
        "type": "node",
        "id": 10250886266,
        "lat": 28.6077887,
        "lon": 77.2299971,
        "tags": {
          "amenity": "fast_food",
          "name": "Krishna di Kulfi"
        }
      },
      {
        "type": "node",
        "id": 10250886679,
        "lat": 28.6077855,
        "lon": 77.2299247,
        "tags": {
          "addr:housenumber": "8",
          "addr:street": "Pandara Road Market",
          "amenity": "restaurant",
          "cuisine": "indian",
          "diet:vegan": "yes",
          "diet:vegetarian": "only",
          "name": "Veg Gulati",
          "phone": "+91 11 2338 8830;+91 112338862",
          "takeaway": "yes",
          "website": "www.veggulati.in"
        }
      },
      {
        "type": "node",
        "id": 10250892163,
        "lat": 28.607798,
        "lon": 77.2296832,
        "tags": {
          "amenity": "restaurant"
        }
      },
      {
        "type": "node",
        "id": 10250892907,
        "lat": 28.6077919,
        "lon": 77.2297742,
        "tags": {
          "amenity": "restaurant",
          "name": "Have more"
        }
      },
      {
        "type": "node",
        "id": 10250904256,
        "lat": 28.6077837,
        "lon": 77.2298805,
        "tags": {
          "amenity": "restaurant",
          "name": "Ichiban"
        }
      },
      {
        "type": "node",
        "id": 10570468911,
        "lat": 28.5998699,
        "lon": 77.2263436,
        "tags": {
          "amenity": "cafe",
          "contact:instagram": "https://www.instagram.com/bloomcafes/",
          "name": "Bloom Caf\u00e9 & Cakery",
          "survey:date": "2023-01-20"
        }
      },
      {
        "type": "node",
        "id": 10570545209,
        "lat": 28.6002519,
        "lon": 77.2270265,
        "tags": {
          "amenity": "pharmacy",
          "healthcare": "pharmacy",
          "name": "Preet Medicos",
          "survey:date": "2023-01-20"
        }
      },
      {
        "type": "node",
        "id": 10570545409,
        "lat": 28.600632,
        "lon": 77.2271857,
        "tags": {
          "amenity": "pharmacy",
          "healthcare": "pharmacy",
          "name": "Youplus",
          "survey:date": "2023-01-20"
        }
      },
      {
        "type": "node",
        "id": 10576036741,
        "lat": 28.6001292,
        "lon": 77.2274321,
        "tags": {
          "amenity": "pharmacy",
          "healthcare": "pharmacy",
          "name": "Anand Drug Store",
          "phone": "9310353839"
        }
      },
      {
        "type": "node",
        "id": 10576137141,
        "lat": 28.6009386,
        "lon": 77.2272031,
        "tags": {
          "amenity": "restaurant",
          "name": "Salerm Javed"
        }
      },
      {
        "type": "node",
        "id": 10576156944,
        "lat": 28.6002254,
        "lon": 77.2274818,
        "tags": {
          "amenity": "bank",
          "brand": "Punjab National Bank",
          "brand:wikidata": "Q2743499",
          "name": "Punjab National Bank",
          "survey:date": "2023-01-23"
        }
      },
      {
        "type": "node",
        "id": 10576178941,
        "lat": 28.6002371,
        "lon": 77.2274371,
        "tags": {
          "amenity": "cafe",
          "contact:instagram": "https://www.instagram.com/cafedelhiheights/",
          "cuisine": "indian;italian;oriental;dessert",
          "name": "Cafe Delhi Heights",
          "outdoor_seating": "no",
          "phone": "+919643254033"
        }
      },
      {
        "type": "node",
        "id": 10576179041,
        "lat": 28.6002956,
        "lon": 77.2272837,
        "tags": {
          "amenity": "restaurant",
          "contact:facebook": "https://facebook.com/anglow.indian",
          "email": "arpan@barebackhospitality.com",
          "name": "Anglow",
          "opening_hours": "Mon-Su 12:00-00:00",
          "phone": "+919999886558"
        }
      },
      {
        "type": "node",
        "id": 10690508401,
        "lat": 28.6006559,
        "lon": 77.2257406,
        "tags": {
          "amenity": "fast_food",
          "name": "Laziz Kabab"
        }
      },
      {
        "type": "node",
        "id": 10722857005,
        "lat": 28.6108456,
        "lon": 77.2300909,
        "tags": {
          "access": "yes",
          "leisure": "playground"
        }
      },
      {
        "type": "node",
        "id": 10732829707,
        "lat": 28.6081726,
        "lon": 77.2175333,
        "tags": {
          "amenity": "atm"
        }
      },
      {
        "type": "node",
        "id": 10778052404,
        "lat": 28.6008973,
        "lon": 77.2264443,
        "tags": {
          "amenity": "atm",
          "brand": "Central Bank of India",
          "brand:wikidata": "Q2007090",
          "name": "Central Bank of India",
          "operator": "Central Bank of India",
          "operator:wikidata": "Q2007090"
        }
      },
      {
        "type": "node",
        "id": 10982332457,
        "lat": 28.5997174,
        "lon": 77.2261777,
        "tags": {
          "addr:city": "New Delhi",
          "addr:place": "Khan Market",
          "addr:postcode": "110003",
          "addr:street": "Khan Market",
          "addr:suburb": "Rabindra Nagar",
          "addr:unit": "6",
          "amenity": "cafe",
          "branch": "Khan Market",
          "cuisine": "coffee_shop",
          "indoor_seating": "yes",
          "name": "Blue Tokai Coffee Roasters",
          "opening_hours": "07:00-23:00",
          "outdoor_seating": "no",
          "phone": "+91 98219 84555",
          "website": "https://bluetokaicoffee.com/pages/blue-tokai-coffee-roasters-khan-market",
          "wheelchair": "no"
        }
      },
      {
        "type": "node",
        "id": 10982334987,
        "lat": 28.5997717,
        "lon": 77.2261395,
        "tags": {
          "amenity": "cafe",
          "name": "The Big Chill"
        }
      },
      {
        "type": "node",
        "id": 11297280210,
        "lat": 28.6007035,
        "lon": 77.2275931,
        "tags": {
          "amenity": "atm",
          "brand": "HDFC Bank",
          "brand:en": "HDFC Bank",
          "brand:wikidata": "Q631047",
          "currency:INR": "yes",
          "drive_through": "no",
          "indoor": "yes",
          "name": "HDFC Bank",
          "note": "Contributors are requested to not edit the \"brand\", \"brand:en\", \"brand:wikidata\", \"operator\", \"operator:en\" and \"operator:wikidata\" tags. (2025/02/19)",
          "opening_hours": "24/7",
          "operator": "HDFC Bank",
          "operator:en": "HDFC Bank",
          "operator:wikidata": "Q631047",
          "short_name": "HDFC"
        }
      },
      {
        "type": "node",
        "id": 11297311426,
        "lat": 28.6005073,
        "lon": 77.22783,
        "tags": {
          "amenity": "atm",
          "brand": "Axis Bank",
          "brand:wikidata": "Q2003549",
          "name": "Axis Bank",
          "operator": "Axis Bank",
          "operator:wikidata": "Q2003549"
        }
      },
      {
        "type": "node",
        "id": 11297311427,
        "lat": 28.6006831,
        "lon": 77.2276217,
        "tags": {
          "amenity": "bank",
          "brand": "HDFC Bank",
          "brand:wikidata": "Q631047",
          "name": "HDFC Bank",
          "short_name": "HDFC"
        }
      },
      {
        "type": "node",
        "id": 11297320407,
        "lat": 28.6004772,
        "lon": 77.227831,
        "tags": {
          "amenity": "bank",
          "brand": "Axis Bank",
          "brand:wikidata": "Q2003549",
          "check_date": "2025-04-20",
          "name": "Axis Bank",
          "opening_hours": "Mo-Sa 09:30-15:30; Su,Sa[2,4] off"
        }
      },
      {
        "type": "node",
        "id": 11552129364,
        "lat": 28.6109435,
        "lon": 77.2194122,
        "tags": {
          "amenity": "cafe",
          "name": "Cafe Museo"
        }
      },
      {
        "type": "node",
        "id": 11559188459,
        "lat": 28.6024732,
        "lon": 77.2280844,
        "tags": {
          "addr:street": "Khan Market near gate number 4",
          "amenity": "restaurant",
          "name": "South Indian Food",
          "phone": "9312051270"
        }
      },
      {
        "type": "node",
        "id": 11559221799,
        "lat": 28.6025531,
        "lon": 77.2281292,
        "tags": {
          "amenity": "restaurant",
          "name": "Qureshi kabab"
        }
      },
      {
        "type": "node",
        "id": 11665955531,
        "lat": 28.6013229,
        "lon": 77.2270282,
        "tags": {
          "amenity": "fast_food",
          "cuisine": "north_indian",
          "street_vendor": "yes"
        }
      },
      {
        "type": "node",
        "id": 11665955535,
        "lat": 28.6013033,
        "lon": 77.2270623,
        "tags": {
          "amenity": "fast_food",
          "cuisine": "north_indian",
          "street_vendor": "yes"
        }
      },
      {
        "type": "node",
        "id": 12712686004,
        "lat": 28.6025053,
        "lon": 77.2279312,
        "tags": {
          "amenity": "restaurant",
          "name": "Lutyens's"
        }
      },
      {
        "type": "node",
        "id": 12712686012,
        "lat": 28.600109,
        "lon": 77.2268124,
        "tags": {
          "amenity": "restaurant",
          "name": "Gola Sizzlers"
        }
      },
      {
        "type": "node",
        "id": 12875503326,
        "lat": 28.5998608,
        "lon": 77.2263453,
        "tags": {
          "amenity": "restaurant",
          "level": "1",
          "name": "Cicchetti Italiano"
        }
      },
      {
        "type": "node",
        "id": 12875503327,
        "lat": 28.6000106,
        "lon": 77.2262255,
        "tags": {
          "amenity": "restaurant",
          "level": "1",
          "name": "The Grammar Room"
        }
      }
    ]
  },
  "pois_2_5km": {
    "version": 0.6,
    "generator": "Overpass API 0.7.62.8 e802775f",
    "osm3s": {
      "timestamp_osm_base": "2025-09-06T07:09:28Z",
      "copyright": "The data included in this document is from www.openstreetmap.org. The data is made available under ODbL."
    },
    "elements": [
      {
        "type": "node",
        "id": 554257797,
        "lat": 28.5973548,
        "lon": 77.2111269,
        "tags": {
          "name": "Lok Kalyan Marg",
          "name:hi": "\u0932\u094b\u0915 \u0915\u0932\u094d\u092f\u093e\u0923 \u092e\u093e\u0930\u094d\u0917",
          "name:kn": "\u0cb2\u0ccb\u0c95\u0ccd \u0c95\u0cb2\u0ccd\u0caf\u0cbe\u0ca3\u0ccd",
          "network": "Delhi Metro",
          "note": "Contributors are requested to not edit the \"network\" and the \"operator\" tags. (2023/06/22)",
          "old_name": "Race Course",
          "operator": "Delhi Metro Rail Corporation Limited",
          "public_transport": "stop_position",
          "railway": "stop",
          "ref": "LKM",
          "subway": "yes"
        }
      },
      {
        "type": "node",
        "id": 554257800,
        "lat": 28.6095117,
        "lon": 77.2118249,
        "tags": {
          "name": "Udyog Bhavan",
          "network": "Delhi Metro",
          "note": "Contributors are requested to not edit the \"network\" and the \"operator\" tags. (2023/06/22)",
          "operator": "Delhi Metro Rail Corporation Limited",
          "public_transport": "stop_position",
          "railway": "stop",
          "ref": "UDB",
          "subway": "yes"
        }
      },
      {
        "type": "node",
        "id": 554257805,
        "lat": 28.5865942,
        "lon": 77.2125637,
        "tags": {
          "name": "Jor Bagh",
          "name:kn": "\u0c9c\u0ccb\u0cb0\u0ccd \u0cad\u0cbe\u0c97\u0ccd",
          "network": "Delhi Metro",
          "note": "Contributors are requested to not edit the \"network\" and the \"operator\" tags. (2023/06/22)",
          "operator": "Delhi Metro Rail Corporation Limited",
          "public_transport": "stop_position",
          "railway": "stop",
          "ref": "JB",
          "subway": "yes"
        }
      },
      {
        "type": "node",
        "id": 554257818,
        "lat": 28.6229537,
        "lon": 77.2140587,
        "tags": {
          "name": "Patel Chowk",
          "network": "Delhi Metro",
          "note": "Contributors are requested to not edit the \"network\" and the \"operator\" tags. (2023/06/22)",
          "operator": "Delhi Metro Rail Corporation Limited",
          "public_transport": "stop_position",
          "railway": "stop",
          "ref": "PTCK",
          "subway": "yes"
        }
      },
      {
        "type": "node",
        "id": 562620239,
        "lat": 28.5882486,
        "lon": 77.2338082,
        "tags": {
          "name": "Jawaharlal Nehru Stadium",
          "name:hi": "\u091c\u0935\u093e\u0939\u0930 \u0932\u093e\u0932 \u0928\u0947\u0939\u0930\u0942 \u0938\u094d\u091f\u0947\u0921\u093f\u092f\u092e",
          "network": "Delhi Metro",
          "note": "Contributors are requested to not edit the \"network\" and the \"operator\" tags. (2023/06/23)",
          "operator": "Delhi Metro Rail Corporation Limited",
          "public_transport": "stop_position",
          "subway": "yes"
        }
      },
      {
        "type": "node",
        "id": 927873481,
        "lat": 28.6022643,
        "lon": 77.2291415,
        "tags": {
          "name": "Khan Market",
          "name:en": "Khan Market",
          "name:hi": "\u0916\u093e\u0928 \u092c\u093e\u091c\u093e\u0930",
          "name:ur": "\u062e\u0627\u0646 \u0628\u0627\u0632\u0627\u0631",
          "network": "Delhi Metro",
          "note": "Contributors are requested to not edit the \"network\" and the \"operator\" tags. (2023/06/22)",
          "operator": "Delhi Metro Rail Corporation Limited",
          "public_transport": "stop_position",
          "railway": "stop",
          "subway": "yes"
        }
      },
      {
        "type": "node",
        "id": 1665772897,
        "lat": 28.6158726,
        "lon": 77.2123897,
        "tags": {
          "name": "Central Secretariat",
          "name:hi": "\u0915\u0947\u0902\u0926\u094d\u0930\u0940\u092f \u0938\u091a\u093f\u0935\u093e\u0932\u092f",
          "name:kn": "\u0cb8\u0cc6\u0c82\u0c9f\u0ccd\u0cb0\u0cb2\u0ccd \u0cb8\u0cc6\u0c95\u0ccd\u0cb0\u0cc6\u0c9f\u0cb0\u0cbf\u0cb8\u0ccd\u0c9f\u0ccd",
          "network": "Delhi Metro",
          "note": "Contributors are requested to not edit the \"network\" and the \"operator\" tags. (2023/06/22)",
          "operator": "Delhi Metro Rail Corporation Limited",
          "public_transport": "stop_position",
          "railway": "stop",
          "ref": "CTST",
          "subway": "yes",
          "wikidata": "Q5061812"
        }
      },
      {
        "type": "node",
        "id": 1988668271,
        "lat": 28.6240472,
        "lon": 77.2192877,
        "tags": {
          "name": "Janpath",
          "name:hi": "\u091c\u0928\u092a\u0925",
          "name:kn": "\u0c9c\u0ca8\u0ccd\u0caa\u0ca4\u0ccd",
          "network": "Delhi Metro",
          "note": "Contributors are requested to not edit the \"network\" and the \"operator\" tags. (2023/06/22)",
          "operator": "Delhi Metro Rail Corporation Limited",
          "public_transport": "stop_position",
          "railway": "stop",
          "ref": "JNPH",
          "subway": "yes"
        }
      },
      {
        "type": "node",
        "id": 2416151585,
        "lat": 28.5924259,
        "lon": 77.2375948,
        "tags": {
          "amenity": "fuel",
          "brand": "Bharat Petroleum",
          "brand:wikidata": "Q854826",
          "compressed_air": "yes",
          "name": "Bharat Petroleum"
        }
      },
      {
        "type": "node",
        "id": 4692007714,
        "lat": 28.6045138,
        "lon": 77.2245624,
        "tags": {
          "amenity": "fuel",
          "brand": "Bharat Petroleum",
          "brand:wikidata": "Q854826",
          "name": "Jiwan Service Station",
          "opening_hours": "24/7"
        }
      },
      {
        "type": "node",
        "id": 4700705789,
        "lat": 28.6086972,
        "lon": 77.2302094,
        "tags": {
          "amenity": "bus_station",
          "bus": "yes",
          "name": "Bikaner Bus Depot",
          "name:hi": "Bikaner Bus Depot",
          "public_transport": "station"
        }
      },
      {
        "type": "node",
        "id": 5345530305,
        "lat": 28.624526,
        "lon": 77.2188215,
        "tags": {
          "amenity": "fuel",
          "brand": "Bharat Petroleum",
          "brand:wikidata": "Q854826",
          "name": "Bharat Petroleum"
        }
      },
      {
        "type": "node",
        "id": 5345531969,
        "lat": 28.6264672,
        "lon": 77.2199591,
        "tags": {
          "amenity": "fuel",
          "brand": "Indian Oil",
          "brand:wikidata": "Q1289348",
          "name": "Indian Oil"
        }
      },
      {
        "type": "node",
        "id": 5426405563,
        "lat": 28.5913816,
        "lon": 77.2120833,
        "tags": {
          "amenity": "fuel",
          "brand": "Hindustan Petroleum",
          "brand:wikidata": "Q1619375",
          "name": "HP",
          "official_name": "Hindustan Petroleum"
        }
      },
      {
        "type": "node",
        "id": 5426405944,
        "lat": 28.5869597,
        "lon": 77.2121034,
        "tags": {
          "amenity": "fuel",
          "brand": "Indian Oil",
          "brand:wikidata": "Q1289348",
          "compressed_air": "yes",
          "name": "Indian Oil",
          "opening_hours": "Mo-Su 06:00-23:00",
          "toilets": "yes"
        }
      },
      {
        "type": "node",
        "id": 5453646586,
        "lat": 28.6158794,
        "lon": 77.2122822,
        "tags": {
          "name": "Central Secretariat",
          "name:hi": "\u0938\u0947\u0902\u091f\u094d\u0930\u0932 \u0938\u0947\u0915\u094d\u0930\u0947\u091f\u0947\u0930\u093f\u090f\u091f",
          "name:kn": "\u0cb8\u0cc6\u0c82\u0c9f\u0ccd\u0cb0\u0cb2\u0ccd \u0cb8\u0cc6\u0c95\u0ccd\u0cb0\u0cc6\u0c9f\u0cb0\u0cbf\u0cb8\u0ccd\u0c9f\u0ccd",
          "network": "Delhi Metro",
          "network:wikidata": "Q271195",
          "note": "Contributors are requested to not edit the \"network\" and the \"operator\" tags. (2023/06/22)",
          "operator": "Delhi Metro Rail Corporation Limited",
          "operator:wikidata": "Q1029339",
          "public_transport": "station",
          "railway": "station",
          "ref": "CTST",
          "station": "subway",
          "subway": "yes",
          "train": "yes",
          "wikidata": "Q5061812",
          "wikipedia": "en:Central Secretariat metro station"
        }
      },
      {
        "type": "node",
        "id": 5483954444,
        "lat": 28.6173486,
        "lon": 77.2038762,
        "tags": {
          "bus": "yes",
          "name": "Kendriya Terminal",
          "public_transport": "stop_position"
        }
      },
      {
        "type": "node",
        "id": 5561975423,
        "lat": 28.617422,
        "lon": 77.2038794,
        "tags": {
          "bus": "yes",
          "name": "Kendriya Terminal",
          "public_transport": "stop_position"
        }
      },
      {
        "type": "node",
        "id": 5690505425,
        "lat": 28.6233298,
        "lon": 77.2184168,
        "tags": {
          "amenity": "bus_station",
          "bus": "yes",
          "name": "Western Court Bus Terminus",
          "public_transport": "station"
        }
      },
      {
        "type": "node",
        "id": 5777602002,
        "lat": 28.6229815,
        "lon": 77.2140067,
        "tags": {
          "name": "Patel Chowk",
          "network": "Delhi Metro",
          "note": "Contributors are requested to not edit the \"network\" and the \"operator\" tags. (2023/06/22)",
          "operator": "Delhi Metro Rail Corporation Limited",
          "public_transport": "stop_position",
          "railway": "stop",
          "ref": "PTCK",
          "subway": "yes"
        }
      },
      {
        "type": "node",
        "id": 5777602007,
        "lat": 28.615882,
        "lon": 77.212252,
        "tags": {
          "name": "Central Secretariat",
          "name:kn": "\u0cb8\u0cc6\u0c82\u0c9f\u0ccd\u0cb0\u0cb2\u0ccd \u0cb8\u0cc6\u0c95\u0ccd\u0cb0\u0cc6\u0c9f\u0cb0\u0cbf\u0cb8\u0ccd\u0c9f\u0ccd",
          "network": "Delhi Metro",
          "note": "Contributors are requested to not edit the \"network\" and the \"operator\" tags. (2023/06/22)",
          "operator": "Delhi Metro Rail Corporation Limited",
          "public_transport": "stop_position",
          "railway": "stop",
          "ref": "CTST",
          "subway": "yes"
        }
      },
      {
        "type": "node",
        "id": 5777602008,
        "lat": 28.6095152,
        "lon": 77.2117641,
        "tags": {
          "name": "Udyog Bhavan",
          "network": "Delhi Metro",
          "note": "Contributors are requested to not edit the \"network\" and the \"operator\" tags. (2023/06/22)",
          "operator": "Delhi Metro Rail Corporation Limited",
          "public_transport": "stop_position",
          "railway": "stop",
          "ref": "UDB",
          "subway": "yes"
        }
      },
      {
        "type": "node",
        "id": 5777602010,
        "lat": 28.5973456,
        "lon": 77.2110668,
        "tags": {
          "name": "Lok Kalyan Marg",
          "name:hi": "\u0932\u094b\u0915 \u0915\u0932\u094d\u092f\u093e\u0923 \u092e\u093e\u0930\u094d\u0917",
          "name:kn": "\u0cb2\u0ccb\u0c95\u0ccd \u0c95\u0cb2\u0ccd\u0caf\u0cbe\u0ca3\u0ccd",
          "network": "Delhi Metro",
          "note": "Contributors are requested to not edit the \"network\" and the \"operator\" tags. (2023/06/22)",
          "old_name": "Race Course",
          "operator": "Delhi Metro Rail Corporation Limited",
          "public_transport": "stop_position",
          "railway": "stop",
          "ref": "LKM",
          "subway": "yes"
        }
      },
      {
        "type": "node",
        "id": 5777602013,
        "lat": 28.5865988,
        "lon": 77.212503,
        "tags": {
          "name": "Jor Bagh",
          "name:kn": "\u0c9c\u0ccb\u0cb0\u0ccd \u0cad\u0cbe\u0c97\u0ccd",
          "network": "Delhi Metro",
          "note": "Contributors are requested to not edit the \"network\" and the \"operator\" tags. (2023/06/22)",
          "operator": "Delhi Metro Rail Corporation Limited",
          "public_transport": "stop_position",
          "railway": "stop",
          "ref": "JB",
          "subway": "yes"
        }
      },
      {
        "type": "node",
        "id": 5777629158,
        "lat": 28.5882285,
        "lon": 77.2337552,
        "tags": {
          "name": "Jawaharlal Nehru Stadium",
          "name:hi": "\u091c\u0935\u093e\u0939\u0930 \u0932\u093e\u0932 \u0928\u0947\u0939\u0930\u0942 \u0938\u094d\u091f\u0947\u0921\u093f\u092f\u092e",
          "network": "Delhi Metro",
          "note": "Contributors are requested to not edit the \"network\" and the \"operator\" tags. (2023/06/23)",
          "operator": "Delhi Metro Rail Corporation Limited",
          "public_transport": "stop_position",
          "railway": "stop",
          "subway": "yes"
        }
      },
      {
        "type": "node",
        "id": 5777629164,
        "lat": 28.6022239,
        "lon": 77.2291083,
        "tags": {
          "name": "Khan Market",
          "name:en": "Khan Market",
          "name:hi": "\u0916\u093e\u0928 \u092c\u093e\u091c\u093e\u0930",
          "name:ur": "\u062e\u0627\u0646 \u0628\u0627\u0632\u0627\u0631",
          "network": "Delhi Metro",
          "note": "Contributors are requested to not edit the \"network\" and the \"operator\" tags. (2023/06/22)",
          "operator": "Delhi Metro Rail Corporation Limited",
          "public_transport": "stop_position",
          "railway": "stop",
          "subway": "yes"
        }
      },
      {
        "type": "node",
        "id": 5777629169,
        "lat": 28.6158758,
        "lon": 77.2123449,
        "tags": {
          "name": "Central Secretariat",
          "name:hi": "\u0915\u0947\u0902\u0926\u094d\u0930\u0940\u092f \u0938\u091a\u093f\u0935\u093e\u0932\u092f",
          "name:kn": "\u0cb8\u0cc6\u0c82\u0c9f\u0ccd\u0cb0\u0cb2\u0ccd \u0cb8\u0cc6\u0c95\u0ccd\u0cb0\u0cc6\u0c9f\u0cb0\u0cbf\u0cb8\u0ccd\u0c9f\u0ccd",
          "network": "Delhi Metro",
          "note": "Contributors are requested to not edit the \"network\" and the \"operator\" tags. (2023/06/22)",
          "operator": "Delhi Metro Rail Corporation Limited",
          "public_transport": "stop_position",
          "railway": "stop",
          "ref": "CTST",
          "subway": "yes",
          "wikidata": "Q5061812"
        }
      },
      {
        "type": "node",
        "id": 5777629177,
        "lat": 28.6240499,
        "lon": 77.2192311,
        "tags": {
          "name": "Janpath",
          "name:hi": "\u091c\u0928\u092a\u0925",
          "name:kn": "\u0c9c\u0ca8\u0ccd\u0caa\u0ca4\u0ccd",
          "network": "Delhi Metro",
          "note": "Contributors are requested to not edit the \"network\" and the \"operator\" tags. (2023/06/22)",
          "operator": "Delhi Metro Rail Corporation Limited",
          "public_transport": "stop_position",
          "railway": "stop",
          "ref": "JNPH",
          "subway": "yes"
        }
      },
      {
        "type": "node",
        "id": 6547772108,
        "lat": 28.615878,
        "lon": 77.2123128,
        "tags": {
          "name": "Central Secretariat",
          "name:kn": "\u0cb8\u0cc6\u0c82\u0c9f\u0ccd\u0cb0\u0cb2\u0ccd \u0cb8\u0cc6\u0c95\u0ccd\u0cb0\u0cc6\u0c9f\u0cb0\u0cbf\u0cb8\u0ccd\u0c9f\u0ccd",
          "network": "Delhi Metro",
          "note": "Contributors are requested to not edit the \"network\" and the \"operator\" tags. (2023/06/22)",
          "operator": "Delhi Metro Rail Corporation Limited",
          "public_transport": "stop_position",
          "railway": "stop",
          "ref": "CTST",
          "subway": "yes"
        }
      },
      {
        "type": "node",
        "id": 6657891769,
        "lat": 28.6243192,
        "lon": 77.2344502,
        "tags": {
          "amenity": "theatre",
          "name": "Bahumukh",
          "name:hi": "\u092c\u0939\u0941\u092e\u0941\u0916",
          "old_name": "Circulation Unit"
        }
      },
      {
        "type": "node",
        "id": 6918479540,
        "lat": 28.5854347,
        "lon": 77.2203893,
        "tags": {
          "amenity": "charging_station"
        }
      },
      {
        "type": "node",
        "id": 6918479558,
        "lat": 28.587056,
        "lon": 77.2120476,
        "tags": {
          "amenity": "charging_station"
        }
      },
      {
        "type": "node",
        "id": 7018886726,
        "lat": 28.6229664,
        "lon": 77.214031,
        "tags": {
          "name": "Patel Chowk",
          "name:hi": "\u092a\u091f\u0947\u0932 \u091a\u094c\u0915",
          "name:ur": "\u067e\u0679\u06cc\u0644 \u0686\u0648\u06a9",
          "network": "Delhi Metro",
          "network:wikidata": "Q271195",
          "note": "Contributors are requested to not edit the \"network\" and the \"operator\" tags. (2023/06/22)",
          "operator": "Delhi Metro Rail Corporation Limited",
          "operator:wikidata": "Q1029339",
          "public_transport": "station",
          "railway": "station",
          "ref": "PTCK",
          "station": "subway",
          "subway": "yes",
          "wikidata": "Q7144407",
          "wikipedia": "en:Patel Chowk metro station"
        }
      },
      {
        "type": "node",
        "id": 7018886727,
        "lat": 28.6095136,
        "lon": 77.211796,
        "tags": {
          "name": "Udyog Bhavan",
          "name:hi": "\u0909\u0926\u094d\u092f\u094b\u0917 \u092d\u0935\u0928",
          "name:ur": "\u0627\u064f\u062f\u06cc\u0648\u06af \u0628\u06be\u0648\u0646",
          "network": "Delhi Metro",
          "network:wikidata": "Q271195",
          "note": "Contributors are requested to not edit the \"network\" and the \"operator\" tags. (2023/06/22)",
          "operator": "Delhi Metro Rail Corporation Limited",
          "operator:wikidata": "Q1029339",
          "public_transport": "station",
          "railway": "station",
          "ref": "UDB",
          "station": "subway",
          "subway": "yes",
          "wikidata": "Q7877392",
          "wikipedia": "en:Udyog Bhawan metro station"
        }
      },
      {
        "type": "node",
        "id": 7018886728,
        "lat": 28.5973513,
        "lon": 77.2110967,
        "tags": {
          "name": "Lok Kalyan Marg",
          "name:hi": "\u0932\u094b\u0915 \u0915\u0932\u094d\u092f\u093e\u0923 \u092e\u093e\u0930\u094d\u0917",
          "name:kn": "\u0cb2\u0ccb\u0c95\u0ccd \u0c95\u0cb2\u0ccd\u0caf\u0cbe\u0ca3\u0ccd",
          "network": "Delhi Metro",
          "note": "Contributors are requested to not edit the \"network\" and the \"operator\" tags. (2023/06/22)",
          "old_name": "Race Course",
          "operator": "Delhi Metro Rail Corporation Limited",
          "public_transport": "station",
          "railway": "station",
          "station": "subway",
          "subway": "yes",
          "wikidata": "Q7278893",
          "wikipedia": "en:Lok Kalyan Marg metro station"
        }
      },
      {
        "type": "node",
        "id": 7018886729,
        "lat": 28.5865094,
        "lon": 77.2125273,
        "tags": {
          "name": "Jor Bagh",
          "name:hi": "\u091c\u094b\u0930 \u092c\u093e\u0917",
          "name:kn": "\u0c9c\u0ccb\u0cb0\u0ccd \u0cad\u0cbe\u0c97\u0ccd",
          "name:ur": "\u062c\u0648\u0631 \u0628\u0627\u063a",
          "network": "Delhi Metro",
          "network:wikidata": "Q271195",
          "note": "Contributors are requested to not edit the \"network\" and the \"operator\" tags. (2023/06/22)",
          "operator": "Delhi Metro Rail Corporation Limited",
          "operator:wikidata": "Q1029339",
          "public_transport": "station",
          "railway": "station",
          "ref": "JB",
          "station": "subway",
          "subway": "yes",
          "wikidata": "Q6276226",
          "wikipedia": "en:Jor Bagh metro station"
        }
      },
      {
        "type": "node",
        "id": 7282286731,
        "lat": 28.6022446,
        "lon": 77.2291281,
        "tags": {
          "name": "Khan Market",
          "name:hi": "\u0916\u093e\u0928 \u092c\u093e\u091c\u093e\u0930",
          "name:ur": "\u062e\u0627\u0646 \u0628\u0627\u0632\u0627\u0631",
          "network": "Delhi Metro",
          "note": "Contributors are requested to not edit the \"network\" and the \"operator\" tags. (2023/06/22)",
          "operator": "Delhi Metro Rail Corporation Limited",
          "public_transport": "station",
          "railway": "station",
          "station": "subway",
          "subway": "yes"
        }
      },
      {
        "type": "node",
        "id": 9584236506,
        "lat": 28.5882347,
        "lon": 77.2337833,
        "tags": {
          "name": "Jawaharlal Nehru Stadium",
          "name:hi": "\u091c\u0935\u093e\u0939\u0930 \u0932\u093e\u0932 \u0928\u0947\u0939\u0930\u0942 \u0938\u094d\u091f\u0947\u0921\u093f\u092f\u092e",
          "network": "Delhi Metro",
          "network:wikidata": "Q271195",
          "note": "Contributors are requested to not edit the \"network\" and the \"operator\" tags. (2023/06/22)",
          "operator": "Delhi Metro Rail Corporation Limited",
          "operator:wikidata": "Q1029339",
          "public_transport": "station",
          "railway": "station",
          "station": "subway",
          "subway": "yes"
        }
      },
      {
        "type": "node",
        "id": 9584236507,
        "lat": 28.6240485,
        "lon": 77.2192587,
        "tags": {
          "name": "Janpath",
          "name:en": "Janpath",
          "name:hi": "\u091c\u0928\u092a\u0925",
          "name:kn": "\u0c9c\u0ca8\u0ccd\u0caa\u0ca4\u0ccd",
          "name:ur": "\u062c\u0646 \u067e\u062a\u06be",
          "network": "Delhi Metro",
          "network:wikidata": "Q271195",
          "note": "Contributors are requested to not edit the \"network\" and the \"operator\" tags. (2023/06/22)",
          "operator": "Delhi Metro Rail Corporation Limited",
          "operator:wikidata": "Q1029339",
          "public_transport": "station",
          "railway": "station",
          "ref": "JNPH",
          "station": "subway",
          "subway": "yes",
          "wikidata": "Q16850982",
          "wikipedia": "en:Janpath metro station"
        }
      },
      {
        "type": "node",
        "id": 10241768254,
        "lat": 28.5903206,
        "lon": 77.2201483,
        "tags": {
          "amenity": "charging_station"
        }
      },
      {
        "type": "node",
        "id": 10241775591,
        "lat": 28.5902808,
        "lon": 77.2197587,
        "tags": {
          "amenity": "charging_station"
        }
      },
      {
        "type": "node",
        "id": 10241805232,
        "lat": 28.5903207,
        "lon": 77.2201225,
        "tags": {
          "amenity": "charging_station"
        }
      },
      {
        "type": "node",
        "id": 10241808063,
        "lat": 28.5903054,
        "lon": 77.2199561,
        "tags": {
          "amenity": "charging_station"
        }
      },
      {
        "type": "node",
        "id": 10564130631,
        "lat": 28.6003513,
        "lon": 77.2267809,
        "tags": {
          "amenity": "charging_station"
        }
      },
      {
        "type": "node",
        "id": 10576228241,
        "lat": 28.596925,
        "lon": 77.2229085,
        "tags": {
          "access": "yes",
          "amenity": "charging_station",
          "covered": "yes"
        }
      },
      {
        "type": "node",
        "id": 11132023351,
        "lat": 28.5844378,
        "lon": 77.2205342,
        "tags": {
          "amenity": "charging_station"
        }
      },
      {
        "type": "node",
        "id": 11278156847,
        "lat": 28.5890626,
        "lon": 77.2252522,
        "tags": {
          "amenity": "theatre",
          "level": "0;1",
          "name": "Stein Auditorium"
        }
      },
      {
        "type": "node",
        "id": 11278174379,
        "lat": 28.5890358,
        "lon": 77.2252913,
        "tags": {
          "alt_name": "The Theatre",
          "amenity": "theatre",
          "level": "-1",
          "name": "Amaltas"
        }
      },
      {
        "type": "node",
        "id": 11406900271,
        "lat": 28.6019401,
        "lon": 77.2372754,
        "tags": {
          "amenity": "charging_station",
          "brand": "Tata Power",
          "capacity": "1",
          "socket:type2": "1"
        }
      },
      {
        "type": "node",
        "id": 11883580960,
        "lat": 28.6240292,
        "lon": 77.2345678,
        "tags": {
          "amenity": "theatre"
        }
      },
      {
        "type": "node",
        "id": 12672890507,
        "lat": 28.5904687,
        "lon": 77.2331036,
        "tags": {
          "amenity": "charging_station",
          "charging_station:battery_swapping": "yes",
          "level": "0"
        }
      },
      {
        "type": "node",
        "id": 12894372007,
        "lat": 28.6112384,
        "lon": 77.2449181,
        "tags": {
          "amenity": "charging_station"
        }
      },
      {
        "type": "node",
        "id": 12901933482,
        "lat": 28.5875463,
        "lon": 77.226213,
        "tags": {
          "amenity": "charging_station"
        }
      },
      {
        "type": "node",
        "id": 12901933483,
        "lat": 28.58752,
        "lon": 77.226218,
        "tags": {
          "amenity": "charging_station"
        }
      }
    ]
  }
}