{
  "pois_1km": {
    "version": 0.6,
    "generator": "Overpass API 0.7.62.8 e802775f",
    "osm3s": {
      "timestamp_osm_base": "2025-09-06T07:03:11Z",
      "copyright": "The data included in this document is from www.openstreetmap.org. The data is made available under ODbL."
    },
    "elements": [
      {
        "type": "node",
        "id": 5554417989,
        "lat": 28.5292556,
        "lon": 77.2726466,
        "tags": {
          "amenity": "atm",
          "brand": "Bank of India",
          "brand:wikidata": "Q2004439",
          "operator": "Bank of India",
          "operator:wikidata": "Q2004439"
        }
      },
      {
        "type": "node",
        "id": 5655292436,
        "lat": 28.5366674,
        "lon": 77.2678295,
        "tags": {
          "amenity": "bank",
          "branch": "Okhla",
          "brand": "IDFC Bank"
        }
      },
      {
        "type": "node",
        "id": 5655292555,
        "lat": 28.5367027,
        "lon": 77.267782,
        "tags": {
          "amenity": "bank",
          "atm": "yes",
          "brand": "Kotak Mahindra Bank",
          "brand:wikidata": "Q2040404",
          "name": "Kotak Mahindra Bank"
        }
      },
      {
        "type": "node",
        "id": 6349423464,
        "lat": 28.5356479,
        "lon": 77.2676022,
        "tags": {
          "amenity": "atm",
          "atm": "yes",
          "brand": "HDFC Bank",
          "brand:en": "HDFC Bank",
          "brand:wikidata": "Q631047",
          "currency:INR": "yes",
          "drive_through": "no",
          "indoor": "yes",
          "note": "Contributors are requested to not edit the \"brand\", \"brand:en\", \"brand:wikidata\", \"operator\", \"operator:en\" and \"operator:wikidata\" tags. (2025/02/19)",
          "opening_hours": "24/7",
          "operator": "HDFC Bank",
          "operator:en": "HDFC Bank",
          "operator:wikidata": "Q631047",
          "short_name": "HDFC"
        }
      },
      {
        "type": "node",
        "id": 6866376668,
        "lat": 28.5371597,
        "lon": 77.2690872,
        "tags": {
          "amenity": "bank",
          "atm": "yes",
          "brand": "Bank of Baroda",
          "brand:wikidata": "Q2003797",
          "name": "Bank of Baroda",
          "was:brand": "Vijaya Bank"
        }
      },
      {
        "type": "node",
        "id": 7035457531,
        "lat": 28.5333325,
        "lon": 77.2693194,
        "tags": {
          "amenity": "bank",
          "atm": "yes",
          "branch": "Okhla",
          "brand": "J&K Bank"
        }
      },
      {
        "type": "node",
        "id": 7035457532,
        "lat": 28.5335354,
        "lon": 77.2693068,
        "tags": {
          "amenity": "bank",
          "atm": "yes",
          "branch": "Okhla Phase 2",
          "brand": "ICICI Bank",
          "brand:wikidata": "Q1653258",
          "name": "ICICI Bank",
          "short_name": "ICICI"
        }
      },
      {
        "type": "node",
        "id": 7035457535,
        "lat": 28.5336926,
        "lon": 77.2692579,
        "tags": {
          "amenity": "bank",
          "atm": "yes",
          "brand": "IndusInd Bank",
          "brand:wikidata": "Q2040323",
          "name": "IndusInd Bank"
        }
      },
      {
        "type": "node",
        "id": 7035457538,
        "lat": 28.5337422,
        "lon": 77.269218,
        "tags": {
          "amenity": "bank",
          "atm": "yes",
          "brand": "Yes Bank",
          "brand:wikidata": "Q2040394",
          "name": "Yes Bank"
        }
      },
      {
        "type": "node",
        "id": 7138632199,
        "lat": 28.5323573,
        "lon": 77.2659687,
        "tags": {
          "addr:district": "South East",
          "addr:full": "1402E/13,Near Govindpuri police station, Govindpuri",
          "addr:postcode": "110019",
          "addr:state": "Delhi",
          "amenity": "hospital",
          "description": "<100 Bedded Hospital",
          "name": "Vallabh Hospital",
          "source": "OpenGovernmentData"
        }
      },
      {
        "type": "node",
        "id": 8033497408,
        "lat": 28.5250281,
        "lon": 77.2763046,
        "tags": {
          "addr:city": "delhi",
          "addr:housenumber": "2nd floor",
          "addr:postcode": "110020",
          "addr:street": "A-238, Okhla I, New Delhi, Delhi 110020, India",
          "amenity": "fast_food",
          "cuisine": "chicken",
          "name": "Ahimsa food"
        }
      }
    ]
  },
  "pois_2_5km": {
    "version": 0.6,
    "generator": "Overpass API 0.7.62.8 e802775f",
    "osm3s": {
      "timestamp_osm_base": "2025-09-06T07:04:14Z",
      "copyright": "The data included in this document is from www.openstreetmap.org. The data is made available under ODbL."
    },
    "elements": [
      {
        "type": "node",
        "id": 562622101,
        "lat": 28.5384251,
        "lon": 77.2830377,
        "tags": {
          "name": "Jasola Apollo",
          "name:hi": "\u091c\u0938\u094b\u0932\u093e \u0905\u092a\u094b\u0932\u094b",
          "network": "Delhi Metro",
          "note": "Contributors are requested to not edit the \"network\" and the \"operator\" tags. (2023/06/22)",
          "operator": "Delhi Metro Rail Corporation Limited",
          "public_transport": "stop_position",
          "railway": "stop",
          "subway": "yes"
        }
      },
      {
        "type": "node",
        "id": 562622242,
        "lat": 28.5285876,
        "lon": 77.2883155,
        "tags": {
          "name": "Sarita Vihar",
          "name:hi": "\u0938\u0930\u093f\u0924\u093e \u0935\u093f\u0939\u093e\u0930",
          "network": "Delhi Metro",
          "note": "Contributors are requested to not edit the \"network\" and the \"operator\" tags. (2023/06/22)",
          "operator": "Delhi Metro Rail Corporation Limited",
          "public_transport": "stop_position",
          "railway": "stop",
          "subway": "yes"
        }
      },
      {
        "type": "node",
        "id": 856302882,
        "lat": 28.5432816,
        "lon": 77.2756683,
        "tags": {
          "name": "Harkesh Nagar Okhla",
          "name:hi": "\u0939\u0930\u0915\u0947\u0936 \u0928\u0917\u0930",
          "network": "Delhi Metro",
          "note": "Contributors are requested to not edit the \"network\" and the \"operator\" tags. (2023/06/23)",
          "operator": "Delhi Metro Rail Corporation Limited",
          "public_transport": "stop_position",
          "ref": "OKA",
          "subway": "yes"
        }
      },
      {
        "type": "node",
        "id": 927873461,
        "lat": 28.5443766,
        "lon": 77.264266,
        "tags": {
          "name": "Govind Puri",
          "name:hi": "\u0917\u094b\u0935\u093f\u0902\u0926 \u092a\u0941\u0930\u0940",
          "network": "Delhi Metro",
          "note": "Contributors are requested to not edit the \"network\" and the \"operator\" tags. (2023/06/23)",
          "operator": "Delhi Metro Rail Corporation Limited",
          "public_transport": "stop_position",
          "subway": "yes"
        }
      },
      {
        "type": "node",
        "id": 1706019482,
        "lat": 28.5197252,
        "lon": 77.2944799,
        "tags": {
          "name": "Mohan Estate",
          "name:hi": "\u092e\u094b\u0939\u0928 \u090f\u0938\u094d\u091f\u0947\u091f",
          "network": "Delhi Metro",
          "note": "Contributors are requested to not edit the \"network\" and the \"operator\" tags. (2023/06/22)",
          "operator": "Delhi Metro Rail Corporation Limited",
          "public_transport": "stop_position",
          "railway": "stop",
          "subway": "yes",
          "wikidata": "Q6893528",
          "wikipedia": "en:Mohan Estate metro station"
        }
      },
      {
        "type": "node",
        "id": 2679055806,
        "lat": 28.5323584,
        "lon": 77.2670442,
        "tags": {
          "amenity": "fuel"
        }
      },
      {
        "type": "node",
        "id": 2716596291,
        "lat": 28.5377335,
        "lon": 77.2844736,
        "tags": {
          "amenity": "fuel",
          "brand": "Indian Oil",
          "brand:wikidata": "Q1289348",
          "name": "Indian Oil"
        }
      },
      {
        "type": "node",
        "id": 5554423623,
        "lat": 28.545849,
        "lon": 77.2641796,
        "tags": {
          "amenity": "fuel",
          "brand": "Hindustan Petroleum",
          "brand:wikidata": "Q1619375",
          "name": "HP",
          "official_name": "Hindustan Petroleum",
          "opening_hours": "24/7"
        }
      },
      {
        "type": "node",
        "id": 5554423624,
        "lat": 28.5293861,
        "lon": 77.2728188,
        "tags": {
          "amenity": "fuel",
          "brand": "IGL",
          "brand:wikidata": "Q125553945",
          "name": "IGL"
        }
      },
      {
        "type": "node",
        "id": 5554423817,
        "lat": 28.5292873,
        "lon": 77.2726974,
        "tags": {
          "amenity": "fuel",
          "brand": "Hindustan Petroleum",
          "brand:wikidata": "Q1619375",
          "name": "HP",
          "official_name": "Hindustan Petroleum"
        }
      },
      {
        "type": "node",
        "id": 5561733973,
        "lat": 28.5415844,
        "lon": 77.2809102,
        "tags": {
          "amenity": "fuel",
          "brand": "Hindustan Petroleum"
        }
      },
      {
        "type": "node",
        "id": 5715389190,
        "lat": 28.5239041,
        "lon": 77.2551091,
        "tags": {
          "bus": "yes",
          "name": "Tara Apartment",
          "public_transport": "stop_position"
        }
      },
      {
        "type": "node",
        "id": 5716127700,
        "lat": 28.5238699,
        "lon": 77.2550983,
        "tags": {
          "bus": "yes",
          "name": "Tara Apartment",
          "public_transport": "stop_position"
        }
      },
      {
        "type": "node",
        "id": 5777629650,
        "lat": 28.5197076,
        "lon": 77.294434,
        "tags": {
          "name": "Mohan Estate",
          "name:hi": "\u092e\u094b\u0939\u0928 \u090f\u0938\u094d\u091f\u0947\u091f",
          "network": "Delhi Metro",
          "note": "Contributors are requested to not edit the \"network\" and the \"operator\" tags. (2023/06/22)",
          "operator": "Delhi Metro Rail Corporation Limited",
          "public_transport": "stop_position",
          "railway": "stop",
          "subway": "yes",
          "wikidata": "Q6893528",
          "wikipedia": "en:Mohan Estate metro station"
        }
      },
      {
        "type": "node",
        "id": 5777629785,
        "lat": 28.5432385,
        "lon": 77.2756968,
        "tags": {
          "name": "Harkesh Nagar Okhla",
          "name:hi": "\u0939\u0930\u0915\u0947\u0936 \u0928\u0917\u0930",
          "network": "Delhi Metro",
          "note": "Contributors are requested to not edit the \"network\" and the \"operator\" tags. (2023/06/23)",
          "operator": "Delhi Metro Rail Corporation Limited",
          "public_transport": "stop_position",
          "ref": "OKA",
          "subway": "yes"
        }
      },
      {
        "type": "node",
        "id": 5777629803,
        "lat": 28.5443601,
        "lon": 77.2642125,
        "tags": {
          "name": "Govind Puri",
          "name:hi": "\u0917\u094b\u0935\u093f\u0902\u0926 \u092a\u0941\u0930\u0940",
          "network": "Delhi Metro",
          "note": "Contributors are requested to not edit the \"network\" and the \"operator\" tags. (2023/06/23)",
          "operator": "Delhi Metro Rail Corporation Limited",
          "public_transport": "stop_position",
          "subway": "yes"
        }
      },
      {
        "type": "node",
        "id": 5777629832,
        "lat": 28.5285679,
        "lon": 77.2882774,
        "tags": {
          "name": "Sarita Vihar",
          "name:hi": "\u0938\u0930\u093f\u0924\u093e \u0935\u093f\u0939\u093e\u0930",
          "network": "Delhi Metro",
          "note": "Contributors are requested to not edit the \"network\" and the \"operator\" tags. (2023/06/22)",
          "operator": "Delhi Metro Rail Corporation Limited",
          "public_transport": "stop_position",
          "railway": "stop",
          "subway": "yes"
        }
      },
      {
        "type": "node",
        "id": 6274317078,
        "lat": 28.5380888,
        "lon": 77.2901348,
        "tags": {
          "amenity": "fuel",
          "brand": "Indian Oil",
          "brand:wikidata": "Q1289348",
          "name": "Indian Oil"
        }
      },
      {
        "type": "node",
        "id": 6274317081,
        "lat": 28.5387125,
        "lon": 77.2916081,
        "tags": {
          "amenity": "fuel",
          "brand": "Hindustan Petroleum",
          "narrow": "Hindustan Petroleum"
        }
      },
      {
        "type": "node",
        "id": 6274736850,
        "lat": 28.5373249,
        "lon": 77.290492,
        "tags": {
          "amenity": "fuel",
          "brand": "Indian Oil",
          "brand:wikidata": "Q1289348",
          "name": "Indian Oil"
        }
      },
      {
        "type": "node",
        "id": 6349423471,
        "lat": 28.5276359,
        "lon": 77.2728158,
        "tags": {
          "amenity": "fuel",
          "brand": "Indian Oil",
          "brand:wikidata": "Q1289348",
          "name": "Indian Oil"
        }
      },
      {
        "type": "node",
        "id": 6773338024,
        "lat": 28.5293715,
        "lon": 77.2521986,
        "tags": {
          "bus": "yes",
          "name": "DDA Flats Kalkaji",
          "public_transport": "stop_position"
        }
      },
      {
        "type": "node",
        "id": 6841624827,
        "lat": 28.5439079,
        "lon": 77.2645982,
        "tags": {
          "name": "Govindpuri Metro Station",
          "public_transport": "stop_position",
          "share_taxi": "yes"
        }
      },
      {
        "type": "node",
        "id": 7090905263,
        "lat": 28.544128,
        "lon": 77.2641662,
        "tags": {
          "name": "Govindpuri Metro Station",
          "public_transport": "stop_position",
          "share_taxi": "yes"
        }
      },
      {
        "type": "node",
        "id": 9546632102,
        "lat": 28.5384071,
        "lon": 77.2829961,
        "tags": {
          "name": "Jasola Apollo",
          "name:hi": "\u091c\u0938\u094b\u0932\u093e \u0905\u092a\u094b\u0932\u094b",
          "network": "Delhi Metro",
          "note": "Contributors are requested to not edit the \"network\" and the \"operator\" tags. (2023/06/22)",
          "operator": "Delhi Metro Rail Corporation Limited",
          "public_transport": "stop_position",
          "railway": "stop",
          "subway": "yes"
        }
      },
      {
        "type": "node",
        "id": 9597709830,
        "lat": 28.5445521,
        "lon": 77.2642761,
        "tags": {
          "air_conditioning": "yes",
          "elevation": "1",
          "layer": "1",
          "level": "1",
          "name": "Govind Puri",
          "name:hi": "\u0917\u094b\u0935\u093f\u0902\u0926 \u092a\u0941\u0930\u0940",
          "network": "Delhi Metro",
          "note": "Contributors are requested to not edit the \"network\" and the \"operator\" tags. (2023/06/22)",
          "operator": "Delhi Metro Rail Corporation Limited",
          "public_transport": "station",
          "railway": "station",
          "station": "subway",
          "subway": "yes",
          "wikidata": "Q5589852"
        }
      },
      {
        "type": "node",
        "id": 9597709831,
        "lat": 28.5429338,
        "lon": 77.2750407,
        "tags": {
          "air_conditioning": "yes",
          "elevation": "1",
          "layer": "1",
          "level": "1",
          "name": "Harkesh Nagar Okhla",
          "name:hi": "\u0939\u0930\u0915\u0947\u0936 \u0928\u0917\u0930",
          "name:ur": "\u06c1\u0631\u06a9\u06cc\u0634 \u0646\u06af\u0631 \u0627\u0648\u06a9\u06be\u0644\u0627",
          "network": "Delhi Metro",
          "note": "Contributors are requested to not edit the \"network\" and the \"operator\" tags. (2023/06/22)",
          "operator": "Delhi Metro Rail Corporation Limited",
          "public_transport": "station",
          "railway": "station",
          "ref": "OKA",
          "station": "subway",
          "subway": "yes",
          "wheelchair": "yes",
          "wikidata": "Q7081967",
          "wikipedia": "en:Harkesh Nagar Okhla metro station"
        }
      },
      {
        "type": "node",
        "id": 10694515276,
        "lat": 28.5376366,
        "lon": 77.2910803,
        "tags": {
          "amenity": "fuel",
          "brand": "Bharat Petroleum",
          "name": "Bharat Petroleum"
        }
      },
      {
        "type": "node",
        "id": 12031201050,
        "lat": 28.5442512,
        "lon": 77.264671,
        "tags": {
          "amenity": "charging_station",
          "brand": "Sun Mobility",
          "charging_station:battery_swapping": "yes",
          "covered": "yes",
          "level": "0",
          "name": "Swap Point"
        }
      },
      {
        "type": "node",
        "id": 13061199765,
        "lat": 28.5378783,
        "lon": 77.2897981,
        "tags": {
          "amenity": "fuel",
          "brand": "IGL",
          "name": "IGL"
        }
      }
    ]
  }
}