{
  "pois_1km": {
    "version": 0.6,
    "generator": "Overpass API 0.7.62.8 e802775f",
    "osm3s": {
      "timestamp_osm_base": "2025-09-06T08:08:15Z",
      "copyright": "The data included in this document is from www.openstreetmap.org. The data is made available under ODbL."
    },
    "elements": [
      {
        "type": "node",
        "id": 1474432217,
        "lat": 12.9438988,
        "lon": 77.5968766,
        "tags": {
          "amenity": "hospital",
          "healthcare": "hospital",
          "name": "Vignan Hospital",
          "website": "https://bidsinstitution.com/"
        }
      },
      {
        "type": "node",
        "id": 1474472488,
        "lat": 12.9387115,
        "lon": 77.5937737,
        "tags": {
          "amenity": "hospital",
          "description": "Patients initally should come here to scrrened to refer to the appropriate department for their disorder",
          "emergency": "no",
          "healthcare": "hospital",
          "name": "NIMHANS Screening block"
        }
      },
      {
        "type": "node",
        "id": 1474472859,
        "lat": 12.9388056,
        "lon": 77.5942994,
        "tags": {
          "amenity": "hospital",
          "healthcare": "hospital",
          "name": "NIMHANS OPD"
        }
      },
      {
        "type": "node",
        "id": 1474473881,
        "lat": 12.9395395,
        "lon": 77.5959949,
        "tags": {
          "amenity": "bank",
          "atm": "yes",
          "brand": "State Bank of India",
          "brand:wikidata": "Q1340361",
          "brand:wikipedia": "en:State Bank of India",
          "name": "State Bank of India",
          "name:kn": "\u0cad\u0cbe\u0cb0\u0ca4\u0cc0\u0caf \u0cb8\u0ccd\u0c9f\u0cc7\u0c9f\u0ccd \u0cac\u0ccd\u0caf\u0cbe\u0c82\u0c95\u0ccd",
          "short_name": "SBI",
          "website": "https://www.sbi.co.in"
        }
      },
      {
        "type": "node",
        "id": 1474509222,
        "lat": 12.9459429,
        "lon": 77.5956857,
        "tags": {
          "amenity": "restaurant",
          "name": "Jade Empress",
          "name:kn": "\u0c9c\u0cc7\u0ca1\u0ccd \u0c8e\u0c82\u0caa\u0ccd\u0cb0\u0cc6\u0cb8\u0ccd"
        }
      },
      {
        "type": "node",
        "id": 1474509677,
        "lat": 12.9459575,
        "lon": 77.5951685,
        "tags": {
          "amenity": "restaurant",
          "name": "Keys Hotel",
          "name:kn": "\u0c95\u0cc0\u0cb8\u0ccd \u0cb9\u0ccb\u0c9f\u0cc6\u0cb2\u0ccd"
        }
      },
      {
        "type": "node",
        "id": 1474511948,
        "lat": 12.9483598,
        "lon": 77.5940621,
        "tags": {
          "addr:district": "Bengaluru Urban",
          "addr:full": "87/2, 8Th Cross,Wilson Garden",
          "addr:postcode": "560027",
          "addr:state": "Karnataka",
          "amenity": "hospital",
          "healthcare": "hospital",
          "name": "Manjunath Hospital",
          "name:kn": "\u0cae\u0c82\u0c9c\u0cc1\u0ca8\u0cbe\u0ca5 \u0c86\u0cb8\u0ccd\u0caa\u0ca4\u0ccd\u0cb0\u0cc6",
          "source": "OpenGovernmentData"
        }
      },
      {
        "type": "node",
        "id": 1474512442,
        "lat": 12.9484356,
        "lon": 77.5942592,
        "tags": {
          "addr:street": "8th Cross",
          "amenity": "hospital",
          "healthcare": "hospital",
          "name": "Karthik Hospital",
          "name:kn": "\u0c95\u0cbe\u0cb0\u0ccd\u0ca4\u0cbf\u0c95\u0ccd \u0c86\u0cb8\u0ccd\u0caa\u0ca4\u0ccd\u0cb0\u0cc6"
        }
      },
      {
        "type": "node",
        "id": 1474512610,
        "lat": 12.9494002,
        "lon": 77.5926204,
        "tags": {
          "amenity": "restaurant",
          "name": "Bhagini Hotel",
          "name:kn": "\u0cad\u0cbe\u0c97\u0cbf\u0ca8\u0cbf \u0cb9\u0ccb\u0c9f\u0cc6\u0cb2\u0ccd",
          "wheelchair": "no"
        }
      },
      {
        "type": "node",
        "id": 1603318755,
        "lat": 12.9510846,
        "lon": 77.5955162,
        "tags": {
          "amenity": "doctors",
          "name": "Swetha Clinic"
        }
      },
      {
        "type": "node",
        "id": 1603318780,
        "lat": 12.9481696,
        "lon": 77.5986927,
        "tags": {
          "amenity": "atm",
          "brand": "Corporation Bank",
          "brand:wikidata": "Q2003387",
          "name": "Corporation Bank",
          "operator": "Corporation Bank",
          "operator:wikidata": "Q2003387"
        }
      },
      {
        "type": "node",
        "id": 1603318781,
        "lat": 12.9488718,
        "lon": 77.5977625,
        "tags": {
          "amenity": "atm",
          "brand": "Karnataka Bank",
          "brand:wikidata": "Q2042632",
          "name": "Karnataka Bank",
          "name:kn": "\u0c95\u0cb0\u0ccd\u0ca8\u0cbe\u0c9f\u0c95 \u0cac\u0ccd\u0caf\u0cbe\u0c82\u0c95\u0ccd",
          "operator": "Karnataka Bank",
          "operator:wikidata": "Q2042632"
        }
      },
      {
        "type": "node",
        "id": 1773364555,
        "lat": 12.9456792,
        "lon": 77.5960812,
        "tags": {
          "amenity": "atm",
          "brand": "Canara Bank",
          "brand:en": "Canara Bank",
          "brand:hi": "\u0915\u0947\u0928\u0930\u093e \u092c\u0948\u0902\u0915",
          "brand:kn": "\u0c95\u0cc6\u0ca8\u0cb0\u0cbe \u0cac\u0ccd\u0caf\u0cbe\u0c82\u0c95\u0ccd",
          "brand:pa": "\u0a15\u0a47\u0a28\u0a30\u0a3e \u0a2c\u0a48\u0a02\u0a15",
          "brand:pnb": "\u06a9\u06cc\u0646\u0631\u0627 \u0628\u06cc\u0646\u06a9",
          "brand:ur": "\u06a9\u06cc\u0646\u0631\u0627 \u0628\u06cc\u0646\u06a9",
          "brand:wikidata": "Q2003777",
          "name": "Canara Bank",
          "name:en": "Canara Bank",
          "name:hi": "\u0915\u0947\u0928\u0930\u093e \u092c\u0948\u0902\u0915",
          "name:kn": "\u0c95\u0cc6\u0ca8\u0cb0\u0cbe \u0cac\u0ccd\u0caf\u0cbe\u0c82\u0c95\u0ccd",
          "name:pa": "\u0a15\u0a47\u0a28\u0a30\u0a3e \u0a2c\u0a48\u0a02\u0a15",
          "name:pnb": "\u06a9\u06cc\u0646\u0631\u0627 \u0628\u06cc\u0646\u06a9",
          "name:ur": "\u06a9\u06cc\u0646\u0631\u0627 \u0628\u06cc\u0646\u06a9",
          "operator": "Canara Bank",
          "operator:wikidata": "Q2003777"
        }
      },
      {
        "type": "node",
        "id": 3394751195,
        "lat": 12.9403442,
        "lon": 77.6024598,
        "tags": {
          "name": "Safal Fresh",
          "opening_hours": "07:00-20:00",
          "shop": "supermarket"
        }
      },
      {
        "type": "node",
        "id": 3394753831,
        "lat": 12.9425246,
        "lon": 77.6025303,
        "tags": {
          "addr:district": "Bengaluru Urban",
          "addr:full": "1, 1st Cross, Gupta Layout,Lakksandra, Near Dairy Circle",
          "addr:housenumber": "#1",
          "addr:postcode": "560030",
          "addr:state": "Karnataka",
          "addr:street": "Bannerghatta Road",
          "amenity": "hospital",
          "name": "Sree Venkateshwara Speciality Hospital",
          "name:kn": "\u0cb6\u0ccd\u0cb0\u0cc0 \u0cb5\u0cc6\u0c82\u0c95\u0c9f\u0cc6\u0cb6\u0ccd\u0cb5\u0cb0 \u0c86\u0cb8\u0ccd\u0caa\u0ca4\u0ccd\u0cb0\u0cc6"
        }
      },
      {
        "type": "node",
        "id": 3394760961,
        "lat": 12.9426929,
        "lon": 77.6026966,
        "tags": {
          "amenity": "atm",
          "name": "HDFC ATM",
          "name:kn": "\u0c8e\u0c9a\u0ccd \u0ca1\u0cbf \u0c8e\u0cab\u0ccd \u0cb8\u0cbf",
          "operator": "HDFC"
        }
      },
      {
        "type": "node",
        "id": 3394762170,
        "lat": 12.9424288,
        "lon": 77.6015084,
        "tags": {
          "amenity": "atm",
          "brand": "State Bank of India",
          "brand:wikidata": "Q1340361",
          "name": "State Bank of India",
          "operator": "State Bank of India",
          "operator:wikidata": "Q1340361",
          "short_name": "SBI"
        }
      },
      {
        "type": "node",
        "id": 3710158896,
        "lat": 12.9472236,
        "lon": 77.598734,
        "tags": {
          "amenity": "atm",
          "brand": "ICICI Bank",
          "brand:wikidata": "Q1653258",
          "name": "ICICI Bank",
          "name:kn": "\u0c90\u0cb8\u0cbf\u0c90\u0cb8\u0cbf\u0c90",
          "operator": "ICICI Bank",
          "operator:wikidata": "Q1653258",
          "short_name": "ICICI"
        }
      },
      {
        "type": "node",
        "id": 3710210170,
        "lat": 12.9474222,
        "lon": 77.5986921,
        "tags": {
          "amenity": "hospital",
          "healthcare": "hospital",
          "name": "Krishna Nursing Home"
        }
      },
      {
        "type": "node",
        "id": 3710229278,
        "lat": 12.9483481,
        "lon": 77.6000553,
        "tags": {
          "amenity": "pharmacy",
          "healthcare": "pharmacy",
          "name": "Padmavathi Medicals"
        }
      },
      {
        "type": "node",
        "id": 3710229281,
        "lat": 12.9486255,
        "lon": 77.600076,
        "tags": {
          "addr:district": "Bengaluru Urban",
          "addr:full": "16/10 3Road Main, 14Th Cross, Chinmaya Pallya, Wilson Garden",
          "addr:postcode": "560030",
          "addr:state": "Karnataka",
          "addr:street": "BTS Main Road",
          "amenity": "clinic",
          "healthcare": "clinic",
          "name": "Roshni Nursing Home",
          "source": "OpenGovernmentData"
        }
      },
      {
        "type": "node",
        "id": 3710229282,
        "lat": 12.948665,
        "lon": 77.6001706,
        "tags": {
          "amenity": "pharmacy",
          "healthcare": "pharmacy",
          "name": "Sanjana Medicals"
        }
      },
      {
        "type": "node",
        "id": 4062011906,
        "lat": 12.9487921,
        "lon": 77.6009276,
        "tags": {
          "amenity": "fast_food",
          "name": "Bharathi Restaurant"
        }
      },
      {
        "type": "node",
        "id": 4062011909,
        "lat": 12.9489334,
        "lon": 77.6001044,
        "tags": {
          "amenity": "atm",
          "brand": "Axis Bank",
          "brand:wikidata": "Q2003549",
          "name": "Axis Bank",
          "name:kn": "\u0c86\u0c95\u0ccd\u0cb8\u0cbf\u0cb8\u0ccd \u0cac\u0ccd\u0caf\u0cbe\u0c82\u0c95\u0ccd \u0c8e\u0c9f\u0cbf\u0c8e\u0c82",
          "operator": "Axis Bank",
          "operator:wikidata": "Q2003549"
        }
      },
      {
        "type": "node",
        "id": 4062014201,
        "lat": 12.9483365,
        "lon": 77.5988241,
        "tags": {
          "amenity": "food_court",
          "name": "Janatha Hotel"
        }
      },
      {
        "type": "node",
        "id": 4062014290,
        "lat": 12.9484634,
        "lon": 77.5989705,
        "tags": {
          "amenity": "atm",
          "brand": "State Bank of India",
          "brand:wikidata": "Q1340361",
          "check_date": "2022-04-23",
          "drive_through": "yes",
          "name": "State Bank of India",
          "operator": "State Bank of India",
          "operator:wikidata": "Q1340361",
          "short_name": "SBI"
        }
      },
      {
        "type": "node",
        "id": 4446974323,
        "lat": 12.9469375,
        "lon": 77.5981349,
        "tags": {
          "addr:city": "Bangalore",
          "addr:housenumber": "466/1",
          "addr:postcode": "560027",
          "addr:street": "10th Main, 13th Cross, Near-Brand Factory, Wilson Garden",
          "amenity": "pharmacy",
          "healthcare": "pharmacy",
          "name": "Nisarga Ayurvedic Medicine Research Centre",
          "phone": "+9180 2212 6994",
          "source": "www.justdial.com"
        }
      },
      {
        "type": "node",
        "id": 4448075597,
        "lat": 12.9458746,
        "lon": 77.5877756,
        "tags": {
          "addr:city": "bangalore",
          "addr:housenumber": "58,59",
          "addr:postcode": "560029",
          "addr:street": "3rd Main,KEB Layout, BTM Layout  1",
          "amenity": "hospital",
          "emergency": "yes",
          "name": "Vijay Diagnostic Centre",
          "phone": "080 2668 4260",
          "source": "http://www.bangalorean.co.in/"
        }
      },
      {
        "type": "node",
        "id": 4550578791,
        "lat": 12.949078,
        "lon": 77.5978259,
        "tags": {
          "amenity": "restaurant",
          "name": "Annapurna benne dosa",
          "name:en": "Annapurna benne dosa",
          "name:kn": "\u0c85\u0ca8\u0ccd\u0ca8\u0caa\u0cc2\u0cb0\u0ccd\u0ca3 \u0cac\u0cc6\u0ca3\u0ccd\u0ca3\u0cc6 \u0ca6\u0ccb\u0cb8",
          "opening_hours": "Mo-Sa 16:00-21:30"
        }
      },
      {
        "type": "node",
        "id": 4552198797,
        "lat": 12.9459795,
        "lon": 77.5885235,
        "tags": {
          "addr:city": "bangalore",
          "addr:housenumber": "1",
          "addr:postcode": "560029",
          "addr:street": "Siddapura Road",
          "amenity": "restaurant",
          "capacity": "25",
          "cuisine": "indian,_japanese",
          "delivery": "yes",
          "level": "2",
          "name": "Abc Resto",
          "opening_hours": "10:00-22:00",
          "phone": "+91 80 425655",
          "smoking": "no",
          "source": "website",
          "takeaway": "no",
          "website": "www.abcresto.com"
        }
      },
      {
        "type": "node",
        "id": 4680014207,
        "lat": 12.9397588,
        "lon": 77.59445,
        "tags": {
          "amenity": "hospital",
          "healthcare": "yes",
          "name": "NIMHANS - Ashwini Block"
        }
      },
      {
        "type": "node",
        "id": 4729472422,
        "lat": 12.9400669,
        "lon": 77.5931597,
        "tags": {
          "addr:district": "Bangalore",
          "addr:full": "Lakkasandra, Wilson Garden, Bangalore, Karnataka, India",
          "addr:postcode": "560029",
          "addr:state": "Karnataka",
          "addr:subdistrict": "Bangalore East",
          "amenity": "hospital",
          "contact:phone": "08026995201;08026995000;08026995202",
          "description": "Medical Colleges Hospital",
          "healthcare": "hospital",
          "name": "National Institute of Mental Health and Neuro Sciences",
          "short_name": "NIMHANS",
          "source": "OpenGovernmentData"
        }
      },
      {
        "type": "node",
        "id": 4729478014,
        "lat": 12.9404277,
        "lon": 77.5988406,
        "tags": {
          "amenity": "hospital",
          "name": "NBRC(National Brain Research Center)"
        }
      },
      {
        "type": "node",
        "id": 4840984963,
        "lat": 12.9469705,
        "lon": 77.5944165,
        "tags": {
          "amenity": "restaurant",
          "name": "Biryani palace"
        }
      },
      {
        "type": "node",
        "id": 4841950721,
        "lat": 12.9453765,
        "lon": 77.59506,
        "tags": {
          "amenity": "cafe",
          "name": "AR Tea Sagar",
          "name:en": "AR Tea Sagar"
        }
      },
      {
        "type": "node",
        "id": 4843097921,
        "lat": 12.945523,
        "lon": 77.5952075,
        "tags": {
          "amenity": "fast_food",
          "name": "AFC",
          "name:en": "AFC"
        }
      },
      {
        "type": "node",
        "id": 4843099622,
        "lat": 12.9439985,
        "lon": 77.5946425,
        "tags": {
          "amenity": "restaurant",
          "name": "A1 biryani",
          "name:en": "A1 biryani"
        }
      },
      {
        "type": "node",
        "id": 4843099633,
        "lat": 12.9455298,
        "lon": 77.5952158,
        "tags": {
          "amenity": "fast_food",
          "cuisine": "juice",
          "name": "Juice World"
        }
      },
      {
        "type": "node",
        "id": 4843104322,
        "lat": 12.9454861,
        "lon": 77.595168,
        "tags": {
          "amenity": "restaurant",
          "name": "Alfa fried and Grill",
          "name:en": "Alfa fried and Grill"
        }
      },
      {
        "type": "node",
        "id": 4847824823,
        "lat": 12.9453166,
        "lon": 77.5950506,
        "tags": {
          "amenity": "restaurant",
          "name": "Alfa",
          "name:en": "Alfa"
        }
      },
      {
        "type": "node",
        "id": 4847824925,
        "lat": 12.946968,
        "lon": 77.5942273,
        "tags": {
          "amenity": "fast_food",
          "check_date": "2023-11-23",
          "name": "Limra Hotel",
          "name:en": "Limra Hotel"
        }
      },
      {
        "type": "node",
        "id": 4847824929,
        "lat": 12.9410118,
        "lon": 77.592838,
        "tags": {
          "amenity": "pharmacy",
          "healthcare": "pharmacy",
          "name": "AT pharma",
          "name:en": "AT pharma"
        }
      },
      {
        "type": "node",
        "id": 4847828421,
        "lat": 12.945194,
        "lon": 77.5949693,
        "tags": {
          "amenity": "atm",
          "brand": "Axis Bank",
          "brand:wikidata": "Q2003549",
          "name": "Axis Bank",
          "name:kn": "\u0c86\u0c95\u0ccd\u0cb8\u0cbf\u0cb8\u0ccd \u0cac\u0ccd\u0caf\u0cbe\u0c82\u0c95\u0ccd",
          "operator": "Axis Bank",
          "operator:wikidata": "Q2003549"
        }
      },
      {
        "type": "node",
        "id": 4847829321,
        "lat": 12.9447719,
        "lon": 77.5949585,
        "tags": {
          "amenity": "restaurant",
          "name": "Kolkata",
          "name:en": "Kolkata"
        }
      },
      {
        "type": "node",
        "id": 4847850821,
        "lat": 12.9390995,
        "lon": 77.5946074,
        "tags": {
          "amenity": "cafe",
          "name": "Sri Ram coffee shop",
          "name:en": "Sri Ram coffee shop"
        }
      },
      {
        "type": "node",
        "id": 4849094824,
        "lat": 12.9458364,
        "lon": 77.5959506,
        "tags": {
          "amenity": "cafe",
          "name": "Coffee works",
          "name:en": "Coffee works"
        }
      },
      {
        "type": "node",
        "id": 4849108022,
        "lat": 12.9456176,
        "lon": 77.5958465,
        "tags": {
          "amenity": "fast_food",
          "name": "Hungry lion",
          "name:en": "Hungry lion"
        }
      },
      {
        "type": "node",
        "id": 4849577725,
        "lat": 12.9441951,
        "lon": 77.5944954,
        "tags": {
          "amenity": "restaurant",
          "name": "Star Biryani"
        }
      },
      {
        "type": "node",
        "id": 4849577732,
        "lat": 12.9430018,
        "lon": 77.5944379,
        "tags": {
          "amenity": "pharmacy",
          "healthcare": "pharmacy",
          "name": "Ghousia"
        }
      },
      {
        "type": "node",
        "id": 4849577740,
        "lat": 12.9422748,
        "lon": 77.594039,
        "tags": {
          "amenity": "pharmacy",
          "healthcare": "pharmacy",
          "name": "Ram Krishna Medicals"
        }
      },
      {
        "type": "node",
        "id": 4849577745,
        "lat": 12.9416745,
        "lon": 77.5935357,
        "tags": {
          "amenity": "pharmacy",
          "healthcare": "pharmacy",
          "name": "Bright Pharmacy"
        }
      },
      {
        "type": "node",
        "id": 4849618943,
        "lat": 12.9417742,
        "lon": 77.5938148,
        "tags": {
          "amenity": "restaurant",
          "name": "Priya"
        }
      },
      {
        "type": "node",
        "id": 4849618944,
        "lat": 12.9418173,
        "lon": 77.5938336,
        "tags": {
          "amenity": "clinic",
          "healthcare": "clinic",
          "name": "Al Habeeb Dental Clinic and Implant Center",
          "wheelchair": "no"
        }
      },
      {
        "type": "node",
        "id": 4849618951,
        "lat": 12.9433373,
        "lon": 77.5947264,
        "tags": {
          "amenity": "fast_food",
          "name": "Taj Chicken Kebab"
        }
      },
      {
        "type": "node",
        "id": 4849618953,
        "lat": 12.9437019,
        "lon": 77.5947656,
        "tags": {
          "amenity": "atm",
          "brand": "HDFC Bank",
          "brand:wikidata": "Q631047",
          "name": "HDFC Bank",
          "name:kn": "\u0c8e\u0c9a\u0ccd \u0ca1\u0cbf \u0c8e\u0cab\u0ccd \u0cb8\u0cbf",
          "operator": "HDFC Bank",
          "operator:wikidata": "Q631047",
          "short_name": "HDFC",
          "wheelchair": "limited"
        }
      },
      {
        "type": "node",
        "id": 4849618955,
        "lat": 12.9437303,
        "lon": 77.5947351,
        "tags": {
          "amenity": "pharmacy",
          "healthcare": "pharmacy",
          "name": "Venkatagiri",
          "name:kn": "\u0cb5\u0cc6\u0c82\u0c95\u0c9f\u0c97\u0cbf\u0cb0\u0cbf"
        }
      },
      {
        "type": "node",
        "id": 5234720701,
        "lat": 12.9468669,
        "lon": 77.5964194,
        "tags": {
          "amenity": "bank",
          "brand": "ICICI Bank",
          "brand:wikidata": "Q1653258",
          "name": "ICICI Bank",
          "name:kn": "\u0c90\u0cb8\u0cbf\u0c90\u0cb8\u0cbf\u0c90 \u0cac\u0ccd\u0caf\u0cbe\u0c82\u0c95\u0cc1",
          "short_name": "ICICI"
        }
      },
      {
        "type": "node",
        "id": 5234722396,
        "lat": 12.9471118,
        "lon": 77.5966087,
        "tags": {
          "amenity": "bank",
          "brand": "HDFC Bank",
          "brand:wikidata": "Q631047",
          "name": "HDFC Bank",
          "name:kn": "\u0c8e\u0c9a\u0ccd. \u0ca1\u0cbf. \u0c8e\u0cab\u0ccd. \u0cb8\u0cbf. \u0cac\u0ccd\u0caf\u0cbe\u0c82\u0c95\u0ccd",
          "short_name": "HDFC"
        }
      },
      {
        "type": "node",
        "id": 5234723863,
        "lat": 12.9472091,
        "lon": 77.5966914,
        "tags": {
          "addr:district": "Bengaluru Urban",
          "addr:full": "196, 10Th Cross, Wilson Gardens",
          "addr:postcode": "560027",
          "addr:state": "Karnataka",
          "amenity": "hospital",
          "healthcare": "hospital",
          "name": "V. S. Achar Multispeciality Hospital",
          "source": "OpenGovernmentData"
        }
      },
      {
        "type": "node",
        "id": 5234729438,
        "lat": 12.9478549,
        "lon": 77.5971182,
        "tags": {
          "amenity": "atm",
          "brand": "Kotak Mahindra Bank",
          "brand:wikidata": "Q2040404",
          "check_date": "2022-07-11",
          "operator": "Kotak Mahindra Bank",
          "operator:wikidata": "Q2040404"
        }
      },
      {
        "type": "node",
        "id": 5234729473,
        "lat": 12.948031,
        "lon": 77.5972353,
        "tags": {
          "amenity": "pharmacy",
          "healthcare": "pharmacy",
          "name": "Trust Medicals"
        }
      },
      {
        "type": "node",
        "id": 5234733420,
        "lat": 12.9483581,
        "lon": 77.5972643,
        "tags": {
          "amenity": "bank",
          "brand": "State Bank of India",
          "brand:wikidata": "Q1340361",
          "name": "State Bank of India",
          "name:kn": "\u0cad\u0cbe\u0cb0\u0ca4\u0cc0\u0caf \u0cb8\u0ccd\u0c9f\u0cc7\u0c9f\u0ccd \u0cac\u0ccd\u0caf\u0cbe\u0c82\u0c95\u0ccd",
          "short_name": "SBI"
        }
      },
      {
        "type": "node",
        "id": 5234735116,
        "lat": 12.9488127,
        "lon": 77.5978542,
        "tags": {
          "amenity": "bank",
          "branch": "Ltd",
          "brand": "Karnataka Bank",
          "brand:wikidata": "Q2042632",
          "name": "Karnataka Bank",
          "name:kn": "\u0c95\u0cb0\u0ccd\u0ca8\u0cbe\u0c9f\u0c95 \u0cac\u0ccd\u0caf\u0cbe\u0c82\u0c95\u0ccd"
        }
      },
      {
        "type": "node",
        "id": 5234736190,
        "lat": 12.9486539,
        "lon": 77.5977493,
        "tags": {
          "amenity": "fast_food",
          "brand": "Domino's",
          "brand:ks": "\u0688\u0648\u0645\u06cc\u0646\u0648\u0632",
          "brand:pa": "\u0a21\u0a4b\u0a2e\u0a40\u0a28\u0a4b\u0a1c\u0a3c",
          "brand:ur": "\u0688\u0648\u0645\u06cc\u0646\u0648\u0632",
          "brand:wikidata": "Q839466",
          "brand:wikipedia": "en:Domino's Pizza",
          "cuisine": "pizza",
          "name": "Domino's",
          "name:ks": "\u0688\u0648\u0645\u06cc\u0646\u0648\u0632",
          "name:pa": "\u0a21\u0a4b\u0a2e\u0a40\u0a28\u0a4b\u0a1c\u0a3c",
          "name:ur": "\u0688\u0648\u0645\u06cc\u0646\u0648\u0632",
          "takeaway": "yes"
        }
      },
      {
        "type": "node",
        "id": 5234736819,
        "lat": 12.9485625,
        "lon": 77.5976727,
        "tags": {
          "amenity": "bank",
          "brand": "State Bank of India",
          "brand:wikidata": "Q1340361",
          "name": "State Bank of India",
          "name:kn": "\u0cad\u0cbe\u0cb0\u0ca4\u0cc0\u0caf \u0cb8\u0ccd\u0c9f\u0cc7\u0c9f\u0ccd \u0cac\u0ccd\u0caf\u0cbe\u0c82\u0c95\u0ccd",
          "short_name": "SBI"
        }
      },
      {
        "type": "node",
        "id": 5265649228,
        "lat": 12.9403849,
        "lon": 77.5945391,
        "tags": {
          "amenity": "hospital",
          "emergency": "yes",
          "healthcare": "hospital",
          "name": "Emergency Block , NIMHANS"
        }
      },
      {
        "type": "node",
        "id": 5661650529,
        "lat": 12.9485812,
        "lon": 77.5990306,
        "tags": {
          "addr:city": "Bengaluru,",
          "addr:postcode": "560030",
          "addr:street": "12th Cross Road",
          "name": "Maruti Stores",
          "payment:cash": "yes",
          "shop": "department_store"
        }
      },
      {
        "type": "node",
        "id": 6937688998,
        "lat": 12.9438106,
        "lon": 77.5974722,
        "tags": {
          "addr:district": "Bengaluru Urban",
          "addr:full": "449/1, 15th Main Lakksandra",
          "addr:postcode": "560030",
          "addr:state": "Karnataka",
          "amenity": "clinic",
          "healthcare": "clinic",
          "name": "Deepti Nursing Home",
          "source": "OpenGovernmentData"
        }
      },
      {
        "type": "node",
        "id": 6938777910,
        "lat": 12.9386321,
        "lon": 77.5944105,
        "tags": {
          "addr:district": "Bengaluru Urban",
          "addr:full": "Hosur Road",
          "addr:postcode": "560029",
          "addr:state": "Karnataka",
          "amenity": "hospital",
          "email": "rmo@nimhans.kar.nic.in;ms@nimhans.kar.nic.in",
          "healthcare": "hospital",
          "name": "National Institute of Mental Health and Neuro Sciences",
          "operator:type": "government",
          "short_name": "NIMHANS",
          "source": "OpenGovernmentData",
          "website": "https://nimhans.ac.in/"
        }
      },
      {
        "type": "node",
        "id": 6938868534,
        "lat": 12.9491537,
        "lon": 77.5978383,
        "tags": {
          "addr:district": "Bengaluru Urban",
          "addr:full": "376/21, T.V. Plaza, 6Th Cross, Wilson Garden",
          "addr:postcode": "560027",
          "addr:state": "Karnataka",
          "amenity": "clinic",
          "healthcare": "clinic",
          "name": "Shantha Nethralaya",
          "source": "OpenGovernmentData"
        }
      },
      {
        "type": "node",
        "id": 6938992706,
        "lat": 12.9421755,
        "lon": 77.5941208,
        "tags": {
          "addr:district": "Bengaluru Urban",
          "addr:full": "No.276Th A Cross, 1st Mainroad, Someshwar Nagar 1st Block,Jayanagar",
          "addr:postcode": "560011",
          "addr:state": "Karnataka",
          "amenity": "clinic",
          "healthcare": "clinic",
          "name": "N.R. Amar Nursing Home",
          "source": "OpenGovernmentData"
        }
      },
      {
        "type": "node",
        "id": 6944138100,
        "lat": 12.9465876,
        "lon": 77.6015028,
        "tags": {
          "addr:district": "Bengaluru Urban",
          "addr:full": "#20 (Old#310),7Th Main,16Th Cross,Lakkasandra Extension",
          "addr:postcode": "560030",
          "addr:state": "Karnataka",
          "amenity": "clinic",
          "healthcare": "clinic",
          "name": "Shiva Nursing Home, Bengaluru Urban",
          "source": "OpenGovernmentData"
        }
      },
      {
        "type": "node",
        "id": 6944138103,
        "lat": 12.9489406,
        "lon": 77.5949925,
        "tags": {
          "addr:district": "Bengaluru Urban",
          "addr:full": "56, 8Th Cross, Wilson Garden",
          "addr:postcode": "560027",
          "addr:state": "Karnataka",
          "amenity": "hospital",
          "healthcare": "hospital",
          "name": "Karthik Hospital, Bengaluru Urban",
          "source": "OpenGovernmentData"
        }
      },
      {
        "type": "node",
        "id": 6944138104,
        "lat": 12.9462401,
        "lon": 77.5975627,
        "tags": {
          "addr:district": "Bengaluru Urban",
          "addr:full": "#5/2, 13th Cross, Hosur Road, Wilson Garden",
          "addr:postcode": "560027",
          "addr:state": "Karnataka",
          "amenity": "clinic",
          "email": "enquiry@mgmihospitalsindia.com",
          "healthcare": "clinic",
          "name": "M.G. Speciality Health Care (A Unit Of Mgmi Hospitals(India) Pvt Ltd)",
          "operator:type": "private",
          "source": "OpenGovernmentData",
          "website": "http://mgmihospitalsindia.com/"
        }
      },
      {
        "type": "node",
        "id": 7528043666,
        "lat": 12.9388497,
        "lon": 77.6020928,
        "tags": {
          "amenity": "atm",
          "operator": "HDFC BANK ATM"
        }
      },
      {
        "type": "node",
        "id": 8558793117,
        "lat": 12.9386806,
        "lon": 77.601935,
        "tags": {
          "amenity": "atm",
          "brand": "Karnataka Bank",
          "brand:wikidata": "Q2042632",
          "name": "Karnataka Bank",
          "name:kn": "\u0c95\u0cb0\u0ccd\u0ca8\u0cbe\u0c9f\u0c95 \u0cac\u0ccd\u0caf\u0cbe\u0c82\u0c95\u0ccd",
          "opening_hours": "Mo-Su 09:00-18:00",
          "operator": "Karnataka Bank",
          "operator:wikidata": "Q2042632"
        }
      },
      {
        "type": "node",
        "id": 9730853893,
        "lat": 12.9355966,
        "lon": 77.5971575,
        "tags": {
          "amenity": "hospital",
          "healthcare": "hospital",
          "name": "Kidwai Cancer Institute Radiation Block"
        }
      },
      {
        "type": "node",
        "id": 10032117240,
        "lat": 12.9477787,
        "lon": 77.592107,
        "tags": {
          "amenity": "restaurant",
          "cuisine": "regional",
          "name": "Cafe Amudham",
          "name:en": "Cafe Amudham",
          "survey:date": "2022-11-13"
        }
      },
      {
        "type": "node",
        "id": 10895966349,
        "lat": 12.9497222,
        "lon": 77.5959568,
        "tags": {
          "amenity": "restaurant",
          "cuisine": "regional",
          "name": "Flames Restaurant"
        }
      },
      {
        "type": "node",
        "id": 11295071515,
        "lat": 12.9400516,
        "lon": 77.5954768,
        "tags": {
          "amenity": "hospital",
          "check_date": "2023-10-28",
          "healthcare": "hospital",
          "name": "NIMHANS Department Of Psychiatric and Neuro Rehabilitation",
          "operator:type": "government",
          "wheelchair": "yes"
        }
      },
      {
        "type": "node",
        "id": 11295217457,
        "lat": 12.9396498,
        "lon": 77.5967825,
        "tags": {
          "amenity": "hospital",
          "check_date": "2023-10-28",
          "healthcare": "hospital",
          "healthcare:speciality": "neurology",
          "name": "Nimhans Mr-pet Center",
          "operator:type": "government",
          "wheelchair": "yes"
        }
      },
      {
        "type": "node",
        "id": 11295245077,
        "lat": 12.9401246,
        "lon": 77.5945482,
        "tags": {
          "amenity": "atm",
          "cash_in": "no",
          "check_date": "2023-10-28",
          "currency:INR": "yes",
          "operator": "SBI"
        }
      },
      {
        "type": "node",
        "id": 11295246682,
        "lat": 12.9402037,
        "lon": 77.5954721,
        "tags": {
          "amenity": "hospital",
          "check_date": "2023-10-28",
          "healthcare": "hospital",
          "name": "NIMHANS Physiotherapy Center",
          "operator:type": "government",
          "wheelchair": "yes"
        }
      },
      {
        "type": "node",
        "id": 11295265923,
        "lat": 12.9406356,
        "lon": 77.5948929,
        "tags": {
          "amenity": "pharmacy",
          "check_date": "2023-10-28",
          "name": "NIMHANS Pharmacy",
          "shop": "chemist"
        }
      },
      {
        "type": "node",
        "id": 11295469699,
        "lat": 12.9519038,
        "lon": 77.5944072,
        "tags": {
          "amenity": "pharmacy",
          "healthcare": "pharmacy",
          "level": "0",
          "name": "Primecare Pharma",
          "opening_hours": "Mo-Su 08:00-23:00,13:30-18:30; PH open"
        }
      },
      {
        "type": "node",
        "id": 11295921628,
        "lat": 12.9500344,
        "lon": 77.5965335,
        "tags": {
          "amenity": "pharmacy",
          "healthcare": "pharmacy",
          "level": "0",
          "name": "Kamaldeep Medicals"
        }
      },
      {
        "type": "node",
        "id": 11295921629,
        "lat": 12.9499736,
        "lon": 77.5966031,
        "tags": {
          "amenity": "pharmacy",
          "healthcare": "pharmacy",
          "level": "0",
          "name": "Amruth Medicals"
        }
      },
      {
        "type": "node",
        "id": 11295921635,
        "lat": 12.9514745,
        "lon": 77.595132,
        "tags": {
          "amenity": "pharmacy",
          "healthcare": "pharmacy",
          "level": "0",
          "name": "Rajalakshmi Medicals"
        }
      },
      {
        "type": "node",
        "id": 11295921636,
        "lat": 12.94961,
        "lon": 77.5962261,
        "tags": {
          "amenity": "pharmacy",
          "brand": "Apollo Pharmacy",
          "brand:wikidata": "Q62562612",
          "healthcare": "pharmacy",
          "level": "0",
          "name": "Apollo Pharmacy",
          "name:kn": "\u0c85\u0caa\u0ccb\u0cb2\u0ccb \u0cab\u0cbe\u0cb0\u0ccd\u0cae\u0cb8\u0cbf"
        }
      },
      {
        "type": "node",
        "id": 11296003727,
        "lat": 12.9494082,
        "lon": 77.59618,
        "tags": {
          "amenity": "pharmacy",
          "healthcare": "pharmacy",
          "level": "0",
          "name": "Susheela Medicals"
        }
      },
      {
        "type": "node",
        "id": 11302937519,
        "lat": 12.9455956,
        "lon": 77.5952641,
        "tags": {
          "addr:city": "Bengaluru",
          "addr:full": "2, Arekempenahally, Near Brand Factory, Wilson Garden, Bangalore, 560027",
          "addr:housenumber": "2",
          "addr:postcode": "560027",
          "addr:street": "Arekempenahally",
          "amenity": "restaurant",
          "brand": "Revoli Inn",
          "cuisine": "indian;chinese;tibetan;regional;kebab;chicken",
          "description": "Multi cuisine restaurant",
          "name": "Empark Restaurant",
          "opening_hours": "Mo-Su 07:00-23:30",
          "phone": "+91 8904022661;+91 9946222661",
          "website": "https://www.emparkinternational.com"
        }
      },
      {
        "type": "node",
        "id": 12090577261,
        "lat": 12.9433924,
        "lon": 77.5936903,
        "tags": {
          "amenity": "fast_food",
          "cuisine": "regional",
          "name": "SSP Eating Point"
        }
      },
      {
        "type": "node",
        "id": 12162059529,
        "lat": 12.9433335,
        "lon": 77.5973926,
        "tags": {
          "amenity": "fast_food",
          "indoor_seating": "yes",
          "level": "0",
          "name": "Tejas Sweets",
          "outdoor_seating": "yes"
        }
      },
      {
        "type": "node",
        "id": 12163099779,
        "lat": 12.9459529,
        "lon": 77.5951966,
        "tags": {
          "air_conditioning": "no",
          "amenity": "fast_food",
          "level": "0",
          "name": "Murugan Tiffin Center"
        }
      },
      {
        "type": "node",
        "id": 12168445592,
        "lat": 12.9489708,
        "lon": 77.5979648,
        "tags": {
          "addr:floor": "G",
          "amenity": "restaurant",
          "check_date": "2024-09-10",
          "diet:vegetarian": "yes",
          "level": "0",
          "name": "Sandhya Veg",
          "name:en": "Sandhya Veg"
        }
      },
      {
        "type": "node",
        "id": 12168445593,
        "lat": 12.9482059,
        "lon": 77.5987156,
        "tags": {
          "addr:floor": "G",
          "amenity": "pharmacy",
          "brand": "MedPlus",
          "brand:wikidata": "Q65684234",
          "check_date": "2024-09-10",
          "healthcare": "pharmacy",
          "level": "0",
          "name": "MedPlus",
          "name:en": "Med Plus",
          "name:kn": "\u0cae\u0cc6\u0ca1\u0ccd\u200d\u0caa\u0ccd\u0cb2\u0cb8\u0ccd"
        }
      },
      {
        "type": "node",
        "id": 12246167230,
        "lat": 12.9505253,
        "lon": 77.598265,
        "tags": {
          "amenity": "fast_food",
          "brand": "Indira Canteen",
          "brand:wikidata": "Q36164828",
          "check_date": "2024-10-12",
          "cuisine": "south_indian",
          "fast_food": "cafeteria",
          "name": "Indira Canteen",
          "operator": "BBMP",
          "takeaway": "yes"
        }
      },
      {
        "type": "node",
        "id": 12491762696,
        "lat": 12.9412309,
        "lon": 77.5932246,
        "tags": {
          "amenity": "restaurant",
          "name": "Empark Restaurant"
        }
      }
    ]
  },
  "pois_2_5km": {
    "version": 0.6,
    "generator": "Overpass API 0.7.62.8 e802775f",
    "osm3s": {
      "timestamp_osm_base": "2025-09-06T08:08:15Z",
      "copyright": "The data included in this document is from www.openstreetmap.org. The data is made available under ODbL."
    },
    "elements": [
      {
        "type": "node",
        "id": 303921150,
        "lat": 12.9291007,
        "lon": 77.5860389,
        "tags": {
          "bus": "yes",
          "name": "Jayanagara 4th Block",
          "name:en": "Jayanagara 4th Block",
          "network": "BMTC",
          "operator": "BMTC",
          "public_transport": "stop_position"
        }
      },
      {
        "type": "node",
        "id": 303938132,
        "lat": 12.9365895,
        "lon": 77.5804447,
        "tags": {
          "addr:street": "Elephant Cave Road",
          "amenity": "fuel",
          "brand": "Bharat Petroleum",
          "brand:wikidata": "Q854826",
          "name": "Bharat Petroleum",
          "name:kn": "\u0cad\u0cbe\u0cb0\u0ca4\u0ccd \u0caa\u0cc6\u0c9f\u0ccd\u0cb0\u0ccb\u0cb2\u0cbf\u0caf\u0c82",
          "operator": "Bharat Petroleum"
        }
      },
      {
        "type": "node",
        "id": 308779347,
        "lat": 12.9356671,
        "lon": 77.6144578,
        "tags": {
          "addr:street": "80 Feet Road",
          "amenity": "fuel",
          "brand": "Bharat Petroleum",
          "brand:wikidata": "Q854826",
          "name": "Bharat Petroleum",
          "name:kn": "\u0cad\u0cbe\u0cb0\u0ca4\u0ccd \u0caa\u0cc6\u0c9f\u0ccd\u0cb0\u0ccb\u0cb2\u0cbf\u0caf\u0c82"
        }
      },
      {
        "type": "node",
        "id": 493530632,
        "lat": 12.9233773,
        "lon": 77.598919,
        "tags": {
          "amenity": "cinema",
          "name": "Maheshwari",
          "name:kn": "\u0cae\u0cb9\u0cc7\u0cb6\u0ccd\u0cb5\u0cb0\u0cbf"
        }
      },
      {
        "type": "node",
        "id": 568351345,
        "lat": 12.938262,
        "lon": 77.5800772,
        "tags": {
          "code": "SECE",
          "name": "South End Circle",
          "name:kn": "\u0ca4\u0cbf.\u0ca8\u0c82.\u0cb6\u0ccd\u0cb0\u0cc0 \u0cb5\u0cc3\u0ca4\u0ccd\u0ca4",
          "network": "Namma Metro",
          "note": "Contributors are requested to not edit the \"network\" and the \"operator\" tags. (2023/11/08)",
          "operator": "Bangalore Metro Rail Corporation Limited",
          "public_transport": "stop_position",
          "public_transport:version": "2",
          "railway": "stop",
          "source": "http://www.bmrc.co.in/English/Network.htm",
          "subway": "yes",
          "wheelchair": "yes"
        }
      },
      {
        "type": "node",
        "id": 594206377,
        "lat": 12.9571863,
        "lon": 77.5862334,
        "tags": {
          "addr:street": "Lalbagh Road",
          "amenity": "fuel",
          "brand": "Indian Oil",
          "brand:wikidata": "Q1289348",
          "brand:wikipedia": "en:Indian Oil Corporation",
          "name": "Indian Oil",
          "name:kn": "\u0c87\u0c82\u0ca1\u0cbf\u0caf\u0ca8\u0ccd \u0c86\u0caf\u0cbf\u0cb2\u0ccd"
        }
      },
      {
        "type": "node",
        "id": 1156224150,
        "lat": 12.9484939,
        "lon": 77.6062387,
        "tags": {
          "bus": "yes",
          "local_ref": "Adugodi",
          "name": "Pothalappa Garden",
          "name:en": "Pothalappa Garden",
          "network": "BMTC",
          "operator": "BMTC",
          "public_transport": "stop_position"
        }
      },
      {
        "type": "node",
        "id": 1437223296,
        "lat": 12.9465345,
        "lon": 77.5800377,
        "tags": {
          "code": "LBGH",
          "name": "Lalbagh",
          "name:hi": "\u0932\u093e\u0932\u092c\u093e\u0917\u093c",
          "name:kn": "\u0cb2\u0cbe\u0cb2\u0ccd \u0cac\u0cbe\u0c97\u0ccd",
          "network": "Namma Metro",
          "note": "Contributors are requested to not edit the \"network\" and the \"operator\" tags. (2023/11/08)",
          "operator": "Bangalore Metro Rail Corporation Limited",
          "platforms": "2",
          "public_transport": "stop_position",
          "public_transport:version": "2",
          "railway": "stop",
          "source": "http://www.bmrc.co.in/English/Network.htm",
          "subway": "yes",
          "wheelchair": "yes"
        }
      },
      {
        "type": "node",
        "id": 1449021351,
        "lat": 12.9420282,
        "lon": 77.5802856,
        "tags": {
          "addr:city": "Bangalore",
          "addr:postcode": "560004",
          "addr:street": "Rashtriya Vidyalaya Road",
          "amenity": "fuel",
          "brand": "Indian Oil",
          "brand:wikidata": "Q1289348",
          "brand:wikipedia": "en:Indian Oil Corporation",
          "compressed_air": "yes",
          "name": "Indian Oil",
          "name:kn": "\u0c87\u0c82\u0ca1\u0cbf\u0caf\u0ca8\u0ccd \u0c86\u0caf\u0cbf\u0cb2\u0ccd"
        }
      },
      {
        "type": "node",
        "id": 1459472858,
        "lat": 12.9346877,
        "lon": 77.6116748,
        "tags": {
          "addr:city": "Bangalore",
          "addr:housename": "Forum Mall",
          "addr:street": "Hosur Road",
          "amenity": "cinema",
          "brand": "PVR Cinemas",
          "brand:short": "PVR",
          "brand:wikidata": "Q3359908",
          "name": "PVR",
          "operator": "PVR Cinemas",
          "screen": "12",
          "short_name": "PVR"
        }
      },
      {
        "type": "node",
        "id": 1466684135,
        "lat": 12.9309662,
        "lon": 77.6004616,
        "tags": {
          "amenity": "fuel",
          "brand": "Auto LPG",
          "fuel:cng": "yes",
          "fuel:lpg": "yes",
          "name": "Classic Auto Gas"
        }
      },
      {
        "type": "node",
        "id": 1565099131,
        "lat": 12.9295069,
        "lon": 77.5801653,
        "tags": {
          "code": "JYN",
          "name": "Jayanagar",
          "name:hi": "\u091c\u092f\u093e\u0928\u0917\u0930",
          "name:kn": "\u0c9c\u0caf\u0ca8\u0c97\u0cb0",
          "name:te": "\u0c1c\u0c2f\u0c28\u0c17\u0c30\u0c4d",
          "network": "Namma Metro",
          "note": "Contributors are requested to not edit the \"network\" and the \"operator\" tags. (2023/11/08)",
          "operator": "Bangalore Metro Rail Corporation Limited",
          "public_transport": "stop_position",
          "public_transport:version": "2",
          "railway": "stop",
          "source": "http://www.bmrc.co.in/English/Network.htm",
          "subway": "yes",
          "wheelchair": "yes"
        }
      },
      {
        "type": "node",
        "id": 1617398481,
        "lat": 12.9596642,
        "lon": 77.5829322,
        "tags": {
          "amenity": "fuel",
          "brand": "BP"
        }
      },
      {
        "type": "node",
        "id": 1836940205,
        "lat": 12.9495184,
        "lon": 77.5799728,
        "tags": {
          "bus": "yes",
          "name": "Lalbagh West Gate, V V Puram",
          "name:en": "Lalbagh West Gate, V V Puram",
          "network": "BMTC",
          "operator": "BMTC",
          "public_transport": "stop_position"
        }
      },
      {
        "type": "node",
        "id": 2057197603,
        "lat": 12.9479149,
        "lon": 77.5794869,
        "tags": {
          "amenity": "fuel",
          "brand": "Bharat Petroleum",
          "brand:wikidata": "Q854826",
          "name": "Bharat Petroleum",
          "name:kn": "\u0cad\u0cbe\u0cb0\u0ca4\u0ccd \u0caa\u0cc6\u0c9f\u0ccd\u0cb0\u0ccb\u0cb2\u0cbf\u0caf\u0c82",
          "operator": "Bharat Petroleum"
        }
      },
      {
        "type": "node",
        "id": 2393715465,
        "lat": 12.9325012,
        "lon": 77.5801749,
        "tags": {
          "bus": "yes",
          "name": "Nanda Talkies",
          "name:en": "Nanda Talkies",
          "network": "BMTC",
          "operator": "BMTC",
          "public_transport": "stop_position"
        }
      },
      {
        "type": "node",
        "id": 3003173104,
        "lat": 12.9290557,
        "lon": 77.5913715,
        "tags": {
          "amenity": "cinema",
          "brand": "INOX Leisure",
          "brand:wikidata": "Q5972349",
          "level": "3;4",
          "name": "Inox",
          "short_name": "INOX"
        }
      },
      {
        "type": "node",
        "id": 3391123031,
        "lat": 12.9460933,
        "lon": 77.5950233,
        "tags": {
          "amenity": "fuel",
          "name": "Aegis Autogas",
          "wheelchair": "yes"
        }
      },
      {
        "type": "node",
        "id": 4294218096,
        "lat": 12.9588006,
        "lon": 77.6060784,
        "tags": {
          "bus": "yes",
          "name": "Elgin Flour Mill",
          "name:en": "Elgin Flour Mill",
          "network": "BMTC",
          "operator": "BMTC",
          "public_transport": "stop_position"
        }
      },
      {
        "type": "node",
        "id": 4395689916,
        "lat": 12.9650035,
        "lon": 77.6001039,
        "tags": {
          "amenity": "theatre",
          "name": "Montgomery Hall",
          "name:en": "Montgomery Hall"
        }
      },
      {
        "type": "node",
        "id": 4824986021,
        "lat": 12.9434017,
        "lon": 77.5771336,
        "tags": {
          "amenity": "fuel",
          "brand": "Bharat Petroleum",
          "brand:wikidata": "Q854826",
          "name": "Bharat Petroleum",
          "name:en": "Bharat Petroleum",
          "name:kn": "\u0cad\u0cbe\u0cb0\u0ca4\u0ccd \u0caa\u0cc6\u0c9f\u0ccd\u0cb0\u0ccb\u0cb2\u0cbf\u0caf\u0c82"
        }
      },
      {
        "type": "node",
        "id": 5560544562,
        "lat": 12.9544238,
        "lon": 77.5925051,
        "tags": {
          "bus": "yes",
          "name": "Shantinagara TTMC",
          "name:en": "Shantinagara TTMC",
          "name:kn": "\u0cb6\u0cbe\u0c82\u0ca4\u0cbf\u0ca8\u0c97\u0cb0",
          "network": "BMTC",
          "operator": "BMTC",
          "public_transport": "stop_position"
        }
      },
      {
        "type": "node",
        "id": 5760198470,
        "lat": 12.9295065,
        "lon": 77.580123,
        "tags": {
          "code": "JYN",
          "name": "Jayanagar",
          "name:hi": "\u091c\u092f\u093e\u0928\u0917\u0930",
          "name:kn": "\u0c9c\u0caf\u0ca8\u0c97\u0cb0",
          "name:te": "\u0c1c\u0c2f\u0c28\u0c17\u0c30\u0c4d",
          "network": "Namma Metro",
          "note": "Contributors are requested to not edit the \"network\" and the \"operator\" tags. (2023/11/08)",
          "operator": "Bangalore Metro Rail Corporation Limited",
          "public_transport": "stop_position",
          "public_transport:version": "2",
          "railway": "stop",
          "source": "http://www.bmrc.co.in/English/Network.htm",
          "subway": "yes",
          "wheelchair": "yes"
        }
      },
      {
        "type": "node",
        "id": 5760198471,
        "lat": 12.9382617,
        "lon": 77.5800349,
        "tags": {
          "code": "SECE",
          "name": "South End Circle",
          "name:kn": "\u0ca4\u0cbf.\u0ca8\u0c82.\u0cb6\u0ccd\u0cb0\u0cc0 \u0cb5\u0cc3\u0ca4\u0ccd\u0ca4",
          "network": "Namma Metro",
          "note": "Contributors are requested to not edit the \"network\" and the \"operator\" tags. (2023/11/08)",
          "operator": "Bangalore Metro Rail Corporation Limited",
          "public_transport": "stop_position",
          "public_transport:version": "2",
          "railway": "stop",
          "source": "http://www.bmrc.co.in/English/Network.htm",
          "subway": "yes",
          "wheelchair": "yes"
        }
      },
      {
        "type": "node",
        "id": 5760198472,
        "lat": 12.9465339,
        "lon": 77.5799954,
        "tags": {
          "code": "LBGH",
          "name": "Lalbagh",
          "name:hi": "\u0932\u093e\u0932\u092c\u093e\u0917\u093c",
          "name:kn": "\u0cb2\u0cbe\u0cb2\u0ccd \u0cac\u0cbe\u0c97\u0ccd",
          "network": "Namma Metro",
          "note": "Contributors are requested to not edit the \"network\" and the \"operator\" tags. (2023/11/08)",
          "operator": "Bangalore Metro Rail Corporation Limited",
          "platforms": "2",
          "public_transport": "stop_position",
          "public_transport:version": "2",
          "railway": "stop",
          "source": "http://www.bmrc.co.in/English/Network.htm",
          "subway": "yes",
          "wheelchair": "yes"
        }
      },
      {
        "type": "node",
        "id": 5983455179,
        "lat": 12.9588104,
        "lon": 77.5868782,
        "tags": {
          "amenity": "fuel",
          "check_date": "2023-04-05",
          "name": "Gogas",
          "source": "survey"
        }
      },
      {
        "type": "node",
        "id": 6432710296,
        "lat": 12.9295069,
        "lon": 77.5801439,
        "tags": {
          "code": "JYN",
          "layer": "1",
          "lit": "yes",
          "name": "Jayanagar",
          "name:hi": "\u091c\u092f\u093e\u0928\u0917\u0930",
          "name:kn": "\u0c9c\u0caf\u0ca8\u0c97\u0cb0",
          "name:ml": "\u0d1c\u0d2f\u0d28\u0d17\u0d7c",
          "name:ta": "\u0b9c\u0bc6\u0baf\u0bbe\u0ba8\u0b95\u0bb0\u0bcd",
          "network": "Namma Metro",
          "note": "Contributors are requested to not edit the \"network\" and the \"operator\" tags. (2023/11/08)",
          "operator": "Bangalore Metro Rail Corporation Limited",
          "platforms": "2",
          "public_transport": "station",
          "public_transport:version": "2",
          "railway": "station",
          "shelter": "yes",
          "station": "subway",
          "subway": "yes",
          "website": "https://english.brmc.co.in",
          "wheelchair": "yes"
        }
      },
      {
        "type": "node",
        "id": 6432710297,
        "lat": 12.9382573,
        "lon": 77.5800556,
        "tags": {
          "code": "SECE",
          "layer": "1",
          "lit": "yes",
          "name": "South End Circle",
          "name:kn": "\u0ca4\u0cbf.\u0ca8\u0c82.\u0cb6\u0ccd\u0cb0\u0cc0 \u0cb5\u0cc3\u0ca4\u0ccd\u0ca4",
          "name:ml": "\u0d38\u0d57\u0d24\u0d4d\u0d24\u0d4d \u0d0e\u0d7b\u0d21\u0d4d \u0d38\u0d7c\u0d15\u0d4d\u0d15\u0d3f\u0d7e",
          "name:ta": "\u0b9a\u0bb5\u0bc1\u0ba4\u0bcd \u0b8e\u0ba9\u0bcd\u0b9f\u0bc1 \u0b9a\u0bb0\u0bcd\u0b95\u0bbf\u0bb3\u0bcd",
          "network": "Namma Metro",
          "note": "Contributors are requested to not edit the \"network\" and the \"operator\" tags. (2023/11/08)",
          "operator": "Bangalore Metro Rail Corporation Limited",
          "platforms": "2",
          "public_transport": "station",
          "public_transport:version": "2",
          "railway": "station",
          "shelter": "yes",
          "station": "subway",
          "subway": "yes",
          "website": "https://english.brmc.co.in",
          "wheelchair": "yes"
        }
      },
      {
        "type": "node",
        "id": 6432710298,
        "lat": 12.9465265,
        "lon": 77.580016,
        "tags": {
          "code": "LBGH",
          "layer": "1",
          "lit": "yes",
          "name": "Lalbagh",
          "name:hi": "\u0932\u093e\u0932\u092c\u093e\u0917\u093c",
          "name:kn": "\u0cb2\u0cbe\u0cb2\u0ccd \u0cac\u0cbe\u0c97\u0ccd",
          "name:ml": "\u0d32\u0d3e\u0d7d\u0d2c\u0d3e\u0d17\u0d4d",
          "name:ta": "\u0bb2\u0bbe\u0bb2\u0bcd\u0baa\u0bbe\u0b95\u0bcd",
          "network": "Namma Metro",
          "note": "Contributors are requested to not edit the \"network\" and the \"operator\" tags. (2023/11/08)",
          "operator": "Bangalore Metro Rail Corporation Limited",
          "platforms": "2",
          "public_transport": "station",
          "public_transport:version": "2",
          "railway": "station",
          "shelter": "yes",
          "station": "subway",
          "subway": "yes",
          "website": "https://english.brmc.co.in",
          "wheelchair": "yes"
        }
      },
      {
        "type": "node",
        "id": 6834406251,
        "lat": 12.964493,
        "lon": 77.5968024,
        "tags": {
          "bus": "yes",
          "name": "Richmond Circle",
          "name:en": "Richmond Circle",
          "name:kn": "\u0cb0\u0cbf\u0c9a\u0ccd\u0cae\u0c82\u0ca1\u0ccd \u0cb5\u0cc3\u0ca4\u0ccd\u0ca4",
          "network": "BMTC",
          "operator": "BMTC",
          "public_transport": "stop_position"
        }
      },
      {
        "type": "node",
        "id": 7131511278,
        "lat": 12.961084,
        "lon": 77.5877158,
        "tags": {
          "bus": "yes",
          "name": "Poornima Talkies",
          "name:en": "Poornima Talkies",
          "name:kn": "\u0caa\u0cc2\u0cb0\u0ccd\u0ca3\u0cbf\u0cae\u0cbe \u0c9f\u0cbe\u0c95\u0cbf\u0cb8\u0ccd",
          "network": "BMTC",
          "operator": "BMTC",
          "public_transport": "stop_position"
        }
      },
      {
        "type": "node",
        "id": 7131511279,
        "lat": 12.9621976,
        "lon": 77.5964997,
        "tags": {
          "bus": "yes",
          "name": "Akkithimmanahalli",
          "name:en": "Akkithimmanahalli",
          "name:kn": "\u0c85\u0c95\u0ccd\u0c95\u0cbf\u0ca4\u0cbf\u0cae\u0ccd\u0cae\u0ca8\u0cb9\u0cb3\u0ccd\u0cb3\u0cbf",
          "network": "BMTC",
          "operator": "BMTC",
          "public_transport": "stop_position"
        }
      },
      {
        "type": "node",
        "id": 7131511280,
        "lat": 12.9605877,
        "lon": 77.6009477,
        "tags": {
          "bus": "yes",
          "name": "Nanjappa Circle",
          "name:en": "Nanjappa Circle",
          "name:kn": "\u0ca8\u0c82\u0c9c\u0caa\u0ccd\u0caa \u0cb5\u0cc3\u0ca4\u0ccd\u0ca4",
          "network": "BMTC",
          "operator": "BMTC",
          "public_transport": "stop_position"
        }
      },
      {
        "type": "node",
        "id": 7132418217,
        "lat": 12.9576497,
        "lon": 77.5928942,
        "tags": {
          "bus": "yes",
          "name": "KH Road",
          "name:en": "KH Road",
          "name:kn": "\u0c95\u0cc6\u0c82\u0c97\u0cb2\u0ccd \u0cb9\u0ca8\u0cc1\u0cae\u0c82\u0ca4\u0caf\u0ccd\u0caf \u0cb0\u0cb8\u0ccd\u0ca4\u0cc6",
          "network": "BMTC",
          "operator": "BMTC",
          "public_transport": "stop_position"
        }
      },
      {
        "type": "node",
        "id": 7132418218,
        "lat": 12.9626539,
        "lon": 77.5907878,
        "tags": {
          "bus": "yes",
          "name": "Subbaiah Circle",
          "name:en": "Subbaiah Circle",
          "name:kn": "\u0cb8\u0cc1\u0cac\u0ccd\u0cac\u0caf\u0ccd\u0caf \u0cb5\u0cc3\u0ca4\u0ccd\u0ca4",
          "network": "BMTC",
          "operator": "BMTC",
          "public_transport": "stop_position"
        }
      },
      {
        "type": "node",
        "id": 7132418219,
        "lat": 12.9647441,
        "lon": 77.587909,
        "tags": {
          "bus": "yes",
          "name": "Corporation, Mission Road (Towards Subbiah Circle)",
          "name:en": "Corporation, Mission Road (Towards Subbiah Circle)",
          "network": "BMTC",
          "operator": "BMTC",
          "public_transport": "stop_position"
        }
      },
      {
        "type": "node",
        "id": 7132495619,
        "lat": 12.9576576,
        "lon": 77.6143934,
        "tags": {
          "bus": "yes",
          "name": "Neelasandra Bus Stand",
          "name:en": "Neelasandra Bus Stand",
          "name:kn": "\u0ca8\u0cc0\u0cb2\u0cb8\u0c82\u0ca6\u0ccd\u0cb0",
          "network": "BMTC",
          "operator": "BMTC",
          "public_transport": "stop_position"
        }
      },
      {
        "type": "node",
        "id": 7132495621,
        "lat": 12.9536998,
        "lon": 77.61752,
        "tags": {
          "bus": "yes",
          "name": "Neelasandra Rose Garden",
          "name:en": "Neelasandra Rose Garden",
          "network": "BMTC",
          "operator": "BMTC",
          "public_transport": "stop_position"
        }
      },
      {
        "type": "node",
        "id": 7132495623,
        "lat": 12.9537945,
        "lon": 77.6173101,
        "tags": {
          "bus": "yes",
          "name": "Neelasandra Rose Garden",
          "name:en": "Neelasandra Rose Garden",
          "network": "BMTC",
          "operator": "BMTC",
          "public_transport": "stop_position"
        }
      },
      {
        "type": "node",
        "id": 7132495624,
        "lat": 12.9576094,
        "lon": 77.6143892,
        "tags": {
          "bus": "yes",
          "name": "Neelasandra Bus Stand",
          "name:en": "Neelasandra Bus Stand",
          "name:kn": "\u0ca8\u0cc0\u0cb2\u0cb8\u0c82\u0ca6\u0ccd\u0cb0",
          "network": "BMTC",
          "operator": "BMTC",
          "public_transport": "stop_position"
        }
      },
      {
        "type": "node",
        "id": 7140560437,
        "lat": 12.9633386,
        "lon": 77.6066495,
        "tags": {
          "bus": "yes",
          "name": "Johnson Market",
          "name:en": "Johnson Market",
          "name:kn": "\u0c9c\u0cbe\u0ca8\u0ccd\u0cb8\u0ca8\u0ccd \u0cae\u0cbe\u0cb0\u0ccd\u0c95\u0cc6\u0c9f\u0ccd",
          "network": "BMTC",
          "operator": "BMTC",
          "public_transport": "stop_position"
        }
      },
      {
        "type": "node",
        "id": 7140560441,
        "lat": 12.9621372,
        "lon": 77.5969643,
        "tags": {
          "bus": "yes",
          "name": "Akkithimmanahalli",
          "name:en": "Akkithimmanahalli",
          "name:kn": "\u0c85\u0c95\u0ccd\u0c95\u0cbf\u0ca4\u0cbf\u0cae\u0ccd\u0cae\u0ca8\u0cb9\u0cb3\u0ccd\u0cb3\u0cbf",
          "network": "BMTC",
          "operator": "BMTC",
          "public_transport": "stop_position"
        }
      },
      {
        "type": "node",
        "id": 7141213454,
        "lat": 12.9357411,
        "lon": 77.6015318,
        "tags": {
          "bus": "yes",
          "name": "Bengaluru Dairy Circle",
          "name:en": "Bengaluru Dairy Circle",
          "network": "BMTC",
          "operator": "BMTC",
          "public_transport": "stop_position"
        }
      },
      {
        "type": "node",
        "id": 7141213455,
        "lat": 12.9441362,
        "lon": 77.6028844,
        "tags": {
          "bus": "yes",
          "name": "MICO Factory Junction",
          "name:en": "MICO Factory Junction",
          "network": "BMTC",
          "operator": "BMTC",
          "public_transport": "stop_position"
        }
      },
      {
        "type": "node",
        "id": 7141213457,
        "lat": 12.9525613,
        "lon": 77.6048624,
        "tags": {
          "bus": "yes",
          "name": "Indian Christian Cemetry",
          "name:en": "Indian Christian Cemetry",
          "network": "BMTC",
          "operator": "BMTC",
          "public_transport": "stop_position"
        }
      },
      {
        "type": "node",
        "id": 7141213459,
        "lat": 12.9581048,
        "lon": 77.6060678,
        "tags": {
          "bus": "yes",
          "name": "Elgin Flour Mill",
          "name:en": "Elgin Flour Mill",
          "network": "BMTC",
          "operator": "BMTC",
          "public_transport": "stop_position"
        }
      },
      {
        "type": "node",
        "id": 7141213461,
        "lat": 12.9636456,
        "lon": 77.6067133,
        "tags": {
          "bus": "yes",
          "name": "Johnson Market",
          "name:en": "Johnson Market",
          "name:kn": "\u0c9c\u0cbe\u0ca8\u0ccd\u0cb8\u0ca8\u0ccd \u0cae\u0cbe\u0cb0\u0ccd\u0c95\u0cc6\u0c9f\u0ccd",
          "network": "BMTC",
          "operator": "BMTC",
          "public_transport": "stop_position"
        }
      },
      {
        "type": "node",
        "id": 7157856781,
        "lat": 12.9538368,
        "lon": 77.5799874,
        "tags": {
          "bus": "yes",
          "name": "Minarva Circle, Rashtriya Vidyalaya Road",
          "name:en": "Minarva Circle, Rashtriya Vidyalaya Road",
          "network": "BMTC",
          "operator": "BMTC",
          "public_transport": "stop_position"
        }
      },
      {
        "type": "node",
        "id": 7157856782,
        "lat": 12.9540427,
        "lon": 77.585581,
        "tags": {
          "bus": "yes",
          "name": "Lalbagh Main Gate",
          "name:en": "Lalbagh Main Gate",
          "name:kn": "\u0cb2\u0cbe\u0cb2\u0ccd\u200c\u0cac\u0cbe\u0c97\u0ccd \u0cae\u0cc1\u0c96\u0ccd\u0caf \u0ca6\u0ccd\u0cb5\u0cbe\u0cb0",
          "network": "BMTC",
          "operator": "BMTC",
          "public_transport": "stop_position"
        }
      },
      {
        "type": "node",
        "id": 7157889188,
        "lat": 12.954921,
        "lon": 77.5917316,
        "tags": {
          "bus": "yes",
          "name": "Shanthinagara Bus Stop KH Road",
          "name:en": "Shanthinagara Bus Stop KH Road",
          "network": "BMTC",
          "operator": "BMTC",
          "public_transport": "stop_position"
        }
      },
      {
        "type": "node",
        "id": 7157889191,
        "lat": 12.9583156,
        "lon": 77.5930429,
        "tags": {
          "bus": "yes",
          "name": "KH Road, Double Road",
          "name:en": "KH Road, Double Road",
          "network": "BMTC",
          "operator": "BMTC",
          "public_transport": "stop_position"
        }
      },
      {
        "type": "node",
        "id": 7157895258,
        "lat": 12.9531079,
        "lon": 77.5836028,
        "tags": {
          "bus": "yes",
          "name": "Krumbigal Road",
          "name:en": "Krumbigal Road",
          "name:kn": "\u0c95\u0ccd\u0cb0\u0cc1\u0c82\u0cac\u0cbf\u0c97\u0cb2\u0ccd \u0cb0\u0cb8\u0ccd\u0ca4\u0cc6",
          "network": "BMTC",
          "operator": "BMTC",
          "public_transport": "stop_position"
        }
      },
      {
        "type": "node",
        "id": 7157895259,
        "lat": 12.954792,
        "lon": 77.5917926,
        "tags": {
          "bus": "yes",
          "name": "Shanthinagara Bus Stop KH Road",
          "name:en": "Shanthinagara Bus Stop KH Road",
          "network": "BMTC",
          "operator": "BMTC",
          "public_transport": "stop_position"
        }
      },
      {
        "type": "node",
        "id": 7157895260,
        "lat": 12.9658163,
        "lon": 77.6042478,
        "tags": {
          "bus": "yes",
          "name": "Richmond Circle",
          "name:en": "Richmond Circle",
          "name:kn": "\u0cb0\u0cbf\u0c9a\u0ccd\u0cae\u0c82\u0ca1\u0ccd \u0cb5\u0cc3\u0ca4\u0ccd\u0ca4",
          "network": "BMTC",
          "operator": "BMTC",
          "public_transport": "stop_position"
        }
      },
      {
        "type": "node",
        "id": 7290820052,
        "lat": 12.9280356,
        "lon": 77.5876191,
        "tags": {
          "bus": "yes",
          "name": "Jayanagara Church",
          "name:en": "Jayanagara Church",
          "network": "BMTC",
          "operator": "BMTC",
          "public_transport": "stop_position"
        }
      },
      {
        "type": "node",
        "id": 7293708127,
        "lat": 12.9534708,
        "lon": 77.6052319,
        "tags": {
          "bus": "yes",
          "name": "Anepalya",
          "name:en": "Anepalya",
          "name:kn": "\u0c86\u0ca8\u0cc6\u0caa\u0cbe\u0cb3\u0ccd\u0caf",
          "network": "BMTC",
          "operator": "BMTC",
          "public_transport": "stop_position"
        }
      },
      {
        "type": "node",
        "id": 7293817082,
        "lat": 12.9390151,
        "lon": 77.6097671,
        "tags": {
          "bus": "yes",
          "name": "Adugodi Police Station",
          "name:en": "Adugodi Police Station",
          "name:kn": "\u0c85\u0ca1\u0cc1\u0c97\u0cca\u0ca1\u0cbf \u0caa\u0ccb\u0cb2\u0cc0\u0cb8\u0ccd \u0ca0\u0cbe\u0ca3\u0cc6",
          "network": "BMTC",
          "operator": "BMTC",
          "public_transport": "stop_position"
        }
      },
      {
        "type": "node",
        "id": 7293817083,
        "lat": 12.9398973,
        "lon": 77.6094326,
        "tags": {
          "bus": "yes",
          "name": "Adugodi Police Station",
          "name:en": "Adugodi Police Station",
          "name:kn": "\u0c85\u0ca1\u0cc1\u0c97\u0cca\u0ca1\u0cbf \u0caa\u0ccb\u0cb2\u0cc0\u0cb8\u0ccd \u0ca0\u0cbe\u0ca3\u0cc6",
          "network": "BMTC",
          "operator": "BMTC",
          "public_transport": "stop_position"
        }
      },
      {
        "type": "node",
        "id": 7293817087,
        "lat": 12.9447399,
        "lon": 77.6073573,
        "tags": {
          "bus": "yes",
          "name": "Adugodi",
          "name:en": "Adugodi",
          "name:kn": "\u0c85\u0ca1\u0cc1\u0c97\u0cca\u0ca1\u0cbf",
          "network": "BMTC",
          "operator": "BMTC",
          "public_transport": "stop_position"
        }
      },
      {
        "type": "node",
        "id": 7293817154,
        "lat": 12.9492019,
        "lon": 77.6061203,
        "tags": {
          "bus": "yes",
          "local_ref": "Adugodi",
          "name": "Pothalappa Garden",
          "name:en": "Pothalappa Garden",
          "network": "BMTC",
          "operator": "BMTC",
          "public_transport": "stop_position"
        }
      },
      {
        "type": "node",
        "id": 7293817164,
        "lat": 12.9522037,
        "lon": 77.6052759,
        "tags": {
          "bus": "yes",
          "name": "Anepalya",
          "name:en": "Anepalya",
          "name:kn": "\u0c86\u0ca8\u0cc6\u0caa\u0cbe\u0cb3\u0ccd\u0caf",
          "network": "BMTC",
          "operator": "BMTC",
          "public_transport": "stop_position"
        }
      },
      {
        "type": "node",
        "id": 9906259153,
        "lat": 12.9429279,
        "lon": 77.5972942,
        "tags": {
          "bus": "yes",
          "name": "Lakkasandra",
          "name:en": "Lakkasandra",
          "name:kn": "\u0cb2\u0c95\u0ccd\u0c95\u0cb8\u0c82\u0ca6\u0ccd\u0cb0",
          "network": "BMTC",
          "operator": "BMTC",
          "public_transport": "stop_position"
        }
      },
      {
        "type": "node",
        "id": 9906259160,
        "lat": 12.9438442,
        "lon": 77.5971199,
        "tags": {
          "bus": "yes",
          "name": "Lakkasandra",
          "name:en": "Lakkasandra",
          "name:kn": "\u0cb2\u0c95\u0ccd\u0c95\u0cb8\u0c82\u0ca6\u0ccd\u0cb0",
          "network": "BMTC",
          "operator": "BMTC",
          "public_transport": "stop_position"
        }
      },
      {
        "type": "node",
        "id": 9951257714,
        "lat": 12.9454855,
        "lon": 77.6191623,
        "tags": {
          "bus": "yes",
          "name": "Passport Office",
          "name:en": "Passport Office",
          "name:kn": "\u0caa\u0cbe\u0cb8\u0ccd\u0caa\u0ccb\u0cb0\u0ccd\u0c9f\u0ccd \u0c95\u0c9b\u0cc7\u0cb0\u0cbf",
          "network": "BMTC",
          "operator": "BMTC",
          "public_transport": "stop_position"
        }
      },
      {
        "type": "node",
        "id": 10091709803,
        "lat": 12.9337935,
        "lon": 77.5839258,
        "tags": {
          "bus": "yes",
          "name": "3rd Block Jayanagara",
          "name:en": "3rd Block Jayanagara",
          "network": "BMTC",
          "operator": "BMTC",
          "public_transport": "stop_position"
        }
      },
      {
        "type": "node",
        "id": 10853093227,
        "lat": 12.9470533,
        "lon": 77.5798514,
        "tags": {
          "amenity": "fuel",
          "brand": "Go Gas",
          "name": "Go Gas"
        }
      },
      {
        "type": "node",
        "id": 10855128073,
        "lat": 12.9542179,
        "lon": 77.5847004,
        "tags": {
          "bus": "yes",
          "name": "Lalbagh Main Gate",
          "name:en": "Lalbagh Main Gate",
          "name:kn": "\u0cb2\u0cbe\u0cb2\u0ccd\u200c\u0cac\u0cbe\u0c97\u0ccd \u0cae\u0cc1\u0c96\u0ccd\u0caf \u0ca6\u0ccd\u0cb5\u0cbe\u0cb0",
          "network": "BMTC",
          "operator": "BMTC",
          "public_transport": "stop_position"
        }
      },
      {
        "type": "node",
        "id": 10855128074,
        "lat": 12.9509145,
        "lon": 77.5918962,
        "tags": {
          "bus": "yes",
          "name": "Lalbagh HOPCOMS",
          "name:en": "Lalbagh HOPCOMS",
          "network": "BMTC",
          "operator": "BMTC",
          "public_transport": "stop_position"
        }
      },
      {
        "type": "node",
        "id": 10855128075,
        "lat": 12.9470205,
        "lon": 77.5943949,
        "tags": {
          "bus": "yes",
          "name": "7th Cross Wilson Garden",
          "name:en": "7th Cross Wilson Garden",
          "name:kn": "\u0ced\u0ca8\u0cc7 \u0c85\u0ca1\u0ccd\u0ca1 \u0cb0\u0cb8\u0ccd\u0ca4\u0cc6",
          "network": "BMTC",
          "operator": "BMTC",
          "public_transport": "stop_position"
        }
      },
      {
        "type": "node",
        "id": 10855128078,
        "lat": 12.9388025,
        "lon": 77.5982554,
        "tags": {
          "bus": "yes",
          "name": "NIMHANS Hospital",
          "name:en": "NIMHANS Hospital",
          "network": "BMTC",
          "operator": "BMTC",
          "public_transport": "stop_position"
        }
      },
      {
        "type": "node",
        "id": 10855128079,
        "lat": 12.9363638,
        "lon": 77.606663,
        "tags": {
          "bus": "yes",
          "name": "Muneshwara Temple",
          "name:en": "Muneshwara Temple",
          "name:kn": "\u0cae\u0cc1\u0ca8\u0cc7\u0cb6\u0ccd\u0cb5\u0cb0 \u0ca6\u0cc7\u0cb5\u0cb8\u0ccd\u0ca5\u0cbe\u0ca8",
          "network": "BMTC",
          "operator": "BMTC",
          "public_transport": "stop_position"
        }
      },
      {
        "type": "node",
        "id": 10855128080,
        "lat": 12.9320874,
        "lon": 77.6131149,
        "tags": {
          "alt_name": "Forum Mall",
          "bus": "yes",
          "name": "Hosur Junction",
          "name:en": "Hosur Junction",
          "network": "BMTC",
          "old_name": "Hosur Checkpost",
          "operator": "BMTC",
          "public_transport": "stop_position"
        }
      },
      {
        "type": "node",
        "id": 11019492827,
        "lat": 12.9609431,
        "lon": 77.588207,
        "tags": {
          "bus": "yes",
          "name": "Poornima Talkies",
          "name:en": "Poornima Talkies",
          "network": "BMTC",
          "operator": "BMTC",
          "public_transport": "stop_position"
        }
      },
      {
        "type": "node",
        "id": 11283405698,
        "lat": 12.9322172,
        "lon": 77.6142725,
        "tags": {
          "amenity": "charging_station",
          "capacity": "4",
          "description": "EV charging point for OLA scooters",
          "man_made": "charge_point",
          "manufacturer": "Ola",
          "name": "Ola Hypercharger"
        }
      },
      {
        "type": "node",
        "id": 11296933565,
        "lat": 12.9273812,
        "lon": 77.6001621,
        "tags": {
          "amenity": "theatre",
          "name": "Mother Veronica Auditorium"
        }
      },
      {
        "type": "node",
        "id": 11398011951,
        "lat": 12.9384223,
        "lon": 77.6178277,
        "tags": {
          "amenity": "theatre",
          "name": "Medai - Bengaluru"
        }
      },
      {
        "type": "node",
        "id": 11542817224,
        "lat": 12.9365433,
        "lon": 77.6067081,
        "tags": {
          "bus": "yes",
          "name": "Muneshwara Devasthana",
          "name:en": "Muneshwara Devasthana",
          "name:kn": "\u0cae\u0cc1\u0ca8\u0cc7\u0cb6\u0ccd\u0cb5\u0cb0 \u0ca6\u0cc7\u0cb5\u0cb8\u0ccd\u0ca5\u0cbe\u0ca8",
          "network": "BMTC",
          "operator": "BMTC",
          "public_transport": "stop_position"
        }
      },
      {
        "type": "node",
        "id": 11542817290,
        "lat": 12.9362684,
        "lon": 77.6076884,
        "tags": {
          "amenity": "charging_station",
          "fee": "yes",
          "motorcar": "yes",
          "motorcycle": "yes"
        }
      },
      {
        "type": "node",
        "id": 11598213076,
        "lat": 12.9447292,
        "lon": 77.6074632,
        "tags": {
          "bus": "yes",
          "name": "Adugodi",
          "name:en": "Adugodi",
          "name:kn": "\u0c85\u0ca1\u0cc1\u0c97\u0cca\u0ca1\u0cbf",
          "network": "BMTC",
          "operator": "BMTC",
          "public_transport": "stop_position"
        }
      },
      {
        "type": "node",
        "id": 11739418609,
        "lat": 12.9349284,
        "lon": 77.6121062,
        "tags": {
          "bus": "yes",
          "name": "Forum Mall Koramangala",
          "name:en": "Forum Mall Koramangala",
          "network": "BMTC",
          "operator": "BMTC",
          "public_transport": "stop_position"
        }
      },
      {
        "type": "node",
        "id": 11799641553,
        "lat": 12.9285463,
        "lon": 77.584396,
        "tags": {
          "bus": "yes",
          "name": "Jayanagar TTMC",
          "name:en": "Jayanagar TTMC",
          "network": "BMTC",
          "operator": "BMTC",
          "public_transport": "stop_position"
        }
      },
      {
        "type": "node",
        "id": 12032990387,
        "lat": 12.9322145,
        "lon": 77.6130714,
        "tags": {
          "bus": "yes",
          "name": "Hosur Junction",
          "name:en": "Hosur Junction",
          "network": "BMTC",
          "operator": "BMTC",
          "public_transport": "stop_position"
        }
      },
      {
        "type": "node",
        "id": 12032990390,
        "lat": 12.9358017,
        "lon": 77.601317,
        "tags": {
          "bus": "yes",
          "name": "Bangalore Dairy Circle",
          "name:en": "Bangalore Dairy Circle",
          "name:kn": "\u0cac\u0cc6\u0c82\u0c97\u0cb3\u0cc2\u0cb0\u0cc1 \u0ca1\u0cc8\u0cb0\u0cbf \u0cb5\u0cc3\u0ca4\u0ccd\u0ca4",
          "network": "BMTC",
          "operator": "BMTC",
          "public_transport": "stop_position"
        }
      },
      {
        "type": "node",
        "id": 12032990391,
        "lat": 12.9270546,
        "lon": 77.5924036,
        "tags": {
          "bus": "yes",
          "name": "Sanjay Gandhi Hospital",
          "name:en": "Sanjay Gandhi Hospital",
          "name:kn": "\u0cb8\u0c82\u0c9c\u0caf\u0ccd \u0c97\u0cbe\u0c82\u0ca7\u0cbf \u0c86\u0cb8\u0ccd\u0caa\u0ca4\u0ccd\u0cb0\u0cc6",
          "network": "BMTC",
          "operator": "BMTC",
          "public_transport": "stop_position"
        }
      },
      {
        "type": "node",
        "id": 12032990392,
        "lat": 12.9269849,
        "lon": 77.5929284,
        "tags": {
          "bus": "yes",
          "name": "Sanjay Gandhi Hospital",
          "name:en": "Sanjay Gandhi Hospital",
          "network": "BMTC",
          "operator": "BMTC",
          "public_transport": "stop_position"
        }
      },
      {
        "type": "node",
        "id": 12032990393,
        "lat": 12.9267231,
        "lon": 77.5970921,
        "tags": {
          "bus": "yes",
          "name": "Carmel Convent",
          "name:en": "Carmel Convent",
          "name:kn": "\u0c95\u0cbe\u0cb0\u0ccd\u0cae\u0cc6\u0cb2\u0ccd \u0c95\u0cbe\u0ca8\u0ccd\u0cb5\u0cc6\u0c82\u0c9f\u0ccd",
          "network": "BMTC",
          "operator": "BMTC",
          "public_transport": "stop_position"
        }
      },
      {
        "type": "node",
        "id": 12032990398,
        "lat": 12.9263412,
        "lon": 77.5971456,
        "tags": {
          "bus": "yes",
          "name": "Carmel Convent",
          "name:en": "Carmel Convent",
          "name:kn": "\u0c95\u0cbe\u0cb0\u0ccd\u0cae\u0cc6\u0cb2\u0ccd \u0c95\u0cbe\u0ca8\u0ccd\u0cb5\u0cc6\u0c82\u0c9f\u0ccd",
          "network": "BMTC",
          "operator": "BMTC",
          "public_transport": "stop_position"
        }
      },
      {
        "type": "node",
        "id": 12101733050,
        "lat": 12.965406,
        "lon": 77.6002473,
        "tags": {
          "access": "yes",
          "amenity": "charging_station",
          "brand": "Ola Hypercharger"
        }
      },
      {
        "type": "node",
        "id": 12135983669,
        "lat": 12.9622079,
        "lon": 77.5842821,
        "tags": {
          "amenity": "theatre",
          "name": "ADA Ranga Mandira"
        }
      },
      {
        "type": "node",
        "id": 12135993230,
        "lat": 12.9617443,
        "lon": 77.5848647,
        "tags": {
          "amenity": "theatre",
          "name": "Nayana Auditorium"
        }
      },
      {
        "type": "node",
        "id": 12151337498,
        "lat": 12.9506877,
        "lon": 77.605377,
        "tags": {
          "amenity": "fuel",
          "brand": "Total",
          "brand:wikidata": "Q154037",
          "name": "Total"
        }
      },
      {
        "type": "node",
        "id": 12167710739,
        "lat": 12.9420666,
        "lon": 77.5854427,
        "tags": {
          "amenity": "fuel",
          "brand": "TotalEnergies",
          "brand:wikidata": "Q154037",
          "name": "TotalEnergies"
        }
      },
      {
        "type": "node",
        "id": 12168378212,
        "lat": 12.9320453,
        "lon": 77.6130803,
        "tags": {
          "alt_name": "Forum Mall",
          "bus": "yes",
          "name": "Hosur Junction",
          "name:en": "Hosur Junction",
          "network": "BMTC",
          "old_name": "Hosur Checkpost",
          "operator": "BMTC",
          "public_transport": "stop_position"
        }
      },
      {
        "type": "node",
        "id": 12168378237,
        "lat": 12.9438411,
        "lon": 77.5970971,
        "tags": {
          "bus": "yes",
          "name": "Lakkasandra",
          "name:en": "Lakkasandra",
          "name:kn": "\u0cb2\u0c95\u0ccd\u0c95\u0cb8\u0c82\u0ca6\u0ccd\u0cb0",
          "network": "BMTC",
          "operator": "BMTC",
          "public_transport": "stop_position"
        }
      },
      {
        "type": "node",
        "id": 12168378238,
        "lat": 12.9387912,
        "lon": 77.5982355,
        "tags": {
          "bus": "yes",
          "name": "Nimhans Hospital",
          "name:en": "NIMHANS Hospital",
          "network": "BMTC",
          "operator": "BMTC",
          "public_transport": "stop_position"
        }
      },
      {
        "type": "node",
        "id": 12168378246,
        "lat": 12.9429308,
        "lon": 77.5973171,
        "tags": {
          "bus": "yes",
          "name": "Lakkasandra",
          "name:en": "Lakkasandra",
          "name:kn": "\u0cb2\u0c95\u0ccd\u0c95\u0cb8\u0c82\u0ca6\u0ccd\u0cb0",
          "network": "BMTC",
          "operator": "BMTC",
          "public_transport": "stop_position"
        }
      },
      {
        "type": "node",
        "id": 12462543991,
        "lat": 12.9379754,
        "lon": 77.5851284,
        "tags": {
          "bus": "yes",
          "name": "Rani Saraladevi",
          "name:en": "Rani Saraladevi",
          "network": "BMTC",
          "operator": "BMTC",
          "public_transport": "stop_position"
        }
      },
      {
        "type": "node",
        "id": 12462543992,
        "lat": 12.9432818,
        "lon": 77.5852556,
        "tags": {
          "bus": "yes",
          "name": "Ashoka Pillar",
          "name:en": "Ashoka Pillar",
          "network": "BMTC",
          "operator": "BMTC",
          "public_transport": "stop_position"
        }
      },
      {
        "type": "node",
        "id": 12462547451,
        "lat": 12.9367531,
        "lon": 77.5771247,
        "tags": {
          "bus": "yes",
          "name": "Shanthi Talkies",
          "name:en": "Shanthi Talkies",
          "network": "BMTC",
          "operator": "BMTC",
          "public_transport": "stop_position"
        }
      },
      {
        "type": "node",
        "id": 12462547452,
        "lat": 12.9364505,
        "lon": 77.5839634,
        "tags": {
          "bus": "yes",
          "name": "Madavan Park",
          "name:en": "Madavan Park",
          "network": "BMTC",
          "operator": "BMTC",
          "public_transport": "stop_position"
        }
      },
      {
        "type": "node",
        "id": 12462547453,
        "lat": 12.9319322,
        "lon": 77.5838891,
        "tags": {
          "bus": "yes",
          "name": "Jayanagar 3rd Block",
          "name:en": "Jayanagar 3rd Block",
          "name:kn": "\u0c9c\u0caf\u0ca8\u0c97\u0cb0 \u0ce9\u0ca8\u0cc7 \u0cac\u0ccd\u0cb2\u0cbe\u0c95\u0ccd",
          "network": "BMTC",
          "operator": "BMTC",
          "public_transport": "stop_position"
        }
      },
      {
        "type": "node",
        "id": 12462547454,
        "lat": 12.9234167,
        "lon": 77.5895751,
        "tags": {
          "bus": "yes",
          "name": "Jayanagara 18th Main",
          "name:en": "Jayanagara 18th Main",
          "network": "BMTC",
          "operator": "BMTC",
          "public_transport": "stop_position"
        }
      },
      {
        "type": "node",
        "id": 12462547456,
        "lat": 12.9230562,
        "lon": 77.5934443,
        "tags": {
          "bus": "yes",
          "name": "Jayanagara 4th T Block",
          "name:en": "Jayanagara 4th T Block",
          "name:kn": "\u0c9c\u0caf\u0ca8\u0c97\u0cb0 \u0cea\u0ca8\u0cc7 \u0cac\u0ca1\u0cbe\u0cb5\u0ca3\u0cc6",
          "network": "BMTC",
          "operator": "BMTC",
          "public_transport": "stop_position"
        }
      },
      {
        "type": "node",
        "id": 12462551336,
        "lat": 12.936272,
        "lon": 77.5801355,
        "tags": {
          "bus": "yes",
          "name": "South End Circle",
          "name:en": "South End Circle",
          "network": "BMTC",
          "operator": "BMTC",
          "public_transport": "stop_position"
        }
      },
      {
        "type": "node",
        "id": 12462551338,
        "lat": 12.9411901,
        "lon": 77.5801014,
        "tags": {
          "bus": "yes",
          "name": "Vijaya College",
          "name:en": "Vijaya College",
          "network": "BMTC",
          "operator": "BMTC",
          "public_transport": "stop_position"
        }
      },
      {
        "type": "node",
        "id": 12462551339,
        "lat": 12.9443269,
        "lon": 77.5800855,
        "tags": {
          "bus": "yes",
          "name": "RV Teachers College",
          "name:en": "RV Teachers College",
          "network": "BMTC",
          "operator": "BMTC",
          "public_transport": "stop_position"
        }
      },
      {
        "type": "node",
        "id": 12462601104,
        "lat": 12.9287383,
        "lon": 77.5803445,
        "tags": {
          "bus": "yes",
          "name": "Jayanagara Metro Station",
          "name:en": "Jayanagara Metro Station",
          "network": "BMTC",
          "operator": "BMTC",
          "public_transport": "stop_position"
        }
      },
      {
        "type": "node",
        "id": 12492566397,
        "lat": 12.9383537,
        "lon": 77.5802162,
        "tags": {
          "amenity": "charging_station",
          "charging_station:battery_swapping": "yes",
          "fee": "yes",
          "level": "0",
          "motorcar": "no",
          "motorcycle": "yes",
          "name": "Honda e:swap",
          "operator": "Honda e:swap"
        }
      },
      {
        "type": "node",
        "id": 12511443667,
        "lat": 12.9511732,
        "lon": 77.5916216,
        "tags": {
          "bus": "yes",
          "name": "Lalbagh HOPCOMS",
          "name:en": "Lalbagh HOPCOMS",
          "network": "BMTC",
          "operator": "BMTC",
          "public_transport": "stop_position"
        }
      },
      {
        "type": "node",
        "id": 12511443668,
        "lat": 12.9564797,
        "lon": 77.5772696,
        "tags": {
          "bus": "yes",
          "name": "Basappa Circle",
          "name:en": "Basappa Circle",
          "network": "BMTC",
          "operator": "BMTC",
          "public_transport": "stop_position"
        }
      },
      {
        "type": "node",
        "id": 12511444258,
        "lat": 12.9278312,
        "lon": 77.6091639,
        "tags": {
          "bus": "yes",
          "name": "Chikka Adugodi",
          "name:en": "Chikka Adugodi",
          "network": "BMTC",
          "operator": "BMTC",
          "public_transport": "stop_position"
        }
      },
      {
        "type": "node",
        "id": 12511444260,
        "lat": 12.9310533,
        "lon": 77.6098502,
        "tags": {
          "bus": "yes",
          "name": "Suddaguntepalya",
          "name:en": "Suddaguntepalya",
          "network": "BMTC",
          "operator": "BMTC",
          "public_transport": "stop_position"
        }
      },
      {
        "type": "node",
        "id": 12917084118,
        "lat": 12.9308841,
        "lon": 77.5783998,
        "tags": {
          "bus": "yes",
          "name": "Jayanagar 6th Block",
          "name:en": "Jayanagar 6th Block",
          "network": "BMTC",
          "operator": "BMTC",
          "public_transport": "stop_position"
        }
      },
      {
        "type": "node",
        "id": 12999114793,
        "lat": 12.942457,
        "lon": 77.5851576,
        "tags": {
          "bus": "yes",
          "name": "Ashoka Pillar",
          "name:en": "Ashoka Pillar",
          "network": "BMTC",
          "operator": "BMTC",
          "public_transport": "stop_position"
        }
      },
      {
        "type": "node",
        "id": 13020763141,
        "lat": 12.9502567,
        "lon": 77.5957807,
        "tags": {
          "bus": "yes",
          "name": "Wilson Garden Police Station",
          "name:en": "Wilson Garden Police Station",
          "network": "BMTC",
          "operator": "BMTC",
          "public_transport": "stop_position"
        }
      },
      {
        "type": "node",
        "id": 13110965690,
        "lat": 12.9415864,
        "lon": 77.573834,
        "tags": {
          "bus": "yes",
          "name": "Basavanagudi Police Station",
          "name:en": "Basavanagudi Police Station",
          "network": "BMTC",
          "operator": "BMTC",
          "public_transport": "stop_position"
        }
      }
    ]
  }
}