{
  "pois_1km": {
    "version": 0.6,
    "generator": "Overpass API 0.7.62.8 e802775f",
    "osm3s": {
      "timestamp_osm_base": "2025-09-06T08:22:36Z",
      "copyright": "The data included in this document is from www.openstreetmap.org. The data is made available under ODbL."
    },
    "elements": [
      {
        "type": "node",
        "id": 307401529,
        "lat": 12.9263714,
        "lon": 77.6765455,
        "tags": {
          "addr:city": "Belandur, Bangalore",
          "addr:full": "74/1, Bellandur, Ring Road, Varthur",
          "addr:housenumber": "74/1",
          "addr:postcode": "560037",
          "addr:state": "Karnataka",
          "addr:street": "Outer Ring Road",
          "amenity": "hospital",
          "email": "whitefield@theapolloclinic.com",
          "healthcare": "hospital",
          "name": "Apollo Hospital",
          "name:kn": "\u0c85\u0caa\u0cca\u0cb2\u0ccb \u0c86\u0cb8\u0ccd\u0caa\u0ca4\u0ccd\u0cb0\u0cc6",
          "phone": "+91-80-40222555",
          "website": "http://www.apolloclinicbangalore.com/",
          "wheelchair": "yes"
        }
      },
      {
        "type": "node",
        "id": 929965952,
        "lat": 12.924585,
        "lon": 77.6743627,
        "tags": {
          "addr:street": "Outer Ring Road",
          "air_conditioning": "yes",
          "amenity": "cafe",
          "brand": "Cafe Coffee Day",
          "brand:wikidata": "Q5017235",
          "brand:wikipedia": "en:Caf\u00e9 Coffee Day",
          "check_date": "2025-08-18",
          "check_date:diet:vegetarian": "2025-08-18",
          "cuisine": "coffee_shop",
          "diet:vegetarian": "yes",
          "indoor_seating": "yes",
          "name": "Cafe Coffee Day",
          "name:kn": "\u0c95\u0cab\u0cc6 \u0c95\u0cbe\u0cab\u0cbf \u0ca1\u0cc7",
          "outdoor_seating": "no",
          "takeaway": "yes"
        }
      },
      {
        "type": "node",
        "id": 983942391,
        "lat": 12.931753,
        "lon": 77.68645,
        "tags": {
          "addr:city": "Devara Bisnhalli, Bellandur",
          "addr:housenumber": "103",
          "addr:postcode": "560037",
          "amenity": "restaurant",
          "cuisine": "indian",
          "internet_access": "no",
          "name": "Eden Dhaba",
          "name:kn": "\u0c92\u0ca1\u0cc6\u0ca8\u0ccd \u0ca1\u0cbe\u0cac",
          "phone": "+91-80-65957659;+91-9342571046"
        }
      },
      {
        "type": "node",
        "id": 1156832807,
        "lat": 12.9261691,
        "lon": 77.6803833,
        "tags": {
          "addr:housename": "The Bay Food Court",
          "addr:housenumber": "102",
          "addr:street": "Outer ring road, Bellandur",
          "amenity": "cafe",
          "brand": "Cafe Coffee Day",
          "brand:wikidata": "Q5017235",
          "brand:wikipedia": "en:Caf\u00e9 Coffee Day",
          "cuisine": "coffee_shop",
          "name": "Cafe Coffee Day",
          "name:kn": "\u0c95\u0cab\u0cc6 \u0c95\u0cbe\u0cab\u0cbf \u0ca1\u0cc7",
          "takeaway": "yes"
        }
      },
      {
        "type": "node",
        "id": 1156832811,
        "lat": 12.9263049,
        "lon": 77.6803137,
        "tags": {
          "addr:housename": "The Bay Food Court",
          "addr:housenumber": "102",
          "addr:street": "Outer ring road, Bellandur",
          "amenity": "fast_food",
          "brand": "Domino's",
          "brand:ks": "\u0688\u0648\u0645\u06cc\u0646\u0648\u0632",
          "brand:pa": "\u0a21\u0a4b\u0a2e\u0a40\u0a28\u0a4b\u0a1c\u0a3c",
          "brand:ur": "\u0688\u0648\u0645\u06cc\u0646\u0648\u0632",
          "brand:wikidata": "Q839466",
          "brand:wikipedia": "en:Domino's Pizza",
          "cuisine": "pizza",
          "name": "Domino's",
          "name:kn": "\u0ca1\u0cbe\u0cae\u0cbf\u0ca8\u0ccb\u0cb8\u0ccd",
          "name:ks": "\u0688\u0648\u0645\u06cc\u0646\u0648\u0632",
          "name:pa": "\u0a21\u0a4b\u0a2e\u0a40\u0a28\u0a4b\u0a1c\u0a3c",
          "name:ur": "\u0688\u0648\u0645\u06cc\u0646\u0648\u0632",
          "takeaway": "yes",
          "wheelchair": "no"
        }
      },
      {
        "type": "node",
        "id": 1156941131,
        "lat": 12.9264201,
        "lon": 77.6805202,
        "tags": {
          "addr:housename": "Food Court",
          "addr:street": "Outer ring road, Bellandur village",
          "amenity": "fast_food",
          "brand": "McDonald's",
          "brand:pa": "\u0a2e\u0a48\u0a15\u0a21\u0a4b\u0a28\u0a32\u0a21\u2019\u0a1c\u0a3c",
          "brand:ur": "\u0645\u06a9\u0688\u0648\u0646\u0644\u0688\u0632",
          "brand:wikidata": "Q38076",
          "brand:wikipedia": "en:McDonald's",
          "brand:wikipedia:pa": "\u0a2e\u0a48\u0a15\u0a21\u0a4b\u0a28\u0a32\u0a21\u2019\u0a1c\u0a3c",
          "brand:wikipedia:ur": "\u0645\u06a9\u0688\u0648\u0646\u0644\u0688\u0632",
          "cuisine": "burger",
          "name": "McDonald's",
          "name:kn": "\u0cae\u0ccd\u0caf\u0cbe\u0c95\u0ccd\u200c\u0ca1\u0cca\u0ca8\u0cbe\u0cb2\u0ccd\u0ca1\u0ccd\u0cb8\u0ccd",
          "name:pa": "\u0a2e\u0a48\u0a15\u0a21\u0a4b\u0a28\u0a32\u0a21\u2019\u0a1c\u0a3c",
          "name:ur": "\u0645\u06a9\u0688\u0648\u0646\u0644\u0688\u0632",
          "takeaway": "yes",
          "website": "https://www.mcdonaldsindia.com/"
        }
      },
      {
        "type": "node",
        "id": 1174025197,
        "lat": 12.9300352,
        "lon": 77.6841894,
        "tags": {
          "amenity": "bank",
          "atm": "yes",
          "brand": "HDFC Bank",
          "brand:wikidata": "Q631047",
          "brand:wikipedia": "en:HDFC Bank",
          "check_date": "2024-12-23",
          "currency:INR": "yes",
          "drive_through": "no",
          "name": "HDFC Bank",
          "name:kn": "\u0c8e\u0c9a\u0ccd \u0ca1\u0cbf \u0c8e\u0cab\u0ccd \u0cb8\u0cbf",
          "payment:cards": "no",
          "payment:cash": "yes",
          "payment:credit_cards": "no",
          "payment:debit_cards": "no",
          "short_name": "HDFC",
          "website": "https://www.hdfcbank.com",
          "wheelchair": "yes"
        }
      },
      {
        "type": "node",
        "id": 1367646343,
        "lat": 12.9251154,
        "lon": 77.6817088,
        "tags": {
          "amenity": "atm",
          "brand": "HDFC Bank",
          "brand:wikidata": "Q631047",
          "brand:wikipedia": "en:HDFC Bank",
          "name": "HDFC Bank",
          "operator": "HDFC Bank",
          "operator:wikidata": "Q631047",
          "operator:wikipedia": "en:HDFC Bank",
          "short_name": "HDFC"
        }
      },
      {
        "type": "node",
        "id": 1367646347,
        "lat": 12.9249638,
        "lon": 77.681639,
        "tags": {
          "amenity": "atm",
          "brand": "ICICI Bank",
          "brand:wikidata": "Q1653258",
          "brand:wikipedia": "en:ICICI Bank",
          "name": "ICICI Bank",
          "name:kn": "\u0c90\u0cb8\u0cbf\u0c90\u0cb8\u0cbf\u0c90 \u0cac\u0ccd\u0caf\u0cbe\u0c82\u0c95\u0cc1",
          "operator": "ICICI Bank",
          "operator:wikidata": "Q1653258",
          "operator:wikipedia": "en:ICICI Bank",
          "short_name": "ICICI",
          "wheelchair": "no"
        }
      },
      {
        "type": "node",
        "id": 1384675402,
        "lat": 12.925884,
        "lon": 77.6753891,
        "tags": {
          "amenity": "atm",
          "brand": "Axis Bank",
          "brand:wikidata": "Q2003549",
          "cash_in": "no",
          "check_date": "2024-01-28",
          "level": "0",
          "name": "Axis Bank",
          "name:kn": "\u0c86\u0c95\u0ccd\u0cb8\u0cbf\u0cb8\u0ccd \u0cac\u0ccd\u0caf\u0cbe\u0c82\u0c95\u0ccd",
          "operator": "Axis Bank",
          "operator:wikidata": "Q2003549"
        }
      },
      {
        "type": "node",
        "id": 1462947571,
        "lat": 12.9260569,
        "lon": 77.6753253,
        "tags": {
          "addr:housename": "SoulSpace Spirit",
          "addr:postcode": "560103",
          "addr:street": "Sarjapur Outer Ring Road, Bellandur, Bangalore",
          "level": "0",
          "name": "Smart Bazaar",
          "shop": "supermarket"
        }
      },
      {
        "type": "node",
        "id": 1462959212,
        "lat": 12.9260621,
        "lon": 77.6760012,
        "tags": {
          "addr:postcode": "560103",
          "addr:street": "Bellandur, Bangalore",
          "amenity": "restaurant",
          "cuisine": "indian",
          "name": "Ring View Restaurant",
          "name:kn": "\u0cb0\u0cbf\u0c82\u0c97\u0ccd \u0cb5\u0cc0\u0cb5\u0ccd \u0cb0\u0cc6\u0cb8\u0ccd\u0c9f\u0ccb\u0cb0\u0cc6\u0c82\u0c9f\u0ccd"
        }
      },
      {
        "type": "node",
        "id": 1691980582,
        "lat": 12.9259462,
        "lon": 77.6752588,
        "tags": {
          "addr:floor": "G",
          "air_conditioning": "yes",
          "alt_name": "Kentucky Fried Chicken",
          "alt_name:en": "Kentucky Fried Chicken",
          "alt_name:hi": "\u0915\u0947\u0902\u091f\u0941\u0915\u0940 \u092b\u094d\u0930\u093e\u0907\u0921 \u091a\u093f\u0915\u0928",
          "alt_name:pa": "\u0a15\u0a48\u0a02\u0a1f\u0a41\u0a15\u0a40 \u0a2b\u0a4d\u0a30\u0a3e\u0a08\u0a21 \u0a1a\u0a3f\u0a15\u0a28",
          "alt_name:pnb": "\u06a9\u06cc\u0646\u0679\u06a9\u06cc \u0641\u0631\u0627\u0626\u06cc\u0688 \u0686\u06a9\u0646",
          "alt_name:ur": "\u06a9\u06cc\u0646\u0679\u06a9\u06cc \u0641\u0631\u0627\u0626\u06cc\u0688 \u0686\u06a9\u0646",
          "amenity": "fast_food",
          "brand": "KFC",
          "brand:en": "KFC",
          "brand:hi": "\u0915\u0947\u090f\u092b\u0938\u0940",
          "brand:pa": "\u0a15\u0a47\u0a10\u0a2b\u0a38\u0a40",
          "brand:pnb": "\u06a9\u06d2 \u0627\u06cc\u0641 \u0633\u06cc",
          "brand:ur": "\u06a9\u06d2 \u0627\u06cc\u0641 \u0633\u06cc",
          "brand:wikidata": "Q524757",
          "brand:wikipedia": "en:KFC",
          "brand:wikipedia:pa": "\u0a15\u0a47\u0a10\u0a2b\u0a38\u0a40",
          "brand:wikipedia:ur": "\u06a9\u06cc\u0646\u0679\u06a9\u06cc \u0641\u0631\u0627\u0626\u06cc\u0688 \u0686\u06a9\u0646",
          "check_date": "2024-01-28",
          "cuisine": "chicken",
          "diet:vegetarian": "yes",
          "drive_through": "no",
          "indoor_seating": "yes",
          "level": "0",
          "name": "KFC",
          "name:en": "KFC",
          "name:hi": "\u0915\u0947\u090f\u092b\u0938\u0940",
          "name:pa": "\u0a15\u0a47\u0a10\u0a2b\u0a38\u0a40",
          "name:pnb": "\u06a9\u06d2 \u0627\u06cc\u0641 \u0633\u06cc",
          "name:ur": "\u06a9\u06d2 \u0627\u06cc\u0641 \u0633\u06cc",
          "outdoor_seating": "no",
          "payment:cash": "yes",
          "payment:credit_cards": "yes",
          "payment:debit_cards": "yes",
          "smoking": "no",
          "source": "survey",
          "takeaway": "yes",
          "wheelchair": "no"
        }
      },
      {
        "type": "node",
        "id": 1691980583,
        "lat": 12.925988,
        "lon": 77.6754492,
        "tags": {
          "addr:floor": "G",
          "air_conditioning": "yes",
          "amenity": "restaurant",
          "brand": "Pizza Hut",
          "brand:wikidata": "Q191615",
          "check_date": "2024-01-28",
          "cuisine": "pizza",
          "diet:vegetarian": "yes",
          "indoor_seating": "yes",
          "level": "0",
          "name": "Pizza Hut",
          "name:kn": "\u0caa\u0cbf\u0c9f\u0ccd\u0cb8 \u0cb9\u0c9f\u0ccd",
          "outdoor_seating": "no",
          "payment:cash": "yes",
          "payment:credit_cards": "yes",
          "payment:debit_cards": "yes",
          "smoking": "no",
          "source": "survey"
        }
      },
      {
        "type": "node",
        "id": 3170080378,
        "lat": 12.9245494,
        "lon": 77.6743341,
        "tags": {
          "air_conditioning": "yes",
          "amenity": "restaurant",
          "diet:vegetarian": "only",
          "indoor_seating": "yes",
          "name": "Gopal Jee",
          "outdoor_seating": "no"
        }
      },
      {
        "type": "node",
        "id": 3236410030,
        "lat": 12.9259521,
        "lon": 77.6754449,
        "tags": {
          "addr:floor": "G",
          "air_conditioning": "yes",
          "amenity": "fast_food",
          "brand": "McDonald's",
          "brand:pa": "\u0a2e\u0a48\u0a15\u0a21\u0a4b\u0a28\u0a32\u0a21\u2019\u0a1c\u0a3c",
          "brand:ur": "\u0645\u06a9\u0688\u0648\u0646\u0644\u0688\u0632",
          "brand:wikidata": "Q38076",
          "brand:wikipedia": "en:McDonald's",
          "brand:wikipedia:pa": "\u0a2e\u0a48\u0a15\u0a21\u0a4b\u0a28\u0a32\u0a21\u2019\u0a1c\u0a3c",
          "brand:wikipedia:ur": "\u0645\u06a9\u0688\u0648\u0646\u0644\u0688\u0632",
          "check_date": "2024-01-28",
          "cuisine": "burger",
          "diet:vegetarian": "yes",
          "indoor_seating": "yes",
          "level": "0",
          "name": "McDonald's",
          "name:kn": "\u0cae\u0ccd\u0caf\u0cbe\u0c95\u0ccd\u200c\u0ca1\u0cca\u0ca8\u0cbe\u0cb2\u0ccd\u0ca1\u0ccd\u0cb8\u0ccd",
          "name:pa": "\u0a2e\u0a48\u0a15\u0a21\u0a4b\u0a28\u0a32\u0a21\u2019\u0a1c\u0a3c",
          "name:ur": "\u0645\u06a9\u0688\u0648\u0646\u0644\u0688\u0632",
          "outdoor_seating": "no",
          "payment:cash": "yes",
          "payment:credit_cards": "yes",
          "payment:debit_cards": "yes",
          "smoking": "no",
          "source": "survey",
          "takeaway": "yes"
        }
      },
      {
        "type": "node",
        "id": 3347894592,
        "lat": 12.9299967,
        "lon": 77.6765388,
        "tags": {
          "amenity": "atm",
          "brand": "Karnataka Bank",
          "brand:wikidata": "Q2042632",
          "name": "Karnataka Bank Ltd",
          "name:kn": "\u0c95\u0cb0\u0ccd\u0ca8\u0cbe\u0c9f\u0c95 \u0cac\u0ccd\u0caf\u0cbe\u0c82\u0c95\u0ccd",
          "operator": "Karnataka Bank",
          "operator:wikidata": "Q2042632"
        }
      },
      {
        "type": "node",
        "id": 3463462866,
        "lat": 12.9253364,
        "lon": 77.674637,
        "tags": {
          "amenity": "clinic",
          "name": "Nile Hair and Skin Care"
        }
      },
      {
        "type": "node",
        "id": 3477797059,
        "lat": 12.9247848,
        "lon": 77.6747717,
        "tags": {
          "amenity": "clinic",
          "healthcare": "clinic",
          "name": "Dr. Ravi Lab And Research Center"
        }
      },
      {
        "type": "node",
        "id": 3477797685,
        "lat": 12.92478,
        "lon": 77.6746246,
        "tags": {
          "amenity": "restaurant",
          "name": "Classic Biriyani Center"
        }
      },
      {
        "type": "node",
        "id": 3540944743,
        "lat": 12.9255448,
        "lon": 77.6762576,
        "tags": {
          "amenity": "restaurant",
          "cuisine": "regional",
          "name": "Mast Kalandar",
          "name:kn": "\u0cae\u0cb8\u0ccd\u0ca4\u0ccd \u0c95\u0cb2\u0c82\u0ca6\u0cb0\u0ccd"
        }
      },
      {
        "type": "node",
        "id": 3778335491,
        "lat": 12.9300348,
        "lon": 77.6834526,
        "tags": {
          "amenity": "restaurant",
          "name": "Blue Terrain"
        }
      },
      {
        "type": "node",
        "id": 3778335492,
        "lat": 12.9301328,
        "lon": 77.6833467,
        "tags": {
          "amenity": "restaurant",
          "name": "The Square"
        }
      },
      {
        "type": "node",
        "id": 4350026190,
        "lat": 12.9264609,
        "lon": 77.678263,
        "tags": {
          "amenity": "bank",
          "brand": "State Bank of India",
          "brand:wikidata": "Q1340361",
          "brand:wikipedia": "en:State Bank of India",
          "name": "State Bank of India",
          "name:kn": "\u0cad\u0cbe\u0cb0\u0ca4\u0cc0\u0caf \u0cb8\u0ccd\u0c9f\u0cc7\u0c9f\u0ccd \u0cac\u0ccd\u0caf\u0cbe\u0c82\u0c95\u0ccd",
          "short_name": "SBI",
          "website": "https://www.sbi.co.in"
        }
      },
      {
        "type": "node",
        "id": 4443401779,
        "lat": 12.9209516,
        "lon": 77.6820594,
        "tags": {
          "addr:city": "BANGALORE",
          "addr:postcode": "560103",
          "addr:street": "\"Pritech Park, Bellandur,",
          "amenity": "cafe",
          "brand": "Cafe Coffee Day",
          "brand:wikidata": "Q5017235",
          "brand:wikipedia": "en:Caf\u00e9 Coffee Day",
          "cuisine": "coffee_shop",
          "internet_access": "no",
          "name": "Cafe Coffee Day",
          "name:kn": "\u0c95\u0cab\u0cc6 \u0c95\u0cbe\u0cab\u0cbf \u0ca1\u0cc7",
          "opening_hours": "09:00-23:00",
          "phone": "093423 93106",
          "smoking": "outside",
          "takeaway": "yes",
          "website": "https://www.cafecoffeeday.com/"
        }
      },
      {
        "type": "node",
        "id": 4447160251,
        "lat": 12.9343229,
        "lon": 77.6861083,
        "tags": {
          "addr:city": "bangalore",
          "addr:street": "Outer Ring Road",
          "amenity": "cafe",
          "name": "Classic Tea Stall"
        }
      },
      {
        "type": "node",
        "id": 4701649265,
        "lat": 12.9244799,
        "lon": 77.6741752,
        "tags": {
          "amenity": "bank",
          "brand": "State Bank of India",
          "brand:wikidata": "Q1340361",
          "brand:wikipedia": "en:State Bank of India",
          "name": "State Bank of India",
          "name:kn": "\u0cad\u0cbe\u0cb0\u0ca4\u0cc0\u0caf \u0cb8\u0ccd\u0c9f\u0cc7\u0c9f\u0ccd \u0cac\u0ccd\u0caf\u0cbe\u0c82\u0c95\u0ccd",
          "short_name": "SBI",
          "website": "https://www.sbi.co.in"
        }
      },
      {
        "type": "node",
        "id": 5409621836,
        "lat": 12.9258549,
        "lon": 77.6757002,
        "tags": {
          "amenity": "restaurant",
          "level": "0,1",
          "name": "Thalassery restaurant",
          "name:kn": "\u0ca4\u0cb2\u0cb8\u0ccd\u0cb8\u0cc6\u0cb0\u0cbf"
        }
      },
      {
        "type": "node",
        "id": 5409624227,
        "lat": 12.9251897,
        "lon": 77.6743698,
        "tags": {
          "amenity": "restaurant",
          "brand": "Empire",
          "cuisine": "indian",
          "delivery": "yes",
          "name": "Empire",
          "takeaway": "yes"
        }
      },
      {
        "type": "node",
        "id": 5643902787,
        "lat": 12.9242949,
        "lon": 77.6743216,
        "tags": {
          "addr:city": "Bengaluru",
          "amenity": "cafe",
          "name": "Cafe Thulp"
        }
      },
      {
        "type": "node",
        "id": 5643902788,
        "lat": 12.9244491,
        "lon": 77.6741821,
        "tags": {
          "addr:city": "Bengaluru",
          "amenity": "bank",
          "atm": "no",
          "brand": "Syndicate Bank",
          "brand:wikidata": "Q2004088",
          "brand:wikipedia": "en:Syndicate Bank",
          "drive_through": "no",
          "name": "Syndicate Bank",
          "name:kn": "\u0cb8\u0cbf\u0c82\u0ca1\u0cbf\u0c95\u0cc7\u0c9f\u0ccd \u0cac\u0ccd\u0caf\u0cbe\u0c82\u0c95\u0ccd"
        }
      },
      {
        "type": "node",
        "id": 6761308488,
        "lat": 12.9255829,
        "lon": 77.6762661,
        "tags": {
          "addr:postcode": "560103",
          "addr:street": "Bellandur Main Road",
          "amenity": "restaurant",
          "cuisine": "indian",
          "indoor_seating": "yes",
          "name": "Udupi Athithiya",
          "outdoor_seating": "yes"
        }
      },
      {
        "type": "node",
        "id": 9277677273,
        "lat": 12.9202896,
        "lon": 77.6851603,
        "tags": {
          "amenity": "cafe",
          "brand": "Starbucks",
          "brand:pa": "\u0a38\u0a1f\u0a3e\u0a30\u0a2c\u0a15\u0a38",
          "brand:ur": "\u0627\u0633\u0679\u0627\u0631\u0628\u06a9\u0633",
          "brand:wikidata": "Q37158",
          "brand:wikipedia": "en:Starbucks",
          "cuisine": "coffee_shop",
          "name": "Starbucks",
          "name:pa": "\u0a38\u0a1f\u0a3e\u0a30\u0a2c\u0a15\u0a38",
          "name:ur": "\u0627\u0633\u0679\u0627\u0631\u0628\u06a9\u0633",
          "official_name": "Starbucks Coffee",
          "official_name:pa": "\u0a38\u0a1f\u0a3e\u0a30\u0a2c\u0a15\u0a38 \u0a15\u0a4c\u0a2b\u0a40",
          "official_name:ur": "\u0627\u0633\u0679\u0627\u0631\u0628\u06a9\u0633 \u06a9\u0627\u0641\u06cc",
          "takeaway": "yes"
        }
      },
      {
        "type": "node",
        "id": 9277677274,
        "lat": 12.9201768,
        "lon": 77.6851536,
        "tags": {
          "amenity": "restaurant",
          "brand": "The Pizza Bakery",
          "brand:wikidata": "Q124374570",
          "cuisine": "pizza",
          "delivery": "yes",
          "name": "The Pizza Bakery",
          "takeaway": "yes"
        }
      },
      {
        "type": "node",
        "id": 9277677275,
        "lat": 12.9206651,
        "lon": 77.6843281,
        "tags": {
          "addr:city": "Bangalore",
          "addr:country": "IN",
          "addr:place": "The Bay, Ecoworld",
          "addr:suburb": "Bellandur",
          "amenity": "restaurant",
          "contact:facebook": "nasiandmee",
          "contact:instagram": "nasiandmee",
          "cuisine": "asian",
          "delivery": "yes",
          "name": "Nasi and Mee",
          "official_name": "Nasi and Mee Asian Canteen",
          "outdoor_seating": "yes",
          "takeaway": "yes",
          "website": "https://www.nasiandmee.co.in/"
        }
      },
      {
        "type": "node",
        "id": 9277677276,
        "lat": 12.9201786,
        "lon": 77.6843019,
        "tags": {
          "amenity": "restaurant",
          "cuisine": "indian",
          "diet:non-vegetarian": "yes",
          "diet:vegetarian": "yes",
          "name": "Bombay Brasserie"
        }
      },
      {
        "type": "node",
        "id": 9649419315,
        "lat": 12.9201745,
        "lon": 77.6845032,
        "tags": {
          "amenity": "restaurant",
          "brand": "Chili's",
          "brand:wikidata": "Q1072948",
          "cuisine": "tex-mex",
          "name": "Chili's",
          "official_name": "Chili's Grill & Bar"
        }
      },
      {
        "type": "node",
        "id": 9649419316,
        "lat": 12.9206464,
        "lon": 77.6848157,
        "tags": {
          "amenity": "cafe",
          "name": "Third Wave Coffee"
        }
      },
      {
        "type": "node",
        "id": 9649454218,
        "lat": 12.9201536,
        "lon": 77.684754,
        "tags": {
          "amenity": "restaurant",
          "brand": "Paris Panini",
          "brand:wikidata": "Q124374583",
          "cuisine": "panini",
          "delivery": "yes",
          "name": "Paris Panini",
          "takeaway": "yes"
        }
      },
      {
        "type": "node",
        "id": 9649454219,
        "lat": 12.9204987,
        "lon": 77.6851684,
        "tags": {
          "amenity": "cafe",
          "brand": "Chaayos",
          "brand:wikidata": "Q117235235",
          "cuisine": "tea",
          "name": "Chaayos",
          "takeaway": "yes"
        }
      },
      {
        "type": "node",
        "id": 10137293053,
        "lat": 12.9263862,
        "lon": 77.6766068,
        "tags": {
          "amenity": "hospital",
          "healthcare": "hospital",
          "name": "Apollo Pharmacy"
        }
      },
      {
        "type": "node",
        "id": 11473108147,
        "lat": 12.9299719,
        "lon": 77.6859289,
        "tags": {
          "amenity": "restaurant",
          "name": "Public Bar and Kitchen"
        }
      },
      {
        "type": "node",
        "id": 11553915189,
        "lat": 12.9202686,
        "lon": 77.6847942,
        "tags": {
          "amenity": "cafe",
          "name": "The Kind"
        }
      },
      {
        "type": "node",
        "id": 11553915190,
        "lat": 12.9205222,
        "lon": 77.6847821,
        "tags": {
          "amenity": "restaurant",
          "name": "Prequel"
        }
      },
      {
        "type": "node",
        "id": 11553915193,
        "lat": 12.9203248,
        "lon": 77.6843208,
        "tags": {
          "amenity": "restaurant",
          "brand": "Punjab Grill",
          "brand:wikidata": "Q124374761",
          "cuisine": "north_indian",
          "delivery": "yes",
          "name": "Punjab Grill",
          "takeaway": "yes"
        }
      },
      {
        "type": "node",
        "id": 11553915194,
        "lat": 12.9204307,
        "lon": 77.6843235,
        "tags": {
          "amenity": "restaurant",
          "name": "Lucky Chan"
        }
      },
      {
        "type": "node",
        "id": 11553915196,
        "lat": 12.9205196,
        "lon": 77.6843262,
        "tags": {
          "amenity": "restaurant",
          "brand": "Chinita",
          "brand:wikidata": "Q124374771",
          "cuisine": "mexican",
          "delivery": "yes",
          "name": "Chinita",
          "takeaway": "yes"
        }
      },
      {
        "type": "node",
        "id": 11553915197,
        "lat": 12.9206595,
        "lon": 77.6845273,
        "tags": {
          "amenity": "restaurant",
          "name": "Kampot"
        }
      },
      {
        "type": "node",
        "id": 11553915198,
        "lat": 12.9206386,
        "lon": 77.6849645,
        "tags": {
          "amenity": "restaurant",
          "brand": "Cafe Noir",
          "brand:wikidata": "Q124374751",
          "cuisine": "french",
          "delivery": "yes",
          "name": "Cafe Noir",
          "takeaway": "yes"
        }
      },
      {
        "type": "node",
        "id": 11553915199,
        "lat": 12.9206529,
        "lon": 77.6846507,
        "tags": {
          "amenity": "restaurant",
          "cuisine": "italian",
          "name": "Chianti"
        }
      },
      {
        "type": "node",
        "id": 11553915200,
        "lat": 12.9201458,
        "lon": 77.6849189,
        "tags": {
          "amenity": "restaurant",
          "name": "Sauce Code"
        }
      },
      {
        "type": "node",
        "id": 11553915201,
        "lat": 12.9201628,
        "lon": 77.6846279,
        "tags": {
          "amenity": "restaurant",
          "brand": "Adyar Ananda Bhavan",
          "brand:wikidata": "Q15178238",
          "name": "Adyar Ananda Bhavan",
          "name:kn": "\u0c86\u0ca6\u0ccd\u0caf\u0cbe\u0cb0\u0ccd \u0c86\u0ca8\u0c82\u0ca6 \u0cad\u0cb5\u0ca8",
          "shop": "confectionery"
        }
      },
      {
        "type": "node",
        "id": 11554517078,
        "lat": 12.9207222,
        "lon": 77.6874778,
        "tags": {
          "amenity": "restaurant",
          "name": "South Table"
        }
      },
      {
        "type": "node",
        "id": 11554517079,
        "lat": 12.9209327,
        "lon": 77.6874818,
        "tags": {
          "amenity": "restaurant",
          "brand": "Daily Sushi",
          "brand:wikidata": "Q124374644",
          "cuisine": "asian",
          "delivery": "yes",
          "name": "Daily Sushi",
          "takeaway": "yes"
        }
      },
      {
        "type": "node",
        "id": 11554517080,
        "lat": 12.9209483,
        "lon": 77.6873463,
        "tags": {
          "amenity": "fast_food",
          "brand": "Popeyes",
          "brand:wikidata": "Q1330910",
          "cuisine": "chicken",
          "name": "Popeyes",
          "official_name": "Popeyes Louisiana Kitchen",
          "takeaway": "yes"
        }
      },
      {
        "type": "node",
        "id": 11554517081,
        "lat": 12.9207261,
        "lon": 77.6873383,
        "tags": {
          "amenity": "restaurant",
          "brand": "Bhartiya Jalpan",
          "brand:wikidata": "Q124374711",
          "cuisine": "indian",
          "delivery": "yes",
          "name": "Bhartiya Jalpan",
          "takeaway": "yes",
          "wheelchair": "yes"
        }
      },
      {
        "type": "node",
        "id": 11554517082,
        "lat": 12.9205261,
        "lon": 77.6873383,
        "tags": {
          "amenity": "fast_food",
          "brand": "Taco Bell",
          "brand:wikidata": "Q752941",
          "cuisine": "tex-mex",
          "name": "Taco Bell",
          "name:kn": "\u0c9f\u0cbe\u0c95\u0cca \u0cac\u0cc6\u0cb2\u0ccd",
          "takeaway": "yes",
          "wheelchair": "yes"
        }
      },
      {
        "type": "node",
        "id": 11554517084,
        "lat": 12.920517,
        "lon": 77.6874845,
        "tags": {
          "amenity": "restaurant",
          "name": "Cafe Glocal"
        }
      },
      {
        "type": "node",
        "id": 11554517085,
        "lat": 12.9205327,
        "lon": 77.6871881,
        "tags": {
          "amenity": "restaurant",
          "brand": "Brik Oven",
          "brand:wikidata": "Q124374702",
          "cuisine": "pizza",
          "delivery": "yes",
          "name": "Brik Oven",
          "takeaway": "yes",
          "wheelchair": "yes"
        }
      },
      {
        "type": "node",
        "id": 11554517086,
        "lat": 12.9204176,
        "lon": 77.6868528,
        "tags": {
          "amenity": "cafe",
          "name": "Lavonne Cafe",
          "wheelchair": "yes"
        }
      },
      {
        "type": "node",
        "id": 11554517089,
        "lat": 12.9204516,
        "lon": 77.6860441,
        "tags": {
          "amenity": "cafe",
          "brand": "Blue Tokai Coffee Roasters",
          "cuisine": "coffee_shop",
          "delivery": "yes",
          "name": "Blue Tokai Coffee Roasters",
          "takeaway": "yes",
          "wheelchair": "yes"
        }
      },
      {
        "type": "node",
        "id": 11811087975,
        "lat": 12.9206281,
        "lon": 77.6860481,
        "tags": {
          "amenity": "restaurant",
          "contact:instagram": "radiobar_bangalore",
          "delivery": "yes",
          "name": "Radio Bar",
          "opening_hours": "12:00-01:00",
          "phone": "+91 76194 36750",
          "takeaway": "yes"
        }
      },
      {
        "type": "node",
        "id": 12088164538,
        "lat": 12.9207133,
        "lon": 77.6871884,
        "tags": {
          "amenity": "cafe",
          "check_date": "2024-08-02",
          "contact:instagram": "https://www.instagram.com/paperandpieblr",
          "name": "Paper & Pie"
        }
      },
      {
        "type": "node",
        "id": 12106298501,
        "lat": 12.9259496,
        "lon": 77.6778517,
        "tags": {
          "amenity": "restaurant",
          "cuisine": "indian",
          "name": "Upahar Kerala Mess"
        }
      },
      {
        "type": "node",
        "id": 12109666322,
        "lat": 12.920914,
        "lon": 77.6871755,
        "tags": {
          "amenity": "restaurant",
          "check_date": "2024-08-14",
          "cuisine": "asian",
          "name": "Nom Nom"
        }
      },
      {
        "type": "node",
        "id": 12129019646,
        "lat": 12.9263468,
        "lon": 77.6828992,
        "tags": {
          "amenity": "restaurant",
          "name": "PI - Lounge Bar"
        }
      },
      {
        "type": "node",
        "id": 12145301109,
        "lat": 12.9211418,
        "lon": 77.6871693,
        "tags": {
          "amenity": "restaurant",
          "name": "Cooking Mum"
        }
      },
      {
        "type": "node",
        "id": 12632042170,
        "lat": 12.9201239,
        "lon": 77.6851535,
        "tags": {
          "addr:city": "Bangalore",
          "addr:country": "IN",
          "amenity": "cafe",
          "name": "Trippy Goat Cafe"
        }
      },
      {
        "type": "node",
        "id": 12809397079,
        "lat": 12.9204941,
        "lon": 77.6846205,
        "tags": {
          "amenity": "restaurant",
          "name": "Fifty50"
        }
      },
      {
        "type": "node",
        "id": 12833666826,
        "lat": 12.9314991,
        "lon": 77.6861058,
        "tags": {
          "amenity": "restaurant",
          "check_date": "2025-09-03",
          "diet:vegetarian": "yes",
          "name": "Udupi Nalapaka"
        }
      },
      {
        "type": "node",
        "id": 12833666827,
        "lat": 12.9315351,
        "lon": 77.6859333,
        "tags": {
          "amenity": "restaurant",
          "check_date": "2025-09-03",
          "name": "Dalchini"
        }
      },
      {
        "type": "node",
        "id": 12862846475,
        "lat": 12.9206451,
        "lon": 77.6847474,
        "tags": {
          "amenity": "fast_food",
          "contact:instagram": "goodflippin",
          "cuisine": "burger",
          "delivery": "yes",
          "name": "Good Flippin' Burgers",
          "takeaway": "yes",
          "website": "https://goodflippin.com/"
        }
      },
      {
        "type": "node",
        "id": 12872594926,
        "lat": 12.9268509,
        "lon": 77.6789349,
        "tags": {
          "amenity": "restaurant",
          "indoor_seating": "yes",
          "name": "New Ambur Hot Biriyani",
          "outdoor_seating": "no"
        }
      },
      {
        "type": "node",
        "id": 12942381204,
        "lat": 12.9315315,
        "lon": 77.6862132,
        "tags": {
          "amenity": "pharmacy",
          "check_date": "2025-09-03",
          "healthcare": "pharmacy",
          "name": "Ramdev Medicals"
        }
      },
      {
        "type": "node",
        "id": 13008559922,
        "lat": 12.929764,
        "lon": 77.6851805,
        "tags": {
          "amenity": "restaurant",
          "name": "Udupi Gokula"
        }
      },
      {
        "type": "node",
        "id": 13013978948,
        "lat": 12.9201458,
        "lon": 77.6848546,
        "tags": {
          "amenity": "restaurant",
          "cuisine": "burmese",
          "name": "Burma Burma"
        }
      },
      {
        "type": "node",
        "id": 13063799871,
        "lat": 12.9252983,
        "lon": 77.6745172,
        "tags": {
          "amenity": "restaurant",
          "name": "Aroma Restaurant"
        }
      },
      {
        "type": "node",
        "id": 13063810713,
        "lat": 12.9259883,
        "lon": 77.6759119,
        "tags": {
          "amenity": "restaurant",
          "name": "Malabar Kitchen"
        }
      },
      {
        "type": "node",
        "id": 13063831056,
        "lat": 12.925896,
        "lon": 77.6757537,
        "tags": {
          "amenity": "fast_food",
          "name": "Burger King"
        }
      },
      {
        "type": "node",
        "id": 13116211434,
        "lat": 12.9320549,
        "lon": 77.685201,
        "tags": {
          "addr:floor": "G",
          "amenity": "cafe",
          "check_date": "2025-09-03",
          "level": "0",
          "name": "Third Wave Coffee",
          "outdoor_seating": "only"
        }
      },
      {
        "type": "node",
        "id": 13116318617,
        "lat": 12.9320295,
        "lon": 77.6854691,
        "tags": {
          "amenity": "atm",
          "brand": "Kotak Mahindra Bank",
          "brand:wikidata": "Q2040404",
          "check_date": "2025-09-03",
          "operator": "Kotak Mahindra Bank",
          "operator:wikidata": "Q2040404"
        }
      },
      {
        "type": "node",
        "id": 13116318618,
        "lat": 12.9320273,
        "lon": 77.6854454,
        "tags": {
          "amenity": "atm",
          "brand": "Axis Bank",
          "brand:wikidata": "Q2003549",
          "check_date": "2025-09-03",
          "operator": "Axis Bank",
          "operator:wikidata": "Q2003549",
          "ref": "CECN 78514"
        }
      },
      {
        "type": "node",
        "id": 13116537351,
        "lat": 12.9316969,
        "lon": 77.6848482,
        "tags": {
          "addr:floor": "G",
          "amenity": "restaurant",
          "check_date": "2025-09-03",
          "cuisine": "indian;regional;south_indian;north_indian;chaat;juice;sandwich;coffee_shop",
          "diet:vegetarian": "only",
          "level": "0",
          "name": "Nalapaka Express",
          "party_hall": "yes"
        }
      }
    ]
  },
  "pois_2_5km": {
    "version": 0.6,
    "generator": "Overpass API 0.7.62.8 e802775f",
    "osm3s": {
      "timestamp_osm_base": "2025-09-06T08:23:40Z",
      "copyright": "The data included in this document is from www.openstreetmap.org. The data is made available under ODbL."
    },
    "elements": [
      {
        "type": "node",
        "id": 1691980738,
        "lat": 12.9263148,
        "lon": 77.6753554,
        "tags": {
          "addr:floor": "4",
          "air_conditioning": "yes",
          "amenity": "cinema",
          "brand": "PVR Cinemas",
          "brand:wikidata": "Q3359908",
          "check_date": "2024-01-28",
          "internet_access": "no",
          "level": "4",
          "name": "PVR Cinemas",
          "payment:cash": "yes",
          "payment:credit_cards": "yes",
          "payment:debit_cards": "yes",
          "short_name": "PVR",
          "source": "survey",
          "wheelchair": "limited"
        }
      },
      {
        "type": "node",
        "id": 2417260828,
        "lat": 12.9141005,
        "lon": 77.6865724,
        "tags": {
          "amenity": "theatre"
        }
      },
      {
        "type": "node",
        "id": 4470703091,
        "lat": 12.911639,
        "lon": 77.669657,
        "tags": {
          "amenity": "theatre",
          "name": "Amphitheatre",
          "name:en": "Amphitheatre"
        }
      },
      {
        "type": "node",
        "id": 5984858247,
        "lat": 12.9212489,
        "lon": 77.6622127,
        "tags": {
          "bench": "yes",
          "bus": "yes",
          "highway": "bus_stop",
          "name": "Ibbaluru",
          "name:en": "Ibbaluru",
          "name:kn": "\u0c87\u0cac\u0ccd\u0cac\u0cb2\u0cc2\u0cb0\u0cc1",
          "network": "BMTC",
          "operator": "BMTC",
          "public_transport": "stop_position",
          "shelter": "yes"
        }
      },
      {
        "type": "node",
        "id": 7276566940,
        "lat": 12.9212384,
        "lon": 77.6630783,
        "tags": {
          "bus": "yes",
          "name": "Ibbaluru",
          "name:en": "Ibbaluru",
          "name:kn": "\u0c87\u0cac\u0ccd\u0cac\u0cb2\u0cc2\u0cb0\u0cc1",
          "network": "BMTC",
          "operator": "Bengaluru Metro Transport Corporation",
          "public_transport": "stop_position"
        }
      },
      {
        "type": "node",
        "id": 12143892929,
        "lat": 12.9425359,
        "lon": 77.6799763,
        "tags": {
          "amenity": "fuel",
          "brand": "Nayara",
          "brand:wikidata": "Q5399377",
          "name": "Nayara"
        }
      },
      {
        "type": "node",
        "id": 13062011329,
        "lat": 12.9108068,
        "lon": 77.6842726,
        "tags": {
          "alt_name": "Wipro Corporate;Sarjapura Wipro;Junnasandra Gate Wipro Regional Office",
          "bus": "yes",
          "name": "Moori Gate",
          "name:en": "Moori Gate",
          "network": "BMTC",
          "operator": "BMTC",
          "public_transport": "stop_position"
        }
      },
      {
        "type": "node",
        "id": 13062011330,
        "lat": 12.9108067,
        "lon": 77.684548,
        "tags": {
          "alt_name": "Wipro Corporate;Sarjapura Wipro;Junnasandra Gate Wipro Regional Office",
          "bus": "yes",
          "name": "Moori Gate",
          "name:en": "Moori Gate",
          "network": "BMTC",
          "operator": "BMTC",
          "public_transport": "stop_position"
        }
      },
      {
        "type": "node",
        "id": 13062011333,
        "lat": 12.9087881,
        "lon": 77.6897809,
        "tags": {
          "bus": "yes",
          "name": "Radhareddy Layout",
          "name:en": "Radhareddy Layout",
          "network": "Bus",
          "operator": "BMTC",
          "public_transport": "stop_position"
        }
      }
    ]
  }
}