{
  "pois_1km": {
    "version": 0.6,
    "generator": "Overpass API 0.7.62.8 e802775f",
    "osm3s": {
      "timestamp_osm_base": "2025-09-06T08:15:30Z",
      "copyright": "The data included in this document is from www.openstreetmap.org. The data is made available under ODbL."
    },
    "elements": [
      {
        "type": "node",
        "id": 306585721,
        "lat": 12.9333646,
        "lon": 77.6230728,
        "tags": {
          "addr:street": "Mahayogi Vemana Road",
          "amenity": "restaurant",
          "name": "Sukh Sagar",
          "name:kn": "\u0cb8\u0cc1\u0c96\u0ccd \u0cb8\u0cbe\u0c97\u0cb0"
        }
      },
      {
        "type": "node",
        "id": 308779330,
        "lat": 12.9353555,
        "lon": 77.6148616,
        "tags": {
          "addr:street": "80 Feet Road",
          "amenity": "bank",
          "atm": "yes",
          "brand": "ICICI Bank",
          "brand:wikidata": "Q1653258",
          "name": "ICICI Bank",
          "name:en": "ICICI Bank",
          "short_name": "ICICI",
          "website": "https://www.icicibank.com"
        }
      },
      {
        "type": "node",
        "id": 537535762,
        "lat": 12.932679,
        "lon": 77.6135844,
        "tags": {
          "addr:street": "Hosur Road",
          "amenity": "restaurant",
          "cuisine": "indian",
          "name": "Hyderabad House",
          "name:kn": "\u0cb9\u0cc8\u0ca6\u0cb0\u0cbe\u0cac\u0cbe\u0ca6\u0ccd \u0cb9\u0ccc\u0cb8\u0ccd",
          "speciality": "biriyani"
        }
      },
      {
        "type": "node",
        "id": 537535805,
        "lat": 12.9351086,
        "lon": 77.611565,
        "tags": {
          "addr:city": "Bangalore",
          "addr:housename": "Forum Mall",
          "addr:street": "Hosur Road",
          "amenity": "fast_food",
          "brand": "McDonald's",
          "brand:pa": "\u0a2e\u0a48\u0a15\u0a21\u0a4b\u0a28\u0a32\u0a21\u2019\u0a1c\u0a3c",
          "brand:ur": "\u0645\u06a9\u0688\u0648\u0646\u0644\u0688\u0632",
          "brand:wikidata": "Q38076",
          "brand:wikipedia": "en:McDonald's",
          "brand:wikipedia:pa": "\u0a2e\u0a48\u0a15\u0a21\u0a4b\u0a28\u0a32\u0a21\u2019\u0a1c\u0a3c",
          "brand:wikipedia:ur": "\u0645\u06a9\u0688\u0648\u0646\u0644\u0688\u0632",
          "cuisine": "burger",
          "name": "McDonald's",
          "name:kn": "\u0cae\u0ccd\u0caf\u0cbe\u0c95\u0ccd\u200c\u0ca1\u0cca\u0ca8\u0cbe\u0cb2\u0ccd\u0ca1\u0ccd\u0cb8\u0ccd",
          "name:pa": "\u0a2e\u0a48\u0a15\u0a21\u0a4b\u0a28\u0a32\u0a21\u2019\u0a1c\u0a3c",
          "name:ur": "\u0645\u06a9\u0688\u0648\u0646\u0644\u0688\u0632",
          "takeaway": "yes",
          "wheelchair": "yes"
        }
      },
      {
        "type": "node",
        "id": 537535920,
        "lat": 12.9343669,
        "lon": 77.6107742,
        "tags": {
          "addr:city": "Bangalore",
          "addr:housename": "Forum Mall",
          "addr:postcode": "560095",
          "addr:street": "Hosur Road",
          "alt_name": "Kentucky Fried Chicken",
          "alt_name:en": "Kentucky Fried Chicken",
          "alt_name:hi": "\u0915\u0947\u0902\u091f\u0941\u0915\u0940 \u092b\u094d\u0930\u093e\u0907\u0921 \u091a\u093f\u0915\u0928",
          "alt_name:pa": "\u0a15\u0a48\u0a02\u0a1f\u0a41\u0a15\u0a40 \u0a2b\u0a4d\u0a30\u0a3e\u0a08\u0a21 \u0a1a\u0a3f\u0a15\u0a28",
          "alt_name:pnb": "\u06a9\u06cc\u0646\u0679\u06a9\u06cc \u0641\u0631\u0627\u0626\u06cc\u0688 \u0686\u06a9\u0646",
          "alt_name:ur": "\u06a9\u06cc\u0646\u0679\u06a9\u06cc \u0641\u0631\u0627\u0626\u06cc\u0688 \u0686\u06a9\u0646",
          "amenity": "fast_food",
          "brand": "KFC",
          "brand:en": "KFC",
          "brand:hi": "\u0915\u0947\u090f\u092b\u0938\u0940",
          "brand:pa": "\u0a15\u0a47\u0a10\u0a2b\u0a38\u0a40",
          "brand:pnb": "\u06a9\u06d2 \u0627\u06cc\u0641 \u0633\u06cc",
          "brand:ur": "\u06a9\u06d2 \u0627\u06cc\u0641 \u0633\u06cc",
          "brand:wikidata": "Q524757",
          "brand:wikipedia": "en:KFC",
          "brand:wikipedia:pa": "\u0a15\u0a47\u0a10\u0a2b\u0a38\u0a40",
          "brand:wikipedia:ur": "\u06a9\u06cc\u0646\u0679\u06a9\u06cc \u0641\u0631\u0627\u0626\u06cc\u0688 \u0686\u06a9\u0646",
          "cuisine": "chicken",
          "name": "KFC",
          "name:en": "KFC",
          "name:hi": "\u0915\u0947\u090f\u092b\u0938\u0940",
          "name:kn": "\u0c95\u0cc6\u0c8e\u0cab\u0ccd\u200c\u0cb8\u0cbf",
          "name:pa": "\u0a15\u0a47\u0a10\u0a2b\u0a38\u0a40",
          "name:pnb": "\u06a9\u06d2 \u0627\u06cc\u0641 \u0633\u06cc",
          "name:ur": "\u06a9\u06d2 \u0627\u06cc\u0641 \u0633\u06cc",
          "takeaway": "yes",
          "toilets:wheelchair": "yes",
          "wheelchair": "yes"
        }
      },
      {
        "type": "node",
        "id": 668990999,
        "lat": 12.9356995,
        "lon": 77.6145787,
        "tags": {
          "addr:street": "80 Feet Road",
          "amenity": "cafe",
          "brand": "Cafe Coffee Day",
          "brand:wikidata": "Q5017235",
          "cuisine": "coffee_shop",
          "name": "Cafe Coffee Day",
          "name:kn": "\u0c95\u0cab\u0cc6 \u0c95\u0cbe\u0cab\u0cbf \u0ca1\u0cc7",
          "takeaway": "yes"
        }
      },
      {
        "type": "node",
        "id": 878034972,
        "lat": 12.9356089,
        "lon": 77.6151797,
        "tags": {
          "amenity": "bank",
          "atm": "yes",
          "brand": "HDFC Bank",
          "brand:wikidata": "Q631047",
          "brand:wikipedia": "en:HDFC Bank",
          "name": "HDFC Bank",
          "name:kn": "\u0c8e\u0c9a\u0ccd \u0ca1\u0cbf \u0c8e\u0cab\u0ccd \u0cb8\u0cbf",
          "operator": "HDFC",
          "short_name": "HDFC",
          "website": "https://www.hdfcbank.com"
        }
      },
      {
        "type": "node",
        "id": 1070361755,
        "lat": 12.934729,
        "lon": 77.6125976,
        "tags": {
          "addr:street": "80 Feet Road",
          "amenity": "restaurant",
          "cuisine": "chinese",
          "name": "Hungry Panda",
          "name:kn": "\u0cb9\u0c82\u0c97\u0ccd\u0cb0\u0cbf \u0caa\u0cbe\u0c82\u0ca1"
        }
      },
      {
        "type": "node",
        "id": 1307443100,
        "lat": 12.9343647,
        "lon": 77.6110938,
        "tags": {
          "addr:city": "Bangalore",
          "addr:housename": "Forum Mall",
          "addr:street": "Hosur Road",
          "amenity": "food_court",
          "name": "Transit"
        }
      },
      {
        "type": "node",
        "id": 1307443105,
        "lat": 12.9344118,
        "lon": 77.6109865,
        "tags": {
          "addr:city": "Bangalore",
          "addr:housename": "Forum Mall",
          "addr:street": "Hosur Road",
          "amenity": "cafe",
          "brand": "Cafe Coffee Day",
          "brand:wikidata": "Q5017235",
          "cuisine": "coffee_shop",
          "internet_access": "wlan",
          "name": "Cafe Coffee Day",
          "name:kn": "\u0c95\u0cab\u0cc6 \u0c95\u0cbe\u0cab\u0cbf \u0ca1\u0cc7",
          "takeaway": "yes"
        }
      },
      {
        "type": "node",
        "id": 1328615138,
        "lat": 12.9342471,
        "lon": 77.6234716,
        "tags": {
          "amenity": "restaurant",
          "name": "Tamrind Restaurant",
          "name:kn": "\u0c9f\u0ccd\u0caf\u0cbe\u0cae\u0cb0\u0cbf\u0c82\u0ca1\u0ccd \u0cb0\u0cc6\u0cb8\u0ccd\u0c9f\u0ccb\u0cb0\u0cc6\u0c82\u0c9f\u0ccd"
        }
      },
      {
        "type": "node",
        "id": 1375978217,
        "lat": 12.9359939,
        "lon": 77.6151031,
        "tags": {
          "amenity": "cafe",
          "brand": "Sweet Chariot",
          "delivery": "yes",
          "name": "Sweet Chariot",
          "shop": "pastry",
          "takeaway": "yes"
        }
      },
      {
        "type": "node",
        "id": 1375978240,
        "lat": 12.9334642,
        "lon": 77.6151016,
        "tags": {
          "amenity": "cafe",
          "name": "Latte Tude"
        }
      },
      {
        "type": "node",
        "id": 1375978244,
        "lat": 12.9365445,
        "lon": 77.6142714,
        "tags": {
          "amenity": "restaurant",
          "name": "Lucky da dhaba",
          "name:kn": "\u0cb2\u0c95\u0ccd\u0c95\u0cbf \u0ca6 \u0ca1\u0cbe\u0cac"
        }
      },
      {
        "type": "node",
        "id": 1375978245,
        "lat": 12.9338202,
        "lon": 77.6193658,
        "tags": {
          "amenity": "restaurant",
          "cuisine": "Mughlai",
          "name": "Lazeej",
          "name:kn": "\u0cb2\u0c9c\u0cc0\u0c9c\u0ccd"
        }
      },
      {
        "type": "node",
        "id": 1375978247,
        "lat": 12.9360494,
        "lon": 77.6149821,
        "tags": {
          "amenity": "pharmacy",
          "healthcare": "pharmacy",
          "name": "Shakti Medical"
        }
      },
      {
        "type": "node",
        "id": 1375978253,
        "lat": 12.9345967,
        "lon": 77.6162526,
        "tags": {
          "amenity": "restaurant",
          "name": "Meghna Biryani",
          "name:kn": "\u0cae\u0cc7\u0c98\u0ca8 \u0cac\u0cbf\u0cb0\u0cbf\u0caf\u0cbe\u0ca8\u0cbf"
        }
      },
      {
        "type": "node",
        "id": 1375978258,
        "lat": 12.9336119,
        "lon": 77.6152238,
        "tags": {
          "amenity": "restaurant",
          "check_date": "2024-01-20",
          "cuisine": "chinese",
          "name": "Zheng",
          "name:kn": "\u0c9c\u0cc6\u0c82\u0c97\u0ccd"
        }
      },
      {
        "type": "node",
        "id": 1375978262,
        "lat": 12.9338304,
        "lon": 77.6194655,
        "tags": {
          "amenity": "restaurant",
          "cuisine": "north indian",
          "name": "Golmal Paratha",
          "name:kn": "\u0c97\u0cca\u0cb2\u0ccd\u0cae\u0cbe\u0cb2\u0ccd \u0caa\u0cb0\u0cbe\u0c9f"
        }
      },
      {
        "type": "node",
        "id": 1375978263,
        "lat": 12.9345246,
        "lon": 77.6162996,
        "tags": {
          "amenity": "cafe",
          "brand": "Costa",
          "brand:wikidata": "Q608845",
          "cuisine": "coffee_shop",
          "name": "Costa",
          "takeaway": "yes"
        }
      },
      {
        "type": "node",
        "id": 1375978264,
        "lat": 12.9365369,
        "lon": 77.614409,
        "tags": {
          "amenity": "restaurant",
          "name": "Aalishan",
          "name:kn": "\u0c86\u0cb2\u0cbf\u0cb6\u0cbe\u0ca8\u0ccd"
        }
      },
      {
        "type": "node",
        "id": 1375978266,
        "lat": 12.9336331,
        "lon": 77.622557,
        "tags": {
          "amenity": "restaurant",
          "cuisine": "chinese",
          "name": "Ping",
          "name:kn": "\u0caa\u0cbf\u0c82\u0c97\u0ccd"
        }
      },
      {
        "type": "node",
        "id": 1375978268,
        "lat": 12.9351354,
        "lon": 77.6134273,
        "tags": {
          "amenity": "pharmacy",
          "healthcare": "pharmacy",
          "name": "Health And Glow"
        }
      },
      {
        "type": "node",
        "id": 1375978269,
        "lat": 12.9339266,
        "lon": 77.6161393,
        "tags": {
          "addr:city": "Bangalore",
          "addr:district": "Bengaluru Urban",
          "addr:full": "No.51, Jyothi Nivas Colleges, 5Th Block, Kormangala",
          "addr:housenumber": "143",
          "addr:postcode": "560095",
          "addr:state": "Karnataka",
          "addr:street": "1st Cross, 5th Block, Koramangala, Near Nagarjuna Hotel",
          "amenity": "clinic",
          "healthcare": "clinic",
          "name": "The Apollo Clinic, Bengaluru Urban",
          "name:kn": "\u0c85\u0caa\u0cca\u0cb2\u0cca \u0c95\u0ccd\u0cb2\u0cbf\u0ca8\u0cbf\u0c95\u0ccd",
          "phone": "+91860 500 2244",
          "source": "OpenGovernmentData",
          "website": "https://www.apollospectra.com/"
        }
      },
      {
        "type": "node",
        "id": 1375978272,
        "lat": 12.9359336,
        "lon": 77.6146718,
        "tags": {
          "amenity": "restaurant",
          "name": "Daawat",
          "name:kn": "\u0ca6\u0cbe\u0cb5\u0ca4\u0ccd"
        }
      },
      {
        "type": "node",
        "id": 1375978274,
        "lat": 12.9362549,
        "lon": 77.6145138,
        "tags": {
          "amenity": "restaurant",
          "name": "Atithya",
          "name:kn": "\u0c85\u0ca4\u0cbf\u0ca4\u0ccd\u0caf"
        }
      },
      {
        "type": "node",
        "id": 1375978276,
        "lat": 12.9363466,
        "lon": 77.6146761,
        "tags": {
          "amenity": "pharmacy",
          "brand": "Apollo Pharmacy",
          "brand:wikidata": "Q62562612",
          "dispensing": "no",
          "healthcare": "pharmacy",
          "name": "Apollo Pharmacy",
          "name:kn": "\u0c85\u0caa\u0ccb\u0cb2\u0ccb \u0cab\u0cbe\u0cb0\u0ccd\u0cae\u0cb8\u0cbf"
        }
      },
      {
        "type": "node",
        "id": 1375978277,
        "lat": 12.9338227,
        "lon": 77.6193019,
        "tags": {
          "amenity": "restaurant",
          "cuisine": "tandoori",
          "name": "Tunday Kabab",
          "name:kn": "\u0ca4\u0cc1\u0c82\u0ca1\u0cc6 \u0c95\u0cac\u0cbe\u0cac\u0ccd"
        }
      },
      {
        "type": "node",
        "id": 1375978278,
        "lat": 12.9358653,
        "lon": 77.6149483,
        "tags": {
          "amenity": "restaurant",
          "name": "Udupi Upahaara",
          "name:kn": "\u0c89\u0ca1\u0cc1\u0caa\u0cbf \u0c89\u0caa\u0cb9\u0cbe\u0cb0"
        }
      },
      {
        "type": "node",
        "id": 1375978279,
        "lat": 12.9354363,
        "lon": 77.6147873,
        "tags": {
          "amenity": "cafe",
          "name": "Friends"
        }
      },
      {
        "type": "node",
        "id": 1375978281,
        "lat": 12.9333951,
        "lon": 77.6155122,
        "tags": {
          "amenity": "cafe",
          "check_date": "2024-01-20",
          "name": "Cuppa"
        }
      },
      {
        "type": "node",
        "id": 1375978282,
        "lat": 12.9363343,
        "lon": 77.6151183,
        "tags": {
          "amenity": "restaurant",
          "name": "Coorg",
          "name:kn": "\u0c95\u0cc2\u0cb0\u0ccd\u0c97\u0ccd"
        }
      },
      {
        "type": "node",
        "id": 1375978283,
        "lat": 12.9337973,
        "lon": 77.6189966,
        "tags": {
          "amenity": "restaurant",
          "name": "KC Das",
          "name:kn": "\u0c95\u0cc6\u0cb8\u0cbf \u0ca6\u0cbe\u0cb8\u0ccd"
        }
      },
      {
        "type": "node",
        "id": 1375978284,
        "lat": 12.9358031,
        "lon": 77.6147343,
        "tags": {
          "addr:city": "Bangalore",
          "addr:postcode": "560065",
          "addr:street": "80 Feet Road, Koramangala, Bangalore",
          "alt_name": "A2B",
          "amenity": "restaurant",
          "brand": "Adyar Ananda Bhavan",
          "brand:wikidata": "Q15178238",
          "cuisine": "regional",
          "diet:vegetarian": "only",
          "name": "Adyar Ananda Bhavan",
          "name:kn": "\u0c86\u0ca6\u0ccd\u0caf\u0cbe\u0cb0\u0ccd \u0c86\u0ca8\u0c82\u0ca6 \u0cad\u0cb5\u0ca8",
          "operator": "Adyar Ananda Bhavan",
          "phone": "+91 77950 73031",
          "shop": "confectionery",
          "smoking": "no",
          "website": "https://aabsweets.com"
        }
      },
      {
        "type": "node",
        "id": 1375978286,
        "lat": 12.9363805,
        "lon": 77.6151025,
        "tags": {
          "amenity": "restaurant",
          "cuisine": "Naga",
          "name": "Zingron",
          "name:kn": "\u0c9c\u0cbf\u0c82\u0c97\u0ccd\u0cb0\u0cca\u0ca8\u0ccd"
        }
      },
      {
        "type": "node",
        "id": 1375978287,
        "lat": 12.9334311,
        "lon": 77.6217925,
        "tags": {
          "amenity": "restaurant",
          "cuisine": "chinese",
          "name": "Beijing Bites",
          "name:kn": "\u0cac\u0cc0\u0c9c\u0cbf\u0c82\u0c97\u0ccd \u0cac\u0cc8\u0c9f\u0ccd\u0cb8\u0ccd"
        }
      },
      {
        "type": "node",
        "id": 1375978289,
        "lat": 12.9341001,
        "lon": 77.6164042,
        "tags": {
          "amenity": "restaurant",
          "name": "Lazeez Express",
          "name:kn": "\u0cb2\u0c9c\u0cc0\u0c9c\u0ccd \u0c8e\u0c95\u0ccd\u0cb8\u0ccd\u200c\u0caa\u0ccd\u0cb0\u0cc6\u0cb8\u0ccd"
        }
      },
      {
        "type": "node",
        "id": 1375978290,
        "lat": 12.936529,
        "lon": 77.6146211,
        "tags": {
          "amenity": "restaurant",
          "name": "Ammi's Biryani",
          "name:kn": "\u0c85\u0cae\u0ccd\u0cae\u0cbf \u0cac\u0cbf\u0cb0\u0cbf\u0caf\u0cbe\u0ca8\u0cbf"
        }
      },
      {
        "type": "node",
        "id": 1375978291,
        "lat": 12.9338857,
        "lon": 77.6194174,
        "tags": {
          "amenity": "restaurant",
          "name": "Tandoor Hut",
          "name:kn": "\u0ca4\u0c82\u0ca6\u0cc2\u0cb0\u0ccd \u0cb9\u0c9f\u0ccd"
        }
      },
      {
        "type": "node",
        "id": 1444233099,
        "lat": 12.934708,
        "lon": 77.6126855,
        "tags": {
          "amenity": "atm",
          "brand": "State Bank of India",
          "brand:wikidata": "Q1340361",
          "check_date": "2021-09-24",
          "fee": "None/Standard",
          "level": "0",
          "name": "State Bank of India",
          "name:kn": "\u0cad\u0cbe\u0cb0\u0ca4\u0cc0\u0caf \u0cb8\u0ccd\u0c9f\u0cc7\u0c9f\u0ccd \u0cac\u0ccd\u0caf\u0cbe\u0c82\u0c95\u0ccd",
          "operator": "State Bank of India",
          "operator:wikidata": "Q1340361",
          "short_name": "SBI"
        }
      },
      {
        "type": "node",
        "id": 1455123608,
        "lat": 12.9356059,
        "lon": 77.6143393,
        "tags": {
          "amenity": "atm",
          "brand": "Axis Bank",
          "brand:wikidata": "Q2003549",
          "fee": "None/Standard",
          "name": "Axis Bank",
          "name:kn": "\u0c86\u0c95\u0ccd\u0cb8\u0cbf\u0cb8\u0ccd \u0cac\u0ccd\u0caf\u0cbe\u0c82\u0c95\u0ccd",
          "operator": "Axis Bank",
          "operator:wikidata": "Q2003549"
        }
      },
      {
        "type": "node",
        "id": 1457778754,
        "lat": 12.9361984,
        "lon": 77.6214666,
        "tags": {
          "amenity": "restaurant",
          "cuisine": "chinese",
          "name": "China Pearl",
          "name:kn": "\u0c9a\u0cc8\u0ca8\u0cbe \u0caa\u0cb0\u0ccd\u0cb2\u0ccd"
        }
      },
      {
        "type": "node",
        "id": 1459721959,
        "lat": 12.934525,
        "lon": 77.610909,
        "tags": {
          "addr:city": "Bangalore",
          "addr:housename": "Forum Mall",
          "addr:street": "Hosur Road",
          "amenity": "restaurant",
          "brand": "Pizza Hut",
          "brand:wikidata": "Q191615",
          "cuisine": "pizza",
          "level": "1",
          "name": "Pizza Hut",
          "name:kn": "\u0caa\u0cbf\u0c9f\u0ccd\u0cb8 \u0cb9\u0c9f\u0ccd"
        }
      },
      {
        "type": "node",
        "id": 1459725062,
        "lat": 12.935016,
        "lon": 77.611357,
        "tags": {
          "addr:city": "Bangalore",
          "addr:housename": "Forum Mall",
          "addr:street": "Hosur Road",
          "amenity": "restaurant",
          "level": "2",
          "name": "Sahib Singh Sultan",
          "name:kn": "\u0cb8\u0cbe\u0cb9\u0cbf\u0cac\u0ccd \u0cb8\u0cbf\u0c82\u0c97\u0ccd \u0cb8\u0cc1\u0cb2\u0ccd\u0ca4\u0cbe\u0ca8\u0ccd"
        }
      },
      {
        "type": "node",
        "id": 1459965429,
        "lat": 12.934504,
        "lon": 77.613547,
        "tags": {
          "addr:housename": "Raheja Arcade",
          "addr:street": "80ft Road",
          "amenity": "restaurant",
          "diet:vegetarian": "only",
          "name": "Gramin",
          "name:kn": "\u0c97\u0ccd\u0cb0\u0cbe\u0cae\u0cc0\u0ca3\u0ccd \u0cb6\u0cbe\u0cb0\u0ca6"
        }
      },
      {
        "type": "node",
        "id": 1459966148,
        "lat": 12.934323,
        "lon": 77.613299,
        "tags": {
          "amenity": "restaurant",
          "name": "Om",
          "name:kn": "\u0c93\u0c82"
        }
      },
      {
        "type": "node",
        "id": 1462977137,
        "lat": 12.9341298,
        "lon": 77.6109889,
        "tags": {
          "addr:city": "Bangalore",
          "addr:housename": "Forum Mall",
          "addr:postcode": "560095",
          "addr:street": "Hosur Road",
          "brand": "More",
          "brand:wikidata": "Q6910891",
          "name": "More",
          "shop": "supermarket",
          "toilets:wheelchair": "yes",
          "wheelchair": "yes"
        }
      },
      {
        "type": "node",
        "id": 1462984888,
        "lat": 12.9333844,
        "lon": 77.6132413,
        "tags": {
          "addr:postcode": "560095",
          "addr:street": "Hosur Road, Koramangala, Bangalore",
          "amenity": "bank",
          "atm": "yes",
          "brand": "Standard Chartered",
          "brand:wikidata": "Q548278",
          "name": "Standard Chartered",
          "name:kn": "\u0cb8\u0ccd\u0c9f\u0cbe\u0c82\u0ca1\u0cb0\u0ccd\u0ca1\u0ccd \u0c9a\u0cbe\u0cb0\u0ccd\u0c9f\u0cb0\u0ccd\u0ca1\u0ccd"
        }
      },
      {
        "type": "node",
        "id": 1462991954,
        "lat": 12.9355699,
        "lon": 77.6142407,
        "tags": {
          "addr:postcode": "560095",
          "addr:street": "80 Feet Road, Koramangala, Bangalore",
          "amenity": "bank",
          "atm": "yes",
          "brand": "Axis Bank",
          "brand:wikidata": "Q2003549",
          "brand:wikipedia": "en:Axis Bank",
          "name": "Axis Bank",
          "name:en": "Axis Bank",
          "name:kn": "\u0c85\u0c95\u0ccd\u0cb8\u0cbf\u0cb8\u0ccd \u0cac\u0ccd\u0caf\u0cbe\u0c82\u0c95\u0ccd",
          "website": "https://www.axisbank.com"
        }
      },
      {
        "type": "node",
        "id": 1463863510,
        "lat": 12.9353385,
        "lon": 77.6138382,
        "tags": {
          "addr:postcode": "560095",
          "addr:street": "KORAMANGALA BRANCH, BANGALORE",
          "amenity": "bank",
          "atm": "yes",
          "brand": "State Bank of India",
          "brand:wikidata": "Q1340361",
          "brand:wikipedia": "en:State Bank of India",
          "name": "State Bank of India",
          "name:kn": "\u0cad\u0cbe\u0cb0\u0ca4\u0cc0\u0caf \u0cb8\u0ccd\u0c9f\u0cc7\u0c9f\u0ccd \u0cac\u0ccd\u0caf\u0cbe\u0c82\u0c95\u0ccd",
          "short_name": "SBI"
        }
      },
      {
        "type": "node",
        "id": 1464156665,
        "lat": 12.9423147,
        "lon": 77.6150065,
        "tags": {
          "addr:postcode": "560095",
          "addr:street": "Adugodi main road",
          "name": "More Supermarket",
          "name:kn": "\u0cae\u0ccb\u0cb0\u0ccd",
          "shop": "supermarket"
        }
      },
      {
        "type": "node",
        "id": 1464784876,
        "lat": 12.9331413,
        "lon": 77.6228508,
        "tags": {
          "amenity": "restaurant",
          "cuisine": "spanish",
          "name": "Fiorano Ristorante",
          "name:kn": "\u0cab\u0cbf\u0caf\u0cca\u0cb0\u0cbe\u0ca8\u0cca \u0cb0\u0cbf\u0cb8\u0ccd\u0c9f\u0cca\u0cb0\u0c82\u0c9f\u0cc6"
        }
      },
      {
        "type": "node",
        "id": 1464790791,
        "lat": 12.9336643,
        "lon": 77.6231619,
        "tags": {
          "addr:city": "Bengaluru",
          "addr:street": "Koramanagala",
          "amenity": "bank",
          "atm": "yes",
          "brand": "Kotak Mahindra Bank",
          "brand:wikidata": "Q2040404",
          "drive_through": "no",
          "name": "Kotak Mahindra Bank",
          "name:en": "Kotak Mahindra Bank",
          "name:kn": "\u0c95\u0ccb\u0c9f\u0c95\u0ccd \u0cae\u0cb9\u0cbf\u0c82\u0ca6\u0ccd\u0cb0 \u0cac\u0ccd\u0caf\u0cbe\u0c82\u0c95\u0ccd"
        }
      },
      {
        "type": "node",
        "id": 1464790817,
        "lat": 12.9338891,
        "lon": 77.6232852,
        "tags": {
          "addr:city": "Bengaluru",
          "addr:street": "Koramangala",
          "amenity": "bank",
          "atm": "yes",
          "brand": "IDBI Bank",
          "brand:wikidata": "Q3633485",
          "drive_through": "no",
          "name": "IDBI Bank",
          "name:kn": "\u0c90\u0ca1\u0cbf\u0cac\u0cbf\u0c90 \u0cac\u0ccd\u0caf\u0cbe\u0c82\u0c95\u0ccd",
          "old_name": "Industrial Development Bank of India",
          "short_name": "IDBI"
        }
      },
      {
        "type": "node",
        "id": 1465190491,
        "lat": 12.9352032,
        "lon": 77.6228947,
        "tags": {
          "description": "Convenience store for all household items & accessories",
          "name": "Sowbhagya Traders",
          "shop": "supermarket"
        }
      },
      {
        "type": "node",
        "id": 1465610689,
        "lat": 12.9354469,
        "lon": 77.6154094,
        "tags": {
          "amenity": "fast_food",
          "brand": "McDonald's",
          "brand:pa": "\u0a2e\u0a48\u0a15\u0a21\u0a4b\u0a28\u0a32\u0a21\u2019\u0a1c\u0a3c",
          "brand:ur": "\u0645\u06a9\u0688\u0648\u0646\u0644\u0688\u0632",
          "brand:wikidata": "Q38076",
          "brand:wikipedia": "en:McDonald's",
          "brand:wikipedia:pa": "\u0a2e\u0a48\u0a15\u0a21\u0a4b\u0a28\u0a32\u0a21\u2019\u0a1c\u0a3c",
          "brand:wikipedia:ur": "\u0645\u06a9\u0688\u0648\u0646\u0644\u0688\u0632",
          "cuisine": "burger",
          "name": "McDonald's",
          "name:pa": "\u0a2e\u0a48\u0a15\u0a21\u0a4b\u0a28\u0a32\u0a21\u2019\u0a1c\u0a3c",
          "name:ur": "\u0645\u06a9\u0688\u0648\u0646\u0644\u0688\u0632",
          "takeaway": "yes"
        }
      },
      {
        "type": "node",
        "id": 1465657720,
        "lat": 12.9362976,
        "lon": 77.6213531,
        "tags": {
          "addr:housename": "Hotel Nandhana Palace",
          "amenity": "restaurant",
          "cuisine": "indian",
          "designation": "Business class hotel",
          "name": "Nandhana Grand",
          "name:kn": "\u0ca8\u0c82\u0ca6\u0ca8\u0cbe \u0c97\u0ccd\u0cb0\u0cbe\u0c82\u0ca1\u0ccd"
        }
      },
      {
        "type": "node",
        "id": 1466631787,
        "lat": 12.9429573,
        "lon": 77.6174085,
        "tags": {
          "addr:district": "Bengaluru Urban",
          "addr:full": "No.3&4, 7Nth Main 1st Block OppositeB.T.S Kalyana Mantapa Koramangala",
          "addr:postcode": "560034",
          "addr:state": "Karnataka",
          "amenity": "clinic",
          "name": "Sharadha Nursing Home",
          "source": "OpenGovernmentData"
        }
      },
      {
        "type": "node",
        "id": 1466638204,
        "lat": 12.9423039,
        "lon": 77.6174893,
        "tags": {
          "amenity": "hospital",
          "healthcare": "hospital",
          "name": "Srinivasa Nursing Home"
        }
      },
      {
        "type": "node",
        "id": 1466648669,
        "lat": 12.9422358,
        "lon": 77.6178071,
        "tags": {
          "amenity": "restaurant",
          "cuisine": "chinese",
          "name": "Dim Sum",
          "name:kn": "\u0ca6\u0cbf\u0cae\u0ccd \u0cb8\u0cae\u0ccd"
        }
      },
      {
        "type": "node",
        "id": 1466650618,
        "lat": 12.9423666,
        "lon": 77.6174611,
        "tags": {
          "amenity": "pharmacy",
          "brand": "Apollo Pharmacy",
          "brand:wikidata": "Q62562612",
          "healthcare": "pharmacy",
          "name": "Apollo Pharmacy",
          "name:kn": "\u0c85\u0caa\u0ccb\u0cb2\u0ccb \u0cab\u0cbe\u0cb0\u0ccd\u0cae\u0cb8\u0cbf"
        }
      },
      {
        "type": "node",
        "id": 1467937185,
        "lat": 12.934104,
        "lon": 77.6164798,
        "tags": {
          "addr:housename": "Adaa",
          "addr:postcode": "560095",
          "addr:street": "5th Block Koramangala",
          "amenity": "restaurant",
          "cuisine": "indian",
          "designation": "Punjabi",
          "name": "Adaa Restaurant",
          "name:kn": "\u0c85\u0ca6\u0cbe \u0cb0\u0cc6\u0cb8\u0ccd\u0c9f\u0ccb\u0cb0\u0cc6\u0c82\u0c9f\u0ccd"
        }
      },
      {
        "type": "node",
        "id": 1467937188,
        "lat": 12.9368528,
        "lon": 77.6203487,
        "tags": {
          "addr:housename": "Willi vanili",
          "addr:postcode": "560095",
          "addr:street": "5th block Koramangala",
          "amenity": "restaurant",
          "cuisine": "ice_cream",
          "designation": "Ice cream parlor",
          "name": "Willy Vanilli",
          "name:kn": "\u0cb5\u0cbf\u0cb2\u0ccd\u0cb2\u0cbf \u0cb5\u0ca8\u0cbf\u0cb2\u0cbf"
        }
      },
      {
        "type": "node",
        "id": 1467937189,
        "lat": 12.9366057,
        "lon": 77.6205137,
        "tags": {
          "addr:housename": "Chung Wah",
          "addr:housenumber": "20",
          "amenity": "restaurant",
          "cuisine": "chinese",
          "name": "Chung wah",
          "name:kn": "\u0c9a\u0c82\u0c97\u0ccd \u0cb5",
          "website": "http://chungwahrestaurants.co.in/"
        }
      },
      {
        "type": "node",
        "id": 1468014994,
        "lat": 12.93567,
        "lon": 77.6152337,
        "tags": {
          "amenity": "atm",
          "fee": "HDFC ATM",
          "operator": "HDFC Bank ATM"
        }
      },
      {
        "type": "node",
        "id": 1468014995,
        "lat": 12.9364151,
        "lon": 77.6144033,
        "tags": {
          "name": "Safal Supermarket",
          "shop": "supermarket"
        }
      },
      {
        "type": "node",
        "id": 1468014996,
        "lat": 12.9363015,
        "lon": 77.6151475,
        "tags": {
          "amenity": "restaurant",
          "cuisine": "indian",
          "name": "Sathyas Biriyani",
          "name:kn": "\u0cb8\u0ca4\u0ccd\u0caf\u0cb8\u0ccd \u0cac\u0cbf\u0cb0\u0cbf\u0caf\u0cbe\u0ca8\u0cbf"
        }
      },
      {
        "type": "node",
        "id": 1468015001,
        "lat": 12.9360411,
        "lon": 77.6148636,
        "tags": {
          "amenity": "restaurant",
          "diet:vegetarian": "only",
          "name": "Red fort restaurant",
          "name:kn": "\u0cb0\u0cc6\u0ca1\u0ccd \u0cab\u0cbe\u0cb0\u0ccd\u0c9f\u0ccd \u0cb0\u0cc6\u0cb8\u0ccd\u0c9f\u0ccb\u0cb0\u0cc6\u0c82\u0c9f\u0ccd"
        }
      },
      {
        "type": "node",
        "id": 1468025778,
        "lat": 12.9368986,
        "lon": 77.6198954,
        "tags": {
          "amenity": "restaurant",
          "diet:vegetarian": "only",
          "name": "Krishna Cafe",
          "name:en": "Sree Krishna Cafe",
          "name:kn": "\u0cb6\u0ccd\u0cb0\u0cc0\u0c95\u0cc3\u0cb7\u0ccd\u0ca3 \u0c95\u0cc6\u0cab\u0cc6"
        }
      },
      {
        "type": "node",
        "id": 1468025788,
        "lat": 12.9369809,
        "lon": 77.6197694,
        "tags": {
          "amenity": "restaurant",
          "diet:vegetarian": "only",
          "name": "Anand Sweets and Restaurant",
          "name:kn": "\u0c86\u0ca8\u0c82\u0ca6\u0ccd \u0cb8\u0ccd\u0cb5\u0cc0\u0c9f\u0ccd\u0cb8\u0ccd \u0cae\u0ca4\u0ccd\u0ca4\u0cc1 \u0cb0\u0cc6\u0cb8\u0ccd\u0c9f\u0ccb\u0cb0\u0cc6\u0c82\u0c9f\u0ccd"
        }
      },
      {
        "type": "node",
        "id": 1468164169,
        "lat": 12.9348451,
        "lon": 77.6128809,
        "tags": {
          "amenity": "restaurant",
          "name": "N.E Diner",
          "name:kn": "\u0c8e\u0ca8\u0ccd.\u0c87 \u0ca1\u0cc8\u0ca8\u0cb0\u0ccd"
        }
      },
      {
        "type": "node",
        "id": 1468190774,
        "lat": 12.9350385,
        "lon": 77.6130633,
        "tags": {
          "addr:postcode": "560095",
          "addr:street": "Koramangala Industrial Layout",
          "amenity": "restaurant",
          "cuisine": "ice_cream",
          "name": "Thanco Fresh Fruitz Ice-Creams",
          "name:kn": "\u0ca4\u0cbe\u0ca8\u0ccd\u0c95\u0cca \u0cab\u0ccd\u0cb0\u0cc6\u0cb7\u0ccd \u0cab\u0ccd\u0cb0\u0cc1\u0c9f\u0ccd\u0cb8\u0ccd \u0c90\u0cb8\u0ccd-\u0c95\u0ccd\u0cb0\u0cc0\u0cae\u0ccd\u0cb8\u0ccd"
        }
      },
      {
        "type": "node",
        "id": 1468190775,
        "lat": 12.935577,
        "lon": 77.6130901,
        "tags": {
          "addr:postcode": "560095",
          "amenity": "restaurant",
          "cuisine": "seafood",
          "name": "Mangoa Coastal cuisine",
          "name:kn": "\u0cae\u0c82\u0c97\u0cca \u0c95\u0cca\u0cb8\u0ccd\u0c9f\u0cb2\u0ccd \u0c95\u0ccd\u0caf\u0cc2\u0cb8\u0cbf\u0ca8\u0ccd"
        }
      },
      {
        "type": "node",
        "id": 1468235009,
        "lat": 12.9371352,
        "lon": 77.619779,
        "tags": {
          "amenity": "restaurant",
          "name": "Flambe",
          "name:kn": "\u0cab\u0ccd\u0cb2\u0c82\u0cac\u0cc6"
        }
      },
      {
        "type": "node",
        "id": 1468235024,
        "lat": 12.9365549,
        "lon": 77.6165979,
        "tags": {
          "amenity": "restaurant",
          "name": "Aangan restaurant",
          "name:kn": "\u0c86\u0c82\u0c97\u0ca8\u0ccd \u0cb0\u0cc6\u0cb8\u0ccd\u0c9f\u0cca\u0cb0\u0cc6\u0c82\u0c9f\u0ccd"
        }
      },
      {
        "type": "node",
        "id": 1468516361,
        "lat": 12.9368481,
        "lon": 77.6198784,
        "tags": {
          "amenity": "restaurant",
          "cuisine": "international",
          "name": "Sizzlers and more",
          "name:kn": "\u0cb8\u0cbf\u0c9c\u0ccd\u0cb2\u0cb0\u0ccd\u0cb8\u0ccd \u0c86\u0c82\u0ca1\u0ccd \u0cae\u0ccb\u0cb0\u0ccd"
        }
      },
      {
        "type": "node",
        "id": 1468516365,
        "lat": 12.936937,
        "lon": 77.6202003,
        "tags": {
          "amenity": "restaurant",
          "cuisine": "chinese",
          "name": "China Bowl restaurant",
          "name:kn": "\u0c9a\u0cc8\u0ca8 \u0cac\u0ccc\u0cb2\u0ccd \u0cb0\u0cc6\u0cb8\u0ccd\u0c9f\u0cca\u0cb0\u0cc6\u0c82\u0c9f\u0ccd"
        }
      },
      {
        "type": "node",
        "id": 1468516368,
        "lat": 12.9368899,
        "lon": 77.6197711,
        "tags": {
          "amenity": "restaurant",
          "cuisine": "indian",
          "name": "Malabar cafe",
          "name:kn": "\u0cae\u0cb2\u0cac\u0cbe\u0cb0\u0ccd \u0c95\u0cc6\u0cab\u0cc6"
        }
      },
      {
        "type": "node",
        "id": 1468516369,
        "lat": 12.9369893,
        "lon": 77.6201144,
        "tags": {
          "amenity": "restaurant",
          "cuisine": "indian",
          "designation": "1st floor",
          "name": "Desi Tadka",
          "name:kn": "\u0ca6\u0cc6\u0cb8\u0cbf \u0c9f\u0ca1\u0ccd\u0c95"
        }
      },
      {
        "type": "node",
        "id": 1469643991,
        "lat": 12.9352294,
        "lon": 77.6076048,
        "tags": {
          "amenity": "restaurant",
          "designation": "Kerala Style",
          "name": "Kairali Restaurant",
          "name:kn": "\u0c95\u0cc8\u0cb0\u0cbe\u0cb2\u0cbf \u0cb0\u0cc6\u0cb8\u0ccd\u0c9f\u0cca\u0cb0\u0cc6\u0c82\u0c9f\u0ccd"
        }
      },
      {
        "type": "node",
        "id": 1469644017,
        "lat": 12.9343755,
        "lon": 77.6090481,
        "tags": {
          "amenity": "restaurant",
          "cuisine": "italian",
          "name": "Little Italy",
          "name:kn": "\u0cb2\u0cbf\u0c9f\u0cb2\u0ccd \u0c87\u0c9f\u0cb2\u0cbf"
        }
      },
      {
        "type": "node",
        "id": 1469644046,
        "lat": 12.935785,
        "lon": 77.6076261,
        "tags": {
          "addr:floor": "1",
          "amenity": "restaurant",
          "check_date": "2023-11-23",
          "indoor_seating": "yes",
          "level": "1",
          "name": "Karavali Fine Dine",
          "outdoor_seating": "no"
        }
      },
      {
        "type": "node",
        "id": 1469644049,
        "lat": 12.9335261,
        "lon": 77.6152234,
        "tags": {
          "amenity": "restaurant",
          "check_date": "2024-01-20",
          "name": "Sultan of Spice",
          "name:kn": "\u0cb8\u0cc1\u0cb2\u0ccd\u0ca4\u0cbe\u0ca8\u0ccd \u0c86\u0cab\u0ccd \u0cb8\u0ccd\u0caa\u0cc8\u0cb8\u0ccd"
        }
      },
      {
        "type": "node",
        "id": 1470523369,
        "lat": 12.936209,
        "lon": 77.6171253,
        "tags": {
          "amenity": "atm",
          "brand": "Deutsche Bank",
          "brand:wikidata": "Q66048",
          "fee": "no",
          "name": "Deutsche Bank",
          "operator": "Deutsche Bank",
          "operator:wikidata": "Q66048"
        }
      },
      {
        "type": "node",
        "id": 1470523375,
        "lat": 12.933536,
        "lon": 77.6155026,
        "tags": {
          "amenity": "restaurant",
          "cuisine": "indian",
          "name": "Ammis Biriyani",
          "name:kn": "\u0c85\u0cae\u0ccd\u0cae\u0cbf \u0cac\u0cbf\u0cb0\u0cbf\u0caf\u0cbe\u0ca8\u0cbf"
        }
      },
      {
        "type": "node",
        "id": 1470523376,
        "lat": 12.9352797,
        "lon": 77.6157628,
        "tags": {
          "amenity": "restaurant",
          "cuisine": "chinese",
          "name": "Chung Wah Restaurant",
          "name:kn": "\u0c9a\u0cc1\u0c82\u0c97\u0ccd \u0cb5\u0cbe \u0cb0\u0cc6\u0cb8\u0ccd\u0c9f\u0cca\u0cb0\u0cc6\u0c82\u0c9f\u0ccd"
        }
      },
      {
        "type": "node",
        "id": 1470523383,
        "lat": 12.9338001,
        "lon": 77.619424,
        "tags": {
          "amenity": "restaurant",
          "cuisine": "ice_cream",
          "designation": "Italian Ice-cream",
          "name": "Mama mia",
          "name:kn": "\u0cae\u0cbe\u0cae \u0cae\u0cc0\u0caf"
        }
      },
      {
        "type": "node",
        "id": 1470523384,
        "lat": 12.9416947,
        "lon": 77.621508,
        "tags": {
          "amenity": "restaurant",
          "cuisine": "international",
          "name": "Boca Grande",
          "name:kn": "\u0cac\u0cca\u0c95 \u0c97\u0ccd\u0cb0\u0cbe\u0c82\u0ca1\u0cc6"
        }
      },
      {
        "type": "node",
        "id": 1470523385,
        "lat": 12.9420162,
        "lon": 77.6219426,
        "tags": {
          "amenity": "bank",
          "atm": "yes",
          "brand": "Federal Bank",
          "brand:wikidata": "Q2044983",
          "brand:wikipedia": "en:Federal Bank",
          "name": "Federal Bank",
          "name:en": "Federal Bank",
          "website": "https://www.federalbank.co.in"
        }
      },
      {
        "type": "node",
        "id": 1470628750,
        "lat": 12.9366298,
        "lon": 77.6132797,
        "tags": {
          "amenity": "restaurant",
          "cuisine": "indian",
          "name": "Sri Sai Vijay Mess",
          "name:kn": "\u0cb6\u0ccd\u0cb0\u0cc0 \u0cb8\u0cbe\u0caf\u0cbf \u0cb5\u0cbf\u0c9c\u0caf\u0ccd \u0cae\u0cc6\u0cb8\u0ccd"
        }
      },
      {
        "type": "node",
        "id": 1470631822,
        "lat": 12.9366085,
        "lon": 77.6181363,
        "tags": {
          "amenity": "bank",
          "atm": "yes",
          "brand": "Oriental Bank of Commerce",
          "brand:wikidata": "Q367008",
          "brand:wikipedia": "en:Oriental Bank of Commerce",
          "name": "Oriental Bank of Commerce",
          "name:en": "Oriental Bank of Commerce",
          "short_name": "OBC",
          "website": "https://www.obcindia.co.in"
        }
      },
      {
        "type": "node",
        "id": 1470634294,
        "lat": 12.9364753,
        "lon": 77.621053,
        "tags": {
          "amenity": "restaurant",
          "name": "Oye Amritsar",
          "name:kn": "\u0c93\u0caf\u0ccd \u0c85\u0cae\u0cc3\u0ca4\u0ccd\u0cb8\u0cb0\u0ccd"
        }
      },
      {
        "type": "node",
        "id": 1470634304,
        "lat": 12.9367367,
        "lon": 77.6206239,
        "tags": {
          "amenity": "restaurant",
          "name": "Pizzeria Romano",
          "name:kn": "\u0caa\u0cbf\u0c9c\u0cc6\u0cb0\u0cbf\u0caf \u0cb0\u0cca\u0cae\u0ca8\u0cca"
        }
      },
      {
        "type": "node",
        "id": 1470707052,
        "lat": 12.941581,
        "lon": 77.617208,
        "tags": {
          "amenity": "pharmacy",
          "name": "Krishna Pharma"
        }
      },
      {
        "type": "node",
        "id": 1471128628,
        "lat": 12.9382768,
        "lon": 77.6186753,
        "tags": {
          "amenity": "hospital",
          "emergency": "yes",
          "healthcare": "hospital",
          "name": "Pristine Health care"
        }
      },
      {
        "type": "node",
        "id": 1471128630,
        "lat": 12.9388779,
        "lon": 77.61893,
        "tags": {
          "amenity": "restaurant",
          "cuisine": "coffee_shop",
          "name": "Kiwi kiss",
          "name:kn": "\u0c95\u0cbf\u0cb5\u0cbf \u0c95\u0cbf\u0cb8\u0ccd"
        }
      },
      {
        "type": "node",
        "id": 1471128658,
        "lat": 12.9386399,
        "lon": 77.6188173,
        "tags": {
          "amenity": "bank",
          "atm": "yes",
          "brand": "State Bank of India",
          "brand:wikidata": "Q1340361",
          "brand:wikipedia": "en:State Bank of India",
          "name": "State Bank of India",
          "name:kn": "\u0cad\u0cbe\u0cb0\u0ca4\u0cc0\u0caf \u0cb8\u0ccd\u0c9f\u0cc7\u0c9f\u0ccd \u0cac\u0ccd\u0caf\u0cbe\u0c82\u0c95\u0ccd",
          "short_name": "SBI",
          "website": "https://www.sbi.co.in"
        }
      },
      {
        "type": "node",
        "id": 1471128660,
        "lat": 12.93893,
        "lon": 77.6189888,
        "tags": {
          "amenity": "cafe",
          "cuisine": "indian",
          "name": "Booster Juice"
        }
      },
      {
        "type": "node",
        "id": 1471780770,
        "lat": 12.9332663,
        "lon": 77.6153051,
        "tags": {
          "amenity": "restaurant",
          "name": "Ande ka funda",
          "name:kn": "\u0c85\u0c82\u0ca1\u0cc6 \u0c95 \u0cab\u0c82\u0ca1\u0cbe"
        }
      },
      {
        "type": "node",
        "id": 1473308080,
        "lat": 12.9353953,
        "lon": 77.6233434,
        "tags": {
          "amenity": "pharmacy",
          "healthcare": "pharmacy",
          "name": "Arathi medicals"
        }
      },
      {
        "type": "node",
        "id": 1474324426,
        "lat": 12.9365507,
        "lon": 77.6204895,
        "tags": {
          "amenity": "restaurant",
          "cuisine": "international",
          "name": "Olio",
          "name:kn": "\u0c92\u0cb2\u0cbf\u0c92"
        }
      },
      {
        "type": "node",
        "id": 1474324439,
        "lat": 12.9367494,
        "lon": 77.6200067,
        "tags": {
          "amenity": "cafe",
          "cuisine": "coffee_shop",
          "name": "Coffee Lounge"
        }
      },
      {
        "type": "node",
        "id": 1474351207,
        "lat": 12.9346333,
        "lon": 77.6124687,
        "tags": {
          "amenity": "restaurant",
          "check_date": "2023-10-28",
          "diet:vegetarian": "only",
          "name": "Kota Kachori",
          "takeaway": "yes"
        }
      },
      {
        "type": "node",
        "id": 1474432224,
        "lat": 12.9339607,
        "lon": 77.6104356,
        "tags": {
          "addr:street": "hosur road",
          "amenity": "restaurant",
          "indoor_seating": "yes",
          "name": "Shiva Sagar",
          "name:kn": "\u0cb6\u0cbf\u0cb5\u0cb8\u0cbe\u0c97\u0cb0\u0ccd",
          "outdoor_seating": "yes"
        }
      },
      {
        "type": "node",
        "id": 1474458358,
        "lat": 12.9351929,
        "lon": 77.6086817,
        "tags": {
          "amenity": "hospital",
          "healthcare": "hospital",
          "name": "Prasad Eye Hospital"
        }
      },
      {
        "type": "node",
        "id": 1675552772,
        "lat": 12.9347196,
        "lon": 77.61367,
        "tags": {
          "amenity": "atm",
          "brand": "Citibank",
          "brand:wikidata": "Q857063",
          "check_date": "2021-09-24",
          "name": "Citibank",
          "operator": "Citibank",
          "operator:wikidata": "Q857063",
          "short_name": "Citi"
        }
      },
      {
        "type": "node",
        "id": 1675555859,
        "lat": 12.9341965,
        "lon": 77.6164502,
        "tags": {
          "alt_name": "Goli Vada Pav No.1",
          "amenity": "fast_food",
          "brand": "Goli Vada Pav",
          "brand:wikidata": "Q5580697",
          "cuisine": "indian",
          "name": "Goli Vada Pav",
          "name:kn": "\u0c97\u0ccb\u0cb2\u0cbf \u0cb5\u0ca1 \u0caa\u0cbe\u0cb5\u0ccd",
          "takeaway": "yes"
        }
      },
      {
        "type": "node",
        "id": 1675556127,
        "lat": 12.9341648,
        "lon": 77.6164835,
        "tags": {
          "amenity": "fast_food",
          "name": "Jumboking Vadapav"
        }
      },
      {
        "type": "node",
        "id": 1683016694,
        "lat": 12.9417658,
        "lon": 77.6158811,
        "tags": {
          "amenity": "bank",
          "atm": "yes",
          "brand": "Corporation Bank",
          "brand:wikidata": "Q2003387",
          "brand:wikipedia": "en:Corporation Bank",
          "name": "Corporation Bank",
          "name:en": "Corporation Bank",
          "name:kn": "\u0c95\u0cbe\u0cb0\u0ccd\u0caa\u0cb0\u0cc7\u0cb7\u0ca8\u0ccd \u0cac\u0ccd\u0caf\u0cbe\u0c82\u0c95\u0ccd",
          "website": "https://corpbank.com/"
        }
      },
      {
        "type": "node",
        "id": 1781815219,
        "lat": 12.9410107,
        "lon": 77.6176795,
        "tags": {
          "amenity": "pharmacy",
          "dispensing": "no",
          "name": "Lavish Medical"
        }
      },
      {
        "type": "node",
        "id": 1781918450,
        "lat": 12.9348525,
        "lon": 77.6157906,
        "tags": {
          "amenity": "restaurant",
          "cuisine": "indian",
          "name": "Hotel Empire",
          "name:kn": "\u0cb9\u0ccb\u0c9f\u0cc6\u0cb2\u0ccd \u0c8e\u0c82\u0caa\u0cc8\u0cb0\u0ccd"
        }
      },
      {
        "type": "node",
        "id": 1781918451,
        "lat": 12.9340146,
        "lon": 77.6163371,
        "tags": {
          "amenity": "restaurant",
          "cuisine": "chinese",
          "internet_access": "no",
          "name": "Khawa Karpo",
          "name:kn": "\u0c96\u0cbe\u0cb5 \u0c95\u0cbe\u0cb0\u0ccd\u0caa\u0cca"
        }
      },
      {
        "type": "node",
        "id": 1781959088,
        "lat": 12.943062,
        "lon": 77.6175679,
        "tags": {
          "amenity": "fast_food",
          "cuisine": "indian",
          "name": "Manasa Veg"
        }
      },
      {
        "type": "node",
        "id": 1781959094,
        "lat": 12.9417545,
        "lon": 77.6215457,
        "tags": {
          "amenity": "restaurant",
          "cuisine": "indian",
          "name": "Sagar Fast Food",
          "name:kn": "\u0cb8\u0cbe\u0c97\u0cb0\u0ccd \u0cab\u0cbe\u0cb8\u0ccd\u0c9f\u0ccd \u0cab\u0cc1\u0ca1\u0ccd"
        }
      },
      {
        "type": "node",
        "id": 1781959102,
        "lat": 12.943452,
        "lon": 77.6178697,
        "tags": {
          "amenity": "atm",
          "brand": "HDFC Bank",
          "brand:wikidata": "Q631047",
          "name": "HDFC Bank",
          "operator": "HDFC Bank",
          "operator:wikidata": "Q631047",
          "short_name": "HDFC"
        }
      },
      {
        "type": "node",
        "id": 1781959104,
        "lat": 12.9434676,
        "lon": 77.6178331,
        "tags": {
          "amenity": "atm",
          "brand": "ICICI Bank",
          "brand:wikidata": "Q1653258",
          "name": "ICICI Bank",
          "operator": "ICICI Bank",
          "operator:wikidata": "Q1653258",
          "short_name": "ICICI"
        }
      },
      {
        "type": "node",
        "id": 1824140227,
        "lat": 12.942312,
        "lon": 77.60802,
        "tags": {
          "addr:street": "Hosur Road",
          "name": "Manokamana Cermanic",
          "shop": "mall"
        }
      },
      {
        "type": "node",
        "id": 2148655413,
        "lat": 12.933447,
        "lon": 77.6219099,
        "tags": {
          "amenity": "restaurant",
          "cuisine": "italian",
          "name": "Chianti"
        }
      },
      {
        "type": "node",
        "id": 2322770073,
        "lat": 12.934646,
        "lon": 77.6067313,
        "tags": {
          "amenity": "food_court",
          "name": "Christ University Food Court"
        }
      },
      {
        "type": "node",
        "id": 2647774013,
        "lat": 12.9351849,
        "lon": 77.6135299,
        "tags": {
          "amenity": "cafe",
          "brand": "Starbucks",
          "brand:pa": "\u0a38\u0a1f\u0a3e\u0a30\u0a2c\u0a15\u0a38",
          "brand:ur": "\u0627\u0633\u0679\u0627\u0631\u0628\u06a9\u0633",
          "brand:wikidata": "Q37158",
          "brand:wikipedia": "en:Starbucks",
          "cuisine": "coffee_shop",
          "internet_access": "wlan",
          "internet_access:fee": "no",
          "name": "Starbucks",
          "name:pa": "\u0a38\u0a1f\u0a3e\u0a30\u0a2c\u0a15\u0a38",
          "name:ur": "\u0627\u0633\u0679\u0627\u0631\u0628\u06a9\u0633",
          "official_name": "Starbucks Coffee",
          "official_name:pa": "\u0a38\u0a1f\u0a3e\u0a30\u0a2c\u0a15\u0a38 \u0a15\u0a4c\u0a2b\u0a40",
          "official_name:ur": "\u0627\u0633\u0679\u0627\u0631\u0628\u06a9\u0633 \u06a9\u0627\u0641\u06cc",
          "opening_hours": "10:00-23:00",
          "takeaway": "yes",
          "website": "https://www.starbucks.com/"
        }
      },
      {
        "type": "node",
        "id": 2746556770,
        "lat": 12.9344918,
        "lon": 77.6160061,
        "tags": {
          "amenity": "restaurant",
          "cuisine": "barbecue",
          "diet:vegetarian": "yes",
          "name": "Black Pearl"
        }
      },
      {
        "type": "node",
        "id": 2941500439,
        "lat": 12.9338837,
        "lon": 77.6072471,
        "tags": {
          "addr:street": "Christ School Road",
          "amenity": "fast_food",
          "cuisine": "chinese",
          "name": "Hot n Cool"
        }
      },
      {
        "type": "node",
        "id": 3013765074,
        "lat": 12.9363204,
        "lon": 77.6222034,
        "tags": {
          "addr:city": "Bangalore",
          "addr:postcode": "560095",
          "addr:street": "17th E Main",
          "amenity": "restaurant",
          "cuisine": "international",
          "name": "Black Pepper Lounge",
          "smoking": "separated"
        }
      },
      {
        "type": "node",
        "id": 3211789974,
        "lat": 12.9341751,
        "lon": 77.6170762,
        "tags": {
          "amenity": "restaurant",
          "name": "California Burritos"
        }
      },
      {
        "type": "node",
        "id": 3490677257,
        "lat": 12.9320659,
        "lon": 77.6182289,
        "tags": {
          "amenity": "restaurant"
        }
      },
      {
        "type": "node",
        "id": 3490677458,
        "lat": 12.9319665,
        "lon": 77.6179178,
        "tags": {
          "brand": "Food Basics",
          "brand:wikidata": "Q5465300",
          "name": "Food Basics",
          "shop": "supermarket"
        }
      },
      {
        "type": "node",
        "id": 3510015824,
        "lat": 12.9417768,
        "lon": 77.6215095,
        "tags": {
          "addr:city": "Koramangala",
          "addr:housenumber": "Ganapathi Temple Rd",
          "addr:postcode": "560095",
          "addr:street": "Koramangala 8th Block, Nanjappa Reddy Layout,",
          "amenity": "cafe",
          "cuisine": "coffee_shop",
          "internet_access": "yes",
          "name": "Juice Maker",
          "opening_hours": "08:00-23:00",
          "smoking": "outside"
        }
      },
      {
        "type": "node",
        "id": 3510047245,
        "lat": 12.9371896,
        "lon": 77.6176798,
        "tags": {
          "addr:city": "Koramangala",
          "addr:housenumber": "Shop No. 1, No. 23 MIG",
          "addr:postcode": "560030",
          "addr:street": "KHB Colony, Next To Mangala Kalyana Mantapa 5th Block Adugodi Road, Koramangala 8th Block",
          "amenity": "cafe",
          "cuisine": "coffee_shop",
          "name": "Dyu Art Cafe",
          "opening_hours": "10:00-22:30"
        }
      },
      {
        "type": "node",
        "id": 3510053759,
        "lat": 12.9360891,
        "lon": 77.6159498,
        "tags": {
          "addr:city": "Koramangala",
          "addr:housenumber": "Next to Airtel Office",
          "addr:postcode": "560095",
          "addr:street": "80 Feet Road, 5th Block",
          "amenity": "cafe",
          "cuisine": "Juice_shop",
          "internet_access": "no",
          "name": "Juicy",
          "smoking": "outside"
        }
      },
      {
        "type": "node",
        "id": 3510063809,
        "lat": 12.9359584,
        "lon": 77.6162475,
        "tags": {
          "addr:city": "Koramangala",
          "addr:housenumber": "A/4, KHB Colony, Near Airtel Office",
          "addr:postcode": "560095",
          "addr:street": "5th Block, 80 Feet Road",
          "amenity": "restaurant",
          "cuisine": "chinese",
          "delivery": "yes",
          "name": "Momoz",
          "opening_hours": "12 Noon to 3:30 PM, 7 PM to 11 PM",
          "phone": "+91 80 41739353",
          "smoking": "outside"
        }
      },
      {
        "type": "node",
        "id": 3510063810,
        "lat": 12.9346905,
        "lon": 77.6159203,
        "tags": {
          "addr:city": "Koramangala",
          "addr:housenumber": "Near Hotel Empire International",
          "addr:postcode": "560095",
          "addr:street": "Koramangala 5th Block",
          "amenity": "cafe",
          "brand": "Chai Point",
          "brand:wikidata": "Q28173415",
          "cuisine": "coffee_shop",
          "name": "Chai Point",
          "takeaway": "yes"
        }
      },
      {
        "type": "node",
        "id": 3510063811,
        "lat": 12.9344396,
        "lon": 77.6160195,
        "tags": {
          "addr:city": "Koramangala",
          "addr:housenumber": "Shop No.105, Ground Floor, 5th Floor",
          "addr:postcode": "560095",
          "addr:street": "1A Cross Road, Koramangala Industrial Layout, Koramangala",
          "amenity": "restaurant",
          "brand": "California Pizza Kitchen",
          "brand:wikidata": "Q15109854",
          "cuisine": "pizza",
          "delivery": "yes",
          "name": "California Pizza Kitchen",
          "opening_hours": "11:00-23:00",
          "short_name": "CPK"
        }
      },
      {
        "type": "node",
        "id": 3520665041,
        "lat": 12.935925,
        "lon": 77.6061828,
        "tags": {
          "amenity": "bank",
          "atm": "yes",
          "brand": "South Indian Bank",
          "brand:wikidata": "Q2044973",
          "name": "South Indian Bank"
        }
      },
      {
        "type": "node",
        "id": 3709164638,
        "lat": 12.9335629,
        "lon": 77.614322,
        "tags": {
          "addr:street": "1st A Cross Road",
          "amenity": "fast_food",
          "cuisine": "cake;burger;grill;italian_pizza;breakfast;american;donut;international;hot_dog;french;coffee_shop;barbecue;ice_cream",
          "name": "Truffles",
          "name:en": "Truffles",
          "name:kn": "\u0c9f\u0ccd\u0cb0\u0cab\u0cb2\u0ccd\u0cb8\u0ccd"
        }
      },
      {
        "type": "node",
        "id": 3924977249,
        "lat": 12.9302063,
        "lon": 77.6140996,
        "tags": {
          "addr:street": "Hosur road",
          "amenity": "cafe",
          "name": "Seekers Cafe",
          "wheelchair": "yes"
        }
      },
      {
        "type": "node",
        "id": 3955672810,
        "lat": 12.9337036,
        "lon": 77.6229616,
        "tags": {
          "addr:city": "Bengaluru",
          "addr:postcode": "560034",
          "addr:suburb": "Koramangala",
          "brand": "Nature's Basket",
          "brand:wikidata": "Q28174237",
          "level": "0",
          "name": "Nature's Basket",
          "opening_hours": "8:00-22:00",
          "operator": "Natures Basket Limited",
          "organic": "yes",
          "phone": "+91 80 41 31 74 01",
          "shop": "supermarket",
          "shop_1": "deli",
          "source": "website",
          "website": "http://www.naturesbasket.co.in/"
        }
      },
      {
        "type": "node",
        "id": 4117092201,
        "lat": 12.9310409,
        "lon": 77.6081159,
        "tags": {
          "amenity": "restaurant",
          "cuisine": "indian",
          "name": "Jose Mess",
          "source": "gps"
        }
      },
      {
        "type": "node",
        "id": 4191956493,
        "lat": 12.9416121,
        "lon": 77.6172504,
        "tags": {
          "amenity": "atm",
          "opening_hours": "24/7"
        }
      },
      {
        "type": "node",
        "id": 4191976704,
        "lat": 12.9411724,
        "lon": 77.6172571,
        "tags": {
          "amenity": "fast_food",
          "cuisine": "indian;south_indian",
          "name": "Ksheera Sagar",
          "takeaway": "yes"
        }
      },
      {
        "type": "node",
        "id": 4191976705,
        "lat": 12.940484,
        "lon": 77.6183624,
        "tags": {
          "amenity": "atm"
        }
      },
      {
        "type": "node",
        "id": 4192020689,
        "lat": 12.9414316,
        "lon": 77.6174359,
        "tags": {
          "amenity": "atm",
          "opening_hours": "24/7"
        }
      },
      {
        "type": "node",
        "id": 4307156988,
        "lat": 12.9355231,
        "lon": 77.6189666,
        "tags": {
          "addr:city": "Bangalore",
          "addr:housenumber": "272",
          "addr:street": "17th D Main Rd, 5th Block, Koramangala",
          "amenity": "cafe",
          "cuisine": "regional;odia",
          "internet_access": "no",
          "name": "Pahala Rasagola shop",
          "note": "Odia sweets like Rasagola (Rosogola/Rasgulla), Chenapodo (Chenapoda) and other snacks like Dahibara-Aludomo (aludum), Singoda (singada/samosa), Alu-chopo (alu chop).",
          "opening_hours": "Mo-Su 07:30-21:00",
          "smoking": "no"
        }
      },
      {
        "type": "node",
        "id": 4319280082,
        "lat": 12.9364231,
        "lon": 77.6151528,
        "tags": {
          "amenity": "restaurant",
          "name": "Maria's Goan Kitchen"
        }
      },
      {
        "type": "node",
        "id": 4392117494,
        "lat": 12.9371939,
        "lon": 77.6198328,
        "tags": {
          "amenity": "restaurant",
          "name": "Upsouth",
          "name:en": "Upsouth"
        }
      },
      {
        "type": "node",
        "id": 4392117495,
        "lat": 12.9365073,
        "lon": 77.6197375,
        "tags": {
          "amenity": "restaurant",
          "name": "Swadist",
          "name:en": "Swadist"
        }
      },
      {
        "type": "node",
        "id": 4392383890,
        "lat": 12.9368104,
        "lon": 77.6206345,
        "tags": {
          "addr:district": "Bengaluru Urban",
          "addr:full": "No.58, 5th Cross, 18th Main Dhanlakshmi Bank Building",
          "addr:postcode": "560095",
          "addr:state": "Karnataka",
          "addr:subdistrict": "Koramangala",
          "amenity": "hospital",
          "email": "contactus@apollocradle.com",
          "healthcare:speciality": "Maternity Services; Birthing Fertility and IVF; Woman's Health; Women Health Checks; Procedures; Cancer Evaluation; Children's Health; New Born Screening; Vaccination",
          "name": "Apollo Cradle",
          "name:en": "Apollo Cradle",
          "operator:type": "private",
          "source": "OpenGovernmentData",
          "website": "https://www.apollocradle.com/"
        }
      },
      {
        "type": "node",
        "id": 4392383891,
        "lat": 12.9367073,
        "lon": 77.6206344,
        "tags": {
          "amenity": "atm",
          "operator": "Dhanalakshmi Bank"
        }
      },
      {
        "type": "node",
        "id": 4445505534,
        "lat": 12.9366734,
        "lon": 77.6228961,
        "tags": {
          "addr:city": "Bangalore",
          "addr:housenumber": "69",
          "addr:postcode": "560095",
          "addr:street": "17th E Main Road",
          "addr:suburb": "Koramangala",
          "amenity": "clinic",
          "healthcare": "clinic",
          "name": "Koramangala\u00a0Poly Clinic",
          "phone": "080 2553 0685"
        }
      },
      {
        "type": "node",
        "id": 4446872947,
        "lat": 12.9422807,
        "lon": 77.6208282,
        "tags": {
          "addr:city": "bangalore",
          "addr:housenumber": "727",
          "addr:postcode": "560095",
          "addr:street": ", 8th Block, 1st Main, Opposite Shiva Theater, 2nd C Cross Rd, Koramangala 8th Block, Koramangala",
          "amenity": "clinic",
          "healthcare": "clinic",
          "name": "Shradha Nursing Home",
          "phone": "080 2290 3660"
        }
      },
      {
        "type": "node",
        "id": 4447010431,
        "lat": 12.9409856,
        "lon": 77.6085956,
        "tags": {
          "addr:city": "Bangalore",
          "addr:postcode": "560030",
          "addr:street": "Hosur Rd, Koramangala",
          "amenity": "restaurant",
          "cuisine": "regional",
          "delivery": "yes",
          "name": "Ambur Biriyani Center",
          "opening_hours": "09:00-22:00",
          "phone": "090080 10360",
          "smoking": "no",
          "takeaway": "yes"
        }
      },
      {
        "type": "node",
        "id": 4447013603,
        "lat": 12.943229,
        "lon": 77.6091984,
        "tags": {
          "addr:city": "Bangalore",
          "addr:postcode": "560030",
          "addr:street": "Basavanna Temple Road, AK Colony, Adugodi",
          "amenity": "restaurant",
          "cuisine": "regional",
          "delivery": "yes",
          "name": "Sri Sathya Sai Food Corner",
          "opening_hours": "08:00-12:00, 17:00-21:00",
          "phone": "098862 35580",
          "smoking": "no",
          "takeaway": "yes"
        }
      },
      {
        "type": "node",
        "id": 4447017355,
        "lat": 12.939969,
        "lon": 77.6091099,
        "tags": {
          "addr:city": "Bangalore",
          "addr:postcode": "560030",
          "addr:street": "Adugodi, Hosur Road",
          "amenity": "restaurant",
          "cuisine": "regional",
          "delivery": "yes",
          "name": "Taj Food Point",
          "phone": "9008010360",
          "smoking": "no",
          "takeaway": "yes"
        }
      },
      {
        "type": "node",
        "id": 4447020567,
        "lat": 12.9424172,
        "lon": 77.6079042,
        "tags": {
          "addr:city": "Bangalore",
          "addr:postcode": "560030",
          "addr:street": "Hosur Rd, Nanjappa Layout, Adugodi",
          "amenity": "restaurant",
          "cuisine": "regional",
          "delivery": "yes",
          "name": "D3 multi cusine",
          "smoking": "no",
          "takeaway": "yes"
        }
      },
      {
        "type": "node",
        "id": 4447075922,
        "lat": 12.9414978,
        "lon": 77.6087872,
        "tags": {
          "addr:city": "Bangalore",
          "addr:housenumber": "31",
          "addr:postcode": "560030",
          "addr:street": "AK Colony, Adugodi",
          "amenity": "restaurant",
          "cuisine": "regional",
          "delivery": "yes",
          "name": "Shri Ganesh Upahar",
          "opening_hours": "10:00-22:00",
          "phone": "9448619303",
          "smoking": "no",
          "takeaway": "yes"
        }
      },
      {
        "type": "node",
        "id": 4447078886,
        "lat": 12.9415138,
        "lon": 77.6083283,
        "tags": {
          "addr:city": "Bangalore",
          "addr:housenumber": "43/41",
          "addr:postcode": "560030",
          "addr:street": "Laksar Hosur Road, Adugodi",
          "amenity": "restaurant",
          "cuisine": "regional",
          "delivery": "yes",
          "name": "iLounge Cafe",
          "phone": "080 6456 7738",
          "smoking": "no",
          "takeaway": "yes",
          "website": "www.ioungecafe.asia.com"
        }
      },
      {
        "type": "node",
        "id": 4447087999,
        "lat": 12.9353208,
        "lon": 77.6205504,
        "tags": {
          "addr:city": "Bangalore",
          "addr:district": "Bengaluru Urban",
          "addr:full": "435, Acura Hospital, 18th Main, 6th Block, Koramangala",
          "addr:housenumber": "105",
          "addr:postcode": "560095",
          "addr:state": "Karnataka",
          "addr:street": "5th Block, 17th C Main Road, KHB Colony , Koramangala",
          "amenity": "hospital",
          "name": "Acura Speciality Hospital",
          "operator:type": "private",
          "phone": "+9180 4110 5151",
          "source": "OpenGovernmentData",
          "website": "https://www.seekandsource.com/acurahospital"
        }
      },
      {
        "type": "node",
        "id": 4447127002,
        "lat": 12.9338298,
        "lon": 77.6199371,
        "tags": {
          "addr:city": "Bangalore",
          "addr:housenumber": "143",
          "addr:postcode": "560034",
          "addr:street": "4th Floor, 1st Cross, 5th Block, Koramangala",
          "amenity": "clinic",
          "healthcare": "clinic",
          "name": "Nova IVI Fertility",
          "phone": "080673 66244",
          "source": "justdial",
          "website": "https://novaivifertility.com/"
        }
      },
      {
        "type": "node",
        "id": 4457715091,
        "lat": 12.9301342,
        "lon": 77.6181807,
        "tags": {
          "amenity": "atm",
          "brand": "South Indian Bank",
          "brand:wikidata": "Q2044973",
          "name": "South Indian Bank",
          "opening_hours": "24/7",
          "operator": "South Indian Bank",
          "operator:wikidata": "Q2044973"
        }
      },
      {
        "type": "node",
        "id": 4457715192,
        "lat": 12.9301613,
        "lon": 77.618137,
        "tags": {
          "amenity": "atm",
          "brand": "Bank of Baroda",
          "brand:wikidata": "Q2003797",
          "name": "Bank of Baroda",
          "opening_hours": "24/7",
          "operator": "Bank of Baroda",
          "operator:wikidata": "Q2003797"
        }
      },
      {
        "type": "node",
        "id": 4457765089,
        "lat": 12.9304666,
        "lon": 77.6183064,
        "tags": {
          "amenity": "atm",
          "brand": "Federal Bank",
          "brand:wikidata": "Q2044983",
          "name": "Federal Bank",
          "opening_hours": "24/7",
          "operator": "Federal Bank",
          "operator:wikidata": "Q2044983"
        }
      },
      {
        "type": "node",
        "id": 4489768760,
        "lat": 12.9367017,
        "lon": 77.6104595,
        "tags": {
          "addr:city": "Bangalore",
          "addr:postcode": "560034",
          "addr:street": "H M Vibha Towers, Adugodi Road, Koramangala",
          "brand": "Star Bazaar",
          "brand:wikidata": "Q124175958",
          "name": "Star Bazaar",
          "organic": "yes",
          "phone": "80-25535222",
          "shop": "supermarket",
          "website": "https://starbazaarindia.com/",
          "wheelchair": "yes"
        }
      },
      {
        "type": "node",
        "id": 4506805592,
        "lat": 12.936323,
        "lon": 77.6148832,
        "tags": {
          "addr:postcode": "560084",
          "amenity": "cafe",
          "cuisine": "burger;sandwich;ice_cream;cake;coffee_shop;donut;pancake;pizza;italian_pizza;mexican;breakfast;tea;italian",
          "diet:vegetarian": "yes",
          "internet_access": "wlan",
          "name": "The Chocolate Room",
          "name:en": "The Chocolate Room",
          "name:hi": "The Chocolate Room",
          "opening_hours": "Mo-Su 11:00-23:00"
        }
      },
      {
        "type": "node",
        "id": 4596325797,
        "lat": 12.9331913,
        "lon": 77.6230591,
        "tags": {
          "addr:housenumber": "63",
          "addr:postcode": "560034",
          "addr:street": "100 feet Road",
          "amenity": "restaurant",
          "cuisine": "italian_pizza;italian",
          "email": "info@thetowerofpizza.com",
          "name": "The Tower Of Pizza",
          "name:en": "The Tower Of Pizza",
          "opening_hours": "Mo-Su 11:30-03:30",
          "operator": "Subir Kumar guha",
          "phone": "9148971958",
          "website": "http://www.thetowerofpizza.com"
        }
      },
      {
        "type": "node",
        "id": 4635147132,
        "lat": 12.9348261,
        "lon": 77.6158067,
        "tags": {
          "amenity": "restaurant",
          "name": "Karama restaurant"
        }
      },
      {
        "type": "node",
        "id": 4636026837,
        "lat": 12.9411745,
        "lon": 77.6157544,
        "tags": {
          "leisure": "playground"
        }
      },
      {
        "type": "node",
        "id": 4716734089,
        "lat": 12.9365279,
        "lon": 77.6148198,
        "tags": {
          "amenity": "fast_food",
          "name": "Sri Balaji Dosa Corner",
          "name:en": "Sri Balaji Dosa Corner"
        }
      },
      {
        "type": "node",
        "id": 4723511153,
        "lat": 12.9351549,
        "lon": 77.6134782,
        "tags": {
          "addr:city": "Bengaluru",
          "addr:housenumber": "115",
          "addr:postcode": "560094",
          "addr:street": "80 Feet Road",
          "amenity": "fast_food",
          "brand": "Krispy Kreme",
          "brand:wikidata": "Q1192805",
          "cuisine": "donut",
          "name": "Krispy Kreme",
          "takeaway": "yes",
          "website": "https://krispykremeindia.in/"
        }
      },
      {
        "type": "node",
        "id": 4733642622,
        "lat": 12.9356426,
        "lon": 77.6087092,
        "tags": {
          "addr:housenumber": "8",
          "addr:postcode": "560029",
          "addr:street": "Hosur Road",
          "amenity": "cafe",
          "cuisine": "italian_pizza",
          "email": "destreetcafe@mail.com",
          "name": "De Street Cafe",
          "name:en": "De Street Cafe",
          "opening_hours": "24/7"
        }
      },
      {
        "type": "node",
        "id": 4805858621,
        "lat": 12.9307586,
        "lon": 77.6179314,
        "tags": {
          "amenity": "fast_food",
          "name": "\u0cac\u0cc7\u0c95\u0ccd\u0cb8\u0ccd \u0c85\u0c82\u0ca1\u0ccd \u0cb6\u0cc7\u0c95\u0ccd\u0cb8\u0ccd",
          "name:en": "Bakes and Shakes",
          "name:kn": "\u0cac\u0cc7\u0c95\u0ccd\u0cb8\u0ccd \u0c85\u0c82\u0ca1\u0ccd \u0cb6\u0cc7\u0c95\u0ccd\u0cb8\u0ccd"
        }
      },
      {
        "type": "node",
        "id": 4805858622,
        "lat": 12.9310212,
        "lon": 77.6180799,
        "tags": {
          "amenity": "fast_food",
          "name": "\u0c86\u0cb6\u0cc0\u0cb0\u0ccd\u0cb5\u0cbe\u0ca6\u0ccd \u0cb0\u0cc6\u0cb8\u0ccd\u0c9f\u0ccb\u0cb0\u0c82\u0c9f\u0ccd - \u0cb8\u0cb8\u0ccd\u0caf\u0cbe\u0cb9\u0cbe\u0cb0\u0cbf",
          "name:en": "Aashirwaad Restaurant - Pure Veg",
          "name:kn": "\u0c86\u0cb6\u0cc0\u0cb0\u0ccd\u0cb5\u0cbe\u0ca6\u0ccd \u0cb0\u0cc6\u0cb8\u0ccd\u0c9f\u0ccb\u0cb0\u0c82\u0c9f\u0ccd - \u0cb8\u0cb8\u0ccd\u0caf\u0cbe\u0cb9\u0cbe\u0cb0\u0cbf"
        }
      },
      {
        "type": "node",
        "id": 4805862921,
        "lat": 12.9308485,
        "lon": 77.6179719,
        "tags": {
          "amenity": "fast_food",
          "name": "\u0c95\u0ccb\u0cb8\u0ccd\u0c9f\u0cb2\u0ccd \u0cac\u0cc7 - \u0cae\u0cbe\u0c82\u0cb8\u0cbe\u0cb9\u0cbe\u0cb0\u0cbf",
          "name:en": "Coastal Bay - Non Veg",
          "name:kn": "\u0c95\u0ccb\u0cb8\u0ccd\u0c9f\u0cb2\u0ccd \u0cac\u0cc7 - \u0cae\u0cbe\u0c82\u0cb8\u0cbe\u0cb9\u0cbe\u0cb0\u0cbf"
        }
      },
      {
        "type": "node",
        "id": 4849094826,
        "lat": 12.935018,
        "lon": 77.6088654,
        "tags": {
          "amenity": "restaurant",
          "name": "Punjabi by Nature",
          "name:en": "Punjabi by Nature"
        }
      },
      {
        "type": "node",
        "id": 4849094827,
        "lat": 12.9354982,
        "lon": 77.6089438,
        "tags": {
          "amenity": "fast_food",
          "name": "Sip N Snacks",
          "name:en": "Sip N Snacks"
        }
      },
      {
        "type": "node",
        "id": 4849094828,
        "lat": 12.9353203,
        "lon": 77.6090576,
        "tags": {
          "amenity": "fast_food",
          "name": "Salads and Grill's",
          "name:en": "Salads and Grill's"
        }
      },
      {
        "type": "node",
        "id": 4849108623,
        "lat": 12.9355551,
        "lon": 77.608926,
        "tags": {
          "amenity": "restaurant",
          "name": "The Royal Pride",
          "name:en": "The Royal Pride"
        }
      },
      {
        "type": "node",
        "id": 4849108624,
        "lat": 12.9352983,
        "lon": 77.6091104,
        "tags": {
          "amenity": "atm",
          "brand": "South Indian Bank",
          "brand:wikidata": "Q2044973",
          "name": "South Indian Bank",
          "operator": "South Indian Bank",
          "operator:wikidata": "Q2044973"
        }
      },
      {
        "type": "node",
        "id": 4849108921,
        "lat": 12.9353982,
        "lon": 77.6090182,
        "tags": {
          "amenity": "restaurant",
          "name": "Forum Park",
          "name:en": "Forum Park"
        }
      },
      {
        "type": "node",
        "id": 5029379019,
        "lat": 12.9345723,
        "lon": 77.6199541,
        "tags": {
          "addr:city": "Bangalore",
          "addr:housenumber": "#462",
          "addr:postcode": "560095",
          "addr:street": "17 C Cross",
          "amenity": "restaurant",
          "name": "Naati Manae",
          "outdoor_seating": "no"
        }
      },
      {
        "type": "node",
        "id": 5036131084,
        "lat": 12.9336798,
        "lon": 77.6222761,
        "tags": {
          "amenity": "restaurant",
          "cuisine": "indian",
          "name": "Casinova",
          "phone": "080-25526363",
          "website": "http://bonsouth.com"
        }
      },
      {
        "type": "node",
        "id": 5036138595,
        "lat": 12.9334968,
        "lon": 77.6212815,
        "tags": {
          "amenity": "cafe",
          "name": "Java City"
        }
      },
      {
        "type": "node",
        "id": 5396222724,
        "lat": 12.9340385,
        "lon": 77.6122448,
        "tags": {
          "amenity": "bank",
          "atm": "yes",
          "brand": "UCO Bank",
          "brand:wikidata": "Q2005310",
          "name": "UCO Bank"
        }
      },
      {
        "type": "node",
        "id": 5402224037,
        "lat": 12.9417037,
        "lon": 77.6085642,
        "tags": {
          "amenity": "bank",
          "atm": "yes",
          "brand": "Bank of Baroda",
          "brand:wikidata": "Q2003797",
          "name": "Bank of Baroda",
          "name:kn": "\u0cac\u0ccd\u0caf\u0cbe\u0c82\u0c95\u0ccd \u0c86\u0cab\u0ccd \u0cac\u0cb0\u0ccb\u0ca1",
          "operator": "Bank of Baroda"
        }
      },
      {
        "type": "node",
        "id": 5597795472,
        "lat": 12.9353554,
        "lon": 77.6075043,
        "tags": {
          "amenity": "fast_food",
          "name": "Just Shawarma",
          "smoking": "separated",
          "takeaway": "yes"
        }
      },
      {
        "type": "node",
        "id": 5915195084,
        "lat": 12.9347403,
        "lon": 77.6126656,
        "tags": {
          "amenity": "cafe",
          "name": "MDP Coffee shop"
        }
      },
      {
        "type": "node",
        "id": 5915195090,
        "lat": 12.9360905,
        "lon": 77.616131,
        "tags": {
          "amenity": "restaurant",
          "name": "Bamey's"
        }
      },
      {
        "type": "node",
        "id": 5915195092,
        "lat": 12.9362087,
        "lon": 77.616947,
        "tags": {
          "amenity": "hospital",
          "healthcare": "hospital",
          "name": "Aparna Hospital"
        }
      },
      {
        "type": "node",
        "id": 5915230906,
        "lat": 12.9341518,
        "lon": 77.6234672,
        "tags": {
          "amenity": "atm",
          "operator": "ICICI Bank ATM"
        }
      },
      {
        "type": "node",
        "id": 5915247700,
        "lat": 12.9329338,
        "lon": 77.6145578,
        "tags": {
          "amenity": "cafe",
          "name": "Tarbouche"
        }
      },
      {
        "type": "node",
        "id": 5915409395,
        "lat": 12.9353243,
        "lon": 77.6146417,
        "tags": {
          "amenity": "bank",
          "name": "The National Co-operative Bank"
        }
      },
      {
        "type": "node",
        "id": 5915409397,
        "lat": 12.9348404,
        "lon": 77.6162173,
        "tags": {
          "amenity": "restaurant",
          "name": "House of Commons"
        }
      },
      {
        "type": "node",
        "id": 5915409398,
        "lat": 12.9337996,
        "lon": 77.6159147,
        "tags": {
          "name": "Tibet Mall",
          "shop": "mall"
        }
      },
      {
        "type": "node",
        "id": 5915409400,
        "lat": 12.9341641,
        "lon": 77.6166913,
        "tags": {
          "amenity": "restaurant",
          "name": "Juice Junction"
        }
      },
      {
        "type": "node",
        "id": 5915409401,
        "lat": 12.9339899,
        "lon": 77.6170683,
        "tags": {
          "amenity": "cafe",
          "name": "Hatti Kaapi"
        }
      },
      {
        "type": "node",
        "id": 5915409411,
        "lat": 12.9338175,
        "lon": 77.6201615,
        "tags": {
          "amenity": "hospital",
          "healthcare": "hospital",
          "name": "Apollo Spectra Hospitals"
        }
      },
      {
        "type": "node",
        "id": 6067927667,
        "lat": 12.9354619,
        "lon": 77.6150961,
        "tags": {
          "addr:housenumber": "8",
          "addr:street": "80 Feet Road",
          "amenity": "restaurant",
          "cuisine": "asian",
          "level": "0;1",
          "name": "Xoox Brewmill",
          "smoking": "isolated",
          "toilets": "yes"
        }
      },
      {
        "type": "node",
        "id": 6140714666,
        "lat": 12.9353589,
        "lon": 77.6083993,
        "tags": {
          "amenity": "fast_food",
          "brand": "Domino's",
          "brand:ks": "\u0688\u0648\u0645\u06cc\u0646\u0648\u0632",
          "brand:pa": "\u0a21\u0a4b\u0a2e\u0a40\u0a28\u0a4b\u0a1c\u0a3c",
          "brand:ur": "\u0688\u0648\u0645\u06cc\u0646\u0648\u0632",
          "brand:wikidata": "Q839466",
          "brand:wikipedia": "en:Domino's Pizza",
          "check_date": "2023-11-23",
          "cuisine": "pizza",
          "name": "Domino's",
          "name:kn": "\u0ca1\u0cbe\u0cae\u0cbf\u0ca8\u0ccb\u0cb8\u0ccd",
          "name:ks": "\u0688\u0648\u0645\u06cc\u0646\u0648\u0632",
          "name:pa": "\u0a21\u0a4b\u0a2e\u0a40\u0a28\u0a4b\u0a1c\u0a3c",
          "name:ur": "\u0688\u0648\u0645\u06cc\u0646\u0648\u0632",
          "takeaway": "yes"
        }
      },
      {
        "type": "node",
        "id": 6938704941,
        "lat": 12.941871,
        "lon": 77.6081394,
        "tags": {
          "addr:district": "Bengaluru Urban",
          "addr:full": "No.44/22,Srinivasa Complex, Najjappa Layout,Hosur Road, Adugodi",
          "addr:postcode": "560030",
          "addr:state": "Karnataka",
          "amenity": "clinic",
          "name": "Sankalpa Nursing Home",
          "source": "OpenGovernmentData"
        }
      },
      {
        "type": "node",
        "id": 6938759412,
        "lat": 12.9339097,
        "lon": 77.620208,
        "tags": {
          "addr:district": "Bengaluru Urban",
          "addr:full": "Opus, 143, 1st Cross, 5th Block, Koramangala",
          "addr:postcode": "560034",
          "addr:state": "Karnataka",
          "amenity": "hospital",
          "email": "info@novamedicalcenters.com",
          "healthcare:speciality": "multi speciality",
          "name": "Nova Specialty Surgery Center, Koramangala",
          "operator:type": "private",
          "source": "OpenGovernmentData",
          "website": "www.novaspecialtysurgery.com"
        }
      },
      {
        "type": "node",
        "id": 6939445234,
        "lat": 12.9343279,
        "lon": 77.6228848,
        "tags": {
          "addr:district": "Bengaluru Urban",
          "addr:full": "# 88, 17th, A Main, 2nd Cross, 5th Block, Koramangala",
          "addr:postcode": "560095",
          "addr:state": "Karnataka",
          "amenity": "hospital",
          "healthcare:speciality": "Clinical Labs; Diagnosis; Medical Oncology; Radiation oncology; Surgical Oncology",
          "name": "HCG, Koramangala",
          "operator:type": "private",
          "source": "OpenGovernmentData",
          "website": "https://www.hcgoncology.com/"
        }
      },
      {
        "type": "node",
        "id": 6944525392,
        "lat": 12.9356703,
        "lon": 77.6079905,
        "tags": {
          "addr:district": "Bengaluru Urban",
          "addr:full": "#11, Krishna Nagar Industrial Layout, D.R.C.Post,Near Christ College,Hosur",
          "addr:postcode": "560029",
          "addr:state": "Karnataka",
          "amenity": "hospital",
          "name": "Prasad Eye Hospital, Bengaluru Urban",
          "source": "OpenGovernmentData"
        }
      },
      {
        "type": "node",
        "id": 7035372785,
        "lat": 12.9314962,
        "lon": 77.609838,
        "tags": {
          "amenity": "restaurant",
          "cuisine": "chinese;chicken;asian;indian",
          "name": "BNG Dining",
          "phone": "7259452829"
        }
      },
      {
        "type": "node",
        "id": 7293804847,
        "lat": 12.9329058,
        "lon": 77.6134662,
        "tags": {
          "amenity": "restaurant",
          "cuisine": "indian",
          "name": "Taste of Rampur"
        }
      },
      {
        "type": "node",
        "id": 8428403226,
        "lat": 12.9305937,
        "lon": 77.6186159,
        "tags": {
          "amenity": "hospital",
          "healthcare": "hospital",
          "name": "St. Johns hospital Emergency ward"
        }
      },
      {
        "type": "node",
        "id": 8645272055,
        "lat": 12.9333892,
        "lon": 77.6156339,
        "tags": {
          "amenity": "cafe",
          "currency:BCH": "yes",
          "name": "Candy Cloud",
          "website": "https://candycloudfactory.in"
        }
      },
      {
        "type": "node",
        "id": 9654389704,
        "lat": 12.9332287,
        "lon": 77.6146102,
        "tags": {
          "amenity": "restaurant",
          "name": "Sharief Bhai"
        }
      },
      {
        "type": "node",
        "id": 10068956723,
        "lat": 12.9344223,
        "lon": 77.6161086,
        "tags": {
          "amenity": "fast_food",
          "cuisine": "ice_cream;juice",
          "name": "Frozen Bottle"
        }
      },
      {
        "type": "node",
        "id": 10068956759,
        "lat": 12.933337,
        "lon": 77.6226923,
        "tags": {
          "amenity": "restaurant",
          "name": "La Arabia"
        }
      },
      {
        "type": "node",
        "id": 10068956760,
        "lat": 12.9338428,
        "lon": 77.6197996,
        "tags": {
          "amenity": "cafe",
          "name": "What's In a Name"
        }
      },
      {
        "type": "node",
        "id": 10068956762,
        "lat": 12.9334588,
        "lon": 77.6210465,
        "tags": {
          "amenity": "restaurant",
          "cuisine": "regional;indian",
          "diet:vegetarian": "yes",
          "name": "Moplah's",
          "outdoor_seating": "yes"
        }
      },
      {
        "type": "node",
        "id": 10068956764,
        "lat": 12.9334854,
        "lon": 77.6210369,
        "tags": {
          "amenity": "restaurant",
          "level": "1",
          "name": "Basaveshwar Khanavali",
          "outdoor_seating": "yes"
        }
      },
      {
        "type": "node",
        "id": 10068956765,
        "lat": 12.9334799,
        "lon": 77.621003,
        "tags": {
          "amenity": "restaurant",
          "cuisine": "indian;regional",
          "level": "0",
          "name": "Cafe Malabars",
          "outdoor_seating": "yes"
        }
      },
      {
        "type": "node",
        "id": 10068956766,
        "lat": 12.9333552,
        "lon": 77.6224709,
        "tags": {
          "amenity": "clinic",
          "healthcare": "clinic",
          "healthcare:speciality": "dermatology",
          "name": "Skinsi"
        }
      },
      {
        "type": "node",
        "id": 10068956767,
        "lat": 12.9333754,
        "lon": 77.6224577,
        "tags": {
          "amenity": "clinic",
          "healthcare": "clinic",
          "healthcare:speciality": "dentist",
          "name": "Toothsi"
        }
      },
      {
        "type": "node",
        "id": 10068956768,
        "lat": 12.9336927,
        "lon": 77.6224652,
        "tags": {
          "amenity": "restaurant",
          "cuisine": "chinese;thai",
          "name": "Tim Tai"
        }
      },
      {
        "type": "node",
        "id": 10068956817,
        "lat": 12.9388287,
        "lon": 77.6189463,
        "tags": {
          "amenity": "bank",
          "brand": "IndusInd Bank",
          "brand:wikidata": "Q2040323",
          "name": "IndusInd Bank",
          "name:kn": "\u0c87\u0c82\u0ca1\u0cb8\u0ccd\u0c87\u0c82\u0ca1\u0ccd"
        }
      },
      {
        "type": "node",
        "id": 10068956858,
        "lat": 12.9404955,
        "lon": 77.6200555,
        "tags": {
          "amenity": "bank",
          "brand": "IDFC First Bank",
          "brand:wikidata": "Q22031467",
          "name": "IDFC First Bank"
        }
      },
      {
        "type": "node",
        "id": 10068956859,
        "lat": 12.9407577,
        "lon": 77.6202069,
        "tags": {
          "amenity": "cafe",
          "name": "Blue Tokai"
        }
      },
      {
        "type": "node",
        "id": 10220802211,
        "lat": 12.9342205,
        "lon": 77.617012,
        "tags": {
          "amenity": "cafe",
          "name": "Atta Galatta",
          "shop": "books"
        }
      },
      {
        "type": "node",
        "id": 10302658789,
        "lat": 12.9364556,
        "lon": 77.6162683,
        "tags": {
          "amenity": "restaurant",
          "cuisine": "regional",
          "name": "Bombay Adda"
        }
      },
      {
        "type": "node",
        "id": 10302658790,
        "lat": 12.9362755,
        "lon": 77.6156791,
        "tags": {
          "amenity": "fast_food",
          "brand": "Popeyes",
          "brand:wikidata": "Q1330910",
          "brand:wikipedia": "en:Popeyes",
          "cuisine": "chicken",
          "delivery": "yes",
          "name": "Popeyes",
          "official_name": "Popeyes Louisiana Kitchen",
          "takeaway": "yes",
          "website": "https://www.popeyes.in/"
        }
      },
      {
        "type": "node",
        "id": 10695242204,
        "lat": 12.9351187,
        "lon": 77.6226367,
        "tags": {
          "addr:city": "Bangalore",
          "addr:country": "IN",
          "addr:hamlet": "Koramangala 5th Block",
          "addr:housename": "Peace Vill",
          "addr:housenumber": "23",
          "addr:postcode": "560095",
          "addr:street": "5th Cross Road",
          "addr:suburb": "Koramangala",
          "amenity": "restaurant",
          "contact:instagram": "maffeikitchen",
          "contact:twitter": "maffeikitchen",
          "contact:youtube": "UCg5ynIWr7V6lmRXtqctwG3Q",
          "cuisine": "mediterranean",
          "delivery": "yes",
          "name": "Maffei Kitchen",
          "opening_hours": "11:00-23:00",
          "phone": "+91 8005471058",
          "takeaway": "yes",
          "website": "https://www.maffei.in/"
        }
      },
      {
        "type": "node",
        "id": 10728008690,
        "lat": 12.9342717,
        "lon": 77.6167694,
        "tags": {
          "amenity": "restaurant",
          "delivery": "yes",
          "name": "Terra Bites",
          "takeaway": "yes"
        }
      },
      {
        "type": "node",
        "id": 10728008691,
        "lat": 12.9374388,
        "lon": 77.6176518,
        "tags": {
          "amenity": "restaurant",
          "cuisine": "regional",
          "name": "Malgudi Mylari Mane",
          "website": "http://www.malgudimylari.com/"
        }
      },
      {
        "type": "node",
        "id": 10728008694,
        "lat": 12.9337097,
        "lon": 77.6156616,
        "tags": {
          "amenity": "fast_food",
          "cuisine": "regional",
          "delivery": "yes",
          "name": "IDC",
          "takeaway": "yes"
        }
      },
      {
        "type": "node",
        "id": 10728008695,
        "lat": 12.9370153,
        "lon": 77.6202241,
        "tags": {
          "amenity": "restaurant",
          "cuisine": "regional",
          "diet:vegetarian": "only",
          "name": "Sendhoor Coffee",
          "opening_hours": "Mo-Su 10:00-22:00",
          "wheelchair": "no"
        }
      },
      {
        "type": "node",
        "id": 10728008696,
        "lat": 12.9333868,
        "lon": 77.6223524,
        "tags": {
          "amenity": "cafe",
          "contact:facebook": "theteatoastco",
          "contact:instagram": "theteatoastco",
          "contact:twitter": "TheTeaToastCo",
          "delivery": "yes",
          "name": "The Tea Toast Co.",
          "takeaway": "yes",
          "website": "https://www.theteatoastco.in"
        }
      },
      {
        "type": "node",
        "id": 11036798846,
        "lat": 12.9400467,
        "lon": 77.6179642,
        "tags": {
          "amenity": "pharmacy",
          "healthcare": "pharmacy",
          "name": "Roots Pharma"
        }
      },
      {
        "type": "node",
        "id": 11041699824,
        "lat": 12.9378285,
        "lon": 77.6177291,
        "tags": {
          "amenity": "restaurant",
          "name": "Cafe A Paris"
        }
      },
      {
        "type": "node",
        "id": 11096390238,
        "lat": 12.9346233,
        "lon": 77.62302,
        "tags": {
          "amenity": "restaurant",
          "name": "The Doner Company"
        }
      },
      {
        "type": "node",
        "id": 11096390239,
        "lat": 12.9345149,
        "lon": 77.6232464,
        "tags": {
          "amenity": "restaurant",
          "name": "De Shack"
        }
      },
      {
        "type": "node",
        "id": 11096390254,
        "lat": 12.9354458,
        "lon": 77.6212553,
        "tags": {
          "amenity": "restaurant",
          "name": "Shyamji's Chole Bature"
        }
      },
      {
        "type": "node",
        "id": 11096390255,
        "lat": 12.9358867,
        "lon": 77.6214265,
        "tags": {
          "amenity": "restaurant",
          "name": "Chaska Bun"
        }
      },
      {
        "type": "node",
        "id": 11096390256,
        "lat": 12.9356285,
        "lon": 77.6210394,
        "tags": {
          "amenity": "cafe",
          "name": "Fresh Pressery"
        }
      },
      {
        "type": "node",
        "id": 11096390281,
        "lat": 12.9337599,
        "lon": 77.6188292,
        "tags": {
          "amenity": "restaurant",
          "name": "Churoland"
        }
      },
      {
        "type": "node",
        "id": 11096390284,
        "lat": 12.9338788,
        "lon": 77.6175708,
        "tags": {
          "amenity": "fast_food",
          "name": "The Chatpata Affair",
          "website": "https://www.chatpataaffair.com/"
        }
      },
      {
        "type": "node",
        "id": 11096390285,
        "lat": 12.9341198,
        "lon": 77.6169953,
        "tags": {
          "amenity": "cafe",
          "name": "Jalandhar Sweets"
        }
      },
      {
        "type": "node",
        "id": 11096390286,
        "lat": 12.9340561,
        "lon": 77.6169989,
        "tags": {
          "amenity": "bank",
          "brand": "RBL Bank",
          "brand:wikidata": "Q13120398",
          "name": "RBL Bank"
        }
      },
      {
        "type": "node",
        "id": 11096397009,
        "lat": 12.9340007,
        "lon": 77.6155974,
        "tags": {
          "amenity": "restaurant",
          "name": "Marcopolo"
        }
      },
      {
        "type": "node",
        "id": 11096818319,
        "lat": 12.9337796,
        "lon": 77.6214948,
        "tags": {
          "amenity": "restaurant",
          "brand": "PizzaExpress",
          "brand:wikidata": "Q662845",
          "cuisine": "pizza",
          "name": "PizzaExpress"
        }
      },
      {
        "type": "node",
        "id": 11096818320,
        "lat": 12.9334333,
        "lon": 77.6216543,
        "tags": {
          "amenity": "fast_food",
          "cuisine": "pizza",
          "delivery": "only",
          "name": "Fermentation Stories",
          "takeaway": "only"
        }
      },
      {
        "type": "node",
        "id": 11155827456,
        "lat": 12.9326464,
        "lon": 77.6135955,
        "tags": {
          "addr:city": "Bangalore",
          "addr:street": "Hosur Road",
          "amenity": "fast_food",
          "brand": "Subway",
          "brand:wikidata": "Q244457",
          "cuisine": "sandwich",
          "name": "Subway",
          "takeaway": "yes"
        }
      },
      {
        "type": "node",
        "id": 11155827457,
        "lat": 12.9326637,
        "lon": 77.6139282,
        "tags": {
          "addr:city": "Bangalore",
          "addr:street": "Jyoti Nivas College Road",
          "amenity": "restaurant",
          "name": "Spiceguard"
        }
      },
      {
        "type": "node",
        "id": 11257087553,
        "lat": 12.9346348,
        "lon": 77.6158725,
        "tags": {
          "amenity": "restaurant",
          "name": "Absolute Barbeque"
        }
      },
      {
        "type": "node",
        "id": 11257087558,
        "lat": 12.9346423,
        "lon": 77.6159362,
        "tags": {
          "amenity": "restaurant",
          "name": "Star Briyani"
        }
      },
      {
        "type": "node",
        "id": 11277885671,
        "lat": 12.936282,
        "lon": 77.6225938,
        "tags": {
          "amenity": "restaurant",
          "contact:instagram": "ferrara.in",
          "cuisine": "italian",
          "name": "Ferrara",
          "toilets": "yes"
        }
      },
      {
        "type": "node",
        "id": 11277885676,
        "lat": 12.935039,
        "lon": 77.6161015,
        "tags": {
          "amenity": "cafe",
          "contact:instagram": "avocadosandbrownies.in",
          "name": "Avocados and Brownies"
        }
      },
      {
        "type": "node",
        "id": 11295513143,
        "lat": 12.93639,
        "lon": 77.6160951,
        "tags": {
          "amenity": "atm",
          "brand": "HDFC Bank",
          "brand:wikidata": "Q631047",
          "operator": "HDFC Bank",
          "operator:wikidata": "Q631047",
          "short_name": "HDFC"
        }
      },
      {
        "type": "node",
        "id": 11295513144,
        "lat": 12.9363537,
        "lon": 77.6159818,
        "tags": {
          "amenity": "atm",
          "brand": "Federal Bank",
          "brand:wikidata": "Q2044983",
          "operator": "Federal Bank",
          "operator:wikidata": "Q2044983"
        }
      },
      {
        "type": "node",
        "id": 11295513147,
        "lat": 12.9363489,
        "lon": 77.6159468,
        "tags": {
          "amenity": "bank",
          "branch": "Koramangala",
          "brand": "Federal Bank",
          "brand:wikidata": "Q2044983",
          "level": "0",
          "name": "Federal Bank"
        }
      },
      {
        "type": "node",
        "id": 11295513149,
        "lat": 12.9364799,
        "lon": 77.6168107,
        "tags": {
          "amenity": "restaurant",
          "contact:mobile": "+91-81050-48582",
          "name": "Hoy Punjab"
        }
      },
      {
        "type": "node",
        "id": 11295513152,
        "lat": 12.9360921,
        "lon": 77.6155067,
        "tags": {
          "amenity": "fast_food",
          "name": "Biryani Blues"
        }
      },
      {
        "type": "node",
        "id": 11295513155,
        "lat": 12.9363255,
        "lon": 77.6158017,
        "tags": {
          "amenity": "restaurant",
          "name": "Babylonia"
        }
      },
      {
        "type": "node",
        "id": 11295513156,
        "lat": 12.9364148,
        "lon": 77.6161388,
        "tags": {
          "amenity": "bank",
          "branch": "Koramangala Main",
          "brand": "HDFC Bank",
          "brand:wikidata": "Q631047",
          "name": "HDFC Bank",
          "name:kn": "\u0c8e\u0c9a\u0ccd \u0ca1\u0cbf \u0c8e\u0cab\u0ccd \u0cb8\u0cbf",
          "short_name": "HDFC"
        }
      },
      {
        "type": "node",
        "id": 11371245252,
        "lat": 12.9349058,
        "lon": 77.609149,
        "tags": {
          "amenity": "bank",
          "brand": "Axis Bank",
          "brand:wikidata": "Q2003549",
          "check_date": "2023-11-23",
          "name": "Axis Bank"
        }
      },
      {
        "type": "node",
        "id": 11371245253,
        "lat": 12.9352891,
        "lon": 77.6085432,
        "tags": {
          "amenity": "fast_food",
          "brand": "Subway",
          "brand:wikidata": "Q244457",
          "check_date": "2023-11-23",
          "cuisine": "sandwich",
          "name": "Subway",
          "takeaway": "yes"
        }
      },
      {
        "type": "node",
        "id": 11396013057,
        "lat": 12.9346055,
        "lon": 77.6168873,
        "tags": {
          "amenity": "restaurant",
          "name": "chai sutta bar"
        }
      },
      {
        "type": "node",
        "id": 11396013058,
        "lat": 12.9347048,
        "lon": 77.6167408,
        "tags": {
          "amenity": "restaurant",
          "name": "Smoky Docky"
        }
      },
      {
        "type": "node",
        "id": 11396038127,
        "lat": 12.9351034,
        "lon": 77.611625,
        "tags": {
          "addr:city": "Bangalore",
          "addr:housename": "Forum Mall",
          "addr:street": "Hosur Road",
          "amenity": "fast_food",
          "name": "Samosa Party",
          "takeaway": "yes",
          "wheelchair": "yes"
        }
      },
      {
        "type": "node",
        "id": 11398011945,
        "lat": 12.9390758,
        "lon": 77.6191481,
        "tags": {
          "amenity": "cafe",
          "branch": "Koramangala",
          "brand": "Chaayos",
          "brand:wikidata": "Q117235235",
          "cuisine": "tea",
          "name": "Chaayos",
          "takeaway": "yes"
        }
      },
      {
        "type": "node",
        "id": 11398011946,
        "lat": 12.9394664,
        "lon": 77.6193423,
        "tags": {
          "amenity": "cafe",
          "brand": "Tim Hortons",
          "brand:wikidata": "Q175106",
          "cuisine": "coffee_shop",
          "name": "Tim Hortons",
          "takeaway": "yes"
        }
      },
      {
        "type": "node",
        "id": 11398011947,
        "lat": 12.939072,
        "lon": 77.6180094,
        "tags": {
          "amenity": "restaurant",
          "name": "Bonito Bistro"
        }
      },
      {
        "type": "node",
        "id": 11398011948,
        "lat": 12.9390011,
        "lon": 77.6179869,
        "tags": {
          "amenity": "restaurant",
          "cuisine": "punjabi",
          "name": "Amritsari"
        }
      },
      {
        "type": "node",
        "id": 11398011950,
        "lat": 12.9381608,
        "lon": 77.6177663,
        "tags": {
          "amenity": "restaurant",
          "cuisine": "rajasthani",
          "name": "Thar - Rajasthani Restaurant"
        }
      },
      {
        "type": "node",
        "id": 11542817233,
        "lat": 12.9365027,
        "lon": 77.6070849,
        "tags": {
          "amenity": "fast_food",
          "brand": "Indira Canteen",
          "brand:wikidata": "Q36164828",
          "cuisine": "south_indian",
          "name": "Indira Canteen",
          "operator": "BBMP",
          "takeaway": "yes"
        }
      },
      {
        "type": "node",
        "id": 11739418608,
        "lat": 12.9348122,
        "lon": 77.612678,
        "tags": {
          "amenity": "restaurant",
          "cuisine": "tibetan",
          "name": "Tibetan Mother's Kitchen"
        }
      },
      {
        "type": "node",
        "id": 11770650943,
        "lat": 12.9375779,
        "lon": 77.6191715,
        "tags": {
          "amenity": "restaurant",
          "check_date": "2024-03-29",
          "cuisine": "pizza",
          "name": "Fiero Pizza"
        }
      },
      {
        "type": "node",
        "id": 11915646724,
        "lat": 12.9333446,
        "lon": 77.6223642,
        "tags": {
          "addr:postcode": "560095",
          "amenity": "restaurant",
          "cuisine": "thai",
          "diet:vegetarian": "yes",
          "email": "tuktukthai.blr@gmail.com",
          "name": "Tuk Tuk Thai",
          "phone": "+91 080 48526265",
          "website": "https://www.tuktukthai.in/"
        }
      },
      {
        "type": "node",
        "id": 12020411693,
        "lat": 12.9371283,
        "lon": 77.6143212,
        "tags": {
          "addr:housenumber": "72",
          "addr:street": "4th cross 7th block",
          "amenity": "restaurant",
          "name": "God's own cafe",
          "opening_hours": "Tu-Su 12:30-15:00,19:30-22:00"
        }
      },
      {
        "type": "node",
        "id": 12030715034,
        "lat": 12.9336933,
        "lon": 77.622146,
        "tags": {
          "amenity": "restaurant",
          "check_date": "2024-07-03",
          "name": "Mahe Global Kitchen"
        }
      },
      {
        "type": "node",
        "id": 12041051350,
        "lat": 12.9326835,
        "lon": 77.6137535,
        "tags": {
          "amenity": "restaurant",
          "name": "Ayutthaya cuisines of India"
        }
      },
      {
        "type": "node",
        "id": 12041067182,
        "lat": 12.9328303,
        "lon": 77.6139704,
        "tags": {
          "amenity": "cafe",
          "name": "Kannu Ki Chai",
          "outdoor_seating": "yes"
        }
      },
      {
        "type": "node",
        "id": 12061239754,
        "lat": 12.9340508,
        "lon": 77.6196507,
        "tags": {
          "amenity": "restaurant",
          "contact:instagram": "romadeliblr",
          "cuisine": "italian",
          "delivery": "yes",
          "name": "Roma Italian Deli",
          "takeaway": "yes"
        }
      },
      {
        "type": "node",
        "id": 12129019639,
        "lat": 12.9408358,
        "lon": 77.6202589,
        "tags": {
          "amenity": "cafe",
          "delivery": "no",
          "name": "The Peck",
          "takeaway": "yes"
        }
      },
      {
        "type": "node",
        "id": 12155310940,
        "lat": 12.9337842,
        "lon": 77.6224798,
        "tags": {
          "addr:city": "Bengaluru",
          "addr:country": "IN",
          "addr:suburb": "Koramangala",
          "amenity": "restaurant",
          "contact:instagram": "https://www.instagram.com/thefiltercoffee.in",
          "cuisine": "south_indian",
          "delivery": "yes",
          "diet:vegetarian": "yes",
          "name": "The Filter Coffee",
          "payment:credit_cards": "yes",
          "payment:debit_cards": "yes",
          "takeaway": "yes",
          "wheelchair": "no"
        }
      },
      {
        "type": "node",
        "id": 12162201547,
        "lat": 12.9393477,
        "lon": 77.6192653,
        "tags": {
          "amenity": "restaurant",
          "check_date": "2024-09-07",
          "cuisine": "regional;indian",
          "name": "Dindigul Ponram",
          "payment:cash": "yes",
          "payment:credit_cards": "yes",
          "payment:debit_cards": "yes"
        }
      },
      {
        "type": "node",
        "id": 12164866909,
        "lat": 12.9370365,
        "lon": 77.6196493,
        "tags": {
          "amenity": "restaurant",
          "cuisine": "keralite",
          "level": "0",
          "name": "Kuttanad Restaurant",
          "tables": "10",
          "toilets": "yes",
          "wheelchair": "no"
        }
      },
      {
        "type": "node",
        "id": 12164866913,
        "lat": 12.9364604,
        "lon": 77.6166936,
        "tags": {
          "air_conditioning": "yes",
          "amenity": "restaurant",
          "level": "0",
          "name": "Saaras Caf\u00e9"
        }
      },
      {
        "type": "node",
        "id": 12178338601,
        "lat": 12.9331657,
        "lon": 77.6139128,
        "tags": {
          "addr:housenumber": "28",
          "addr:postcode": "560034",
          "addr:street": "4th B Cross Road",
          "amenity": "cafe",
          "cuisine": "coffee_shop;international",
          "name": "Gully Coffee Roasters",
          "opening_hours": "Mo-Su 11:00-23:00",
          "outdoor_seating": "yes",
          "website:menu": "https://gullycoffeeroasters.dotpe.in"
        }
      },
      {
        "type": "node",
        "id": 12247812583,
        "lat": 12.9393619,
        "lon": 77.6094321,
        "tags": {
          "amenity": "restaurant",
          "cuisine": "chinese"
        }
      },
      {
        "type": "node",
        "id": 12247812584,
        "lat": 12.9392802,
        "lon": 77.6094704,
        "tags": {
          "amenity": "bank",
          "atm": "yes",
          "brand": "ICICI Bank",
          "brand:wikidata": "Q1653258",
          "name": "ICICI Bank",
          "short_name": "ICICI"
        }
      },
      {
        "type": "node",
        "id": 12260570041,
        "lat": 12.9421337,
        "lon": 77.6219393,
        "tags": {
          "amenity": "restaurant",
          "name": "Yara Cafe"
        }
      },
      {
        "type": "node",
        "id": 12285338810,
        "lat": 12.9355353,
        "lon": 77.6082518,
        "tags": {
          "amenity": "fast_food",
          "brand": "Domino's",
          "brand:wikidata": "Q839466",
          "check_date": "2024-10-23",
          "cuisine": "pizza",
          "name": "Domino's",
          "takeaway": "yes"
        }
      },
      {
        "type": "node",
        "id": 12285338811,
        "lat": 12.9333391,
        "lon": 77.6110527,
        "tags": {
          "amenity": "atm",
          "brand": "HDFC Bank",
          "brand:wikidata": "Q631047",
          "check_date": "2024-10-23",
          "operator": "HDFC Bank",
          "operator:wikidata": "Q631047",
          "short_name": "HDFC"
        }
      },
      {
        "type": "node",
        "id": 12285662757,
        "lat": 12.9337934,
        "lon": 77.6197867,
        "tags": {
          "amenity": "restaurant",
          "name": "Cafe Amudham"
        }
      },
      {
        "type": "node",
        "id": 12285673035,
        "lat": 12.9336313,
        "lon": 77.6226322,
        "tags": {
          "amenity": "restaurant",
          "name": "The Filter Coffee"
        }
      },
      {
        "type": "node",
        "id": 12294001113,
        "lat": 12.9347344,
        "lon": 77.6112226,
        "tags": {
          "amenity": "fast_food",
          "contact:instagram": "goodflippin",
          "cuisine": "burger",
          "delivery": "yes",
          "name": "Good Flippin' Burgers",
          "takeaway": "yes",
          "website": "https://goodflippin.com/"
        }
      },
      {
        "type": "node",
        "id": 12432736252,
        "lat": 12.9365501,
        "lon": 77.6150659,
        "tags": {
          "addr:city": "Bengaluru",
          "addr:country": "IN",
          "addr:housenumber": "64",
          "addr:street": "1st Main Road",
          "addr:suburb": "Koramangala",
          "amenity": "restaurant",
          "contact:instagram": "sinonnas",
          "cuisine": "pizza",
          "delivery": "yes",
          "name": "Si Nonna's",
          "reservation": "yes",
          "takeaway": "yes",
          "toilets": "yes",
          "website": "https://sinonnas.com/"
        }
      },
      {
        "type": "node",
        "id": 12512224856,
        "lat": 12.9334666,
        "lon": 77.6208718,
        "tags": {
          "amenity": "restaurant",
          "name": "Kritunga The Palegar's Cuisine"
        }
      },
      {
        "type": "node",
        "id": 12526156587,
        "lat": 12.9338133,
        "lon": 77.6158653,
        "tags": {
          "addr:city": "Bangalore",
          "addr:housenumber": "55",
          "addr:postcode": "560095",
          "addr:street": "Jyoti Nivas College Road",
          "amenity": "restaurant",
          "branch": "& Restaurant",
          "brand": "Indian Coffee House",
          "brand:wikidata": "Q3595301",
          "cuisine": "coffee_shop;indian",
          "name": "Indian Coffee House"
        }
      },
      {
        "type": "node",
        "id": 12541018910,
        "lat": 12.9313727,
        "lon": 77.6160967,
        "tags": {
          "amenity": "cafe",
          "check_date": "2025-01-29",
          "name": "Ola Farzi Cafe"
        }
      },
      {
        "type": "node",
        "id": 12550773109,
        "lat": 12.9361615,
        "lon": 77.6224708,
        "tags": {
          "addr:city": "Bangalore",
          "addr:district": "Bengaluru Urban",
          "addr:housenumber": "74",
          "addr:postcode": "560095",
          "addr:street": "17th E Main Road",
          "amenity": "restaurant",
          "cuisine": "turkish",
          "name": "Kebapci"
        }
      },
      {
        "type": "node",
        "id": 12862846438,
        "lat": 12.9337424,
        "lon": 77.6186976,
        "tags": {
          "amenity": "fast_food",
          "cuisine": "burger",
          "delivery": "yes",
          "name": "Original Burger Co.",
          "takeaway": "yes"
        }
      },
      {
        "type": "node",
        "id": 12862846443,
        "lat": 12.9352844,
        "lon": 77.6137299,
        "tags": {
          "amenity": "fast_food",
          "cuisine": "burger",
          "delivery": "yes",
          "name": "Boss Burger",
          "takeaway": "yes"
        }
      },
      {
        "type": "node",
        "id": 12862846462,
        "lat": 12.9347823,
        "lon": 77.6158283,
        "tags": {
          "amenity": "fast_food",
          "cuisine": "burger",
          "delivery": "yes",
          "name": "Easy Bites by Empire",
          "takeaway": "yes"
        }
      },
      {
        "type": "node",
        "id": 12862846474,
        "lat": 12.9344461,
        "lon": 77.611403,
        "tags": {
          "amenity": "fast_food",
          "contact:instagram": "goodflippin",
          "cuisine": "burger",
          "delivery": "yes",
          "name": "Good Flippin' Burgers",
          "takeaway": "yes",
          "website": "https://goodflippin.com/"
        }
      },
      {
        "type": "node",
        "id": 13013588746,
        "lat": 12.9368179,
        "lon": 77.6148469,
        "tags": {
          "addr:city": "Bengaluru",
          "addr:country": "IN",
          "addr:postcode": "560034",
          "addr:suburb": "Koramangala",
          "amenity": "restaurant",
          "contact:instagram": "sinonnas",
          "cuisine": "pizza",
          "delivery": "yes",
          "name": "Si Nonna's",
          "reservation": "yes",
          "takeaway": "yes",
          "toilets": "yes",
          "website": "https://sinonnas.com/"
        }
      },
      {
        "type": "node",
        "id": 13013978947,
        "lat": 12.9346469,
        "lon": 77.6139987,
        "tags": {
          "amenity": "cafe",
          "cuisine": "coffee_shop",
          "name": "La Grace"
        }
      },
      {
        "type": "node",
        "id": 13045205432,
        "lat": 12.9333407,
        "lon": 77.6149591,
        "tags": {
          "amenity": "cafe",
          "check_date": "2025-08-03",
          "name": "Olive Cafe"
        }
      }
    ]
  },
  "pois_2_5km": {
    "version": 0.6,
    "generator": "Overpass API 0.7.62.8 e802775f",
    "osm3s": {
      "timestamp_osm_base": "2025-09-06T08:16:30Z",
      "copyright": "The data included in this document is from www.openstreetmap.org. The data is made available under ODbL."
    },
    "elements": [
      {
        "type": "node",
        "id": 260911861,
        "lat": 12.9241419,
        "lon": 77.6288623,
        "tags": {
          "bus": "yes",
          "name": "Krupanidhi College",
          "name:en": "Krupanidhi College",
          "network": "BMTC",
          "operator": "BMTC",
          "public_transport": "stop_position"
        }
      },
      {
        "type": "node",
        "id": 308779347,
        "lat": 12.9356671,
        "lon": 77.6144578,
        "tags": {
          "addr:street": "80 Feet Road",
          "amenity": "fuel",
          "brand": "Bharat Petroleum",
          "brand:wikidata": "Q854826",
          "name": "Bharat Petroleum",
          "name:kn": "\u0cad\u0cbe\u0cb0\u0ca4\u0ccd \u0caa\u0cc6\u0c9f\u0ccd\u0cb0\u0ccb\u0cb2\u0cbf\u0caf\u0c82"
        }
      },
      {
        "type": "node",
        "id": 493530632,
        "lat": 12.9233773,
        "lon": 77.598919,
        "tags": {
          "amenity": "cinema",
          "name": "Maheshwari",
          "name:kn": "\u0cae\u0cb9\u0cc7\u0cb6\u0ccd\u0cb5\u0cb0\u0cbf"
        }
      },
      {
        "type": "node",
        "id": 1156224150,
        "lat": 12.9484939,
        "lon": 77.6062387,
        "tags": {
          "bus": "yes",
          "local_ref": "Adugodi",
          "name": "Pothalappa Garden",
          "name:en": "Pothalappa Garden",
          "network": "BMTC",
          "operator": "BMTC",
          "public_transport": "stop_position"
        }
      },
      {
        "type": "node",
        "id": 1459472858,
        "lat": 12.9346877,
        "lon": 77.6116748,
        "tags": {
          "addr:city": "Bangalore",
          "addr:housename": "Forum Mall",
          "addr:street": "Hosur Road",
          "amenity": "cinema",
          "brand": "PVR Cinemas",
          "brand:short": "PVR",
          "brand:wikidata": "Q3359908",
          "name": "PVR",
          "operator": "PVR Cinemas",
          "screen": "12",
          "short_name": "PVR"
        }
      },
      {
        "type": "node",
        "id": 1464896674,
        "lat": 12.933506,
        "lon": 77.6303939,
        "tags": {
          "amenity": "fuel",
          "brand": "Hindustan Petroleum",
          "brand:wikidata": "Q1619375",
          "name": "HP Petrol Pump",
          "official_name": "Hindustan Petroleum"
        }
      },
      {
        "type": "node",
        "id": 1466684135,
        "lat": 12.9309662,
        "lon": 77.6004616,
        "tags": {
          "amenity": "fuel",
          "brand": "Auto LPG",
          "fuel:cng": "yes",
          "fuel:lpg": "yes",
          "name": "Classic Auto Gas"
        }
      },
      {
        "type": "node",
        "id": 2509428534,
        "lat": 12.9168542,
        "lon": 77.6212842,
        "tags": {
          "bus": "yes",
          "public_transport": "stop_position"
        }
      },
      {
        "type": "node",
        "id": 3391123031,
        "lat": 12.9460933,
        "lon": 77.5950233,
        "tags": {
          "amenity": "fuel",
          "name": "Aegis Autogas",
          "wheelchair": "yes"
        }
      },
      {
        "type": "node",
        "id": 4548893289,
        "lat": 12.9568773,
        "lon": 77.6194613,
        "tags": {
          "amenity": "cinema",
          "name": "Sri Balaji",
          "name:en": "Sri Balaji"
        }
      },
      {
        "type": "node",
        "id": 5760198212,
        "lat": 12.9165816,
        "lon": 77.620567,
        "tags": {
          "code": "SBJT",
          "layer": "1",
          "lit": "yes",
          "name": "Central Silk Board",
          "name:en": "Central Silk Board",
          "name:kn": "\u0cb8\u0cc6\u0c82\u0c9f\u0ccd\u0cb0\u0cb2\u0ccd \u0cb8\u0cbf\u0cb2\u0ccd\u0c95 \u0cac\u0ccb\u0cb0\u0ccd\u0ca1\u0ccd",
          "network": "Namma Metro",
          "note": "Contributors are requested to not edit the \"network\" and the \"operator\" tags. (2023/11/08)",
          "operator": "Bangalore Metro Rail Corporation Limited",
          "platforms": "2",
          "public_transport": "station",
          "public_transport:version": "2",
          "railway": "station",
          "shelter": "yes",
          "start_date": "2025-08-10",
          "station": "subway",
          "subway": "yes",
          "website": "https://english.brmc.co.in",
          "wheelchair": "yes"
        }
      },
      {
        "type": "node",
        "id": 5760198226,
        "lat": 12.9165878,
        "lon": 77.6081182,
        "tags": {
          "code": "BTML",
          "layer": "1",
          "lit": "yes",
          "name": "BTM Layout",
          "name:en": "BTM Layout",
          "name:kn": "\u0cac\u0cbf\u0c9f\u0cbf\u0c8e\u0c82 \u0cac\u0ca1\u0cbe\u0cb5\u0ca3\u0cc6",
          "network": "Namma Metro",
          "note": "Contributors are requested to not edit the \"network\" and the \"operator\" tags. (2023/11/08)",
          "operator": "Bangalore Metro Rail Corporation Limited",
          "platforms": "2",
          "public_transport": "station",
          "public_transport:version": "2",
          "railway": "station",
          "shelter": "yes",
          "start_date": "2025-08-10",
          "station": "subway",
          "subway": "yes",
          "website": "https://english.brmc.co.in",
          "wheelchair": "yes"
        }
      },
      {
        "type": "node",
        "id": 5993280677,
        "lat": 12.9288024,
        "lon": 77.6332701,
        "tags": {
          "bus": "yes",
          "name": "Wipro Park",
          "name:en": "Wipro Park",
          "network": "BMTC",
          "operator": "BMTC",
          "public_transport": "stop_position"
        }
      },
      {
        "type": "node",
        "id": 7131511284,
        "lat": 12.95639,
        "lon": 77.6210339,
        "tags": {
          "bus": "yes",
          "name": "Vannarapete",
          "name:en": "Vannarapete",
          "name:kn": "\u0cb5\u0ca8\u0ccd\u0ca8\u0cb0\u0caa\u0cc7\u0c9f\u0cc6",
          "network": "BMTC",
          "operator": "BMTC",
          "public_transport": "stop_position"
        }
      },
      {
        "type": "node",
        "id": 7131541685,
        "lat": 12.9541943,
        "lon": 77.6227375,
        "tags": {
          "bus": "yes",
          "name": "Vivekanagara",
          "name:en": "Vivekanagara",
          "name:kn": "\u0cb5\u0cbf\u0cb5\u0cc7\u0c95\u0ca8\u0c97\u0cb0",
          "network": "BMTC",
          "operator": "BMTC",
          "public_transport": "stop_position"
        }
      },
      {
        "type": "node",
        "id": 7132452576,
        "lat": 12.954546,
        "lon": 77.6206762,
        "tags": {
          "bus": "yes",
          "name": "Vivekanagara",
          "name:en": "Vivekanagara",
          "name:kn": "\u0cb5\u0cbf\u0cb5\u0cc7\u0c95\u0ca8\u0c97\u0cb0",
          "network": "BMTC",
          "operator": "BMTC",
          "public_transport": "stop_position"
        }
      },
      {
        "type": "node",
        "id": 7132452578,
        "lat": 12.9514379,
        "lon": 77.6220795,
        "tags": {
          "alt_name": "Vivek Nagar Police Station",
          "bus": "yes",
          "name": "Ravi Tent",
          "name:en": "Ravi Tent",
          "network": "BMTC",
          "operator": "BMTC",
          "public_transport": "stop_position"
        }
      },
      {
        "type": "node",
        "id": 7132452580,
        "lat": 12.9506229,
        "lon": 77.624224,
        "tags": {
          "bus": "yes",
          "name": "Shine Bakery",
          "name:en": "Shine Bakery",
          "network": "BMTC",
          "operator": "BMTC",
          "public_transport": "stop_position"
        }
      },
      {
        "type": "node",
        "id": 7132452582,
        "lat": 12.9496896,
        "lon": 77.6265998,
        "tags": {
          "bus": "yes",
          "name": "Fairland Shop",
          "name:en": "Fairland Shop",
          "network": "BMTC",
          "operator": "BMTC",
          "public_transport": "stop_position"
        }
      },
      {
        "type": "node",
        "id": 7132452583,
        "lat": 12.946733,
        "lon": 77.6287391,
        "tags": {
          "bus": "yes",
          "name": "Ejipura",
          "name:en": "Ejipura",
          "name:kn": "\u0c88\u0c9c\u0cbf\u0caa\u0cc1\u0cb0",
          "network": "BMTC",
          "operator": "BMTC",
          "public_transport": "stop_position"
        }
      },
      {
        "type": "node",
        "id": 7132452584,
        "lat": 12.9427367,
        "lon": 77.6307638,
        "tags": {
          "bus": "yes",
          "name": "Ejipura School",
          "name:en": "Ejipura School",
          "name:kn": "\u0c88\u0c9c\u0cbf\u0caa\u0cc1\u0cb0 \u0cb6\u0cbe\u0cb2\u0cc6",
          "network": "BMTC",
          "operator": "BMTC",
          "public_transport": "stop_position"
        }
      },
      {
        "type": "node",
        "id": 7132486285,
        "lat": 12.9392351,
        "lon": 77.6323159,
        "tags": {
          "bus": "yes",
          "name": "Srinivagilu Ejipura",
          "name:en": "Srinivagilu Ejipura",
          "name:kn": "\u0cb6\u0ccd\u0cb0\u0cc0\u0ca8\u0cbf\u0cb5\u0cbe\u0c97\u0cbf\u0cb2\u0cc1 \u0c88\u0c9c\u0cbf\u0caa\u0cc1\u0cb0",
          "network": "BMTC",
          "operator": "BMTC",
          "public_transport": "stop_position"
        }
      },
      {
        "type": "node",
        "id": 7132495619,
        "lat": 12.9576576,
        "lon": 77.6143934,
        "tags": {
          "bus": "yes",
          "name": "Neelasandra Bus Stand",
          "name:en": "Neelasandra Bus Stand",
          "name:kn": "\u0ca8\u0cc0\u0cb2\u0cb8\u0c82\u0ca6\u0ccd\u0cb0",
          "network": "BMTC",
          "operator": "BMTC",
          "public_transport": "stop_position"
        }
      },
      {
        "type": "node",
        "id": 7132495621,
        "lat": 12.9536998,
        "lon": 77.61752,
        "tags": {
          "bus": "yes",
          "name": "Neelasandra Rose Garden",
          "name:en": "Neelasandra Rose Garden",
          "network": "BMTC",
          "operator": "BMTC",
          "public_transport": "stop_position"
        }
      },
      {
        "type": "node",
        "id": 7132495623,
        "lat": 12.9537945,
        "lon": 77.6173101,
        "tags": {
          "bus": "yes",
          "name": "Neelasandra Rose Garden",
          "name:en": "Neelasandra Rose Garden",
          "network": "BMTC",
          "operator": "BMTC",
          "public_transport": "stop_position"
        }
      },
      {
        "type": "node",
        "id": 7132495624,
        "lat": 12.9576094,
        "lon": 77.6143892,
        "tags": {
          "bus": "yes",
          "name": "Neelasandra Bus Stand",
          "name:en": "Neelasandra Bus Stand",
          "name:kn": "\u0ca8\u0cc0\u0cb2\u0cb8\u0c82\u0ca6\u0ccd\u0cb0",
          "network": "BMTC",
          "operator": "BMTC",
          "public_transport": "stop_position"
        }
      },
      {
        "type": "node",
        "id": 7140560430,
        "lat": 12.946588,
        "lon": 77.6288423,
        "tags": {
          "bus": "yes",
          "name": "Ejipura",
          "name:en": "Ejipura",
          "name:kn": "\u0c88\u0c9c\u0cbf\u0caa\u0cc1\u0cb0",
          "network": "BMTC",
          "operator": "BMTC",
          "public_transport": "stop_position"
        }
      },
      {
        "type": "node",
        "id": 7140560432,
        "lat": 12.9500222,
        "lon": 77.6261783,
        "tags": {
          "bus": "yes",
          "name": "Fairland Shop",
          "name:en": "Fairland Shop",
          "network": "BMTC",
          "operator": "BMTC",
          "public_transport": "stop_position"
        }
      },
      {
        "type": "node",
        "id": 7140560434,
        "lat": 12.9506781,
        "lon": 77.6239625,
        "tags": {
          "bus": "yes",
          "name": "Shine Bakery",
          "name:en": "Shine Bakery",
          "network": "BMTC",
          "operator": "BMTC",
          "public_transport": "stop_position"
        }
      },
      {
        "type": "node",
        "id": 7141213452,
        "lat": 12.9198633,
        "lon": 77.6001476,
        "tags": {
          "bus": "yes",
          "name": "Gurappanapalya",
          "name:en": "Gurappanapalya",
          "name:kn": "\u0c97\u0cc1\u0cb0\u0caa\u0ccd\u0caa\u0ca8 \u0caa\u0cbe\u0cb3\u0ccd\u0caf",
          "network": "BMTC",
          "operator": "BMTC",
          "public_transport": "stop_position"
        }
      },
      {
        "type": "node",
        "id": 7141213454,
        "lat": 12.9357411,
        "lon": 77.6015318,
        "tags": {
          "bus": "yes",
          "name": "Bengaluru Dairy Circle",
          "name:en": "Bengaluru Dairy Circle",
          "network": "BMTC",
          "operator": "BMTC",
          "public_transport": "stop_position"
        }
      },
      {
        "type": "node",
        "id": 7141213455,
        "lat": 12.9441362,
        "lon": 77.6028844,
        "tags": {
          "bus": "yes",
          "name": "MICO Factory Junction",
          "name:en": "MICO Factory Junction",
          "network": "BMTC",
          "operator": "BMTC",
          "public_transport": "stop_position"
        }
      },
      {
        "type": "node",
        "id": 7141213457,
        "lat": 12.9525613,
        "lon": 77.6048624,
        "tags": {
          "bus": "yes",
          "name": "Indian Christian Cemetry",
          "name:en": "Indian Christian Cemetry",
          "network": "BMTC",
          "operator": "BMTC",
          "public_transport": "stop_position"
        }
      },
      {
        "type": "node",
        "id": 7277381421,
        "lat": 12.9243856,
        "lon": 77.6307423,
        "tags": {
          "bus": "yes",
          "name": "John Fowler",
          "name:en": "John Fowler",
          "network": "BMTC",
          "operator": "BMTC",
          "public_transport": "stop_position"
        }
      },
      {
        "type": "node",
        "id": 7277381427,
        "lat": 12.9241479,
        "lon": 77.6299687,
        "tags": {
          "bus": "yes",
          "name": "John Fowler",
          "name:en": "John Fowler",
          "network": "BMTC",
          "operator": "BMTC",
          "public_transport": "stop_position"
        }
      },
      {
        "type": "node",
        "id": 7277381428,
        "lat": 12.9268106,
        "lon": 77.6227986,
        "tags": {
          "bus": "yes",
          "name": "Koramangala Water Tank",
          "name:en": "Koramangala Water Tank",
          "network": "BMTC",
          "operator": "BMTC",
          "public_transport": "stop_position"
        }
      },
      {
        "type": "node",
        "id": 7277381435,
        "lat": 12.9294716,
        "lon": 77.6160012,
        "tags": {
          "bus": "yes",
          "name": "St. John's Hospital",
          "name:en": "St. John's Hospital",
          "name:kn": "\u0cb8\u0cc6\u0c82\u0c9f\u0ccd \u0c9c\u0cbe\u0ca8\u0ccd\u0cb8\u0ccd \u0c86\u0cb8\u0ccd\u0caa\u0ca4\u0ccd\u0cb0\u0cc6",
          "network": "BMTC",
          "operator": "BMTC",
          "public_transport": "stop_position"
        }
      },
      {
        "type": "node",
        "id": 7293708127,
        "lat": 12.9534708,
        "lon": 77.6052319,
        "tags": {
          "bus": "yes",
          "name": "Anepalya",
          "name:en": "Anepalya",
          "name:kn": "\u0c86\u0ca8\u0cc6\u0caa\u0cbe\u0cb3\u0ccd\u0caf",
          "network": "BMTC",
          "operator": "BMTC",
          "public_transport": "stop_position"
        }
      },
      {
        "type": "node",
        "id": 7293817082,
        "lat": 12.9390151,
        "lon": 77.6097671,
        "tags": {
          "bus": "yes",
          "name": "Adugodi Police Station",
          "name:en": "Adugodi Police Station",
          "name:kn": "\u0c85\u0ca1\u0cc1\u0c97\u0cca\u0ca1\u0cbf \u0caa\u0ccb\u0cb2\u0cc0\u0cb8\u0ccd \u0ca0\u0cbe\u0ca3\u0cc6",
          "network": "BMTC",
          "operator": "BMTC",
          "public_transport": "stop_position"
        }
      },
      {
        "type": "node",
        "id": 7293817083,
        "lat": 12.9398973,
        "lon": 77.6094326,
        "tags": {
          "bus": "yes",
          "name": "Adugodi Police Station",
          "name:en": "Adugodi Police Station",
          "name:kn": "\u0c85\u0ca1\u0cc1\u0c97\u0cca\u0ca1\u0cbf \u0caa\u0ccb\u0cb2\u0cc0\u0cb8\u0ccd \u0ca0\u0cbe\u0ca3\u0cc6",
          "network": "BMTC",
          "operator": "BMTC",
          "public_transport": "stop_position"
        }
      },
      {
        "type": "node",
        "id": 7293817087,
        "lat": 12.9447399,
        "lon": 77.6073573,
        "tags": {
          "bus": "yes",
          "name": "Adugodi",
          "name:en": "Adugodi",
          "name:kn": "\u0c85\u0ca1\u0cc1\u0c97\u0cca\u0ca1\u0cbf",
          "network": "BMTC",
          "operator": "BMTC",
          "public_transport": "stop_position"
        }
      },
      {
        "type": "node",
        "id": 7293817154,
        "lat": 12.9492019,
        "lon": 77.6061203,
        "tags": {
          "bus": "yes",
          "local_ref": "Adugodi",
          "name": "Pothalappa Garden",
          "name:en": "Pothalappa Garden",
          "network": "BMTC",
          "operator": "BMTC",
          "public_transport": "stop_position"
        }
      },
      {
        "type": "node",
        "id": 7293817164,
        "lat": 12.9522037,
        "lon": 77.6052759,
        "tags": {
          "bus": "yes",
          "name": "Anepalya",
          "name:en": "Anepalya",
          "name:kn": "\u0c86\u0ca8\u0cc6\u0caa\u0cbe\u0cb3\u0ccd\u0caf",
          "network": "BMTC",
          "operator": "BMTC",
          "public_transport": "stop_position"
        }
      },
      {
        "type": "node",
        "id": 7294283056,
        "lat": 12.9175581,
        "lon": 77.6244453,
        "tags": {
          "bus": "yes",
          "name": "Central Silk Board",
          "name:en": "Central Silk Board",
          "name:kn": "\u0c95\u0cc7\u0c82\u0ca6\u0ccd\u0cb0\u0cbf\u0caf \u0cb0\u0cc7\u0cb7\u0ccd\u0cae\u0cc6 \u0c87\u0cb2\u0cbe\u0c96\u0cc6",
          "network": "BMTC",
          "operator": "BMTC",
          "public_transport": "stop_position"
        }
      },
      {
        "type": "node",
        "id": 7294299975,
        "lat": 12.920006,
        "lon": 77.6208506,
        "tags": {
          "bus": "yes",
          "name": "Madiwala",
          "name:en": "Madiwala",
          "name:kn": "\u0cae\u0ca1\u0cbf\u0cb5\u0cbe\u0cb3",
          "network": "BMTC",
          "operator": "BMTC",
          "public_transport": "stop_position"
        }
      },
      {
        "type": "node",
        "id": 9857268053,
        "lat": 12.9345998,
        "lon": 77.6239316,
        "tags": {
          "bus": "yes",
          "name": "Canara Bank Koramangala",
          "name:en": "Canara Bank Koramangala",
          "network": "BMTC",
          "operator": "BMTC",
          "public_transport": "stop_position"
        }
      },
      {
        "type": "node",
        "id": 9904111098,
        "lat": 12.9165373,
        "lon": 77.6067587,
        "tags": {
          "bus": "yes",
          "name": "BTM Nagar Layout Water Tank",
          "name:en": "BTM Water Tank",
          "network": "BMTC",
          "operator": "BMTC",
          "public_transport": "stop_position"
        }
      },
      {
        "type": "node",
        "id": 9904111100,
        "lat": 12.9166825,
        "lon": 77.6068604,
        "tags": {
          "bus": "yes",
          "name": "BTM Water Tank",
          "name:en": "BTM Water Tank",
          "network": "BMTC",
          "operator": "BMTC",
          "public_transport": "stop_position"
        }
      },
      {
        "type": "node",
        "id": 9906259153,
        "lat": 12.9429279,
        "lon": 77.5972942,
        "tags": {
          "bus": "yes",
          "name": "Lakkasandra",
          "name:en": "Lakkasandra",
          "name:kn": "\u0cb2\u0c95\u0ccd\u0c95\u0cb8\u0c82\u0ca6\u0ccd\u0cb0",
          "network": "BMTC",
          "operator": "BMTC",
          "public_transport": "stop_position"
        }
      },
      {
        "type": "node",
        "id": 9906259160,
        "lat": 12.9438442,
        "lon": 77.5971199,
        "tags": {
          "bus": "yes",
          "name": "Lakkasandra",
          "name:en": "Lakkasandra",
          "name:kn": "\u0cb2\u0c95\u0ccd\u0c95\u0cb8\u0c82\u0ca6\u0ccd\u0cb0",
          "network": "BMTC",
          "operator": "BMTC",
          "public_transport": "stop_position"
        }
      },
      {
        "type": "node",
        "id": 9930197118,
        "lat": 12.9312742,
        "lon": 77.6225375,
        "tags": {
          "bus": "yes",
          "name": "Koramangala BDA Complex",
          "name:en": "Koramangala BDA Complex",
          "network": "BMTC",
          "operator": "BMTC",
          "public_transport": "stop_position"
        }
      },
      {
        "type": "node",
        "id": 9930197119,
        "lat": 12.9319288,
        "lon": 77.6226551,
        "tags": {
          "bus": "yes",
          "name": "Koramangala BDA Complex",
          "name:en": "Koramangala BDA Complex",
          "network": "BMTC",
          "operator": "BMTC",
          "public_transport": "stop_position"
        }
      },
      {
        "type": "node",
        "id": 9930197122,
        "lat": 12.9384714,
        "lon": 77.6317931,
        "tags": {
          "bus": "yes",
          "name": "Ejipura Junction",
          "name:en": "Ejipura Junction",
          "network": "BMTC",
          "operator": "BMTC",
          "public_transport": "stop_position"
        }
      },
      {
        "type": "node",
        "id": 9930197147,
        "lat": 12.9385691,
        "lon": 77.6331222,
        "tags": {
          "bus": "yes",
          "name": "Ejipura Junction",
          "name:en": "Ejipura Junction",
          "network": "BMTC",
          "operator": "BMTC",
          "public_transport": "stop_position"
        }
      },
      {
        "type": "node",
        "id": 9951257714,
        "lat": 12.9454855,
        "lon": 77.6191623,
        "tags": {
          "bus": "yes",
          "name": "Passport Office",
          "name:en": "Passport Office",
          "name:kn": "\u0caa\u0cbe\u0cb8\u0ccd\u0caa\u0ccb\u0cb0\u0ccd\u0c9f\u0ccd \u0c95\u0c9b\u0cc7\u0cb0\u0cbf",
          "network": "BMTC",
          "operator": "BMTC",
          "public_transport": "stop_position"
        }
      },
      {
        "type": "node",
        "id": 9951289030,
        "lat": 12.9487865,
        "lon": 77.6201278,
        "tags": {
          "bus": "yes",
          "name": "National Games",
          "name:en": "National Games",
          "network": "BMTC",
          "operator": "BMTC",
          "public_transport": "stop_position"
        }
      },
      {
        "type": "node",
        "id": 10238264073,
        "lat": 12.9300329,
        "lon": 77.6210019,
        "tags": {
          "amenity": "theatre",
          "name": "Pope Paul VI Auditorium"
        }
      },
      {
        "type": "node",
        "id": 10295532244,
        "lat": 12.9261211,
        "lon": 77.6246591,
        "tags": {
          "bus": "yes",
          "name": "Koramangala CPWD Quarters",
          "name:en": "Koramangala CPWD Quarters",
          "network": "BMTC",
          "operator": "BMTC",
          "public_transport": "stop_position"
        }
      },
      {
        "type": "node",
        "id": 10763275239,
        "lat": 12.9154635,
        "lon": 77.6158909,
        "tags": {
          "amenity": "charging_station",
          "fee": "yes",
          "name": "Magenta ChargeGrid Charging Station",
          "operator": "Magenta Group"
        }
      },
      {
        "type": "node",
        "id": 10775678439,
        "lat": 12.9515611,
        "lon": 77.6213725,
        "tags": {
          "alt_name": "Ejipura Bus Stand",
          "bus": "yes",
          "loc_name": "Church Stop",
          "name": "Ravi Tent",
          "name:en": "Ravi Tent",
          "network": "BMTC",
          "old_name": "Ejipura Junction",
          "operator": "BMTC",
          "public_transport": "stop_position"
        }
      },
      {
        "type": "node",
        "id": 10775678440,
        "lat": 12.9514989,
        "lon": 77.6214411,
        "tags": {
          "alt_name": "Ejipura Bus Stand",
          "bus": "yes",
          "loc_name": "Church Stop",
          "name": "Ravi Tent",
          "name:en": "Ravi Tent",
          "name:kn": "\u0cb0\u0cb5\u0cbf \u0c9a\u0cbf\u0ca4\u0ccd\u0cb0\u0cae\u0c82\u0ca6\u0cbf\u0cb0",
          "network": "BMTC",
          "old_name": "Ejipura Junction",
          "operator": "BMTC",
          "public_transport": "stop_position"
        }
      },
      {
        "type": "node",
        "id": 10855128075,
        "lat": 12.9470205,
        "lon": 77.5943949,
        "tags": {
          "bus": "yes",
          "name": "7th Cross Wilson Garden",
          "name:en": "7th Cross Wilson Garden",
          "name:kn": "\u0ced\u0ca8\u0cc7 \u0c85\u0ca1\u0ccd\u0ca1 \u0cb0\u0cb8\u0ccd\u0ca4\u0cc6",
          "network": "BMTC",
          "operator": "BMTC",
          "public_transport": "stop_position"
        }
      },
      {
        "type": "node",
        "id": 10855128078,
        "lat": 12.9388025,
        "lon": 77.5982554,
        "tags": {
          "bus": "yes",
          "name": "NIMHANS Hospital",
          "name:en": "NIMHANS Hospital",
          "network": "BMTC",
          "operator": "BMTC",
          "public_transport": "stop_position"
        }
      },
      {
        "type": "node",
        "id": 10855128079,
        "lat": 12.9363638,
        "lon": 77.606663,
        "tags": {
          "bus": "yes",
          "name": "Muneshwara Temple",
          "name:en": "Muneshwara Temple",
          "name:kn": "\u0cae\u0cc1\u0ca8\u0cc7\u0cb6\u0ccd\u0cb5\u0cb0 \u0ca6\u0cc7\u0cb5\u0cb8\u0ccd\u0ca5\u0cbe\u0ca8",
          "network": "BMTC",
          "operator": "BMTC",
          "public_transport": "stop_position"
        }
      },
      {
        "type": "node",
        "id": 10855128080,
        "lat": 12.9320874,
        "lon": 77.6131149,
        "tags": {
          "alt_name": "Forum Mall",
          "bus": "yes",
          "name": "Hosur Junction",
          "name:en": "Hosur Junction",
          "network": "BMTC",
          "old_name": "Hosur Checkpost",
          "operator": "BMTC",
          "public_transport": "stop_position"
        }
      },
      {
        "type": "node",
        "id": 10855128081,
        "lat": 12.9293758,
        "lon": 77.6159007,
        "tags": {
          "bus": "yes",
          "name": "St. John's Hospital",
          "name:en": "St. John's Hospital",
          "name:kn": "\u0cb8\u0cc6\u0c82\u0c9f\u0ccd \u0c9c\u0cbe\u0ca8\u0ccd\u0cb8\u0ccd \u0c86\u0cb8\u0ccd\u0caa\u0ca4\u0ccd\u0cb0\u0cc6",
          "network": "BMTC",
          "operator": "BMTC",
          "public_transport": "stop_position"
        }
      },
      {
        "type": "node",
        "id": 10855128082,
        "lat": 12.9276081,
        "lon": 77.620616,
        "tags": {
          "bus": "yes",
          "name": "Koramangala Water Tank",
          "name:en": "Koramangala Water Tank",
          "network": "BMTC",
          "operator": "BMTC",
          "public_transport": "stop_position"
        }
      },
      {
        "type": "node",
        "id": 10855128083,
        "lat": 12.9256193,
        "lon": 77.6253416,
        "tags": {
          "bus": "yes",
          "name": "Kudremukha Colony",
          "name:en": "Kudremukha Colony",
          "name:kn": "\u0c95\u0cc1\u0ca6\u0ccd\u0cb0\u0cc6\u0cae\u0cc1\u0c96 \u0c95\u0cbe\u0cb2\u0ccb\u0ca8\u0cbf",
          "network": "BMTC",
          "operator": "BMTC",
          "public_transport": "stop_position"
        }
      },
      {
        "type": "node",
        "id": 10872824023,
        "lat": 12.9170799,
        "lon": 77.6223011,
        "tags": {
          "bus": "yes",
          "name": "Silk Board",
          "name:en": "Silk Board",
          "network": "BMTC",
          "operator": "BMTC",
          "public_transport": "stop_position"
        }
      },
      {
        "type": "node",
        "id": 10872824026,
        "lat": 12.9167774,
        "lon": 77.6223288,
        "tags": {
          "bus": "yes",
          "name": "Silk Board",
          "name:en": "Silk Board",
          "network": "BMTC",
          "operator": "BMTC",
          "public_transport": "stop_position"
        }
      },
      {
        "type": "node",
        "id": 10873245759,
        "lat": 12.9448354,
        "lon": 77.6199339,
        "tags": {
          "alt_name": "Rajendranagar",
          "bus": "yes",
          "name": "Passport Office",
          "name:en": "Passport Office",
          "name:kn": "\u0caa\u0cbe\u0cb8\u0ccd\u0caa\u0ccb\u0cb0\u0ccd\u0c9f\u0ccd \u0c95\u0c9b\u0cc7\u0cb0\u0cbf",
          "network": "BMTC",
          "operator": "BMTC",
          "public_transport": "stop_position"
        }
      },
      {
        "type": "node",
        "id": 10873245761,
        "lat": 12.9410649,
        "lon": 77.6242298,
        "tags": {
          "bus": "yes",
          "name": "Koramangala Depot",
          "name:en": "Koramangala Depot",
          "name:kn": "\u0c95\u0ccb\u0cb0\u0cae\u0c82\u0c97\u0cb2 \u0ca1\u0cc0\u0caa\u0ccb",
          "network": "BMTC",
          "operator": "BMTC",
          "public_transport": "stop_position"
        }
      },
      {
        "type": "node",
        "id": 11283405698,
        "lat": 12.9322172,
        "lon": 77.6142725,
        "tags": {
          "amenity": "charging_station",
          "capacity": "4",
          "description": "EV charging point for OLA scooters",
          "man_made": "charge_point",
          "manufacturer": "Ola",
          "name": "Ola Hypercharger"
        }
      },
      {
        "type": "node",
        "id": 11286212936,
        "lat": 12.916907,
        "lon": 77.6102709,
        "tags": {
          "access": "yes",
          "amenity": "charging_station",
          "brand": "BESCOM",
          "capacity": "2",
          "operator": "BESCOM"
        }
      },
      {
        "type": "node",
        "id": 11296933565,
        "lat": 12.9273812,
        "lon": 77.6001621,
        "tags": {
          "amenity": "theatre",
          "name": "Mother Veronica Auditorium"
        }
      },
      {
        "type": "node",
        "id": 11398011951,
        "lat": 12.9384223,
        "lon": 77.6178277,
        "tags": {
          "amenity": "theatre",
          "name": "Medai - Bengaluru"
        }
      },
      {
        "type": "node",
        "id": 11463172582,
        "lat": 12.9301946,
        "lon": 77.6148303,
        "tags": {
          "amenity": "charging_station",
          "battery_swapping": "yes",
          "brand": "Honda e:swap"
        }
      },
      {
        "type": "node",
        "id": 11506367463,
        "lat": 12.9484956,
        "lon": 77.6198538,
        "tags": {
          "alt_name": "National Games Village Gate",
          "bus": "yes",
          "name": "Rajendranagar",
          "name:en": "Rajendranagar",
          "name:kn": "\u0cb0\u0cbe\u0c9c\u0cc7\u0c82\u0ca6\u0ccd\u0cb0\u0ca8\u0c97\u0cb0",
          "network": "BMTC",
          "operator": "BMTC",
          "public_transport": "stop_position",
          "short_name": "NGV Gate"
        }
      },
      {
        "type": "node",
        "id": 11542817224,
        "lat": 12.9365433,
        "lon": 77.6067081,
        "tags": {
          "bus": "yes",
          "name": "Muneshwara Devasthana",
          "name:en": "Muneshwara Devasthana",
          "name:kn": "\u0cae\u0cc1\u0ca8\u0cc7\u0cb6\u0ccd\u0cb5\u0cb0 \u0ca6\u0cc7\u0cb5\u0cb8\u0ccd\u0ca5\u0cbe\u0ca8",
          "network": "BMTC",
          "operator": "BMTC",
          "public_transport": "stop_position"
        }
      },
      {
        "type": "node",
        "id": 11542817290,
        "lat": 12.9362684,
        "lon": 77.6076884,
        "tags": {
          "amenity": "charging_station",
          "fee": "yes",
          "motorcar": "yes",
          "motorcycle": "yes"
        }
      },
      {
        "type": "node",
        "id": 11598213076,
        "lat": 12.9447292,
        "lon": 77.6074632,
        "tags": {
          "bus": "yes",
          "name": "Adugodi",
          "name:en": "Adugodi",
          "name:kn": "\u0c85\u0ca1\u0cc1\u0c97\u0cca\u0ca1\u0cbf",
          "network": "BMTC",
          "operator": "BMTC",
          "public_transport": "stop_position"
        }
      },
      {
        "type": "node",
        "id": 11684016163,
        "lat": 12.9252665,
        "lon": 77.6341144,
        "tags": {
          "amenity": "fuel",
          "check_date": "2024-03-02",
          "name": "Gail Gas"
        }
      },
      {
        "type": "node",
        "id": 11739418609,
        "lat": 12.9349284,
        "lon": 77.6121062,
        "tags": {
          "bus": "yes",
          "name": "Forum Mall Koramangala",
          "name:en": "Forum Mall Koramangala",
          "network": "BMTC",
          "operator": "BMTC",
          "public_transport": "stop_position"
        }
      },
      {
        "type": "node",
        "id": 11927677057,
        "lat": 12.9337755,
        "lon": 77.6236693,
        "tags": {
          "access": "yes",
          "amenity": "charging_station",
          "brand": "ChargePoint",
          "brand:wikidata": "Q5176149",
          "capacity": "2",
          "fee": "no",
          "name": "Ola Hyper Charger",
          "name:en": "Ola charger",
          "operator": "ChargePoint",
          "operator:wikidata": "Q5176149"
        }
      },
      {
        "type": "node",
        "id": 11927677058,
        "lat": 12.9285835,
        "lon": 77.6241904,
        "tags": {
          "access": "yes",
          "amenity": "charging_station",
          "brand": "ChargePoint",
          "brand:wikidata": "Q5176149",
          "name": "Battery Swap",
          "operator": "ChargePoint",
          "operator:wikidata": "Q5176149"
        }
      },
      {
        "type": "node",
        "id": 11936564076,
        "lat": 12.9311453,
        "lon": 77.6238461,
        "tags": {
          "access": "yes",
          "amenity": "charging_station",
          "brand": "ChargePoint",
          "brand:wikidata": "Q5176149",
          "fee": "no",
          "name": "Ather Charging Station",
          "name:en": "EVRE Charging Point",
          "operator": "ChargePoint",
          "operator:wikidata": "Q5176149"
        }
      },
      {
        "type": "node",
        "id": 12032990387,
        "lat": 12.9322145,
        "lon": 77.6130714,
        "tags": {
          "bus": "yes",
          "name": "Hosur Junction",
          "name:en": "Hosur Junction",
          "network": "BMTC",
          "operator": "BMTC",
          "public_transport": "stop_position"
        }
      },
      {
        "type": "node",
        "id": 12032990390,
        "lat": 12.9358017,
        "lon": 77.601317,
        "tags": {
          "bus": "yes",
          "name": "Bangalore Dairy Circle",
          "name:en": "Bangalore Dairy Circle",
          "name:kn": "\u0cac\u0cc6\u0c82\u0c97\u0cb3\u0cc2\u0cb0\u0cc1 \u0ca1\u0cc8\u0cb0\u0cbf \u0cb5\u0cc3\u0ca4\u0ccd\u0ca4",
          "network": "BMTC",
          "operator": "BMTC",
          "public_transport": "stop_position"
        }
      },
      {
        "type": "node",
        "id": 12032990393,
        "lat": 12.9267231,
        "lon": 77.5970921,
        "tags": {
          "bus": "yes",
          "name": "Carmel Convent",
          "name:en": "Carmel Convent",
          "name:kn": "\u0c95\u0cbe\u0cb0\u0ccd\u0cae\u0cc6\u0cb2\u0ccd \u0c95\u0cbe\u0ca8\u0ccd\u0cb5\u0cc6\u0c82\u0c9f\u0ccd",
          "network": "BMTC",
          "operator": "BMTC",
          "public_transport": "stop_position"
        }
      },
      {
        "type": "node",
        "id": 12032990398,
        "lat": 12.9263412,
        "lon": 77.5971456,
        "tags": {
          "bus": "yes",
          "name": "Carmel Convent",
          "name:en": "Carmel Convent",
          "name:kn": "\u0c95\u0cbe\u0cb0\u0ccd\u0cae\u0cc6\u0cb2\u0ccd \u0c95\u0cbe\u0ca8\u0ccd\u0cb5\u0cc6\u0c82\u0c9f\u0ccd",
          "network": "BMTC",
          "operator": "BMTC",
          "public_transport": "stop_position"
        }
      },
      {
        "type": "node",
        "id": 12040966324,
        "lat": 12.9164026,
        "lon": 77.620117,
        "tags": {
          "code": "SBJT",
          "name": "Central Silk Board",
          "name:en": "Central Silk Board",
          "name:kn": "\u0cb8\u0cc6\u0c82\u0c9f\u0ccd\u0cb0\u0cb2\u0ccd \u0cb8\u0cbf\u0cb2\u0ccd\u0c95 \u0cac\u0ccb\u0cb0\u0ccd\u0ca1\u0ccd",
          "network": "Namma Metro",
          "note": "Contributors are requested to not edit the \"network\" and the \"operator\" tags. (2023/11/08)",
          "operator": "Bangalore Metro Rail Corporation Limited",
          "public_transport": "stop_position",
          "public_transport:version": "2",
          "railway": "stop",
          "source": "http://www.bmrc.co.in/English/Network.htm",
          "subway": "yes",
          "wheelchair": "yes"
        }
      },
      {
        "type": "node",
        "id": 12151337498,
        "lat": 12.9506877,
        "lon": 77.605377,
        "tags": {
          "amenity": "fuel",
          "brand": "Total",
          "brand:wikidata": "Q154037",
          "name": "Total"
        }
      },
      {
        "type": "node",
        "id": 12168378212,
        "lat": 12.9320453,
        "lon": 77.6130803,
        "tags": {
          "alt_name": "Forum Mall",
          "bus": "yes",
          "name": "Hosur Junction",
          "name:en": "Hosur Junction",
          "network": "BMTC",
          "old_name": "Hosur Checkpost",
          "operator": "BMTC",
          "public_transport": "stop_position"
        }
      },
      {
        "type": "node",
        "id": 12168378237,
        "lat": 12.9438411,
        "lon": 77.5970971,
        "tags": {
          "bus": "yes",
          "name": "Lakkasandra",
          "name:en": "Lakkasandra",
          "name:kn": "\u0cb2\u0c95\u0ccd\u0c95\u0cb8\u0c82\u0ca6\u0ccd\u0cb0",
          "network": "BMTC",
          "operator": "BMTC",
          "public_transport": "stop_position"
        }
      },
      {
        "type": "node",
        "id": 12168378238,
        "lat": 12.9387912,
        "lon": 77.5982355,
        "tags": {
          "bus": "yes",
          "name": "Nimhans Hospital",
          "name:en": "NIMHANS Hospital",
          "network": "BMTC",
          "operator": "BMTC",
          "public_transport": "stop_position"
        }
      },
      {
        "type": "node",
        "id": 12168378246,
        "lat": 12.9429308,
        "lon": 77.5973171,
        "tags": {
          "bus": "yes",
          "name": "Lakkasandra",
          "name:en": "Lakkasandra",
          "name:kn": "\u0cb2\u0c95\u0ccd\u0c95\u0cb8\u0c82\u0ca6\u0ccd\u0cb0",
          "network": "BMTC",
          "operator": "BMTC",
          "public_transport": "stop_position"
        }
      },
      {
        "type": "node",
        "id": 12187048819,
        "lat": 12.9242706,
        "lon": 77.6146931,
        "tags": {
          "amenity": "fuel",
          "check_date": "2024-09-18",
          "self_service": "no"
        }
      },
      {
        "type": "node",
        "id": 12229219527,
        "lat": 12.9179911,
        "lon": 77.6223147,
        "tags": {
          "bus": "yes",
          "network": "BMTC",
          "operator": "BMTC",
          "public_transport": "stop_position"
        }
      },
      {
        "type": "node",
        "id": 12328471497,
        "lat": 12.9214902,
        "lon": 77.6210995,
        "tags": {
          "bus": "yes",
          "name": "Madivala",
          "name:en": "Madivala",
          "network": "BMTC",
          "operator": "BMTC",
          "public_transport": "stop_position"
        }
      },
      {
        "type": "node",
        "id": 12328471500,
        "lat": 12.9369729,
        "lon": 77.6266664,
        "tags": {
          "bus": "yes",
          "name": "Sony World Signal",
          "name:en": "Sony World Signal",
          "network": "BMTC",
          "operator": "BMTC",
          "public_transport": "stop_position"
        }
      },
      {
        "type": "node",
        "id": 12462543988,
        "lat": 12.916679,
        "lon": 77.6095838,
        "tags": {
          "bus": "yes",
          "name": "16th Main BTM Layout",
          "name:en": "16th Main BTM Layout",
          "network": "BMTC",
          "operator": "BMTC",
          "public_transport": "stop_position"
        }
      },
      {
        "type": "node",
        "id": 12511444254,
        "lat": 12.9193784,
        "lon": 77.6168929,
        "tags": {
          "bus": "yes",
          "name": "Jai Bheema Nagara",
          "name:en": "Jai Bheema Nagara",
          "network": "BMTC",
          "operator": "BMTC",
          "public_transport": "stop_position"
        }
      },
      {
        "type": "node",
        "id": 12511444255,
        "lat": 12.9196229,
        "lon": 77.6130998,
        "tags": {
          "bus": "yes",
          "name": "Gangothri Circle",
          "name:en": "Gangothri Circle",
          "network": "BMTC",
          "operator": "BMTC",
          "public_transport": "stop_position"
        }
      },
      {
        "type": "node",
        "id": 12511444256,
        "lat": 12.9221855,
        "lon": 77.610508,
        "tags": {
          "bus": "yes",
          "name": "Tavarekere Aladamara",
          "name:en": "Tavarekere Aladamara",
          "network": "BMTC",
          "operator": "BMTC",
          "public_transport": "stop_position"
        }
      },
      {
        "type": "node",
        "id": 12511444257,
        "lat": 12.9251802,
        "lon": 77.6087855,
        "tags": {
          "bus": "yes",
          "name": "Tavarekere Mori",
          "name:en": "Tavarekere Mori",
          "network": "BMTC",
          "operator": "BMTC",
          "public_transport": "stop_position"
        }
      },
      {
        "type": "node",
        "id": 12511444258,
        "lat": 12.9278312,
        "lon": 77.6091639,
        "tags": {
          "bus": "yes",
          "name": "Chikka Adugodi",
          "name:en": "Chikka Adugodi",
          "network": "BMTC",
          "operator": "BMTC",
          "public_transport": "stop_position"
        }
      },
      {
        "type": "node",
        "id": 12511444260,
        "lat": 12.9310533,
        "lon": 77.6098502,
        "tags": {
          "bus": "yes",
          "name": "Suddaguntepalya",
          "name:en": "Suddaguntepalya",
          "network": "BMTC",
          "operator": "BMTC",
          "public_transport": "stop_position"
        }
      },
      {
        "type": "node",
        "id": 13046007574,
        "lat": 12.9167339,
        "lon": 77.6210257,
        "tags": {
          "code": "SBJT",
          "name": "Central Silk Board",
          "name:en": "Central Silk Board",
          "name:kn": "\u0cb8\u0cc6\u0c82\u0c9f\u0ccd\u0cb0\u0cb2\u0ccd \u0cb8\u0cbf\u0cb2\u0ccd\u0c95 \u0cac\u0ccb\u0cb0\u0ccd\u0ca1\u0ccd",
          "network": "Namma Metro",
          "note": "Contributors are requested to not edit the \"network\" and the \"operator\" tags. (2023/11/08)",
          "operator": "Bangalore Metro Rail Corporation Limited",
          "public_transport": "stop_position",
          "public_transport:version": "2",
          "railway": "stop",
          "source": "http://www.bmrc.co.in/English/Network.htm",
          "subway": "yes",
          "wheelchair": "yes"
        }
      },
      {
        "type": "node",
        "id": 13046007575,
        "lat": 12.916598,
        "lon": 77.6086222,
        "tags": {
          "code": "BTML",
          "name": "BTM Layout",
          "name:en": "BTM Layout",
          "name:kn": "\u0cac\u0cbf\u0c9f\u0cbf\u0c8e\u0c82 \u0cac\u0ca1\u0cbe\u0cb5\u0ca3\u0cc6",
          "network": "Namma Metro",
          "note": "Contributors are requested to not edit the \"network\" and the \"operator\" tags. (2023/11/08)",
          "operator": "Bangalore Metro Rail Corporation Limited",
          "public_transport": "stop_position",
          "public_transport:version": "2",
          "railway": "stop",
          "source": "http://www.bmrc.co.in/English/Network.htm",
          "subway": "yes",
          "wheelchair": "yes"
        }
      },
      {
        "type": "node",
        "id": 13046007576,
        "lat": 12.916573,
        "lon": 77.6076327,
        "tags": {
          "code": "BTML",
          "name": "BTM Layout",
          "name:en": "BTM Layout",
          "name:kn": "\u0cac\u0cbf\u0c9f\u0cbf\u0c8e\u0c82 \u0cac\u0ca1\u0cbe\u0cb5\u0ca3\u0cc6",
          "network": "Namma Metro",
          "note": "Contributors are requested to not edit the \"network\" and the \"operator\" tags. (2023/11/08)",
          "operator": "Bangalore Metro Rail Corporation Limited",
          "public_transport": "stop_position",
          "public_transport:version": "2",
          "railway": "stop",
          "source": "http://www.bmrc.co.in/English/Network.htm",
          "subway": "yes",
          "wheelchair": "yes"
        }
      }
    ]
  }
}