{
  "pois_1km": {
    "version": 0.6,
    "generator": "Overpass API 0.7.62.8 e802775f",
    "osm3s": {
      "timestamp_osm_base": "2025-09-06T08:17:29Z",
      "copyright": "The data included in this document is from www.openstreetmap.org. The data is made available under ODbL."
    },
    "elements": [
      {
        "type": "node",
        "id": 1988322107,
        "lat": 13.0834023,
        "lon": 77.6348642,
        "tags": {
          "amenity": "hospital",
          "name": "Dhanavantri Hospital",
          "name:kn": "\u0ca7\u0ca8\u0cb5\u0c82\u0ca4\u0ccd\u0cb0\u0cbf \u0c86\u0cb8\u0ccd\u0caa\u0ca4\u0ccd\u0cb0\u0cc6"
        }
      },
      {
        "type": "node",
        "id": 4445179843,
        "lat": 13.0830463,
        "lon": 77.6347174,
        "tags": {
          "addr:city": "Bangalore",
          "addr:housenumber": "No.30",
          "addr:postcode": "560064",
          "addr:street": "Thanisandra Main Road, Chokkanahalli",
          "amenity": "hospital",
          "name": "Regal Hospital",
          "phone": "08033082383",
          "website": "https://regalhospital.com/"
        }
      },
      {
        "type": "node",
        "id": 6033054486,
        "lat": 13.0853623,
        "lon": 77.634757,
        "tags": {
          "amenity": "restaurant",
          "cuisine": "indian",
          "name": "\u0a28\u0a3f\u0a09\u0a41\u0a42 \u0a2e\u0a38\u0a24 \u0a2a\u0a70\u0a1c\u0a3e\u0a2c\u0a40",
          "name:en": "New Mast Punjabi",
          "name:hi": "\u0928\u094d\u092f\u0942 \u092e\u0938\u094d\u0924 \u092a\u0902\u091c\u093e\u092c\u0940",
          "name:pa": "\u0a28\u0a3f\u0a09\u0a41\u0a42 \u0a2e\u0a38\u0a24 \u0a2a\u0a70\u0a1c\u0a3e\u0a2c\u0a40"
        }
      },
      {
        "type": "node",
        "id": 9667658456,
        "lat": 13.0838701,
        "lon": 77.6438865,
        "tags": {
          "alt_name": "Kentucky Fried Chicken",
          "alt_name:en": "Kentucky Fried Chicken",
          "alt_name:hi": "\u0915\u0947\u0902\u091f\u0941\u0915\u0940 \u092b\u094d\u0930\u093e\u0907\u0921 \u091a\u093f\u0915\u0928",
          "alt_name:pa": "\u0a15\u0a48\u0a02\u0a1f\u0a41\u0a15\u0a40 \u0a2b\u0a4d\u0a30\u0a3e\u0a08\u0a21 \u0a1a\u0a3f\u0a15\u0a28",
          "alt_name:pnb": "\u06a9\u06cc\u0646\u0679\u06a9\u06cc \u0641\u0631\u0627\u0626\u06cc\u0688 \u0686\u06a9\u0646",
          "alt_name:ur": "\u06a9\u06cc\u0646\u0679\u06a9\u06cc \u0641\u0631\u0627\u0626\u06cc\u0688 \u0686\u06a9\u0646",
          "amenity": "fast_food",
          "brand": "KFC",
          "brand:en": "KFC",
          "brand:hi": "\u0915\u0947\u090f\u092b\u0938\u0940",
          "brand:pa": "\u0a15\u0a47\u0a10\u0a2b\u0a38\u0a40",
          "brand:pnb": "\u06a9\u06d2 \u0627\u06cc\u0641 \u0633\u06cc",
          "brand:ur": "\u06a9\u06d2 \u0627\u06cc\u0641 \u0633\u06cc",
          "brand:wikidata": "Q524757",
          "cuisine": "chicken",
          "name": "KFC",
          "name:en": "KFC",
          "name:hi": "\u0915\u0947\u090f\u092b\u0938\u0940",
          "name:pa": "\u0a15\u0a47\u0a10\u0a2b\u0a38\u0a40",
          "name:pnb": "\u06a9\u06d2 \u0627\u06cc\u0641 \u0633\u06cc",
          "name:ur": "\u06a9\u06d2 \u0627\u06cc\u0641 \u0633\u06cc",
          "takeaway": "yes"
        }
      },
      {
        "type": "node",
        "id": 9667658457,
        "lat": 13.0841026,
        "lon": 77.643688,
        "tags": {
          "amenity": "fast_food",
          "brand": "McDonald's",
          "brand:wikidata": "Q38076",
          "cuisine": "burger",
          "name": "McDonald's",
          "name:kn": "\u0cae\u0ccd\u0caf\u0cbe\u0c95\u0ccd\u200c\u0ca1\u0cca\u0ca8\u0cbe\u0cb2\u0ccd\u0ca1\u0ccd\u0cb8\u0ccd",
          "takeaway": "yes"
        }
      },
      {
        "type": "node",
        "id": 9667696124,
        "lat": 13.0834834,
        "lon": 77.6430121,
        "tags": {
          "amenity": "restaurant",
          "name": "Quattro"
        }
      },
      {
        "type": "node",
        "id": 9667696126,
        "lat": 13.0842149,
        "lon": 77.6431784,
        "tags": {
          "amenity": "restaurant",
          "cuisine": "asian",
          "name": "The Lotus Oriental"
        }
      },
      {
        "type": "node",
        "id": 9667696127,
        "lat": 13.0844631,
        "lon": 77.6431301,
        "tags": {
          "amenity": "cafe",
          "name": "The Lobby Lounge"
        }
      },
      {
        "type": "node",
        "id": 9667696128,
        "lat": 13.0845467,
        "lon": 77.6427948,
        "tags": {
          "amenity": "restaurant",
          "cuisine": "indian",
          "name": "Falak"
        }
      },
      {
        "type": "node",
        "id": 10314206951,
        "lat": 13.0836402,
        "lon": 77.6433903,
        "tags": {
          "amenity": "fast_food",
          "brand": "Krispy Kreme",
          "brand:wikidata": "Q1192805",
          "cuisine": "donut",
          "name": "Krispy Kreme",
          "takeaway": "yes"
        }
      },
      {
        "type": "node",
        "id": 10314206952,
        "lat": 13.0834364,
        "lon": 77.6433232,
        "tags": {
          "amenity": "cafe",
          "brand": "Starbucks",
          "brand:wikidata": "Q37158",
          "cuisine": "coffee_shop",
          "name": "Starbucks",
          "official_name": "Starbucks Coffee",
          "takeaway": "yes"
        }
      },
      {
        "type": "node",
        "id": 10946873741,
        "lat": 13.084032,
        "lon": 77.6439562,
        "tags": {
          "amenity": "fast_food",
          "building": "yes",
          "cuisine": "pizza",
          "delivery": "yes",
          "name": "Gopizza",
          "operator": "GOPIZZA",
          "takeaway": "yes"
        }
      },
      {
        "type": "node",
        "id": 13075555919,
        "lat": 13.0832669,
        "lon": 77.6436602,
        "tags": {
          "addr:city": "Bengaluru",
          "addr:country": "IN",
          "addr:neighbourhood": "Bhartiya City",
          "air_conditioning": "yes",
          "amenity": "restaurant",
          "check_date": "2025-08-17",
          "contact:instagram": "sinonnas",
          "cuisine": "pizza",
          "delivery": "yes",
          "level": "0",
          "name": "Si Nonna's",
          "reservation": "yes",
          "takeaway": "yes",
          "toilets": "yes",
          "website": "https://sinonnas.com/"
        }
      }
    ]
  },
  "pois_2_5km": {
    "version": 0.6,
    "generator": "Overpass API 0.7.62.8 e802775f",
    "osm3s": {
      "timestamp_osm_base": "2025-09-06T08:17:29Z",
      "copyright": "The data included in this document is from www.openstreetmap.org. The data is made available under ODbL."
    },
    "elements": [
      {
        "type": "node",
        "id": 2125917387,
        "lat": 13.0756644,
        "lon": 77.651634,
        "tags": {
          "bus": "yes",
          "name": "Poornaprajna School",
          "name:en": "Poornaprajna School",
          "name:kn": "\u0caa\u0cc2\u0cb0\u0ccd\u0ca3\u0caa\u0ccd\u0cb0\u0c9c\u0ccd\u0c9e \u0cb6\u0cbe\u0cb2\u0cc6",
          "network": "BMTC",
          "operator": "BMTC",
          "public_transport": "stop_position"
        }
      },
      {
        "type": "node",
        "id": 2460237956,
        "lat": 13.0663927,
        "lon": 77.640586,
        "tags": {
          "bus": "yes",
          "name": "K Narayanapura Main Bus Stand",
          "network": "BMTC",
          "operator": "BMTC",
          "public_transport": "stop_position"
        }
      },
      {
        "type": "node",
        "id": 6535450002,
        "lat": 13.0649211,
        "lon": 77.6517642,
        "tags": {
          "bus": "yes",
          "name": "Gubbi Cross (Towards Byrathi Bande)",
          "network": "BMTC",
          "operator": "BMTC",
          "public_transport": "stop_position"
        }
      },
      {
        "type": "node",
        "id": 6535450004,
        "lat": 13.0632341,
        "lon": 77.6422364,
        "tags": {
          "bus": "yes",
          "name": "K Narayanapura",
          "network": "BMTC",
          "operator": "BMTC",
          "public_transport": "stop_position"
        }
      },
      {
        "type": "node",
        "id": 6535450005,
        "lat": 13.070251,
        "lon": 77.642619,
        "tags": {
          "bus": "yes",
          "name": "Nagareshwara Nagenahalli",
          "name:kn": "\u0ca8\u0c97\u0cb0\u0cc7\u0cb6\u0ccd\u0cb5\u0cb0 \u0ca8\u0cbe\u0c97\u0cc7\u0ca8\u0cb9\u0cb3\u0ccd\u0cb3\u0cbf",
          "network": "BMTC",
          "operator": "BMTC",
          "public_transport": "stop_position"
        }
      },
      {
        "type": "node",
        "id": 6535450008,
        "lat": 13.0656837,
        "lon": 77.6433213,
        "tags": {
          "bus": "yes",
          "name": "BDS Nagara",
          "network": "BMTC",
          "operator": "BMTC",
          "public_transport": "stop_position"
        }
      },
      {
        "type": "node",
        "id": 6842561208,
        "lat": 13.0932874,
        "lon": 77.6542749,
        "tags": {
          "bus": "yes",
          "name": "Kannuru",
          "name:en": "Kannuru",
          "network": "BMTC",
          "operator": "BMTC",
          "public_transport": "stop_position"
        }
      },
      {
        "type": "node",
        "id": 6842561209,
        "lat": 13.084351,
        "lon": 77.6542008,
        "tags": {
          "bus": "yes",
          "name": "Chikka Gubbi Cross",
          "name:en": "Chikka Gubbi Cross",
          "network": "BMTC",
          "operator": "BMTC",
          "public_transport": "stop_position"
        }
      },
      {
        "type": "node",
        "id": 6842561213,
        "lat": 13.0815132,
        "lon": 77.6532806,
        "tags": {
          "bus": "yes",
          "name": "Nagenahalli",
          "name:en": "Nagenahalli",
          "name:kn": "\u0ca8\u0cbe\u0c97\u0cc7\u0ca8\u0cb9\u0cb3\u0ccd\u0cb3\u0cbf",
          "network": "BMTC",
          "operator": "BMTC",
          "public_transport": "stop_position"
        }
      },
      {
        "type": "node",
        "id": 6842561215,
        "lat": 13.0779553,
        "lon": 77.653364,
        "tags": {
          "bus": "yes",
          "local_ref": "Chikkagubbi Cross",
          "name": "Byrathi Bande",
          "name:en": "Byrathi Bande",
          "name:kn": "\u0cac\u0cc8\u0cb0\u0ca4\u0cbf \u0cac\u0c82\u0ca1\u0cc6",
          "network": "BMTC",
          "operator": "BMTC",
          "public_transport": "stop_position"
        }
      },
      {
        "type": "node",
        "id": 6842561217,
        "lat": 13.0712475,
        "lon": 77.651463,
        "tags": {
          "bus": "yes",
          "name": "Bible College Byrathi",
          "name:en": "Bible College Byrathi",
          "network": "BMTC",
          "operator": "BMTC",
          "public_transport": "stop_position"
        }
      },
      {
        "type": "node",
        "id": 7106084429,
        "lat": 13.1011193,
        "lon": 77.6349963,
        "tags": {
          "bus": "yes",
          "name": "Bellahalli Cross",
          "name:en": "Bellahalli Cross",
          "name:kn": "\u0cac\u0cc6\u0cb2\u0ccd\u0cb2\u0cb9\u0cb3\u0ccd\u0cb3\u0cbf \u0c95\u0ccd\u0cb0\u0cbe\u0cb8\u0ccd",
          "network": "BMTC",
          "operator": "BMTC",
          "public_transport": "stop_position"
        }
      },
      {
        "type": "node",
        "id": 7106084431,
        "lat": 13.0887084,
        "lon": 77.6353788,
        "tags": {
          "bus": "yes",
          "name": "Thirumenahalli Cross (KNS College)",
          "name:en": "Thirumenahalli Cross (KNS College)",
          "network": "BMTC",
          "operator": "BMTC",
          "public_transport": "stop_position"
        }
      },
      {
        "type": "node",
        "id": 7106084432,
        "lat": 13.084548,
        "lon": 77.6347166,
        "tags": {
          "bus": "yes",
          "name": "Chokkanahalli Gate",
          "name:en": "Chokkanahalli Gate",
          "network": "BMTC",
          "operator": "BMTC",
          "public_transport": "stop_position"
        }
      },
      {
        "type": "node",
        "id": 7106084433,
        "lat": 13.0803199,
        "lon": 77.6340481,
        "tags": {
          "bus": "yes",
          "name": "Noor Nagara",
          "name:en": "Noor Nagara",
          "name:kn": "\u0ca8\u0cc2\u0cb0\u0ccd \u0ca8\u0c97\u0cb0",
          "network": "BMTC",
          "operator": "BMTC",
          "public_transport": "stop_position"
        }
      },
      {
        "type": "node",
        "id": 7106084434,
        "lat": 13.0738835,
        "lon": 77.6336722,
        "tags": {
          "bus": "yes",
          "name": "Koli Farm",
          "name:en": "Koli Farm",
          "network": "BMTC",
          "operator": "BMTC",
          "public_transport": "stop_position"
        }
      },
      {
        "type": "node",
        "id": 7106084435,
        "lat": 13.0715024,
        "lon": 77.6336486,
        "tags": {
          "bus": "yes",
          "name": "RK Hegde Nagara",
          "name:en": "RK Hegde Nagara",
          "network": "BMTC",
          "operator": "BMTC",
          "public_transport": "stop_position"
        }
      },
      {
        "type": "node",
        "id": 7106084436,
        "lat": 13.0680281,
        "lon": 77.6335289,
        "tags": {
          "bus": "yes",
          "name": "K Narayanapura Cross",
          "name:en": "K Narayanapura Cross",
          "network": "BMTC",
          "operator": "BMTC",
          "public_transport": "stop_position"
        }
      },
      {
        "type": "node",
        "id": 7140581380,
        "lat": 13.0666595,
        "lon": 77.6408465,
        "tags": {
          "bus": "yes",
          "name": "K Narayanapura Main Bus Stand",
          "name:en": "K Narayanapura Main Bus Stand",
          "network": "BMTC",
          "operator": "BMTC",
          "public_transport": "stop_position"
        }
      },
      {
        "type": "node",
        "id": 7141016441,
        "lat": 13.0657644,
        "lon": 77.6430215,
        "tags": {
          "bus": "yes",
          "name": "BDS Nagara",
          "name:en": "BDS Nagara",
          "network": "BMTC",
          "operator": "BMTC",
          "public_transport": "stop_position"
        }
      },
      {
        "type": "node",
        "id": 10314206953,
        "lat": 13.0833711,
        "lon": 77.6434439,
        "tags": {
          "amenity": "cinema",
          "name": "PVR",
          "operator": "PVR Cinemas",
          "screen": "7"
        }
      },
      {
        "type": "node",
        "id": 11872033077,
        "lat": 13.0872763,
        "lon": 77.6547621,
        "tags": {
          "bus": "yes",
          "name": "Kanakshree Layout Chikka Gubbi",
          "name:en": "Kanakshree Layout Chikka Gubbi",
          "network": "BMTC",
          "operator": "BMTC",
          "public_transport": "stop_position"
        }
      }
    ]
  }
}