{
  "pois_1km": {
    "version": 0.6,
    "generator": "Overpass API 0.7.62.8 e802775f",
    "osm3s": {
      "timestamp_osm_base": "2025-09-06T08:11:22Z",
      "copyright": "The data included in this document is from www.openstreetmap.org. The data is made available under ODbL."
    },
    "elements": [
      {
        "type": "node",
        "id": 303933809,
        "lat": 12.9365346,
        "lon": 77.627846,
        "tags": {
          "amenity": "bank",
          "brand": "State Bank of India",
          "brand:wikidata": "Q1340361",
          "brand:wikipedia": "en:State Bank of India",
          "name": "State Bank of India",
          "name:kn": "\u0cad\u0cbe\u0cb0\u0ca4\u0cc0\u0caf \u0cb8\u0ccd\u0c9f\u0cc7\u0c9f\u0ccd \u0cac\u0ccd\u0caf\u0cbe\u0c82\u0c95\u0ccd",
          "short_name": "SBI"
        }
      },
      {
        "type": "node",
        "id": 306585721,
        "lat": 12.9333646,
        "lon": 77.6230728,
        "tags": {
          "addr:street": "Mahayogi Vemana Road",
          "amenity": "restaurant",
          "name": "Sukh Sagar",
          "name:kn": "\u0cb8\u0cc1\u0c96\u0ccd \u0cb8\u0cbe\u0c97\u0cb0"
        }
      },
      {
        "type": "node",
        "id": 839826450,
        "lat": 12.9267313,
        "lon": 77.6346384,
        "tags": {
          "amenity": "clinic",
          "name": "Shilpa Homeopathic Clinic"
        }
      },
      {
        "type": "node",
        "id": 1091310741,
        "lat": 12.9377655,
        "lon": 77.6267552,
        "tags": {
          "addr:street": "80 Feet Road",
          "amenity": "restaurant",
          "name": "Gangothri Restaurant",
          "name:kn": "\u0c97\u0c82\u0c97\u0ccb\u0ca4\u0ccd\u0cb0\u0cbf \u0cb0\u0cc6\u0cb8\u0ccd\u0c9f\u0ccb\u0cb0\u0cc6\u0c82\u0c9f\u0ccd"
        }
      },
      {
        "type": "node",
        "id": 1091310761,
        "lat": 12.9376227,
        "lon": 77.6269262,
        "tags": {
          "addr:street": "Koramangala Inner Ring Road",
          "amenity": "fast_food",
          "brand": "Taco Bell",
          "brand:wikidata": "Q752941",
          "brand:wikipedia": "en:Taco Bell",
          "cuisine": "tex-mex",
          "name": "Taco Bell",
          "name:kn": "\u0c9f\u0cbe\u0c95\u0cca \u0cac\u0cc6\u0cb2\u0ccd",
          "takeaway": "yes"
        }
      },
      {
        "type": "node",
        "id": 1274328868,
        "lat": 12.9349444,
        "lon": 77.6293498,
        "tags": {
          "amenity": "cafe",
          "brand": "Barista",
          "brand:wikidata": "Q644735",
          "cuisine": "coffee_shop",
          "name": "Barista",
          "name:kn": "\u0cac\u0cb0\u0cbf\u0cb8\u0ccd\u0c9f",
          "takeaway": "yes"
        }
      },
      {
        "type": "node",
        "id": 1328615136,
        "lat": 12.9362306,
        "lon": 77.6254307,
        "tags": {
          "amenity": "fast_food",
          "name": "Kota Kachori",
          "name:kn": "\u0cb6\u0cbe\u0c82\u0ca4\u0cbf \u0cb8\u0cbe\u0c97\u0cb0\u0ccd"
        }
      },
      {
        "type": "node",
        "id": 1328615137,
        "lat": 12.9370423,
        "lon": 77.6245906,
        "tags": {
          "amenity": "restaurant",
          "name": "Coast to Coast Sea food restaurant",
          "name:kn": "\u0c95\u0ccb\u0cb8\u0ccd\u0c9f\u0ccd \u0c9f\u0cc1 \u0c95\u0ccb\u0cb8\u0ccd\u0c9f\u0ccd \u0cb8\u0cc0 \u0cab\u0cc1\u0ca1\u0ccd \u0cb0\u0cc6\u0cb8\u0ccd\u0c9f\u0ccb\u0cb0\u0cc6\u0c82\u0c9f\u0ccd"
        }
      },
      {
        "type": "node",
        "id": 1328615138,
        "lat": 12.9342471,
        "lon": 77.6234716,
        "tags": {
          "amenity": "restaurant",
          "name": "Tamrind Restaurant",
          "name:kn": "\u0c9f\u0ccd\u0caf\u0cbe\u0cae\u0cb0\u0cbf\u0c82\u0ca1\u0ccd \u0cb0\u0cc6\u0cb8\u0ccd\u0c9f\u0ccb\u0cb0\u0cc6\u0c82\u0c9f\u0ccd"
        }
      },
      {
        "type": "node",
        "id": 1328615139,
        "lat": 12.9370998,
        "lon": 77.6245424,
        "tags": {
          "amenity": "restaurant",
          "name": "Kubey Seafood Restaurant",
          "name:kn": "\u0c95\u0cc1\u0cac\u0cc6 \u0cb8\u0cc0\u0cab\u0cc1\u0c82\u0ca1\u0ccd \u0cb0\u0cc6\u0cb8\u0ccd\u0c9f\u0ccb\u0cb0\u0cc6\u0c82\u0c9f\u0ccd"
        }
      },
      {
        "type": "node",
        "id": 1375978266,
        "lat": 12.9336331,
        "lon": 77.622557,
        "tags": {
          "amenity": "restaurant",
          "cuisine": "chinese",
          "name": "Ping",
          "name:kn": "\u0caa\u0cbf\u0c82\u0c97\u0ccd"
        }
      },
      {
        "type": "node",
        "id": 1375978287,
        "lat": 12.9334311,
        "lon": 77.6217925,
        "tags": {
          "amenity": "restaurant",
          "cuisine": "chinese",
          "name": "Beijing Bites",
          "name:kn": "\u0cac\u0cc0\u0c9c\u0cbf\u0c82\u0c97\u0ccd \u0cac\u0cc8\u0c9f\u0ccd\u0cb8\u0ccd"
        }
      },
      {
        "type": "node",
        "id": 1463745568,
        "lat": 12.9372017,
        "lon": 77.6244522,
        "tags": {
          "amenity": "fast_food",
          "name": "Madurai Idly shop"
        }
      },
      {
        "type": "node",
        "id": 1463831582,
        "lat": 12.934295,
        "lon": 77.6300787,
        "tags": {
          "amenity": "restaurant",
          "name": "Maharaja Restaurant",
          "name:kn": "\u0cae\u0cb9\u0cbe\u0cb0\u0cbe\u0c9c \u0cb0\u0cc6\u0cb8\u0ccd\u0c9f\u0ccb\u0cb0\u0cc6\u0c82\u0c9f\u0ccd"
        }
      },
      {
        "type": "node",
        "id": 1463831750,
        "lat": 12.9338627,
        "lon": 77.6304381,
        "tags": {
          "amenity": "bank",
          "brand": "Axis Bank",
          "brand:wikidata": "Q2003549",
          "name": "Axis Bank",
          "name:kn": "\u0c86\u0c95\u0ccd\u0cb8\u0cbf\u0cb8\u0ccd \u0cac\u0ccd\u0caf\u0cbe\u0c82\u0c95\u0ccd",
          "operator": "Axix"
        }
      },
      {
        "type": "node",
        "id": 1463845802,
        "lat": 12.9312186,
        "lon": 77.6342399,
        "tags": {
          "amenity": "restaurant"
        }
      },
      {
        "type": "node",
        "id": 1464784180,
        "lat": 12.9344222,
        "lon": 77.6240149,
        "tags": {
          "addr:street": "Koramangala, Bangalore",
          "amenity": "bank",
          "atm": "yes",
          "brand": "Canara Bank",
          "brand:en": "Canara Bank",
          "brand:hi": "\u0915\u0947\u0928\u0930\u093e \u092c\u0948\u0902\u0915",
          "brand:kn": "\u0c95\u0cc6\u0ca8\u0cb0\u0cbe \u0cac\u0ccd\u0caf\u0cbe\u0c82\u0c95\u0ccd",
          "brand:pa": "\u0a15\u0a47\u0a28\u0a30\u0a3e \u0a2c\u0a48\u0a02\u0a15",
          "brand:pnb": "\u06a9\u06cc\u0646\u0631\u0627 \u0628\u06cc\u0646\u06a9",
          "brand:ur": "\u06a9\u06cc\u0646\u0631\u0627 \u0628\u06cc\u0646\u06a9",
          "brand:wikidata": "Q2003777",
          "brand:wikipedia": "en:Canara Bank",
          "brand:wikipedia:pa": "\u0a15\u0a47\u0a28\u0a30\u0a3e \u0a2c\u0a48\u0a02\u0a15",
          "name": "Canara Bank",
          "name:en": "Canara Bank",
          "name:hi": "\u0915\u0947\u0928\u0930\u093e \u092c\u0948\u0902\u0915",
          "name:kn": "\u0c95\u0cc6\u0ca8\u0cb0\u0cbe \u0cac\u0ccd\u0caf\u0cbe\u0c82\u0c95\u0ccd",
          "name:pa": "\u0a15\u0a47\u0a28\u0a30\u0a3e \u0a2c\u0a48\u0a02\u0a15",
          "name:pnb": "\u06a9\u06cc\u0646\u0631\u0627 \u0628\u06cc\u0646\u06a9",
          "name:ur": "\u06a9\u06cc\u0646\u0631\u0627 \u0628\u06cc\u0646\u06a9",
          "website": "https://www.canarabank.com/"
        }
      },
      {
        "type": "node",
        "id": 1464784876,
        "lat": 12.9331413,
        "lon": 77.6228508,
        "tags": {
          "amenity": "restaurant",
          "cuisine": "spanish",
          "name": "Fiorano Ristorante",
          "name:kn": "\u0cab\u0cbf\u0caf\u0cca\u0cb0\u0cbe\u0ca8\u0cca \u0cb0\u0cbf\u0cb8\u0ccd\u0c9f\u0cca\u0cb0\u0c82\u0c9f\u0cc6"
        }
      },
      {
        "type": "node",
        "id": 1464790791,
        "lat": 12.9336643,
        "lon": 77.6231619,
        "tags": {
          "addr:city": "Bengaluru",
          "addr:street": "Koramanagala",
          "amenity": "bank",
          "atm": "yes",
          "brand": "Kotak Mahindra Bank",
          "brand:wikidata": "Q2040404",
          "drive_through": "no",
          "name": "Kotak Mahindra Bank",
          "name:en": "Kotak Mahindra Bank",
          "name:kn": "\u0c95\u0ccb\u0c9f\u0c95\u0ccd \u0cae\u0cb9\u0cbf\u0c82\u0ca6\u0ccd\u0cb0 \u0cac\u0ccd\u0caf\u0cbe\u0c82\u0c95\u0ccd"
        }
      },
      {
        "type": "node",
        "id": 1464790817,
        "lat": 12.9338891,
        "lon": 77.6232852,
        "tags": {
          "addr:city": "Bengaluru",
          "addr:street": "Koramangala",
          "amenity": "bank",
          "atm": "yes",
          "brand": "IDBI Bank",
          "brand:wikidata": "Q3633485",
          "drive_through": "no",
          "name": "IDBI Bank",
          "name:kn": "\u0c90\u0ca1\u0cbf\u0cac\u0cbf\u0c90 \u0cac\u0ccd\u0caf\u0cbe\u0c82\u0c95\u0ccd",
          "old_name": "Industrial Development Bank of India",
          "short_name": "IDBI"
        }
      },
      {
        "type": "node",
        "id": 1464885140,
        "lat": 12.9373048,
        "lon": 77.6244506,
        "tags": {
          "addr:postcode": "560095",
          "addr:street": "17th b main, 6th block",
          "amenity": "pharmacy",
          "brand": "Apollo Pharmacy",
          "brand:wikidata": "Q62562612",
          "dispensing": "yes",
          "healthcare": "pharmacy",
          "name": "Apollo Pharmacy",
          "name:kn": "\u0c85\u0caa\u0ccb\u0cb2\u0ccb \u0cab\u0cbe\u0cb0\u0ccd\u0cae\u0cb8\u0cbf"
        }
      },
      {
        "type": "node",
        "id": 1464921660,
        "lat": 12.936103,
        "lon": 77.6251968,
        "tags": {
          "addr:street": "Koramangala, Bangalore",
          "amenity": "bank",
          "atm": "yes",
          "brand": "Karur Vysya Bank",
          "brand:wikidata": "Q6373724",
          "brand:wikipedia": "en:Karur Vysya Bank",
          "name": "Karur Vysya Bank",
          "name:en": "Karur Vysya Bank",
          "name:kn": "\u0c95\u0cb0\u0cc2\u0cb0\u0cc1 \u0cb5\u0cc8\u0cb6\u0ccd\u0caf \u0cac\u0ccd\u0caf\u0cbe\u0c82\u0c95\u0ccd",
          "short_name": "KVB",
          "website": "https://www.kvb.co.in"
        }
      },
      {
        "type": "node",
        "id": 1464923222,
        "lat": 12.9358758,
        "lon": 77.6259621,
        "tags": {
          "addr:street": "Koramangala, Bangalore",
          "amenity": "bank",
          "atm": "yes",
          "name": "Dhanalakshmi Bank",
          "name:kn": "\u0ca6\u0ca8\u0cb2\u0c95\u0ccd\u0cb7\u0ccd\u0cae\u0cbf \u0cac\u0ccd\u0caf\u0cbe\u0c82\u0c95\u0ccd"
        }
      },
      {
        "type": "node",
        "id": 1465190491,
        "lat": 12.9352032,
        "lon": 77.6228947,
        "tags": {
          "description": "Convenience store for all household items & accessories",
          "name": "Sowbhagya Traders",
          "shop": "supermarket"
        }
      },
      {
        "type": "node",
        "id": 1468025779,
        "lat": 12.9364077,
        "lon": 77.6250803,
        "tags": {
          "amenity": "restaurant",
          "cuisine": "indian",
          "name": "Imperial Hotel",
          "name:kn": "\u0c87\u0c82\u0caa\u0cbf\u0cb0\u0cbf\u0caf\u0cb2\u0ccd \u0cb9\u0ccb\u0c9f\u0cc6\u0cb2\u0ccd"
        }
      },
      {
        "type": "node",
        "id": 1468025791,
        "lat": 12.9368711,
        "lon": 77.6248696,
        "tags": {
          "amenity": "restaurant",
          "cuisine": "international",
          "name": "Ocean restaurant",
          "name:kn": "\u0c92\u0cb7\u0ca8\u0ccd \u0cb0\u0cc6\u0cb8\u0ccd\u0c9f\u0cca\u0cb0\u0cc6\u0c82\u0c9f\u0ccd"
        }
      },
      {
        "type": "node",
        "id": 1468516359,
        "lat": 12.936869,
        "lon": 77.6247225,
        "tags": {
          "addr:postcode": "560095",
          "addr:street": "Koramangala",
          "amenity": "restaurant",
          "cuisine": "indian",
          "name": "Naati oota",
          "name:kn": "\u0ca8\u0cbe\u0c9f\u0cbf \u0c8a\u0c9f"
        }
      },
      {
        "type": "node",
        "id": 1468516363,
        "lat": 12.9366613,
        "lon": 77.6253726,
        "tags": {
          "amenity": "atm",
          "brand": "Indian Bank",
          "brand:wikidata": "Q2003789",
          "fee": "no",
          "name": "Indian Bank",
          "name:kn": "\u0c87\u0c82\u0ca1\u0cbf\u0caf\u0ca8\u0ccd \u0cac\u0ccd\u0caf\u0cbe\u0c82\u0c95\u0ccd",
          "operator": "Indian Bank",
          "operator:wikidata": "Q2003789"
        }
      },
      {
        "type": "node",
        "id": 1468516372,
        "lat": 12.9368847,
        "lon": 77.6246206,
        "tags": {
          "amenity": "restaurant",
          "cuisine": "chinese",
          "name": "Chinese Cottage",
          "name:kn": "\u0c9a\u0cc8\u0ca8\u0cc0\u0cb8\u0ccd \u0c95\u0cbe\u0c9f\u0cc6\u0c9c\u0ccd"
        }
      },
      {
        "type": "node",
        "id": 1468540658,
        "lat": 12.9377944,
        "lon": 77.6266966,
        "tags": {
          "amenity": "restaurant",
          "cuisine": "indian",
          "name": "Chalo Punjab",
          "name:kn": "\u0c9a\u0cb2\u0cca \u0caa\u0c82\u0c9c\u0cbe\u0cac\u0ccd"
        }
      },
      {
        "type": "node",
        "id": 1468540676,
        "lat": 12.9361835,
        "lon": 77.6258638,
        "tags": {
          "amenity": "restaurant",
          "cuisine": "international",
          "name": "Ambrosia restaurant",
          "name:kn": "\u0c85\u0c82\u0cac\u0ccd\u0cb0\u0cca\u0cb8\u0cbf\u0caf \u0cb0\u0cc6\u0cb8\u0ccd\u0c9f\u0cca\u0cb0\u0cc6\u0c82\u0c9f\u0ccd"
        }
      },
      {
        "type": "node",
        "id": 1468540736,
        "lat": 12.937363,
        "lon": 77.626659,
        "tags": {
          "name": "Brown Tree Super",
          "shop": "supermarket"
        }
      },
      {
        "type": "node",
        "id": 1468540754,
        "lat": 12.9367383,
        "lon": 77.6259938,
        "tags": {
          "amenity": "atm",
          "brand": "Bank of Baroda",
          "brand:wikidata": "Q2003797",
          "name": "Bank of Baroda",
          "name:kn": "\u0cb5\u0cbf\u0c9c\u0caf \u0cac\u0ccd\u0caf\u0cbe\u0c82\u0c95\u0cc1",
          "operator": "Bank of Baroda",
          "operator:wikidata": "Q2003797"
        }
      },
      {
        "type": "node",
        "id": 1472015388,
        "lat": 12.927395,
        "lon": 77.621901,
        "tags": {
          "amenity": "bank",
          "brand": "State Bank of India",
          "brand:wikidata": "Q1340361",
          "brand:wikipedia": "en:State Bank of India",
          "name": "State Bank of India",
          "name:kn": "\u0c8e\u0cb8\u0ccd \u0cac\u0cbf \u0c90",
          "short_name": "SBI",
          "website": "https://www.sbi.co.in"
        }
      },
      {
        "type": "node",
        "id": 1472015890,
        "lat": 12.9273417,
        "lon": 77.6221301,
        "tags": {
          "amenity": "hospital",
          "healthcare": "hospital",
          "name": "Agarwal Eye Hospital"
        }
      },
      {
        "type": "node",
        "id": 1472248473,
        "lat": 12.9271081,
        "lon": 77.6226087,
        "tags": {
          "amenity": "pharmacy",
          "dispensing": "Vijayashree Diagnostics",
          "healthcare": "pharmacy",
          "name": "Vijaya Shree Diagnostics"
        }
      },
      {
        "type": "node",
        "id": 1472871254,
        "lat": 12.9322872,
        "lon": 77.6320394,
        "tags": {
          "addr:postcode": "560034",
          "addr:street": "80 Feet Road",
          "amenity": "bank",
          "name": "Unity Small Finance Bank"
        }
      },
      {
        "type": "node",
        "id": 1473308076,
        "lat": 12.9377532,
        "lon": 77.6266479,
        "tags": {
          "amenity": "pharmacy",
          "healthcare": "pharmacy",
          "name": "Himalaya Health care - druggists"
        }
      },
      {
        "type": "node",
        "id": 1473308080,
        "lat": 12.9353953,
        "lon": 77.6233434,
        "tags": {
          "amenity": "pharmacy",
          "healthcare": "pharmacy",
          "name": "Arathi medicals"
        }
      },
      {
        "type": "node",
        "id": 1473308085,
        "lat": 12.9375545,
        "lon": 77.6281177,
        "tags": {
          "amenity": "restaurant",
          "cuisine": "international",
          "name": "Polynation",
          "name:kn": "\u0caa\u0cca\u0cb2\u0cbf\u0ca8\u0cc6\u0cb6\u0ca8\u0ccd",
          "wheelchair": "yes"
        }
      },
      {
        "type": "node",
        "id": 1473308109,
        "lat": 12.9376735,
        "lon": 77.6264373,
        "tags": {
          "amenity": "restaurant",
          "cuisine": "indian",
          "name": "Taste of Bihar",
          "name:kn": "\u0c9f\u0cc6\u0cb8\u0ccd\u0c9f\u0ccd \u0c86\u0cab\u0ccd \u0cac\u0cbf\u0cb9\u0cbe\u0cb0\u0ccd"
        }
      },
      {
        "type": "node",
        "id": 1474004437,
        "lat": 12.9317341,
        "lon": 77.6228586,
        "tags": {
          "addr:street": "Mahayogi Vemana Road",
          "amenity": "restaurant",
          "name": "Nandini Andra Style",
          "name:en": "Nandhana Andra style",
          "name:kn": "\u0ca8\u0c82\u0ca6\u0cbf\u0ca8\u0cbf \u0c86\u0c82\u0ca6\u0ccd\u0cb0 \u0cb6\u0cc8\u0cb2\u0cbf"
        }
      },
      {
        "type": "node",
        "id": 1615727952,
        "lat": 12.9311975,
        "lon": 77.6228542,
        "tags": {
          "amenity": "restaurant",
          "diet:vegetarian": "only",
          "name": "Utsav",
          "name:kn": "\u0c89\u0ca4\u0ccd\u0cb8\u0cb5\u0ccd"
        }
      },
      {
        "type": "node",
        "id": 1615734800,
        "lat": 12.9256885,
        "lon": 77.6250527,
        "tags": {
          "amenity": "atm",
          "brand": "State Bank of India",
          "brand:wikidata": "Q1340361",
          "check_date": "2023-02-23",
          "name": "State Bank of India",
          "operator": "State Bank of India",
          "operator:wikidata": "Q1340361",
          "short_name": "SBI",
          "source": "I live here"
        }
      },
      {
        "type": "node",
        "id": 1615735026,
        "lat": 12.9266971,
        "lon": 77.6236359,
        "tags": {
          "brand": "Nilgiri's",
          "brand:wikidata": "Q17079567",
          "name": "Nilgiri's",
          "name:kn": "\u0ca8\u0cc0\u0cb2\u0ccd\u0c97\u0cbf\u0cb0\u0cbf\u0cb8\u0ccd",
          "shop": "supermarket"
        }
      },
      {
        "type": "node",
        "id": 1722528824,
        "lat": 12.9376941,
        "lon": 77.6270393,
        "tags": {
          "alt_name": "Kentucky Fried Chicken",
          "alt_name:en": "Kentucky Fried Chicken",
          "alt_name:hi": "\u0915\u0947\u0902\u091f\u0941\u0915\u0940 \u092b\u094d\u0930\u093e\u0907\u0921 \u091a\u093f\u0915\u0928",
          "alt_name:pa": "\u0a15\u0a48\u0a02\u0a1f\u0a41\u0a15\u0a40 \u0a2b\u0a4d\u0a30\u0a3e\u0a08\u0a21 \u0a1a\u0a3f\u0a15\u0a28",
          "alt_name:pnb": "\u06a9\u06cc\u0646\u0679\u06a9\u06cc \u0641\u0631\u0627\u0626\u06cc\u0688 \u0686\u06a9\u0646",
          "alt_name:ur": "\u06a9\u06cc\u0646\u0679\u06a9\u06cc \u0641\u0631\u0627\u0626\u06cc\u0688 \u0686\u06a9\u0646",
          "amenity": "fast_food",
          "brand": "KFC",
          "brand:en": "KFC",
          "brand:hi": "\u0915\u0947\u090f\u092b\u0938\u0940",
          "brand:pa": "\u0a15\u0a47\u0a10\u0a2b\u0a38\u0a40",
          "brand:pnb": "\u06a9\u06d2 \u0627\u06cc\u0641 \u0633\u06cc",
          "brand:ur": "\u06a9\u06d2 \u0627\u06cc\u0641 \u0633\u06cc",
          "brand:wikidata": "Q524757",
          "brand:wikipedia": "en:KFC",
          "brand:wikipedia:pa": "\u0a15\u0a47\u0a10\u0a2b\u0a38\u0a40",
          "brand:wikipedia:ur": "\u06a9\u06cc\u0646\u0679\u06a9\u06cc \u0641\u0631\u0627\u0626\u06cc\u0688 \u0686\u06a9\u0646",
          "cuisine": "chicken",
          "name": "KFC",
          "name:en": "KFC",
          "name:hi": "\u0915\u0947\u090f\u092b\u0938\u0940",
          "name:pa": "\u0a15\u0a47\u0a10\u0a2b\u0a38\u0a40",
          "name:pnb": "\u06a9\u06d2 \u0627\u06cc\u0641 \u0633\u06cc",
          "name:ur": "\u06a9\u06d2 \u0627\u06cc\u0641 \u0633\u06cc",
          "takeaway": "yes"
        }
      },
      {
        "type": "node",
        "id": 1744342634,
        "lat": 12.9365165,
        "lon": 77.6274121,
        "tags": {
          "amenity": "restaurant",
          "name": "Great Indian Thali",
          "name:kn": "\u0c97\u0ccd\u0cb0\u0cc7\u0c9f\u0ccd \u0c87\u0c82\u0ca1\u0cbf\u0caf\u0ca8\u0ccd \u0ca4\u0cbe\u0cb2\u0cbf"
        }
      },
      {
        "type": "node",
        "id": 2148655413,
        "lat": 12.933447,
        "lon": 77.6219099,
        "tags": {
          "amenity": "restaurant",
          "cuisine": "italian",
          "name": "Chianti"
        }
      },
      {
        "type": "node",
        "id": 2285451602,
        "lat": 12.9347958,
        "lon": 77.6298075,
        "tags": {
          "amenity": "bank",
          "atm": "yes",
          "brand": "HDFC Bank",
          "brand:wikidata": "Q631047",
          "name": "HDFC Bank",
          "name:kn": "\u0c8e\u0c9a\u0ccd \u0ca1\u0cbf \u0c8e\u0cab\u0ccd \u0cb8\u0cbf",
          "short_name": "HDFC"
        }
      },
      {
        "type": "node",
        "id": 2285451678,
        "lat": 12.9347383,
        "lon": 77.6298155,
        "tags": {
          "amenity": "atm",
          "brand": "HDFC Bank",
          "brand:wikidata": "Q631047",
          "fee": "no",
          "name": "HDFC Bank",
          "operator": "HDFC Bank",
          "operator:wikidata": "Q631047",
          "short_name": "HDFC"
        }
      },
      {
        "type": "node",
        "id": 2285453337,
        "lat": 12.9349187,
        "lon": 77.6305022,
        "tags": {
          "amenity": "hospital",
          "emergency": "no",
          "healthcare": "hospital",
          "name": "Magnus Diagnostic Lab"
        }
      },
      {
        "type": "node",
        "id": 2285466693,
        "lat": 12.9299126,
        "lon": 77.621549,
        "tags": {
          "amenity": "bank",
          "atm": "yes",
          "brand": "Bank of Baroda",
          "brand:wikidata": "Q2003797",
          "brand:wikipedia": "en:Bank of Baroda",
          "name": "Bank of Baroda",
          "name:en": "Bank of Baroda",
          "short_name": "BoB",
          "website": "http://www.bankofbaroda.com"
        }
      },
      {
        "type": "node",
        "id": 2285468610,
        "lat": 12.9295466,
        "lon": 77.6291289,
        "tags": {
          "amenity": "pharmacy",
          "healthcare": "pharmacy",
          "name": "Ajit Medicals"
        }
      },
      {
        "type": "node",
        "id": 2285469191,
        "lat": 12.9356219,
        "lon": 77.631044,
        "tags": {
          "amenity": "pharmacy",
          "healthcare": "pharmacy",
          "name": "Trustx"
        }
      },
      {
        "type": "node",
        "id": 2285469320,
        "lat": 12.935306,
        "lon": 77.6306217,
        "tags": {
          "addr:housenumber": "924",
          "addr:street": "1st Cross Road",
          "amenity": "pharmacy",
          "healthcare": "pharmacy",
          "name": "Pharma Plus"
        }
      },
      {
        "type": "node",
        "id": 2531029517,
        "lat": 12.9303605,
        "lon": 77.6228604,
        "tags": {
          "amenity": "cafe",
          "brand": "Cafe Coffee Day",
          "brand:wikidata": "Q5017235",
          "cuisine": "coffee_shop",
          "name": "Cafe Coffee Day",
          "name:kn": "\u0c95\u0cab\u0cc6 \u0c95\u0cbe\u0cab\u0cbf \u0ca1\u0cc7",
          "takeaway": "yes"
        }
      },
      {
        "type": "node",
        "id": 2542686704,
        "lat": 12.9305918,
        "lon": 77.6229717,
        "tags": {
          "amenity": "restaurant",
          "cuisine": "indian",
          "name": "Sagar Fast Food"
        }
      },
      {
        "type": "node",
        "id": 2542686705,
        "lat": 12.9308637,
        "lon": 77.623075,
        "tags": {
          "name": "Food Triangle",
          "shop": "supermarket"
        }
      },
      {
        "type": "node",
        "id": 2542702362,
        "lat": 12.9312166,
        "lon": 77.6233097,
        "tags": {
          "amenity": "pharmacy",
          "brand": "MedPlus",
          "brand:wikidata": "Q65684234",
          "healthcare": "pharmacy",
          "name": "MedPlus",
          "name:kn": "\u0cae\u0cc6\u0ca1\u0ccd\u200d\u0caa\u0ccd\u0cb2\u0cb8\u0ccd"
        }
      },
      {
        "type": "node",
        "id": 2547432010,
        "lat": 12.9306861,
        "lon": 77.6230253,
        "tags": {
          "amenity": "bank",
          "atm": "yes",
          "brand": "Syndicate Bank",
          "brand:wikidata": "Q2004088",
          "name": "Syndicate Bank",
          "name:en": "Syndicate Bank",
          "name:kn": "\u0cb8\u0cbf\u0c82\u0ca1\u0cbf\u0c95\u0cc7\u0c9f\u0ccd \u0cac\u0ccd\u0caf\u0cbe\u0c82\u0c95\u0ccd",
          "website": "https://www.syndicatebank.in"
        }
      },
      {
        "type": "node",
        "id": 2700229003,
        "lat": 12.9308439,
        "lon": 77.6226408,
        "tags": {
          "addr:city": "Bangalore",
          "addr:housenumber": "BDA Complex",
          "addr:postcode": "560034",
          "addr:street": "Mahayogi Vemana Road",
          "amenity": "restaurant",
          "capacity": "16",
          "cuisine": "regional",
          "name": "Ambur Biriyani",
          "name:kn": "\u0c85\u0c82\u0cac\u0cc1\u0cb0\u0ccd \u0cac\u0cbf\u0cb0\u0cbf\u0caf\u0cbe\u0ca8\u0cbf",
          "opening_hours": "10:00-19:00"
        }
      },
      {
        "type": "node",
        "id": 3145158638,
        "lat": 12.9342822,
        "lon": 77.6317632,
        "tags": {
          "leisure": "park",
          "name": "S T Bed Park at 5th Cross"
        }
      },
      {
        "type": "node",
        "id": 3145158639,
        "lat": 12.9330379,
        "lon": 77.6329291,
        "tags": {
          "leisure": "park",
          "name": "S T Bed Park and Field at 8th Cross"
        }
      },
      {
        "type": "node",
        "id": 3507444982,
        "lat": 12.9254221,
        "lon": 77.6194529,
        "tags": {
          "amenity": "restaurant",
          "name": "Sanjeevanam"
        }
      },
      {
        "type": "node",
        "id": 3801706348,
        "lat": 12.937762,
        "lon": 77.6271125,
        "tags": {
          "amenity": "restaurant",
          "craft": "brewery",
          "level": "3;2",
          "name": "Ichin Restaurant"
        }
      },
      {
        "type": "node",
        "id": 3955672810,
        "lat": 12.9337036,
        "lon": 77.6229616,
        "tags": {
          "addr:city": "Bengaluru",
          "addr:postcode": "560034",
          "addr:suburb": "Koramangala",
          "brand": "Nature's Basket",
          "brand:wikidata": "Q28174237",
          "level": "0",
          "name": "Nature's Basket",
          "opening_hours": "8:00-22:00",
          "operator": "Natures Basket Limited",
          "organic": "yes",
          "phone": "+91 80 41 31 74 01",
          "shop": "supermarket",
          "shop_1": "deli",
          "source": "website",
          "website": "http://www.naturesbasket.co.in/"
        }
      },
      {
        "type": "node",
        "id": 3960924263,
        "lat": 12.9324956,
        "lon": 77.631848,
        "tags": {
          "addr:postcode": "560034",
          "addr:street": "80 Feet Road",
          "amenity": "bank",
          "atm": "yes",
          "brand": "Axis Bank",
          "brand:wikidata": "Q2003549",
          "brand:wikipedia": "en:Axis Bank",
          "level": "0",
          "name": "Axis Bank",
          "name:en": "Axis Bank",
          "name:kn": "\u0c85\u0c95\u0ccd\u0cb8\u0cbf\u0cb8\u0ccd \u0cac\u0ccd\u0caf\u0cbe\u0c82\u0c95\u0ccd",
          "website": "https://www.axisbank.com",
          "wheelchair": "no"
        }
      },
      {
        "type": "node",
        "id": 4442516055,
        "lat": 12.9250105,
        "lon": 77.6278708,
        "tags": {
          "addr:city": "bangalore",
          "addr:housenumber": "365",
          "addr:postcode": "560034",
          "addr:street": "Sulochana Building, 1st Cross Rd, 3rd Block, Sarjapura Main Road, Koramangala",
          "amenity": "hospital",
          "name": "Gunasheela Hospitals",
          "phone": "+91-80 - 4646 2626",
          "website": "http://gunasheela.co.in/"
        }
      },
      {
        "type": "node",
        "id": 4446849884,
        "lat": 12.9344224,
        "lon": 77.6299785,
        "tags": {
          "addr:city": "Bengaluru",
          "addr:housenumber": "101",
          "addr:postcode": "560034",
          "addr:street": "KAY ARR CORNER STONE 2nd Floor 80 Feet Road 4th Block, Koramangala,Karnataka",
          "amenity": "hospital",
          "healthcare": "hospital",
          "name": "Fj Merrit Hydrotherapy And Wellness",
          "phone": "080 4095 1282"
        }
      },
      {
        "type": "node",
        "id": 4447025891,
        "lat": 12.9301422,
        "lon": 77.6231727,
        "tags": {
          "addr:city": "Bangalore",
          "addr:housenumber": "677",
          "addr:postcode": "560034",
          "addr:street": "16th main, 3rd Block, Koramangala, Bengaluru",
          "amenity": "pharmacy",
          "healthcare": "pharmacy",
          "name": "Anand Diagnostic Laboratory",
          "phone": "080 2550 4207",
          "source": "justdial",
          "website": "https://www.anandlab.com/"
        }
      },
      {
        "type": "node",
        "id": 4447072622,
        "lat": 12.9317312,
        "lon": 77.6230979,
        "tags": {
          "addr:city": "Bangalore",
          "addr:postcode": "560034",
          "addr:street": "Koramangala BDA, 6th B Cross Road, Koramangala 3 Block, Koramangala",
          "amenity": "pharmacy",
          "healthcare": "pharmacy",
          "name": "Ruth Medicals",
          "phone": "+9180 2553 7424",
          "source": "justdail"
        }
      },
      {
        "type": "node",
        "id": 4447075923,
        "lat": 12.9340694,
        "lon": 77.625222,
        "tags": {
          "addr:city": "Bengaluru",
          "addr:postcode": "560034",
          "addr:street": "BDA Complex, Koramangala 4th Block, Koramangala",
          "amenity": "pharmacy",
          "healthcare": "pharmacy",
          "name": "Maxwell Pharma",
          "phone": "+9180 2553 1177",
          "source": "justdial"
        }
      },
      {
        "type": "node",
        "id": 4447127002,
        "lat": 12.9338298,
        "lon": 77.6199371,
        "tags": {
          "addr:city": "Bangalore",
          "addr:housenumber": "143",
          "addr:postcode": "560034",
          "addr:street": "4th Floor, 1st Cross, 5th Block, Koramangala",
          "amenity": "clinic",
          "healthcare": "clinic",
          "name": "Nova IVI Fertility",
          "phone": "080673 66244",
          "source": "justdial",
          "website": "https://novaivifertility.com/"
        }
      },
      {
        "type": "node",
        "id": 4447594673,
        "lat": 12.9353486,
        "lon": 77.6249595,
        "tags": {
          "addr:housenumber": "41",
          "addr:street": "100 feet road, Koramangala 4th Block",
          "amenity": "cafe",
          "description": "Pay by the hour. INR 190 for the first hour. INR 3 per minute after that. Food and beverages on the house",
          "name": "Dialogues Cafe",
          "opening_hours": "Mo-Su 10:00-22:00",
          "phone": "098119 74842",
          "website": "www.dialoguescafe.com"
        }
      },
      {
        "type": "node",
        "id": 4448886964,
        "lat": 12.9233799,
        "lon": 77.6341276,
        "tags": {
          "addr:city": "bangalore",
          "addr:housenumber": "39/13,",
          "addr:postcode": "560102",
          "addr:street": "5th Cross, Near Ibblur Bus Stop, Outer Ring Rd, Agara Village, Sector 4, HSR Layou",
          "amenity": "restaurant",
          "cuisine": "regional",
          "delivery": "yes",
          "name": "Ira Residency",
          "phone": "080 2572 7656",
          "smoking": "no",
          "takeaway": "yes"
        }
      },
      {
        "type": "node",
        "id": 4489756652,
        "lat": 12.926081,
        "lon": 77.6254085,
        "tags": {
          "addr:city": "Bengaluru",
          "addr:housenumber": "374",
          "addr:postcode": "560034",
          "addr:street": "Sarjapura Road",
          "addr:suburb": "Koramangala",
          "amenity": "cafe",
          "cuisine": "coffee_shop",
          "delivery": "yes",
          "name": "The Craftery by Subko, BLR",
          "operator": "Subko Coffee Roasters",
          "shop": "chocolate",
          "smoking": "separated",
          "takeaway": "yes",
          "toilets": "yes",
          "toilets:access": "customers",
          "website": "https://www.subko.coffee"
        }
      },
      {
        "type": "node",
        "id": 4545940589,
        "lat": 12.9341008,
        "lon": 77.6272181,
        "tags": {
          "amenity": "pharmacy",
          "brand": "MedPlus",
          "brand:wikidata": "Q65684234",
          "healthcare": "pharmacy",
          "name": "MedPlus",
          "name:en": "Medplus Pharmacy"
        }
      },
      {
        "type": "node",
        "id": 4582748890,
        "lat": 12.9304984,
        "lon": 77.6338469,
        "tags": {
          "amenity": "restaurant",
          "name:zh": "\u4e2d\u56fd\u83dc"
        }
      },
      {
        "type": "node",
        "id": 4596325797,
        "lat": 12.9331913,
        "lon": 77.6230591,
        "tags": {
          "addr:housenumber": "63",
          "addr:postcode": "560034",
          "addr:street": "100 feet Road",
          "amenity": "restaurant",
          "cuisine": "italian_pizza;italian",
          "email": "info@thetowerofpizza.com",
          "name": "The Tower Of Pizza",
          "name:en": "The Tower Of Pizza",
          "opening_hours": "Mo-Su 11:30-03:30",
          "operator": "Subir Kumar guha",
          "phone": "9148971958",
          "website": "http://www.thetowerofpizza.com"
        }
      },
      {
        "type": "node",
        "id": 4632212544,
        "lat": 12.9323787,
        "lon": 77.6294117,
        "tags": {
          "description": "Has a basketball half court and Sea saws ",
          "leisure": "playground",
          "name": "Rectangle Park Playground"
        }
      },
      {
        "type": "node",
        "id": 4772964954,
        "lat": 12.9317704,
        "lon": 77.6228514,
        "tags": {
          "amenity": "bank",
          "branch": "4th Block",
          "brand": "ICICI Bank",
          "brand:wikidata": "Q1653258",
          "name": "ICICI Bank",
          "name:en": "ICICI Bank",
          "name:kn": "\u0c90\u0cb8\u0cbf\u0c90\u0cb8\u0cbf\u0c90 \u0cac\u0ccd\u0caf\u0cbe\u0c82\u0c95\u0cc1",
          "short_name": "ICICI",
          "website": "https://www.icicibank.com"
        }
      },
      {
        "type": "node",
        "id": 4772969935,
        "lat": 12.9320032,
        "lon": 77.6229997,
        "tags": {
          "amenity": "clinic",
          "healthcare": "clinic",
          "name": "Vachani Vista",
          "name:en": "Vachani Vista"
        }
      },
      {
        "type": "node",
        "id": 4774402250,
        "lat": 12.9360665,
        "lon": 77.6314327,
        "tags": {
          "amenity": "restaurant",
          "capacity": "50",
          "cuisine": "continental",
          "name": "Cilantro",
          "outdoor_seating": "yes",
          "smoking": "outside"
        }
      },
      {
        "type": "node",
        "id": 5036131084,
        "lat": 12.9336798,
        "lon": 77.6222761,
        "tags": {
          "amenity": "restaurant",
          "cuisine": "indian",
          "name": "Casinova",
          "phone": "080-25526363",
          "website": "http://bonsouth.com"
        }
      },
      {
        "type": "node",
        "id": 5036138595,
        "lat": 12.9334968,
        "lon": 77.6212815,
        "tags": {
          "amenity": "cafe",
          "name": "Java City"
        }
      },
      {
        "type": "node",
        "id": 5247276738,
        "lat": 12.9370109,
        "lon": 77.6275262,
        "tags": {
          "addr:housenumber": "8, near Sapphire toy store",
          "amenity": "cafe",
          "name": "Via Milano",
          "phone": "+918041309997"
        }
      },
      {
        "type": "node",
        "id": 5807262206,
        "lat": 12.9251568,
        "lon": 77.6338744,
        "tags": {
          "amenity": "restaurant",
          "indoor_seating": "yes",
          "name": "Pingara",
          "outdoor_seating": "no"
        }
      },
      {
        "type": "node",
        "id": 5915230900,
        "lat": 12.936096,
        "lon": 77.6258876,
        "tags": {
          "amenity": "bank",
          "name": "Saraswat Bank"
        }
      },
      {
        "type": "node",
        "id": 5915230906,
        "lat": 12.9341518,
        "lon": 77.6234672,
        "tags": {
          "amenity": "atm",
          "operator": "ICICI Bank ATM"
        }
      },
      {
        "type": "node",
        "id": 5915230908,
        "lat": 12.9325902,
        "lon": 77.6232725,
        "tags": {
          "amenity": "bank",
          "brand": "HDFC Bank",
          "brand:wikidata": "Q631047",
          "name": "HDFC Bank",
          "short_name": "HDFC"
        }
      },
      {
        "type": "node",
        "id": 5915409411,
        "lat": 12.9338175,
        "lon": 77.6201615,
        "tags": {
          "amenity": "hospital",
          "healthcare": "hospital",
          "name": "Apollo Spectra Hospitals"
        }
      },
      {
        "type": "node",
        "id": 5915569162,
        "lat": 12.9356454,
        "lon": 77.628683,
        "tags": {
          "amenity": "bank",
          "branch": "4th Block",
          "brand": "HDFC Bank",
          "brand:wikidata": "Q631047",
          "name": "HDFC Bank",
          "short_name": "HDFC"
        }
      },
      {
        "type": "node",
        "id": 5915569163,
        "lat": 12.9350683,
        "lon": 77.6292839,
        "tags": {
          "addr:city": "Bangalore",
          "addr:country": "IN",
          "addr:housenumber": "974",
          "addr:postcode": "560034",
          "addr:street": "80 Feet Road",
          "addr:suburb": "Koramangala",
          "amenity": "restaurant",
          "contact:facebook": "nasiandmee",
          "contact:instagram": "nasiandmee",
          "cuisine": "asian",
          "delivery": "yes",
          "level": "0",
          "name": "Nasi and Mee",
          "official_name": "Nasi and Mee Asian Canteen",
          "phone": "+91 80 4151 3456",
          "takeaway": "yes",
          "website": "https://www.nasiandmee.co.in/"
        }
      },
      {
        "type": "node",
        "id": 5915887950,
        "lat": 12.9362974,
        "lon": 77.6277069,
        "tags": {
          "amenity": "bank",
          "brand": "Yes Bank",
          "brand:wikidata": "Q2040394",
          "name": "Yes Bank",
          "name:kn": "\u0caf\u0cb8\u0ccd \u0cac\u0ccd\u0caf\u0cbe\u0c82\u0c95\u0ccd"
        }
      },
      {
        "type": "node",
        "id": 5915887963,
        "lat": 12.9344393,
        "lon": 77.6295345,
        "tags": {
          "amenity": "restaurant",
          "name": "BSR Lassi Packers Shop"
        }
      },
      {
        "type": "node",
        "id": 5915887964,
        "lat": 12.9346219,
        "lon": 77.6293199,
        "tags": {
          "amenity": "bank",
          "brand": "Andhra Bank",
          "brand:wikidata": "Q2003476",
          "name": "Andhra Bank",
          "name:kn": "\u0c86\u0c82\u0ca7\u0ccd\u0cb0 \u0cac\u0ccd\u0caf\u0cbe\u0c82\u0c95\u0ccd"
        }
      },
      {
        "type": "node",
        "id": 5915887969,
        "lat": 12.9255456,
        "lon": 77.6333329,
        "tags": {
          "amenity": "restaurant",
          "check_date": "2023-11-30",
          "name": "Bistro Claytopia",
          "start_date": "2004"
        }
      },
      {
        "type": "node",
        "id": 5915887970,
        "lat": 12.9257724,
        "lon": 77.6333947,
        "tags": {
          "amenity": "bank",
          "brand": "State Bank of India",
          "brand:wikidata": "Q1340361",
          "check_date": "2025-08-08",
          "name": "State Bank of India",
          "short_name": "SBI"
        }
      },
      {
        "type": "node",
        "id": 5915887971,
        "lat": 12.9260044,
        "lon": 77.6332862,
        "tags": {
          "amenity": "restaurant",
          "name": "Magnolia"
        }
      },
      {
        "type": "node",
        "id": 5915887975,
        "lat": 12.9269862,
        "lon": 77.6332224,
        "tags": {
          "amenity": "bank",
          "brand": "Federal Bank",
          "brand:wikidata": "Q2044983",
          "name": "Federal Bank"
        }
      },
      {
        "type": "node",
        "id": 5915906203,
        "lat": 12.9255085,
        "lon": 77.6343557,
        "tags": {
          "amenity": "pharmacy",
          "dispensing": "yes",
          "healthcare": "pharmacy",
          "name": "Pragathi Homeo Pharmacy"
        }
      },
      {
        "type": "node",
        "id": 5915906204,
        "lat": 12.9256013,
        "lon": 77.6359638,
        "tags": {
          "addr:district": "Bengaluru Urban",
          "addr:full": "No. 8, 1st Main Road 1st Block, Koramangala",
          "addr:postcode": "560034",
          "addr:state": "Karnataka",
          "amenity": "hospital",
          "check_date": "2023-12-31",
          "healthcare": "hospital",
          "name": "Sankeerthana Hospital and Fertility Center",
          "source": "OpenGovernmentData"
        }
      },
      {
        "type": "node",
        "id": 5983500949,
        "lat": 12.9253183,
        "lon": 77.6348207,
        "tags": {
          "name": "Aishwarya",
          "shop": "department_store"
        }
      },
      {
        "type": "node",
        "id": 6067868839,
        "lat": 12.9332568,
        "lon": 77.6296592,
        "tags": {
          "amenity": "pharmacy",
          "healthcare": "pharmacy",
          "name": "Kiran Medical Store"
        }
      },
      {
        "type": "node",
        "id": 6124618183,
        "lat": 12.9366526,
        "lon": 77.6277125,
        "tags": {
          "amenity": "hospital",
          "healthcare": "hospital",
          "name": "Shiva Vision Care"
        }
      },
      {
        "type": "node",
        "id": 6124618695,
        "lat": 12.9367615,
        "lon": 77.6276835,
        "tags": {
          "amenity": "restaurant",
          "name": "The Tiffin Express"
        }
      },
      {
        "type": "node",
        "id": 6938759412,
        "lat": 12.9339097,
        "lon": 77.620208,
        "tags": {
          "addr:district": "Bengaluru Urban",
          "addr:full": "Opus, 143, 1st Cross, 5th Block, Koramangala",
          "addr:postcode": "560034",
          "addr:state": "Karnataka",
          "amenity": "hospital",
          "email": "info@novamedicalcenters.com",
          "healthcare:speciality": "multi speciality",
          "name": "Nova Specialty Surgery Center, Koramangala",
          "operator:type": "private",
          "source": "OpenGovernmentData",
          "website": "www.novaspecialtysurgery.com"
        }
      },
      {
        "type": "node",
        "id": 6939350511,
        "lat": 12.9314314,
        "lon": 77.6233582,
        "tags": {
          "addr:district": "Bengaluru Urban",
          "addr:full": "81, 7Th Cross 4Th Block, Near Bda Complex Koramangala",
          "addr:postcode": "560034",
          "addr:state": "Karnataka",
          "amenity": "clinic",
          "healthcare": "clinic",
          "name": "Kamala Nethralaya",
          "source": "OpenGovernmentData"
        }
      },
      {
        "type": "node",
        "id": 6939418124,
        "lat": 12.9251521,
        "lon": 77.6245022,
        "tags": {
          "addr:district": "Bengaluru Urban",
          "addr:full": "CGHS Dispensary No.7, Koramangala, CPWDQuarters, Koramangala",
          "addr:postcode": "560034",
          "addr:state": "Karnataka",
          "amenity": "clinic",
          "health_facility:type": "dispensary",
          "healthcare": "centre",
          "name": "CGHS Dispensary No.7",
          "operator:type": "government",
          "source": "OpenGovernmentData",
          "website": "http://nb.bsf.gov.in/CGHS%20DIspenseries.pdf"
        }
      },
      {
        "type": "node",
        "id": 6939445234,
        "lat": 12.9343279,
        "lon": 77.6228848,
        "tags": {
          "addr:district": "Bengaluru Urban",
          "addr:full": "# 88, 17th, A Main, 2nd Cross, 5th Block, Koramangala",
          "addr:postcode": "560095",
          "addr:state": "Karnataka",
          "amenity": "hospital",
          "healthcare:speciality": "Clinical Labs; Diagnosis; Medical Oncology; Radiation oncology; Surgical Oncology",
          "name": "HCG, Koramangala",
          "operator:type": "private",
          "source": "OpenGovernmentData",
          "website": "https://www.hcgoncology.com/"
        }
      },
      {
        "type": "node",
        "id": 8428403226,
        "lat": 12.9305937,
        "lon": 77.6186159,
        "tags": {
          "amenity": "hospital",
          "healthcare": "hospital",
          "name": "St. Johns hospital Emergency ward"
        }
      },
      {
        "type": "node",
        "id": 9810733197,
        "lat": 12.9366398,
        "lon": 77.6251927,
        "tags": {
          "amenity": "bank",
          "brand": "Indian Bank",
          "brand:wikidata": "Q2003789",
          "name": "Indian Bank",
          "name:kn": "\u0c87\u0c82\u0ca1\u0cbf\u0caf\u0ca8\u0ccd \u0cac\u0ccd\u0caf\u0cbe\u0c82\u0c95\u0ccd"
        }
      },
      {
        "type": "node",
        "id": 9810748012,
        "lat": 12.9350754,
        "lon": 77.6249289,
        "tags": {
          "amenity": "restaurant",
          "name": "Sour House"
        }
      },
      {
        "type": "node",
        "id": 10068956759,
        "lat": 12.933337,
        "lon": 77.6226923,
        "tags": {
          "amenity": "restaurant",
          "name": "La Arabia"
        }
      },
      {
        "type": "node",
        "id": 10068956762,
        "lat": 12.9334588,
        "lon": 77.6210465,
        "tags": {
          "amenity": "restaurant",
          "cuisine": "regional;indian",
          "diet:vegetarian": "yes",
          "name": "Moplah's",
          "outdoor_seating": "yes"
        }
      },
      {
        "type": "node",
        "id": 10068956764,
        "lat": 12.9334854,
        "lon": 77.6210369,
        "tags": {
          "amenity": "restaurant",
          "level": "1",
          "name": "Basaveshwar Khanavali",
          "outdoor_seating": "yes"
        }
      },
      {
        "type": "node",
        "id": 10068956765,
        "lat": 12.9334799,
        "lon": 77.621003,
        "tags": {
          "amenity": "restaurant",
          "cuisine": "indian;regional",
          "level": "0",
          "name": "Cafe Malabars",
          "outdoor_seating": "yes"
        }
      },
      {
        "type": "node",
        "id": 10068956766,
        "lat": 12.9333552,
        "lon": 77.6224709,
        "tags": {
          "amenity": "clinic",
          "healthcare": "clinic",
          "healthcare:speciality": "dermatology",
          "name": "Skinsi"
        }
      },
      {
        "type": "node",
        "id": 10068956767,
        "lat": 12.9333754,
        "lon": 77.6224577,
        "tags": {
          "amenity": "clinic",
          "healthcare": "clinic",
          "healthcare:speciality": "dentist",
          "name": "Toothsi"
        }
      },
      {
        "type": "node",
        "id": 10068956768,
        "lat": 12.9336927,
        "lon": 77.6224652,
        "tags": {
          "amenity": "restaurant",
          "cuisine": "chinese;thai",
          "name": "Tim Tai"
        }
      },
      {
        "type": "node",
        "id": 10075730590,
        "lat": 12.932216,
        "lon": 77.6321306,
        "tags": {
          "amenity": "restaurant",
          "name": "La Pino'z Pizza",
          "website": "https://lapinozpizza.in/"
        }
      },
      {
        "type": "node",
        "id": 10079235531,
        "lat": 12.9350365,
        "lon": 77.6332951,
        "tags": {
          "addr:housenumber": "991",
          "addr:street": "7th Main Road",
          "amenity": "pharmacy",
          "dispensing": "yes",
          "healthcare": "pharmacy",
          "name": "Skanda Medicals"
        }
      },
      {
        "type": "node",
        "id": 10079235533,
        "lat": 12.9352067,
        "lon": 77.6315454,
        "tags": {
          "addr:street": "4th Main Road",
          "amenity": "pharmacy",
          "dispensing": "yes",
          "healthcare": "pharmacy",
          "name": "iCure Medicals"
        }
      },
      {
        "type": "node",
        "id": 10079235534,
        "lat": 12.935561,
        "lon": 77.6309798,
        "tags": {
          "amenity": "pharmacy",
          "brand": "Apollo Pharmacy",
          "brand:wikidata": "Q62562612",
          "dispensing": "yes",
          "healthcare": "pharmacy",
          "name": "Apollo Pharmacy",
          "website": "https://www.apollopharmacy.in/"
        }
      },
      {
        "type": "node",
        "id": 10111454506,
        "lat": 12.9350124,
        "lon": 77.6302132,
        "tags": {
          "amenity": "bank",
          "brand": "Indian Bank",
          "brand:wikidata": "Q2003789",
          "name": "Indian Bank"
        }
      },
      {
        "type": "node",
        "id": 10111454507,
        "lat": 12.9350238,
        "lon": 77.6302683,
        "tags": {
          "amenity": "atm",
          "brand": "Indian Bank",
          "brand:wikidata": "Q2003789",
          "operator": "Indian Bank",
          "operator:wikidata": "Q2003789"
        }
      },
      {
        "type": "node",
        "id": 10111481929,
        "lat": 12.9353206,
        "lon": 77.6299347,
        "tags": {
          "amenity": "restaurant",
          "name": "Login2Eat.com"
        }
      },
      {
        "type": "node",
        "id": 10219532237,
        "lat": 12.9351115,
        "lon": 77.6292155,
        "tags": {
          "addr:city": "Bangalore",
          "addr:country": "IN",
          "addr:housenumber": "974",
          "addr:postcode": "560034",
          "addr:street": "80 Feet Road",
          "addr:suburb": "Koramangala",
          "amenity": "restaurant",
          "contact:facebook": "altpizza.in",
          "contact:instagram": "altpizza.in",
          "cuisine": "pizza",
          "delivery": "yes",
          "level": "1",
          "name": "Alt Pizza",
          "opening_hours": "12:30-22:30",
          "phone": "+91 8123892268",
          "takeaway": "yes",
          "website": "https://www.altpizza.co.in/"
        }
      },
      {
        "type": "node",
        "id": 10295532236,
        "lat": 12.9240463,
        "lon": 77.6271871,
        "tags": {
          "amenity": "fast_food",
          "brand": "Indira Canteen",
          "brand:wikidata": "Q36164828",
          "cuisine": "south_indian",
          "name": "Indira Canteen",
          "operator": "BBMP",
          "takeaway": "yes"
        }
      },
      {
        "type": "node",
        "id": 10295532250,
        "lat": 12.9259481,
        "lon": 77.6239108,
        "tags": {
          "amenity": "bank",
          "atm": "yes",
          "brand": "Bank of India",
          "brand:wikidata": "Q2004439",
          "name": "Bank of India",
          "operator": "Bank of India"
        }
      },
      {
        "type": "node",
        "id": 10314122725,
        "lat": 12.9347397,
        "lon": 77.6296212,
        "tags": {
          "amenity": "cafe",
          "brand": "Third Wave Coffee Roasters",
          "brand:wikidata": "Q7785004",
          "cuisine": "coffee_shop",
          "delivery": "yes",
          "name": "Third Wave Coffee Roasters",
          "operator": "Third Wave Coffee Roasters",
          "takeaway": "yes"
        }
      },
      {
        "type": "node",
        "id": 10649347387,
        "lat": 12.935354,
        "lon": 77.6284155,
        "tags": {
          "amenity": "cafe",
          "delivery": "yes",
          "name": "Maverick and Farmer Coffee",
          "takeaway": "yes",
          "website": "https://www.maverickandfarmer.com/"
        }
      },
      {
        "type": "node",
        "id": 10695242204,
        "lat": 12.9351187,
        "lon": 77.6226367,
        "tags": {
          "addr:city": "Bangalore",
          "addr:country": "IN",
          "addr:hamlet": "Koramangala 5th Block",
          "addr:housename": "Peace Vill",
          "addr:housenumber": "23",
          "addr:postcode": "560095",
          "addr:street": "5th Cross Road",
          "addr:suburb": "Koramangala",
          "amenity": "restaurant",
          "contact:instagram": "maffeikitchen",
          "contact:twitter": "maffeikitchen",
          "contact:youtube": "UCg5ynIWr7V6lmRXtqctwG3Q",
          "cuisine": "mediterranean",
          "delivery": "yes",
          "name": "Maffei Kitchen",
          "opening_hours": "11:00-23:00",
          "phone": "+91 8005471058",
          "takeaway": "yes",
          "website": "https://www.maffei.in/"
        }
      },
      {
        "type": "node",
        "id": 10728008693,
        "lat": 12.933281,
        "lon": 77.6270744,
        "tags": {
          "amenity": "restaurant",
          "contact:facebook": "154breakfastclub",
          "cuisine": "american",
          "delivery": "yes",
          "name": "154 Breakfast Club",
          "takeaway": "yes"
        }
      },
      {
        "type": "node",
        "id": 10728008696,
        "lat": 12.9333868,
        "lon": 77.6223524,
        "tags": {
          "amenity": "cafe",
          "contact:facebook": "theteatoastco",
          "contact:instagram": "theteatoastco",
          "contact:twitter": "TheTeaToastCo",
          "delivery": "yes",
          "name": "The Tea Toast Co.",
          "takeaway": "yes",
          "website": "https://www.theteatoastco.in"
        }
      },
      {
        "type": "node",
        "id": 10924790334,
        "lat": 12.9328588,
        "lon": 77.6309864,
        "tags": {
          "amenity": "restaurant",
          "contact:facebook": "pastastreet",
          "contact:instagram": "pasta.street",
          "cuisine": "pasta",
          "email": "info@pastastreet.co.in",
          "name": "Pasta Street",
          "phone": "+91 9266844026",
          "website": "https://pastastreet.co.in/"
        }
      },
      {
        "type": "node",
        "id": 11096390238,
        "lat": 12.9346233,
        "lon": 77.62302,
        "tags": {
          "amenity": "restaurant",
          "name": "The Doner Company"
        }
      },
      {
        "type": "node",
        "id": 11096390239,
        "lat": 12.9345149,
        "lon": 77.6232464,
        "tags": {
          "amenity": "restaurant",
          "name": "De Shack"
        }
      },
      {
        "type": "node",
        "id": 11096818319,
        "lat": 12.9337796,
        "lon": 77.6214948,
        "tags": {
          "amenity": "restaurant",
          "brand": "PizzaExpress",
          "brand:wikidata": "Q662845",
          "cuisine": "pizza",
          "name": "PizzaExpress"
        }
      },
      {
        "type": "node",
        "id": 11096818320,
        "lat": 12.9334333,
        "lon": 77.6216543,
        "tags": {
          "amenity": "fast_food",
          "cuisine": "pizza",
          "delivery": "only",
          "name": "Fermentation Stories",
          "takeaway": "only"
        }
      },
      {
        "type": "node",
        "id": 11277885671,
        "lat": 12.936282,
        "lon": 77.6225938,
        "tags": {
          "amenity": "restaurant",
          "contact:instagram": "ferrara.in",
          "cuisine": "italian",
          "name": "Ferrara",
          "toilets": "yes"
        }
      },
      {
        "type": "node",
        "id": 11277885724,
        "lat": 12.9291597,
        "lon": 77.6273802,
        "tags": {
          "amenity": "restaurant",
          "contact:instagram": "theverandahkoramangala",
          "name": "The Verandah"
        }
      },
      {
        "type": "node",
        "id": 11385511624,
        "lat": 12.9262798,
        "lon": 77.6332784,
        "tags": {
          "amenity": "bank",
          "check_date": "2023-11-30",
          "name": "Bharat Bank"
        }
      },
      {
        "type": "node",
        "id": 11385511625,
        "lat": 12.9271334,
        "lon": 77.6332033,
        "tags": {
          "amenity": "cafe",
          "check_date": "2023-11-30",
          "name": "Chai Fast"
        }
      },
      {
        "type": "node",
        "id": 11385511630,
        "lat": 12.9310729,
        "lon": 77.6326552,
        "tags": {
          "amenity": "cafe",
          "brand": "Barista",
          "brand:wikidata": "Q644735",
          "check_date": "2023-11-30",
          "cuisine": "coffee_shop",
          "name": "Barista",
          "takeaway": "yes"
        }
      },
      {
        "type": "node",
        "id": 11385511631,
        "lat": 12.9311872,
        "lon": 77.6326024,
        "tags": {
          "amenity": "fast_food",
          "brand": "Domino's",
          "brand:wikidata": "Q839466",
          "check_date": "2023-11-30",
          "cuisine": "pizza",
          "name": "Domino's",
          "takeaway": "yes"
        }
      },
      {
        "type": "node",
        "id": 11385511632,
        "lat": 12.9323886,
        "lon": 77.6314845,
        "tags": {
          "amenity": "cafe",
          "brand": "Starbucks",
          "brand:wikidata": "Q37158",
          "check_date": "2023-11-30",
          "cuisine": "coffee_shop",
          "name": "Starbucks",
          "official_name": "Starbucks Coffee",
          "takeaway": "yes"
        }
      },
      {
        "type": "node",
        "id": 11385511633,
        "lat": 12.9343675,
        "lon": 77.630024,
        "tags": {
          "amenity": "bank",
          "brand": "Jana Small Finance Bank",
          "brand:wikidata": "Q65122274",
          "check_date": "2023-11-30",
          "name": "Jana Small Finance Bank"
        }
      },
      {
        "type": "node",
        "id": 11385580177,
        "lat": 12.9374519,
        "lon": 77.6265817,
        "tags": {
          "amenity": "pharmacy",
          "check_date": "2023-11-30",
          "healthcare": "pharmacy",
          "name": "Lavish Pharma"
        }
      },
      {
        "type": "node",
        "id": 11505695830,
        "lat": 12.9268066,
        "lon": 77.6332725,
        "tags": {
          "amenity": "cafe",
          "check_date": "2024-01-10",
          "name": "Tatvika Cafe"
        }
      },
      {
        "type": "node",
        "id": 11505695835,
        "lat": 12.9338285,
        "lon": 77.629995,
        "tags": {
          "check_date": "2024-01-10",
          "name": "The Organic World",
          "organic": "only",
          "shop": "supermarket"
        }
      },
      {
        "type": "node",
        "id": 11659905692,
        "lat": 12.930344,
        "lon": 77.6332226,
        "tags": {
          "amenity": "pharmacy",
          "brand": "MedPlus",
          "brand:wikidata": "Q65684234",
          "healthcare": "pharmacy",
          "name": "MedPlus",
          "name:kn": "\u0cae\u0cc6\u0ca1\u0ccd\u200d\u0caa\u0ccd\u0cb2\u0cb8\u0ccd"
        }
      },
      {
        "type": "node",
        "id": 11659905693,
        "lat": 12.9307348,
        "lon": 77.633114,
        "tags": {
          "amenity": "cafe",
          "brand": "Chai Point",
          "brand:wikidata": "Q28173415",
          "check_date": "2025-05-25",
          "cuisine": "coffee_shop",
          "name": "Chai Point",
          "takeaway": "yes"
        }
      },
      {
        "type": "node",
        "id": 11659905694,
        "lat": 12.9309544,
        "lon": 77.6330697,
        "tags": {
          "amenity": "restaurant",
          "name": "Gabru Di Chaap"
        }
      },
      {
        "type": "node",
        "id": 11659905696,
        "lat": 12.9314093,
        "lon": 77.6325158,
        "tags": {
          "amenity": "bank",
          "atm": "yes",
          "brand": "ICICI Bank",
          "brand:wikidata": "Q1653258",
          "name": "ICICI Bank",
          "name:kn": "\u0c90\u0cb8\u0cbf\u0c90\u0cb8\u0cbf\u0c90 \u0cac\u0ccd\u0caf\u0cbe\u0c82\u0c95\u0cc1",
          "short_name": "ICICI"
        }
      },
      {
        "type": "node",
        "id": 11659905697,
        "lat": 12.9308067,
        "lon": 77.6327707,
        "tags": {
          "amenity": "bank",
          "name": "SVC Cooperative Bank Ltd"
        }
      },
      {
        "type": "node",
        "id": 11659905698,
        "lat": 12.9308262,
        "lon": 77.6330783,
        "tags": {
          "addr:housenumber": "1025",
          "addr:street": "80 Feet Road",
          "amenity": "fast_food",
          "cuisine": "kebab;burger;shawarma",
          "diet:halal": "yes",
          "diet:meat": "yes",
          "diet:non-vegetarian": "yes",
          "drive_through": "no",
          "name": "Al Taza"
        }
      },
      {
        "type": "node",
        "id": 11684016166,
        "lat": 12.9367572,
        "lon": 77.6276099,
        "tags": {
          "amenity": "restaurant",
          "check_date": "2024-03-02",
          "name": "Royal Tandoor"
        }
      },
      {
        "type": "node",
        "id": 11758608876,
        "lat": 12.9313963,
        "lon": 77.6234718,
        "tags": {
          "addr:housenumber": "82",
          "addr:street": "7th Cross Road",
          "amenity": "cafe",
          "check_date": "2024-03-24",
          "contact:instagram": "https://www.instagram.com/dailybakehouse",
          "name": "Daily Bakehouse",
          "opening_hours": "08:00-23:00",
          "shop": "bakery",
          "website": "https://dailybakehouse.in"
        }
      },
      {
        "type": "node",
        "id": 11758608877,
        "lat": 12.9313462,
        "lon": 77.6234605,
        "tags": {
          "addr:housenumber": "82",
          "addr:street": "7th Cross Road",
          "amenity": "restaurant",
          "check_date": "2024-03-24",
          "contact:instagram": "https://www.instagram.com/just.loaf",
          "cuisine": "american",
          "name": "Just Loaf",
          "website": "https://justloaf.in"
        }
      },
      {
        "type": "node",
        "id": 11915646724,
        "lat": 12.9333446,
        "lon": 77.6223642,
        "tags": {
          "addr:postcode": "560095",
          "amenity": "restaurant",
          "cuisine": "thai",
          "diet:vegetarian": "yes",
          "email": "tuktukthai.blr@gmail.com",
          "name": "Tuk Tuk Thai",
          "phone": "+91 080 48526265",
          "website": "https://www.tuktukthai.in/"
        }
      },
      {
        "type": "node",
        "id": 11968859180,
        "lat": 12.9357945,
        "lon": 77.6280548,
        "tags": {
          "addr:city": "Bengaluru",
          "addr:country": "IN",
          "addr:housenumber": "612",
          "addr:postcode": "560034",
          "addr:street": "80 Feet Road",
          "addr:suburb": "Koramangala",
          "amenity": "cafe",
          "contact:instagram": "roastea.outlets",
          "delivery": "yes",
          "name": "Roastea",
          "takeaway": "yes",
          "website": "https://roastea.in/"
        }
      },
      {
        "type": "node",
        "id": 12030715034,
        "lat": 12.9336933,
        "lon": 77.622146,
        "tags": {
          "amenity": "restaurant",
          "check_date": "2024-07-03",
          "name": "Mahe Global Kitchen"
        }
      },
      {
        "type": "node",
        "id": 12083603348,
        "lat": 12.9325502,
        "lon": 77.6318589,
        "tags": {
          "amenity": "cafe",
          "level": "3",
          "name": "Dialogues Cafe",
          "outdoor_seating": "yes"
        }
      },
      {
        "type": "node",
        "id": 12083603349,
        "lat": 12.931798,
        "lon": 77.632117,
        "tags": {
          "amenity": "cafe",
          "name": "Helloo Dilli"
        }
      },
      {
        "type": "node",
        "id": 12083603351,
        "lat": 12.9317143,
        "lon": 77.6322196,
        "tags": {
          "amenity": "bank",
          "brand": "Bandhan Bank",
          "brand:wikidata": "Q19882235",
          "name": "Bandhan Bank"
        }
      },
      {
        "type": "node",
        "id": 12083603354,
        "lat": 12.9313995,
        "lon": 77.6329049,
        "tags": {
          "amenity": "restaurant",
          "cuisine": "thai",
          "name": "Thai Basil"
        }
      },
      {
        "type": "node",
        "id": 12115149767,
        "lat": 12.9332839,
        "lon": 77.6310669,
        "tags": {
          "addr:postcode": "560034",
          "addr:street": "80 Feet Road",
          "amenity": "bank",
          "atm": "yes",
          "brand": "Kotak Mahindra Bank",
          "brand:wikidata": "Q2040404",
          "name": "Kotak Mahindra Bank"
        }
      },
      {
        "type": "node",
        "id": 12115149768,
        "lat": 12.9333297,
        "lon": 77.6310562,
        "tags": {
          "addr:postcode": "560034",
          "addr:street": "80 Feet Road",
          "amenity": "restaurant",
          "cuisine": "pizza",
          "level": "1",
          "name": "Onesta"
        }
      },
      {
        "type": "node",
        "id": 12115149770,
        "lat": 12.9331813,
        "lon": 77.6311695,
        "tags": {
          "addr:postcode": "560034",
          "addr:street": "80 Feet Road",
          "amenity": "bank",
          "atm": "yes",
          "brand": "RBL Bank",
          "brand:wikidata": "Q13120398",
          "name": "RBL Bank"
        }
      },
      {
        "type": "node",
        "id": 12115149772,
        "lat": 12.9330896,
        "lon": 77.6312388,
        "tags": {
          "amenity": "atm",
          "brand": "State Bank of India",
          "brand:wikidata": "Q1340361",
          "operator": "State Bank of India",
          "operator:wikidata": "Q1340361",
          "short_name": "SBI"
        }
      },
      {
        "type": "node",
        "id": 12115149773,
        "lat": 12.9330648,
        "lon": 77.6312713,
        "tags": {
          "addr:postcode": "560034",
          "addr:street": "80 Feet Road",
          "amenity": "bank",
          "brand": "State Bank of India",
          "brand:wikidata": "Q1340361",
          "level": "1",
          "name": "State Bank of India",
          "short_name": "SBI"
        }
      },
      {
        "type": "node",
        "id": 12115251881,
        "lat": 12.9295347,
        "lon": 77.6308153,
        "tags": {
          "addr:postcode": "560034",
          "addr:street": "7th Cross Road",
          "amenity": "cafe",
          "name": "Cafe OTW On The Way"
        }
      },
      {
        "type": "node",
        "id": 12115251882,
        "lat": 12.9296138,
        "lon": 77.6316244,
        "tags": {
          "addr:postcode": "560034",
          "addr:street": "7th Cross Road",
          "amenity": "clinic",
          "healthcare": "clinic",
          "healthcare:speciality": "fertility",
          "name": "Cherish Fertinity Clinic"
        }
      },
      {
        "type": "node",
        "id": 12115251886,
        "lat": 12.9295262,
        "lon": 77.6319228,
        "tags": {
          "addr:postcode": "560034",
          "addr:street": "7th Cross Road",
          "amenity": "cafe",
          "name": "Kaffe 399"
        }
      },
      {
        "type": "node",
        "id": 12115251889,
        "lat": 12.9305861,
        "lon": 77.6331696,
        "tags": {
          "addr:postcode": "560034",
          "addr:street": "80 Feet Road",
          "amenity": "cafe",
          "cuisine": "waffle",
          "name": "Belgian Waffle"
        }
      },
      {
        "type": "node",
        "id": 12154759019,
        "lat": 12.9312568,
        "lon": 77.623582,
        "tags": {
          "amenity": "bank",
          "atm": "yes",
          "brand": "HDFC Bank",
          "brand:wikidata": "Q631047",
          "name": "HDFC Bank",
          "name:kn": "\u0c8e\u0c9a\u0ccd \u0ca1\u0cbf \u0c8e\u0cab\u0ccd \u0cb8\u0cbf",
          "short_name": "HDFC"
        }
      },
      {
        "type": "node",
        "id": 12154759020,
        "lat": 12.9310666,
        "lon": 77.6240212,
        "tags": {
          "amenity": "bank",
          "atm": "yes",
          "brand": "Axis Bank",
          "brand:wikidata": "Q2003549",
          "name": "Axis Bank",
          "name:kn": "\u0c86\u0c95\u0ccd\u0cb8\u0cbf\u0cb8\u0ccd \u0cac\u0ccd\u0caf\u0cbe\u0c82\u0c95\u0ccd"
        }
      },
      {
        "type": "node",
        "id": 12155310940,
        "lat": 12.9337842,
        "lon": 77.6224798,
        "tags": {
          "addr:city": "Bengaluru",
          "addr:country": "IN",
          "addr:suburb": "Koramangala",
          "amenity": "restaurant",
          "contact:instagram": "https://www.instagram.com/thefiltercoffee.in",
          "cuisine": "south_indian",
          "delivery": "yes",
          "diet:vegetarian": "yes",
          "name": "The Filter Coffee",
          "payment:credit_cards": "yes",
          "payment:debit_cards": "yes",
          "takeaway": "yes",
          "wheelchair": "no"
        }
      },
      {
        "type": "node",
        "id": 12208448673,
        "lat": 12.9333097,
        "lon": 77.6270074,
        "tags": {
          "amenity": "cafe",
          "contact:instagram": "brunchproject.blr",
          "name": "Brunch Project",
          "opening_hours": "Mo-Su 09:00-20:00"
        }
      },
      {
        "type": "node",
        "id": 12229924652,
        "lat": 12.93678,
        "lon": 77.6249117,
        "tags": {
          "amenity": "restaurant",
          "check_date": "2024-10-06",
          "cuisine": "indian",
          "name": "Mitra Cafe",
          "payment:cash": "yes",
          "payment:credit_cards": "yes",
          "payment:debit_cards": "yes",
          "wheelchair": "yes"
        }
      },
      {
        "type": "node",
        "id": 12285673035,
        "lat": 12.9336313,
        "lon": 77.6226322,
        "tags": {
          "amenity": "restaurant",
          "name": "The Filter Coffee"
        }
      },
      {
        "type": "node",
        "id": 12395928081,
        "lat": 12.9350501,
        "lon": 77.6250594,
        "tags": {
          "addr:city": "Bengaluru",
          "addr:hamlet": "Koramangala 4th Block",
          "addr:housenumber": "39",
          "addr:street": "8th Main Road",
          "addr:suburb": "Koramangala",
          "amenity": "cafe",
          "contact:instagram": "fastcoffee.in",
          "cuisine": "coffee_shop",
          "name": "Fast Coffee",
          "website": "https://fastcoffee.in/"
        }
      },
      {
        "type": "node",
        "id": 12508687328,
        "lat": 12.9342277,
        "lon": 77.6296323,
        "tags": {
          "addr:city": "Bengaluru",
          "addr:district": "Bengaluru Urban",
          "addr:full": "640, 12Th Main, 80 Ft Road, 4Th Block, Koramangala",
          "addr:housenumber": "640",
          "addr:postcode": "560034",
          "addr:state": "Karnataka",
          "addr:street": "640, 12Th Main, 80 Ft Road, 4Th Block, Koramangala",
          "amenity": "hospital",
          "healthcare": "hospital",
          "name": "Beams Hospitals Private Limited"
        }
      },
      {
        "type": "node",
        "id": 12512224856,
        "lat": 12.9334666,
        "lon": 77.6208718,
        "tags": {
          "amenity": "restaurant",
          "name": "Kritunga The Palegar's Cuisine"
        }
      },
      {
        "type": "node",
        "id": 12550773109,
        "lat": 12.9361615,
        "lon": 77.6224708,
        "tags": {
          "addr:city": "Bangalore",
          "addr:district": "Bengaluru Urban",
          "addr:housenumber": "74",
          "addr:postcode": "560095",
          "addr:street": "17th E Main Road",
          "amenity": "restaurant",
          "cuisine": "turkish",
          "name": "Kebapci"
        }
      },
      {
        "type": "node",
        "id": 12634999220,
        "lat": 12.9353545,
        "lon": 77.6295503,
        "tags": {
          "addr:housenumber": "10",
          "addr:street": "4th cross street, Green Leaf Extension, 80 ft road, 4th Block, Koramangala",
          "amenity": "restaurant",
          "description": "Low spice everyday healthy full nutrition meals, for dine in and delivery",
          "name": "Friendz Flavour Kitchen",
          "phone": "+918971192097",
          "website": "www.friendzflavourkitchen.com"
        }
      },
      {
        "type": "node",
        "id": 12762692064,
        "lat": 12.922395,
        "lon": 77.6339794,
        "tags": {
          "amenity": "restaurant",
          "name": "Karavali Restaurant"
        }
      },
      {
        "type": "node",
        "id": 12862846434,
        "lat": 12.9261467,
        "lon": 77.6332737,
        "tags": {
          "amenity": "restaurant",
          "cuisine": "burger",
          "delivery": "yes",
          "name": "The High Joint",
          "takeaway": "yes"
        }
      },
      {
        "type": "node",
        "id": 12862846454,
        "lat": 12.9256478,
        "lon": 77.6250965,
        "tags": {
          "amenity": "fast_food",
          "cuisine": "burger;wings;chicken",
          "delivery": "yes",
          "name": "Big Guys: Wings & More",
          "takeaway": "yes"
        }
      },
      {
        "type": "node",
        "id": 12956090274,
        "lat": 12.9346221,
        "lon": 77.6284665,
        "tags": {
          "addr:city": "Bangalore",
          "addr:district": "Bengaluru",
          "addr:housenumber": "224",
          "addr:postcode": "560034",
          "addr:street": "5th cross, 4th block",
          "amenity": "hospital",
          "emergency": "no",
          "healthcare": "hospital",
          "healthcare:speciality": "dentistry;prosthodontist;pediatric_dentist;implants;orthodontics;invisalign;root_canal_treatment",
          "name": "Proteeth Dental",
          "operator": "Dr Saranya, Dr Dipen",
          "operator:type": "private"
        }
      },
      {
        "type": "node",
        "id": 13057726125,
        "lat": 12.9359805,
        "lon": 77.6250264,
        "tags": {
          "amenity": "bank",
          "brand": "Bank of Baroda",
          "brand:wikidata": "Q2003797",
          "check_date": "2025-08-08",
          "name": "Bank of Baroda"
        }
      },
      {
        "type": "node",
        "id": 13086275910,
        "lat": 12.9283909,
        "lon": 77.6361652,
        "tags": {
          "amenity": "cafe",
          "name": "Krust Cafe"
        }
      },
      {
        "type": "node",
        "id": 13086275911,
        "lat": 12.9288004,
        "lon": 77.6353345,
        "tags": {
          "amenity": "restaurant",
          "cuisine": "asian",
          "name": "Bao To Me"
        }
      }
    ]
  },
  "pois_2_5km": {
    "version": 0.6,
    "generator": "Overpass API 0.7.62.8 e802775f",
    "osm3s": {
      "timestamp_osm_base": "2025-09-06T08:11:22Z",
      "copyright": "The data included in this document is from www.openstreetmap.org. The data is made available under ODbL."
    },
    "elements": [
      {
        "type": "node",
        "id": 260911861,
        "lat": 12.9241419,
        "lon": 77.6288623,
        "tags": {
          "bus": "yes",
          "name": "Krupanidhi College",
          "name:en": "Krupanidhi College",
          "network": "BMTC",
          "operator": "BMTC",
          "public_transport": "stop_position"
        }
      },
      {
        "type": "node",
        "id": 308779347,
        "lat": 12.9356671,
        "lon": 77.6144578,
        "tags": {
          "addr:street": "80 Feet Road",
          "amenity": "fuel",
          "brand": "Bharat Petroleum",
          "brand:wikidata": "Q854826",
          "name": "Bharat Petroleum",
          "name:kn": "\u0cad\u0cbe\u0cb0\u0ca4\u0ccd \u0caa\u0cc6\u0c9f\u0ccd\u0cb0\u0ccb\u0cb2\u0cbf\u0caf\u0c82"
        }
      },
      {
        "type": "node",
        "id": 1459472858,
        "lat": 12.9346877,
        "lon": 77.6116748,
        "tags": {
          "addr:city": "Bangalore",
          "addr:housename": "Forum Mall",
          "addr:street": "Hosur Road",
          "amenity": "cinema",
          "brand": "PVR Cinemas",
          "brand:short": "PVR",
          "brand:wikidata": "Q3359908",
          "name": "PVR",
          "operator": "PVR Cinemas",
          "screen": "12",
          "short_name": "PVR"
        }
      },
      {
        "type": "node",
        "id": 1464896674,
        "lat": 12.933506,
        "lon": 77.6303939,
        "tags": {
          "amenity": "fuel",
          "brand": "Hindustan Petroleum",
          "brand:wikidata": "Q1619375",
          "name": "HP Petrol Pump",
          "official_name": "Hindustan Petroleum"
        }
      },
      {
        "type": "node",
        "id": 1472212762,
        "lat": 12.9090166,
        "lon": 77.6280806,
        "tags": {
          "addr:city": "Bengaluru",
          "amenity": "fuel",
          "brand": "Bharat Petroleum",
          "brand:wikidata": "Q854826",
          "brand:wikipedia": "en:Bharat Petroleum",
          "fuel:diesel": "yes",
          "fuel:petrol": "yes",
          "name": "Bharat Petroleum",
          "operator": "Vasundhara Auto Service",
          "self_service": "no"
        }
      },
      {
        "type": "node",
        "id": 1613147970,
        "lat": 12.9087203,
        "lon": 77.6275079,
        "tags": {
          "amenity": "fuel",
          "brand": "Indian Oil",
          "brand:wikidata": "Q1289348",
          "brand:wikipedia": "en:Indian Oil Corporation",
          "compressed_air": "yes",
          "name": "Indian Oil",
          "name:kn": "\u0c87\u0c82\u0ca1\u0cbf\u0caf\u0ca8\u0ccd \u0c86\u0caf\u0cbf\u0cb2\u0ccd"
        }
      },
      {
        "type": "node",
        "id": 2509428534,
        "lat": 12.9168542,
        "lon": 77.6212842,
        "tags": {
          "bus": "yes",
          "public_transport": "stop_position"
        }
      },
      {
        "type": "node",
        "id": 3300149440,
        "lat": 12.9127356,
        "lon": 77.6380054,
        "tags": {
          "amenity": "bus_station",
          "bus": "yes",
          "name": "HSR Layout",
          "public_transport": "station"
        }
      },
      {
        "type": "node",
        "id": 5760198202,
        "lat": 12.9106157,
        "lon": 77.6264782,
        "tags": {
          "alt_name": "Roopena Agrahara",
          "alt_name:kn": "\u0cb0\u0cc2\u0caa\u0cc7\u0ca8 \u0c85\u0c97\u0ccd\u0cb0\u0cb9\u0cbe\u0cb0",
          "code": "HSRL",
          "layer": "1",
          "lit": "yes",
          "name": "Bommanahalli",
          "name:en": "Bommanahalli",
          "name:kn": "\u0cac\u0cca\u0cae\u0ccd\u0cae\u0ca8\u0cb9\u0cb3\u0ccd\u0cb3\u0cbf",
          "network": "Namma Metro",
          "note": "Contributors are requested to not edit the \"network\" and the \"operator\" tags. (2023/11/08)",
          "operator": "Bangalore Metro Rail Corporation Limited",
          "platforms": "2",
          "public_transport": "station",
          "public_transport:version": "2",
          "railway": "station",
          "shelter": "yes",
          "start_date": "2025-08-10",
          "station": "subway",
          "subway": "yes",
          "website": "https://english.brmc.co.in",
          "wheelchair": "yes"
        }
      },
      {
        "type": "node",
        "id": 5760198212,
        "lat": 12.9165816,
        "lon": 77.620567,
        "tags": {
          "code": "SBJT",
          "layer": "1",
          "lit": "yes",
          "name": "Central Silk Board",
          "name:en": "Central Silk Board",
          "name:kn": "\u0cb8\u0cc6\u0c82\u0c9f\u0ccd\u0cb0\u0cb2\u0ccd \u0cb8\u0cbf\u0cb2\u0ccd\u0c95 \u0cac\u0ccb\u0cb0\u0ccd\u0ca1\u0ccd",
          "network": "Namma Metro",
          "note": "Contributors are requested to not edit the \"network\" and the \"operator\" tags. (2023/11/08)",
          "operator": "Bangalore Metro Rail Corporation Limited",
          "platforms": "2",
          "public_transport": "station",
          "public_transport:version": "2",
          "railway": "station",
          "shelter": "yes",
          "start_date": "2025-08-10",
          "station": "subway",
          "subway": "yes",
          "website": "https://english.brmc.co.in",
          "wheelchair": "yes"
        }
      },
      {
        "type": "node",
        "id": 5928050269,
        "lat": 12.9069208,
        "lon": 77.6325545,
        "tags": {
          "bus": "yes",
          "name": "Salarpuria Serenity",
          "name:en": "Salarpuria Serenity",
          "network": "BMTC",
          "operator": "BMTC",
          "public_transport": "stop_position"
        }
      },
      {
        "type": "node",
        "id": 5993280677,
        "lat": 12.9288024,
        "lon": 77.6332701,
        "tags": {
          "bus": "yes",
          "name": "Wipro Park",
          "name:en": "Wipro Park",
          "network": "BMTC",
          "operator": "BMTC",
          "public_transport": "stop_position"
        }
      },
      {
        "type": "node",
        "id": 7132452580,
        "lat": 12.9506229,
        "lon": 77.624224,
        "tags": {
          "bus": "yes",
          "name": "Shine Bakery",
          "name:en": "Shine Bakery",
          "network": "BMTC",
          "operator": "BMTC",
          "public_transport": "stop_position"
        }
      },
      {
        "type": "node",
        "id": 7132452582,
        "lat": 12.9496896,
        "lon": 77.6265998,
        "tags": {
          "bus": "yes",
          "name": "Fairland Shop",
          "name:en": "Fairland Shop",
          "network": "BMTC",
          "operator": "BMTC",
          "public_transport": "stop_position"
        }
      },
      {
        "type": "node",
        "id": 7132452583,
        "lat": 12.946733,
        "lon": 77.6287391,
        "tags": {
          "bus": "yes",
          "name": "Ejipura",
          "name:en": "Ejipura",
          "name:kn": "\u0c88\u0c9c\u0cbf\u0caa\u0cc1\u0cb0",
          "network": "BMTC",
          "operator": "BMTC",
          "public_transport": "stop_position"
        }
      },
      {
        "type": "node",
        "id": 7132452584,
        "lat": 12.9427367,
        "lon": 77.6307638,
        "tags": {
          "bus": "yes",
          "name": "Ejipura School",
          "name:en": "Ejipura School",
          "name:kn": "\u0c88\u0c9c\u0cbf\u0caa\u0cc1\u0cb0 \u0cb6\u0cbe\u0cb2\u0cc6",
          "network": "BMTC",
          "operator": "BMTC",
          "public_transport": "stop_position"
        }
      },
      {
        "type": "node",
        "id": 7132486285,
        "lat": 12.9392351,
        "lon": 77.6323159,
        "tags": {
          "bus": "yes",
          "name": "Srinivagilu Ejipura",
          "name:en": "Srinivagilu Ejipura",
          "name:kn": "\u0cb6\u0ccd\u0cb0\u0cc0\u0ca8\u0cbf\u0cb5\u0cbe\u0c97\u0cbf\u0cb2\u0cc1 \u0c88\u0c9c\u0cbf\u0caa\u0cc1\u0cb0",
          "network": "BMTC",
          "operator": "BMTC",
          "public_transport": "stop_position"
        }
      },
      {
        "type": "node",
        "id": 7140560430,
        "lat": 12.946588,
        "lon": 77.6288423,
        "tags": {
          "bus": "yes",
          "name": "Ejipura",
          "name:en": "Ejipura",
          "name:kn": "\u0c88\u0c9c\u0cbf\u0caa\u0cc1\u0cb0",
          "network": "BMTC",
          "operator": "BMTC",
          "public_transport": "stop_position"
        }
      },
      {
        "type": "node",
        "id": 7140560432,
        "lat": 12.9500222,
        "lon": 77.6261783,
        "tags": {
          "bus": "yes",
          "name": "Fairland Shop",
          "name:en": "Fairland Shop",
          "network": "BMTC",
          "operator": "BMTC",
          "public_transport": "stop_position"
        }
      },
      {
        "type": "node",
        "id": 7140560434,
        "lat": 12.9506781,
        "lon": 77.6239625,
        "tags": {
          "bus": "yes",
          "name": "Shine Bakery",
          "name:en": "Shine Bakery",
          "network": "BMTC",
          "operator": "BMTC",
          "public_transport": "stop_position"
        }
      },
      {
        "type": "node",
        "id": 7277381411,
        "lat": 12.9252461,
        "lon": 77.6371646,
        "tags": {
          "bus": "yes",
          "name": "Jakkasandra",
          "name:en": "Jakkasandhra",
          "name:kn": "\u0c9c\u0c95\u0ccd\u0c95\u0cb8\u0c82\u0ca6\u0ccd\u0cb0",
          "network": "BMTC",
          "operator": "Bengaluru Metropolitan Tranport Corporation",
          "public_transport": "stop_position"
        }
      },
      {
        "type": "node",
        "id": 7277381418,
        "lat": 12.9250739,
        "lon": 77.6348395,
        "tags": {
          "bus": "yes",
          "local_ref": "Koramangala",
          "name": "1st Block Koramangala",
          "name:en": "1st Block Koramangala",
          "name:kn": "\u0c95\u0ccb\u0cb0\u0cae\u0c82\u0c97\u0cb2",
          "network": "BMTC",
          "operator": "BMTC",
          "public_transport": "stop_position"
        }
      },
      {
        "type": "node",
        "id": 7277381421,
        "lat": 12.9243856,
        "lon": 77.6307423,
        "tags": {
          "bus": "yes",
          "name": "John Fowler",
          "name:en": "John Fowler",
          "network": "BMTC",
          "operator": "BMTC",
          "public_transport": "stop_position"
        }
      },
      {
        "type": "node",
        "id": 7277381427,
        "lat": 12.9241479,
        "lon": 77.6299687,
        "tags": {
          "bus": "yes",
          "name": "John Fowler",
          "name:en": "John Fowler",
          "network": "BMTC",
          "operator": "BMTC",
          "public_transport": "stop_position"
        }
      },
      {
        "type": "node",
        "id": 7277381428,
        "lat": 12.9268106,
        "lon": 77.6227986,
        "tags": {
          "bus": "yes",
          "name": "Koramangala Water Tank",
          "name:en": "Koramangala Water Tank",
          "network": "BMTC",
          "operator": "BMTC",
          "public_transport": "stop_position"
        }
      },
      {
        "type": "node",
        "id": 7277381435,
        "lat": 12.9294716,
        "lon": 77.6160012,
        "tags": {
          "bus": "yes",
          "name": "St. John's Hospital",
          "name:en": "St. John's Hospital",
          "name:kn": "\u0cb8\u0cc6\u0c82\u0c9f\u0ccd \u0c9c\u0cbe\u0ca8\u0ccd\u0cb8\u0ccd \u0c86\u0cb8\u0ccd\u0caa\u0ca4\u0ccd\u0cb0\u0cc6",
          "network": "BMTC",
          "operator": "BMTC",
          "public_transport": "stop_position"
        }
      },
      {
        "type": "node",
        "id": 7293817082,
        "lat": 12.9390151,
        "lon": 77.6097671,
        "tags": {
          "bus": "yes",
          "name": "Adugodi Police Station",
          "name:en": "Adugodi Police Station",
          "name:kn": "\u0c85\u0ca1\u0cc1\u0c97\u0cca\u0ca1\u0cbf \u0caa\u0ccb\u0cb2\u0cc0\u0cb8\u0ccd \u0ca0\u0cbe\u0ca3\u0cc6",
          "network": "BMTC",
          "operator": "BMTC",
          "public_transport": "stop_position"
        }
      },
      {
        "type": "node",
        "id": 7293817083,
        "lat": 12.9398973,
        "lon": 77.6094326,
        "tags": {
          "bus": "yes",
          "name": "Adugodi Police Station",
          "name:en": "Adugodi Police Station",
          "name:kn": "\u0c85\u0ca1\u0cc1\u0c97\u0cca\u0ca1\u0cbf \u0caa\u0ccb\u0cb2\u0cc0\u0cb8\u0ccd \u0ca0\u0cbe\u0ca3\u0cc6",
          "network": "BMTC",
          "operator": "BMTC",
          "public_transport": "stop_position"
        }
      },
      {
        "type": "node",
        "id": 7294283041,
        "lat": 12.9161183,
        "lon": 77.6352486,
        "tags": {
          "bus": "yes",
          "name": "HSR Layout BDA Complex",
          "name:en": "HSR Layout BDA Complex",
          "network": "BMTC",
          "operator": "BMTC",
          "public_transport": "stop_position"
        }
      },
      {
        "type": "node",
        "id": 7294283056,
        "lat": 12.9175581,
        "lon": 77.6244453,
        "tags": {
          "bus": "yes",
          "name": "Central Silk Board",
          "name:en": "Central Silk Board",
          "name:kn": "\u0c95\u0cc7\u0c82\u0ca6\u0ccd\u0cb0\u0cbf\u0caf \u0cb0\u0cc7\u0cb7\u0ccd\u0cae\u0cc6 \u0c87\u0cb2\u0cbe\u0c96\u0cc6",
          "network": "BMTC",
          "operator": "BMTC",
          "public_transport": "stop_position"
        }
      },
      {
        "type": "node",
        "id": 7294299975,
        "lat": 12.920006,
        "lon": 77.6208506,
        "tags": {
          "bus": "yes",
          "name": "Madiwala",
          "name:en": "Madiwala",
          "name:kn": "\u0cae\u0ca1\u0cbf\u0cb5\u0cbe\u0cb3",
          "network": "BMTC",
          "operator": "BMTC",
          "public_transport": "stop_position"
        }
      },
      {
        "type": "node",
        "id": 9857268053,
        "lat": 12.9345998,
        "lon": 77.6239316,
        "tags": {
          "bus": "yes",
          "name": "Canara Bank Koramangala",
          "name:en": "Canara Bank Koramangala",
          "network": "BMTC",
          "operator": "BMTC",
          "public_transport": "stop_position"
        }
      },
      {
        "type": "node",
        "id": 9858668202,
        "lat": 12.9163977,
        "lon": 77.6342411,
        "tags": {
          "bus": "yes",
          "name": "HSR Layout BDA Complex",
          "name:en": "HSR Layout BDA Complex",
          "network": "BMTC",
          "operator": "BMTC",
          "public_transport": "stop_position"
        }
      },
      {
        "type": "node",
        "id": 9930197118,
        "lat": 12.9312742,
        "lon": 77.6225375,
        "tags": {
          "bus": "yes",
          "name": "Koramangala BDA Complex",
          "name:en": "Koramangala BDA Complex",
          "network": "BMTC",
          "operator": "BMTC",
          "public_transport": "stop_position"
        }
      },
      {
        "type": "node",
        "id": 9930197119,
        "lat": 12.9319288,
        "lon": 77.6226551,
        "tags": {
          "bus": "yes",
          "name": "Koramangala BDA Complex",
          "name:en": "Koramangala BDA Complex",
          "network": "BMTC",
          "operator": "BMTC",
          "public_transport": "stop_position"
        }
      },
      {
        "type": "node",
        "id": 9930197122,
        "lat": 12.9384714,
        "lon": 77.6317931,
        "tags": {
          "bus": "yes",
          "name": "Ejipura Junction",
          "name:en": "Ejipura Junction",
          "network": "BMTC",
          "operator": "BMTC",
          "public_transport": "stop_position"
        }
      },
      {
        "type": "node",
        "id": 9930197147,
        "lat": 12.9385691,
        "lon": 77.6331222,
        "tags": {
          "bus": "yes",
          "name": "Ejipura Junction",
          "name:en": "Ejipura Junction",
          "network": "BMTC",
          "operator": "BMTC",
          "public_transport": "stop_position"
        }
      },
      {
        "type": "node",
        "id": 9951257714,
        "lat": 12.9454855,
        "lon": 77.6191623,
        "tags": {
          "bus": "yes",
          "name": "Passport Office",
          "name:en": "Passport Office",
          "name:kn": "\u0caa\u0cbe\u0cb8\u0ccd\u0caa\u0ccb\u0cb0\u0ccd\u0c9f\u0ccd \u0c95\u0c9b\u0cc7\u0cb0\u0cbf",
          "network": "BMTC",
          "operator": "BMTC",
          "public_transport": "stop_position"
        }
      },
      {
        "type": "node",
        "id": 9951289030,
        "lat": 12.9487865,
        "lon": 77.6201278,
        "tags": {
          "bus": "yes",
          "name": "National Games",
          "name:en": "National Games",
          "network": "BMTC",
          "operator": "BMTC",
          "public_transport": "stop_position"
        }
      },
      {
        "type": "node",
        "id": 10177662896,
        "lat": 12.9137732,
        "lon": 77.6441735,
        "tags": {
          "amenity": "charging_station",
          "capacity": "1"
        }
      },
      {
        "type": "node",
        "id": 10238264073,
        "lat": 12.9300329,
        "lon": 77.6210019,
        "tags": {
          "amenity": "theatre",
          "name": "Pope Paul VI Auditorium"
        }
      },
      {
        "type": "node",
        "id": 10295532244,
        "lat": 12.9261211,
        "lon": 77.6246591,
        "tags": {
          "bus": "yes",
          "name": "Koramangala CPWD Quarters",
          "name:en": "Koramangala CPWD Quarters",
          "network": "BMTC",
          "operator": "BMTC",
          "public_transport": "stop_position"
        }
      },
      {
        "type": "node",
        "id": 10763275239,
        "lat": 12.9154635,
        "lon": 77.6158909,
        "tags": {
          "amenity": "charging_station",
          "fee": "yes",
          "name": "Magenta ChargeGrid Charging Station",
          "operator": "Magenta Group"
        }
      },
      {
        "type": "node",
        "id": 10855128079,
        "lat": 12.9363638,
        "lon": 77.606663,
        "tags": {
          "bus": "yes",
          "name": "Muneshwara Temple",
          "name:en": "Muneshwara Temple",
          "name:kn": "\u0cae\u0cc1\u0ca8\u0cc7\u0cb6\u0ccd\u0cb5\u0cb0 \u0ca6\u0cc7\u0cb5\u0cb8\u0ccd\u0ca5\u0cbe\u0ca8",
          "network": "BMTC",
          "operator": "BMTC",
          "public_transport": "stop_position"
        }
      },
      {
        "type": "node",
        "id": 10855128080,
        "lat": 12.9320874,
        "lon": 77.6131149,
        "tags": {
          "alt_name": "Forum Mall",
          "bus": "yes",
          "name": "Hosur Junction",
          "name:en": "Hosur Junction",
          "network": "BMTC",
          "old_name": "Hosur Checkpost",
          "operator": "BMTC",
          "public_transport": "stop_position"
        }
      },
      {
        "type": "node",
        "id": 10855128081,
        "lat": 12.9293758,
        "lon": 77.6159007,
        "tags": {
          "bus": "yes",
          "name": "St. John's Hospital",
          "name:en": "St. John's Hospital",
          "name:kn": "\u0cb8\u0cc6\u0c82\u0c9f\u0ccd \u0c9c\u0cbe\u0ca8\u0ccd\u0cb8\u0ccd \u0c86\u0cb8\u0ccd\u0caa\u0ca4\u0ccd\u0cb0\u0cc6",
          "network": "BMTC",
          "operator": "BMTC",
          "public_transport": "stop_position"
        }
      },
      {
        "type": "node",
        "id": 10855128082,
        "lat": 12.9276081,
        "lon": 77.620616,
        "tags": {
          "bus": "yes",
          "name": "Koramangala Water Tank",
          "name:en": "Koramangala Water Tank",
          "network": "BMTC",
          "operator": "BMTC",
          "public_transport": "stop_position"
        }
      },
      {
        "type": "node",
        "id": 10855128083,
        "lat": 12.9256193,
        "lon": 77.6253416,
        "tags": {
          "bus": "yes",
          "name": "Kudremukha Colony",
          "name:en": "Kudremukha Colony",
          "name:kn": "\u0c95\u0cc1\u0ca6\u0ccd\u0cb0\u0cc6\u0cae\u0cc1\u0c96 \u0c95\u0cbe\u0cb2\u0ccb\u0ca8\u0cbf",
          "network": "BMTC",
          "operator": "BMTC",
          "public_transport": "stop_position"
        }
      },
      {
        "type": "node",
        "id": 10855128085,
        "lat": 12.9248491,
        "lon": 77.634244,
        "tags": {
          "bus": "yes",
          "local_ref": "Koramangala",
          "name": "1st Block Koramangala",
          "name:en": "1st Block Koramangala",
          "name:kn": "\u0c95\u0ccb\u0cb0\u0cae\u0c82\u0c97\u0cb2",
          "network": "BMTC",
          "operator": "BMTC",
          "public_transport": "stop_position"
        }
      },
      {
        "type": "node",
        "id": 10855128086,
        "lat": 12.9247783,
        "lon": 77.6379409,
        "tags": {
          "bus": "yes",
          "name": "Jakkasandra",
          "name:en": "Jakkasandra",
          "name:kn": "\u0c9c\u0c95\u0ccd\u0c95\u0cb8\u0c82\u0ca6\u0ccd\u0cb0",
          "network": "BMTC",
          "operator": "Bengaluru Metropolitan Tranport Corporation",
          "public_transport": "stop_position"
        }
      },
      {
        "type": "node",
        "id": 10872824023,
        "lat": 12.9170799,
        "lon": 77.6223011,
        "tags": {
          "bus": "yes",
          "name": "Silk Board",
          "name:en": "Silk Board",
          "network": "BMTC",
          "operator": "BMTC",
          "public_transport": "stop_position"
        }
      },
      {
        "type": "node",
        "id": 10872824026,
        "lat": 12.9167774,
        "lon": 77.6223288,
        "tags": {
          "bus": "yes",
          "name": "Silk Board",
          "name:en": "Silk Board",
          "network": "BMTC",
          "operator": "BMTC",
          "public_transport": "stop_position"
        }
      },
      {
        "type": "node",
        "id": 10873245759,
        "lat": 12.9448354,
        "lon": 77.6199339,
        "tags": {
          "alt_name": "Rajendranagar",
          "bus": "yes",
          "name": "Passport Office",
          "name:en": "Passport Office",
          "name:kn": "\u0caa\u0cbe\u0cb8\u0ccd\u0caa\u0ccb\u0cb0\u0ccd\u0c9f\u0ccd \u0c95\u0c9b\u0cc7\u0cb0\u0cbf",
          "network": "BMTC",
          "operator": "BMTC",
          "public_transport": "stop_position"
        }
      },
      {
        "type": "node",
        "id": 10873245761,
        "lat": 12.9410649,
        "lon": 77.6242298,
        "tags": {
          "bus": "yes",
          "name": "Koramangala Depot",
          "name:en": "Koramangala Depot",
          "name:kn": "\u0c95\u0ccb\u0cb0\u0cae\u0c82\u0c97\u0cb2 \u0ca1\u0cc0\u0caa\u0ccb",
          "network": "BMTC",
          "operator": "BMTC",
          "public_transport": "stop_position"
        }
      },
      {
        "type": "node",
        "id": 11099858532,
        "lat": 12.9089865,
        "lon": 77.6380365,
        "tags": {
          "bus": "yes",
          "network": "BMTC",
          "operator": "BMTC",
          "public_transport": "stop_position"
        }
      },
      {
        "type": "node",
        "id": 11099858537,
        "lat": 12.9105706,
        "lon": 77.6324633,
        "tags": {
          "bus": "yes",
          "name": "5th Main Road",
          "name:en": "5th Main",
          "name:kn": "\u0ceb\u0ca8\u0cc7 \u0cae\u0cc1\u0c96\u0ccd\u0caf \u0cb0\u0cb8\u0ccd\u0ca4\u0cc6",
          "network": "BMTC",
          "operator": "BMTC",
          "public_transport": "stop_position"
        }
      },
      {
        "type": "node",
        "id": 11099858539,
        "lat": 12.9123981,
        "lon": 77.6351305,
        "tags": {
          "bus": "yes",
          "name": "9th Main",
          "name:en": "9th Main",
          "name:kn": "\u0cef\u0ca8\u0cc7 \u0cae\u0cc1\u0c96\u0ccd\u0caf \u0cb0\u0cb8\u0ccd\u0ca4\u0cc6",
          "network": "BMTC",
          "operator": "BMTC",
          "public_transport": "stop_position"
        }
      },
      {
        "type": "node",
        "id": 11099858541,
        "lat": 12.9122792,
        "lon": 77.6378539,
        "tags": {
          "bus": "yes",
          "name": "14th Main Road",
          "name:kn": "\u0ce7\u0cea\u0ca8\u0cc7 \u0cae\u0cc1\u0c96\u0ccd\u0caf \u0cb0\u0cb8\u0ccd\u0ca4\u0cc6",
          "network": "BMTC",
          "operator": "BMTC",
          "public_transport": "stop_position"
        }
      },
      {
        "type": "node",
        "id": 11099858543,
        "lat": 12.911974,
        "lon": 77.6417856,
        "tags": {
          "bus": "yes",
          "network": "BMTC",
          "operator": "BMTC",
          "public_transport": "stop_position"
        }
      },
      {
        "type": "node",
        "id": 11099858547,
        "lat": 12.9162628,
        "lon": 77.6448192,
        "tags": {
          "bus": "yes",
          "network": "BMTC",
          "operator": "BMTC",
          "public_transport": "stop_position"
        }
      },
      {
        "type": "node",
        "id": 11099858549,
        "lat": 12.9217025,
        "lon": 77.6450459,
        "tags": {
          "bus": "yes",
          "name": "Indian Oil",
          "name:en": "Indian Oil",
          "name:kn": "\u0c87\u0c82\u0ca1\u0cbf\u0caf\u0ca8\u0ccd \u0c86\u0caf\u0cbf\u0cb2\u0ccd",
          "network": "BMTC",
          "operator": "BMTC",
          "public_transport": "stop_position"
        }
      },
      {
        "type": "node",
        "id": 11283405698,
        "lat": 12.9322172,
        "lon": 77.6142725,
        "tags": {
          "amenity": "charging_station",
          "capacity": "4",
          "description": "EV charging point for OLA scooters",
          "man_made": "charge_point",
          "manufacturer": "Ola",
          "name": "Ola Hypercharger"
        }
      },
      {
        "type": "node",
        "id": 11286212936,
        "lat": 12.916907,
        "lon": 77.6102709,
        "tags": {
          "access": "yes",
          "amenity": "charging_station",
          "brand": "BESCOM",
          "capacity": "2",
          "operator": "BESCOM"
        }
      },
      {
        "type": "node",
        "id": 11398011951,
        "lat": 12.9384223,
        "lon": 77.6178277,
        "tags": {
          "amenity": "theatre",
          "name": "Medai - Bengaluru"
        }
      },
      {
        "type": "node",
        "id": 11417676425,
        "lat": 12.9240963,
        "lon": 77.6472229,
        "tags": {
          "bus": "yes",
          "name": "Agara",
          "name:en": "Agara",
          "name:kn": "\u0c85\u0c97\u0cb0",
          "network": "BMTC",
          "operator": "BMTC",
          "public_transport": "stop_position"
        }
      },
      {
        "type": "node",
        "id": 11463172582,
        "lat": 12.9301946,
        "lon": 77.6148303,
        "tags": {
          "amenity": "charging_station",
          "battery_swapping": "yes",
          "brand": "Honda e:swap"
        }
      },
      {
        "type": "node",
        "id": 11506367463,
        "lat": 12.9484956,
        "lon": 77.6198538,
        "tags": {
          "alt_name": "National Games Village Gate",
          "bus": "yes",
          "name": "Rajendranagar",
          "name:en": "Rajendranagar",
          "name:kn": "\u0cb0\u0cbe\u0c9c\u0cc7\u0c82\u0ca6\u0ccd\u0cb0\u0ca8\u0c97\u0cb0",
          "network": "BMTC",
          "operator": "BMTC",
          "public_transport": "stop_position",
          "short_name": "NGV Gate"
        }
      },
      {
        "type": "node",
        "id": 11542817224,
        "lat": 12.9365433,
        "lon": 77.6067081,
        "tags": {
          "bus": "yes",
          "name": "Muneshwara Devasthana",
          "name:en": "Muneshwara Devasthana",
          "name:kn": "\u0cae\u0cc1\u0ca8\u0cc7\u0cb6\u0ccd\u0cb5\u0cb0 \u0ca6\u0cc7\u0cb5\u0cb8\u0ccd\u0ca5\u0cbe\u0ca8",
          "network": "BMTC",
          "operator": "BMTC",
          "public_transport": "stop_position"
        }
      },
      {
        "type": "node",
        "id": 11542817290,
        "lat": 12.9362684,
        "lon": 77.6076884,
        "tags": {
          "amenity": "charging_station",
          "fee": "yes",
          "motorcar": "yes",
          "motorcycle": "yes"
        }
      },
      {
        "type": "node",
        "id": 11684016163,
        "lat": 12.9252665,
        "lon": 77.6341144,
        "tags": {
          "amenity": "fuel",
          "check_date": "2024-03-02",
          "name": "Gail Gas"
        }
      },
      {
        "type": "node",
        "id": 11739418609,
        "lat": 12.9349284,
        "lon": 77.6121062,
        "tags": {
          "bus": "yes",
          "name": "Forum Mall Koramangala",
          "name:en": "Forum Mall Koramangala",
          "network": "BMTC",
          "operator": "BMTC",
          "public_transport": "stop_position"
        }
      },
      {
        "type": "node",
        "id": 11810954338,
        "lat": 12.9119718,
        "lon": 77.6260111,
        "tags": {
          "bus": "yes",
          "name": "Roopena Agrahara",
          "name:en": "Roopena Agrahara",
          "name:kn": "\u0cb0\u0cc2\u0caa\u0cc7\u0ca8 \u0c85\u0c97\u0ccd\u0cb0\u0cb9\u0cbe\u0cb0",
          "network": "BMTC",
          "operator": "BMTC",
          "public_transport": "stop_position"
        }
      },
      {
        "type": "node",
        "id": 11927677057,
        "lat": 12.9337755,
        "lon": 77.6236693,
        "tags": {
          "access": "yes",
          "amenity": "charging_station",
          "brand": "ChargePoint",
          "brand:wikidata": "Q5176149",
          "capacity": "2",
          "fee": "no",
          "name": "Ola Hyper Charger",
          "name:en": "Ola charger",
          "operator": "ChargePoint",
          "operator:wikidata": "Q5176149"
        }
      },
      {
        "type": "node",
        "id": 11927677058,
        "lat": 12.9285835,
        "lon": 77.6241904,
        "tags": {
          "access": "yes",
          "amenity": "charging_station",
          "brand": "ChargePoint",
          "brand:wikidata": "Q5176149",
          "name": "Battery Swap",
          "operator": "ChargePoint",
          "operator:wikidata": "Q5176149"
        }
      },
      {
        "type": "node",
        "id": 11936564076,
        "lat": 12.9311453,
        "lon": 77.6238461,
        "tags": {
          "access": "yes",
          "amenity": "charging_station",
          "brand": "ChargePoint",
          "brand:wikidata": "Q5176149",
          "fee": "no",
          "name": "Ather Charging Station",
          "name:en": "EVRE Charging Point",
          "operator": "ChargePoint",
          "operator:wikidata": "Q5176149"
        }
      },
      {
        "type": "node",
        "id": 12032990387,
        "lat": 12.9322145,
        "lon": 77.6130714,
        "tags": {
          "bus": "yes",
          "name": "Hosur Junction",
          "name:en": "Hosur Junction",
          "network": "BMTC",
          "operator": "BMTC",
          "public_transport": "stop_position"
        }
      },
      {
        "type": "node",
        "id": 12040966324,
        "lat": 12.9164026,
        "lon": 77.620117,
        "tags": {
          "code": "SBJT",
          "name": "Central Silk Board",
          "name:en": "Central Silk Board",
          "name:kn": "\u0cb8\u0cc6\u0c82\u0c9f\u0ccd\u0cb0\u0cb2\u0ccd \u0cb8\u0cbf\u0cb2\u0ccd\u0c95 \u0cac\u0ccb\u0cb0\u0ccd\u0ca1\u0ccd",
          "network": "Namma Metro",
          "note": "Contributors are requested to not edit the \"network\" and the \"operator\" tags. (2023/11/08)",
          "operator": "Bangalore Metro Rail Corporation Limited",
          "public_transport": "stop_position",
          "public_transport:version": "2",
          "railway": "stop",
          "source": "http://www.bmrc.co.in/English/Network.htm",
          "subway": "yes",
          "wheelchair": "yes"
        }
      },
      {
        "type": "node",
        "id": 12078449265,
        "lat": 12.9079574,
        "lon": 77.6288166,
        "tags": {
          "amenity": "fuel",
          "check_date": "2024-07-28",
          "self_service": "no",
          "source": "survey"
        }
      },
      {
        "type": "node",
        "id": 12168378212,
        "lat": 12.9320453,
        "lon": 77.6130803,
        "tags": {
          "alt_name": "Forum Mall",
          "bus": "yes",
          "name": "Hosur Junction",
          "name:en": "Hosur Junction",
          "network": "BMTC",
          "old_name": "Hosur Checkpost",
          "operator": "BMTC",
          "public_transport": "stop_position"
        }
      },
      {
        "type": "node",
        "id": 12187048819,
        "lat": 12.9242706,
        "lon": 77.6146931,
        "tags": {
          "amenity": "fuel",
          "check_date": "2024-09-18",
          "self_service": "no"
        }
      },
      {
        "type": "node",
        "id": 12229219527,
        "lat": 12.9179911,
        "lon": 77.6223147,
        "tags": {
          "bus": "yes",
          "network": "BMTC",
          "operator": "BMTC",
          "public_transport": "stop_position"
        }
      },
      {
        "type": "node",
        "id": 12328471497,
        "lat": 12.9214902,
        "lon": 77.6210995,
        "tags": {
          "bus": "yes",
          "name": "Madivala",
          "name:en": "Madivala",
          "network": "BMTC",
          "operator": "BMTC",
          "public_transport": "stop_position"
        }
      },
      {
        "type": "node",
        "id": 12328471500,
        "lat": 12.9369729,
        "lon": 77.6266664,
        "tags": {
          "bus": "yes",
          "name": "Sony World Signal",
          "name:en": "Sony World Signal",
          "network": "BMTC",
          "operator": "BMTC",
          "public_transport": "stop_position"
        }
      },
      {
        "type": "node",
        "id": 12462543988,
        "lat": 12.916679,
        "lon": 77.6095838,
        "tags": {
          "bus": "yes",
          "name": "16th Main BTM Layout",
          "name:en": "16th Main BTM Layout",
          "network": "BMTC",
          "operator": "BMTC",
          "public_transport": "stop_position"
        }
      },
      {
        "type": "node",
        "id": 12511444254,
        "lat": 12.9193784,
        "lon": 77.6168929,
        "tags": {
          "bus": "yes",
          "name": "Jai Bheema Nagara",
          "name:en": "Jai Bheema Nagara",
          "network": "BMTC",
          "operator": "BMTC",
          "public_transport": "stop_position"
        }
      },
      {
        "type": "node",
        "id": 12511444255,
        "lat": 12.9196229,
        "lon": 77.6130998,
        "tags": {
          "bus": "yes",
          "name": "Gangothri Circle",
          "name:en": "Gangothri Circle",
          "network": "BMTC",
          "operator": "BMTC",
          "public_transport": "stop_position"
        }
      },
      {
        "type": "node",
        "id": 12511444256,
        "lat": 12.9221855,
        "lon": 77.610508,
        "tags": {
          "bus": "yes",
          "name": "Tavarekere Aladamara",
          "name:en": "Tavarekere Aladamara",
          "network": "BMTC",
          "operator": "BMTC",
          "public_transport": "stop_position"
        }
      },
      {
        "type": "node",
        "id": 12511444257,
        "lat": 12.9251802,
        "lon": 77.6087855,
        "tags": {
          "bus": "yes",
          "name": "Tavarekere Mori",
          "name:en": "Tavarekere Mori",
          "network": "BMTC",
          "operator": "BMTC",
          "public_transport": "stop_position"
        }
      },
      {
        "type": "node",
        "id": 12511444258,
        "lat": 12.9278312,
        "lon": 77.6091639,
        "tags": {
          "bus": "yes",
          "name": "Chikka Adugodi",
          "name:en": "Chikka Adugodi",
          "network": "BMTC",
          "operator": "BMTC",
          "public_transport": "stop_position"
        }
      },
      {
        "type": "node",
        "id": 12511444260,
        "lat": 12.9310533,
        "lon": 77.6098502,
        "tags": {
          "bus": "yes",
          "name": "Suddaguntepalya",
          "name:en": "Suddaguntepalya",
          "network": "BMTC",
          "operator": "BMTC",
          "public_transport": "stop_position"
        }
      },
      {
        "type": "node",
        "id": 13046007572,
        "lat": 12.9111955,
        "lon": 77.6261256,
        "tags": {
          "alt_name": "Roopena Agrahara",
          "alt_name:kn": "\u0cb0\u0cc2\u0caa\u0cc7\u0ca8 \u0c85\u0c97\u0ccd\u0cb0\u0cb9\u0cbe\u0cb0",
          "code": "HSRL",
          "name": "Bommanahalli",
          "name:en": "Bommanahalli",
          "name:kn": "\u0cac\u0cca\u0cae\u0ccd\u0cae\u0ca8\u0cb9\u0cb3\u0ccd\u0cb3\u0cbf",
          "network": "Namma Metro",
          "note": "Contributors are requested to not edit the \"network\" and the \"operator\" tags. (2023/11/08)",
          "operator": "Bangalore Metro Rail Corporation Limited",
          "public_transport": "stop_position",
          "public_transport:version": "2",
          "railway": "stop",
          "source": "http://www.bmrc.co.in/English/Network.htm",
          "subway": "yes",
          "wheelchair": "yes"
        }
      },
      {
        "type": "node",
        "id": 13046007573,
        "lat": 12.910304,
        "lon": 77.6267043,
        "tags": {
          "alt_name": "Roopena Agrahara",
          "alt_name:kn": "\u0cb0\u0cc2\u0caa\u0cc7\u0ca8 \u0c85\u0c97\u0ccd\u0cb0\u0cb9\u0cbe\u0cb0",
          "code": "HSRL",
          "name": "Bommanahalli",
          "name:en": "Bommanahalli",
          "name:kn": "\u0cac\u0cca\u0cae\u0ccd\u0cae\u0ca8\u0cb9\u0cb3\u0ccd\u0cb3\u0cbf",
          "network": "Namma Metro",
          "note": "Contributors are requested to not edit the \"network\" and the \"operator\" tags. (2023/11/08)",
          "operator": "Bangalore Metro Rail Corporation Limited",
          "public_transport": "stop_position",
          "public_transport:version": "2",
          "railway": "stop",
          "source": "http://www.bmrc.co.in/English/Network.htm",
          "subway": "yes",
          "wheelchair": "yes"
        }
      },
      {
        "type": "node",
        "id": 13046007574,
        "lat": 12.9167339,
        "lon": 77.6210257,
        "tags": {
          "code": "SBJT",
          "name": "Central Silk Board",
          "name:en": "Central Silk Board",
          "name:kn": "\u0cb8\u0cc6\u0c82\u0c9f\u0ccd\u0cb0\u0cb2\u0ccd \u0cb8\u0cbf\u0cb2\u0ccd\u0c95 \u0cac\u0ccb\u0cb0\u0ccd\u0ca1\u0ccd",
          "network": "Namma Metro",
          "note": "Contributors are requested to not edit the \"network\" and the \"operator\" tags. (2023/11/08)",
          "operator": "Bangalore Metro Rail Corporation Limited",
          "public_transport": "stop_position",
          "public_transport:version": "2",
          "railway": "stop",
          "source": "http://www.bmrc.co.in/English/Network.htm",
          "subway": "yes",
          "wheelchair": "yes"
        }
      },
      {
        "type": "node",
        "id": 13046007575,
        "lat": 12.916598,
        "lon": 77.6086222,
        "tags": {
          "code": "BTML",
          "name": "BTM Layout",
          "name:en": "BTM Layout",
          "name:kn": "\u0cac\u0cbf\u0c9f\u0cbf\u0c8e\u0c82 \u0cac\u0ca1\u0cbe\u0cb5\u0ca3\u0cc6",
          "network": "Namma Metro",
          "note": "Contributors are requested to not edit the \"network\" and the \"operator\" tags. (2023/11/08)",
          "operator": "Bangalore Metro Rail Corporation Limited",
          "public_transport": "stop_position",
          "public_transport:version": "2",
          "railway": "stop",
          "source": "http://www.bmrc.co.in/English/Network.htm",
          "subway": "yes",
          "wheelchair": "yes"
        }
      }
    ]
  }
}