{
  "pois_1km": {
    "version": 0.6,
    "generator": "Overpass API 0.7.62.8 e802775f",
    "osm3s": {
      "timestamp_osm_base": "2025-09-06T08:14:30Z",
      "copyright": "The data included in this document is from www.openstreetmap.org. The data is made available under ODbL."
    },
    "elements": [
      {
        "type": "node",
        "id": 1348265190,
        "lat": 12.9827809,
        "lon": 77.5592036,
        "tags": {
          "addr:city": "Bengaluru",
          "addr:postcode": "560010",
          "addr:street": "1st Main Road",
          "name": "Total Superstore",
          "organic": "yes",
          "shop": "supermarket",
          "website": "http://www.totalsuperstore.com/"
        }
      },
      {
        "type": "node",
        "id": 1813501241,
        "lat": 12.9831416,
        "lon": 77.5593081,
        "tags": {
          "amenity": "fast_food",
          "brand": "Domino's",
          "brand:ks": "\u0688\u0648\u0645\u06cc\u0646\u0648\u0632",
          "brand:pa": "\u0a21\u0a4b\u0a2e\u0a40\u0a28\u0a4b\u0a1c\u0a3c",
          "brand:ur": "\u0688\u0648\u0645\u06cc\u0646\u0648\u0632",
          "brand:wikidata": "Q839466",
          "brand:wikipedia": "en:Domino's Pizza",
          "cuisine": "pizza",
          "name": "Domino's",
          "name:kn": "\u0ca1\u0cbe\u0cae\u0cbf\u0ca8\u0ccb\u0cb8\u0ccd",
          "name:ks": "\u0688\u0648\u0645\u06cc\u0646\u0648\u0632",
          "name:pa": "\u0a21\u0a4b\u0a2e\u0a40\u0a28\u0a4b\u0a1c\u0a3c",
          "name:ur": "\u0688\u0648\u0645\u06cc\u0646\u0648\u0632",
          "takeaway": "yes"
        }
      },
      {
        "type": "node",
        "id": 1813501243,
        "lat": 12.9831807,
        "lon": 77.5597454,
        "tags": {
          "amenity": "fast_food",
          "brand": "McDonald's",
          "brand:pa": "\u0a2e\u0a48\u0a15\u0a21\u0a4b\u0a28\u0a32\u0a21\u2019\u0a1c\u0a3c",
          "brand:ur": "\u0645\u06a9\u0688\u0648\u0646\u0644\u0688\u0632",
          "brand:wikidata": "Q38076",
          "brand:wikipedia": "en:McDonald's",
          "brand:wikipedia:pa": "\u0a2e\u0a48\u0a15\u0a21\u0a4b\u0a28\u0a32\u0a21\u2019\u0a1c\u0a3c",
          "brand:wikipedia:ur": "\u0645\u06a9\u0688\u0648\u0646\u0644\u0688\u0632",
          "cuisine": "burger",
          "name": "McDonald's",
          "name:kn": "\u0cae\u0ccd\u0caf\u0cbe\u0c95\u0ccd\u200c\u0ca1\u0cca\u0ca8\u0cbe\u0cb2\u0ccd\u0ca1\u0ccd\u0cb8\u0ccd",
          "name:pa": "\u0a2e\u0a48\u0a15\u0a21\u0a4b\u0a28\u0a32\u0a21\u2019\u0a1c\u0a3c",
          "name:ur": "\u0645\u06a9\u0688\u0648\u0646\u0644\u0688\u0632",
          "takeaway": "yes"
        }
      },
      {
        "type": "node",
        "id": 2016220393,
        "lat": 12.9779674,
        "lon": 77.5530323,
        "tags": {
          "amenity": "fast_food",
          "name": "Al-Bek chiken",
          "wheelchair": "no"
        }
      },
      {
        "type": "node",
        "id": 2016220426,
        "lat": 12.9799118,
        "lon": 77.5541722,
        "tags": {
          "amenity": "atm",
          "brand": "Canara Bank",
          "brand:en": "Canara Bank",
          "brand:hi": "\u0915\u0947\u0928\u0930\u093e \u092c\u0948\u0902\u0915",
          "brand:kn": "\u0c95\u0cc6\u0ca8\u0cb0\u0cbe \u0cac\u0ccd\u0caf\u0cbe\u0c82\u0c95\u0ccd",
          "brand:pa": "\u0a15\u0a47\u0a28\u0a30\u0a3e \u0a2c\u0a48\u0a02\u0a15",
          "brand:pnb": "\u06a9\u06cc\u0646\u0631\u0627 \u0628\u06cc\u0646\u06a9",
          "brand:ur": "\u06a9\u06cc\u0646\u0631\u0627 \u0628\u06cc\u0646\u06a9",
          "brand:wikidata": "Q2003777",
          "name": "Canara Bank",
          "name:en": "Canara Bank",
          "name:hi": "\u0915\u0947\u0928\u0930\u093e \u092c\u0948\u0902\u0915",
          "name:kn": "\u0c95\u0cc6\u0ca8\u0cb0\u0cbe \u0cac\u0ccd\u0caf\u0cbe\u0c82\u0c95\u0ccd",
          "name:pa": "\u0a15\u0a47\u0a28\u0a30\u0a3e \u0a2c\u0a48\u0a02\u0a15",
          "name:pnb": "\u06a9\u06cc\u0646\u0631\u0627 \u0628\u06cc\u0646\u06a9",
          "name:ur": "\u06a9\u06cc\u0646\u0631\u0627 \u0628\u06cc\u0646\u06a9",
          "operator": "Canara Bank",
          "operator:wikidata": "Q2003777",
          "wheelchair": "no"
        }
      },
      {
        "type": "node",
        "id": 2249048755,
        "lat": 12.9877059,
        "lon": 77.5596356,
        "tags": {
          "amenity": "atm",
          "brand": "Citibank",
          "brand:wikidata": "Q857063",
          "name": "Citibank",
          "name:kn": "\u0cb8\u0cbf\u0c9f\u0cbf\u0cac\u0ccd\u0caf\u0cbe\u0c82\u0c95\u0ccd",
          "operator": "Citibank",
          "operator:wikidata": "Q857063",
          "short_name": "Citi"
        }
      },
      {
        "type": "node",
        "id": 2293249618,
        "lat": 12.9843055,
        "lon": 77.5537764,
        "tags": {
          "addr:city": "Bangalore",
          "addr:postcode": "560079",
          "addr:street": "60th Cross Road",
          "alt_name": "A2B",
          "amenity": "restaurant",
          "brand": "Adyar Ananda Bhavan",
          "brand:wikidata": "Q15178238",
          "cuisine": "regional",
          "diet:vegetarian": "only",
          "name": "Adyar Ananda Bhavan",
          "name:kn": "\u0c86\u0ca6\u0ccd\u0caf\u0cbe\u0cb0\u0ccd \u0c86\u0ca8\u0c82\u0ca6 \u0cad\u0cb5\u0ca8",
          "operator": "Adyar Ananda Bhavan",
          "phone": "+91 80 4212 3599",
          "smoking": "no",
          "website": "https://aabsweets.com",
          "wheelchair": "no"
        }
      },
      {
        "type": "node",
        "id": 2554302439,
        "lat": 12.9855811,
        "lon": 77.5556847,
        "tags": {
          "amenity": "cafe",
          "cuisine": "regional",
          "name": "Crane Crush"
        }
      },
      {
        "type": "node",
        "id": 2554302473,
        "lat": 12.9846268,
        "lon": 77.5558117,
        "tags": {
          "amenity": "bank",
          "atm": "yes",
          "brand": "State Bank of India",
          "brand:wikidata": "Q1340361",
          "brand:wikipedia": "en:State Bank of India",
          "name": "State Bank of India",
          "name:kn": "\u0cad\u0cbe\u0cb0\u0ca4\u0cc0\u0caf \u0cb8\u0ccd\u0c9f\u0cc7\u0c9f\u0ccd \u0cac\u0ccd\u0caf\u0cbe\u0c82\u0c95\u0ccd",
          "short_name": "SBI"
        }
      },
      {
        "type": "node",
        "id": 2554302512,
        "lat": 12.9843701,
        "lon": 77.555666,
        "tags": {
          "amenity": "hospital",
          "name": "Pragathi Ayurvedic Center",
          "wheelchair": "no"
        }
      },
      {
        "type": "node",
        "id": 3391135055,
        "lat": 12.9852058,
        "lon": 77.5564437,
        "tags": {
          "amenity": "bank",
          "brand": "Axis Bank",
          "brand:wikidata": "Q2003549",
          "brand:wikipedia": "en:Axis Bank",
          "name": "Axis Bank",
          "name:en": "Axis Bank",
          "name:kn": "\u0c86\u0c95\u0ccd\u0cb8\u0cbf\u0cb8\u0ccd \u0cac\u0ccd\u0caf\u0cbe\u0c82\u0c95\u0ccd",
          "website": "https://www.axisbank.com"
        }
      },
      {
        "type": "node",
        "id": 3392655602,
        "lat": 12.9874289,
        "lon": 77.5541838,
        "tags": {
          "amenity": "bank",
          "brand": "State Bank of India",
          "brand:wikidata": "Q1340361",
          "name": "State Bank of India",
          "operator": "State Bank Of India",
          "short_name": "SBI"
        }
      },
      {
        "type": "node",
        "id": 3412397362,
        "lat": 12.9898332,
        "lon": 77.5561709,
        "tags": {
          "amenity": "cafe",
          "brand": "Cafe Coffee Day",
          "brand:wikidata": "Q5017235",
          "brand:wikipedia": "en:Caf\u00e9 Coffee Day",
          "cuisine": "coffee_shop",
          "name": "Cafe Coffee Day",
          "name:kn": "\u0c95\u0cab\u0cc6 \u0c95\u0cbe\u0cab\u0cbf \u0ca1\u0cc7",
          "takeaway": "yes",
          "wheelchair": "no"
        }
      },
      {
        "type": "node",
        "id": 3412399842,
        "lat": 12.9895832,
        "lon": 77.5560181,
        "tags": {
          "amenity": "clinic",
          "healthcare": "clinic",
          "name": "CKV Clinic"
        }
      },
      {
        "type": "node",
        "id": 3412401298,
        "lat": 12.9896302,
        "lon": 77.5560208,
        "tags": {
          "amenity": "pharmacy",
          "name": "Standard Medicals",
          "wheelchair": "no"
        }
      },
      {
        "type": "node",
        "id": 3412649472,
        "lat": 12.9891936,
        "lon": 77.5559165,
        "tags": {
          "amenity": "clinic",
          "name": "Santosh Clinic - Family Physician"
        }
      },
      {
        "type": "node",
        "id": 3412651166,
        "lat": 12.9891599,
        "lon": 77.5559116,
        "tags": {
          "amenity": "pharmacy",
          "name": "Sairam Medicals and General Stores"
        }
      },
      {
        "type": "node",
        "id": 3412653430,
        "lat": 12.9890694,
        "lon": 77.5558999,
        "tags": {
          "amenity": "bank",
          "atm": "yes",
          "brand": "Syndicate Bank",
          "brand:wikidata": "Q2004088",
          "building": "bank",
          "name": "Syndicate Bank",
          "name:en": "Syndicate Bank",
          "name:kn": "\u0cb8\u0cbf\u0c82\u0ca1\u0cbf\u0c95\u0cc7\u0c9f\u0ccd \u0cac\u0ccd\u0caf\u0cbe\u0c82\u0c95\u0ccd",
          "website": "https://www.syndicatebank.in"
        }
      },
      {
        "type": "node",
        "id": 3412690280,
        "lat": 12.9904639,
        "lon": 77.5569256,
        "tags": {
          "amenity": "pharmacy",
          "healthcare": "pharmacy",
          "name": "Sri Prasamshi Medical Stores"
        }
      },
      {
        "type": "node",
        "id": 4443484964,
        "lat": 12.9898377,
        "lon": 77.5550568,
        "tags": {
          "addr:city": "bangalore",
          "addr:housenumber": "723/B",
          "addr:postcode": "560010",
          "addr:street": "11th Main Rd, 3rd Block, Rajaji Nagar",
          "amenity": "pharmacy",
          "healthcare": "pharmacy",
          "name": "Dr. Suresh's Dia Care",
          "phone": "080 2338 2867",
          "website": "drsureshdiacare.com"
        }
      },
      {
        "type": "node",
        "id": 4443494165,
        "lat": 12.9861471,
        "lon": 77.5598537,
        "tags": {
          "addr:city": "bangalore",
          "addr:housenumber": "403",
          "addr:postcode": "560010",
          "addr:street": "Dr. Rajkumar Road, 6th Block, 80 Feet Rd, 4th Block, Ramchandrapuram, Rajaji Nagar",
          "amenity": "pharmacy",
          "name": "Amrutha Medicals",
          "name:kn": "\u0c85\u0cae\u0cc3\u0ca4 \u0cae\u0cc6\u0ca1\u0cbf\u0c95\u0cb2\u0ccd\u0cb8\u0ccd",
          "phone": "080 2311 7929"
        }
      },
      {
        "type": "node",
        "id": 4443592306,
        "lat": 12.9882463,
        "lon": 77.5584271,
        "tags": {
          "addr:city": "bangalore",
          "addr:housenumber": "2/835/64/1",
          "addr:postcode": "560010",
          "addr:street": "4th Block, Amulya Corner, 3rd Main, 3rd Main Road, 4th Block, Rajaji Nagar",
          "amenity": "pharmacy",
          "name": "Nandhi Medical And General Stores",
          "phone": "080 2314 5334"
        }
      },
      {
        "type": "node",
        "id": 4446271460,
        "lat": 12.9908258,
        "lon": 77.5578843,
        "tags": {
          "addr:city": "bangalore",
          "addr:housenumber": "1000",
          "addr:postcode": "560010",
          "addr:street": "4th Block, Dr Rajkumar Road,Rajajinagar",
          "amenity": "restaurant",
          "cuisine": "regional",
          "name": "Navarang Kabab Corner",
          "opening_hours": "12:00-15:00,18:30-22:00",
          "phone": "080 41487575",
          "website": "navrangkababkorner.in"
        }
      },
      {
        "type": "node",
        "id": 4446322676,
        "lat": 12.9903931,
        "lon": 77.5584441,
        "tags": {
          "addr:city": "bangalore",
          "addr:housenumber": "73",
          "addr:postcode": "560010",
          "addr:street": "Kantha Complex, Dr. Rajkumar Road, 3rd Stage,\u00a0Rajajinaga",
          "amenity": "restaurant",
          "cuisine": "regional",
          "name": "Kudla beach",
          "opening_hours": "11:30-16:30,18:30-23:00",
          "phone": "080 32409844"
        }
      },
      {
        "type": "node",
        "id": 4446664412,
        "lat": 12.9881648,
        "lon": 77.5548179,
        "tags": {
          "addr:city": "bangalore",
          "addr:housenumber": "111",
          "addr:postcode": "560010",
          "addr:street": "West of Chord Road,, Opp Rajajinagar 1st Block Junction",
          "amenity": "hospital",
          "name": "Fortis Hospital",
          "name:kn": "\u0cab\u0ccb\u0cb0\u0ccd\u0c9f\u0cbf\u0cb8\u0ccd \u0c86\u0cb8\u0ccd\u0caa\u0ca4\u0ccd\u0cb0\u0cc6",
          "phone": "080-2300-4444",
          "website": "fortisbangalore.com"
        }
      },
      {
        "type": "node",
        "id": 4446670981,
        "lat": 12.9883267,
        "lon": 77.5549712,
        "tags": {
          "addr:city": "bangalore",
          "addr:housenumber": "2",
          "addr:postcode": "560010",
          "addr:street": "46th cross, Rajajinagar 4th Block",
          "amenity": "pharmacy",
          "name": "Nandhi Medicals",
          "phone": "+91 80 2314 5334"
        }
      },
      {
        "type": "node",
        "id": 4446692224,
        "lat": 12.9898567,
        "lon": 77.5542305,
        "tags": {
          "addr:city": "Bangalore",
          "addr:housenumber": "955",
          "addr:postcode": "560010,",
          "addr:street": "3rd Block, Rajajinagar",
          "amenity": "pharmacy",
          "healthcare": "pharmacy",
          "name": "Sri Venkateshwara Medical & General Store",
          "phone": "+91 94491 68854"
        }
      },
      {
        "type": "node",
        "id": 4446701038,
        "lat": 12.9862636,
        "lon": 77.5575477,
        "tags": {
          "addr:city": "Bangalore",
          "addr:housenumber": "403",
          "addr:postcode": "560010",
          "addr:street": "Dr Rajkumar Road, Rajajinagar",
          "amenity": "pharmacy",
          "name": "Amrutha Medicals",
          "name:kn": "\u0c85\u0cae\u0cc3\u0ca4 \u0cae\u0cc6\u0ca1\u0cbf\u0c95\u0cb2\u0ccd\u0cb8\u0ccd",
          "phone": "+91 80 2311 7929"
        }
      },
      {
        "type": "node",
        "id": 4446742748,
        "lat": 12.9906244,
        "lon": 77.5633161,
        "tags": {
          "addr:city": "bangalore",
          "addr:housenumber": "529",
          "addr:postcode": "560010",
          "addr:street": "10th Main, 2nd Block, Rajajinagar",
          "amenity": "pharmacy",
          "name": "Prasad Medicals",
          "phone": "+91 80507 82573"
        }
      },
      {
        "type": "node",
        "id": 4446968478,
        "lat": 12.9869612,
        "lon": 77.5602264,
        "tags": {
          "addr:city": "bangalore",
          "addr:housenumber": "2/10",
          "addr:postcode": "560010",
          "addr:street": "Dr Rajkumar Rd, 4N Block",
          "amenity": "pharmacy",
          "name": "Kanva Diagnostics",
          "phone": "+9180 2313 3840",
          "source": "www.yellowpages.co.in",
          "website": "https://kanvadiagnostic.com/"
        }
      },
      {
        "type": "node",
        "id": 4446986158,
        "lat": 12.9877039,
        "lon": 77.5530939,
        "tags": {
          "addr:city": "bangalore",
          "addr:housenumber": "13",
          "addr:postcode": "560003",
          "addr:street": ",2nd Main Rd, Malleshwaram",
          "amenity": "pharmacy",
          "name": "Sridhar Medicals",
          "phone": "080 2336 3765"
        }
      },
      {
        "type": "node",
        "id": 4446999695,
        "lat": 12.9887964,
        "lon": 77.5555474,
        "tags": {
          "addr:city": "Bangalore",
          "addr:housenumber": "2/835/64/1,",
          "addr:postcode": "560010",
          "addr:street": "4th Block, Rajaji Nagar",
          "amenity": "pharmacy",
          "name": "Nandhi Medicals",
          "phone": "+9180 2314 5334",
          "source": "www.justdial.com"
        }
      },
      {
        "type": "node",
        "id": 4447163944,
        "lat": 12.9878305,
        "lon": 77.5558493,
        "tags": {
          "addr:city": "Bangalore",
          "addr:housenumber": "638",
          "addr:postcode": "560010",
          "addr:street": "2nd Main, Near-Navarang Theater, Dr Rajkumar Rd, D-Block, 2nd Stage, Rajaji Nagar,",
          "amenity": "restaurant",
          "cuisine": "regional",
          "name": "Ambika Veg Restaurant",
          "opening_hours": "10:00 - 01:00",
          "phone": "080 4121 4708"
        }
      },
      {
        "type": "node",
        "id": 4488021019,
        "lat": 12.984947,
        "lon": 77.5540532,
        "tags": {
          "addr:city": "Bangalore",
          "addr:housenumber": "179/Y",
          "addr:postcode": "560010",
          "addr:street": "Rajajinagar",
          "name": "Sweet Chariot",
          "phone": "(91)-80-23151481",
          "shop": "supermarket"
        }
      },
      {
        "type": "node",
        "id": 4530356087,
        "lat": 12.9889585,
        "lon": 77.555959,
        "tags": {
          "amenity": "cafe",
          "name": "Priya Tiffin Room"
        }
      },
      {
        "type": "node",
        "id": 4697889490,
        "lat": 12.9835135,
        "lon": 77.554155,
        "tags": {
          "addr:housenumber": "63",
          "addr:postcode": "560010",
          "addr:street": "63rd Cross Road",
          "amenity": "clinic",
          "internet_access": "wlan",
          "name": "Sevabhaya hospital",
          "name:en": "Sevabhaya hospital",
          "opening_hours": "Mo-Su 09:00-22:00"
        }
      },
      {
        "type": "node",
        "id": 5157373807,
        "lat": 12.9849537,
        "lon": 77.5569222,
        "tags": {
          "addr:district": "Bengaluru Urban",
          "addr:full": "6/63, 59Th Cross, 4Th Block, Rajajinagar Entrance, Mei Polytechnic, Rajajinagar",
          "addr:postcode": "560010",
          "addr:state": "Karnataka",
          "alt_name": "Altius Cancer Center",
          "amenity": "hospital",
          "healthcare": "hospital",
          "name": "Altius Hospital",
          "source": "OpenGovernmentData"
        }
      },
      {
        "type": "node",
        "id": 5168560646,
        "lat": 12.9821863,
        "lon": 77.5660957,
        "tags": {
          "amenity": "atm",
          "brand": "Axis Bank",
          "brand:wikidata": "Q2003549",
          "name": "Axis Bank",
          "operator": "Axis Bank",
          "operator:wikidata": "Q2003549"
        }
      },
      {
        "type": "node",
        "id": 5623433261,
        "lat": 12.9864932,
        "lon": 77.5558162,
        "tags": {
          "amenity": "pharmacy",
          "brand": "Apollo Pharmacy",
          "brand:wikidata": "Q62562612",
          "healthcare": "pharmacy",
          "name": "Apollo Pharmacy",
          "name:kn": "\u0c85\u0caa\u0cca\u0cb2\u0ccb \u0cab\u0cbe\u0cb0\u0ccd\u0cae\u0cb8\u0cbf"
        }
      },
      {
        "type": "node",
        "id": 5623433264,
        "lat": 12.986288,
        "lon": 77.5558088,
        "tags": {
          "amenity": "atm",
          "brand": "State Bank of India",
          "brand:wikidata": "Q1340361",
          "name": "State Bank of India",
          "operator": "State Bank of India",
          "operator:wikidata": "Q1340361",
          "short_name": "SBI"
        }
      },
      {
        "type": "node",
        "id": 5623433265,
        "lat": 12.9861567,
        "lon": 77.5557927,
        "tags": {
          "amenity": "fast_food",
          "cuisine": "regional",
          "name": "Sri Venkateshwara Utsav"
        }
      },
      {
        "type": "node",
        "id": 5623433275,
        "lat": 12.985206,
        "lon": 77.5557887,
        "tags": {
          "amenity": "clinic",
          "name": "Shri Kaushika Dental Clinic"
        }
      },
      {
        "type": "node",
        "id": 5623550268,
        "lat": 12.9877078,
        "lon": 77.5558591,
        "tags": {
          "amenity": "bank",
          "atm": "yes",
          "brand": "Canara Bank",
          "brand:en": "Canara Bank",
          "brand:hi": "\u0915\u0947\u0928\u0930\u093e \u092c\u0948\u0902\u0915",
          "brand:kn": "\u0c95\u0cc6\u0ca8\u0cb0\u0cbe \u0cac\u0ccd\u0caf\u0cbe\u0c82\u0c95\u0ccd",
          "brand:pa": "\u0a15\u0a47\u0a28\u0a30\u0a3e \u0a2c\u0a48\u0a02\u0a15",
          "brand:pnb": "\u06a9\u06cc\u0646\u0631\u0627 \u0628\u06cc\u0646\u06a9",
          "brand:ur": "\u06a9\u06cc\u0646\u0631\u0627 \u0628\u06cc\u0646\u06a9",
          "brand:wikidata": "Q2003777",
          "brand:wikipedia": "en:Canara Bank",
          "brand:wikipedia:pa": "\u0a15\u0a47\u0a28\u0a30\u0a3e \u0a2c\u0a48\u0a02\u0a15",
          "name": "Canara Bank",
          "name:en": "Canara Bank",
          "name:hi": "\u0915\u0947\u0928\u0930\u093e \u092c\u0948\u0902\u0915",
          "name:kn": "\u0c95\u0cc6\u0ca8\u0cb0\u0cbe \u0cac\u0ccd\u0caf\u0cbe\u0c82\u0c95\u0ccd",
          "name:pa": "\u0a15\u0a47\u0a28\u0a30\u0a3e \u0a2c\u0a48\u0a02\u0a15",
          "name:pnb": "\u06a9\u06cc\u0646\u0631\u0627 \u0628\u06cc\u0646\u06a9",
          "name:ur": "\u06a9\u06cc\u0646\u0631\u0627 \u0628\u06cc\u0646\u06a9"
        }
      },
      {
        "type": "node",
        "id": 5623550269,
        "lat": 12.9876052,
        "lon": 77.5558577,
        "tags": {
          "amenity": "atm",
          "brand": "Canara Bank",
          "brand:en": "Canara Bank",
          "brand:hi": "\u0915\u0947\u0928\u0930\u093e \u092c\u0948\u0902\u0915",
          "brand:kn": "\u0c95\u0cc6\u0ca8\u0cb0\u0cbe \u0cac\u0ccd\u0caf\u0cbe\u0c82\u0c95\u0ccd",
          "brand:pa": "\u0a15\u0a47\u0a28\u0a30\u0a3e \u0a2c\u0a48\u0a02\u0a15",
          "brand:pnb": "\u06a9\u06cc\u0646\u0631\u0627 \u0628\u06cc\u0646\u06a9",
          "brand:ur": "\u06a9\u06cc\u0646\u0631\u0627 \u0628\u06cc\u0646\u06a9",
          "brand:wikidata": "Q2003777",
          "name": "Canara Bank",
          "name:en": "Canara Bank",
          "name:hi": "\u0915\u0947\u0928\u0930\u093e \u092c\u0948\u0902\u0915",
          "name:kn": "\u0c95\u0cc6\u0ca8\u0cb0\u0cbe \u0cac\u0ccd\u0caf\u0cbe\u0c82\u0c95\u0ccd",
          "name:pa": "\u0a15\u0a47\u0a28\u0a30\u0a3e \u0a2c\u0a48\u0a02\u0a15",
          "name:pnb": "\u06a9\u06cc\u0646\u0631\u0627 \u0628\u06cc\u0646\u06a9",
          "name:ur": "\u06a9\u06cc\u0646\u0631\u0627 \u0628\u06cc\u0646\u06a9",
          "operator": "Canara Bank",
          "operator:wikidata": "Q2003777"
        }
      },
      {
        "type": "node",
        "id": 5624262706,
        "lat": 12.9898621,
        "lon": 77.5546219,
        "tags": {
          "amenity": "atm",
          "brand": "indicash"
        }
      },
      {
        "type": "node",
        "id": 5624262708,
        "lat": 12.9898516,
        "lon": 77.5551738,
        "tags": {
          "amenity": "atm",
          "brand": "HDFC Bank",
          "brand:wikidata": "Q631047",
          "name": "HDFC Bank",
          "operator": "HDFC Bank",
          "operator:wikidata": "Q631047",
          "short_name": "HDFC"
        }
      },
      {
        "type": "node",
        "id": 5624262710,
        "lat": 12.9898418,
        "lon": 77.5553763,
        "tags": {
          "amenity": "atm",
          "brand": "Union Bank"
        }
      },
      {
        "type": "node",
        "id": 5624262715,
        "lat": 12.9898418,
        "lon": 77.555723,
        "tags": {
          "amenity": "clinic",
          "healthcare": "clinic",
          "name": "Deepashri Clinical Laboratory"
        }
      },
      {
        "type": "node",
        "id": 5624262720,
        "lat": 12.9885991,
        "lon": 77.555898,
        "tags": {
          "amenity": "atm",
          "name": "NKGSB Bank"
        }
      },
      {
        "type": "node",
        "id": 5624263021,
        "lat": 12.9887846,
        "lon": 77.555898,
        "tags": {
          "note": "name unknown",
          "shop": "supermarket"
        }
      },
      {
        "type": "node",
        "id": 5624263022,
        "lat": 12.9886337,
        "lon": 77.5558993,
        "tags": {
          "amenity": "bank",
          "atm": "yes",
          "name": "NKGSB Bank"
        }
      },
      {
        "type": "node",
        "id": 5624263031,
        "lat": 12.9880221,
        "lon": 77.5558457,
        "tags": {
          "amenity": "pharmacy",
          "name": "Sree Prabhu Medical Centre"
        }
      },
      {
        "type": "node",
        "id": 6487165550,
        "lat": 12.9826939,
        "lon": 77.5607271,
        "tags": {
          "amenity": "bank",
          "atm": "yes",
          "brand": "Syndicate Bank",
          "brand:wikidata": "Q2004088",
          "name": "Syndicate Bank",
          "name:kn": "\u0cb8\u0cbf\u0c82\u0ca1\u0cbf\u0c95\u0cc7\u0c9f\u0ccd \u0cac\u0ccd\u0caf\u0cbe\u0c82\u0c95\u0ccd"
        }
      },
      {
        "type": "node",
        "id": 6646295302,
        "lat": 12.9860978,
        "lon": 77.5543504,
        "tags": {
          "addr:city": "Bangalore",
          "addr:postcode": "560010",
          "addr:street": "12th Main Road",
          "air_conditioning": "no",
          "amenity": "restaurant",
          "bar": "no",
          "cuisine": "indian;juice;ice_cream",
          "name": "New Shanthi Sagar",
          "opening_hours": "Mo-Su 06:00-22:00"
        }
      },
      {
        "type": "node",
        "id": 6681254112,
        "lat": 12.9869192,
        "lon": 77.5562131,
        "tags": {
          "amenity": "cafe",
          "name": "by 2 coffy"
        }
      },
      {
        "type": "node",
        "id": 6938690600,
        "lat": 12.9822186,
        "lon": 77.5599374,
        "tags": {
          "addr:district": "Bengaluru Urban",
          "addr:full": "1033,4 Th Block Dr Rajdumar Road",
          "addr:postcode": "560010",
          "addr:state": "Karnataka",
          "amenity": "hospital",
          "name": "Sri Dhavantari Ayurveda Hoapital",
          "source": "OpenGovernmentData"
        }
      },
      {
        "type": "node",
        "id": 6938690601,
        "lat": 12.9848505,
        "lon": 77.5581537,
        "tags": {
          "addr:district": "Bengaluru Urban",
          "addr:full": "No. 546/46, 6Th Main, 4Th Block, Rajajinagar",
          "addr:postcode": "560010",
          "addr:state": "Karnataka",
          "amenity": "clinic",
          "name": "Spandana Nursing Home, Bengaluru Urban",
          "source": "OpenGovernmentData"
        }
      },
      {
        "type": "node",
        "id": 6938690602,
        "lat": 12.9845343,
        "lon": 77.5532775,
        "tags": {
          "addr:district": "Bengaluru Urban",
          "addr:full": "25 27 60Th Cross 5Th Block Near Bashyam Circle Rajajinagar",
          "addr:postcode": "560010",
          "addr:state": "Karnataka",
          "amenity": "clinic",
          "name": "Jinka Nursing Home",
          "source": "OpenGovernmentData"
        }
      },
      {
        "type": "node",
        "id": 6938690603,
        "lat": 12.9845512,
        "lon": 77.5528322,
        "tags": {
          "addr:district": "Bengaluru Urban",
          "addr:full": "No. 851/D , 5Th Block , Rajajinagar , 60Th Cross",
          "addr:postcode": "560040",
          "addr:state": "Karnataka",
          "amenity": "hospital",
          "name": "Vaidyam Hospital",
          "source": "OpenGovernmentData"
        }
      },
      {
        "type": "node",
        "id": 6938690604,
        "lat": 12.9897745,
        "lon": 77.5551014,
        "tags": {
          "addr:district": "Bengaluru Urban",
          "addr:full": "723 / B Main E S I Hospital Raod, 3Road Block, Rajajinagar",
          "addr:postcode": "560010",
          "addr:state": "Karnataka",
          "amenity": "hospital",
          "name": "Suresh Hospital - Bangalore",
          "source": "OpenGovernmentData"
        }
      },
      {
        "type": "node",
        "id": 6939061708,
        "lat": 12.9856882,
        "lon": 77.5565229,
        "tags": {
          "addr:district": "Bengaluru Urban",
          "addr:full": "Rajaji Nager",
          "addr:postcode": "560010",
          "addr:state": "Karnataka",
          "amenity": "clinic",
          "name": "Ramamni Nursing And Maternity",
          "source": "OpenGovernmentData"
        }
      },
      {
        "type": "node",
        "id": 6945606655,
        "lat": 12.9907644,
        "lon": 77.5568951,
        "tags": {
          "addr:district": "Bengaluru Urban",
          "addr:full": "No 562, 3Road Main Second Block, Rajajinagar",
          "addr:postcode": "560010",
          "addr:state": "Karnataka",
          "amenity": "clinic",
          "healthcare": "clinic",
          "name": "Kumar Nethralaya",
          "source": "OpenGovernmentData"
        }
      },
      {
        "type": "node",
        "id": 6948438892,
        "lat": 12.9817233,
        "lon": 77.5549364,
        "tags": {
          "addr:district": "Bengaluru Urban",
          "addr:full": "10Th, A Main, 68Th Cross, 5Th Block, Rajajinagar Near Bhasyam Circle",
          "addr:postcode": "560010",
          "addr:state": "Karnataka",
          "amenity": "hospital",
          "name": "Rotary Eye Hospital (A Unit Of Bangalore North Rotary Trust)",
          "source": "OpenGovernmentData"
        }
      },
      {
        "type": "node",
        "id": 6948540414,
        "lat": 12.9880313,
        "lon": 77.5557142,
        "tags": {
          "addr:district": "Bengaluru Urban",
          "addr:full": "No. 652 , 46Th Cross , 'A' , 3Road Block Rajajinagar Near Cananra Bank",
          "addr:postcode": "560010",
          "addr:state": "Karnataka",
          "amenity": "clinic",
          "name": "Sri Sai Clinic and Maternity Home",
          "source": "OpenGovernmentData"
        }
      },
      {
        "type": "node",
        "id": 7043906886,
        "lat": 12.9882933,
        "lon": 77.5561065,
        "tags": {
          "amenity": "pharmacy",
          "brand": "Wellness Forever",
          "healthcare": "pharmacy",
          "name": "Wellness Forever"
        }
      },
      {
        "type": "node",
        "id": 7146770603,
        "lat": 12.988307,
        "lon": 77.5558618,
        "tags": {
          "amenity": "fast_food",
          "cuisine": "regional",
          "name": "Spicy Secret"
        }
      },
      {
        "type": "node",
        "id": 7236205644,
        "lat": 12.9853419,
        "lon": 77.5564646,
        "tags": {
          "amenity": "atm",
          "brand": "ICICI Bank",
          "brand:wikidata": "Q1653258",
          "name": "ICICI Bank",
          "operator": "ICICI Bank",
          "operator:wikidata": "Q1653258",
          "short_name": "ICICI"
        }
      },
      {
        "type": "node",
        "id": 7236205645,
        "lat": 12.9872008,
        "lon": 77.556077,
        "tags": {
          "amenity": "fast_food",
          "name": "Malnad Aroma"
        }
      },
      {
        "type": "node",
        "id": 7236205647,
        "lat": 12.9893831,
        "lon": 77.5561236,
        "tags": {
          "amenity": "fast_food",
          "cuisine": "juice",
          "name": "Lassi Corner"
        }
      },
      {
        "type": "node",
        "id": 7236205648,
        "lat": 12.9900398,
        "lon": 77.5557384,
        "tags": {
          "amenity": "pharmacy",
          "name": "Stay Happi Pharmacy"
        }
      },
      {
        "type": "node",
        "id": 7236205657,
        "lat": 12.9850504,
        "lon": 77.5532533,
        "tags": {
          "amenity": "pharmacy",
          "brand": "Apollo Pharmacy",
          "brand:wikidata": "Q62562612",
          "healthcare": "pharmacy",
          "name": "Apollo Pharmacy",
          "name:kn": "\u0c85\u0caa\u0cca\u0cb2\u0ccb \u0cab\u0cbe\u0cb0\u0ccd\u0cae\u0cb8\u0cbf"
        }
      },
      {
        "type": "node",
        "id": 7236205658,
        "lat": 12.9857287,
        "lon": 77.5524808,
        "tags": {
          "amenity": "bank",
          "atm": "yes",
          "brand": "HDFC Bank",
          "brand:wikidata": "Q631047",
          "name": "HDFC Bank",
          "operator": "HDFC Bank",
          "short_name": "HDFC"
        }
      },
      {
        "type": "node",
        "id": 7236205659,
        "lat": 12.9858058,
        "lon": 77.5513798,
        "tags": {
          "amenity": "bank",
          "atm": "yes",
          "brand": "Karur Vysya Bank",
          "brand:wikidata": "Q6373724",
          "name": "Karur Vysya Bank",
          "name:kn": "\u0c95\u0cb0\u0cc2\u0cb0\u0cc1 \u0cb5\u0cc8\u0cb6\u0ccd\u0caf \u0cac\u0ccd\u0caf\u0cbe\u0c82\u0c95\u0ccd",
          "operator": "Karur Vysya Bank"
        }
      },
      {
        "type": "node",
        "id": 7236205660,
        "lat": 12.9862606,
        "lon": 77.5508527,
        "tags": {
          "name": "Ashirwad Market",
          "shop": "supermarket"
        }
      },
      {
        "type": "node",
        "id": 7236205661,
        "lat": 12.9863873,
        "lon": 77.5508474,
        "tags": {
          "amenity": "bank",
          "atm": "yes",
          "brand": "Bank of Maharashtra",
          "brand:wikidata": "Q2004304",
          "name": "Bank of Maharashtra",
          "operator": "Bank of Maharashtra"
        }
      },
      {
        "type": "node",
        "id": 7292235595,
        "lat": 12.9840076,
        "lon": 77.5581591,
        "tags": {
          "amenity": "fast_food",
          "name": "Gobi Corner"
        }
      },
      {
        "type": "node",
        "id": 7572526752,
        "lat": 12.9802303,
        "lon": 77.5548818,
        "tags": {
          "addr:district": "Bengaluru Urban",
          "addr:full": "Rajajinagar, Bengaluru",
          "addr:postcode": "560010",
          "addr:state": "Karnataka",
          "amenity": "hospital",
          "name": "G.R. Hospital",
          "source": "Local Knowledge"
        }
      },
      {
        "type": "node",
        "id": 7572526755,
        "lat": 12.9801974,
        "lon": 77.5546401,
        "tags": {
          "addr:district": "Bengaluru Urban",
          "addr:full": "Rajaji Nagar, Bengaluru",
          "addr:postcode": "560010",
          "addr:state": "Karnataka",
          "amenity": "clinic",
          "name": "Sri Krishna Clinic",
          "source": "Local Knowledge"
        }
      },
      {
        "type": "node",
        "id": 8187929955,
        "lat": 12.990191,
        "lon": 77.560667,
        "tags": {
          "addr:full": "2, Prakash Nagar, Rajajinagar, Bengaluru, Karnataka",
          "addr:state": "Karnataka",
          "amenity": "atm",
          "brand": "Axis Bank",
          "brand:wikidata": "Q2003549",
          "name": "Axis Bank",
          "name:kn": "\u0c86\u0c95\u0ccd\u0cb8\u0cbf\u0cb8\u0ccd \u0cac\u0ccd\u0caf\u0cbe\u0c82\u0c95\u0ccd \u0c8e\u0c9f\u0cbf\u0c8e\u0c82",
          "operator": "Axis Bank",
          "operator:wikidata": "Q2003549"
        }
      },
      {
        "type": "node",
        "id": 8187930005,
        "lat": 12.975994,
        "lon": 77.558578,
        "tags": {
          "addr:full": "Near, 4, Magadi Main Rd, Bhuvaneshwari Nagar, Lakshminarayanapuram, Binnipete, Bengaluru, Karnataka",
          "addr:state": "Karnataka",
          "amenity": "atm",
          "brand": "Axis Bank",
          "brand:wikidata": "Q2003549",
          "name": "Axis Bank",
          "name:kn": "\u0c86\u0c95\u0ccd\u0cb8\u0cbf\u0cb8\u0ccd \u0cac\u0ccd\u0caf\u0cbe\u0c82\u0c95\u0ccd \u0c8e\u0c9f\u0cbf\u0c8e\u0c82",
          "operator": "Axis Bank",
          "operator:wikidata": "Q2003549"
        }
      },
      {
        "type": "node",
        "id": 8187959329,
        "lat": 12.9900506,
        "lon": 77.5561739,
        "tags": {
          "addr:full": "Shop No.53, 41st Cross, Near Old Police Station, 2nd Block, 4th Block, Rajajinagar, Bengaluru, Karnataka",
          "addr:state": "Karnataka",
          "amenity": "bank",
          "brand": "Vijaya Bank",
          "brand:wikidata": "Q2003171",
          "brand:wikipedia": "en:Vijaya Bank",
          "name": "Vijaya Bank",
          "name:kn": "\u0cb5\u0cbf\u0c9c\u0caf \u0cac\u0ccd\u0caf\u0cbe\u0c82\u0c95\u0ccd"
        }
      },
      {
        "type": "node",
        "id": 8187962500,
        "lat": 12.9910228,
        "lon": 77.5576941,
        "tags": {
          "addr:full": "588, Dr Rajkumar Rd, 2nd Block, Rajajinagar, Bengaluru, Karnataka",
          "addr:state": "Karnataka",
          "amenity": "bank",
          "brand": "Andhra Bank",
          "brand:wikidata": "Q2003476",
          "brand:wikipedia": "en:Andhra Bank",
          "name": "Andhra Bank",
          "name:kn": "\u0c86\u0c82\u0ca7\u0ccd\u0cb0 \u0cac\u0ccd\u0caf\u0cbe\u0c82\u0c95\u0ccd"
        }
      },
      {
        "type": "node",
        "id": 8187962507,
        "lat": 12.9905494,
        "lon": 77.5578922,
        "tags": {
          "addr:full": "Dr Rajkumar Rd, 4th Block, RajajiNagar, 4th Block, Rajajinagar, Bengaluru, Karnataka",
          "addr:state": "Karnataka",
          "amenity": "bank",
          "brand": "Bank of Baroda",
          "brand:wikidata": "Q2003797",
          "brand:wikipedia": "en:Bank of Baroda",
          "name": "Bank of Baroda",
          "name:kn": "\u0cac\u0ccd\u0caf\u0cbe\u0c82\u0c95\u0ccd \u0c86\u0cab\u0ccd \u0cac\u0cb0\u0ccb\u0ca1"
        }
      },
      {
        "type": "node",
        "id": 8187963420,
        "lat": 12.9807621,
        "lon": 77.5585094,
        "tags": {
          "addr:full": "Near-Variar Bakery, 1050 A, SSI Area, 4th M Block, Dr Rajkumar Rd, Rajaji Nagar, 6th Block, Rajajinagar, Bengaluru, Karnataka",
          "addr:state": "Karnataka",
          "amenity": "bank",
          "brand": "Andhra Bank",
          "brand:wikidata": "Q2003476",
          "name": "Andhra Bank",
          "name:kn": "\u0c86\u0c82\u0ca7\u0ccd\u0cb0 \u0cac\u0ccd\u0caf\u0cbe\u0c82\u0c95\u0ccd"
        }
      },
      {
        "type": "node",
        "id": 8188038742,
        "lat": 12.9905045,
        "lon": 77.5566355,
        "tags": {
          "addr:full": "172/A, 8th Main Rd, 2nd Block, Rajajinagar, Bengaluru, Karnataka",
          "addr:state": "Karnataka",
          "amenity": "hospital",
          "healthcare": "hospital",
          "name": "Government Hospital",
          "name:kn": "\u0cb8\u0cb0\u0ccd\u0c95\u0cbe\u0cb0\u0cbf \u0c86\u0cb8\u0ccd\u0caa\u0ca4\u0ccd\u0cb0\u0cc6"
        }
      },
      {
        "type": "node",
        "id": 8188038786,
        "lat": 12.9844963,
        "lon": 77.5551801,
        "tags": {
          "addr:full": "20th Main Rd, 5 Block, 3rd Block, Rajajinagar, Bengaluru, Karnataka",
          "addr:state": "Karnataka",
          "amenity": "hospital",
          "name": "Government Hospital",
          "name:kn": "\u0cb8\u0cb0\u0ccd\u0c95\u0cbe\u0cb0\u0cbf \u0c86\u0cb8\u0ccd\u0caa\u0ca4\u0ccd\u0cb0\u0cc6"
        }
      },
      {
        "type": "node",
        "id": 8188058456,
        "lat": 12.974256,
        "lon": 77.5598391,
        "tags": {
          "addr:full": "50, Magadi Road, Mariyappanapalya, Binnipete, Mariyappanapalya, Binnipete, Bengaluru, Karnataka",
          "addr:state": "Karnataka",
          "amenity": "restaurant",
          "name": "Atithi Family Restaurant"
        }
      },
      {
        "type": "node",
        "id": 8989622941,
        "lat": 12.9883109,
        "lon": 77.556248,
        "tags": {
          "amenity": "fast_food",
          "cuisine": "regional",
          "name": "Prakriti Deluxe"
        }
      },
      {
        "type": "node",
        "id": 9687256219,
        "lat": 12.9844193,
        "lon": 77.5580075,
        "tags": {
          "amenity": "fast_food",
          "name": "HOPCOMS"
        }
      },
      {
        "type": "node",
        "id": 9687256224,
        "lat": 12.9850753,
        "lon": 77.5567442,
        "tags": {
          "amenity": "fast_food",
          "brand": "Domino's",
          "brand:wikidata": "Q839466",
          "cuisine": "pizza",
          "delivery": "yes",
          "name": "Domino's",
          "operator": "Domino's",
          "outdoor_seating": "no",
          "takeaway": "yes"
        }
      },
      {
        "type": "node",
        "id": 9872645098,
        "lat": 12.9852752,
        "lon": 77.5564539,
        "tags": {
          "amenity": "atm",
          "brand": "State Bank of India",
          "brand:wikidata": "Q1340361",
          "name": "State Bank of India",
          "name:kn": "\u0c8e\u0cb8\u0ccd \u0cac\u0cbf \u0c90",
          "operator": "State Bank of India",
          "operator:wikidata": "Q1340361",
          "short_name": "SBI"
        }
      },
      {
        "type": "node",
        "id": 9872645103,
        "lat": 12.9895171,
        "lon": 77.5561675,
        "tags": {
          "amenity": "cafe",
          "name": "Tandoor Chai Point"
        }
      },
      {
        "type": "node",
        "id": 9909999116,
        "lat": 12.9893616,
        "lon": 77.5561199,
        "tags": {
          "amenity": "fast_food",
          "cuisine": "regional",
          "name": "Malnad Cafe"
        }
      },
      {
        "type": "node",
        "id": 10285926888,
        "lat": 12.9894334,
        "lon": 77.5540446,
        "tags": {
          "amenity": "restaurant",
          "cuisine": "regional",
          "name": "Swagat"
        }
      },
      {
        "type": "node",
        "id": 10286250881,
        "lat": 12.9813757,
        "lon": 77.5632861,
        "tags": {
          "amenity": "restaurant",
          "name": "Barbeque Nation",
          "name:kn": "\u0cac\u0cb0\u0ccd\u0cac\u0c95\u0ccd\u0caf\u0cc1 \u0ca8\u0cc7\u0cb6\u0ca8\u0ccd"
        }
      },
      {
        "type": "node",
        "id": 10286250883,
        "lat": 12.981177,
        "lon": 77.563085,
        "tags": {
          "amenity": "cafe",
          "brand": "Starbucks",
          "brand:wikidata": "Q37158",
          "cuisine": "coffee_shop",
          "name": "Starbucks",
          "official_name": "Starbucks Coffee",
          "operator": "Starbucks",
          "takeaway": "yes"
        }
      },
      {
        "type": "node",
        "id": 10875208176,
        "lat": 12.9812257,
        "lon": 77.5633806,
        "tags": {
          "brand": "Lulu Hypermarket",
          "brand:wikidata": "Q6702930",
          "changing_table": "no",
          "check_date": "2023-10-23",
          "name": "Lulu Hypermarket",
          "name:kn": "\u0cb2\u0cc1\u0cb2\u0cc1 \u0cb9\u0cc8\u0caa\u0cb0\u0ccd\u0cae\u0cbe\u0cb0\u0ccd\u0c95\u0cc6\u0c9f\u0ccd",
          "name:ml": "\u0d32\u0d41\u0d32\u0d41 \u0d39\u0d48\u0d2a\u0d4d\u0d2a\u0d7c\u0d2e\u0d3e\u0d7c\u0d15\u0d4d\u0d15\u0d31\u0d4d\u0d31\u0d4d",
          "opening_hours": "Mo-Su 10:00-23:00",
          "payment:cash": "yes",
          "payment:credit_cards": "yes",
          "shop": "supermarket",
          "toilets": "yes",
          "toilets:wheelchair": "limited",
          "wheelchair": "limited"
        }
      },
      {
        "type": "node",
        "id": 11061437782,
        "lat": 12.9817102,
        "lon": 77.5636162,
        "tags": {
          "amenity": "restaurant",
          "brand": "Chili's",
          "brand:wikidata": "Q1072948",
          "cuisine": "tex-mex",
          "diet:vegan": "yes",
          "diet:vegetarian": "yes",
          "indoor_seating": "yes",
          "name": "Chili's",
          "official_name": "Chili's Grill & Bar",
          "outdoor_seating": "no"
        }
      },
      {
        "type": "node",
        "id": 11102274266,
        "lat": 12.9847002,
        "lon": 77.5536101,
        "tags": {
          "amenity": "restaurant",
          "name": "Kim Lee Restaurant"
        }
      },
      {
        "type": "node",
        "id": 11102274267,
        "lat": 12.9857652,
        "lon": 77.55176,
        "tags": {
          "amenity": "restaurant",
          "name": "Sicilia Point"
        }
      },
      {
        "type": "node",
        "id": 11285259372,
        "lat": 12.9806797,
        "lon": 77.5635843,
        "tags": {
          "air_conditioning": "yes",
          "amenity": "cafe",
          "brand": "Costa",
          "brand:wikidata": "Q608845",
          "check_date": "2023-10-23",
          "cuisine": "coffee_shop",
          "diet:vegan": "yes",
          "diet:vegetarian": "yes",
          "indoor_seating": "yes",
          "name": "Costa",
          "outdoor_seating": "no",
          "smoking": "no",
          "takeaway": "yes",
          "wheelchair": "limited"
        }
      },
      {
        "type": "node",
        "id": 11285259381,
        "lat": 12.9812823,
        "lon": 77.5637362,
        "tags": {
          "air_conditioning": "yes",
          "amenity": "cafe",
          "brand": "Chai Point",
          "brand:wikidata": "Q28173415",
          "check_date": "2023-10-23",
          "cuisine": "coffee_shop",
          "diet:vegan": "yes",
          "diet:vegetarian": "yes",
          "indoor_seating": "yes",
          "name": "Chai Point",
          "outdoor_seating": "no",
          "smoking": "no",
          "takeaway": "yes",
          "wheelchair": "limited"
        }
      },
      {
        "type": "node",
        "id": 11285259384,
        "lat": 12.9818723,
        "lon": 77.5637939,
        "tags": {
          "amenity": "cafe",
          "check_date": "2023-10-23",
          "name": "Qmin"
        }
      },
      {
        "type": "node",
        "id": 11293554462,
        "lat": 12.9811091,
        "lon": 77.563085,
        "tags": {
          "amenity": "fast_food",
          "brand": "Subway",
          "brand:wikidata": "Q244457",
          "cuisine": "sandwich",
          "level": "3",
          "name": "Subway",
          "takeaway": "yes"
        }
      },
      {
        "type": "node",
        "id": 11293554463,
        "lat": 12.9810019,
        "lon": 77.5630863,
        "tags": {
          "amenity": "restaurant",
          "brand": "Pizza Hut",
          "brand:wikidata": "Q191615",
          "cuisine": "pizza",
          "level": "3",
          "name": "Pizza Hut"
        }
      },
      {
        "type": "node",
        "id": 11293554464,
        "lat": 12.9808974,
        "lon": 77.5630943,
        "tags": {
          "amenity": "fast_food",
          "level": "3",
          "name": "Naga's"
        }
      },
      {
        "type": "node",
        "id": 11293554465,
        "lat": 12.9807915,
        "lon": 77.5631037,
        "tags": {
          "amenity": "fast_food",
          "brand": "McDonald's",
          "brand:wikidata": "Q38076",
          "cuisine": "burger",
          "level": "3",
          "name": "McDonald's",
          "takeaway": "yes"
        }
      },
      {
        "type": "node",
        "id": 11293554466,
        "lat": 12.980683,
        "lon": 77.5631681,
        "tags": {
          "alt_name": "Kentucky Fried Chicken",
          "alt_name:en": "Kentucky Fried Chicken",
          "alt_name:hi": "\u0915\u0947\u0902\u091f\u0941\u0915\u0940 \u092b\u094d\u0930\u093e\u0907\u0921 \u091a\u093f\u0915\u0928",
          "alt_name:pa": "\u0a15\u0a48\u0a02\u0a1f\u0a41\u0a15\u0a40 \u0a2b\u0a4d\u0a30\u0a3e\u0a08\u0a21 \u0a1a\u0a3f\u0a15\u0a28",
          "alt_name:pnb": "\u06a9\u06cc\u0646\u0679\u06a9\u06cc \u0641\u0631\u0627\u0626\u06cc\u0688 \u0686\u06a9\u0646",
          "alt_name:ur": "\u06a9\u06cc\u0646\u0679\u06a9\u06cc \u0641\u0631\u0627\u0626\u06cc\u0688 \u0686\u06a9\u0646",
          "amenity": "fast_food",
          "brand": "KFC",
          "brand:en": "KFC",
          "brand:hi": "\u0915\u0947\u090f\u092b\u0938\u0940",
          "brand:pa": "\u0a15\u0a47\u0a10\u0a2b\u0a38\u0a40",
          "brand:pnb": "\u06a9\u06d2 \u0627\u06cc\u0641 \u0633\u06cc",
          "brand:ur": "\u06a9\u06d2 \u0627\u06cc\u0641 \u0633\u06cc",
          "brand:wikidata": "Q524757",
          "cuisine": "chicken",
          "level": "3",
          "name": "KFC",
          "name:en": "KFC",
          "name:hi": "\u0915\u0947\u090f\u092b\u0938\u0940",
          "name:pa": "\u0a15\u0a47\u0a10\u0a2b\u0a38\u0a40",
          "name:pnb": "\u06a9\u06d2 \u0627\u06cc\u0641 \u0633\u06cc",
          "name:ur": "\u06a9\u06d2 \u0627\u06cc\u0641 \u0633\u06cc",
          "takeaway": "yes"
        }
      },
      {
        "type": "node",
        "id": 11293554467,
        "lat": 12.9806791,
        "lon": 77.5632673,
        "tags": {
          "amenity": "fast_food",
          "brand": "Domino's",
          "brand:wikidata": "Q839466",
          "cuisine": "pizza",
          "level": "3",
          "name": "Domino's",
          "takeaway": "yes"
        }
      },
      {
        "type": "node",
        "id": 11293554468,
        "lat": 12.9806804,
        "lon": 77.5633706,
        "tags": {
          "amenity": "fast_food",
          "brand": "Taco Bell",
          "brand:wikidata": "Q752941",
          "cuisine": "tex-mex",
          "level": "3",
          "name": "Taco Bell",
          "name:kn": "\u0c9f\u0cbe\u0c95\u0cca \u0cac\u0cc6\u0cb2\u0ccd",
          "takeaway": "yes"
        }
      },
      {
        "type": "node",
        "id": 11293599069,
        "lat": 12.9817167,
        "lon": 77.5637005,
        "tags": {
          "air_conditioning": "no",
          "amenity": "restaurant",
          "brand": "Punjab Grill",
          "brand:wikidata": "Q124374761",
          "cuisine": "north_indian",
          "delivery": "yes",
          "diet:vegan": "yes",
          "diet:vegetarian": "yes",
          "indoor_seating": "yes",
          "level": "3",
          "name": "Punjab Grill",
          "outdoor_seating": "no",
          "takeaway": "yes"
        }
      },
      {
        "type": "node",
        "id": 11293599070,
        "lat": 12.9811313,
        "lon": 77.5637347,
        "tags": {
          "air_conditioning": "yes",
          "amenity": "fast_food",
          "brand": "Popeyes",
          "brand:wikidata": "Q1330910",
          "brand:wikipedia": "en:Popeyes",
          "cuisine": "chicken",
          "delivery": "yes",
          "diet:vegan": "yes",
          "diet:vegetarian": "yes",
          "indoor_seating": "yes",
          "level": "3",
          "name": "Popeyes",
          "official_name": "Popeyes Louisiana Kitchen",
          "outdoor_seating": "no",
          "smoking": "no",
          "takeaway": "yes",
          "website": "https://www.popeyes.in/",
          "wikipedia": "en:Popeyes Louisiana Kitchen"
        }
      },
      {
        "type": "node",
        "id": 12082134093,
        "lat": 12.9809025,
        "lon": 77.5634072,
        "tags": {
          "amenity": "fast_food",
          "level": "3",
          "name": "Samosa Singh"
        }
      },
      {
        "type": "node",
        "id": 12082134094,
        "lat": 12.9807947,
        "lon": 77.5634108,
        "tags": {
          "amenity": "fast_food",
          "cuisine": "pizza",
          "level": "3",
          "name": "Gopizza"
        }
      },
      {
        "type": "node",
        "id": 12118816469,
        "lat": 12.990542,
        "lon": 77.5580302,
        "tags": {
          "addr:street": "Dr. Rajkumar Road",
          "amenity": "bank",
          "atm": "yes",
          "brand": "City Union Bank",
          "brand:en": "City Union Bank",
          "brand:hi": "\u0938\u093f\u091f\u0940 \u092f\u0942\u0928\u093f\u092f\u0928 \u092c\u0948\u0902\u0915",
          "brand:ta": "\u0b9a\u0bbf\u0b9f\u0bcd\u0b9f\u0bbf \u0baf\u0bc2\u0ba9\u0bbf\u0baf\u0ba9\u0bcd \u0bb5\u0b99\u0bcd\u0b95\u0bbf",
          "brand:wikidata": "Q2040264",
          "name": "City Union Bank",
          "name:en": "City Union Bank",
          "name:hi": "\u0938\u093f\u091f\u0940 \u092f\u0942\u0928\u093f\u092f\u0928 \u092c\u0948\u0902\u0915",
          "name:ta": "\u0b9a\u0bbf\u0b9f\u0bcd\u0b9f\u0bbf \u0baf\u0bc2\u0ba9\u0bbf\u0baf\u0ba9\u0bcd \u0bb5\u0b99\u0bcd\u0b95\u0bbf",
          "short_name": "CUB"
        }
      },
      {
        "type": "node",
        "id": 12901334775,
        "lat": 12.9859554,
        "lon": 77.5509443,
        "tags": {
          "amenity": "cafe",
          "brand": "Third Wave Coffee Roasters",
          "brand:wikidata": "Q7785004",
          "cuisine": "coffee_shop",
          "delivery": "yes",
          "name": "Third Wave Coffee Roasters",
          "takeaway": "yes"
        }
      }
    ]
  },
  "pois_2_5km": {
    "version": 0.6,
    "generator": "Overpass API 0.7.62.8 e802775f",
    "osm3s": {
      "timestamp_osm_base": "2025-09-06T08:14:30Z",
      "copyright": "The data included in this document is from www.openstreetmap.org. The data is made available under ODbL."
    },
    "elements": [
      {
        "type": "node",
        "id": 246396993,
        "lat": 12.9783064,
        "lon": 77.5692678,
        "tags": {
          "name": "Bangalore City Junction",
          "public_transport": "stop_position",
          "railway": "stop",
          "ref": "SBC:1",
          "train": "yes"
        }
      },
      {
        "type": "node",
        "id": 347295628,
        "lat": 12.9781831,
        "lon": 77.5717624,
        "tags": {
          "bus": "yes",
          "name": "Platform 28A",
          "operator": "BMTC",
          "public_transport": "stop_position"
        }
      },
      {
        "type": "node",
        "id": 347295648,
        "lat": 12.9783665,
        "lon": 77.5730556,
        "tags": {
          "bus": "yes",
          "name": "Platform 23",
          "operator": "BMTC",
          "public_transport": "stop_position"
        }
      },
      {
        "type": "node",
        "id": 428317346,
        "lat": 13.0004488,
        "lon": 77.5637054,
        "tags": {
          "public_transport": "stop_position",
          "railway": "stop",
          "ref": "MWM:1"
        }
      },
      {
        "type": "node",
        "id": 429698093,
        "lat": 12.9766767,
        "lon": 77.5766838,
        "tags": {
          "amenity": "theatre",
          "name": "Gubbi Veerana Nataka",
          "name:kn": "\u0c97\u0cc1\u0cac\u0ccd\u0cac\u0cbf \u0cb5\u0cc0\u0cb0\u0ca3\u0ccd\u0ca3 \u0ca8\u0cbe\u0c9f\u0c95"
        }
      },
      {
        "type": "node",
        "id": 446791195,
        "lat": 12.9974325,
        "lon": 77.5459103,
        "tags": {
          "bus": "yes",
          "name": "Modi Hospital",
          "name:kn": "\u0cae\u0ccb\u0ca6\u0cbf \u0c86\u0cb8\u0ccd\u0caa\u0ca4\u0ccd\u0cb0\u0cc6",
          "network": "BMTC",
          "operator": "BMTC",
          "public_transport": "stop_position"
        }
      },
      {
        "type": "node",
        "id": 446995802,
        "lat": 12.9964968,
        "lon": 77.5630859,
        "tags": {
          "bus": "yes",
          "highway": "bus_stop",
          "name": "Devaiah Park",
          "name:kn": "\u0ca6\u0cc7\u0cb5\u0caf\u0ccd\u0caf \u0c89\u0ca6\u0ccd\u0caf\u0cbe\u0ca8\u0cb5\u0ca8",
          "public_transport": "stop_position"
        }
      },
      {
        "type": "node",
        "id": 456039716,
        "lat": 12.9931208,
        "lon": 77.5710734,
        "tags": {
          "addr:street": "Sampige Road",
          "amenity": "cinema",
          "name": "Sampige Theatre",
          "name:kn": "\u0cb8\u0c82\u0caa\u0cbf\u0c97\u0cc6"
        }
      },
      {
        "type": "node",
        "id": 577030466,
        "lat": 12.9867764,
        "lon": 77.5671966,
        "tags": {
          "amenity": "theatre",
          "name": "Aruna Theatre",
          "wheelchair": "no"
        }
      },
      {
        "type": "node",
        "id": 693296243,
        "lat": 13.0004202,
        "lon": 77.5636645,
        "tags": {
          "public_transport": "stop_position",
          "railway": "stop",
          "ref": "MWM:2"
        }
      },
      {
        "type": "node",
        "id": 806588782,
        "lat": 12.9783651,
        "lon": 77.5681771,
        "tags": {
          "name": "Bangalore City Junction",
          "name:kn": "\u0cac\u0cc6\u0c82\u0c97\u0cb3\u0cc2\u0cb0\u0cc1 \u0ca8\u0c97\u0cb0",
          "public_transport": "stop_position",
          "railway": "stop",
          "ref": "SBC:7",
          "train": "yes"
        }
      },
      {
        "type": "node",
        "id": 806588784,
        "lat": 12.9782669,
        "lon": 77.5689394,
        "tags": {
          "name": "Bangalore City Junction",
          "name:kn": "\u0cac\u0cc6\u0c82\u0c97\u0cb3\u0cc2\u0cb0\u0cc1 \u0ca8\u0c97\u0cb0",
          "public_transport": "stop_position",
          "railway": "stop",
          "ref": "SBC:4",
          "train": "yes"
        }
      },
      {
        "type": "node",
        "id": 806588786,
        "lat": 12.9783166,
        "lon": 77.5692242,
        "tags": {
          "name": "Bangalore City Junction",
          "name:kn": "\u0cac\u0cc6\u0c82\u0c97\u0cb3\u0cc2\u0cb0\u0cc1 \u0ca8\u0c97\u0cb0",
          "public_transport": "stop_position",
          "railway": "stop",
          "ref": "SBC:2",
          "train": "yes"
        }
      },
      {
        "type": "node",
        "id": 806588787,
        "lat": 12.9783553,
        "lon": 77.5682244,
        "tags": {
          "name": "Bangalore City Junction",
          "public_transport": "stop_position",
          "railway": "stop",
          "ref": "SBC:6",
          "train": "yes"
        }
      },
      {
        "type": "node",
        "id": 806588788,
        "lat": 12.9784008,
        "lon": 77.5678774,
        "tags": {
          "name": "Bangalore City Junction",
          "name:kn": "\u0cac\u0cc6\u0c82\u0c97\u0cb3\u0cc2\u0cb0\u0cc1 \u0ca8\u0c97\u0cb0",
          "public_transport": "stop_position",
          "railway": "stop",
          "ref": "SBC:10",
          "train": "yes"
        }
      },
      {
        "type": "node",
        "id": 806588789,
        "lat": 12.9784045,
        "lon": 77.568007,
        "tags": {
          "name": "Bangalore City Junction",
          "name:kn": "\u0cac\u0cc6\u0c82\u0c97\u0cb3\u0cc2\u0cb0\u0cc1 \u0ca8\u0c97\u0cb0",
          "public_transport": "stop_position",
          "railway": "stop",
          "ref": "SBC:9",
          "train": "yes"
        }
      },
      {
        "type": "node",
        "id": 806588796,
        "lat": 12.9783992,
        "lon": 77.568046,
        "tags": {
          "name": "Bangalore City Junction",
          "name:kn": "\u0cac\u0cc6\u0c82\u0c97\u0cb3\u0cc2\u0cb0\u0cc1 \u0ca8\u0c97\u0cb0 \u0cb0\u0cc8\u0cb2\u0cc1 \u0ca8\u0cbf\u0cb2\u0ccd\u0ca6\u0cbe\u0ca3",
          "public_transport": "stop_position",
          "railway": "stop",
          "ref": "SBC:8",
          "train": "yes"
        }
      },
      {
        "type": "node",
        "id": 806588798,
        "lat": 12.9782835,
        "lon": 77.5685839,
        "tags": {
          "name": "Bangalore City Junction",
          "name:kn": "\u0cac\u0cc6\u0c82\u0c97\u0cb3\u0cc2\u0cb0\u0cc1 \u0ca8\u0c97\u0cb0",
          "public_transport": "stop_position",
          "railway": "stop",
          "ref": "SBC:5",
          "train": "yes"
        }
      },
      {
        "type": "node",
        "id": 1060580206,
        "lat": 12.9677686,
        "lon": 77.569887,
        "tags": {
          "amenity": "cinema",
          "name": "Super talkies"
        }
      },
      {
        "type": "node",
        "id": 1116412178,
        "lat": 12.9916942,
        "lon": 77.5457901,
        "tags": {
          "amenity": "fuel",
          "brand": "Indian Oil",
          "brand:wikidata": "Q1289348",
          "brand:wikipedia": "en:Indian Oil Corporation",
          "name": "Indian Oil",
          "name:kn": "\u0c87\u0c82\u0ca1\u0cbf\u0caf\u0ca8\u0ccd \u0c86\u0caf\u0cbf\u0cb2\u0ccd"
        }
      },
      {
        "type": "node",
        "id": 1440193832,
        "lat": 12.9865791,
        "lon": 77.5403594,
        "tags": {
          "amenity": "fuel",
          "brand": "Total",
          "brand:wikidata": "Q154037",
          "fuel:lpg": "yes",
          "name": "Total gas",
          "operator": "Total"
        }
      },
      {
        "type": "node",
        "id": 1470547294,
        "lat": 12.9973631,
        "lon": 77.5601119,
        "tags": {
          "bus": "yes",
          "highway": "bus_stop",
          "name": "Harishchandra Ghat Bus Stop",
          "name:kn": "\u0cb9\u0cb0\u0cbf\u0cb6\u0ccd\u0c9a\u0c82\u0ca6\u0ccd\u0cb0 \u0c98\u0c9f\u0ccd",
          "public_transport": "stop_position",
          "wheelchair": "limited"
        }
      },
      {
        "type": "node",
        "id": 1548300484,
        "lat": 12.966924,
        "lon": 77.5745737,
        "tags": {
          "code": "CKPE",
          "name": "Chickpete",
          "name:hi": "\u091a\u093f\u0915\u092a\u0947\u091f\u0947",
          "name:kn": "\u0c9a\u0cbf\u0c95\u0ccd\u0c95\u0caa\u0cc7\u0c9f\u0cc6",
          "network": "Namma Metro",
          "note": "Contributors are requested to not edit the \"network\" and the \"operator\" tags. (2023/11/08)",
          "operator": "Bangalore Metro Rail Corporation Limited",
          "public_transport": "stop_position",
          "public_transport:version": "2",
          "railway": "stop",
          "source": "http://www.bmrc.co.in/English/Network.htm",
          "subway": "yes",
          "wheelchair": "yes"
        }
      },
      {
        "type": "node",
        "id": 1548828179,
        "lat": 12.9904754,
        "lon": 77.5707615,
        "tags": {
          "alt_name": "Swastik",
          "code": "SPGD",
          "name": "Mantri Square Sampige Road",
          "name:kn": "\u0cae\u0c82\u0ca4\u0ccd\u0cb0\u0cbf \u0cb8\u0ccd\u0c95\u0ccd\u0cb5\u0cc7\u0cb0\u0ccd \u0cb8\u0c82\u0caa\u0cbf\u0c97\u0cc6 \u0cb0\u0cb8\u0ccd\u0ca4\u0cc6",
          "network": "Namma Metro",
          "note": "Contributors are requested to not edit the \"network\" and the \"operator\" tags. (2023/11/08)",
          "operator": "Bangalore Metro Rail Corporation Limited",
          "public_transport": "stop_position",
          "public_transport:version": "2",
          "railway": "stop",
          "source": "http://www.bmrc.co.in/English/Network.htm",
          "subway": "yes",
          "wheelchair": "yes",
          "wikidata": "Q17088462",
          "wikipedia": "en:Sampige Road metro station"
        }
      },
      {
        "type": "node",
        "id": 1560067666,
        "lat": 12.9758581,
        "lon": 77.5653792,
        "tags": {
          "code": "BRCS",
          "name": "Krantivira Sangolli Rayanna Railway Station",
          "name:kn": "\u0ca8\u0c97\u0cb0 \u0cb0\u0cc8\u0cb2\u0cc1 \u0ca8\u0cbf\u0cb2\u0ccd\u0ca6\u0cbe\u0ca3",
          "network": "Namma Metro",
          "note": "Contributors are requested to not edit the \"network\" and the \"operator\" tags. (2023/11/08)",
          "operator": "Bangalore Metro Rail Corporation Limited",
          "platforms": "2",
          "public_transport": "stop_position",
          "public_transport:version": "2",
          "railway": "stop",
          "source": "http://www.bmrc.co.in/English/Network.htm",
          "subway": "yes",
          "wheelchair": "yes",
          "wikidata": "Q39070950",
          "wikipedia": "en:City Railway Station metro station (Bangalore)"
        }
      },
      {
        "type": "node",
        "id": 1565099078,
        "lat": 12.9964948,
        "lon": 77.5632993,
        "tags": {
          "code": "SPRU",
          "name": "Srirampura",
          "name:hi": "\u0936\u094d\u0930\u0940\u0930\u093e\u092e\u092a\u0941\u0930\u093e",
          "name:kn": "\u0cb6\u0ccd\u0cb0\u0cc0\u0cb0\u0cbe\u0cae\u0caa\u0cc1\u0cb0",
          "network": "Namma Metro",
          "note": "Contributors are requested to not edit the \"network\" and the \"operator\" tags. (2023/11/08)",
          "operator": "Bangalore Metro Rail Corporation Limited",
          "public_transport": "stop_position",
          "public_transport:version": "2",
          "railway": "stop",
          "source": "http://www.bmrc.co.in/English/Network.htm",
          "subway": "yes",
          "wheelchair": "yes",
          "wikidata": "Q17100145",
          "wikipedia": "en:Srirampura metro station"
        }
      },
      {
        "type": "node",
        "id": 1565099120,
        "lat": 13.0005359,
        "lon": 77.5496996,
        "tags": {
          "code": "RJNR",
          "layer": "2",
          "level": "2",
          "name": "Rajajinagar",
          "name:hi": "\u0930\u093e\u091c\u093e\u091c\u0940\u0928\u0917\u0930",
          "name:kn": "\u0cb0\u0cbe\u0c9c\u0cbe\u0c9c\u0cbf\u0ca8\u0c97\u0cb0",
          "network": "Namma Metro",
          "note": "Contributors are requested to not edit the \"network\" and the \"operator\" tags. (2023/11/08)",
          "operator": "Bangalore Metro Rail Corporation Limited",
          "public_transport": "stop_position",
          "public_transport:version": "2",
          "railway": "stop",
          "source": "http://www.bmrc.co.in/English/Network.htm",
          "subway": "yes",
          "wheelchair": "yes",
          "wikidata": "Q17085511",
          "wikipedia": "en:Rajajinagar metro station"
        }
      },
      {
        "type": "node",
        "id": 1565099143,
        "lat": 12.974267,
        "lon": 77.5456204,
        "tags": {
          "code": "HSLI",
          "name": "Sri Balagangadharanatha Swamiji Stn., Hosahalli",
          "name:kn": "\u0cb6\u0ccd\u0cb0\u0cc0 \u0cac\u0cbe\u0cb2\u0c97\u0c82\u0c97\u0cbe\u0ca7\u0cb0\u0ca8\u0cbe\u0ca5 \u0cae\u0cc6\u0c9f\u0ccd\u0cb0\u0ccb",
          "network": "Namma Metro",
          "note": "Contributors are requested to not edit the \"network\" and the \"operator\" tags. (2023/11/08)",
          "operator": "Bangalore Metro Rail Corporation Limited",
          "platforms": "2",
          "public_transport": "stop_position",
          "public_transport:version": "2",
          "railway": "stop",
          "source": "http://www.bmrc.co.in/English/Network.htm",
          "subway": "yes",
          "wheelchair": "yes",
          "wikidata": "Q23838583",
          "wikipedia": "en:Hosahalli metro station"
        }
      },
      {
        "type": "node",
        "id": 1565099154,
        "lat": 12.9985238,
        "lon": 77.5568794,
        "tags": {
          "code": "KVPR",
          "name": "Mahakavi Kuvempu Road",
          "name:etymology:wikidata": "Q3351108",
          "name:kn": "\u0cae\u0cb9\u0cbe\u0c95\u0cb5\u0cbf \u0c95\u0cc1\u0cb5\u0cc6\u0c82\u0caa\u0cc1 \u0cb0\u0cb8\u0ccd\u0ca4\u0cc6",
          "network": "Namma Metro",
          "note": "Contributors are requested to not edit the \"network\" and the \"operator\" tags. (2023/11/08)",
          "operator": "Bangalore Metro Rail Corporation Limited",
          "public_transport": "stop_position",
          "public_transport:version": "2",
          "railway": "stop",
          "short_name": "MKK Road",
          "source": "http://www.bmrc.co.in/English/Network.htm",
          "subway": "yes",
          "wheelchair": "yes",
          "wikidata": "Q17068244",
          "wikipedia": "en:Kuvempu Road metro station"
        }
      },
      {
        "type": "node",
        "id": 1614366547,
        "lat": 12.9883033,
        "lon": 77.5774436,
        "tags": {
          "amenity": "fuel",
          "brand": "Bharat Petroleum",
          "brand:wikidata": "Q854826",
          "name": "Bharat Petroleum",
          "name:kn": "\u0cad\u0cbe\u0cb0\u0ca4\u0ccd \u0caa\u0cc6\u0c9f\u0ccd\u0cb0\u0ccb\u0cb2\u0cbf\u0caf\u0c82",
          "wheelchair": "yes"
        }
      },
      {
        "type": "node",
        "id": 1778953948,
        "lat": 12.9771222,
        "lon": 77.5466032,
        "tags": {
          "amenity": "fuel",
          "brand": "Hindustan Petroleum",
          "brand:wikidata": "Q1619375",
          "name": "HP Petrol Bunk",
          "name:kn": "\u0cb9\u0cbf\u0c82\u0ca6\u0cc1\u0cb8\u0ccd\u0ca4\u0cbe\u0ca8\u0ccd \u0caa\u0cc6\u0c9f\u0ccd\u0cb0\u0ccb\u0cb2\u0cbf\u0caf\u0c82",
          "official_name": "Hindustan Petroleum",
          "wheelchair": "yes"
        }
      },
      {
        "type": "node",
        "id": 1778957265,
        "lat": 12.9793805,
        "lon": 77.5420846,
        "tags": {
          "amenity": "fuel",
          "brand": "Shell",
          "brand:wikidata": "Q110716465",
          "fuel:diesel": "yes",
          "fuel:lpg": "no",
          "fuel:octane_100": "yes",
          "name": "Shell Petrol Bunk",
          "name:kn": "\u0cb6\u0cc6\u0cb2\u0ccd",
          "operator": "Shell",
          "wheelchair": "yes"
        }
      },
      {
        "type": "node",
        "id": 1806966554,
        "lat": 12.9672844,
        "lon": 77.57,
        "tags": {
          "amenity": "fuel",
          "brand": "AEGIS AUTO GAS",
          "fuel:1_25": "no",
          "fuel:1_50": "no",
          "fuel:GTL_diesel": "no",
          "fuel:HGV_diesel": "no",
          "fuel:biodiesel": "no",
          "fuel:biogas": "no",
          "fuel:cng": "no",
          "fuel:diesel": "no",
          "fuel:e10": "no",
          "fuel:e85": "no",
          "fuel:electricity": "no",
          "fuel:lpg": "yes",
          "fuel:octane_100": "no",
          "fuel:octane_91": "no",
          "fuel:octane_95": "no",
          "fuel:octane_98": "no",
          "name": "Shree Krishna Auto Gas",
          "wheelchair": "yes"
        }
      },
      {
        "type": "node",
        "id": 1809669647,
        "lat": 12.9919287,
        "lon": 77.538523,
        "tags": {
          "bus": "yes",
          "highway": "bus_stop",
          "loc_name": "BASAVESHWARANAGARA",
          "name": "Kamalanagar 8th Main",
          "name:en": "Kamalanagar 8th Main",
          "network": "BMTC",
          "network:wikidata": "Q3345039",
          "operator": "BMTC",
          "public_transport": "stop_position"
        }
      },
      {
        "type": "node",
        "id": 1820408689,
        "lat": 12.975608,
        "lon": 77.5553564,
        "tags": {
          "code": "MIRD",
          "name": "Magadi Road",
          "name:kn": "\u0cae\u0cbe\u0c97\u0ca1\u0cbf \u0cb0\u0cb8\u0ccd\u0ca4\u0cc6",
          "network": "Namma Metro",
          "note": "Contributors are requested to not edit the \"network\" and the \"operator\" tags. (2023/11/08)",
          "operator": "Bangalore Metro Rail Corporation Limited",
          "platforms": "2",
          "public_transport": "stop_position",
          "public_transport:version": "2",
          "railway": "stop",
          "source": "http://www.bmrc.co.in/English/Network.htm",
          "subway": "yes",
          "wheelchair": "yes",
          "wikidata": "Q23838569",
          "wikipedia": "en:Magadi Road metro station"
        }
      },
      {
        "type": "node",
        "id": 1820438588,
        "lat": 12.9738144,
        "lon": 77.5517301,
        "tags": {
          "amenity": "cinema",
          "name": "PVR",
          "name:en": "PVR Cinemas",
          "wheelchair": "limited"
        }
      },
      {
        "type": "node",
        "id": 2016215963,
        "lat": 12.9841172,
        "lon": 77.5600221,
        "tags": {
          "amenity": "fuel"
        }
      },
      {
        "type": "node",
        "id": 2249045755,
        "lat": 12.9851341,
        "lon": 77.5433278,
        "tags": {
          "amenity": "fuel",
          "brand": "BP",
          "brand:wikidata": "Q152057",
          "name": "BP petrol pump",
          "wheelchair": "yes"
        }
      },
      {
        "type": "node",
        "id": 2249047993,
        "lat": 12.9916432,
        "lon": 77.5578265,
        "tags": {
          "amenity": "fuel",
          "brand": "Hindustan Petroleum",
          "brand:wikidata": "Q1619375",
          "brand:wikipedia": "en:Hindustan Petroleum",
          "compressed_air": "yes",
          "name": "HP",
          "name:kn": "\u0cb9\u0cbf\u0c82\u0ca6\u0cc1\u0cb8\u0ccd\u0ca4\u0cbe\u0ca8\u0ccd \u0caa\u0cc6\u0c9f\u0ccd\u0cb0\u0ccb\u0cb2\u0cbf\u0caf\u0c82",
          "official_name": "Hindustan Petroleum"
        }
      },
      {
        "type": "node",
        "id": 2249053699,
        "lat": 12.9810568,
        "lon": 77.5583911,
        "tags": {
          "amenity": "fuel",
          "brand": "Indian Oil",
          "brand:wikidata": "Q1289348",
          "brand:wikipedia": "en:Indian Oil Corporation",
          "name": "Indian Oil",
          "name:kn": "\u0c87\u0c82\u0ca1\u0cbf\u0caf\u0ca8\u0ccd \u0c86\u0caf\u0cbf\u0cb2\u0ccd",
          "wheelchair": "yes"
        }
      },
      {
        "type": "node",
        "id": 2394045745,
        "lat": 12.9878348,
        "lon": 77.5743169,
        "tags": {
          "bus": "yes",
          "name": "Swastik Sheshadripuram College",
          "name:en": "Swastik Sheshadripuram College",
          "network": "BMTC",
          "operator": "BMTC",
          "public_transport": "stop_position"
        }
      },
      {
        "type": "node",
        "id": 2403438706,
        "lat": 13.0006281,
        "lon": 77.5605652,
        "tags": {
          "alt_name": "Ramamandira",
          "bus": "yes",
          "highway": "bus_stop",
          "loc_name": "GAYTHRI NAGARA",
          "name": "Kodandarama",
          "name:kn": "\u0c95\u0ccb\u0ca6\u0c82\u0ca1\u0cb0\u0cbe\u0cae",
          "network": "BMTC",
          "operator": "BMTC",
          "public_transport": "stop_position",
          "wheelchair": "limited"
        }
      },
      {
        "type": "node",
        "id": 2403438888,
        "lat": 12.9993391,
        "lon": 77.5601837,
        "tags": {
          "bus": "yes",
          "highway": "bus_stop",
          "name": "SBM Gayathri Nagara",
          "network": "BMTC",
          "operator": "BMTC",
          "public_transport": "stop_position"
        }
      },
      {
        "type": "node",
        "id": 2403846910,
        "lat": 13.0048419,
        "lon": 77.5595007,
        "tags": {
          "bus": "yes",
          "highway": "bus_stop",
          "name": "Canara Bank Subramanyanagara",
          "name:kn": "\u0c95\u0cc6\u0ca8\u0cb0\u0cbe \u0cac\u0ccd\u0caf\u0cbe\u0c82\u0c95\u0ccd",
          "network": "BMTC",
          "operator": "BMTC",
          "public_transport": "stop_position"
        }
      },
      {
        "type": "node",
        "id": 2466476118,
        "lat": 12.9765112,
        "lon": 77.5799146,
        "tags": {
          "amenity": "fuel",
          "brand": "Bharat Petroleum",
          "brand:wikidata": "Q854826",
          "check_date": "2024-03-02",
          "compressed_air": "yes",
          "name": "Bharat Petroleum",
          "operator": "Chanders"
        }
      },
      {
        "type": "node",
        "id": 2467854906,
        "lat": 12.9873459,
        "lon": 77.5723926,
        "tags": {
          "amenity": "fuel",
          "name": "Vijees Auto Gas"
        }
      },
      {
        "type": "node",
        "id": 2476128053,
        "lat": 12.9782608,
        "lon": 77.5729,
        "tags": {
          "bus": "yes",
          "name": "Platform 12",
          "operator": "BMTC",
          "public_transport": "stop_position"
        }
      },
      {
        "type": "node",
        "id": 2487524459,
        "lat": 12.9669405,
        "lon": 77.5470005,
        "tags": {
          "addr:city": "Bangalore",
          "addr:housename": "Vijayanagar",
          "addr:street": "Hosahalli Main Road",
          "amenity": "fuel",
          "brand": "Total",
          "brand:wikidata": "Q154037",
          "building": "yes",
          "name": "Total Gas"
        }
      },
      {
        "type": "node",
        "id": 2487524461,
        "lat": 12.9673086,
        "lon": 77.5461504,
        "tags": {
          "addr:city": "Bangalore",
          "addr:housename": "Vijayanagar",
          "addr:postcode": "560040",
          "addr:street": "Hosahalli Main Road",
          "amenity": "fuel",
          "brand": "Indian Oil",
          "brand:wikidata": "Q1289348",
          "brand:wikipedia": "en:Indian Oil Corporation",
          "building": "yes",
          "name": "Indian Oil",
          "name:kn": "\u0c87\u0c82\u0ca1\u0cbf\u0caf\u0ca8\u0ccd \u0c86\u0caf\u0cbf\u0cb2\u0ccd"
        }
      },
      {
        "type": "node",
        "id": 2669084978,
        "lat": 12.9781739,
        "lon": 77.5695603,
        "tags": {
          "internet_access": "wlan",
          "name": "Krantivira Sangolli Rayanna (Bengaluru)",
          "name:kn": "\u0c95\u0ccd\u0cb0\u0cbe\u0c82\u0ca4\u0cbf\u0cb5\u0cc0\u0cb0 \u0cb8\u0c82\u0c97\u0cca\u0cb3\u0ccd\u0cb3\u0cbf \u0cb0\u0cbe\u0caf\u0ca3\u0ccd\u0ca3 \u0cb0\u0cc8\u0cb2\u0ccd\u0cb5\u0cc6 \u0ca8\u0cbf\u0cb2\u0ccd\u0ca6\u0cbe\u0ca3",
          "name:ml": "\u0d15\u0d4d\u0d30\u0d3e\u0d28\u0d4d\u0d24\u0d3f\u0d35\u0d40\u0d30 \u0d38\u0d19\u0d4d\u0d15\u0d4a\u0d32\u0d4d\u0d32\u0d3f \u0d30\u0d3e\u0d2f\u0d23\u0d4d\u0d23 \u0d31\u0d46\u0d2f\u0d3f\u0d7d\u0d35\u0d47 \u0d38\u0d4d\u0d31\u0d4d\u0d31\u0d47\u0d37\u0d7b",
          "name:te": "\u0c15\u0c4d\u0c30\u0c3e\u0c02\u0c24\u0c3f\u0c35\u0c40\u0c30 \u0c38\u0c02\u0c17\u0c4a\u0c32\u0c4d\u0c32\u0c3f \u0c30\u0c3e\u0c2f\u0c28\u0c4d\u0c28 \u0c30\u0c48\u0c32\u0c4d\u0c35\u0c47 \u0c38\u0c4d\u0c1f\u0c47\u0c37\u0c28\u0c4d",
          "network": "IR",
          "old_name": "Bangalore City Junction",
          "operator": "SWR",
          "public_transport": "station",
          "railway": "station",
          "ref": "SBC",
          "short_name": "KSR Bengaluru",
          "wheelchair": "yes",
          "wikidata": "Q3633970"
        }
      },
      {
        "type": "node",
        "id": 3198633191,
        "lat": 12.9869097,
        "lon": 77.5789251,
        "tags": {
          "bus": "yes",
          "highway": "bus_stop",
          "loc_name": "VASANTHA NAGARA",
          "name": "Shivananda Stores",
          "name:en": "Shivananda Stores",
          "network": "BMTC",
          "operator": "BMTC",
          "public_transport": "stop_position"
        }
      },
      {
        "type": "node",
        "id": 3320950152,
        "lat": 12.9900294,
        "lon": 77.5721105,
        "tags": {
          "bus": "yes",
          "name": "Central",
          "name:en": "Central",
          "network": "BMTC",
          "operator": "BMTC",
          "public_transport": "stop_position"
        }
      },
      {
        "type": "node",
        "id": 3664774925,
        "lat": 12.9920489,
        "lon": 77.5706285,
        "tags": {
          "addr:city": "Bengaluru",
          "addr:postcode": "560003",
          "addr:street": "Sampige Road",
          "air_conditioning": "yes",
          "amenity": "cinema",
          "brand": "INOX Leisure",
          "brand:wikidata": "Q5972349",
          "name": "INOX Malleshwaram - Mantri Square",
          "short_name": "INOX"
        }
      },
      {
        "type": "node",
        "id": 3755608905,
        "lat": 12.9786086,
        "lon": 77.5725521,
        "tags": {
          "bus": "yes",
          "name": "Platform 21",
          "operator": "BMTC",
          "public_transport": "stop_position"
        }
      },
      {
        "type": "node",
        "id": 3756218734,
        "lat": 12.9824156,
        "lon": 77.5620528,
        "tags": {
          "bus": "yes",
          "highway": "bus_stop",
          "loc_name": "RAMACHANDRAPURAM",
          "name": "Sujatha Talkies",
          "name:en": "Sujatha Talkies",
          "name:kn": "\u0cb8\u0cc1\u0c9c\u0cbe\u0ca4 \u0c9a\u0cbf\u0ca4\u0ccd\u0cb0\u0cae\u0c82\u0ca6\u0cbf\u0cb0",
          "network": "BMTC",
          "operator": "BMTC",
          "public_transport": "stop_position"
        }
      },
      {
        "type": "node",
        "id": 3875744057,
        "lat": 12.9777644,
        "lon": 77.5728494,
        "tags": {
          "bus": "yes",
          "name": "Platform 1",
          "name:kn": "\u0c85\u0c82\u0c95\u0ca3 \u0ce7",
          "operator": "BMTC",
          "public_transport": "stop_position"
        }
      },
      {
        "type": "node",
        "id": 3875744058,
        "lat": 12.9779442,
        "lon": 77.5727259,
        "tags": {
          "bus": "yes",
          "name": "Platform 2",
          "name:kn": "\u0c85\u0c82\u0c95\u0ca3 \u0ce8",
          "operator": "BMTC",
          "public_transport": "stop_position"
        }
      },
      {
        "type": "node",
        "id": 3875768038,
        "lat": 12.9780562,
        "lon": 77.5725348,
        "tags": {
          "bus": "yes",
          "name": "Platform 3",
          "name:kn": "\u0c85\u0c82\u0c95\u0ca3 \u0ce9",
          "operator": "BMTC",
          "public_transport": "stop_position"
        }
      },
      {
        "type": "node",
        "id": 3875768039,
        "lat": 12.9780653,
        "lon": 77.5722489,
        "tags": {
          "bus": "yes",
          "name": "Platform 3A",
          "operator": "BMTC",
          "public_transport": "stop_position"
        }
      },
      {
        "type": "node",
        "id": 3875768040,
        "lat": 12.9779148,
        "lon": 77.571813,
        "tags": {
          "bus": "yes",
          "name": "Platform 5",
          "name:kn": "\u0c85\u0c82\u0c95\u0ca3 \u0ceb",
          "operator": "BMTC",
          "public_transport": "stop_position"
        }
      },
      {
        "type": "node",
        "id": 3875790066,
        "lat": 12.9780458,
        "lon": 77.5719149,
        "tags": {
          "bus": "yes",
          "name": "Platform 6",
          "name:kn": "\u0cb5\u0cc7\u0ca6\u0cbf\u0c95\u0cc6 \u0cec",
          "operator": "BMTC",
          "public_transport": "stop_position"
        }
      },
      {
        "type": "node",
        "id": 3875790067,
        "lat": 12.9781429,
        "lon": 77.5720401,
        "tags": {
          "bus": "yes",
          "name": "Platform 6A",
          "name:kn": "\u0cb5\u0cc7\u0ca6\u0cbf\u0c95\u0cc6 \u0cec\u0c8e",
          "operator": "BMTC",
          "public_transport": "stop_position"
        }
      },
      {
        "type": "node",
        "id": 3875790068,
        "lat": 12.9781992,
        "lon": 77.5721632,
        "tags": {
          "bus": "yes",
          "name": "Platform 7",
          "name:kn": "\u0cb5\u0cc7\u0ca6\u0cbf\u0c95\u0cc6 \u0ced",
          "operator": "BMTC",
          "public_transport": "stop_position"
        }
      },
      {
        "type": "node",
        "id": 3875790069,
        "lat": 12.9782295,
        "lon": 77.5722952,
        "tags": {
          "bus": "yes",
          "name": "Platform 8",
          "name:kn": "\u0cb5\u0cc7\u0ca6\u0cbf\u0c95\u0cc6 \u0cee",
          "operator": "BMTC",
          "public_transport": "stop_position"
        }
      },
      {
        "type": "node",
        "id": 3875790070,
        "lat": 12.9782221,
        "lon": 77.5725112,
        "tags": {
          "bus": "yes",
          "name": "Platform 8A",
          "name:kn": "\u0cb5\u0cc7\u0ca6\u0cbf\u0c95\u0cc6 \u0cee\u0c8e",
          "operator": "BMTC",
          "public_transport": "stop_position"
        }
      },
      {
        "type": "node",
        "id": 4108417932,
        "lat": 13.0006306,
        "lon": 77.563476,
        "tags": {
          "internet_access": "no",
          "name": "Malleswaram",
          "name:kn": "\u0cae\u0cb2\u0ccd\u0cb2\u0cc7\u0cb6\u0ccd\u0cb5\u0cb0\u0c82",
          "network": "IR",
          "operator": "SWR",
          "public_transport": "station",
          "railway": "station",
          "ref": "MWM",
          "toilets:wheelchair": "no",
          "wheelchair": "yes",
          "wikidata": "Q63356763"
        }
      },
      {
        "type": "node",
        "id": 4130960190,
        "lat": 12.965813,
        "lon": 77.5622167,
        "tags": {
          "addr:street": "Tank Bund Road",
          "amenity": "cinema",
          "brand": "Cinepolis",
          "brand:wikidata": "Q5686673",
          "name": "Cinepolis ETA Mall"
        }
      },
      {
        "type": "node",
        "id": 4130960991,
        "lat": 12.9643548,
        "lon": 77.5499608,
        "tags": {
          "addr:street": "Hosahalli Main Road",
          "amenity": "theatre",
          "name": "Kk Function Hall"
        }
      },
      {
        "type": "node",
        "id": 4518422189,
        "lat": 12.9740504,
        "lon": 77.5500149,
        "tags": {
          "addr:street": "Magadi Road",
          "amenity": "fuel",
          "brand": "Total",
          "brand:wikidata": "Q154037",
          "name": "Total Gas Station",
          "name:en": "Total Gas Station"
        }
      },
      {
        "type": "node",
        "id": 4937191686,
        "lat": 12.9967945,
        "lon": 77.568963,
        "tags": {
          "bench": "yes",
          "bus": "yes",
          "covered": "yes",
          "highway": "bus_stop",
          "name": "Malleshwaram Circle",
          "name:kn": "\u0cae\u0cb2\u0ccd\u0cb2\u0cc7\u0cb6\u0ccd\u0cb5\u0cb0\u0c82 \u0cb5\u0cc3\u0ca4\u0ccd\u0ca4",
          "operator": "BMTC",
          "public_transport": "stop_position",
          "shelter": "yes"
        }
      },
      {
        "type": "node",
        "id": 4937863375,
        "lat": 12.9977319,
        "lon": 77.5713903,
        "tags": {
          "bus": "yes",
          "name": "Malleswaram Circle",
          "name:kn": "\u0cae\u0cb2\u0ccd\u0cb2\u0cc7\u0cb6\u0ccd\u0cb5\u0cb0\u0c82 \u0cb5\u0cc3\u0ca4\u0ccd\u0ca4",
          "operator": "BMTC",
          "public_transport": "stop_position"
        }
      },
      {
        "type": "node",
        "id": 5305932617,
        "lat": 12.9756704,
        "lon": 77.5728057,
        "tags": {
          "alt_name": "Majestic Metro Station",
          "code": "KGWA",
          "layer": "-1",
          "level": "-1",
          "name": "Nadaprabhu Kempegowda Station, Majestic (Purple Line)",
          "name:etymology:wikidata": "Q6387049",
          "name:kn": "\u0c95\u0cc6\u0c82\u0caa\u0cc7\u0c97\u0ccc\u0ca1",
          "network": "Namma Metro",
          "note": "Contributors are requested to not edit the \"network\" and the \"operator\" tags. (2023/11/08)",
          "operator": "Bangalore Metro Rail Corporation Limited",
          "public_transport": "stop_position",
          "public_transport:version": "2",
          "railway": "stop",
          "source": "http://www.bmrc.co.in/English/Network.htm",
          "subway": "yes",
          "wheelchair": "yes"
        }
      },
      {
        "type": "node",
        "id": 5464787094,
        "lat": 12.9750646,
        "lon": 77.5730388,
        "tags": {
          "alt_name": "Majestic Metro Station",
          "code": "KGWA",
          "layer": "-2",
          "level": "-2",
          "name": "Nadaprabhu Kempegowda Station, Majestic (Green Line)",
          "name:etymology:wikidata": "Q6387049",
          "name:kn": "\u0c95\u0cc6\u0c82\u0caa\u0cc7\u0c97\u0ccc\u0ca1",
          "network": "Namma Metro",
          "note": "Contributors are requested to not edit the \"network\" and the \"operator\" tags. (2023/11/08)",
          "operator": "Bangalore Metro Rail Corporation Limited",
          "public_transport": "stop_position",
          "public_transport:version": "2",
          "railway": "stop",
          "source": "http://www.bmrc.co.in/English/Network.htm",
          "subway": "yes",
          "wheelchair": "yes"
        }
      },
      {
        "type": "node",
        "id": 5760197785,
        "lat": 12.9743117,
        "lon": 77.5456197,
        "tags": {
          "code": "HSLI",
          "name": "Sri Balagangadharanatha Swamiji Stn., Hosahalli",
          "name:kn": "\u0cb6\u0ccd\u0cb0\u0cc0 \u0cac\u0cbe\u0cb2\u0c97\u0c82\u0c97\u0cbe\u0ca7\u0cb0\u0ca8\u0cbe\u0ca5 \u0cae\u0cc6\u0c9f\u0ccd\u0cb0\u0ccb",
          "network": "Namma Metro",
          "note": "Contributors are requested to not edit the \"network\" and the \"operator\" tags. (2023/11/08)",
          "operator": "Bangalore Metro Rail Corporation Limited",
          "platforms": "2",
          "public_transport": "stop_position",
          "public_transport:version": "2",
          "railway": "stop",
          "source": "http://www.bmrc.co.in/English/Network.htm",
          "subway": "yes",
          "wheelchair": "yes",
          "wikidata": "Q23838583",
          "wikipedia": "en:Hosahalli metro station"
        }
      },
      {
        "type": "node",
        "id": 5760197786,
        "lat": 12.9756527,
        "lon": 77.5553548,
        "tags": {
          "code": "MIRD",
          "name": "Magadi Road",
          "name:kn": "\u0cae\u0cbe\u0c97\u0ca1\u0cbf \u0cb0\u0cb8\u0ccd\u0ca4\u0cc6",
          "network": "Namma Metro",
          "note": "Contributors are requested to not edit the \"network\" and the \"operator\" tags. (2023/11/08)",
          "operator": "Bangalore Metro Rail Corporation Limited",
          "platforms": "2",
          "public_transport": "stop_position",
          "public_transport:version": "2",
          "railway": "stop",
          "source": "http://www.bmrc.co.in/English/Network.htm",
          "subway": "yes",
          "wheelchair": "yes",
          "wikidata": "Q23838569",
          "wikipedia": "en:Magadi Road metro station"
        }
      },
      {
        "type": "node",
        "id": 5760197788,
        "lat": 12.9759026,
        "lon": 77.5653744,
        "tags": {
          "code": "BRCS",
          "name": "Krantivira Sangolli Rayanna Railway Station",
          "name:kn": "\u0ca8\u0c97\u0cb0 \u0cb0\u0cc8\u0cb2\u0cc1 \u0ca8\u0cbf\u0cb2\u0ccd\u0ca6\u0cbe\u0ca3",
          "network": "Namma Metro",
          "note": "Contributors are requested to not edit the \"network\" and the \"operator\" tags. (2023/11/08)",
          "operator": "Bangalore Metro Rail Corporation Limited",
          "platforms": "2",
          "public_transport": "stop_position",
          "public_transport:version": "2",
          "railway": "stop",
          "source": "http://www.bmrc.co.in/English/Network.htm",
          "subway": "yes",
          "wheelchair": "yes",
          "wikidata": "Q39070950",
          "wikipedia": "en:City Railway Station metro station (Bangalore)"
        }
      },
      {
        "type": "node",
        "id": 5760197800,
        "lat": 12.9757512,
        "lon": 77.5730887,
        "tags": {
          "alt_name": "Majestic Metro Station",
          "code": "KGWA",
          "layer": "-1",
          "level": "-1",
          "name": "Nadaprabhu Kempegowda Station, Majestic (Purple Line)",
          "name:etymology:wikidata": "Q6387049",
          "name:kn": "\u0c95\u0cc6\u0c82\u0caa\u0cc7\u0c97\u0ccc\u0ca1",
          "network": "Namma Metro",
          "note": "Contributors are requested to not edit the \"network\" and the \"operator\" tags. (2023/11/08)",
          "operator": "Bangalore Metro Rail Corporation Limited",
          "public_transport": "stop_position",
          "public_transport:version": "2",
          "railway": "stop",
          "source": "http://www.bmrc.co.in/English/Network.htm",
          "subway": "yes",
          "wheelchair": "yes"
        }
      },
      {
        "type": "node",
        "id": 5760198468,
        "lat": 12.9759557,
        "lon": 77.5728675,
        "tags": {
          "alt_name": "Majestic Metro Station",
          "code": "KGWA",
          "layer": "-2",
          "level": "-2",
          "name": "Nadaprabhu Kempegowda Station, Majestic (Green Line)",
          "name:etymology:wikidata": "Q6387049",
          "name:kn": "\u0c95\u0cc6\u0c82\u0caa\u0cc7\u0c97\u0ccc\u0ca1",
          "network": "Namma Metro",
          "note": "Contributors are requested to not edit the \"network\" and the \"operator\" tags. (2023/11/08)",
          "operator": "Bangalore Metro Rail Corporation Limited",
          "public_transport": "stop_position",
          "public_transport:version": "2",
          "railway": "stop",
          "source": "http://www.bmrc.co.in/English/Network.htm",
          "subway": "yes",
          "wheelchair": "yes"
        }
      },
      {
        "type": "node",
        "id": 5760198469,
        "lat": 12.9669249,
        "lon": 77.5745314,
        "tags": {
          "code": "CKPE",
          "name": "Chickpete",
          "name:hi": "\u091a\u093f\u0915\u092a\u0947\u091f\u0947",
          "name:kn": "\u0c9a\u0cbf\u0c95\u0ccd\u0c95\u0caa\u0cc7\u0c9f\u0cc6",
          "network": "Namma Metro",
          "note": "Contributors are requested to not edit the \"network\" and the \"operator\" tags. (2023/11/08)",
          "operator": "Bangalore Metro Rail Corporation Limited",
          "public_transport": "stop_position",
          "public_transport:version": "2",
          "railway": "stop",
          "source": "http://www.bmrc.co.in/English/Network.htm",
          "subway": "yes",
          "wheelchair": "yes"
        }
      },
      {
        "type": "node",
        "id": 5760198623,
        "lat": 12.9904282,
        "lon": 77.5706929,
        "tags": {
          "alt_name": "Swastik",
          "code": "SPGD",
          "name": "Mantri Square Sampige Road",
          "name:kn": "\u0cae\u0c82\u0ca4\u0ccd\u0cb0\u0cbf \u0cb8\u0ccd\u0c95\u0ccd\u0cb5\u0cc7\u0cb0\u0ccd \u0cb8\u0c82\u0caa\u0cbf\u0c97\u0cc6 \u0cb0\u0cb8\u0ccd\u0ca4\u0cc6",
          "network": "Namma Metro",
          "note": "Contributors are requested to not edit the \"network\" and the \"operator\" tags. (2023/11/08)",
          "operator": "Bangalore Metro Rail Corporation Limited",
          "public_transport": "stop_position",
          "public_transport:version": "2",
          "railway": "stop",
          "source": "http://www.bmrc.co.in/English/Network.htm",
          "subway": "yes",
          "wheelchair": "yes",
          "wikidata": "Q17088462",
          "wikipedia": "en:Sampige Road metro station"
        }
      },
      {
        "type": "node",
        "id": 5760198624,
        "lat": 12.9965408,
        "lon": 77.5633115,
        "tags": {
          "code": "SPRU",
          "name": "Srirampura",
          "name:hi": "\u0936\u094d\u0930\u0940\u0930\u093e\u092e\u092a\u0941\u0930\u093e",
          "name:kn": "\u0cb6\u0ccd\u0cb0\u0cc0\u0cb0\u0cbe\u0cae\u0caa\u0cc1\u0cb0",
          "network": "Namma Metro",
          "note": "Contributors are requested to not edit the \"network\" and the \"operator\" tags. (2023/11/08)",
          "operator": "Bangalore Metro Rail Corporation Limited",
          "public_transport": "stop_position",
          "public_transport:version": "2",
          "railway": "stop",
          "source": "http://www.bmrc.co.in/English/Network.htm",
          "subway": "yes",
          "wheelchair": "yes",
          "wikidata": "Q17100145",
          "wikipedia": "en:Srirampura metro station"
        }
      },
      {
        "type": "node",
        "id": 5760198631,
        "lat": 12.9984697,
        "lon": 77.5568746,
        "tags": {
          "code": "KVPR",
          "name": "Mahakavi Kuvempu Road",
          "name:etymology:wikidata": "Q3351108",
          "name:kn": "\u0cae\u0cb9\u0cbe\u0c95\u0cb5\u0cbf \u0c95\u0cc1\u0cb5\u0cc6\u0c82\u0caa\u0cc1 \u0cb0\u0cb8\u0ccd\u0ca4\u0cc6",
          "network": "Namma Metro",
          "note": "Contributors are requested to not edit the \"network\" and the \"operator\" tags. (2023/11/08)",
          "operator": "Bangalore Metro Rail Corporation Limited",
          "public_transport": "stop_position",
          "public_transport:version": "2",
          "railway": "stop",
          "short_name": "MKK Road",
          "source": "http://www.bmrc.co.in/English/Network.htm",
          "subway": "yes",
          "wheelchair": "yes",
          "wikidata": "Q17068244",
          "wikipedia": "en:Kuvempu Road metro station"
        }
      },
      {
        "type": "node",
        "id": 5760198632,
        "lat": 13.0005232,
        "lon": 77.5496166,
        "tags": {
          "code": "RJNR",
          "layer": "2",
          "level": "2",
          "name": "Rajajinagar",
          "name:hi": "\u0930\u093e\u091c\u093e\u091c\u0940\u0928\u0917\u0930",
          "name:kn": "\u0cb0\u0cbe\u0c9c\u0cbe\u0c9c\u0cbf\u0ca8\u0c97\u0cb0",
          "network": "Namma Metro",
          "note": "Contributors are requested to not edit the \"network\" and the \"operator\" tags. (2023/11/08)",
          "operator": "Bangalore Metro Rail Corporation Limited",
          "public_transport": "stop_position",
          "public_transport:version": "2",
          "railway": "stop",
          "source": "http://www.bmrc.co.in/English/Network.htm",
          "subway": "yes",
          "wheelchair": "yes",
          "wikidata": "Q17085511",
          "wikipedia": "en:Rajajinagar metro station"
        }
      },
      {
        "type": "node",
        "id": 5960788726,
        "lat": 12.9965253,
        "lon": 77.5631963,
        "tags": {
          "code": "SPRU",
          "lit": "yes",
          "name": "Srirampura",
          "name:hi": "\u0936\u094d\u0930\u0940\u0930\u093e\u092e\u092a\u0941\u0930\u093e",
          "name:kn": "\u0cb6\u0ccd\u0cb0\u0cc0\u0cb0\u0cbe\u0cae\u0caa\u0cc1\u0cb0",
          "name:ml": "\u0d36\u0d4d\u0d30\u0d40\u0d30\u0d3e\u0d02\u0d2a\u0d41\u0d30",
          "name:ta": "\u0bb8\u0bcd\u0bb0\u0bc0\u0bb0\u0bbe\u0bae\u0bcd\u0baa\u0bc1\u0bb0\u0bbe",
          "network": "Namma Metro",
          "network:wikidata": "Q279343",
          "note": "Contributors are requested to not edit the \"network\" and the \"operator\" tags. (2023/11/08)",
          "operator": "Bangalore Metro Rail Corporation Limited",
          "public_transport": "station",
          "public_transport:version": "2",
          "railway": "station",
          "shelter": "yes",
          "station": "subway",
          "subway": "yes",
          "website": "https://english.brmc.co.in",
          "wheelchair": "yes"
        }
      },
      {
        "type": "node",
        "id": 6095308677,
        "lat": 12.9784514,
        "lon": 77.5717616,
        "tags": {
          "bus": "yes",
          "name": "Platform 19D",
          "operator": "BMTC",
          "public_transport": "stop_position"
        }
      },
      {
        "type": "node",
        "id": 6342882646,
        "lat": 12.99797,
        "lon": 77.5516362,
        "tags": {
          "bus": "yes",
          "name": "Navarang Theatre",
          "name:kn": "\u0ca8\u0cb5\u0cb0\u0c82\u0c97 \u0c9a\u0cbf\u0ca4\u0ccd\u0cb0\u0cae\u0c82\u0ca6\u0cbf\u0cb0",
          "network": "BMTC",
          "operator": "BMTC",
          "public_transport": "stop_position"
        }
      },
      {
        "type": "node",
        "id": 6342882647,
        "lat": 12.9975227,
        "lon": 77.5489437,
        "tags": {
          "bus": "yes",
          "local_ref": "RAJAJINAGARA",
          "name": "Navarang Theatre",
          "name:kn": "\u0ca8\u0cb5\u0cb0\u0c82\u0c97 \u0c9a\u0cbf\u0ca4\u0ccd\u0cb0\u0cae\u0c82\u0ca6\u0cbf\u0cb0",
          "network": "BMTC",
          "operator": "BMTC",
          "public_transport": "stop_position"
        }
      },
      {
        "type": "node",
        "id": 6342882648,
        "lat": 12.9971317,
        "lon": 77.5536245,
        "tags": {
          "bus": "yes",
          "name": "Navarang Theatre",
          "name:kn": "\u0ca8\u0cb5\u0cb0\u0c82\u0c97 \u0c9a\u0cbf\u0ca4\u0ccd\u0cb0\u0cae\u0c82\u0ca6\u0cbf\u0cb0",
          "network": "BMTC",
          "operator": "BMTC",
          "public_transport": "stop_position"
        }
      },
      {
        "type": "node",
        "id": 6342882650,
        "lat": 12.9994242,
        "lon": 77.5498266,
        "tags": {
          "bus": "yes",
          "name": "Navarang Theatre",
          "name:kn": "\u0ca8\u0cb5\u0cb0\u0c82\u0c97 \u0c9a\u0cbf\u0ca4\u0ccd\u0cb0\u0cae\u0c82\u0ca6\u0cbf\u0cb0",
          "network": "BMTC",
          "operator": "BMTC",
          "public_transport": "stop_position"
        }
      },
      {
        "type": "node",
        "id": 6342882651,
        "lat": 12.9958322,
        "lon": 77.5507306,
        "tags": {
          "bus": "yes",
          "name": "Manjunatha Nagara",
          "name:kn": "\u0cae\u0c82\u0c9c\u0cc1\u0ca8\u0cbe\u0ca5 \u0ca8\u0c97\u0cb0",
          "network": "BMTC",
          "operator": "BMTC",
          "public_transport": "stop_position"
        }
      },
      {
        "type": "node",
        "id": 6342882652,
        "lat": 12.9956085,
        "lon": 77.5506983,
        "tags": {
          "bus": "yes",
          "name": "Manjunatha Nagara",
          "name:kn": "\u0cae\u0c82\u0c9c\u0cc1\u0ca8\u0cbe\u0ca5 \u0ca8\u0c97\u0cb0",
          "network": "BMTC",
          "operator": "BMTC",
          "public_transport": "stop_position"
        }
      },
      {
        "type": "node",
        "id": 6342915005,
        "lat": 12.9943801,
        "lon": 77.5527036,
        "tags": {
          "bus": "yes",
          "name": "Basaveshwara College",
          "name:kn": "\u0cac\u0cb8\u0cb5\u0cc7\u0cb6\u0ccd\u0cb5\u0cb0 \u0c95\u0cbe\u0cb2\u0cc7\u0c9c\u0cc1",
          "network": "BMTC",
          "operator": "BMTC",
          "public_transport": "stop_position"
        }
      },
      {
        "type": "node",
        "id": 6345481226,
        "lat": 12.9911754,
        "lon": 77.5525396,
        "tags": {
          "bus": "yes",
          "name": "ESI Hospital Rajajinagara (Towards Navarang)",
          "network": "BMTC",
          "operator": "BMTC",
          "public_transport": "stop_position"
        }
      },
      {
        "type": "node",
        "id": 6345520795,
        "lat": 12.9915725,
        "lon": 77.5525504,
        "tags": {
          "bus": "yes",
          "name": "ESI Hospital Rajajinagara (Towards Old Police Station)",
          "network": "BMTC",
          "operator": "BMTC",
          "public_transport": "stop_position"
        }
      },
      {
        "type": "node",
        "id": 6345534243,
        "lat": 12.9916467,
        "lon": 77.5508978,
        "tags": {
          "bus": "yes",
          "name": "ESI Hospital Rajajinagara (towards Yashawanthapura)",
          "network": "BMTC",
          "operator": "BMTC",
          "public_transport": "stop_position"
        }
      },
      {
        "type": "node",
        "id": 6347562414,
        "lat": 12.9985461,
        "lon": 77.5564611,
        "tags": {
          "bus": "yes",
          "name": "Mariyappanapalya",
          "name:kn": "\u0cae\u0cb0\u0cbf\u0caf\u0caa\u0ccd\u0caa\u0ca8\u0caa\u0cbe\u0cb3\u0ccd\u0caf",
          "network": "BMTC",
          "operator": "BMTC",
          "public_transport": "stop_position"
        }
      },
      {
        "type": "node",
        "id": 6347562415,
        "lat": 12.9986797,
        "lon": 77.5563292,
        "tags": {
          "bus": "yes",
          "name": "Mariyappanapalya",
          "name:kn": "\u0cae\u0cb0\u0cbf\u0caf\u0caa\u0ccd\u0caa\u0ca8\u0caa\u0cbe\u0cb3\u0ccd\u0caf",
          "network": "BMTC",
          "operator": "BMTC",
          "public_transport": "stop_position"
        }
      },
      {
        "type": "node",
        "id": 6347562416,
        "lat": 12.9960617,
        "lon": 77.5514458,
        "tags": {
          "bus": "yes",
          "name": "2nd Block Rajajinagara",
          "name:kn": "\u0ce8\u0ca8\u0cc7 \u0cb9\u0c82\u0ca4 \u0cb0\u0cbe\u0c9c\u0c9c\u0cbf\u0ca8\u0c97\u0cb0",
          "network": "BMTC",
          "operator": "BMTC",
          "public_transport": "stop_position"
        }
      },
      {
        "type": "node",
        "id": 6347562418,
        "lat": 12.997504,
        "lon": 77.5460945,
        "tags": {
          "bus": "yes",
          "name": "Modi Hospital",
          "name:kn": "\u0cae\u0ccb\u0ca6\u0cbf \u0c86\u0cb8\u0ccd\u0caa\u0ca4\u0ccd\u0cb0\u0cc6",
          "network": "BMTC",
          "operator": "BMTC",
          "public_transport": "stop_position"
        }
      },
      {
        "type": "node",
        "id": 6347562420,
        "lat": 13.0008811,
        "lon": 77.5504807,
        "tags": {
          "brand": "Canara Bank",
          "brand:pa": "\u0a15\u0a47\u0a28\u0a30\u0a3e \u0a2c\u0a48\u0a02\u0a15",
          "brand:ur": "\u06a9\u06cc\u0646\u0631\u0627 \u0628\u06cc\u0646\u06a9",
          "brand:wikidata": "Q2003777",
          "brand:wikipedia": "en:Canara Bank",
          "brand:wikipedia:pa": "\u0a15\u0a47\u0a28\u0a30\u0a3e \u0a2c\u0a48\u0a02\u0a15",
          "bus": "yes",
          "name": "Canara Bank",
          "name:kn": "\u0c95\u0cc6\u0ca8\u0cb0\u0cbe \u0cac\u0ccd\u0caf\u0cbe\u0c82\u0c95\u0ccd",
          "name:pa": "\u0a15\u0a47\u0a28\u0a30\u0a3e \u0a2c\u0a48\u0a02\u0a15",
          "name:ur": "\u06a9\u06cc\u0646\u0631\u0627 \u0628\u06cc\u0646\u06a9",
          "network": "BMTC",
          "public_transport": "stop_position"
        }
      },
      {
        "type": "node",
        "id": 6347562421,
        "lat": 12.9897558,
        "lon": 77.5506634,
        "tags": {
          "bus": "yes",
          "name": "ESI Hospital (towards Vijayanagara)",
          "network": "BMTC",
          "operator": "BMTC",
          "public_transport": "stop_position"
        }
      },
      {
        "type": "node",
        "id": 6347624110,
        "lat": 12.986105,
        "lon": 77.5563836,
        "tags": {
          "bus": "yes",
          "name": "Rama Mandira Rajajinagara",
          "name:kn": "\u0cb0\u0cbe\u0cae\u0cae\u0c82\u0ca6\u0cbf\u0cb0",
          "network": "BMTC",
          "operator": "BMTC",
          "public_transport": "stop_position"
        }
      },
      {
        "type": "node",
        "id": 6347624111,
        "lat": 12.9866499,
        "lon": 77.5497264,
        "tags": {
          "bus": "yes",
          "name": "Dhobi Ghat Rajajinagara",
          "name:en": "Dhobi Ghat Rajajinagara",
          "network": "BMTC",
          "operator": "BMTC",
          "public_transport": "stop_position"
        }
      },
      {
        "type": "node",
        "id": 6347624113,
        "lat": 12.9855619,
        "lon": 77.5491096,
        "tags": {
          "bus": "yes",
          "name": "Dhobi Ghat Rajajinagara",
          "name:en": "Dhobi Ghat Rajajinagara",
          "network": "BMTC",
          "operator": "BMTC",
          "public_transport": "stop_position"
        }
      },
      {
        "type": "node",
        "id": 6347624115,
        "lat": 12.9876702,
        "lon": 77.5511003,
        "tags": {
          "bus": "yes",
          "name": "Dhobi Ghat Rajajinagara",
          "name:en": "Dhobi Ghat Rajajinagara",
          "network": "BMTC",
          "operator": "BMTC",
          "public_transport": "stop_position"
        }
      },
      {
        "type": "node",
        "id": 6347624116,
        "lat": 12.9871177,
        "lon": 77.5508625,
        "tags": {
          "bus": "yes",
          "name": "Dhobi Ghat Rajajinagara",
          "name:en": "Dhobi Ghat Rajajinagara",
          "network": "BMTC",
          "operator": "BMTC",
          "public_transport": "stop_position"
        }
      },
      {
        "type": "node",
        "id": 6347624118,
        "lat": 12.9889458,
        "lon": 77.546862,
        "tags": {
          "alt_name": "Kunniladi",
          "bus": "yes",
          "name": "Shivanahalli 4th Main",
          "network": "BMTC",
          "operator": "BMTC",
          "public_transport": "stop_position"
        }
      },
      {
        "type": "node",
        "id": 6347624120,
        "lat": 12.9913642,
        "lon": 77.546065,
        "tags": {
          "bus": "yes",
          "name": "Pushpanjali Talkies",
          "name:kn": "\u0caa\u0cc1\u0cb7\u0ccd\u0caa\u0cbe\u0c82\u0c9c\u0cb2\u0cbf",
          "network": "BMTC",
          "operator": "BMTC",
          "public_transport": "stop_position"
        }
      },
      {
        "type": "node",
        "id": 6347624123,
        "lat": 12.9910966,
        "lon": 77.5577555,
        "tags": {
          "bus": "yes",
          "name": "Navarang Bar",
          "network": "BMTC",
          "operator": "BMTC",
          "public_transport": "stop_position"
        }
      },
      {
        "type": "node",
        "id": 6347624125,
        "lat": 12.9899301,
        "lon": 77.5551042,
        "tags": {
          "bus": "yes",
          "name": "Old Police Station",
          "name:kn": "\u0cb9\u0cb3\u0cc6 \u0c86\u0cb0\u0c95\u0ccd\u0cb7\u0c95 \u0ca0\u0cbe\u0ca3\u0cc6",
          "network": "BMTC",
          "operator": "BMTC",
          "public_transport": "stop_position"
        }
      },
      {
        "type": "node",
        "id": 6347624126,
        "lat": 12.9893348,
        "lon": 77.5543801,
        "tags": {
          "bus": "yes",
          "name": "Old Police Station Rajajinagara",
          "network": "BMTC",
          "operator": "BMTC",
          "public_transport": "stop_position"
        }
      },
      {
        "type": "node",
        "id": 6347654322,
        "lat": 13.0034192,
        "lon": 77.5535855,
        "tags": {
          "bus": "yes",
          "name": "Police Station Subramanyanagara",
          "name:kn": "\u0cb8\u0cc1\u0cac\u0ccd\u0cb0\u0cae\u0ca3\u0ccd\u0caf\u0ca8\u0c97\u0cb0 \u0c86\u0cb0\u0c95\u0ccd\u0cb7\u0c95 \u0ca0\u0cbe\u0ca3\u0cc6",
          "network": "BMTC",
          "operator": "BMTC",
          "public_transport": "stop_position"
        }
      },
      {
        "type": "node",
        "id": 6400857558,
        "lat": 12.9757079,
        "lon": 77.5728757,
        "tags": {
          "alt_name": "Majestic Metro Station",
          "code": "KGWA",
          "level": "-2;-1;0",
          "name": "Nadaprabhu Kempegowda Station, Majestic",
          "name:etymology:wikidata": "Q6387049",
          "name:kn": "\u0ca8\u0cbe\u0ca1\u0caa\u0ccd\u0cb0\u0cad\u0cc1 \u0c95\u0cc6\u0c82\u0caa\u0cc7\u0c97\u0ccc\u0ca1 \u0ca8\u0cbf\u0cb2\u0ccd\u0ca6\u0cbe\u0ca3, \u0cae\u0cc6\u0c9c\u0cc6\u0cb8\u0ccd\u0c9f\u0cbf\u0c95\u0ccd",
          "name:ml": "\u0d28\u0d3e\u0d1f\u0d2a\u0d4d\u0d30\u0d2d\u0d41 \u0d15\u0d46\u0d2e\u0d4d\u0d2a\u0d17\u0d57\u0d21 \u0d38\u0d4d\u0d31\u0d4d\u0d31\u0d47\u0d37\u0d7b, \u0d2e\u0d1c\u0d38\u0d4d\u0d31\u0d4d\u0d31\u0d3f\u0d15\u0d4d",
          "name:ta": "\u0ba8\u0bbe\u0b9f\u0baa\u0bcd\u0baa\u0bbf\u0bb0\u0baa\u0bc1 \u0b95\u0bc6\u0bae\u0bcd\u0baa\u0bc7\u0b95\u0bb5\u0bc1\u0b9f\u0bbe \u0bae\u0bc6\u0b9c\u0bb8\u0bcd\u0b9f\u0bbf\u0b95\u0bcd",
          "network": "Namma Metro",
          "note": "Contributors are requested to not edit the \"network\" and the \"operator\" tags. (2023/11/08)",
          "operator": "Bangalore Metro Rail Corporation Limited",
          "public_transport": "station",
          "public_transport:version": "2",
          "railway": "station",
          "shelter": "yes",
          "station": "subway",
          "subway": "yes",
          "website": "https://english.brmc.co.in",
          "wheelchair": "yes",
          "wikidata": "Q6737727",
          "wikipedia": "en:Majestic metro station"
        }
      },
      {
        "type": "node",
        "id": 6400857559,
        "lat": 12.9758768,
        "lon": 77.5653767,
        "tags": {
          "code": "BRCS",
          "name": "Krantivira Sangolli Rayanna Railway Station",
          "name:kn": "\u0c95\u0ccd\u0cb0\u0cbe\u0c82\u0ca4\u0cbf\u0cb5\u0cc0\u0cb0 \u0cb8\u0c82\u0c97\u0cca\u0cb3\u0ccd\u0cb3\u0cbf \u0cb0\u0cbe\u0caf\u0ca3\u0ccd\u0ca3",
          "name:ml": "\u0d15\u0d4d\u0d30\u0d3e\u0d28\u0d4d\u0d24\u0d3f\u0d35\u0d40\u0d30 \u0d38\u0d19\u0d4d\u0d15\u0d4a\u0d32\u0d4d\u0d32\u0d3f \u0d30\u0d3e\u0d2f\u0d23\u0d4d\u0d23",
          "network": "Namma Metro",
          "note": "Contributors are requested to not edit the \"network\" and the \"operator\" tags. (2023/11/08)",
          "operator": "Bangalore Metro Rail Corporation Limited",
          "public_transport": "station",
          "public_transport:version": "2",
          "railway": "station",
          "shelter": "yes",
          "station": "subway",
          "subway": "yes",
          "website": "https://english.brmc.co.in",
          "wheelchair": "yes"
        }
      },
      {
        "type": "node",
        "id": 6400857560,
        "lat": 12.975632,
        "lon": 77.5553523,
        "tags": {
          "code": "MIRD",
          "name": "Magadi Road",
          "name:kn": "\u0cae\u0cbe\u0c97\u0ca1\u0cbf \u0cb0\u0cb8\u0ccd\u0ca4\u0cc6 \u0cae\u0cc6\u0c9f\u0ccd\u0cb0\u0cca",
          "name:ml": "\u0d2e\u0d3e\u0d17\u0d21\u0d3f \u0d31\u0d4b\u0d21\u0d4d",
          "network": "Namma Metro",
          "network:wikidata": "Q279343",
          "note": "Contributors are requested to not edit the \"network\" and the \"operator\" tags. (2023/11/08)",
          "operator": "Bangalore Metro Rail Corporation Limited",
          "public_transport": "station",
          "public_transport:version": "2",
          "railway": "station",
          "shelter": "yes",
          "station": "subway",
          "subway": "yes",
          "website": "https://english.brmc.co.in",
          "wheelchair": "yes"
        }
      },
      {
        "type": "node",
        "id": 6400857561,
        "lat": 12.9742933,
        "lon": 77.5456215,
        "tags": {
          "code": "HSLI",
          "name": "Sri Balagangadharanatha Swamiji Station, Hosahalli",
          "name:kn": "\u0cb6\u0ccd\u0cb0\u0cc0 \u0cac\u0cbe\u0cb2\u0c97\u0c82\u0c97\u0cbe\u0ca7\u0cb0\u0ca8\u0cbe\u0ca5 \u0cae\u0cc6\u0c9f\u0ccd\u0cb0\u0ccb",
          "name:ml": "\u0d36\u0d4d\u0d30\u0d40 \u0d2c\u0d3e\u0d32\u0d17\u0d02\u0d17\u0d3e\u0d27\u0d30\u0d28\u0d3e\u0d25 \u0d38\u0d4d\u0d35\u0d3e\u0d2e\u0d3f, \u0d39\u0d4a\u0d38\u0d39\u0d33\u0d4d\u0d33\u0d3f",
          "network": "Namma Metro",
          "network:wikidata": "Q279343",
          "note": "Contributors are requested to not edit the \"network\" and the \"operator\" tags. (2023/11/08)",
          "operator": "Bangalore Metro Rail Corporation Limited",
          "public_transport": "station",
          "public_transport:version": "2",
          "railway": "station",
          "shelter": "yes",
          "station": "subway",
          "subway": "yes",
          "website": "https://english.brmc.co.in",
          "wheelchair": "yes"
        }
      },
      {
        "type": "node",
        "id": 6410706688,
        "lat": 12.9904629,
        "lon": 77.5707293,
        "tags": {
          "code": "SPGD",
          "name": "Mantri Square Sampige Road",
          "name:kn": "\u0cae\u0c82\u0ca4\u0ccd\u0cb0\u0cbf \u0cb8\u0ccd\u0c95\u0ccd\u0cb5\u0cc7\u0cb0\u0ccd \u0cb8\u0c82\u0caa\u0cbf\u0c97\u0cc6 \u0cb0\u0cb8\u0ccd\u0ca4\u0cc6",
          "name:ml": "\u0d2e\u0d28\u0d4d\u0d24\u0d4d\u0d30\u0d3f \u0d38\u0d4d\u0d15\u0d4d\u0d35\u0d2f\u0d7c \u0d38\u0d2e\u0d4d\u0d2a\u0d3f\u0d17\u0d46 \u0d31\u0d4b\u0d21\u0d4d",
          "network": "Namma Metro",
          "network:wikidata": "Q279343",
          "note": "Contributors are requested to not edit the \"network\" and the \"operator\" tags. (2023/11/08)",
          "operator": "Bangalore Metro Rail Corporation Limited",
          "public_transport": "station",
          "public_transport:version": "2",
          "railway": "station",
          "shelter": "yes",
          "station": "subway",
          "subway": "yes",
          "website": "https://english.brmc.co.in",
          "wheelchair": "yes"
        }
      },
      {
        "type": "node",
        "id": 6410706689,
        "lat": 12.9985297,
        "lon": 77.5568986,
        "tags": {
          "code": "KVPR",
          "name": "Mahakavi Kuvempu Road",
          "name:etymology:wikidata": "Q3351108",
          "name:kn": "\u0cae\u0cb9\u0cbe\u0c95\u0cb5\u0cbf \u0c95\u0cc1\u0cb5\u0cc6\u0c82\u0caa\u0cc1 \u0cb0\u0cb8\u0ccd\u0ca4\u0cc6",
          "name:ml": "\u0d2e\u0d39\u0d3e\u0d15\u0d35\u0d3f \u0d15\u0d41\u0d35\u0d46\u0d2e\u0d4d\u0d2a\u0d41 \u0d31\u0d4b\u0d21\u0d4d",
          "name:ta": "\u0bae\u0b95\u0bbe\u0b95\u0bb5\u0bbf \u0b95\u0bc1\u0bb5\u0bc7\u0bae\u0bcd\u0baa\u0bc1 \u0b9a\u0bbe\u0bb2\u0bc8",
          "network": "Namma Metro",
          "network:wikidata": "Q279343",
          "note": "Contributors are requested to not edit the \"network\" and the \"operator\" tags. (2023/11/08)",
          "operator": "Bangalore Metro Rail Corporation Limited",
          "public_transport": "station",
          "public_transport:version": "2",
          "railway": "station",
          "shelter": "yes",
          "short_name": "MKK Road",
          "station": "subway",
          "subway": "yes",
          "website": "https://english.brmc.co.in",
          "wheelchair": "yes"
        }
      },
      {
        "type": "node",
        "id": 6410706690,
        "lat": 13.0005247,
        "lon": 77.5496568,
        "tags": {
          "code": "RJNR",
          "name": "Rajajinagar",
          "name:hi": "\u0930\u093e\u091c\u093e\u091c\u0940\u0928\u0917\u0930",
          "name:kn": "\u0cb0\u0cbe\u0c9c\u0cbe\u0c9c\u0cbf\u0ca8\u0c97\u0cb0",
          "name:ml": "\u0d30\u0d3e\u0d1c\u0d3e\u0d1c\u0d3f\u0d28\u0d17\u0d7c",
          "name:ta": "\u0bb0\u0bbe\u0b9c\u0bbe\u0b9c\u0bbf \u0ba8\u0b95\u0bb0\u0bcd",
          "network": "Namma Metro",
          "note": "Contributors are requested to not edit the \"network\" and the \"operator\" tags. (2023/11/08)",
          "operator": "Bangalore Metro Rail Corporation Limited",
          "public_transport": "station",
          "public_transport:version": "2",
          "railway": "station",
          "shelter": "yes",
          "station": "subway",
          "subway": "yes",
          "website": "https://english.brmc.co.in",
          "wheelchair": "yes"
        }
      },
      {
        "type": "node",
        "id": 6432710301,
        "lat": 12.9668974,
        "lon": 77.5745566,
        "tags": {
          "code": "CKPE",
          "lit": "yes",
          "name": "Chickpete",
          "name:hi": "\u091a\u093f\u0915\u092a\u0947\u091f\u0947",
          "name:kn": "\u0c9a\u0cbf\u0c95\u0ccd\u0c95\u0caa\u0cc7\u0c9f\u0cc6",
          "name:ml": "\u0d1a\u0d3f\u0d15\u0d4d\u0d15\u0d2a\u0d4d\u0d2a\u0d47\u0d1f\u0d4d\u0d1f",
          "name:ta": "\u0b9a\u0bbf\u0b95\u0bcd\u0b95\u0baa\u0bc7\u0b9f\u0bcd\u0b9f\u0bc7",
          "network": "Namma Metro",
          "note": "Contributors are requested to not edit the \"network\" and the \"operator\" tags. (2023/11/08)",
          "operator": "Bangalore Metro Rail Corporation Limited",
          "public_transport": "station",
          "public_transport:version": "2",
          "railway": "station",
          "shelter": "yes",
          "station": "subway",
          "subway": "yes",
          "tunnel": "yes",
          "website": "https://english.brmc.co.in",
          "wheelchair": "yes"
        }
      },
      {
        "type": "node",
        "id": 7093027176,
        "lat": 12.9847107,
        "lon": 77.5541736,
        "tags": {
          "bus": "yes",
          "name": "Bashyam Circle",
          "name:en": "Bashyam Circle",
          "name:kn": "\u0cac\u0cbe\u0cb7\u0ccd\u0caf\u0c82 \u0cb5\u0cc3\u0ca4\u0ccd\u0ca4",
          "network": "BMTC",
          "operator": "BMTC",
          "public_transport": "stop_position"
        }
      },
      {
        "type": "node",
        "id": 7093027177,
        "lat": 12.9793989,
        "lon": 77.5535754,
        "tags": {
          "bus": "yes",
          "name": "6th Block Rajajinagara",
          "name:en": "6th Block Rajajinagara",
          "name:kn": "\u0cb0\u0cbe\u0c9c\u0cbe\u0c9c\u0cbf\u0ca8\u0c97\u0cb0 \u0cec\u0ca8\u0cc7 \u0cac\u0ccd\u0cb2\u0cbe\u0c95\u0ccd",
          "network": "BMTC",
          "operator": "BMTC",
          "public_transport": "stop_position"
        }
      },
      {
        "type": "node",
        "id": 7093027178,
        "lat": 12.9760801,
        "lon": 77.5525392,
        "tags": {
          "bus": "yes",
          "name": "Prasanna Theatre",
          "name:en": "Prasanna Theatre",
          "name:kn": "\u0caa\u0ccd\u0cb0\u0cb8\u0ca8\u0ccd\u0ca8 \u0c9a\u0cbf\u0ca4\u0ccd\u0cb0\u0cae\u0c82\u0ca6\u0cbf\u0cb0",
          "network": "BMTC",
          "operator": "BMTC",
          "public_transport": "stop_position"
        }
      },
      {
        "type": "node",
        "id": 7093027179,
        "lat": 12.975596,
        "lon": 77.5564839,
        "tags": {
          "bus": "yes",
          "name": "10th Cross Magadi Road",
          "name:en": "10th Cross Magadi Road",
          "name:kn": "\u0cae\u0cbe\u0c97\u0ca1\u0cbf \u0cb0\u0cb8\u0ccd\u0ca4\u0cc6 \u0ce7\u0ce6\u0ca8\u0cc7 \u0c85\u0ca1\u0ccd\u0ca1",
          "network": "BMTC",
          "operator": "BMTC",
          "public_transport": "stop_position"
        }
      },
      {
        "type": "node",
        "id": 7093027180,
        "lat": 12.975699,
        "lon": 77.5603955,
        "tags": {
          "bus": "yes",
          "name": "5th Cross Magadi Road",
          "name:en": "5th Cross Magadi Road",
          "name:kn": "\u0cae\u0cbe\u0c97\u0ca1\u0cbf \u0cb0\u0cb8\u0ccd\u0ca4\u0cc6 \u0ceb\u0ca8\u0cc7 \u0c85\u0ca1\u0ccd\u0ca1",
          "network": "BMTC",
          "operator": "BMTC",
          "public_transport": "stop_position"
        }
      },
      {
        "type": "node",
        "id": 7093027181,
        "lat": 12.975765,
        "lon": 77.5638338,
        "tags": {
          "bus": "yes",
          "name": "1st Cross Magadi Road",
          "name:en": "1st Cross Magadi Road",
          "name:kn": "\u0cae\u0cbe\u0c97\u0ca1\u0cbf \u0cb0\u0cb8\u0ccd\u0ca4\u0cc6 \u0ce7\u0ca8\u0cc7 \u0c85\u0ca1\u0ccd\u0ca1",
          "network": "BMTC",
          "operator": "BMTC",
          "public_transport": "stop_position"
        }
      },
      {
        "type": "node",
        "id": 7093027182,
        "lat": 12.9705248,
        "lon": 77.5662977,
        "tags": {
          "bus": "yes",
          "name": "Binny Mill",
          "name:en": "Binny Mill",
          "name:kn": "\u0cac\u0cbf\u0ca8\u0ccd\u0ca8\u0cbf \u0cae\u0cbf\u0cb2\u0ccd\u0cb8\u0ccd",
          "network": "BMTC",
          "operator": "BMTC",
          "public_transport": "stop_position"
        }
      },
      {
        "type": "node",
        "id": 7093073085,
        "lat": 12.9643384,
        "lon": 77.5615155,
        "tags": {
          "bus": "yes",
          "name": "Binnypet",
          "name:en": "Binnypet",
          "name:kn": "\u0cac\u0cbf\u0ca8\u0ccd\u0ca8\u0caa\u0cc7\u0c9f\u0cc6",
          "network": "BMTC",
          "operator": "BMTC",
          "public_transport": "stop_position"
        }
      },
      {
        "type": "node",
        "id": 7104383863,
        "lat": 13.0040737,
        "lon": 77.5536459,
        "tags": {
          "bus": "yes",
          "name": "Police Station Subramanyanagara",
          "name:kn": "\u0cb8\u0cc1\u0cac\u0ccd\u0cb0\u0cae\u0ca3\u0ccd\u0caf\u0ca8\u0c97\u0cb0 \u0c86\u0cb0\u0c95\u0ccd\u0cb7\u0c95 \u0ca0\u0cbe\u0ca3\u0cc6",
          "network": "BMTC",
          "operator": "BMTC",
          "public_transport": "stop_position"
        }
      },
      {
        "type": "node",
        "id": 7104861389,
        "lat": 12.9829933,
        "lon": 77.5765385,
        "tags": {
          "bus": "yes",
          "name": "KPCC Office",
          "name:en": "KPCC Office",
          "network": "BMTC",
          "operator": "BMTC",
          "public_transport": "stop_position"
        }
      },
      {
        "type": "node",
        "id": 7104861405,
        "lat": 12.9877439,
        "lon": 77.5804978,
        "tags": {
          "bus": "yes",
          "name": "Shivananda Stores",
          "name:en": "Shivananda Stores",
          "network": "BMTC",
          "operator": "BMTC",
          "public_transport": "stop_position"
        }
      },
      {
        "type": "node",
        "id": 7105069831,
        "lat": 12.9802218,
        "lon": 77.5716716,
        "tags": {
          "bus": "yes",
          "name": "Khodays Circle",
          "name:en": "Khodays Circle",
          "name:kn": "\u0c96\u0ccb\u0ca1\u0cc6 \u0cb5\u0cc3\u0ca4\u0ccd\u0ca4",
          "network": "BMTC",
          "operator": "BMTC",
          "public_transport": "stop_position"
        }
      },
      {
        "type": "node",
        "id": 7105069833,
        "lat": 12.9872306,
        "lon": 77.5676565,
        "tags": {
          "bus": "yes",
          "name": "Bashyam Nagara Okalipuram",
          "name:en": "Bashyam Nagara Okalipuram",
          "network": "BMTC",
          "operator": "BMTC",
          "public_transport": "stop_position"
        }
      },
      {
        "type": "node",
        "id": 7105069834,
        "lat": 12.9884306,
        "lon": 77.5665592,
        "tags": {
          "bus": "yes",
          "name": "Aruna Talkies, Gandhi School",
          "name:en": "Aruna Talkies, Gandhi School",
          "network": "BMTC",
          "operator": "BMTC",
          "public_transport": "stop_position"
        }
      },
      {
        "type": "node",
        "id": 7105069835,
        "lat": 12.9905312,
        "lon": 77.5665122,
        "tags": {
          "bus": "yes",
          "name": "7th Main Srirampura",
          "name:en": "7th Main Srirampura",
          "name:kn": "\u0cee\u0ca8\u0cc7 \u0cae\u0cc1\u0c96\u0ccd\u0caf \u0cb0\u0cb8\u0ccd\u0ca4\u0cc6",
          "network": "BMTC",
          "operator": "BMTC",
          "public_transport": "stop_position"
        }
      },
      {
        "type": "node",
        "id": 7105069837,
        "lat": 12.9921958,
        "lon": 77.5664676,
        "tags": {
          "bus": "yes",
          "name": "5th Cross Sriramapura",
          "name:en": "5th Cross Sriramapura",
          "name:kn": "\u0ceb\u0ca8\u0cc7 \u0c85\u0ca1\u0ccd\u0ca1\u0cb0\u0cb8\u0ccd\u0ca4\u0cc6",
          "network": "BMTC",
          "operator": "BMTC",
          "public_transport": "stop_position"
        }
      },
      {
        "type": "node",
        "id": 7105069838,
        "lat": 12.9949125,
        "lon": 77.5663707,
        "tags": {
          "bus": "yes",
          "name": "Chowdeshwari Temple",
          "name:en": "Chowdeshwari Temple",
          "name:kn": "\u0c9a\u0ccc\u0ca1\u0cc7\u0cb6\u0ccd\u0cb5\u0cb0\u0cbf \u0ca6\u0cc7\u0cb5\u0cb8\u0ccd\u0ca5\u0cbe\u0ca8",
          "network": "BMTC",
          "operator": "BMTC",
          "public_transport": "stop_position"
        }
      },
      {
        "type": "node",
        "id": 7105069839,
        "lat": 13.0005815,
        "lon": 77.5634109,
        "tags": {
          "bus": "yes",
          "name": "Malleshwaram Railway Station",
          "name:en": "Malleshwaram Railway Station",
          "name:kn": "\u0cae\u0cb2\u0ccd\u0cb2\u0cc7\u0cb6\u0ccd\u0cb5\u0cb0\u0c82 \u0cb0\u0cc8\u0cb2\u0cc1",
          "network": "BMTC",
          "operator": "BMTC",
          "public_transport": "stop_position"
        }
      },
      {
        "type": "node",
        "id": 7105069840,
        "lat": 13.0043554,
        "lon": 77.5612818,
        "tags": {
          "bus": "yes",
          "name": "Subramanyanagara",
          "name:en": "Subramanyanagara",
          "name:kn": "\u0cb8\u0cc1\u0cac\u0ccd\u0cb0\u0cae\u0ca3\u0ccd\u0caf\u0ca8\u0c97\u0cb0",
          "network": "BMTC",
          "operator": "BMTC",
          "public_transport": "stop_position"
        }
      },
      {
        "type": "node",
        "id": 7106084394,
        "lat": 12.9790377,
        "lon": 77.5406689,
        "tags": {
          "bus": "yes",
          "local_ref": "Magadi Road",
          "name": "Agrahara Dasarahalli",
          "name:en": "Agrahara Dasarahalli",
          "name:kn": "\u0ca6\u0cbe\u0cb8\u0cb0\u0cb9\u0cb3\u0ccd\u0cb3\u0cbf",
          "network": "BMTC",
          "operator": "BMTC",
          "public_transport": "stop_position",
          "wheelchair": "no"
        }
      },
      {
        "type": "node",
        "id": 7108562610,
        "lat": 12.9872126,
        "lon": 77.5788305,
        "tags": {
          "bus": "yes",
          "name": "Shivananda Stores",
          "name:en": "Shivananda Stores",
          "network": "BMTC",
          "operator": "BMTC",
          "public_transport": "stop_position"
        }
      },
      {
        "type": "node",
        "id": 7108562611,
        "lat": 12.9889359,
        "lon": 77.574743,
        "tags": {
          "bus": "yes",
          "name": "Swastik Sheshadripuram College",
          "name:en": "Swastik Sheshadripuram College",
          "name:kn": "\u0cb8\u0ccd\u0cb5\u0cb8\u0ccd\u0ca4\u0cbf\u0c95",
          "network": "BMTC",
          "operator": "BMTC",
          "public_transport": "stop_position"
        }
      },
      {
        "type": "node",
        "id": 7108562612,
        "lat": 12.9941083,
        "lon": 77.5738961,
        "tags": {
          "bus": "yes",
          "name": "Link Road",
          "name:en": "Link Road",
          "network": "BMTC",
          "operator": "BMTC",
          "public_transport": "stop_position"
        }
      },
      {
        "type": "node",
        "id": 7108562614,
        "lat": 12.9964363,
        "lon": 77.5642129,
        "tags": {
          "bus": "yes",
          "name": "Devaiah Park",
          "name:en": "Devaiah Park",
          "name:kn": "\u0ca6\u0cc7\u0cb5\u0caf\u0ccd\u0caf \u0c89\u0ca6\u0ccd\u0caf\u0cbe\u0ca8\u0cb5\u0ca8",
          "network": "BMTC",
          "operator": "BMTC",
          "public_transport": "stop_position"
        }
      },
      {
        "type": "node",
        "id": 7108562615,
        "lat": 12.9973063,
        "lon": 77.5605233,
        "tags": {
          "bus": "yes",
          "name": "Harishchandra Ghat",
          "name:en": "Harishchandra Ghat",
          "name:kn": "\u0cb9\u0cb0\u0cbf\u0cb6\u0ccd\u0c9a\u0c82\u0ca6\u0ccd\u0cb0 \u0c98\u0c9f\u0ccd",
          "network": "BMTC",
          "operator": "BMTC",
          "public_transport": "stop_position",
          "wheelchair": "limited"
        }
      },
      {
        "type": "node",
        "id": 7124635775,
        "lat": 12.9735535,
        "lon": 77.5413021,
        "tags": {
          "bus": "yes",
          "name": "Vijayanagara Vijaya Bank",
          "name:en": "Vijaya Bank",
          "name:kn": "\u0cb5\u0cbf\u0c9c\u0caf\u0ca8\u0c97\u0cb0 \u0cb5\u0cbf\u0c9c\u0caf \u0cac\u0ccd\u0caf\u0cbe\u0c82\u0c95\u0ccd",
          "network": "BMTC",
          "operator": "BMTC",
          "public_transport": "stop_position"
        }
      },
      {
        "type": "node",
        "id": 7124635777,
        "lat": 12.9741235,
        "lon": 77.5463442,
        "tags": {
          "bus": "yes",
          "name": "Manu Vana",
          "name:en": "Manu Vana",
          "name:kn": "\u0cae\u0ca8\u0cc1\u0cb5\u0ca8",
          "network": "BMTC",
          "operator": "BMTC",
          "public_transport": "stop_position"
        }
      },
      {
        "type": "node",
        "id": 7124635778,
        "lat": 12.9785581,
        "lon": 77.5490005,
        "tags": {
          "bus": "yes",
          "name": "Aralimara Industrial Area Rajajinagara",
          "name:en": "Aralimara Industrial Area Rajajinagara",
          "name:kn": "\u0cb0\u0cbe\u0c9c\u0cbe\u0c9c\u0cbf\u0ca8\u0c97\u0cb0 \u0c95\u0cc8\u0c97\u0cbe\u0cb0\u0cbf\u0c95\u0cbe \u0caa\u0ccd\u0cb0\u0ca6\u0cc7\u0cb6",
          "network": "BMTC",
          "operator": "BMTC",
          "public_transport": "stop_position"
        }
      },
      {
        "type": "node",
        "id": 7124635779,
        "lat": 12.9819561,
        "lon": 77.5491684,
        "tags": {
          "bus": "yes",
          "name": "Industrial Area Rajajiangara",
          "name:en": "Industrial Area Rajajiangara",
          "network": "BMTC",
          "operator": "BMTC",
          "public_transport": "stop_position"
        }
      },
      {
        "type": "node",
        "id": 7132418222,
        "lat": 12.9638348,
        "lon": 77.5685892,
        "tags": {
          "bus": "yes",
          "name": "Vinayaka Talkies",
          "name:en": "Vinayaka Talkies",
          "name:kn": "\u0cb5\u0cbf\u0ca8\u0cbe\u0caf\u0c95 \u0c9f\u0cbe\u0c95\u0cc0\u0cb8\u0ccd",
          "network": "BMTC",
          "operator": "BMTC",
          "public_transport": "stop_position"
        }
      },
      {
        "type": "node",
        "id": 7139631432,
        "lat": 12.9993674,
        "lon": 77.5499448,
        "tags": {
          "bus": "yes",
          "name": "Navarang Theatre",
          "name:en": "Navarang Theatre",
          "name:kn": "\u0ca8\u0cb5\u0cb0\u0c82\u0c97 \u0c9a\u0cbf\u0ca4\u0ccd\u0cb0\u0cae\u0c82\u0ca6\u0cbf\u0cb0",
          "network": "BMTC",
          "operator": "BMTC",
          "public_transport": "stop_position"
        }
      },
      {
        "type": "node",
        "id": 7139631438,
        "lat": 12.9844639,
        "lon": 77.5483676,
        "tags": {
          "bus": "yes",
          "name": "Rajajinagara Industrial Town",
          "name:en": "Rajajinagara Industrial Town",
          "network": "BMTC",
          "operator": "BMTC",
          "public_transport": "stop_position"
        }
      },
      {
        "type": "node",
        "id": 7146770606,
        "lat": 12.9847197,
        "lon": 77.5567862,
        "tags": {
          "bus": "yes",
          "name": "Rajajinagar Entrance",
          "name:en": "Rajajinagar Entrance",
          "network": "BMTC",
          "operator": "BMTC",
          "public_transport": "stop_position"
        }
      },
      {
        "type": "node",
        "id": 7156536799,
        "lat": 12.978421,
        "lon": 77.548925,
        "tags": {
          "alt_name": "Tolgate",
          "bus": "yes",
          "name": "Aralimara Industrial Area Rajajinagara",
          "name:en": "Aralimara Industrial Area Rajajinagara",
          "name:kn": "\u0cb0\u0cbe\u0c9c\u0cbe\u0c9c\u0cbf\u0ca8\u0c97\u0cb0 \u0c95\u0cc8\u0c97\u0cbe\u0cb0\u0cbf\u0c95\u0cbe \u0caa\u0ccd\u0cb0\u0ca6\u0cc7\u0cb6",
          "network": "BMTC",
          "operator": "BMTC",
          "public_transport": "stop_position"
        }
      },
      {
        "type": "node",
        "id": 7156865437,
        "lat": 12.9914325,
        "lon": 77.5639827,
        "tags": {
          "bus": "yes",
          "name": "Bandi Reddy Circle",
          "name:en": "Bandi Reddy Circle",
          "name:kn": "\u0cac\u0c82\u0ca1\u0cbf\u0cb0\u0cc6\u0ca1\u0ccd\u0ca1\u0cbf \u0cb5\u0cc3\u0ca4\u0ccd\u0ca4",
          "network": "BMTC",
          "operator": "BMTC",
          "public_transport": "stop_position"
        }
      },
      {
        "type": "node",
        "id": 7156865438,
        "lat": 12.9947434,
        "lon": 77.5663773,
        "tags": {
          "bus": "yes",
          "name": "Chowdeshwari Temple",
          "name:en": "Chowdeshwari Temple",
          "name:kn": "\u0c9a\u0ccc\u0ca1\u0cc7\u0cb6\u0ccd\u0cb5\u0cb0\u0cbf \u0ca6\u0cc7\u0cb5\u0cb8\u0ccd\u0ca5\u0cbe\u0ca8",
          "network": "BMTC",
          "operator": "BMTC",
          "public_transport": "stop_position"
        }
      },
      {
        "type": "node",
        "id": 7156865440,
        "lat": 12.9935055,
        "lon": 77.5682527,
        "tags": {
          "bus": "yes",
          "name": "Ramamandira",
          "name:en": "Ramamandira",
          "name:kn": "\u0cb0\u0cbe\u0cae\u0cae\u0c82\u0ca6\u0cbf\u0cb0",
          "network": "BMTC",
          "operator": "BMTC",
          "public_transport": "stop_position"
        }
      },
      {
        "type": "node",
        "id": 7156865441,
        "lat": 12.9932748,
        "lon": 77.569703,
        "tags": {
          "bus": "yes",
          "name": "MD Block",
          "name:en": "MD Block",
          "network": "BMTC",
          "operator": "BMTC",
          "public_transport": "stop_position"
        }
      },
      {
        "type": "node",
        "id": 7156971594,
        "lat": 12.994438,
        "lon": 77.5780216,
        "tags": {
          "bus": "yes",
          "name": "RMS Sheshadripuram",
          "name:en": "RMS Sheshadripuram",
          "network": "BMTC",
          "operator": "BMTC",
          "public_transport": "stop_position"
        }
      },
      {
        "type": "node",
        "id": 7164445935,
        "lat": 12.9690863,
        "lon": 77.5546506,
        "tags": {
          "bus": "yes",
          "name": "Kempapura Agrahara",
          "name:en": "Kempapura Agrahara",
          "name:kn": "\u0c95\u0cc6\u0c82\u0caa\u0cbe\u0caa\u0cc1\u0cb0 \u0c85\u0c97\u0ccd\u0cb0\u0cb9\u0cbe\u0cb0",
          "network": "BMTC",
          "operator": "BMTC",
          "public_transport": "stop_position"
        }
      },
      {
        "type": "node",
        "id": 7164445936,
        "lat": 12.9687913,
        "lon": 77.5593047,
        "tags": {
          "bus": "yes",
          "name": "Railway Gate Kempapura",
          "name:en": "Railway Gate Kempapura",
          "network": "BMTC",
          "operator": "BMTC",
          "public_transport": "stop_position"
        }
      },
      {
        "type": "node",
        "id": 7164445937,
        "lat": 12.9614186,
        "lon": 77.5594742,
        "tags": {
          "bus": "yes",
          "name": "Sirsi Circle",
          "name:en": "Sirsi Circle",
          "name:kn": "\u0cb6\u0cbf\u0cb0\u0cb8\u0cbf \u0cb5\u0cc3\u0ca4\u0ccd\u0ca4",
          "network": "BMTC",
          "operator": "BMTC",
          "public_transport": "stop_position"
        }
      },
      {
        "type": "node",
        "id": 7164445940,
        "lat": 12.9634944,
        "lon": 77.5677992,
        "tags": {
          "bus": "yes",
          "name": "Vinayaka Talkies KR Market",
          "name:en": "Vinayaka Talkies KR Market",
          "name:kn": "\u0cb5\u0cbf\u0ca8\u0cbe\u0caf\u0c95 \u0c9f\u0cbe\u0c95\u0cc0\u0cb8\u0ccd",
          "network": "BMTC",
          "operator": "BMTC",
          "public_transport": "stop_position"
        }
      },
      {
        "type": "node",
        "id": 7215440252,
        "lat": 12.9980922,
        "lon": 77.5510209,
        "tags": {
          "bus": "yes",
          "name": "Navarang Theatre",
          "name:kn": "\u0ca8\u0cb5\u0cb0\u0c82\u0c97 \u0c9a\u0cbf\u0ca4\u0ccd\u0cb0\u0cae\u0c82\u0ca6\u0cbf\u0cb0",
          "network": "BMTC",
          "operator": "BMTC",
          "public_transport": "stop_position"
        }
      },
      {
        "type": "node",
        "id": 7236205634,
        "lat": 12.9826229,
        "lon": 77.5624563,
        "tags": {
          "bus": "yes",
          "name": "Sujatha Talkies",
          "name:en": "Sujatha Talkies",
          "name:kn": "\u0cb8\u0cc1\u0c9c\u0cbe\u0ca4 \u0c9a\u0cbf\u0ca4\u0ccd\u0cb0\u0cae\u0c82\u0ca6\u0cbf\u0cb0",
          "network": "BMTC",
          "operator": "BMTC",
          "public_transport": "stop_position"
        }
      },
      {
        "type": "node",
        "id": 7276500272,
        "lat": 12.9862919,
        "lon": 77.5724177,
        "tags": {
          "amenity": "fuel",
          "name": "Aegis Auto Gas"
        }
      },
      {
        "type": "node",
        "id": 7292218766,
        "lat": 12.9824553,
        "lon": 77.5678893,
        "tags": {
          "bus": "yes",
          "name": "Okalipura",
          "name:en": "Okalipura",
          "name:kn": "\u0c93\u0c95\u0cb3\u0cbf\u0caa\u0cc1\u0cb0",
          "network": "BMTC",
          "operator": "BMTC",
          "public_transport": "stop_position"
        }
      },
      {
        "type": "node",
        "id": 9141920977,
        "lat": 12.9969081,
        "lon": 77.5688175,
        "tags": {
          "bus": "yes",
          "name": "Malleshwaram Circle",
          "name:en": "Malleshwaram Circle",
          "name:kn": "\u0cae\u0cb2\u0ccd\u0cb2\u0cc7\u0cb6\u0ccd\u0cb5\u0cb0\u0c82 \u0cb5\u0cc3\u0ca4\u0ccd\u0ca4",
          "network": "BMTC",
          "operator": "BMTC",
          "public_transport": "stop_position"
        }
      },
      {
        "type": "node",
        "id": 9161008265,
        "lat": 12.9822201,
        "lon": 77.537201,
        "tags": {
          "bus": "yes",
          "name": "Siddaiah Puranik Junction",
          "name:en": "Siddaiah Puranik Junction",
          "network": "BMTC",
          "operator": "BMTC",
          "public_transport": "stop_position"
        }
      },
      {
        "type": "node",
        "id": 9161008284,
        "lat": 12.9830778,
        "lon": 77.5372068,
        "tags": {
          "bus": "yes",
          "name": "Siddaiah Puranik Junction",
          "name:en": "Siddaiah Puranik Junction",
          "network": "BMTC",
          "operator": "BMTC",
          "public_transport": "stop_position"
        }
      },
      {
        "type": "node",
        "id": 9786116679,
        "lat": 12.9974283,
        "lon": 77.5694375,
        "tags": {
          "bus": "yes",
          "name": "Malleshwaram Circle",
          "name:en": "Malleshwaram Circle",
          "name:kn": "\u0cae\u0cb2\u0ccd\u0cb2\u0cc7\u0cb6\u0ccd\u0cb5\u0cb0\u0c82 \u0cb5\u0cc3\u0ca4\u0ccd\u0ca4",
          "network": "BMTC",
          "operator": "BMTC",
          "public_transport": "stop_position"
        }
      },
      {
        "type": "node",
        "id": 9910012978,
        "lat": 12.9933017,
        "lon": 77.570107,
        "tags": {
          "bus": "yes",
          "name": "MD Block",
          "name:en": "MD Block",
          "network": "BMTC",
          "operator": "BMTC",
          "public_transport": "stop_position"
        }
      },
      {
        "type": "node",
        "id": 10006930129,
        "lat": 12.977526,
        "lon": 77.5708147,
        "tags": {
          "bus": "yes",
          "name": "Railway Station, Majestic",
          "name:en": "Railway Station, Majestic",
          "network": "BMTC",
          "operator": "BMTC",
          "public_transport": "stop_position"
        }
      },
      {
        "type": "node",
        "id": 10054362308,
        "lat": 12.9785414,
        "lon": 77.5490929,
        "tags": {
          "alt_name": "Tolgate",
          "bus": "yes",
          "name": "Aralimara Industrial Area Rajajinagara",
          "name:en": "Aralimara Industrial Area Rajajinagara",
          "name:kn": "\u0cb0\u0cbe\u0c9c\u0cbe\u0c9c\u0cbf\u0ca8\u0c97\u0cb0 \u0c95\u0cc8\u0c97\u0cbe\u0cb0\u0cbf\u0c95\u0cbe \u0caa\u0ccd\u0cb0\u0ca6\u0cc7\u0cb6",
          "network": "BMTC",
          "operator": "BMTC",
          "public_transport": "stop_position"
        }
      },
      {
        "type": "node",
        "id": 10570929389,
        "lat": 12.9816867,
        "lon": 77.5632835,
        "tags": {
          "amenity": "cinema",
          "brand": "Cin\u00e9polis",
          "brand:wikidata": "Q5686673",
          "name": "Cinepolis",
          "screen": "11"
        }
      },
      {
        "type": "node",
        "id": 10833947202,
        "lat": 12.9896124,
        "lon": 77.5718868,
        "tags": {
          "bus": "yes",
          "name": "Central",
          "name:en": "Central",
          "network": "BMTC",
          "operator": "BMTC",
          "public_transport": "stop_position"
        }
      },
      {
        "type": "node",
        "id": 10833947203,
        "lat": 12.9898645,
        "lon": 77.5718467,
        "tags": {
          "bus": "yes",
          "name": "Central",
          "name:en": "Central",
          "network": "BMTC",
          "operator": "BMTC",
          "public_transport": "stop_position"
        }
      },
      {
        "type": "node",
        "id": 10934276535,
        "lat": 12.9989278,
        "lon": 77.5743023,
        "tags": {
          "bus": "yes",
          "name": "Dattatreya Temple",
          "name:en": "Dattatreya Temple",
          "name:kn": "\u0ca6\u0ca4\u0ccd\u0ca4\u0cbe\u0ca4\u0ccd\u0cb0\u0cc7\u0caf \u0ca6\u0cc7\u0cb5\u0cb8\u0ccd\u0ca5\u0cbe\u0ca8",
          "network": "BMTC",
          "operator": "BMTC",
          "public_transport": "stop_position"
        }
      },
      {
        "type": "node",
        "id": 11096782369,
        "lat": 12.9989482,
        "lon": 77.5749528,
        "tags": {
          "bus": "yes",
          "name": "Dattatreya Temple",
          "name:en": "Dattatreya Temple",
          "name:kn": "\u0ca6\u0ca4\u0ccd\u0ca4\u0cbe\u0ca4\u0ccd\u0cb0\u0cc7\u0caf \u0ca6\u0cc7\u0cb5\u0cb8\u0ccd\u0ca5\u0cbe\u0ca8",
          "network": "BMTC",
          "operator": "BMTC",
          "public_transport": "stop_position"
        }
      },
      {
        "type": "node",
        "id": 11281292785,
        "lat": 13.0047583,
        "lon": 77.5599301,
        "tags": {
          "bus": "yes",
          "name": "Subramanya Nagar",
          "name:en": "Subramanya Nagar",
          "name:kn": "\u0cb8\u0cc1\u0cac\u0ccd\u0cb0\u0cae\u0ca3\u0ccd\u0caf\u0ca8\u0c97\u0cb0",
          "network": "BMTC",
          "operator": "BMTC",
          "public_transport": "stop_position"
        }
      },
      {
        "type": "node",
        "id": 11341218806,
        "lat": 12.9745975,
        "lon": 77.5660497,
        "tags": {
          "bus": "yes",
          "name": "Angalaparameshwari Temple",
          "name:en": "Angalaparameshwari Temple",
          "name:kn": "\u0c85\u0c82\u0c97\u0cbe\u0cb2\u0caa\u0cb0\u0cae\u0cc7\u0cb6\u0ccd\u0cb5\u0cb0\u0cbf",
          "network": "BMTC",
          "operator": "BMTC",
          "public_transport": "stop_position"
        }
      },
      {
        "type": "node",
        "id": 11341218849,
        "lat": 12.9752846,
        "lon": 77.5651817,
        "tags": {
          "bus": "yes",
          "name": "Hunasemara",
          "name:en": "Hunasemara",
          "name:kn": "\u0cb9\u0cc1\u0ca3\u0cb8\u0cc6\u0cae\u0cb0",
          "network": "BMTC",
          "operator": "BMTC",
          "public_transport": "stop_position"
        }
      },
      {
        "type": "node",
        "id": 11775336514,
        "lat": 13.0005913,
        "lon": 77.5634317,
        "tags": {
          "bus": "yes",
          "name": "Malleshwaram Railway Station",
          "name:en": "Malleshwaram Railway Station",
          "name:kn": "\u0cae\u0cb2\u0ccd\u0cb2\u0cc7\u0cb6\u0ccd\u0cb5\u0cb0\u0c82 \u0cb0\u0cc8\u0cb2\u0cc1",
          "network": "BMTC",
          "operator": "BMTC",
          "public_transport": "stop_position"
        }
      },
      {
        "type": "node",
        "id": 11775336515,
        "lat": 13.0043631,
        "lon": 77.5613035,
        "tags": {
          "bus": "yes",
          "name": "Subramanyanagara",
          "name:en": "Subramanyanagara",
          "name:kn": "\u0cb8\u0cc1\u0cac\u0ccd\u0cb0\u0cae\u0ca3\u0ccd\u0caf\u0ca8\u0c97\u0cb0",
          "network": "BMTC",
          "operator": "BMTC",
          "public_transport": "stop_position"
        }
      },
      {
        "type": "node",
        "id": 11873228871,
        "lat": 12.9882898,
        "lon": 77.5375427,
        "tags": {
          "bus": "yes",
          "name": "Havanuru Circle",
          "name:en": "Havanuru Circle",
          "name:kn": "\u0cb9\u0cbe\u0cb5\u0ca8\u0cc2\u0cb0\u0cc1 \u0cb5\u0cc3\u0ca4\u0ccd\u0ca4",
          "network": "BMTC",
          "operator": "BMTC",
          "public_transport": "stop_position"
        }
      },
      {
        "type": "node",
        "id": 11873228872,
        "lat": 12.9859116,
        "lon": 77.541889,
        "tags": {
          "bus": "yes",
          "name": "Dasarahalli Kere",
          "name:en": "Dasarahalli Kere",
          "name:kn": "\u0c9a\u0cbf\u0c95\u0ccd\u0c95\u0cac\u0cc6\u0c9f\u0ccd\u0c9f\u0cb9\u0cb3\u0ccd\u0cb3\u0cbf \u0c95\u0cc6\u0cb0\u0cc6",
          "network": "BMTC",
          "operator": "BMTC",
          "public_transport": "stop_position"
        }
      },
      {
        "type": "node",
        "id": 11873228874,
        "lat": 12.984474,
        "lon": 77.5539288,
        "tags": {
          "bus": "yes",
          "name": "Bashyam Circle Rajajinagara",
          "name:en": "Bashyam Circle Rajajinagara",
          "network": "BMTC",
          "operator": "BMTC",
          "public_transport": "stop_position"
        }
      },
      {
        "type": "node",
        "id": 11873231718,
        "lat": 12.988006,
        "lon": 77.537077,
        "tags": {
          "bus": "yes",
          "name": "Havanuru Circle",
          "name:en": "Havanuru Circle",
          "name:kn": "\u0cb9\u0cbe\u0cb5\u0ca8\u0cc2\u0cb0\u0cc1 \u0cb5\u0cc3\u0ca4\u0ccd\u0ca4",
          "network": "BMTC",
          "operator": "BMTC",
          "public_transport": "stop_position"
        }
      },
      {
        "type": "node",
        "id": 11873248318,
        "lat": 13.0002344,
        "lon": 77.5506031,
        "tags": {
          "bus": "yes",
          "name": "Canara Bank Rajajinagara 1st Block",
          "name:en": "Canara Bank Rajajinagara 1st Block",
          "network": "BMTC",
          "operator": "BMTC",
          "public_transport": "stop_position"
        }
      },
      {
        "type": "node",
        "id": 11873345642,
        "lat": 12.9998283,
        "lon": 77.571342,
        "tags": {
          "bus": "yes",
          "name": "Malleshwaram 8th Cross",
          "name:en": "Malleshwaram 8th Cross",
          "network": "BMTC",
          "operator": "BMTC",
          "public_transport": "stop_position"
        }
      },
      {
        "type": "node",
        "id": 11898958081,
        "lat": 12.9969658,
        "lon": 77.5715223,
        "tags": {
          "bus": "yes",
          "name": "Malleswaram Circle",
          "name:en": "Malleswaram Circle",
          "network": "BMTC",
          "note": "Stop used only for Metro Feeder bus route MF-8A",
          "operator": "BMTC",
          "public_transport": "stop_position"
        }
      },
      {
        "type": "node",
        "id": 11993402960,
        "lat": 12.9998962,
        "lon": 77.5693762,
        "tags": {
          "bus": "yes",
          "name": "Malleshwaram 8th Cross",
          "name:en": "Malleshwaram 8th Cross",
          "network": "BMTC",
          "operator": "BMTC",
          "public_transport": "stop_position"
        }
      },
      {
        "type": "node",
        "id": 11993402965,
        "lat": 12.9737926,
        "lon": 77.5498242,
        "tags": {
          "bus": "yes",
          "name": "Magadi Road Tollgate",
          "name:en": "Magadi Road Tollgate",
          "network": "BMTC",
          "operator": "BMTC",
          "public_transport": "stop_position"
        }
      },
      {
        "type": "node",
        "id": 12002046035,
        "lat": 12.977855,
        "lon": 77.5812757,
        "tags": {
          "amenity": "charging_station",
          "fee": "yes",
          "motorcar": "yes",
          "motorcycle": "yes"
        }
      },
      {
        "type": "node",
        "id": 12009455446,
        "lat": 12.9897084,
        "lon": 77.5727323,
        "tags": {
          "bus": "yes",
          "name": "Central",
          "name:en": "Central",
          "network": "BMTC",
          "operator": "BMTC",
          "public_transport": "stop_position"
        }
      },
      {
        "type": "node",
        "id": 12100028686,
        "lat": 13.0000143,
        "lon": 77.5499059,
        "tags": {
          "amenity": "charging_station",
          "charging_station:battery_swapping": "yes",
          "fee": "yes",
          "level": "0",
          "motorcar": "no",
          "motorcycle": "yes",
          "name": "Honda e:swap",
          "operator": "Honda e:swap"
        }
      },
      {
        "type": "node",
        "id": 12386430525,
        "lat": 12.9789851,
        "lon": 77.5405964,
        "tags": {
          "bus": "yes",
          "name": "Agrahara Dasarahalli",
          "name:en": "Agrahara Dasarahalli",
          "network": "BMTC",
          "operator": "BMTC",
          "public_transport": "stop_position"
        }
      },
      {
        "type": "node",
        "id": 12425345228,
        "lat": 12.9977329,
        "lon": 77.5714364,
        "tags": {
          "bus": "yes",
          "name": "Malleswaram Circle",
          "name:kn": "\u0cae\u0cb2\u0ccd\u0cb2\u0cc7\u0cb6\u0ccd\u0cb5\u0cb0\u0c82 \u0cb5\u0cc3\u0ca4\u0ccd\u0ca4",
          "operator": "BMTC",
          "public_transport": "stop_position"
        }
      },
      {
        "type": "node",
        "id": 12441126036,
        "lat": 12.9883094,
        "lon": 77.5374906,
        "tags": {
          "bus": "yes",
          "name": "Havanuru Circle",
          "name:en": "Havanuru Circle",
          "name:kn": "\u0cb9\u0cbe\u0cb5\u0ca8\u0cc2\u0cb0\u0cc1 \u0cb5\u0cc3\u0ca4\u0ccd\u0ca4",
          "network": "BMTC",
          "operator": "BMTC",
          "public_transport": "stop_position"
        }
      },
      {
        "type": "node",
        "id": 12479801113,
        "lat": 12.9786,
        "lon": 77.5721999,
        "tags": {
          "bus": "yes",
          "name": "Platform 20B",
          "operator": "BMTC",
          "public_transport": "stop_position"
        }
      },
      {
        "type": "node",
        "id": 12479801114,
        "lat": 12.9785778,
        "lon": 77.5720175,
        "tags": {
          "bus": "yes",
          "name": "Platform 20A",
          "operator": "BMTC",
          "public_transport": "stop_position"
        }
      },
      {
        "type": "node",
        "id": 12479801115,
        "lat": 12.9785118,
        "lon": 77.5718715,
        "tags": {
          "bus": "yes",
          "name": "Platform 20",
          "operator": "BMTC",
          "public_transport": "stop_position"
        }
      },
      {
        "type": "node",
        "id": 12479801117,
        "lat": 12.9783014,
        "lon": 77.5715901,
        "tags": {
          "bus": "yes",
          "name": "Platform 19B",
          "operator": "BMTC",
          "public_transport": "stop_position"
        }
      },
      {
        "type": "node",
        "id": 12479801118,
        "lat": 12.978148,
        "lon": 77.5714678,
        "tags": {
          "bus": "yes",
          "name": "Platform 19A",
          "operator": "BMTC",
          "public_transport": "stop_position"
        }
      },
      {
        "type": "node",
        "id": 12479801119,
        "lat": 12.978004,
        "lon": 77.5713937,
        "tags": {
          "bus": "yes",
          "name": "Platform 19",
          "operator": "BMTC",
          "public_transport": "stop_position"
        }
      },
      {
        "type": "node",
        "id": 12479801171,
        "lat": 12.9778982,
        "lon": 77.5716,
        "tags": {
          "bus": "yes",
          "name": "Platform 18A",
          "operator": "BMTC",
          "public_transport": "stop_position"
        }
      },
      {
        "type": "node",
        "id": 12479801172,
        "lat": 12.9780256,
        "lon": 77.5716466,
        "tags": {
          "bus": "yes",
          "name": "Platform 18",
          "operator": "BMTC",
          "public_transport": "stop_position"
        }
      },
      {
        "type": "node",
        "id": 12479801173,
        "lat": 12.978163,
        "lon": 77.5717468,
        "tags": {
          "bus": "yes",
          "name": "Platform 17A",
          "operator": "BMTC",
          "public_transport": "stop_position"
        }
      },
      {
        "type": "node",
        "id": 12479801174,
        "lat": 12.9782831,
        "lon": 77.5718746,
        "tags": {
          "bus": "yes",
          "name": "Platform 17",
          "operator": "BMTC",
          "public_transport": "stop_position"
        }
      },
      {
        "type": "node",
        "id": 12479801175,
        "lat": 12.9783511,
        "lon": 77.5719972,
        "tags": {
          "bus": "yes",
          "name": "Platform 16",
          "operator": "BMTC",
          "public_transport": "stop_position"
        }
      },
      {
        "type": "node",
        "id": 12479801176,
        "lat": 12.9784076,
        "lon": 77.5721601,
        "tags": {
          "bus": "yes",
          "name": "Platform 15A",
          "operator": "BMTC",
          "public_transport": "stop_position"
        }
      },
      {
        "type": "node",
        "id": 12479801177,
        "lat": 12.9784244,
        "lon": 77.5722951,
        "tags": {
          "bus": "yes",
          "name": "Platform 15",
          "operator": "BMTC",
          "public_transport": "stop_position"
        }
      },
      {
        "type": "node",
        "id": 12479801190,
        "lat": 12.9784189,
        "lon": 77.5724888,
        "tags": {
          "bus": "yes",
          "name": "Platform 14",
          "operator": "BMTC",
          "public_transport": "stop_position"
        }
      },
      {
        "type": "node",
        "id": 12479801191,
        "lat": 12.9783995,
        "lon": 77.5725967,
        "tags": {
          "bus": "yes",
          "name": "Platform 13",
          "operator": "BMTC",
          "public_transport": "stop_position"
        }
      },
      {
        "type": "node",
        "id": 12479801192,
        "lat": 12.9783424,
        "lon": 77.5727364,
        "tags": {
          "bus": "yes",
          "name": "Platform 12A",
          "operator": "BMTC",
          "public_transport": "stop_position"
        }
      },
      {
        "type": "node",
        "id": 12479801194,
        "lat": 12.9779899,
        "lon": 77.5731353,
        "tags": {
          "bus": "yes",
          "name": "Platform 11A",
          "operator": "BMTC",
          "public_transport": "stop_position"
        }
      },
      {
        "type": "node",
        "id": 12479801195,
        "lat": 12.9778782,
        "lon": 77.5731873,
        "tags": {
          "bus": "yes",
          "name": "Platform 11",
          "operator": "BMTC",
          "public_transport": "stop_position"
        }
      },
      {
        "type": "node",
        "id": 12479806808,
        "lat": 12.9780777,
        "lon": 77.572811,
        "tags": {
          "bus": "yes",
          "name": "Platform 9",
          "operator": "BMTC",
          "public_transport": "stop_position"
        }
      },
      {
        "type": "node",
        "id": 12479806809,
        "lat": 12.9781644,
        "lon": 77.5726809,
        "tags": {
          "bus": "yes",
          "name": "Platform 8B",
          "operator": "BMTC",
          "public_transport": "stop_position"
        }
      },
      {
        "type": "node",
        "id": 12479806822,
        "lat": 12.9777735,
        "lon": 77.5719062,
        "tags": {
          "bus": "yes",
          "name": "Platform 4B",
          "operator": "BMTC",
          "public_transport": "stop_position"
        }
      },
      {
        "type": "node",
        "id": 12479806823,
        "lat": 12.9779433,
        "lon": 77.572024,
        "tags": {
          "bus": "yes",
          "name": "Platform 4A",
          "operator": "BMTC",
          "public_transport": "stop_position"
        }
      },
      {
        "type": "node",
        "id": 12479806835,
        "lat": 12.9779386,
        "lon": 77.5729337,
        "tags": {
          "bus": "yes",
          "name": "Platform 10",
          "operator": "BMTC",
          "public_transport": "stop_position"
        }
      },
      {
        "type": "node",
        "id": 12479806836,
        "lat": 12.9780131,
        "lon": 77.5721195,
        "tags": {
          "bus": "yes",
          "name": "Platform 4",
          "name:kn": "\u0cb5\u0cc7\u0ca6\u0cbf\u0c95\u0cc6 \u0cea",
          "operator": "BMTC",
          "public_transport": "stop_position"
        }
      },
      {
        "type": "node",
        "id": 12506944637,
        "lat": 12.9784072,
        "lon": 77.5725538,
        "tags": {
          "bus": "yes",
          "name": "Platform 25C",
          "operator": "BMTC",
          "public_transport": "stop_position"
        }
      },
      {
        "type": "node",
        "id": 12506944638,
        "lat": 12.9783342,
        "lon": 77.5727541,
        "tags": {
          "bus": "yes",
          "name": "Platform 25B",
          "operator": "BMTC",
          "public_transport": "stop_position"
        }
      },
      {
        "type": "node",
        "id": 12506944639,
        "lat": 12.9782715,
        "lon": 77.5728788,
        "tags": {
          "bus": "yes",
          "name": "Platform 25A",
          "operator": "BMTC",
          "public_transport": "stop_position"
        }
      },
      {
        "type": "node",
        "id": 12506944640,
        "lat": 12.9781179,
        "lon": 77.5730294,
        "tags": {
          "bus": "yes",
          "name": "Platform 25",
          "operator": "BMTC",
          "public_transport": "stop_position"
        }
      },
      {
        "type": "node",
        "id": 12506944641,
        "lat": 12.9779091,
        "lon": 77.5731729,
        "tags": {
          "bus": "yes",
          "name": "Platform 24",
          "operator": "BMTC",
          "public_transport": "stop_position"
        }
      },
      {
        "type": "node",
        "id": 12506944656,
        "lat": 12.9778642,
        "lon": 77.5715876,
        "tags": {
          "bus": "yes",
          "name": "Platform 29C",
          "operator": "BMTC",
          "public_transport": "stop_position"
        }
      },
      {
        "type": "node",
        "id": 12506944657,
        "lat": 12.9779458,
        "lon": 77.5716174,
        "tags": {
          "bus": "yes",
          "name": "Platform 29B",
          "operator": "BMTC",
          "public_transport": "stop_position"
        }
      },
      {
        "type": "node",
        "id": 12506944658,
        "lat": 12.9780107,
        "lon": 77.5716411,
        "tags": {
          "bus": "yes",
          "name": "Platform 29A",
          "operator": "BMTC",
          "public_transport": "stop_position"
        }
      },
      {
        "type": "node",
        "id": 12506944659,
        "lat": 12.9780846,
        "lon": 77.5716859,
        "tags": {
          "bus": "yes",
          "name": "Platform 29",
          "operator": "BMTC",
          "public_transport": "stop_position"
        }
      },
      {
        "type": "node",
        "id": 12506944660,
        "lat": 12.9782721,
        "lon": 77.5718623,
        "tags": {
          "bus": "yes",
          "name": "Platform 28",
          "operator": "BMTC",
          "public_transport": "stop_position"
        }
      },
      {
        "type": "node",
        "id": 12506944661,
        "lat": 12.9783183,
        "lon": 77.571935,
        "tags": {
          "bus": "yes",
          "name": "Platform 27A",
          "operator": "BMTC",
          "public_transport": "stop_position"
        }
      },
      {
        "type": "node",
        "id": 12506944662,
        "lat": 12.9783675,
        "lon": 77.5720375,
        "tags": {
          "bus": "yes",
          "name": "Platform 27",
          "operator": "BMTC",
          "public_transport": "stop_position"
        }
      },
      {
        "type": "node",
        "id": 12506944663,
        "lat": 12.978402,
        "lon": 77.5721355,
        "tags": {
          "bus": "yes",
          "name": "Platform 26A",
          "operator": "BMTC",
          "public_transport": "stop_position"
        }
      },
      {
        "type": "node",
        "id": 12506944664,
        "lat": 12.9784197,
        "lon": 77.5722573,
        "tags": {
          "bus": "yes",
          "name": "Platform 26",
          "operator": "BMTC",
          "public_transport": "stop_position"
        }
      },
      {
        "type": "node",
        "id": 12506944679,
        "lat": 12.9783916,
        "lon": 77.5716921,
        "tags": {
          "bus": "yes",
          "name": "Platform 19C",
          "operator": "BMTC",
          "public_transport": "stop_position"
        }
      },
      {
        "type": "node",
        "id": 12506944680,
        "lat": 12.9781569,
        "lon": 77.5729941,
        "tags": {
          "bus": "yes",
          "name": "Platform 11C",
          "operator": "BMTC",
          "public_transport": "stop_position"
        }
      },
      {
        "type": "node",
        "id": 12506944681,
        "lat": 12.9780954,
        "lon": 77.5730497,
        "tags": {
          "bus": "yes",
          "name": "Platform 11B",
          "operator": "BMTC",
          "public_transport": "stop_position"
        }
      },
      {
        "type": "node",
        "id": 12506944693,
        "lat": 12.9775139,
        "lon": 77.5726718,
        "tags": {
          "bus": "yes",
          "name": "KIA Bus Stop",
          "official_name": "Platform 30",
          "operator": "BMTC",
          "public_transport": "stop_position"
        }
      },
      {
        "type": "node",
        "id": 12506944698,
        "lat": 12.9778904,
        "lon": 77.5733875,
        "tags": {
          "bus": "yes",
          "name": "Platform 23D",
          "operator": "BMTC",
          "public_transport": "stop_position"
        }
      },
      {
        "type": "node",
        "id": 12506944699,
        "lat": 12.9780198,
        "lon": 77.5733244,
        "tags": {
          "bus": "yes",
          "name": "Platform 23C",
          "operator": "BMTC",
          "public_transport": "stop_position"
        }
      },
      {
        "type": "node",
        "id": 12506944700,
        "lat": 12.9782161,
        "lon": 77.5731911,
        "tags": {
          "bus": "yes",
          "name": "Platform 23A",
          "operator": "BMTC",
          "public_transport": "stop_position"
        }
      },
      {
        "type": "node",
        "id": 12506953101,
        "lat": 12.9784828,
        "lon": 77.5729077,
        "tags": {
          "bus": "yes",
          "name": "Platform 22B",
          "operator": "BMTC",
          "public_transport": "stop_position"
        }
      },
      {
        "type": "node",
        "id": 12506953102,
        "lat": 12.9785603,
        "lon": 77.5727305,
        "tags": {
          "bus": "yes",
          "name": "Platform 22",
          "operator": "BMTC",
          "public_transport": "stop_position"
        }
      },
      {
        "type": "node",
        "id": 12511727435,
        "lat": 12.9944198,
        "lon": 77.5779993,
        "tags": {
          "bus": "yes",
          "name": "RMS Sheshadripuram",
          "name:en": "RMS Sheshadripuram",
          "network": "BMTC",
          "operator": "BMTC",
          "public_transport": "stop_position"
        }
      },
      {
        "type": "node",
        "id": 12512417638,
        "lat": 12.9905573,
        "lon": 77.571683,
        "tags": {
          "bus": "yes",
          "name": "Mantri Square Metro Station",
          "name:en": "Mantri Square Metro Station",
          "network": "BMTC",
          "note": "Stop used only for Metro Feeder bus route MF-8A",
          "operator": "BMTC",
          "public_transport": "stop_position"
        }
      },
      {
        "type": "node",
        "id": 12512535280,
        "lat": 12.9972417,
        "lon": 77.560491,
        "tags": {
          "bus": "yes",
          "name": "Harishchandra Ghat",
          "name:en": "Harishchandra Ghat",
          "name:kn": "\u0cb9\u0cb0\u0cbf\u0cb6\u0ccd\u0c9a\u0c82\u0ca6\u0ccd\u0cb0 \u0c98\u0c9f\u0ccd",
          "network": "BMTC",
          "operator": "BMTC",
          "public_transport": "stop_position",
          "wheelchair": "limited"
        }
      },
      {
        "type": "node",
        "id": 12512566601,
        "lat": 12.9972821,
        "lon": 77.5605112,
        "tags": {
          "bus": "yes",
          "name": "Harishchandra Ghat",
          "name:en": "Harishchandra Ghat",
          "name:kn": "\u0cb9\u0cb0\u0cbf\u0cb6\u0ccd\u0c9a\u0c82\u0ca6\u0ccd\u0cb0 \u0c98\u0c9f\u0ccd",
          "network": "BMTC",
          "operator": "BMTC",
          "public_transport": "stop_position",
          "wheelchair": "limited"
        }
      },
      {
        "type": "node",
        "id": 12526337224,
        "lat": 12.9816889,
        "lon": 77.574589,
        "tags": {
          "bus": "yes",
          "name": "Ananda Rao Circle",
          "name:en": "Ananda Rao Circle",
          "network": "BMTC",
          "operator": "BMTC",
          "public_transport": "stop_position"
        }
      },
      {
        "type": "node",
        "id": 12989273947,
        "lat": 12.9741112,
        "lon": 77.5513532,
        "tags": {
          "bus": "yes",
          "name": "Prasanna Talkies",
          "name:en": "Prasanna Talkies",
          "network": "BMTC",
          "operator": "BMTC",
          "public_transport": "stop_position"
        }
      },
      {
        "type": "node",
        "id": 12989273948,
        "lat": 12.9796725,
        "lon": 77.5537605,
        "tags": {
          "bus": "yes",
          "name": "6th Block Rajajinagara",
          "name:en": "6th Block Rajajinagara",
          "network": "BMTC",
          "operator": "BMTC",
          "public_transport": "stop_position"
        }
      },
      {
        "type": "node",
        "id": 12989273950,
        "lat": 12.9806538,
        "lon": 77.5580989,
        "tags": {
          "bus": "yes",
          "name": "Gopalapura",
          "name:en": "Gopalapura",
          "network": "BMTC",
          "operator": "BMTC",
          "public_transport": "stop_position"
        }
      }
    ]
  }
}