{
  "pois_1km": {
    "version": 0.6,
    "generator": "Overpass API 0.7.62.8 e802775f",
    "osm3s": {
      "timestamp_osm_base": "2025-09-06T08:20:35Z",
      "copyright": "The data included in this document is from www.openstreetmap.org. The data is made available under ODbL."
    },
    "elements": [
      {
        "type": "node",
        "id": 628901926,
        "lat": 12.9939354,
        "lon": 77.6609577,
        "tags": {
          "amenity": "food_court",
          "check_date": "2023-12-23",
          "indoor_seating": "yes",
          "internet_access": "no",
          "name": "The Bay",
          "outdoor_seating": "no",
          "payment:cash": "yes",
          "payment:credit_cards": "yes",
          "payment:debit_cards": "yes",
          "wheelchair": "limited"
        }
      },
      {
        "type": "node",
        "id": 1078209945,
        "lat": 12.9852309,
        "lon": 77.6636329,
        "tags": {
          "amenity": "bank",
          "atm": "yes",
          "brand": "State Bank of India",
          "brand:wikidata": "Q1340361",
          "brand:wikipedia": "en:State Bank of India",
          "name": "State Bank of India",
          "name:kn": "\u0c8e\u0cb8\u0ccd \u0cac\u0cbf \u0c90",
          "short_name": "SBI"
        }
      },
      {
        "type": "node",
        "id": 1078214686,
        "lat": 12.994176,
        "lon": 77.6638974,
        "tags": {
          "amenity": "bank",
          "atm": "yes",
          "brand": "ICICI Bank",
          "brand:wikidata": "Q1653258",
          "name": "ICICI Bank",
          "name:en": "ICICI Bank",
          "name:kn": "\u0c90\u0cb8\u0cbf\u0c90\u0cb8\u0cbf\u0c90 \u0cac\u0ccd\u0caf\u0cbe\u0c82\u0c95\u0cc1",
          "short_name": "ICICI",
          "website": "https://www.icicibank.com",
          "wheelchair": "no"
        }
      },
      {
        "type": "node",
        "id": 1436163341,
        "lat": 12.9965802,
        "lon": 77.6615067,
        "tags": {
          "access": "yes",
          "leisure": "playground",
          "name": "Sadananda Nagar Park"
        }
      },
      {
        "type": "node",
        "id": 1436177631,
        "lat": 12.995242,
        "lon": 77.6523255,
        "tags": {
          "amenity": "hospital",
          "name": "ESI Hospital",
          "name:kn": "\u0c87\u0c8e\u0cb8\u0ccd\u0c90 \u0c86\u0cb8\u0ccd\u0caa\u0ca4\u0ccd\u0cb0\u0cc6"
        }
      },
      {
        "type": "node",
        "id": 1436426552,
        "lat": 12.996795,
        "lon": 77.6584897,
        "tags": {
          "leisure": "playground",
          "name": "Sadanandanagara Jogging Park"
        }
      },
      {
        "type": "node",
        "id": 1477494236,
        "lat": 12.9935838,
        "lon": 77.6639522,
        "tags": {
          "addr:city": "Bangalore",
          "addr:floor": "0",
          "addr:housename": "Gopalan Grand Mall",
          "addr:postcode": "560016",
          "addr:street": "Swamy Vivekananda Road (Old Madras Road)",
          "addr:suburb": "Nagarvarapalya",
          "air_conditioning": "yes",
          "brand": "More",
          "brand:wikidata": "Q6910891",
          "check_date": "2024-04-03",
          "level": "0",
          "name": "More",
          "operator": "More",
          "organic": "yes",
          "payment:cash": "yes",
          "payment:credit_cards": "yes",
          "payment:debit_cards": "yes",
          "shop": "supermarket",
          "source": "survey",
          "stroller": "yes"
        }
      },
      {
        "type": "node",
        "id": 1607458588,
        "lat": 12.993084,
        "lon": 77.6620975,
        "tags": {
          "addr:city": "Bangalore",
          "addr:housename": "Gopalan Signature Mall",
          "addr:postcode": "560016",
          "addr:street": "Swamy Vivekananda Road",
          "air_conditioning": "yes",
          "alt_name": "Kentucky Fried Chicken",
          "alt_name:en": "Kentucky Fried Chicken",
          "alt_name:hi": "\u0915\u0947\u0902\u091f\u0941\u0915\u0940 \u092b\u094d\u0930\u093e\u0907\u0921 \u091a\u093f\u0915\u0928",
          "alt_name:pa": "\u0a15\u0a48\u0a02\u0a1f\u0a41\u0a15\u0a40 \u0a2b\u0a4d\u0a30\u0a3e\u0a08\u0a21 \u0a1a\u0a3f\u0a15\u0a28",
          "alt_name:pnb": "\u06a9\u06cc\u0646\u0679\u06a9\u06cc \u0641\u0631\u0627\u0626\u06cc\u0688 \u0686\u06a9\u0646",
          "alt_name:ur": "\u06a9\u06cc\u0646\u0679\u06a9\u06cc \u0641\u0631\u0627\u0626\u06cc\u0688 \u0686\u06a9\u0646",
          "amenity": "fast_food",
          "brand": "KFC",
          "brand:en": "KFC",
          "brand:hi": "\u0915\u0947\u090f\u092b\u0938\u0940",
          "brand:pa": "\u0a15\u0a47\u0a10\u0a2b\u0a38\u0a40",
          "brand:pnb": "\u06a9\u06d2 \u0627\u06cc\u0641 \u0633\u06cc",
          "brand:ur": "\u06a9\u06d2 \u0627\u06cc\u0641 \u0633\u06cc",
          "brand:wikidata": "Q524757",
          "brand:wikipedia": "en:KFC",
          "brand:wikipedia:pa": "\u0a15\u0a47\u0a10\u0a2b\u0a38\u0a40",
          "brand:wikipedia:ur": "\u06a9\u06cc\u0646\u0679\u06a9\u06cc \u0641\u0631\u0627\u0626\u06cc\u0688 \u0686\u06a9\u0646",
          "cuisine": "chicken",
          "diet:halal": "yes",
          "diet:vegetarian": "yes",
          "indoor_seating": "yes",
          "name": "KFC",
          "name:en": "KFC",
          "name:hi": "\u0915\u0947\u090f\u092b\u0938\u0940",
          "name:pa": "\u0a15\u0a47\u0a10\u0a2b\u0a38\u0a40",
          "name:pnb": "\u06a9\u06d2 \u0627\u06cc\u0641 \u0633\u06cc",
          "name:ur": "\u06a9\u06d2 \u0627\u06cc\u0641 \u0633\u06cc",
          "opening_hours": "Mo-Su 11:00-23:00",
          "outdoor_seating": "no",
          "smoking": "no",
          "takeaway": "yes",
          "wheelchair": "yes"
        }
      },
      {
        "type": "node",
        "id": 1607458591,
        "lat": 12.9933282,
        "lon": 77.6622468,
        "tags": {
          "addr:city": "Bangalore",
          "addr:housename": "Gopalan Signature Mall",
          "addr:postcode": "560016",
          "addr:street": "Swamy Vivekananda Road",
          "amenity": "restaurant",
          "brand": "Pizza Hut",
          "brand:wikidata": "Q191615",
          "cuisine": "pizza",
          "name": "Pizza Hut",
          "name:kn": "\u0caa\u0cbf\u0c9c\u0ccd\u0c9c\u0cbe \u0cb9\u0c9f\u0ccd",
          "smoking": "no"
        }
      },
      {
        "type": "node",
        "id": 1619093886,
        "lat": 12.9931914,
        "lon": 77.6618949,
        "tags": {
          "addr:city": "Bangalore",
          "addr:housename": "Gopalan Signature Mall",
          "addr:postcode": "560016",
          "addr:street": "Swamy Vivekananda Road",
          "air_conditioning": "yes",
          "amenity": "fast_food",
          "brand": "McDonald's",
          "brand:pa": "\u0a2e\u0a48\u0a15\u0a21\u0a4b\u0a28\u0a32\u0a21\u2019\u0a1c\u0a3c",
          "brand:ur": "\u0645\u06a9\u0688\u0648\u0646\u0644\u0688\u0632",
          "brand:wikidata": "Q38076",
          "brand:wikipedia": "en:McDonald's",
          "brand:wikipedia:pa": "\u0a2e\u0a48\u0a15\u0a21\u0a4b\u0a28\u0a32\u0a21\u2019\u0a1c\u0a3c",
          "brand:wikipedia:ur": "\u0645\u06a9\u0688\u0648\u0646\u0644\u0688\u0632",
          "cuisine": "burger",
          "diet:halal": "yes",
          "diet:vegetarian": "yes",
          "indoor_seating": "yes",
          "name": "McDonald's",
          "name:pa": "\u0a2e\u0a48\u0a15\u0a21\u0a4b\u0a28\u0a32\u0a21\u2019\u0a1c\u0a3c",
          "name:ur": "\u0645\u06a9\u0688\u0648\u0646\u0644\u0688\u0632",
          "opening_hours": "Mo-Su 10:00-23:00",
          "outdoor_seating": "no",
          "smoking": "no",
          "takeaway": "yes",
          "wheelchair": "yes"
        }
      },
      {
        "type": "node",
        "id": 1925196711,
        "lat": 12.9940622,
        "lon": 77.6606292,
        "tags": {
          "addr:city": "Bangalore",
          "addr:housename": "The Bay, RMZ Infinity",
          "addr:postcode": "560016",
          "addr:street": "Swamy Vivekananda Road",
          "amenity": "atm",
          "brand": "Standard Chartered",
          "brand:wikidata": "Q548278",
          "cash_in": "no",
          "fee": "no",
          "name": "Standard Chartered",
          "operator": "Standard Chartered",
          "operator:wikidata": "Q548278"
        }
      },
      {
        "type": "node",
        "id": 1925196712,
        "lat": 12.9940777,
        "lon": 77.6607095,
        "tags": {
          "addr:city": "Bangalore",
          "addr:housename": "The Bay, RMZ Infinity",
          "addr:postcode": "560016",
          "addr:street": "Swamy Vivekananda Road",
          "amenity": "fast_food",
          "name": "Casa Picola"
        }
      },
      {
        "type": "node",
        "id": 1925196716,
        "lat": 12.9935838,
        "lon": 77.6607658,
        "tags": {
          "addr:city": "Bangalore",
          "addr:housename": "The Bay, RMZ Infinity",
          "addr:postcode": "560016",
          "addr:street": "Swamy Vivekananda Road",
          "amenity": "fast_food",
          "brand": "Au Bon Pain",
          "brand:wikidata": "Q4818942",
          "cuisine": "sandwich",
          "indoor_seating": "yes",
          "name": "Au Bon Pain",
          "outdoor_seating": "no",
          "takeaway": "yes"
        }
      },
      {
        "type": "node",
        "id": 1966588754,
        "lat": 12.993927,
        "lon": 77.6623459,
        "tags": {
          "amenity": "fast_food",
          "cuisine": "indian",
          "name": "Sandarshini"
        }
      },
      {
        "type": "node",
        "id": 2381002037,
        "lat": 12.9982023,
        "lon": 77.6612533,
        "tags": {
          "leisure": "playground"
        }
      },
      {
        "type": "node",
        "id": 2480865063,
        "lat": 12.9941909,
        "lon": 77.6606796,
        "tags": {
          "addr:city": "Bangalore",
          "addr:housename": "The Bay, RMZ Infinity",
          "addr:postcode": "560016",
          "addr:street": "Swamy Vivekananda Road",
          "amenity": "restaurant",
          "brand": "California Burrito",
          "brand:wikidata": "Q124374596",
          "check_date": "2024-05-15",
          "cuisine": "mexican",
          "indoor_seating": "yes",
          "name": "California Burrito",
          "outdoor_seating": "yes",
          "website": "https://www.californiaburrito.in/"
        }
      },
      {
        "type": "node",
        "id": 2480865065,
        "lat": 12.9939646,
        "lon": 77.6613318,
        "tags": {
          "addr:city": "Bangalore",
          "addr:housename": "The Bay, RMZ Infinity",
          "addr:postcode": "560016",
          "addr:street": "Swamy Vivekananda Road",
          "air_conditioning": "no",
          "amenity": "fast_food",
          "brand": "Subway",
          "brand:pa": "\u0a38\u0a2c\u0a35\u0a47\u0a05",
          "brand:ur": "\u0633\u0628 \u0648\u06d2",
          "brand:wikidata": "Q244457",
          "brand:wikipedia": "en:Subway (restaurant)",
          "check_date": "2023-12-23",
          "cuisine": "sandwich",
          "delivery": "yes",
          "diet:vegetarian": "yes",
          "highchair": "no",
          "internet_access": "no",
          "name": "Subway",
          "name:kn": "\u0cb8\u0cac\u0ccd\u200c\u0cb5\u0cc7",
          "name:pa": "\u0a38\u0a2c\u0a35\u0a47\u0a05",
          "name:ur": "\u0633\u0628 \u0648\u06d2",
          "outdoor_seating": "yes",
          "payment:cash": "yes",
          "payment:credit_cards": "yes",
          "payment:debit_cards": "yes",
          "smoking": "no",
          "source": "local knowledge",
          "takeaway": "yes",
          "wheelchair": "limited"
        }
      },
      {
        "type": "node",
        "id": 2480865067,
        "lat": 12.9929509,
        "lon": 77.6617773,
        "tags": {
          "addr:city": "Bangalore",
          "addr:housename": "Gopalan Signature Mall",
          "addr:postcode": "560016",
          "addr:street": "Swamy Vivekananda Road",
          "level": "3",
          "name": "Auchan",
          "operator": "Auchan",
          "shop": "supermarket"
        }
      },
      {
        "type": "node",
        "id": 2480865789,
        "lat": 12.9931159,
        "lon": 77.6620003,
        "tags": {
          "addr:city": "Bangalore",
          "addr:housename": "Gopalan Signature Mall",
          "addr:postcode": "560016",
          "addr:street": "Swamy Vivekananda Road",
          "amenity": "fast_food",
          "cuisine": "indian",
          "name": "Mr Idli"
        }
      },
      {
        "type": "node",
        "id": 2481030019,
        "lat": 12.9928446,
        "lon": 77.6612169,
        "tags": {
          "addr:city": "Bangalore",
          "addr:housename": "Gopalan Signature Mall",
          "addr:postcode": "560016",
          "addr:street": "Swamy Vivekananda Road",
          "amenity": "restaurant",
          "cuisine": "italian",
          "name": "Benitos"
        }
      },
      {
        "type": "node",
        "id": 2481030021,
        "lat": 12.9931243,
        "lon": 77.6618587,
        "tags": {
          "addr:city": "Bangalore",
          "addr:housename": "Gopalan Signature Mall",
          "addr:postcode": "560016",
          "addr:street": "Swamy Vivekananda Road",
          "amenity": "restaurant",
          "cuisine": "regional",
          "level": "0",
          "name": "Mast Kalandar",
          "name:kn": "\u0cae\u0cb8\u0ccd\u0ca4\u0ccd \u0c95\u0cb2\u0c82\u0ca6\u0cb0\u0ccd"
        }
      },
      {
        "type": "node",
        "id": 3451568023,
        "lat": 12.9944143,
        "lon": 77.6631498,
        "tags": {
          "amenity": "restaurant",
          "cuisine": "indian",
          "name": "Sri Ananda Bhavan"
        }
      },
      {
        "type": "node",
        "id": 3451568025,
        "lat": 12.9938792,
        "lon": 77.6622186,
        "tags": {
          "amenity": "restaurant",
          "cuisine": "indian",
          "internet_access": "no",
          "name": "Sri Krishna Grand"
        }
      },
      {
        "type": "node",
        "id": 3451568043,
        "lat": 12.9944662,
        "lon": 77.6632297,
        "tags": {
          "addr:city": "Bangalore",
          "addr:postcode": "560016",
          "addr:street": "Benniganahalli",
          "amenity": "restaurant",
          "capacity": "30",
          "cuisine": "regional",
          "delivery": "no",
          "name": "Basaveshwara Khanavali",
          "name:kn": "\u0cac\u0cb8\u0cb5\u0cc7\u0cb6\u0ccd\u0cb5\u0cb0 \u0c96\u0cbe\u0ca8\u0cbe\u0cb5\u0cb3\u0cbf",
          "opening_hours": "Mo-Su 09:00-21:00",
          "outdoor_seating": "no",
          "smoking": "no"
        }
      },
      {
        "type": "node",
        "id": 3451583670,
        "lat": 12.9950242,
        "lon": 77.662944,
        "tags": {
          "amenity": "restaurant",
          "name": "Sai Shiv Sagar"
        }
      },
      {
        "type": "node",
        "id": 3451649990,
        "lat": 12.9940893,
        "lon": 77.6637502,
        "tags": {
          "amenity": "bank",
          "atm": "yes",
          "brand": "Axis Bank",
          "brand:wikidata": "Q2003549",
          "brand:wikipedia": "en:Axis Bank",
          "name": "Axis Bank",
          "name:en": "Axis Bank",
          "name:kn": "\u0c85\u0c95\u0ccd\u0cb8\u0cbf\u0cb8\u0ccd \u0cac\u0ccd\u0caf\u0cbe\u0c82\u0c95\u0ccd",
          "website": "https://www.axisbank.com"
        }
      },
      {
        "type": "node",
        "id": 3451663435,
        "lat": 12.9923397,
        "lon": 77.659961,
        "tags": {
          "amenity": "atm",
          "brand": "State Bank of India",
          "brand:wikidata": "Q1340361",
          "check_date": "2024-12-10",
          "name": "State Bank of India",
          "name:kn": "\u0cad\u0cbe\u0cb0\u0ca4\u0cc0\u0caf \u0cb8\u0ccd\u0c9f\u0cc7\u0c9f\u0ccd \u0cac\u0ccd\u0caf\u0cbe\u0c82\u0c95\u0ccd",
          "operator": "State Bank of India",
          "operator:wikidata": "Q1340361",
          "short_name": "SBI"
        }
      },
      {
        "type": "node",
        "id": 3451664102,
        "lat": 12.9923201,
        "lon": 77.660059,
        "tags": {
          "amenity": "atm",
          "brand": "HDFC Bank",
          "brand:wikidata": "Q631047",
          "check_date": "2024-12-14",
          "name": "HDFC Bank",
          "name:kn": "\u0c8e\u0c9a\u0ccd \u0ca1\u0cbf \u0c8e\u0cab\u0ccd \u0cb8\u0cbf",
          "operator": "HDFC Bank",
          "operator:wikidata": "Q631047",
          "short_name": "HDFC"
        }
      },
      {
        "type": "node",
        "id": 3451665997,
        "lat": 12.9895641,
        "lon": 77.6636078,
        "tags": {
          "amenity": "clinic",
          "name": "Supriya Diagnostic Center"
        }
      },
      {
        "type": "node",
        "id": 3451674829,
        "lat": 12.9925055,
        "lon": 77.6638079,
        "tags": {
          "amenity": "bank",
          "atm": "yes",
          "brand": "Axis Bank",
          "brand:wikidata": "Q2003549",
          "brand:wikipedia": "en:Axis Bank",
          "name": "Axis Bank",
          "name:en": "Axis Bank",
          "name:kn": "\u0c85\u0c95\u0ccd\u0cb8\u0cbf\u0cb8\u0ccd \u0cac\u0ccd\u0caf\u0cbe\u0c82\u0c95\u0ccd",
          "website": "https://www.axisbank.com"
        }
      },
      {
        "type": "node",
        "id": 3451678764,
        "lat": 12.994594,
        "lon": 77.6634203,
        "tags": {
          "addr:city": "Bangalore",
          "addr:postcode": "560016",
          "addr:street": "Benniganahalli",
          "amenity": "restaurant",
          "capacity": "50",
          "cuisine": "regional",
          "delivery": "yes",
          "name": "Nellore Mess",
          "outdoor_seating": "no",
          "smoking": "no",
          "takeaway": "yes"
        }
      },
      {
        "type": "node",
        "id": 3451680338,
        "lat": 12.9950723,
        "lon": 77.6634324,
        "tags": {
          "leisure": "park"
        }
      },
      {
        "type": "node",
        "id": 3785906626,
        "lat": 12.9975386,
        "lon": 77.6552048,
        "tags": {
          "amenity": "atm",
          "brand": "HDFC Bank",
          "brand:wikidata": "Q631047",
          "name": "HDFC Bank",
          "name:kn": "\u0c8e\u0c9a\u0ccd. \u0ca1\u0cbf. \u0c8e\u0cab\u0ccd. \u0cb8\u0cbf..",
          "operator": "HDFC Bank",
          "operator:wikidata": "Q631047",
          "short_name": "HDFC"
        }
      },
      {
        "type": "node",
        "id": 3787440182,
        "lat": 12.9962854,
        "lon": 77.6577102,
        "tags": {
          "addr:city": "Bangalore",
          "addr:postcode": "560038",
          "name": "Nandini Milk Parlor",
          "operator": "Nandini",
          "payment:cash": "yes",
          "payment:paytm": "yes",
          "payment:upi": "yes",
          "shop": "supermarket"
        }
      },
      {
        "type": "node",
        "id": 4066841503,
        "lat": 12.9930498,
        "lon": 77.663735,
        "tags": {
          "addr:city": "Bangalore",
          "addr:postcode": "560093",
          "addr:street": "Naganarapalaya Main Road",
          "amenity": "restaurant",
          "check_date": "2024-04-03",
          "cuisine": "indian",
          "diet:vegetarian": "yes",
          "name": "Sri Krishna Sagar",
          "smoking": "no",
          "source": "survey",
          "takeaway": "yes",
          "wheelchair": "no"
        }
      },
      {
        "type": "node",
        "id": 4141966889,
        "lat": 12.9871041,
        "lon": 77.6620214,
        "tags": {
          "addr:district": "Bengaluru Urban",
          "addr:full": "CGHS Dispensary No.10, DRDO Complex DRDOComplex, C.V.Raman Nagar",
          "addr:postcode": "560093",
          "addr:state": "Karnataka",
          "addr:street": "Dr. APJ Abdul Kalam Road",
          "amenity": "clinic",
          "health_facility:type": "dispensary",
          "healthcare": "centre",
          "name": "CGHS Dispensary No.10",
          "operator:type": "government",
          "source": "OpenGovernmentData",
          "website": "http://nb.bsf.gov.in/CGHS%20DIspenseries.pdf"
        }
      },
      {
        "type": "node",
        "id": 4167717190,
        "lat": 12.9894846,
        "lon": 77.6639748,
        "tags": {
          "amenity": "pharmacy",
          "name": "Trust medical store"
        }
      },
      {
        "type": "node",
        "id": 4171465001,
        "lat": 12.9862101,
        "lon": 77.6623936,
        "tags": {
          "amenity": "clinic",
          "name": "Homeopathic Self Reliance Forum"
        }
      },
      {
        "type": "node",
        "id": 4391425089,
        "lat": 12.9916552,
        "lon": 77.6638354,
        "tags": {
          "amenity": "pharmacy",
          "brand": "Apollo Pharmacy",
          "brand:wikidata": "Q62562612",
          "healthcare": "pharmacy",
          "name": "Apollo Pharmacy",
          "name:en": "Apollo",
          "name:kn": "\u0c85\u0caa\u0cca\u0cb2\u0ccb \u0cab\u0cbe\u0cb0\u0ccd\u0cae\u0cb8\u0cbf",
          "opening_hours": "Mo-Su,PH 07:00-23:00"
        }
      },
      {
        "type": "node",
        "id": 4445171554,
        "lat": 12.995301,
        "lon": 77.6524627,
        "tags": {
          "addr:city": "Bangalore",
          "addr:postcode": "560037",
          "addr:street": "ITPL Main Road, Kundalahalli, Brookefield,",
          "amenity": "pharmacy",
          "name": "Pavan Medicals",
          "phone": "080 2847 5700"
        }
      },
      {
        "type": "node",
        "id": 4470988804,
        "lat": 12.988962,
        "lon": 77.6638451,
        "tags": {
          "amenity": "pharmacy",
          "brand": "MedPlus",
          "brand:wikidata": "Q65684234",
          "healthcare": "pharmacy",
          "name": "MedPlus",
          "name:en": "MedPlus",
          "name:kn": "\u0cae\u0cc6\u0ca1\u0ccd\u200d\u0caa\u0ccd\u0cb2\u0cb8\u0ccd"
        }
      },
      {
        "type": "node",
        "id": 4599152890,
        "lat": 12.9890578,
        "lon": 77.6640639,
        "tags": {
          "amenity": "restaurant",
          "name": "Janpriya Tiffin",
          "name:en": "Janpriya Tiffin"
        }
      },
      {
        "type": "node",
        "id": 4599153790,
        "lat": 12.9891957,
        "lon": 77.663856,
        "tags": {
          "amenity": "clinic",
          "name": "Life line clinic",
          "name:en": "Life line clinic"
        }
      },
      {
        "type": "node",
        "id": 4599826689,
        "lat": 12.9932504,
        "lon": 77.6619846,
        "tags": {
          "addr:city": "Bangalore",
          "addr:housename": "Gopalan Signature Mall",
          "addr:postcode": "560016",
          "addr:street": "Swamy Vivekananda Road",
          "amenity": "atm",
          "operator": "City Bank"
        }
      },
      {
        "type": "node",
        "id": 4599826789,
        "lat": 12.9922876,
        "lon": 77.6599855,
        "tags": {
          "amenity": "bank",
          "brand": "State Bank of India",
          "brand:wikidata": "Q1340361",
          "brand:wikipedia": "en:State Bank of India",
          "name": "State Bank of India",
          "name:kn": "\u0cad\u0cbe\u0cb0\u0ca4\u0cc0\u0caf \u0cb8\u0ccd\u0c9f\u0cc7\u0c9f\u0ccd \u0cac\u0ccd\u0caf\u0cbe\u0c82\u0c95\u0ccd",
          "short_name": "SBI",
          "website": "https://www.sbi.co.in"
        }
      },
      {
        "type": "node",
        "id": 4680308696,
        "lat": 12.984816,
        "lon": 77.6656733,
        "tags": {
          "amenity": "clinic",
          "name": "Government Health Center",
          "name:hi": "Government Health Center"
        }
      },
      {
        "type": "node",
        "id": 4680353494,
        "lat": 12.9853876,
        "lon": 77.6647856,
        "tags": {
          "amenity": "atm",
          "brand": "City Union Bank",
          "brand:en": "City Union Bank",
          "brand:hi": "\u0938\u093f\u091f\u0940 \u092f\u0942\u0928\u093f\u092f\u0928 \u092c\u0948\u0902\u0915",
          "brand:ta": "\u0b9a\u0bbf\u0b9f\u0bcd\u0b9f\u0bbf \u0baf\u0bc2\u0ba9\u0bbf\u0baf\u0ba9\u0bcd \u0bb5\u0b99\u0bcd\u0b95\u0bbf",
          "brand:wikidata": "Q2040264",
          "name:en": "City Union Bank",
          "name:hi": "\u0938\u093f\u091f\u0940 \u092f\u0942\u0928\u093f\u092f\u0928 \u092c\u0948\u0902\u0915",
          "name:ta": "\u0b9a\u0bbf\u0b9f\u0bcd\u0b9f\u0bbf \u0baf\u0bc2\u0ba9\u0bbf\u0baf\u0ba9\u0bcd \u0bb5\u0b99\u0bcd\u0b95\u0bbf",
          "operator": "City Union Bank",
          "operator:wikidata": "Q2040264",
          "short_name": "CUB"
        }
      },
      {
        "type": "node",
        "id": 4686804000,
        "lat": 12.9907421,
        "lon": 77.6637709,
        "tags": {
          "amenity": "atm",
          "brand": "Canara Bank",
          "brand:en": "Canara Bank",
          "brand:hi": "\u0915\u0947\u0928\u0930\u093e \u092c\u0948\u0902\u0915",
          "brand:kn": "\u0c95\u0cc6\u0ca8\u0cb0\u0cbe \u0cac\u0ccd\u0caf\u0cbe\u0c82\u0c95\u0ccd",
          "brand:pa": "\u0a15\u0a47\u0a28\u0a30\u0a3e \u0a2c\u0a48\u0a02\u0a15",
          "brand:pnb": "\u06a9\u06cc\u0646\u0631\u0627 \u0628\u06cc\u0646\u06a9",
          "brand:ur": "\u06a9\u06cc\u0646\u0631\u0627 \u0628\u06cc\u0646\u06a9",
          "brand:wikidata": "Q2003777",
          "name": "Canara Bank",
          "name:en": "Canara Bank",
          "name:hi": "\u0915\u0947\u0928\u0930\u093e \u092c\u0948\u0902\u0915",
          "name:kn": "\u0c95\u0cc6\u0ca8\u0cb0\u0cbe \u0cac\u0ccd\u0caf\u0cbe\u0c82\u0c95\u0ccd",
          "name:pa": "\u0a15\u0a47\u0a28\u0a30\u0a3e \u0a2c\u0a48\u0a02\u0a15",
          "name:pnb": "\u06a9\u06cc\u0646\u0631\u0627 \u0628\u06cc\u0646\u06a9",
          "name:ur": "\u06a9\u06cc\u0646\u0631\u0627 \u0628\u06cc\u0646\u06a9",
          "operator": "Canara Bank",
          "operator:wikidata": "Q2003777"
        }
      },
      {
        "type": "node",
        "id": 4719715796,
        "lat": 12.993553,
        "lon": 77.664097,
        "tags": {
          "addr:city": "Bangalore",
          "addr:postcode": "560093",
          "addr:street": "Nagavarapalaya Main Road",
          "amenity": "fast_food",
          "brand": "Papa John's",
          "brand:wikidata": "Q2759586",
          "cuisine": "pizza",
          "name": "Papa John's",
          "opening_hours": "11:00 - 23:00",
          "phone": "080-65691122",
          "takeaway": "yes",
          "website": "https://www.papajohnspizza.in"
        }
      },
      {
        "type": "node",
        "id": 4886691221,
        "lat": 12.9945917,
        "lon": 77.6669317,
        "tags": {
          "amenity": "restaurant",
          "cuisine": "chinese;indian",
          "name": "Sri Krishna restaurant",
          "name:en": "Sri Krishna restaurant"
        }
      },
      {
        "type": "node",
        "id": 4954362671,
        "lat": 12.9937229,
        "lon": 77.6608029,
        "tags": {
          "addr:city": "Bangalore",
          "addr:housename": "The Bay, RMZ Infinity",
          "addr:postcode": "560016",
          "addr:street": "Swamy Vivekananda Road",
          "amenity": "cafe",
          "brand": "Chai Point",
          "brand:wikidata": "Q28173415",
          "cuisine": "coffee_shop;sandwich;tea",
          "internet_access": "yes",
          "internet_access:fee": "yes",
          "name": "Chai Point",
          "opening_hours": "Mo-Su 09:00-21:00",
          "outdoor_seating": "yes",
          "smoking": "no",
          "takeaway": "yes"
        }
      },
      {
        "type": "node",
        "id": 4954362672,
        "lat": 12.9940292,
        "lon": 77.6607974,
        "tags": {
          "addr:city": "Bangalore",
          "addr:housename": "The Bay, RMZ Infinity",
          "addr:postcode": "560016",
          "addr:street": "Swamy Vivekananda Road",
          "amenity": "fast_food",
          "cuisine": "italian",
          "delivery": "no",
          "drive_through": "no",
          "name": "Pasta Roma",
          "outdoor_seating": "no",
          "smoking": "no",
          "takeaway": "yes"
        }
      },
      {
        "type": "node",
        "id": 10303904018,
        "lat": 12.9952617,
        "lon": 77.6663992,
        "tags": {
          "air_conditioning": "yes",
          "amenity": "fast_food",
          "brand": "Domino's",
          "brand:wikidata": "Q839466",
          "check_date": "2023-01-04",
          "cuisine": "pizza",
          "diet:vegetarian": "yes",
          "indoor_seating": "yes",
          "name": "Domino's",
          "name:kn": "\u0ca1\u0cbe\u0cae\u0cbf\u0ca8\u0ccb\u0cb8\u0ccd",
          "outdoor_seating": "no",
          "smoking": "no",
          "source": "survey",
          "takeaway": "yes"
        }
      },
      {
        "type": "node",
        "id": 12787887504,
        "lat": 12.9952872,
        "lon": 77.6668873,
        "tags": {
          "amenity": "restaurant",
          "check_date": "2025-04-26",
          "indoor_seating": "yes",
          "name": "Zaatar",
          "outdoor_seating": "no"
        }
      },
      {
        "type": "node",
        "id": 12883873345,
        "lat": 13.0010582,
        "lon": 77.6618418,
        "tags": {
          "addr:floor": "G",
          "amenity": "fast_food",
          "check_date": "2025-06-03",
          "level": "0",
          "name": "Calcutta Victoria Chat House",
          "name:en": "Calcutta Victoria Chat House"
        }
      },
      {
        "type": "node",
        "id": 12883873346,
        "lat": 13.0010509,
        "lon": 77.6620713,
        "tags": {
          "addr:floor": "G",
          "amenity": "fast_food",
          "check_date": "2025-06-03",
          "level": "0",
          "name": "Pooja Dosa Camp",
          "name:en": "Pooja Dosa Camp"
        }
      },
      {
        "type": "node",
        "id": 12887426834,
        "lat": 13.001333,
        "lon": 77.6619286,
        "tags": {
          "addr:floor": "G",
          "amenity": "pharmacy",
          "check_date": "2025-06-05",
          "healthcare": "pharmacy",
          "level": "0",
          "name": "MedPlus",
          "name:en": "MedPlus"
        }
      },
      {
        "type": "node",
        "id": 12918683669,
        "lat": 12.9922597,
        "lon": 77.6600575,
        "tags": {
          "air_conditioning": "yes",
          "amenity": "bank",
          "brand": "HDFC Bank",
          "brand:wikidata": "Q631047",
          "check_date": "2025-06-16",
          "name": "HDFC Bank",
          "short_name": "HDFC",
          "source": "survey"
        }
      },
      {
        "type": "node",
        "id": 12950084737,
        "lat": 13.0009874,
        "lon": 77.6621046,
        "tags": {
          "amenity": "fast_food",
          "check_date": "2025-06-24",
          "name": "Banaras Chats",
          "name:en": "Banaras Chats"
        }
      }
    ]
  },
  "pois_2_5km": {
    "version": 0.6,
    "generator": "Overpass API 0.7.62.8 e802775f",
    "osm3s": {
      "timestamp_osm_base": "2025-09-06T08:20:35Z",
      "copyright": "The data included in this document is from www.openstreetmap.org. The data is made available under ODbL."
    },
    "elements": [
      {
        "type": "node",
        "id": 414032162,
        "lat": 12.9812136,
        "lon": 77.6570884,
        "tags": {
          "amenity": "fuel",
          "brand": "Hindustan Petroleum",
          "brand:wikidata": "Q1619375",
          "name": "HP Auto Care",
          "official_name": "Hindustan Petroleum"
        }
      },
      {
        "type": "node",
        "id": 443811552,
        "lat": 13.0118566,
        "lon": 77.6628136,
        "tags": {
          "internet_access": "no",
          "name": "Channasandra",
          "name:kn": "\u0c9a\u0ca8\u0ccd\u0ca8\u0cb8\u0c82\u0ca6\u0ccd\u0cb0",
          "name:ml": "\u0d1a\u0d28\u0d4d\u0d28\u0d38\u0d28\u0d4d\u0d26\u0d4d\u0d30",
          "network": "IR",
          "operator": "SWR",
          "public_transport": "station",
          "railway": "station",
          "ref": "CSDR",
          "wikidata": "Q63354822"
        }
      },
      {
        "type": "node",
        "id": 568363732,
        "lat": 12.9906745,
        "lon": 77.652392,
        "tags": {
          "code": "BYPH",
          "name": "Baiyappanahalli",
          "name:kn": "\u0cac\u0cc8\u0caf\u0caa\u0ccd\u0caa\u0ca8\u0cb9\u0cb3\u0ccd\u0cb3\u0cbf",
          "network": "Namma Metro",
          "note": "Contributors are requested to not edit the \"network\" and the \"operator\" tags. (2023/11/08)",
          "operator": "Bangalore Metro Rail Corporation Limited",
          "platforms": "3",
          "public_transport": "stop_position",
          "public_transport:version": "2",
          "railway": "stop",
          "source": "http://www.bmrc.co.in/English/Network.htm",
          "subway": "yes",
          "wheelchair": "yes"
        }
      },
      {
        "type": "node",
        "id": 850782866,
        "lat": 12.9859128,
        "lon": 77.6449072,
        "tags": {
          "alt_name": "Old Madras Road Metro",
          "code": "SVRD",
          "name": "Swami Vivekananda Road",
          "name:etymology:wikidata": "Q47478",
          "name:kn": "\u0cb8\u0ccd\u0cb5\u0cbe\u0cae\u0cbf \u0cb5\u0cbf\u0cb5\u0cc7\u0c95\u0cbe\u0ca8\u0c82\u0ca6 \u0cb0\u0cb8\u0ccd\u0ca4\u0cc6",
          "network": "Namma Metro",
          "note": "Contributors are requested to not edit the \"network\" and the \"operator\" tags. (2023/11/08)",
          "operator": "Bangalore Metro Rail Corporation Limited",
          "platforms": "2",
          "public_transport": "stop_position",
          "public_transport:version": "2",
          "railway": "stop",
          "source": "http://www.bmrc.co.in/English/Network.htm",
          "subway": "yes",
          "wheelchair": "yes",
          "wikidata": "Q5539450",
          "wikipedia": "en:Swami Vivekananda Road metro station"
        }
      },
      {
        "type": "node",
        "id": 1078188306,
        "lat": 12.9979379,
        "lon": 77.6706603,
        "tags": {
          "amenity": "fuel",
          "brand": "Bharat Petroleum",
          "brand:wikidata": "Q854826",
          "compressed_air": "yes",
          "name": "Gokula Petrol / Gas Station"
        }
      },
      {
        "type": "node",
        "id": 1177155562,
        "lat": 12.9912092,
        "lon": 77.6517139,
        "tags": {
          "internet_access": "no",
          "name": "Baiyyappanahalli Junction",
          "name:kn": "\u0cac\u0cc8\u0caf\u0caa\u0ccd\u0caa\u0ca8\u0cb9\u0cb3\u0ccd\u0cb3\u0cbf",
          "name:ml": "\u0d2c\u0d48\u0d2f\u0d2a\u0d4d\u0d2a\u0d28\u0d39\u0d33\u0d4d\u0d33\u0d3f",
          "network": "IR",
          "operator": "SWR",
          "public_transport": "station",
          "railway": "station",
          "ref": "BYPL",
          "train": "yes",
          "wikidata": "Q55604734",
          "wikipedia": "en:Baiyyappanahalli railway station"
        }
      },
      {
        "type": "node",
        "id": 2475421200,
        "lat": 12.984982,
        "lon": 77.6431751,
        "tags": {
          "bus": "yes",
          "name": "Isolation Hospital",
          "name:en": "Isolation Hospital",
          "name:kn": "\u0c90\u0cb8\u0cca\u0cb2\u0cc7\u0cb6\u0ca8\u0ccd \u0c86\u0cb8\u0ccd\u0caa\u0ca4\u0ccd\u0cb0\u0cc6",
          "network": "BMTC",
          "operator": "BMTC",
          "public_transport": "stop_position"
        }
      },
      {
        "type": "node",
        "id": 2475421201,
        "lat": 12.9850895,
        "lon": 77.6431664,
        "tags": {
          "bus": "yes",
          "name": "Isolation Hospital",
          "name:en": "Isolation Hospital",
          "name:kn": "\u0c90\u0cb8\u0cca\u0cb2\u0cc7\u0cb6\u0ca8\u0ccd \u0c86\u0cb8\u0ccd\u0caa\u0ca4\u0ccd\u0cb0\u0cc6",
          "network": "BMTC",
          "operator": "BMTC",
          "public_transport": "stop_position"
        }
      },
      {
        "type": "node",
        "id": 2481972739,
        "lat": 12.9934178,
        "lon": 77.6641088,
        "tags": {
          "addr:city": "Bangalore",
          "addr:floor": "2",
          "addr:housename": "Gopalan Grand Mall",
          "addr:street": "Swamy Vivekananda Road (Old Madras Road)",
          "addr:suburb": "Nagarvaraplaya",
          "air_conditioning": "yes",
          "amenity": "cinema",
          "check_date": "2024-04-03",
          "level": "2",
          "name": "Gopalan Cinemas",
          "payment:cash": "yes",
          "payment:credit_cards": "yes",
          "payment:debit_cards": "yes",
          "phone": "+91 80 25242424",
          "source": "survey",
          "website": "http://www.gopalancinemas.com"
        }
      },
      {
        "type": "node",
        "id": 3370028601,
        "lat": 12.978257,
        "lon": 77.6443355,
        "tags": {
          "addr:street": "Chinmaya Mission Hospital Road",
          "amenity": "theatre",
          "name": "Max Muller Bhavan",
          "name:kn": "\u0cae\u0cbe\u0c95\u0ccd\u0cb8\u0ccd \u0cae\u0cc1\u0cb2\u0ccd\u0cb2\u0cb0\u0ccd \u0cad\u0cb5\u0ca8"
        }
      },
      {
        "type": "node",
        "id": 4548694596,
        "lat": 12.996496,
        "lon": 77.6684788,
        "tags": {
          "alt_name": "Tin Factory",
          "alt_name:kn": "\u0c9f\u0cbf\u0ca8\u0ccd \u0cab\u0ccd\u0caf\u0cbe\u0c95\u0ccd\u0c9f\u0cb0\u0cbf",
          "name": "Benniganahalli",
          "name:kn": "\u0cac\u0cc6\u0ca8\u0ccd\u0ca8\u0cbf\u0c97\u0cbe\u0ca8\u0cb9\u0cb3\u0ccd\u0cb3\u0cbf",
          "network": "Namma Metro",
          "note": "Contributors are requested to not edit the \"network\" and the \"operator\" tags. (2023/11/08)",
          "operator": "Bangalore Metro Rail Corporation Limited",
          "public_transport": "stop_position",
          "railway": "stop",
          "station": "subway",
          "subway": "yes"
        }
      },
      {
        "type": "node",
        "id": 4548694631,
        "lat": 12.9998836,
        "lon": 77.6778421,
        "tags": {
          "alt_name": "Krishnarajapuram",
          "code": "KRAM",
          "name": "Krishnarajapura",
          "name:kn": "\u0c95\u0cc3\u0cb7\u0ccd\u0ca3\u0cb0\u0cbe\u0c9c\u0caa\u0cc1\u0cb0 (\u0c95\u0cc6.\u0c86\u0cb0\u0ccd.\u0caa\u0cc1\u0cb0)",
          "network": "Namma Metro",
          "note": "Contributors are requested to not edit the \"network\" and the \"operator\" tags. (2023/11/08)",
          "old_name": "K R Pura",
          "operator": "Bangalore Metro Rail Corporation Limited",
          "platforms": "2",
          "public_transport": "stop_position",
          "public_transport:version": "2",
          "railway": "stop",
          "subway": "yes",
          "wheelchair": "yes"
        }
      },
      {
        "type": "node",
        "id": 4931120486,
        "lat": 12.9963228,
        "lon": 77.6685494,
        "tags": {
          "bus": "yes",
          "name": "Tin Factory",
          "name:en": "Tin Factory",
          "network": "BMTC",
          "operator": "BMTC",
          "public_transport": "stop_position"
        }
      },
      {
        "type": "node",
        "id": 5484243422,
        "lat": 12.9867569,
        "lon": 77.6470711,
        "tags": {
          "amenity": "theatre",
          "name": "Santhe Open Air theatre"
        }
      },
      {
        "type": "node",
        "id": 5558684072,
        "lat": 12.9856584,
        "lon": 77.6638418,
        "tags": {
          "bus": "yes",
          "name": "CV Raman Nagara",
          "name:en": "CV Raman Nagara",
          "network": "BMTC",
          "operator": "BMTC",
          "public_transport": "stop_position"
        }
      },
      {
        "type": "node",
        "id": 5760197765,
        "lat": 12.9999024,
        "lon": 77.6776703,
        "tags": {
          "alt_name": "Krishnarajapuram",
          "code": "KRAM",
          "colour": "#e542de",
          "name": "Krishnarajapura",
          "name:kn": "\u0c95\u0cc3\u0cb7\u0ccd\u0ca3\u0cb0\u0cbe\u0c9c\u0caa\u0cc1\u0cb0 (\u0c95\u0cc6.\u0c86\u0cb0\u0ccd.\u0caa\u0cc1\u0cb0)",
          "name:ml": "\u0d15\u0d43\u0d37\u0d4d\u0d23\u0d30\u0d3e\u0d1c\u0d2a\u0d41\u0d30\u0d02",
          "name:ta": "\u0b95\u0bbf\u0bb0\u0bc1\u0bb7\u0bcd\u0ba3\u0bb0\u0bbe\u0b9c\u0baa\u0bc1\u0bb0\u0bbe",
          "network": "Namma Metro",
          "note": "Contributors are requested to not edit the \"network\" and the \"operator\" tags. (2023/11/08)",
          "old_name": "K R Pura",
          "operator": "Bangalore Metro Rail Corporation Limited",
          "public_transport": "station",
          "railway": "station",
          "short_name": "K.R. Pura",
          "station": "subway",
          "subway": "yes",
          "wheelchair": "yes",
          "wikidata": "Q112683488",
          "wikipedia": "en:Krishnarajapura metro station"
        }
      },
      {
        "type": "node",
        "id": 5760197766,
        "lat": 12.9965158,
        "lon": 77.6684619,
        "tags": {
          "alt_name": "Tin Factory",
          "alt_name:kn": "\u0c9f\u0cbf\u0ca8\u0ccd \u0cab\u0ccd\u0caf\u0cbe\u0c95\u0ccd\u0c9f\u0cb0\u0cbf",
          "code": "JTPM",
          "name": "Benniganahalli",
          "name:kn": "\u0cac\u0cc6\u0ca8\u0ccd\u0ca8\u0cbf\u0c97\u0cbe\u0ca8\u0cb9\u0cb3\u0ccd\u0cb3\u0cbf",
          "name:ml": "\u0d2c\u0d46\u0d28\u0d4d\u0d28\u0d3f\u0d17\u0d3e\u0d28\u0d39\u0d33\u0d4d\u0d33\u0d3f",
          "name:ta": "\u0baa\u0bc6\u0ba9\u0bcd\u0ba9\u0bbf\u0b99\u0bcd\u0b95\u0ba9\u0bb9\u0bb3\u0bcd\u0bb3\u0bbf",
          "network": "Namma Metro",
          "note": "Contributors are requested to not edit the \"network\" and the \"operator\" tags. (2023/11/08)",
          "operator": "Bangalore Metro Rail Corporation Limited",
          "public_transport": "station",
          "railway": "station",
          "start_date": "09/10/2023",
          "station": "subway",
          "subway": "yes"
        }
      },
      {
        "type": "node",
        "id": 5760197769,
        "lat": 12.9907136,
        "lon": 77.6523733,
        "tags": {
          "code": "BYPH",
          "name": "Baiyappanahalli",
          "name:kn": "\u0cac\u0cc8\u0caf\u0caa\u0ccd\u0caa\u0ca8\u0cb9\u0cb3\u0ccd\u0cb3\u0cbf",
          "network": "Namma Metro",
          "note": "Contributors are requested to not edit the \"network\" and the \"operator\" tags. (2023/11/08)",
          "operator": "Bangalore Metro Rail Corporation Limited",
          "platforms": "3",
          "public_transport": "stop_position",
          "public_transport:version": "2",
          "railway": "stop",
          "source": "http://www.bmrc.co.in/English/Network.htm",
          "subway": "yes",
          "wheelchair": "yes"
        }
      },
      {
        "type": "node",
        "id": 5760197790,
        "lat": 12.9859543,
        "lon": 77.6448902,
        "tags": {
          "alt_name": "Old Madras Road Metro",
          "code": "SVRD",
          "name": "Swami Vivekananda Road",
          "name:etymology:wikidata": "Q47478",
          "name:kn": "\u0cb8\u0ccd\u0cb5\u0cbe\u0cae\u0cbf \u0cb5\u0cbf\u0cb5\u0cc7\u0c95\u0cbe\u0ca8\u0c82\u0ca6 \u0cb0\u0cb8\u0ccd\u0ca4\u0cc6",
          "network": "Namma Metro",
          "note": "Contributors are requested to not edit the \"network\" and the \"operator\" tags. (2023/11/08)",
          "operator": "Bangalore Metro Rail Corporation Limited",
          "platforms": "2",
          "public_transport": "stop_position",
          "public_transport:version": "2",
          "railway": "stop",
          "source": "http://www.bmrc.co.in/English/Network.htm",
          "subway": "yes",
          "wheelchair": "yes",
          "wikidata": "Q5539450",
          "wikipedia": "en:Swami Vivekananda Road metro station"
        }
      },
      {
        "type": "node",
        "id": 6400857549,
        "lat": 12.9907594,
        "lon": 77.6523612,
        "tags": {
          "code": "BYPH",
          "layer": "1",
          "lit": "yes",
          "name": "Baiyappanahalli",
          "name:kn": "\u0cac\u0cc8\u0caf\u0ccd\u0caf\u0caa\u0ccd\u0caa\u0ca8\u0cb9\u0cb3\u0ccd\u0cb3\u0cbf \u0cae\u0cc6\u0c9f\u0ccd\u0cb0\u0ccb \u0ca8\u0cbf\u0cb2\u0ccd\u0ca6\u0cbe\u0ca3",
          "name:ml": "\u0d2c\u0d48\u0d2f\u0d2a\u0d4d\u0d2a\u0d28\u0d39\u0d33\u0d4d\u0d33\u0d3f",
          "network": "Namma Metro",
          "note": "Contributors are requested to not edit the \"network\" and the \"operator\" tags. (2023/11/08)",
          "operator": "Bangalore Metro Rail Corporation Limited",
          "platforms": "2",
          "public_transport": "station",
          "public_transport:version": "2",
          "railway": "station",
          "shelter": "yes",
          "station": "subway",
          "subway": "yes",
          "website": "https://english.brmc.co.in",
          "wheelchair": "yes"
        }
      },
      {
        "type": "node",
        "id": 6400857550,
        "lat": 12.9859306,
        "lon": 77.644897,
        "tags": {
          "code": "SVRD",
          "layer": "1",
          "lit": "yes",
          "name": "Swami Vivekananda Road",
          "name:etymology:wikidata": "Q47478",
          "name:kn": "\u0cb8\u0ccd\u0cb5\u0cbe\u0cae\u0cbf \u0cb5\u0cbf\u0cb5\u0cc7\u0c95\u0cbe\u0ca8\u0c82\u0ca6 \u0cb0\u0cb8\u0ccd\u0ca4\u0cc6",
          "name:ml": "\u0d38\u0d4d\u0d35\u0d3e\u0d2e\u0d3f \u0d35\u0d3f\u0d35\u0d47\u0d15\u0d3e\u0d28\u0d28\u0d4d\u0d26 \u0d31\u0d4b\u0d21\u0d4d",
          "network": "Namma Metro",
          "note": "Contributors are requested to not edit the \"network\" and the \"operator\" tags. (2023/11/08)",
          "operator": "Bangalore Metro Rail Corporation Limited",
          "platforms": "2",
          "public_transport": "station",
          "public_transport:version": "2",
          "railway": "station",
          "shelter": "yes",
          "station": "subway",
          "subway": "yes",
          "website": "https://english.brmc.co.in",
          "wheelchair": "yes"
        }
      },
      {
        "type": "node",
        "id": 7139675004,
        "lat": 13.0115225,
        "lon": 77.6733505,
        "tags": {
          "bus": "yes",
          "name": "Yarayyanapalya",
          "name:en": "Yarayyanapalya",
          "name:kn": "\u0caf\u0cb0\u0caf\u0ccd\u0caf\u0ca8 \u0caa\u0cbe\u0cb3\u0ccd\u0caf",
          "network": "BMTC",
          "operator": "BMTC",
          "public_transport": "stop_position"
        }
      },
      {
        "type": "node",
        "id": 7139675006,
        "lat": 13.0116244,
        "lon": 77.6705459,
        "tags": {
          "bus": "yes",
          "name": "Ramamurthy Nagara Manipal",
          "name:en": "Ramamurthy Nagara Manipal",
          "network": "BMTC",
          "operator": "BMTC",
          "public_transport": "stop_position"
        }
      },
      {
        "type": "node",
        "id": 7139675007,
        "lat": 13.0120388,
        "lon": 77.6679564,
        "tags": {
          "bus": "yes",
          "name": "Ramamurthy Nagara Police Station",
          "name:en": "Ramamurthy Nagara Police Station",
          "name:kn": "\u0cb0\u0cbe\u0cae\u0cae\u0cc2\u0cb0\u0ccd\u0ca4\u0cbf\u0ca8\u0c97\u0cb0 \u0c86\u0cb0\u0c95\u0ccd\u0cb7\u0c95 \u0ca0\u0cbe\u0ca3\u0cc6",
          "network": "BMTC",
          "operator": "BMTC",
          "public_transport": "stop_position"
        }
      },
      {
        "type": "node",
        "id": 7139675008,
        "lat": 13.0130769,
        "lon": 77.6630197,
        "tags": {
          "bus": "yes",
          "name": "B Channasandra Bridge",
          "name:en": "B Channasandra Bridge",
          "network": "BMTC",
          "operator": "BMTC",
          "public_transport": "stop_position"
        }
      },
      {
        "type": "node",
        "id": 7139675009,
        "lat": 13.0143522,
        "lon": 77.6582418,
        "tags": {
          "bus": "yes",
          "name": "New Baldwin School",
          "name:en": "New Baldwin School",
          "network": "BMTC",
          "operator": "BMTC",
          "public_transport": "stop_position"
        }
      },
      {
        "type": "node",
        "id": 7156942411,
        "lat": 12.9777293,
        "lon": 77.6466319,
        "tags": {
          "bus": "yes",
          "name": "CMH Hospital",
          "name:en": "CMH Hospital",
          "network": "BMTC",
          "operator": "BMTC",
          "public_transport": "stop_position"
        }
      },
      {
        "type": "node",
        "id": 7488396058,
        "lat": 12.9806842,
        "lon": 77.6563394,
        "tags": {
          "bus": "yes",
          "name": "Bagmane Tech Park",
          "name:en": "Bagmane Tech Park",
          "network": "BMTC",
          "operator": "BMTC",
          "public_transport": "stop_position"
        }
      },
      {
        "type": "node",
        "id": 10181978911,
        "lat": 12.9807765,
        "lon": 77.6567441,
        "tags": {
          "bus": "yes",
          "name": "Bagmane Tech Park",
          "name:en": "Bagmane Tech Park",
          "network": "BMTC",
          "operator": "BMTC",
          "public_transport": "stop_position"
        }
      },
      {
        "type": "node",
        "id": 10252966552,
        "lat": 13.0005993,
        "lon": 77.6756492,
        "tags": {
          "alt_name": "K R Puram Junction",
          "internet_access": "wlan",
          "name": "Krishnarajapuram",
          "name:kn": "\u0c95\u0cc3\u0cb7\u0ccd\u0ca3\u0cb0\u0cbe\u0c9c\u0caa\u0cc1\u0cb0",
          "name:ml": "\u0d15\u0d43\u0d37\u0d4d\u0d23\u0d30\u0d3e\u0d1c\u0d2a\u0d41\u0d30\u0d02",
          "network": "IR",
          "operator": "SWR",
          "public_transport": "station",
          "railway": "station",
          "ref": "KJM",
          "train": "yes",
          "wikidata": "Q6437604",
          "wikipedia": "en:Krishnarajapuram railway station"
        }
      },
      {
        "type": "node",
        "id": 10761647016,
        "lat": 12.9999402,
        "lon": 77.6779104,
        "tags": {
          "alt_name": "Krishnarajapuram",
          "code": "KRAM",
          "name": "Krishnarajapura",
          "name:kn": "\u0c95\u0cc3\u0cb7\u0ccd\u0ca3\u0cb0\u0cbe\u0c9c\u0caa\u0cc1\u0cb0 (\u0c95\u0cc6.\u0c86\u0cb0\u0ccd.\u0caa\u0cc1\u0cb0)",
          "network": "Namma Metro",
          "note": "Contributors are requested to not edit the \"network\" and the \"operator\" tags. (2023/11/08)",
          "old_name": "K R Pura",
          "operator": "Bangalore Metro Rail Corporation Limited",
          "platforms": "2",
          "public_transport": "stop_position",
          "public_transport:version": "2",
          "railway": "stop",
          "subway": "yes",
          "wheelchair": "yes"
        }
      },
      {
        "type": "node",
        "id": 11108947099,
        "lat": 13.0129811,
        "lon": 77.6639785,
        "tags": {
          "addr:city": "Bengaluru",
          "addr:district": "Bengaluru Urban",
          "addr:housenumber": "827/6",
          "addr:postcode": "560016",
          "addr:street": "3rd Floor, D.V.R ARCADE, Ramamurthy nagar main road",
          "amenity": "theatre",
          "amenity_1": "cafe",
          "name": "Chaplin Hut",
          "website": "https://www.chaplinhut.com/"
        }
      },
      {
        "type": "node",
        "id": 11248381603,
        "lat": 12.9965359,
        "lon": 77.6684581,
        "tags": {
          "alt_name": "Tin Factory",
          "alt_name:kn": "\u0c9f\u0cbf\u0ca8\u0ccd \u0cab\u0ccd\u0caf\u0cbe\u0c95\u0ccd\u0c9f\u0cb0\u0cbf",
          "name": "Benniganahalli",
          "name:kn": "\u0cac\u0cc6\u0ca8\u0ccd\u0ca8\u0cbf\u0c97\u0cbe\u0ca8\u0cb9\u0cb3\u0ccd\u0cb3\u0cbf",
          "network": "Namma Metro",
          "note": "Contributors are requested to not edit the \"network\" and the \"operator\" tags. (2023/11/08)",
          "operator": "Bangalore Metro Rail Corporation Limited",
          "public_transport": "stop_position",
          "railway": "stop",
          "station": "subway",
          "subway": "yes"
        }
      },
      {
        "type": "node",
        "id": 11506269875,
        "lat": 12.9838086,
        "lon": 77.6793841,
        "tags": {
          "bus": "yes",
          "name": "Kaggadasapura",
          "name:en": "Kaggadasapura",
          "name:kn": "\u0c95\u0c97\u0ccd\u0c97\u0ca6\u0cbe\u0cb8\u0caa\u0cc1\u0cb0",
          "network": "BMTC",
          "operator": "BMTC",
          "public_transport": "stop_position"
        }
      },
      {
        "type": "node",
        "id": 11872065333,
        "lat": 12.9994616,
        "lon": 77.6404405,
        "tags": {
          "bus": "yes",
          "name": "Sir M Vishweshwaraiah Railway Station",
          "name:en": "Sir M Vishweshwaraiah Railway Station",
          "network": "BMTC",
          "operator": "BMTC",
          "public_transport": "stop_position"
        }
      },
      {
        "type": "node",
        "id": 12032654081,
        "lat": 12.9919523,
        "lon": 77.651647,
        "tags": {
          "alt_name": "NGEF Ground",
          "bus": "yes",
          "loc_name": "SADANANDA NAGARA",
          "name": "Baiyappanahalli Metro Station Back Gate",
          "name:en": "Baiyappanahalli Metro Station Back Gate",
          "network": "BMTC",
          "operator": "BMTC",
          "public_transport": "stop_position"
        }
      },
      {
        "type": "node",
        "id": 12032654130,
        "lat": 13.0101958,
        "lon": 77.6576446,
        "tags": {
          "bus": "yes",
          "name": "B Channasandra",
          "name:en": "B Channasandra",
          "network": "BMTC",
          "operator": "BMTC",
          "public_transport": "stop_position"
        }
      },
      {
        "type": "node",
        "id": 12032654132,
        "lat": 13.0011542,
        "lon": 77.6618897,
        "tags": {
          "bus": "yes",
          "name": "Kasturinagara 2nd Stage",
          "name:en": "Kasturinagara 2nd Stage",
          "network": "BMTC",
          "operator": "BMTC",
          "public_transport": "stop_position"
        }
      },
      {
        "type": "node",
        "id": 12032654133,
        "lat": 13.0122945,
        "lon": 77.6620397,
        "tags": {
          "alt_name": "Ramamurthy Nagar Bridge",
          "bus": "yes",
          "name": "B Channasandra Bridge",
          "name:en": "B Channasandra Bridge",
          "network": "BMTC",
          "operator": "BMTC",
          "public_transport": "stop_position"
        }
      },
      {
        "type": "node",
        "id": 12032654135,
        "lat": 13.0062095,
        "lon": 77.6594204,
        "tags": {
          "bus": "yes",
          "name": "Doctors Layout Kasturinagara",
          "name:en": "Doctors Layout Kasturinagara",
          "network": "BMTC",
          "operator": "BMTC",
          "public_transport": "stop_position"
        }
      },
      {
        "type": "node",
        "id": 12032654137,
        "lat": 12.9971636,
        "lon": 77.6627552,
        "tags": {
          "bus": "yes",
          "name": "Benniganahalli Bridge",
          "name:en": "Benniganahalli Bridge",
          "network": "BMTC",
          "operator": "BMTC",
          "public_transport": "stop_position"
        }
      },
      {
        "type": "node",
        "id": 12032666183,
        "lat": 12.9943773,
        "lon": 77.6580021,
        "tags": {
          "bus": "yes",
          "name": "Sadananda Nagara",
          "name:en": "Sadananda Nagara",
          "name:kn": "\u0cb8\u0ca6\u0cbe\u0ca8\u0c82\u0ca6 \u0ca8\u0c97\u0cb0",
          "network": "BMTC",
          "operator": "BMTC",
          "public_transport": "stop_position"
        }
      },
      {
        "type": "node",
        "id": 12032666184,
        "lat": 12.9919946,
        "lon": 77.6517129,
        "tags": {
          "alt_name": "NGEF Ground",
          "bus": "yes",
          "loc_name": "SADANANDA NAGARA",
          "name": "Baiyappanahalli Metro Station Back Gate",
          "name:en": "Baiyappanahalli Metro Station Back Gate",
          "network": "BMTC",
          "operator": "BMTC",
          "public_transport": "stop_position"
        }
      },
      {
        "type": "node",
        "id": 12144229557,
        "lat": 12.9835537,
        "lon": 77.6406446,
        "tags": {
          "bus": "yes",
          "name": "Binnamangala",
          "name:en": "Binnamangala",
          "network": "BMTC",
          "operator": "BMTC",
          "public_transport": "stop_position"
        }
      },
      {
        "type": "node",
        "id": 12328467538,
        "lat": 12.9748113,
        "lon": 77.6703641,
        "tags": {
          "bus": "yes",
          "name": "Mallesh Palya",
          "name:en": "Mallesh Palya",
          "network": "BMTC",
          "operator": "BMTC",
          "public_transport": "stop_position"
        }
      },
      {
        "type": "node",
        "id": 12328467539,
        "lat": 12.9753565,
        "lon": 77.6665313,
        "tags": {
          "bus": "yes",
          "name": "GM Palya",
          "name:en": "GM Palya",
          "network": "BMTC",
          "operator": "BMTC",
          "public_transport": "stop_position"
        }
      },
      {
        "type": "node",
        "id": 12328467541,
        "lat": 12.9715575,
        "lon": 77.6579593,
        "tags": {
          "bus": "yes",
          "name": "BEML Gate",
          "name:en": "BEML Gate",
          "network": "BMTC",
          "operator": "BMTC",
          "public_transport": "stop_position"
        }
      },
      {
        "type": "node",
        "id": 12328467543,
        "lat": 12.9720858,
        "lon": 77.654048,
        "tags": {
          "bus": "yes",
          "name": "Thippasandra Ganesha Temple",
          "name:en": "Thippasandra Ganesha Temple",
          "network": "BMTC",
          "operator": "BMTC",
          "public_transport": "stop_position"
        }
      },
      {
        "type": "node",
        "id": 12328467544,
        "lat": 12.9725231,
        "lon": 77.6508338,
        "tags": {
          "bus": "yes",
          "name": "Tippasandra Market",
          "name:en": "Tippasandra Market",
          "network": "BMTC",
          "operator": "BMTC",
          "public_transport": "stop_position"
        }
      },
      {
        "type": "node",
        "id": 12328467545,
        "lat": 12.9775919,
        "lon": 77.6467168,
        "tags": {
          "bus": "yes",
          "name": "CMH Hospital",
          "name:en": "CMH Hospital",
          "network": "BMTC",
          "operator": "BMTC",
          "public_transport": "stop_position"
        }
      },
      {
        "type": "node",
        "id": 12328483219,
        "lat": 12.9710289,
        "lon": 77.6589695,
        "tags": {
          "bus": "yes",
          "name": "BEML Gate",
          "name:en": "BEML Gate",
          "network": "BMTC",
          "operator": "BMTC",
          "public_transport": "stop_position"
        }
      },
      {
        "type": "node",
        "id": 12328483221,
        "lat": 12.9753241,
        "lon": 77.6664602,
        "tags": {
          "bus": "yes",
          "name": "GM Palya",
          "name:en": "GM Palya",
          "network": "BMTC",
          "operator": "BMTC",
          "public_transport": "stop_position"
        }
      },
      {
        "type": "node",
        "id": 12328483222,
        "lat": 12.9747736,
        "lon": 77.6704736,
        "tags": {
          "bus": "yes",
          "name": "Mallesh Palya",
          "name:en": "Mallesh Palya",
          "network": "BMTC",
          "operator": "BMTC",
          "public_transport": "stop_position"
        }
      },
      {
        "type": "node",
        "id": 12514337068,
        "lat": 12.999655,
        "lon": 77.6411538,
        "tags": {
          "alt_name": "Baiyyappanahalli Terminus",
          "name": "Sir M Visvesvaraya Terminal",
          "network": "IR",
          "operator": "SWR",
          "public_transport": "station",
          "railway": "station",
          "ref": "SMVB",
          "start_date": "2022-06-06",
          "train": "yes",
          "wikidata": "Q112672182"
        }
      },
      {
        "type": "node",
        "id": 12712321786,
        "lat": 12.996938,
        "lon": 77.6692287,
        "tags": {
          "bus": "yes",
          "name": "Tin Factory",
          "name:en": "Tin Factory",
          "network": "BMTC",
          "operator": "BMTC",
          "public_transport": "stop_position"
        }
      },
      {
        "type": "node",
        "id": 12735728191,
        "lat": 12.9852537,
        "lon": 77.6425374,
        "tags": {
          "bus": "yes",
          "name": "Isolation Hospital",
          "name:en": "Isolation Hospital",
          "network": "BMTC",
          "operator": "BMTC",
          "public_transport": "stop_position"
        }
      },
      {
        "type": "node",
        "id": 12981544253,
        "lat": 13.0004061,
        "lon": 77.6398487,
        "tags": {
          "bus": "yes",
          "name": "Sathya Nagara",
          "name:en": "Sathya Nagara",
          "network": "BMTC",
          "operator": "BMTC",
          "public_transport": "stop_position"
        }
      },
      {
        "type": "node",
        "id": 13016547162,
        "lat": 12.9767395,
        "lon": 77.6547796,
        "tags": {
          "bus": "yes",
          "name": "Geetanjali Layout",
          "name:en": "Geetanjali Layout",
          "network": "BMTC",
          "operator": "BMTC",
          "public_transport": "stop_position"
        }
      },
      {
        "type": "node",
        "id": 13016547164,
        "lat": 12.9786144,
        "lon": 77.6463813,
        "tags": {
          "bus": "yes",
          "name": "Chinmaya Mission Hospital",
          "name:en": "Chinmaya Mission Hospital",
          "network": "BMTC",
          "operator": "BMTC",
          "public_transport": "stop_position"
        }
      },
      {
        "type": "node",
        "id": 13016547166,
        "lat": 12.9820546,
        "lon": 77.650244,
        "tags": {
          "bus": "yes",
          "name": "GTRE Engine Division",
          "name:en": "GTRE Engine Division",
          "network": "BMTC",
          "operator": "BMTC",
          "public_transport": "stop_position"
        }
      },
      {
        "type": "node",
        "id": 13016547170,
        "lat": 12.9839465,
        "lon": 77.6609234,
        "tags": {
          "bus": "yes",
          "name": "DRDO Quarters",
          "name:en": "DRDO Quarters",
          "network": "BMTC",
          "operator": "BMTC",
          "public_transport": "stop_position"
        }
      },
      {
        "type": "node",
        "id": 13020309804,
        "lat": 13.0001013,
        "lon": 77.6770903,
        "tags": {
          "bus": "yes",
          "name": "KR Pura Metro Station",
          "name:en": "KR Pura Metro Station",
          "network": "BMTC",
          "operator": "BMTC",
          "public_transport": "stop_position"
        }
      }
    ]
  }
}