{
  "pois_1km": {
    "version": 0.6,
    "generator": "Overpass API 0.7.62.8 e802775f",
    "osm3s": {
      "timestamp_osm_base": "2025-09-06T08:19:29Z",
      "copyright": "The data included in this document is from www.openstreetmap.org. The data is made available under ODbL."
    },
    "elements": [
      {
        "type": "node",
        "id": 661983025,
        "lat": 12.985511,
        "lon": 77.5889985,
        "tags": {
          "amenity": "atm",
          "brand": "Canara Bank",
          "brand:en": "Canara Bank",
          "brand:hi": "\u0915\u0947\u0928\u0930\u093e \u092c\u0948\u0902\u0915",
          "brand:kn": "\u0c95\u0cc6\u0ca8\u0cb0\u0cbe \u0cac\u0ccd\u0caf\u0cbe\u0c82\u0c95\u0ccd",
          "brand:pa": "\u0a15\u0a47\u0a28\u0a30\u0a3e \u0a2c\u0a48\u0a02\u0a15",
          "brand:pnb": "\u06a9\u06cc\u0646\u0631\u0627 \u0628\u06cc\u0646\u06a9",
          "brand:ur": "\u06a9\u06cc\u0646\u0631\u0627 \u0628\u06cc\u0646\u06a9",
          "brand:wikidata": "Q2003777",
          "name": "Canara Bank",
          "name:en": "Canara Bank",
          "name:hi": "\u0915\u0947\u0928\u0930\u093e \u092c\u0948\u0902\u0915",
          "name:kn": "\u0c95\u0cc6\u0ca8\u0cb0\u0cbe \u0cac\u0ccd\u0caf\u0cbe\u0c82\u0c95\u0ccd",
          "name:pa": "\u0a15\u0a47\u0a28\u0a30\u0a3e \u0a2c\u0a48\u0a02\u0a15",
          "name:pnb": "\u06a9\u06cc\u0646\u0631\u0627 \u0628\u06cc\u0646\u06a9",
          "name:ur": "\u06a9\u06cc\u0646\u0631\u0627 \u0628\u06cc\u0646\u06a9",
          "operator": "Canara Bank",
          "operator:wikidata": "Q2003777"
        }
      },
      {
        "type": "node",
        "id": 661983048,
        "lat": 12.9885568,
        "lon": 77.5923112,
        "tags": {
          "amenity": "bank",
          "brand": "Canara Bank",
          "brand:en": "Canara Bank",
          "brand:hi": "\u0915\u0947\u0928\u0930\u093e \u092c\u0948\u0902\u0915",
          "brand:kn": "\u0c95\u0cc6\u0ca8\u0cb0\u0cbe \u0cac\u0ccd\u0caf\u0cbe\u0c82\u0c95\u0ccd",
          "brand:pa": "\u0a15\u0a47\u0a28\u0a30\u0a3e \u0a2c\u0a48\u0a02\u0a15",
          "brand:pnb": "\u06a9\u06cc\u0646\u0631\u0627 \u0628\u06cc\u0646\u06a9",
          "brand:ur": "\u06a9\u06cc\u0646\u0631\u0627 \u0628\u06cc\u0646\u06a9",
          "brand:wikidata": "Q2003777",
          "name": "Canara Bank",
          "name:en": "Canara Bank",
          "name:hi": "\u0915\u0947\u0928\u0930\u093e \u092c\u0948\u0902\u0915",
          "name:kn": "\u0c95\u0cc6\u0ca8\u0cb0\u0cbe \u0cac\u0ccd\u0caf\u0cbe\u0c82\u0c95\u0ccd",
          "name:pa": "\u0a15\u0a47\u0a28\u0a30\u0a3e \u0a2c\u0a48\u0a02\u0a15",
          "name:pnb": "\u06a9\u06cc\u0646\u0631\u0627 \u0628\u06cc\u0646\u06a9",
          "name:ur": "\u06a9\u06cc\u0646\u0631\u0627 \u0628\u06cc\u0646\u06a9"
        }
      },
      {
        "type": "node",
        "id": 661983059,
        "lat": 12.9888226,
        "lon": 77.592415,
        "tags": {
          "amenity": "bank",
          "atm": "yes",
          "brand": "HDFC Bank",
          "brand:wikidata": "Q631047",
          "brand:wikipedia": "en:HDFC Bank",
          "name": "HDFC Bank",
          "name:kn": "\u0c8e\u0c9a\u0ccd \u0ca1\u0cbf \u0c8e\u0cab\u0ccd \u0cb8\u0cbf",
          "short_name": "HDFC",
          "website": "https://www.hdfcbank.com"
        }
      },
      {
        "type": "node",
        "id": 673377213,
        "lat": 12.9853914,
        "lon": 77.5795059,
        "tags": {
          "amenity": "restaurant",
          "cuisine": "indian",
          "name": "Sana Di Ge",
          "name:kn": "\u0cb8\u0ca8 \u0ca6\u0cbf \u0c97\u0cc6"
        }
      },
      {
        "type": "node",
        "id": 1006462338,
        "lat": 12.985247,
        "lon": 77.5803846,
        "tags": {
          "addr:city": "Bangalore",
          "addr:housenumber": "31/32",
          "addr:postcode": "560001",
          "addr:street": "Crescent Rd,Nehru Nagar,Gandhi Nagar",
          "amenity": "hospital",
          "name": "Mallige Medical Centre",
          "phone": "080 2220 3333",
          "website": "https://www.mallige.com/"
        }
      },
      {
        "type": "node",
        "id": 1101607728,
        "lat": 12.9856254,
        "lon": 77.5788885,
        "tags": {
          "addr:street": "Kumara Krupa Road",
          "amenity": "restaurant",
          "check_date": "2024-12-22",
          "name": "Hotel Janardhana",
          "name:kn": "\u0c9c\u0ca8\u0cbe\u0cb0\u0ccd\u0ca7\u0ca8\u0ccd"
        }
      },
      {
        "type": "node",
        "id": 1116484556,
        "lat": 12.9853569,
        "lon": 77.5792692,
        "tags": {
          "addr:housenumber": "32/3",
          "addr:street": "Crescent Road",
          "amenity": "restaurant",
          "cuisine": "indian",
          "fax": "+91-80-41138488",
          "name": "Kabab Studio",
          "name:kn": "\u0c95\u0cac\u0cbe\u0cac\u0ccd \u0cb8\u0ccd\u0c9f\u0cc1\u0ca1\u0cbf\u0caf\u0cca",
          "phone": "+91-80-41291300",
          "website": "https://www.goldfinchhotels.com/"
        }
      },
      {
        "type": "node",
        "id": 1289949443,
        "lat": 12.9903369,
        "lon": 77.5874909,
        "tags": {
          "amenity": "clinic",
          "name": "Queens Nursing Home"
        }
      },
      {
        "type": "node",
        "id": 1363295015,
        "lat": 12.9897809,
        "lon": 77.5880062,
        "tags": {
          "amenity": "cafe",
          "name": "NGMA Cafe"
        }
      },
      {
        "type": "node",
        "id": 1614268185,
        "lat": 12.9869904,
        "lon": 77.5786112,
        "tags": {
          "amenity": "bank",
          "atm": "yes",
          "brand": "Canara Bank",
          "brand:en": "Canara Bank",
          "brand:hi": "\u0915\u0947\u0928\u0930\u093e \u092c\u0948\u0902\u0915",
          "brand:kn": "\u0c95\u0cc6\u0ca8\u0cb0\u0cbe \u0cac\u0ccd\u0caf\u0cbe\u0c82\u0c95\u0ccd",
          "brand:pa": "\u0a15\u0a47\u0a28\u0a30\u0a3e \u0a2c\u0a48\u0a02\u0a15",
          "brand:pnb": "\u06a9\u06cc\u0646\u0631\u0627 \u0628\u06cc\u0646\u06a9",
          "brand:ur": "\u06a9\u06cc\u0646\u0631\u0627 \u0628\u06cc\u0646\u06a9",
          "brand:wikidata": "Q2003777",
          "brand:wikipedia": "en:Canara Bank",
          "brand:wikipedia:pa": "\u0a15\u0a47\u0a28\u0a30\u0a3e \u0a2c\u0a48\u0a02\u0a15",
          "name": "Canara Bank",
          "name:en": "Canara Bank",
          "name:hi": "\u0915\u0947\u0928\u0930\u093e \u092c\u0948\u0902\u0915",
          "name:kn": "\u0c95\u0cc6\u0ca8\u0cb0\u0cbe \u0cac\u0ccd\u0caf\u0cbe\u0c82\u0c95\u0ccd",
          "name:pa": "\u0a15\u0a47\u0a28\u0a30\u0a3e \u0a2c\u0a48\u0a02\u0a15",
          "name:pnb": "\u06a9\u06cc\u0646\u0631\u0627 \u0628\u06cc\u0646\u06a9",
          "name:ur": "\u06a9\u06cc\u0646\u0631\u0627 \u0628\u06cc\u0646\u06a9",
          "website": "https://www.canarabank.com/",
          "wheelchair": "no"
        }
      },
      {
        "type": "node",
        "id": 1614268190,
        "lat": 12.9876512,
        "lon": 77.5799188,
        "tags": {
          "amenity": "bank",
          "atm": "yes",
          "brand": "ICICI Bank",
          "brand:wikidata": "Q1653258",
          "name": "ICICI Bank",
          "name:en": "ICICI Bank",
          "name:kn": "\u0c90\u0cb8\u0cbf\u0c90\u0cb8\u0cbf\u0c90 \u0cac\u0ccd\u0caf\u0cbe\u0c82\u0c95\u0cc1",
          "short_name": "ICICI",
          "website": "https://www.icicibank.com",
          "wheelchair": "no"
        }
      },
      {
        "type": "node",
        "id": 1614268192,
        "lat": 12.9868232,
        "lon": 77.5800176,
        "tags": {
          "amenity": "restaurant",
          "name": "Richie-Rich",
          "name:kn": "\u0cb0\u0cbf\u0c9a\u0cc0-\u0cb0\u0cbf\u0c9a\u0ccd"
        }
      },
      {
        "type": "node",
        "id": 1614366545,
        "lat": 12.9885341,
        "lon": 77.5770137,
        "tags": {
          "amenity": "cafe",
          "brand": "Cafe Coffee Day",
          "brand:wikidata": "Q5017235",
          "cuisine": "coffee_shop",
          "name": "Cafe Coffee Day",
          "name:kn": "\u0c95\u0cab\u0cc6 \u0c95\u0cbe\u0cab\u0cbf \u0ca1\u0cc7",
          "takeaway": "yes",
          "website": "https://www.cafecoffeeday.com/",
          "wheelchair": "no"
        }
      },
      {
        "type": "node",
        "id": 1614366548,
        "lat": 12.9879409,
        "lon": 77.5768491,
        "tags": {
          "amenity": "atm",
          "brand": "Citibank",
          "brand:wikidata": "Q857063",
          "name": "Citibank",
          "operator": "Citibank",
          "operator:wikidata": "Q857063",
          "short_name": "Citi",
          "wheelchair": "no"
        }
      },
      {
        "type": "node",
        "id": 1617398472,
        "lat": 12.9877001,
        "lon": 77.5782687,
        "tags": {
          "amenity": "restaurant",
          "name": "Park-n-Eat",
          "name:kn": "\u0caa\u0cbe\u0cb0\u0ccd\u0c95\u0ccd-\u0c8e\u0ca8\u0ccd-\u0c88\u0c9f\u0ccd",
          "wheelchair": "no"
        }
      },
      {
        "type": "node",
        "id": 1636730975,
        "lat": 12.9781823,
        "lon": 77.5797234,
        "tags": {
          "addr:city": "Be\u1e45ga\u1e37\u016bru",
          "addr:neighborhood": "G\u0101ndhinagara",
          "addr:postcode": "560009",
          "alt_name:en": "Shri Udupi",
          "amenity": "restaurant",
          "cuisine": "indian",
          "diet:vegetarian": "yes",
          "name": "\u015ar\u012b U\u1e0dupi",
          "name:en": "U\u1e0dupi Grand",
          "name:es": "Gran U\u1e0dupi",
          "name:kn": "\u0cb6\u0ccd\u0cb0\u0cc0 \u0c89\u0ca1\u0cc1\u0caa\u0cbf",
          "phone": "+919591875013",
          "website": "https://www.kanishkagrand.in/restaurant/"
        }
      },
      {
        "type": "node",
        "id": 1737985671,
        "lat": 12.987094,
        "lon": 77.5784442,
        "tags": {
          "amenity": "fast_food",
          "diet:vegetarian": "only",
          "name": "Bangalore Cafe"
        }
      },
      {
        "type": "node",
        "id": 1809770675,
        "lat": 12.9800497,
        "lon": 77.5771102,
        "tags": {
          "addr:city": "Be\u1e45ga\u1e37\u016bru",
          "addr:neighborhood": "G\u0101ndhinagara",
          "addr:state": "KA",
          "alt_name:kn": "\u0cae\u0cc1\u0ca6\u0ccd\u0ca6\u0cc6 \u0cae\u0cbe\u0ca6\u0caa\u0ccd\u0caa \u0cae\u0cc6\u0cb8\u0ccd",
          "alt_name:kn-Latn": "Mudde M\u0101dappa Mes",
          "amenity": "restaurant",
          "cuisine": "indian;buffet",
          "diet:vegetarian": "yes",
          "facebook": "MuddeMadappa",
          "name": "M\u0101dappa Mes",
          "name:en": "M\u0101dappa Mess",
          "name:kn": "\u0cae\u0cbe\u0ca6\u0caa\u0ccd\u0caa \u0cae\u0cc6\u0cb8\u0ccd",
          "name:kn-Latn": "M\u0101dappa Mes",
          "opening_hours": "07:30-22:30",
          "phone": "+919880883801;+919844008380"
        }
      },
      {
        "type": "node",
        "id": 2025970848,
        "lat": 12.9867912,
        "lon": 77.5794891,
        "tags": {
          "addr:housename": "Shivananda Stores Complex",
          "addr:street": "Kumarakripa East",
          "amenity": "restaurant",
          "cuisine": "indian",
          "name": "Coastal Express"
        }
      },
      {
        "type": "node",
        "id": 3198616661,
        "lat": 12.98415,
        "lon": 77.5781517,
        "tags": {
          "amenity": "restaurant",
          "cuisine": "regional",
          "name": "Hotel Sanman"
        }
      },
      {
        "type": "node",
        "id": 3761261085,
        "lat": 12.9775007,
        "lon": 77.5883584,
        "tags": {
          "amenity": "bank",
          "atm": "yes",
          "brand": "Syndicate Bank",
          "brand:wikidata": "Q2004088",
          "level": "-1",
          "name": "Syndicate Bank",
          "name:en": "Syndicate Bank",
          "name:kn": "\u0cb8\u0cbf\u0c82\u0ca1\u0cbf\u0c95\u0cc7\u0c9f\u0ccd \u0cac\u0ccd\u0caf\u0cbe\u0c82\u0c95\u0ccd",
          "website": "https://www.syndicatebank.in"
        }
      },
      {
        "type": "node",
        "id": 3761265943,
        "lat": 12.9782832,
        "lon": 77.5879912,
        "tags": {
          "amenity": "bank",
          "brand": "State Bank of India",
          "brand:wikidata": "Q1340361",
          "brand:wikipedia": "en:State Bank of India",
          "name": "State Bank of India",
          "name:kn": "\u0cb8\u0ccd\u0c9f\u0cc7\u0c9f\u0ccd \u0cac\u0ccd\u0caf\u0cbe\u0c82\u0c95\u0ccd \u0c86\u0cab\u0ccd \u0cae\u0cc8\u0cb8\u0cc2\u0cb0\u0cc1",
          "short_name": "SBI",
          "website": "https://www.sbi.co.in"
        }
      },
      {
        "type": "node",
        "id": 4446518811,
        "lat": 12.9863736,
        "lon": 77.5793154,
        "tags": {
          "addr:city": "Bangalore",
          "addr:housenumber": "6/6",
          "addr:postcode": "560001",
          "addr:street": "Kumarakrupa Road, High Grounds, Madhava Nagar, Gandhi Nagar",
          "amenity": "hospital",
          "name": "Desai Nursing Home",
          "phone": "+9180 2226 0307"
        }
      },
      {
        "type": "node",
        "id": 4505462591,
        "lat": 12.987183,
        "lon": 77.5784519,
        "tags": {
          "amenity": "fast_food",
          "name": "Super duba Raggi Dosa",
          "name:de": "Super duba Raggi Dosa",
          "name:en": "Super duba Raggi Dosa"
        }
      },
      {
        "type": "node",
        "id": 4898819421,
        "lat": 12.9845379,
        "lon": 77.590531,
        "tags": {
          "amenity": "fast_food",
          "name": "Nandini",
          "name:en": "Nandini",
          "name:kn": "\u0ca8\u0c82\u0ca6\u0cbf\u0ca8\u0cbf"
        }
      },
      {
        "type": "node",
        "id": 5012445079,
        "lat": 12.9899243,
        "lon": 77.5913426,
        "tags": {
          "amenity": "restaurant",
          "name": "Fat Buddha"
        }
      },
      {
        "type": "node",
        "id": 5061380662,
        "lat": 12.9879742,
        "lon": 77.5764499,
        "tags": {
          "amenity": "atm",
          "brand": "Corporation Bank",
          "brand:wikidata": "Q2003387",
          "name": "Corporation Bank",
          "name:kn": "\u0c95\u0cbe\u0cb0\u0ccd\u0caa\u0cb0\u0cc7\u0cb7\u0ca8\u0ccd \u0cac\u0ccd\u0caf\u0cbe\u0c82\u0c95\u0ccd",
          "operator": "Corporation Bank",
          "operator:wikidata": "Q2003387"
        }
      },
      {
        "type": "node",
        "id": 5229482742,
        "lat": 12.9870483,
        "lon": 77.5785854,
        "tags": {
          "amenity": "clinic",
          "healthcare": "clinic",
          "name": "Pranam Dental and Medical Speciality Clinic"
        }
      },
      {
        "type": "node",
        "id": 5229482743,
        "lat": 12.9867071,
        "lon": 77.5796028,
        "tags": {
          "amenity": "pharmacy",
          "brand": "Apollo Pharmacy",
          "brand:wikidata": "Q62562612",
          "healthcare": "pharmacy",
          "name": "Apollo Pharmacy",
          "name:kn": "\u0c85\u0caa\u0cca\u0cb2\u0ccb \u0cab\u0cbe\u0cb0\u0ccd\u0cae\u0cb8\u0cbf"
        }
      },
      {
        "type": "node",
        "id": 5402224027,
        "lat": 12.9866165,
        "lon": 77.579997,
        "tags": {
          "amenity": "restaurant",
          "name": "3 Page"
        }
      },
      {
        "type": "node",
        "id": 5402224032,
        "lat": 12.9802917,
        "lon": 77.5779251,
        "tags": {
          "amenity": "cafe",
          "brand": "Cafe Coffee Day",
          "brand:wikidata": "Q5017235",
          "cuisine": "coffee_shop",
          "name": "Cafe Coffee Day",
          "name:kn": "\u0c95\u0cab\u0cc6 \u0c95\u0cbe\u0cab\u0cbf \u0ca1\u0cc7",
          "takeaway": "yes"
        }
      },
      {
        "type": "node",
        "id": 5905947501,
        "lat": 12.9855047,
        "lon": 77.5792404,
        "tags": {
          "addr:city": "Bengaluru",
          "addr:housenumber": "19/2",
          "addr:postcode": "560001",
          "addr:street": "Crescent Road",
          "amenity": "restaurant",
          "check_date": "2023-02-19",
          "name": "The London Curry House",
          "opening_hours": "Mo-Su 12:00-15:00,19:00-23:00",
          "smoking": "no",
          "website": "https://thelondoncurryhousebanglore.business.site/"
        }
      },
      {
        "type": "node",
        "id": 6938690598,
        "lat": 12.9878104,
        "lon": 77.5809833,
        "tags": {
          "addr:district": "Bengaluru Urban",
          "addr:full": "No.6/7, Crescent Road Cross, Kumar Park East",
          "addr:postcode": "560001",
          "addr:state": "Karnataka",
          "amenity": "hospital",
          "healthcare:speciality": "Dornier AlphaLithotripsy Treatment; X-Rays; US Scan; Urologist Consultation",
          "name": "Hitech Kidney Stone Hospital, Bengaluru Urban",
          "operator:type": "private",
          "source": "OpenGovernmentData",
          "website": "http://www.hitechkidneystonehospital.org/"
        }
      },
      {
        "type": "node",
        "id": 7220195485,
        "lat": 12.990736,
        "lon": 77.5870219,
        "tags": {
          "name": "Shopwel Mart",
          "shop": "supermarket"
        }
      },
      {
        "type": "node",
        "id": 7276500304,
        "lat": 12.9835372,
        "lon": 77.5858502,
        "tags": {
          "amenity": "atm",
          "brand": "Corporation Bank",
          "brand:wikidata": "Q2003387",
          "name": "Corporation Bank",
          "operator": "Corporation Bank",
          "operator:wikidata": "Q2003387"
        }
      },
      {
        "type": "node",
        "id": 7658290107,
        "lat": 12.9802518,
        "lon": 77.5861466,
        "tags": {
          "amenity": "restaurant",
          "name": "LORE"
        }
      },
      {
        "type": "node",
        "id": 7658290108,
        "lat": 12.9800179,
        "lon": 77.5859709,
        "tags": {
          "amenity": "restaurant",
          "name": "Tijuori"
        }
      },
      {
        "type": "node",
        "id": 8240293380,
        "lat": 12.9848923,
        "lon": 77.5879088,
        "tags": {
          "amenity": "fast_food",
          "name": "Gangotri",
          "name:kn": "\u0c97\u0c82\u0c97\u0ccb\u0ca4\u0ccd\u0cb0\u0cbf"
        }
      },
      {
        "type": "node",
        "id": 8240293381,
        "lat": 12.985676,
        "lon": 77.5878675,
        "tags": {
          "addr:city": "Bengaluru",
          "addr:country": "IN",
          "addr:hamlet": "High Grounds",
          "addr:housename": "Prestige Trade Tower",
          "addr:postcode": "560001",
          "addr:street": "Palace Road",
          "addr:suburb": "Sampangi Rama Nagar",
          "addr:unit": "The Courtyard by Sublime",
          "amenity": "restaurant",
          "brand": "Brik Oven",
          "brand:wikidata": "Q124374702",
          "cuisine": "pizza",
          "delivery": "yes",
          "name": "Brik Oven",
          "takeaway": "yes"
        }
      },
      {
        "type": "node",
        "id": 9063471393,
        "lat": 12.9840625,
        "lon": 77.580813,
        "tags": {
          "amenity": "bank",
          "atm": "yes",
          "brand": "State Bank of India",
          "brand:wikidata": "Q1340361",
          "name": "State Bank of India",
          "short_name": "SBI"
        }
      },
      {
        "type": "node",
        "id": 9063471395,
        "lat": 12.984414,
        "lon": 77.578281,
        "tags": {
          "amenity": "bank",
          "atm": "yes",
          "brand": "HDFC Bank",
          "brand:wikidata": "Q631047",
          "name": "HDFC Bank",
          "short_name": "HDFC"
        }
      },
      {
        "type": "node",
        "id": 9063471398,
        "lat": 12.9887173,
        "lon": 77.5779605,
        "tags": {
          "amenity": "fast_food",
          "name": "Umesh Refreshments"
        }
      },
      {
        "type": "node",
        "id": 9063471405,
        "lat": 12.9889048,
        "lon": 77.5775568,
        "tags": {
          "amenity": "fast_food",
          "cuisine": "regional",
          "name": "Umesh Dosa Point",
          "takeaway": "yes"
        }
      },
      {
        "type": "node",
        "id": 9214185039,
        "lat": 12.9867761,
        "lon": 77.5796677,
        "tags": {
          "amenity": "restaurant",
          "name": "Sea Rock Restaurant"
        }
      },
      {
        "type": "node",
        "id": 9573433541,
        "lat": 12.988699,
        "lon": 77.5808117,
        "tags": {
          "amenity": "fast_food",
          "name": "C K P Canteen"
        }
      },
      {
        "type": "node",
        "id": 10073419802,
        "lat": 12.9851903,
        "lon": 77.5806709,
        "tags": {
          "addr:floor": "G",
          "air_conditioning": "yes",
          "alt_name": "Nerlu Cafe",
          "amenity": "cafe",
          "check_date": "2025-08-24",
          "cuisine": "coffee_shop",
          "internet_access": "wlan",
          "internet_access:fee": "no",
          "internet_access:ssid": "Nerlu",
          "level": "0",
          "name": "ner.lu",
          "outdoor_seating": "yes",
          "start_date": "2022-07-01"
        }
      },
      {
        "type": "node",
        "id": 10228304184,
        "lat": 12.9873323,
        "lon": 77.5801221,
        "tags": {
          "addr:state": "KA",
          "addr:street": "Kumara Krupa Road",
          "amenity": "restaurant",
          "name": "The Noodle Theory"
        }
      },
      {
        "type": "node",
        "id": 10228304187,
        "lat": 12.98669,
        "lon": 77.5796975,
        "tags": {
          "amenity": "pharmacy",
          "name": "Panchavati Chemists and Druggists"
        }
      },
      {
        "type": "node",
        "id": 10228304189,
        "lat": 12.9870121,
        "lon": 77.5802165,
        "tags": {
          "amenity": "fast_food",
          "brand": "Domino's",
          "brand:wikidata": "Q839466",
          "cuisine": "pizza",
          "name": "Domino's",
          "name:kn": "\u0ca1\u0cbe\u0cae\u0cbf\u0ca8\u0ccb\u0cb8\u0ccd",
          "takeaway": "yes"
        }
      },
      {
        "type": "node",
        "id": 10228571001,
        "lat": 12.9871351,
        "lon": 77.578442,
        "tags": {
          "name": "Chalukya",
          "shop": "supermarket"
        }
      },
      {
        "type": "node",
        "id": 10591415447,
        "lat": 12.9859225,
        "lon": 77.5877778,
        "tags": {
          "addr:city": "Bengaluru",
          "addr:country": "IN",
          "addr:hamlet": "High Grounds",
          "addr:housename": "Prestige Trade Tower",
          "addr:postcode": "560001",
          "addr:street": "Palace Road",
          "addr:suburb": "Sampangi Rama Nagar",
          "addr:unit": "The Courtyard by Sublime",
          "amenity": "restaurant",
          "cuisine": "regional",
          "name": "Maayaa"
        }
      },
      {
        "type": "node",
        "id": 11214889025,
        "lat": 12.9857351,
        "lon": 77.5877616,
        "tags": {
          "addr:city": "Bengaluru",
          "addr:country": "IN",
          "addr:hamlet": "High Grounds",
          "addr:housename": "Prestige Trade Tower",
          "addr:postcode": "560001",
          "addr:street": "Palace Road",
          "addr:suburb": "Sampangi Rama Nagar",
          "addr:unit": "The Courtyard by Sublime",
          "amenity": "cafe",
          "name": "Boba Tree"
        }
      },
      {
        "type": "node",
        "id": 11214889027,
        "lat": 12.9856786,
        "lon": 77.587802,
        "tags": {
          "addr:city": "Bengaluru",
          "addr:country": "IN",
          "addr:hamlet": "High Grounds",
          "addr:housename": "Prestige Trade Tower",
          "addr:postcode": "560001",
          "addr:street": "Palace Road",
          "addr:suburb": "Sampangi Rama Nagar",
          "addr:unit": "The Courtyard by Sublime",
          "amenity": "restaurant",
          "cuisine": "asian",
          "name": "Misu"
        }
      },
      {
        "type": "node",
        "id": 11214889028,
        "lat": 12.984269,
        "lon": 77.5865757,
        "tags": {
          "amenity": "bank",
          "atm": "yes",
          "brand": "Bank of Baroda",
          "brand:wikidata": "Q2003797",
          "name": "Bank of Baroda",
          "operator": "Bank of Baroda"
        }
      },
      {
        "type": "node",
        "id": 11478259470,
        "lat": 12.9858618,
        "lon": 77.5877734,
        "tags": {
          "addr:city": "Bengaluru",
          "addr:country": "IN",
          "addr:hamlet": "High Grounds",
          "addr:housename": "Prestige Trade Tower",
          "addr:postcode": "560001",
          "addr:street": "Palace Road",
          "addr:suburb": "Sampangi Rama Nagar",
          "addr:unit": "The Courtyard by Sublime",
          "amenity": "restaurant",
          "check_date": "2024-01-02",
          "cuisine": "punjabi",
          "name": "Tandoori Taal"
        }
      },
      {
        "type": "node",
        "id": 11535240176,
        "lat": 12.97995,
        "lon": 77.5771154,
        "tags": {
          "addr:city": "Be\u1e45ga\u1e37\u016bru",
          "addr:neighborhood": "G\u0101ndhinagara",
          "addr:state": "KA",
          "alt_name:ur": "\u062f\u06cc\u0633\u06cc \u0645\u0633\u0627\u0644\u06c1\u0627",
          "amenity": "restaurant",
          "contact:instagram": "desimasala_veg",
          "cuisine": "indian;buffet",
          "diet:vegetarian": "yes",
          "email": "enquiry@thedesimasala.net",
          "facebook": "desimasalaveg",
          "name": "Des\u012b Mas\u0101l\u0101",
          "name:hi": "\u0926\u0947\u0938\u0940 \u092e\u0938\u093e\u0932\u093e",
          "name:hi-Latn": "Des\u012b Mas\u0101l\u0101",
          "name:ur": "\u062f\u06cc\u0633\u06cc \u0645\u0635\u0627\u0644\u062d\u06c1",
          "name:ur-Latn": "Des\u012b Mas\u0101lh\u0101",
          "opening_hours": "07:00-23:00",
          "phone": "+91-7406324999",
          "website": "http://www.thedesimasala.net/GANDHI%20NAGAR.html"
        }
      },
      {
        "type": "node",
        "id": 11539173257,
        "lat": 12.9859547,
        "lon": 77.5878321,
        "tags": {
          "addr:city": "Bengaluru",
          "addr:country": "IN",
          "addr:hamlet": "High Grounds",
          "addr:housename": "Prestige Trade Tower",
          "addr:postcode": "560001",
          "addr:street": "Palace Road",
          "addr:suburb": "Sampangi Rama Nagar",
          "addr:unit": "The Courtyard by Sublime",
          "amenity": "fast_food",
          "contact:instagram": "beyondburginc",
          "cuisine": "burger",
          "delivery": "yes",
          "diet:halal": "yes",
          "name": "BeyondBurg Inc",
          "phone": "+91 8075303678",
          "takeaway": "yes",
          "website": "https://beyondburginc.com/"
        }
      },
      {
        "type": "node",
        "id": 11540382457,
        "lat": 12.9788456,
        "lon": 77.5794256,
        "tags": {
          "addr:city": "Be\u1e45ga\u1e37\u016bru",
          "addr:neighborhood": "G\u0101ndhinagara",
          "amenity": "restaurant",
          "cuisine": "indian",
          "diet:vegetarian": "yes",
          "name": "Bhara\u1e47i Kafe",
          "name:en": "Bhara\u1e47i Caf\u00e9",
          "name:es": "Caf\u00e9 Bhara\u1e47i",
          "name:kn": "\u0cad\u0cb0\u0ca3\u0cbf \u0c95\u0cab\u0cbc\u0cc6",
          "name:kn-Latn": "Bhara\u1e47i Kafe",
          "phone": "+919243103062"
        }
      },
      {
        "type": "node",
        "id": 11665305123,
        "lat": 12.9833321,
        "lon": 77.587783,
        "tags": {
          "amenity": "fast_food",
          "check_date": "2024-02-26",
          "cuisine": "juice",
          "name": "Sreeraj Lassi Bar",
          "name:kn": "\u0cb6\u0ccd\u0cb0\u0cc0\u0cb0\u0cbe\u0c9c\u0ccd \u0cb2\u0cb8\u0ccd\u0cb8\u0cbf \u0cac\u0cbe\u0cb0\u0ccd"
        }
      },
      {
        "type": "node",
        "id": 11676514104,
        "lat": 12.9887657,
        "lon": 77.5918664,
        "tags": {
          "amenity": "bank",
          "brand": "RBL Bank",
          "brand:wikidata": "Q13120398",
          "name": "RBL Bank"
        }
      },
      {
        "type": "node",
        "id": 11676514105,
        "lat": 12.9884534,
        "lon": 77.5924256,
        "tags": {
          "amenity": "bank",
          "brand": "Central Bank of India",
          "brand:wikidata": "Q2007090",
          "name": "Central Bank of India"
        }
      },
      {
        "type": "node",
        "id": 11683098374,
        "lat": 12.9782362,
        "lon": 77.5808398,
        "tags": {
          "amenity": "bank",
          "brand": "Union Bank of India",
          "brand:wikidata": "Q2004078",
          "check_date": "2024-03-02",
          "name": "Union Bank of India"
        }
      },
      {
        "type": "node",
        "id": 11687235827,
        "lat": 12.9807471,
        "lon": 77.5766813,
        "tags": {
          "amenity": "fast_food",
          "check_date": "2024-03-03",
          "name": "The Kingdom"
        }
      },
      {
        "type": "node",
        "id": 12022437803,
        "lat": 12.9857937,
        "lon": 77.5877686,
        "tags": {
          "addr:city": "Bengaluru",
          "addr:country": "IN",
          "addr:hamlet": "High Grounds",
          "addr:housename": "Prestige Trade Tower",
          "addr:postcode": "560001",
          "addr:street": "Palace Road",
          "addr:suburb": "Sampangi Rama Nagar",
          "addr:unit": "The Courtyard by Sublime",
          "amenity": "cafe",
          "name": "Sublime House of Tea"
        }
      },
      {
        "type": "node",
        "id": 12022437804,
        "lat": 12.9857221,
        "lon": 77.5879276,
        "tags": {
          "addr:city": "Bengaluru",
          "addr:country": "IN",
          "addr:hamlet": "High Grounds",
          "addr:housename": "Prestige Trade Tower",
          "addr:postcode": "560001",
          "addr:street": "Palace Road",
          "addr:suburb": "Sampangi Rama Nagar",
          "addr:unit": "The Courtyard by Sublime",
          "amenity": "cafe",
          "name": "Zed The Baker"
        }
      },
      {
        "type": "node",
        "id": 12022437805,
        "lat": 12.9859481,
        "lon": 77.5879172,
        "tags": {
          "addr:city": "Bengaluru",
          "addr:country": "IN",
          "addr:hamlet": "High Grounds",
          "addr:housename": "Prestige Trade Tower",
          "addr:postcode": "560001",
          "addr:street": "Palace Road",
          "addr:suburb": "Sampangi Rama Nagar",
          "addr:unit": "The Courtyard by Sublime",
          "amenity": "cafe",
          "brand": "Starbucks",
          "brand:wikidata": "Q37158",
          "cuisine": "coffee_shop",
          "name": "Starbucks",
          "official_name": "Starbucks Coffee",
          "takeaway": "yes"
        }
      },
      {
        "type": "node",
        "id": 12422943862,
        "lat": 12.9923685,
        "lon": 77.5820643,
        "tags": {
          "amenity": "restaurant",
          "name": "24/7"
        }
      },
      {
        "type": "node",
        "id": 12422953303,
        "lat": 12.9922169,
        "lon": 77.5819811,
        "tags": {
          "amenity": "restaurant",
          "cuisine": "asian",
          "name": "OKO"
        }
      },
      {
        "type": "node",
        "id": 12422953304,
        "lat": 12.9925122,
        "lon": 77.5821367,
        "tags": {
          "amenity": "restaurant",
          "cuisine": "indian",
          "name": "Baluchi"
        }
      },
      {
        "type": "node",
        "id": 12438024630,
        "lat": 12.9855114,
        "lon": 77.5788172,
        "tags": {
          "amenity": "bank",
          "brand": "Canara Bank",
          "brand:en": "Canara Bank",
          "brand:hi": "\u0915\u0947\u0928\u0930\u093e \u092c\u0948\u0902\u0915",
          "brand:kn": "\u0c95\u0cc6\u0ca8\u0cb0\u0cbe \u0cac\u0ccd\u0caf\u0cbe\u0c82\u0c95\u0ccd",
          "brand:pa": "\u0a15\u0a47\u0a28\u0a30\u0a3e \u0a2c\u0a48\u0a02\u0a15",
          "brand:pnb": "\u06a9\u06cc\u0646\u0631\u0627 \u0628\u06cc\u0646\u06a9",
          "brand:ur": "\u06a9\u06cc\u0646\u0631\u0627 \u0628\u06cc\u0646\u06a9",
          "brand:wikidata": "Q2003777",
          "name": "Canara Bank",
          "name:en": "Canara Bank",
          "name:hi": "\u0915\u0947\u0928\u0930\u093e \u092c\u0948\u0902\u0915",
          "name:kn": "\u0c95\u0cc6\u0ca8\u0cb0\u0cbe \u0cac\u0ccd\u0caf\u0cbe\u0c82\u0c95\u0ccd",
          "name:pa": "\u0a15\u0a47\u0a28\u0a30\u0a3e \u0a2c\u0a48\u0a02\u0a15",
          "name:pnb": "\u06a9\u06cc\u0646\u0631\u0627 \u0628\u06cc\u0646\u06a9",
          "name:ur": "\u06a9\u06cc\u0646\u0631\u0627 \u0628\u06cc\u0646\u06a9"
        }
      },
      {
        "type": "node",
        "id": 12441556289,
        "lat": 12.9875015,
        "lon": 77.5800593,
        "tags": {
          "amenity": "bank",
          "brand": "IDFC First Bank",
          "brand:wikidata": "Q22031467",
          "check_date": "2024-12-22",
          "name": "IDFC First Bank"
        }
      },
      {
        "type": "node",
        "id": 12441556290,
        "lat": 12.9874735,
        "lon": 77.5801145,
        "tags": {
          "amenity": "atm",
          "brand": "IDFC First Bank",
          "brand:wikidata": "Q22031467",
          "check_date": "2024-12-22",
          "operator": "IDFC First Bank",
          "operator:wikidata": "Q22031467"
        }
      },
      {
        "type": "node",
        "id": 12538083621,
        "lat": 12.9776263,
        "lon": 77.5878847,
        "tags": {
          "amenity": "fast_food",
          "name": "Canteen"
        }
      },
      {
        "type": "node",
        "id": 12686350457,
        "lat": 12.9836392,
        "lon": 77.5855122,
        "tags": {
          "amenity": "atm",
          "brand": "Union Bank of India",
          "brand:wikidata": "Q2004078",
          "check_date": "2025-03-21",
          "operator": "Union Bank of India",
          "operator:wikidata": "Q2004078"
        }
      },
      {
        "type": "node",
        "id": 12846419059,
        "lat": 12.988547,
        "lon": 77.5772027,
        "tags": {
          "amenity": "restaurant",
          "check_date": "2025-05-18",
          "name": "Chalukya Samrat"
        }
      },
      {
        "type": "node",
        "id": 13086275908,
        "lat": 12.979026,
        "lon": 77.5776266,
        "tags": {
          "amenity": "restaurant",
          "contact:instagram": "extrachutney.blr",
          "cuisine": "south_indian",
          "name": "Extra Chutney"
        }
      },
      {
        "type": "node",
        "id": 13086275912,
        "lat": 12.985053,
        "lon": 77.5791058,
        "tags": {
          "amenity": "cafe",
          "contact:instagram": "blancthecoffeeplace_",
          "cuisine": "coffee_shop",
          "name": "Blanc The Coffee Place"
        }
      }
    ]
  },
  "pois_2_5km": {
    "version": 0.6,
    "generator": "Overpass API 0.7.62.8 e802775f",
    "osm3s": {
      "timestamp_osm_base": "2025-09-06T08:19:29Z",
      "copyright": "The data included in this document is from www.openstreetmap.org. The data is made available under ODbL."
    },
    "elements": [
      {
        "type": "node",
        "id": 246396993,
        "lat": 12.9783064,
        "lon": 77.5692678,
        "tags": {
          "name": "Bangalore City Junction",
          "public_transport": "stop_position",
          "railway": "stop",
          "ref": "SBC:1",
          "train": "yes"
        }
      },
      {
        "type": "node",
        "id": 246397026,
        "lat": 12.9936865,
        "lon": 77.5980003,
        "tags": {
          "internet_access": "wlan",
          "name": "Bangalore Cantonment",
          "name:kn": "\u0cac\u0cc6\u0c82\u0c97\u0cb3\u0cc2\u0cb0\u0cc1 (\u0c95\u0c82\u0c9f\u0cca\u0ca8\u0ccd\u0cae\u0cc6\u0c82\u0c9f\u0ccd)",
          "name:ml": "\u0d2c\u0d46\u0d02\u0d17\u0d33\u0d42\u0d30\u0d41 \u0d15\u0d28\u0d4d\u0d31\u0d4b\u0d7a\u0d2e\u0d46\u0d28\u0d4d\u0d31\u0d4d",
          "network": "IR",
          "operator": "SWR",
          "railway": "station",
          "ref": "BNC",
          "wheelchair": "yes",
          "wikidata": "Q17049564",
          "wikipedia": "en:Bangalore Cantonment railway station"
        }
      },
      {
        "type": "node",
        "id": 320647365,
        "lat": 12.9642064,
        "lon": 77.5768931,
        "tags": {
          "bus": "yes",
          "crossing": "uncontrolled",
          "highway": "traffic_signals",
          "name": "KR Market",
          "name:en": "Krishnarajendra Market",
          "name:kn": "\u0c95\u0cc3\u0cb7\u0ccd\u0ca3\u0cb0\u0cbe\u0c9c\u0cc7\u0c82\u0ca6\u0ccd\u0cb0 \u0cae\u0cbe\u0cb0\u0cc1\u0c95\u0c9f\u0ccd\u0c9f\u0cc6",
          "network": "BMTC",
          "operator": "BMTC",
          "public_transport": "stop_position"
        }
      },
      {
        "type": "node",
        "id": 347295628,
        "lat": 12.9781831,
        "lon": 77.5717624,
        "tags": {
          "bus": "yes",
          "name": "Platform 28A",
          "operator": "BMTC",
          "public_transport": "stop_position"
        }
      },
      {
        "type": "node",
        "id": 347295648,
        "lat": 12.9783665,
        "lon": 77.5730556,
        "tags": {
          "bus": "yes",
          "name": "Platform 23",
          "operator": "BMTC",
          "public_transport": "stop_position"
        }
      },
      {
        "type": "node",
        "id": 429698093,
        "lat": 12.9766767,
        "lon": 77.5766838,
        "tags": {
          "amenity": "theatre",
          "name": "Gubbi Veerana Nataka",
          "name:kn": "\u0c97\u0cc1\u0cac\u0ccd\u0cac\u0cbf \u0cb5\u0cc0\u0cb0\u0ca3\u0ccd\u0ca3 \u0ca8\u0cbe\u0c9f\u0c95"
        }
      },
      {
        "type": "node",
        "id": 446941380,
        "lat": 13.0049663,
        "lon": 77.5812135,
        "tags": {
          "bus": "yes",
          "local_ref": "Sadashivanagar",
          "name": "Bashayam Circle",
          "name:en": "Bashayam Circle",
          "name:kn": "\u0cac\u0cbe\u0cb7\u0ccd\u0caf\u0c82 \u0cb5\u0cc3\u0ca4\u0ccd\u0ca4",
          "network": "BMTC",
          "operator": "BMTC",
          "public_transport": "stop_position"
        }
      },
      {
        "type": "node",
        "id": 456039716,
        "lat": 12.9931208,
        "lon": 77.5710734,
        "tags": {
          "addr:street": "Sampige Road",
          "amenity": "cinema",
          "name": "Sampige Theatre",
          "name:kn": "\u0cb8\u0c82\u0caa\u0cbf\u0c97\u0cc6"
        }
      },
      {
        "type": "node",
        "id": 459815970,
        "lat": 12.9692233,
        "lon": 77.5984978,
        "tags": {
          "air_conditioning": "yes",
          "amenity": "theatre",
          "name": "Bishop George Edward Lynch Cotton Auditorium",
          "source": "local knowledge;survey",
          "website": "https://bishopcottonboysschool.edu.in/infrastructure",
          "wikimedia_commons": "File:Cottons_Auditorium.jpg"
        }
      },
      {
        "type": "node",
        "id": 568344479,
        "lat": 12.9779727,
        "lon": 77.5911088,
        "tags": {
          "code": "VDSA",
          "local_ref": "2",
          "name": "Dr. B. R. Ambedkar Station, Vidhana Soudha",
          "name:etymology:wikidata": "Q231690",
          "name:kn": "\u0cb5\u0cbf\u0ca7\u0cbe\u0ca8 \u0cb8\u0ccc\u0ca7",
          "network": "Namma Metro",
          "note": "Contributors are requested to not edit the \"network\" and the \"operator\" tags. (2023/11/08)",
          "operator": "Bangalore Metro Rail Corporation Limited",
          "public_transport": "stop_position",
          "public_transport:version": "2",
          "railway": "stop",
          "source": "http://www.bmrc.co.in/English/Network.htm",
          "subway": "yes",
          "to": "Challaghatta",
          "wheelchair": "yes"
        }
      },
      {
        "type": "node",
        "id": 577030466,
        "lat": 12.9867764,
        "lon": 77.5671966,
        "tags": {
          "amenity": "theatre",
          "name": "Aruna Theatre",
          "wheelchair": "no"
        }
      },
      {
        "type": "node",
        "id": 663195620,
        "lat": 12.9758832,
        "lon": 77.5968704,
        "tags": {
          "amenity": "theatre",
          "name": "Bal Bhavan Auditorium"
        }
      },
      {
        "type": "node",
        "id": 663313913,
        "lat": 12.9758396,
        "lon": 77.5985677,
        "tags": {
          "addr:street": "Kasturba Road",
          "amenity": "fuel",
          "brand": "Bharat Petroleum",
          "brand:wikidata": "Q854826",
          "compressed_air": "yes",
          "name": "Bharat Petroleum",
          "name:kn": "\u0cad\u0cbe\u0cb0\u0ca4\u0ccd \u0caa\u0cc6\u0c9f\u0ccd\u0cb0\u0ccb\u0cb2\u0cbf\u0caf\u0c82"
        }
      },
      {
        "type": "node",
        "id": 663596610,
        "lat": 12.9839163,
        "lon": 77.5973764,
        "tags": {
          "alt_name": "Balekundri Circle",
          "bus": "yes",
          "highway": "bus_stop",
          "name": "Indian Express",
          "name:en": "Indian Express",
          "name:kn": "\u0c87\u0c82\u0ca1\u0cbf\u0caf\u0ca8\u0ccd \u0c8e\u0c95\u0ccd\u0cb8\u0caa\u0ccd\u0cb0\u0cc6\u0cb8\u0ccd",
          "network": "BMTC",
          "network:wikidata": "Q3345039",
          "operator": "BMTC",
          "public_transport": "stop_position"
        }
      },
      {
        "type": "node",
        "id": 663599423,
        "lat": 12.9725456,
        "lon": 77.5862547,
        "tags": {
          "addr:street": "Nrupathunga Road",
          "amenity": "theatre",
          "name": "Daly Memorial Hall"
        }
      },
      {
        "type": "node",
        "id": 665811373,
        "lat": 12.9737987,
        "lon": 77.5866865,
        "tags": {
          "bus": "yes",
          "name": "KR Circle",
          "name:en": "KR Circle",
          "name:kn": "\u0c95\u0cc3\u0cb7\u0ccd\u0ca3\u0cb0\u0cbe\u0c9c\u0cc7\u0c82\u0ca6\u0ccd\u0cb0 \u0cb5\u0cc3\u0ca4\u0ccd\u0ca4",
          "network": "BMTC",
          "operator": "BMTC",
          "public_transport": "stop_position"
        }
      },
      {
        "type": "node",
        "id": 806588782,
        "lat": 12.9783651,
        "lon": 77.5681771,
        "tags": {
          "name": "Bangalore City Junction",
          "name:kn": "\u0cac\u0cc6\u0c82\u0c97\u0cb3\u0cc2\u0cb0\u0cc1 \u0ca8\u0c97\u0cb0",
          "public_transport": "stop_position",
          "railway": "stop",
          "ref": "SBC:7",
          "train": "yes"
        }
      },
      {
        "type": "node",
        "id": 806588784,
        "lat": 12.9782669,
        "lon": 77.5689394,
        "tags": {
          "name": "Bangalore City Junction",
          "name:kn": "\u0cac\u0cc6\u0c82\u0c97\u0cb3\u0cc2\u0cb0\u0cc1 \u0ca8\u0c97\u0cb0",
          "public_transport": "stop_position",
          "railway": "stop",
          "ref": "SBC:4",
          "train": "yes"
        }
      },
      {
        "type": "node",
        "id": 806588786,
        "lat": 12.9783166,
        "lon": 77.5692242,
        "tags": {
          "name": "Bangalore City Junction",
          "name:kn": "\u0cac\u0cc6\u0c82\u0c97\u0cb3\u0cc2\u0cb0\u0cc1 \u0ca8\u0c97\u0cb0",
          "public_transport": "stop_position",
          "railway": "stop",
          "ref": "SBC:2",
          "train": "yes"
        }
      },
      {
        "type": "node",
        "id": 806588787,
        "lat": 12.9783553,
        "lon": 77.5682244,
        "tags": {
          "name": "Bangalore City Junction",
          "public_transport": "stop_position",
          "railway": "stop",
          "ref": "SBC:6",
          "train": "yes"
        }
      },
      {
        "type": "node",
        "id": 806588788,
        "lat": 12.9784008,
        "lon": 77.5678774,
        "tags": {
          "name": "Bangalore City Junction",
          "name:kn": "\u0cac\u0cc6\u0c82\u0c97\u0cb3\u0cc2\u0cb0\u0cc1 \u0ca8\u0c97\u0cb0",
          "public_transport": "stop_position",
          "railway": "stop",
          "ref": "SBC:10",
          "train": "yes"
        }
      },
      {
        "type": "node",
        "id": 806588789,
        "lat": 12.9784045,
        "lon": 77.568007,
        "tags": {
          "name": "Bangalore City Junction",
          "name:kn": "\u0cac\u0cc6\u0c82\u0c97\u0cb3\u0cc2\u0cb0\u0cc1 \u0ca8\u0c97\u0cb0",
          "public_transport": "stop_position",
          "railway": "stop",
          "ref": "SBC:9",
          "train": "yes"
        }
      },
      {
        "type": "node",
        "id": 806588796,
        "lat": 12.9783992,
        "lon": 77.568046,
        "tags": {
          "name": "Bangalore City Junction",
          "name:kn": "\u0cac\u0cc6\u0c82\u0c97\u0cb3\u0cc2\u0cb0\u0cc1 \u0ca8\u0c97\u0cb0 \u0cb0\u0cc8\u0cb2\u0cc1 \u0ca8\u0cbf\u0cb2\u0ccd\u0ca6\u0cbe\u0ca3",
          "public_transport": "stop_position",
          "railway": "stop",
          "ref": "SBC:8",
          "train": "yes"
        }
      },
      {
        "type": "node",
        "id": 806588798,
        "lat": 12.9782835,
        "lon": 77.5685839,
        "tags": {
          "name": "Bangalore City Junction",
          "name:kn": "\u0cac\u0cc6\u0c82\u0c97\u0cb3\u0cc2\u0cb0\u0cc1 \u0ca8\u0c97\u0cb0",
          "public_transport": "stop_position",
          "railway": "stop",
          "ref": "SBC:5",
          "train": "yes"
        }
      },
      {
        "type": "node",
        "id": 1060580206,
        "lat": 12.9677686,
        "lon": 77.569887,
        "tags": {
          "amenity": "cinema",
          "name": "Super talkies"
        }
      },
      {
        "type": "node",
        "id": 1087823607,
        "lat": 12.9745014,
        "lon": 77.5842326,
        "tags": {
          "alt_name": "Central College",
          "code": "VSWA",
          "name": "Sir M. Visvesvaraya Stn., Central College",
          "name:kn": "\u0cb5\u0cbf\u0cb6\u0ccd\u0cb5\u0cc7\u0cb6\u0ccd\u0cb5\u0cb0\u0caf\u0ccd\u0caf",
          "network": "Namma Metro",
          "note": "Contributors are requested to not edit the \"network\" and the \"operator\" tags. (2023/11/08)",
          "operator": "Bangalore Metro Rail Corporation Limited",
          "platforms": "2",
          "public_transport": "stop_position",
          "public_transport:version": "2",
          "railway": "stop",
          "source": "http://www.bmrc.co.in/English/Network.htm",
          "subway": "yes",
          "wheelchair": "yes"
        }
      },
      {
        "type": "node",
        "id": 1290036140,
        "lat": 12.9950213,
        "lon": 77.5964919,
        "tags": {
          "addr:street": "Millers Road",
          "amenity": "fuel"
        }
      },
      {
        "type": "node",
        "id": 1363295014,
        "lat": 12.9895632,
        "lon": 77.5877862,
        "tags": {
          "amenity": "theatre",
          "name": "NGMA Auditorium"
        }
      },
      {
        "type": "node",
        "id": 1469265737,
        "lat": 12.98516,
        "lon": 77.6016342,
        "tags": {
          "amenity": "cinema",
          "name": "Elgin Cinema",
          "name:kn": "\u0c8e\u0cb2\u0ccd\u0c97\u0cbf\u0ca8\u0ccd \u0cb8\u0cbf\u0ca8\u0cc6\u0cae\u0cbe"
        }
      },
      {
        "type": "node",
        "id": 1548300484,
        "lat": 12.966924,
        "lon": 77.5745737,
        "tags": {
          "code": "CKPE",
          "name": "Chickpete",
          "name:hi": "\u091a\u093f\u0915\u092a\u0947\u091f\u0947",
          "name:kn": "\u0c9a\u0cbf\u0c95\u0ccd\u0c95\u0caa\u0cc7\u0c9f\u0cc6",
          "network": "Namma Metro",
          "note": "Contributors are requested to not edit the \"network\" and the \"operator\" tags. (2023/11/08)",
          "operator": "Bangalore Metro Rail Corporation Limited",
          "public_transport": "stop_position",
          "public_transport:version": "2",
          "railway": "stop",
          "source": "http://www.bmrc.co.in/English/Network.htm",
          "subway": "yes",
          "wheelchair": "yes"
        }
      },
      {
        "type": "node",
        "id": 1548828179,
        "lat": 12.9904754,
        "lon": 77.5707615,
        "tags": {
          "alt_name": "Swastik",
          "code": "SPGD",
          "name": "Mantri Square Sampige Road",
          "name:kn": "\u0cae\u0c82\u0ca4\u0ccd\u0cb0\u0cbf \u0cb8\u0ccd\u0c95\u0ccd\u0cb5\u0cc7\u0cb0\u0ccd \u0cb8\u0c82\u0caa\u0cbf\u0c97\u0cc6 \u0cb0\u0cb8\u0ccd\u0ca4\u0cc6",
          "network": "Namma Metro",
          "note": "Contributors are requested to not edit the \"network\" and the \"operator\" tags. (2023/11/08)",
          "operator": "Bangalore Metro Rail Corporation Limited",
          "public_transport": "stop_position",
          "public_transport:version": "2",
          "railway": "stop",
          "source": "http://www.bmrc.co.in/English/Network.htm",
          "subway": "yes",
          "wheelchair": "yes",
          "wikidata": "Q17088462",
          "wikipedia": "en:Sampige Road metro station"
        }
      },
      {
        "type": "node",
        "id": 1560067666,
        "lat": 12.9758581,
        "lon": 77.5653792,
        "tags": {
          "code": "BRCS",
          "name": "Krantivira Sangolli Rayanna Railway Station",
          "name:kn": "\u0ca8\u0c97\u0cb0 \u0cb0\u0cc8\u0cb2\u0cc1 \u0ca8\u0cbf\u0cb2\u0ccd\u0ca6\u0cbe\u0ca3",
          "network": "Namma Metro",
          "note": "Contributors are requested to not edit the \"network\" and the \"operator\" tags. (2023/11/08)",
          "operator": "Bangalore Metro Rail Corporation Limited",
          "platforms": "2",
          "public_transport": "stop_position",
          "public_transport:version": "2",
          "railway": "stop",
          "source": "http://www.bmrc.co.in/English/Network.htm",
          "subway": "yes",
          "wheelchair": "yes",
          "wikidata": "Q39070950",
          "wikipedia": "en:City Railway Station metro station (Bangalore)"
        }
      },
      {
        "type": "node",
        "id": 1614366547,
        "lat": 12.9883033,
        "lon": 77.5774436,
        "tags": {
          "amenity": "fuel",
          "brand": "Bharat Petroleum",
          "brand:wikidata": "Q854826",
          "name": "Bharat Petroleum",
          "name:kn": "\u0cad\u0cbe\u0cb0\u0ca4\u0ccd \u0caa\u0cc6\u0c9f\u0ccd\u0cb0\u0ccb\u0cb2\u0cbf\u0caf\u0c82",
          "wheelchair": "yes"
        }
      },
      {
        "type": "node",
        "id": 1806966554,
        "lat": 12.9672844,
        "lon": 77.57,
        "tags": {
          "amenity": "fuel",
          "brand": "AEGIS AUTO GAS",
          "fuel:1_25": "no",
          "fuel:1_50": "no",
          "fuel:GTL_diesel": "no",
          "fuel:HGV_diesel": "no",
          "fuel:biodiesel": "no",
          "fuel:biogas": "no",
          "fuel:cng": "no",
          "fuel:diesel": "no",
          "fuel:e10": "no",
          "fuel:e85": "no",
          "fuel:electricity": "no",
          "fuel:lpg": "yes",
          "fuel:octane_100": "no",
          "fuel:octane_91": "no",
          "fuel:octane_95": "no",
          "fuel:octane_98": "no",
          "name": "Shree Krishna Auto Gas",
          "wheelchair": "yes"
        }
      },
      {
        "type": "node",
        "id": 2394045745,
        "lat": 12.9878348,
        "lon": 77.5743169,
        "tags": {
          "bus": "yes",
          "name": "Swastik Sheshadripuram College",
          "name:en": "Swastik Sheshadripuram College",
          "network": "BMTC",
          "operator": "BMTC",
          "public_transport": "stop_position"
        }
      },
      {
        "type": "node",
        "id": 2397089966,
        "lat": 12.9834359,
        "lon": 77.5971078,
        "tags": {
          "bus": "yes",
          "local_ref": "BALEKUNDRI CIRCLE",
          "name": "Indian Express",
          "name:en": "Indian Express",
          "name:kn": "\u0cb5\u0cb8\u0c82\u0ca4 \u0ca8\u0c97\u0cb0",
          "network": "BMTC",
          "operator": "BMTC",
          "public_transport": "stop_position"
        }
      },
      {
        "type": "node",
        "id": 2466476118,
        "lat": 12.9765112,
        "lon": 77.5799146,
        "tags": {
          "amenity": "fuel",
          "brand": "Bharat Petroleum",
          "brand:wikidata": "Q854826",
          "check_date": "2024-03-02",
          "compressed_air": "yes",
          "name": "Bharat Petroleum",
          "operator": "Chanders"
        }
      },
      {
        "type": "node",
        "id": 2467854906,
        "lat": 12.9873459,
        "lon": 77.5723926,
        "tags": {
          "amenity": "fuel",
          "name": "Vijees Auto Gas"
        }
      },
      {
        "type": "node",
        "id": 2476128053,
        "lat": 12.9782608,
        "lon": 77.5729,
        "tags": {
          "bus": "yes",
          "name": "Platform 12",
          "operator": "BMTC",
          "public_transport": "stop_position"
        }
      },
      {
        "type": "node",
        "id": 2669084978,
        "lat": 12.9781739,
        "lon": 77.5695603,
        "tags": {
          "internet_access": "wlan",
          "name": "Krantivira Sangolli Rayanna (Bengaluru)",
          "name:kn": "\u0c95\u0ccd\u0cb0\u0cbe\u0c82\u0ca4\u0cbf\u0cb5\u0cc0\u0cb0 \u0cb8\u0c82\u0c97\u0cca\u0cb3\u0ccd\u0cb3\u0cbf \u0cb0\u0cbe\u0caf\u0ca3\u0ccd\u0ca3 \u0cb0\u0cc8\u0cb2\u0ccd\u0cb5\u0cc6 \u0ca8\u0cbf\u0cb2\u0ccd\u0ca6\u0cbe\u0ca3",
          "name:ml": "\u0d15\u0d4d\u0d30\u0d3e\u0d28\u0d4d\u0d24\u0d3f\u0d35\u0d40\u0d30 \u0d38\u0d19\u0d4d\u0d15\u0d4a\u0d32\u0d4d\u0d32\u0d3f \u0d30\u0d3e\u0d2f\u0d23\u0d4d\u0d23 \u0d31\u0d46\u0d2f\u0d3f\u0d7d\u0d35\u0d47 \u0d38\u0d4d\u0d31\u0d4d\u0d31\u0d47\u0d37\u0d7b",
          "name:te": "\u0c15\u0c4d\u0c30\u0c3e\u0c02\u0c24\u0c3f\u0c35\u0c40\u0c30 \u0c38\u0c02\u0c17\u0c4a\u0c32\u0c4d\u0c32\u0c3f \u0c30\u0c3e\u0c2f\u0c28\u0c4d\u0c28 \u0c30\u0c48\u0c32\u0c4d\u0c35\u0c47 \u0c38\u0c4d\u0c1f\u0c47\u0c37\u0c28\u0c4d",
          "network": "IR",
          "old_name": "Bangalore City Junction",
          "operator": "SWR",
          "public_transport": "station",
          "railway": "station",
          "ref": "SBC",
          "short_name": "KSR Bengaluru",
          "wheelchair": "yes",
          "wikidata": "Q3633970"
        }
      },
      {
        "type": "node",
        "id": 3198633191,
        "lat": 12.9869097,
        "lon": 77.5789251,
        "tags": {
          "bus": "yes",
          "highway": "bus_stop",
          "loc_name": "VASANTHA NAGARA",
          "name": "Shivananda Stores",
          "name:en": "Shivananda Stores",
          "network": "BMTC",
          "operator": "BMTC",
          "public_transport": "stop_position"
        }
      },
      {
        "type": "node",
        "id": 3320950152,
        "lat": 12.9900294,
        "lon": 77.5721105,
        "tags": {
          "bus": "yes",
          "name": "Central",
          "name:en": "Central",
          "network": "BMTC",
          "operator": "BMTC",
          "public_transport": "stop_position"
        }
      },
      {
        "type": "node",
        "id": 3343297219,
        "lat": 12.9808954,
        "lon": 77.597562,
        "tags": {
          "code": "CBPK",
          "name": "Cubbon Park",
          "name:etymology:wikidata": "Q6767214",
          "name:hi": "\u0915\u092c\u0928 \u092a\u093e\u0930\u094d\u0915",
          "name:kn": "\u0c95\u0cac\u0ccd\u0cac\u0ca8\u0ccd \u0caa\u0cbe\u0cb0\u0ccd\u0c95\u0ccd",
          "network": "Namma Metro",
          "note": "Contributors are requested to not edit the \"network\" and the \"operator\" tags. (2023/11/08)",
          "operator": "Bangalore Metro Rail Corporation Limited",
          "platforms": "2",
          "public_transport": "stop_position",
          "public_transport:version": "2",
          "railway": "stop",
          "source": "http://www.bmrc.co.in/English/Network.htm",
          "subway": "yes",
          "wheelchair": "yes",
          "wikidata": "Q5192189",
          "wikipedia": "en:Cubbon Park metro station"
        }
      },
      {
        "type": "node",
        "id": 3664774925,
        "lat": 12.9920489,
        "lon": 77.5706285,
        "tags": {
          "addr:city": "Bengaluru",
          "addr:postcode": "560003",
          "addr:street": "Sampige Road",
          "air_conditioning": "yes",
          "amenity": "cinema",
          "brand": "INOX Leisure",
          "brand:wikidata": "Q5972349",
          "name": "INOX Malleshwaram - Mantri Square",
          "short_name": "INOX"
        }
      },
      {
        "type": "node",
        "id": 3755608905,
        "lat": 12.9786086,
        "lon": 77.5725521,
        "tags": {
          "bus": "yes",
          "name": "Platform 21",
          "operator": "BMTC",
          "public_transport": "stop_position"
        }
      },
      {
        "type": "node",
        "id": 3756218734,
        "lat": 12.9824156,
        "lon": 77.5620528,
        "tags": {
          "bus": "yes",
          "highway": "bus_stop",
          "loc_name": "RAMACHANDRAPURAM",
          "name": "Sujatha Talkies",
          "name:en": "Sujatha Talkies",
          "name:kn": "\u0cb8\u0cc1\u0c9c\u0cbe\u0ca4 \u0c9a\u0cbf\u0ca4\u0ccd\u0cb0\u0cae\u0c82\u0ca6\u0cbf\u0cb0",
          "network": "BMTC",
          "operator": "BMTC",
          "public_transport": "stop_position"
        }
      },
      {
        "type": "node",
        "id": 3875744057,
        "lat": 12.9777644,
        "lon": 77.5728494,
        "tags": {
          "bus": "yes",
          "name": "Platform 1",
          "name:kn": "\u0c85\u0c82\u0c95\u0ca3 \u0ce7",
          "operator": "BMTC",
          "public_transport": "stop_position"
        }
      },
      {
        "type": "node",
        "id": 3875744058,
        "lat": 12.9779442,
        "lon": 77.5727259,
        "tags": {
          "bus": "yes",
          "name": "Platform 2",
          "name:kn": "\u0c85\u0c82\u0c95\u0ca3 \u0ce8",
          "operator": "BMTC",
          "public_transport": "stop_position"
        }
      },
      {
        "type": "node",
        "id": 3875768038,
        "lat": 12.9780562,
        "lon": 77.5725348,
        "tags": {
          "bus": "yes",
          "name": "Platform 3",
          "name:kn": "\u0c85\u0c82\u0c95\u0ca3 \u0ce9",
          "operator": "BMTC",
          "public_transport": "stop_position"
        }
      },
      {
        "type": "node",
        "id": 3875768039,
        "lat": 12.9780653,
        "lon": 77.5722489,
        "tags": {
          "bus": "yes",
          "name": "Platform 3A",
          "operator": "BMTC",
          "public_transport": "stop_position"
        }
      },
      {
        "type": "node",
        "id": 3875768040,
        "lat": 12.9779148,
        "lon": 77.571813,
        "tags": {
          "bus": "yes",
          "name": "Platform 5",
          "name:kn": "\u0c85\u0c82\u0c95\u0ca3 \u0ceb",
          "operator": "BMTC",
          "public_transport": "stop_position"
        }
      },
      {
        "type": "node",
        "id": 3875790066,
        "lat": 12.9780458,
        "lon": 77.5719149,
        "tags": {
          "bus": "yes",
          "name": "Platform 6",
          "name:kn": "\u0cb5\u0cc7\u0ca6\u0cbf\u0c95\u0cc6 \u0cec",
          "operator": "BMTC",
          "public_transport": "stop_position"
        }
      },
      {
        "type": "node",
        "id": 3875790067,
        "lat": 12.9781429,
        "lon": 77.5720401,
        "tags": {
          "bus": "yes",
          "name": "Platform 6A",
          "name:kn": "\u0cb5\u0cc7\u0ca6\u0cbf\u0c95\u0cc6 \u0cec\u0c8e",
          "operator": "BMTC",
          "public_transport": "stop_position"
        }
      },
      {
        "type": "node",
        "id": 3875790068,
        "lat": 12.9781992,
        "lon": 77.5721632,
        "tags": {
          "bus": "yes",
          "name": "Platform 7",
          "name:kn": "\u0cb5\u0cc7\u0ca6\u0cbf\u0c95\u0cc6 \u0ced",
          "operator": "BMTC",
          "public_transport": "stop_position"
        }
      },
      {
        "type": "node",
        "id": 3875790069,
        "lat": 12.9782295,
        "lon": 77.5722952,
        "tags": {
          "bus": "yes",
          "name": "Platform 8",
          "name:kn": "\u0cb5\u0cc7\u0ca6\u0cbf\u0c95\u0cc6 \u0cee",
          "operator": "BMTC",
          "public_transport": "stop_position"
        }
      },
      {
        "type": "node",
        "id": 3875790070,
        "lat": 12.9782221,
        "lon": 77.5725112,
        "tags": {
          "bus": "yes",
          "name": "Platform 8A",
          "name:kn": "\u0cb5\u0cc7\u0ca6\u0cbf\u0c95\u0cc6 \u0cee\u0c8e",
          "operator": "BMTC",
          "public_transport": "stop_position"
        }
      },
      {
        "type": "node",
        "id": 3997461617,
        "lat": 12.9764416,
        "lon": 77.6032781,
        "tags": {
          "addr:street": "Mahatma Gandhi Road",
          "amenity": "theatre",
          "name": "Rangasthala Auditorium",
          "name:kn": "\u0cb0\u0c82\u0c97\u0cb8\u0ccd\u0ca5\u0cb3 \u0cb8\u0cad\u0cbe\u0c82\u0c97\u0ca3"
        }
      },
      {
        "type": "node",
        "id": 4362379252,
        "lat": 12.996341,
        "lon": 77.5999117,
        "tags": {
          "amenity": "theatre",
          "name": "Tagore Hall"
        }
      },
      {
        "type": "node",
        "id": 4937191686,
        "lat": 12.9967945,
        "lon": 77.568963,
        "tags": {
          "bench": "yes",
          "bus": "yes",
          "covered": "yes",
          "highway": "bus_stop",
          "name": "Malleshwaram Circle",
          "name:kn": "\u0cae\u0cb2\u0ccd\u0cb2\u0cc7\u0cb6\u0ccd\u0cb5\u0cb0\u0c82 \u0cb5\u0cc3\u0ca4\u0ccd\u0ca4",
          "operator": "BMTC",
          "public_transport": "stop_position",
          "shelter": "yes"
        }
      },
      {
        "type": "node",
        "id": 4937863372,
        "lat": 13.00285,
        "lon": 77.5712723,
        "tags": {
          "bus": "yes",
          "public_transport": "stop_position"
        }
      },
      {
        "type": "node",
        "id": 4937863375,
        "lat": 12.9977319,
        "lon": 77.5713903,
        "tags": {
          "bus": "yes",
          "name": "Malleswaram Circle",
          "name:kn": "\u0cae\u0cb2\u0ccd\u0cb2\u0cc7\u0cb6\u0ccd\u0cb5\u0cb0\u0c82 \u0cb5\u0cc3\u0ca4\u0ccd\u0ca4",
          "operator": "BMTC",
          "public_transport": "stop_position"
        }
      },
      {
        "type": "node",
        "id": 5305932617,
        "lat": 12.9756704,
        "lon": 77.5728057,
        "tags": {
          "alt_name": "Majestic Metro Station",
          "code": "KGWA",
          "layer": "-1",
          "level": "-1",
          "name": "Nadaprabhu Kempegowda Station, Majestic (Purple Line)",
          "name:etymology:wikidata": "Q6387049",
          "name:kn": "\u0c95\u0cc6\u0c82\u0caa\u0cc7\u0c97\u0ccc\u0ca1",
          "network": "Namma Metro",
          "note": "Contributors are requested to not edit the \"network\" and the \"operator\" tags. (2023/11/08)",
          "operator": "Bangalore Metro Rail Corporation Limited",
          "public_transport": "stop_position",
          "public_transport:version": "2",
          "railway": "stop",
          "source": "http://www.bmrc.co.in/English/Network.htm",
          "subway": "yes",
          "wheelchair": "yes"
        }
      },
      {
        "type": "node",
        "id": 5335240455,
        "lat": 12.9771006,
        "lon": 77.5857758,
        "tags": {
          "bus": "yes",
          "highway": "bus_stop",
          "name": "Maharani College, KR Circle",
          "network": "BMTC",
          "network:wikidata": "Q3345039",
          "operator": "BMTC",
          "public_transport": "stop_position"
        }
      },
      {
        "type": "node",
        "id": 5464787094,
        "lat": 12.9750646,
        "lon": 77.5730388,
        "tags": {
          "alt_name": "Majestic Metro Station",
          "code": "KGWA",
          "layer": "-2",
          "level": "-2",
          "name": "Nadaprabhu Kempegowda Station, Majestic (Green Line)",
          "name:etymology:wikidata": "Q6387049",
          "name:kn": "\u0c95\u0cc6\u0c82\u0caa\u0cc7\u0c97\u0ccc\u0ca1",
          "network": "Namma Metro",
          "note": "Contributors are requested to not edit the \"network\" and the \"operator\" tags. (2023/11/08)",
          "operator": "Bangalore Metro Rail Corporation Limited",
          "public_transport": "stop_position",
          "public_transport:version": "2",
          "railway": "stop",
          "source": "http://www.bmrc.co.in/English/Network.htm",
          "subway": "yes",
          "wheelchair": "yes"
        }
      },
      {
        "type": "node",
        "id": 5558663785,
        "lat": 13.0059264,
        "lon": 77.5797426,
        "tags": {
          "bus": "yes",
          "local_ref": "Sadashivanagar",
          "name": "Bashayam Circle",
          "name:en": "Bashayam Circle",
          "name:kn": "\u0cac\u0cbe\u0cb7\u0ccd\u0caf\u0c82 \u0cb5\u0cc3\u0ca4\u0ccd\u0ca4",
          "network": "BMTC",
          "operator": "BMTC",
          "public_transport": "stop_position"
        }
      },
      {
        "type": "node",
        "id": 5560544561,
        "lat": 12.9678731,
        "lon": 77.5906692,
        "tags": {
          "bus": "yes",
          "name": "Hudson Circle",
          "name:en": "Hudson Circle",
          "name:kn": "\u0cb9\u0ca1\u0ccd\u0cb8\u0ca8\u0ccd \u0cb5\u0cc3\u0ca4\u0ccd\u0ca4",
          "network": "BMTC",
          "operator": "BMTC",
          "public_transport": "stop_position"
        }
      },
      {
        "type": "node",
        "id": 5760197788,
        "lat": 12.9759026,
        "lon": 77.5653744,
        "tags": {
          "code": "BRCS",
          "name": "Krantivira Sangolli Rayanna Railway Station",
          "name:kn": "\u0ca8\u0c97\u0cb0 \u0cb0\u0cc8\u0cb2\u0cc1 \u0ca8\u0cbf\u0cb2\u0ccd\u0ca6\u0cbe\u0ca3",
          "network": "Namma Metro",
          "note": "Contributors are requested to not edit the \"network\" and the \"operator\" tags. (2023/11/08)",
          "operator": "Bangalore Metro Rail Corporation Limited",
          "platforms": "2",
          "public_transport": "stop_position",
          "public_transport:version": "2",
          "railway": "stop",
          "source": "http://www.bmrc.co.in/English/Network.htm",
          "subway": "yes",
          "wheelchair": "yes",
          "wikidata": "Q39070950",
          "wikipedia": "en:City Railway Station metro station (Bangalore)"
        }
      },
      {
        "type": "node",
        "id": 5760197798,
        "lat": 12.9809794,
        "lon": 77.5975758,
        "tags": {
          "code": "CBPK",
          "name": "Cubbon Park",
          "name:etymology:wikidata": "Q6767214",
          "name:hi": "\u0915\u092c\u0928 \u092a\u093e\u0930\u094d\u0915",
          "name:kn": "\u0c95\u0cac\u0ccd\u0cac\u0ca8\u0ccd \u0caa\u0cbe\u0cb0\u0ccd\u0c95\u0ccd",
          "network": "Namma Metro",
          "note": "Contributors are requested to not edit the \"network\" and the \"operator\" tags. (2023/11/08)",
          "operator": "Bangalore Metro Rail Corporation Limited",
          "platforms": "2",
          "public_transport": "stop_position",
          "public_transport:version": "2",
          "railway": "stop",
          "source": "http://www.bmrc.co.in/English/Network.htm",
          "subway": "yes",
          "wheelchair": "yes",
          "wikidata": "Q5192189",
          "wikipedia": "en:Cubbon Park metro station"
        }
      },
      {
        "type": "node",
        "id": 5760197799,
        "lat": 12.978996,
        "lon": 77.591831,
        "tags": {
          "code": "VDSA",
          "local_ref": "1",
          "name": "Dr. B. R. Ambedkar Station, Vidhana Soudha",
          "name:etymology:wikidata": "Q231690",
          "name:kn": "\u0cb5\u0cbf\u0ca7\u0cbe\u0ca8 \u0cb8\u0ccc\u0ca7",
          "network": "Namma Metro",
          "note": "Contributors are requested to not edit the \"network\" and the \"operator\" tags. (2023/11/08)",
          "operator": "Bangalore Metro Rail Corporation Limited",
          "public_transport": "stop_position",
          "public_transport:version": "2",
          "railway": "stop",
          "source": "http://www.bmrc.co.in/English/Network.htm",
          "subway": "yes",
          "to": "Whitefield (Kadugodi)",
          "wheelchair": "yes"
        }
      },
      {
        "type": "node",
        "id": 5760197800,
        "lat": 12.9757512,
        "lon": 77.5730887,
        "tags": {
          "alt_name": "Majestic Metro Station",
          "code": "KGWA",
          "layer": "-1",
          "level": "-1",
          "name": "Nadaprabhu Kempegowda Station, Majestic (Purple Line)",
          "name:etymology:wikidata": "Q6387049",
          "name:kn": "\u0c95\u0cc6\u0c82\u0caa\u0cc7\u0c97\u0ccc\u0ca1",
          "network": "Namma Metro",
          "note": "Contributors are requested to not edit the \"network\" and the \"operator\" tags. (2023/11/08)",
          "operator": "Bangalore Metro Rail Corporation Limited",
          "public_transport": "stop_position",
          "public_transport:version": "2",
          "railway": "stop",
          "source": "http://www.bmrc.co.in/English/Network.htm",
          "subway": "yes",
          "wheelchair": "yes"
        }
      },
      {
        "type": "node",
        "id": 5760197802,
        "lat": 12.9745398,
        "lon": 77.584209,
        "tags": {
          "alt_name": "Central College",
          "code": "VSWA",
          "name": "Sir M. Visvesvaraya Stn., Central College",
          "name:kn": "\u0cb5\u0cbf\u0cb6\u0ccd\u0cb5\u0cc7\u0cb6\u0ccd\u0cb5\u0cb0\u0caf\u0ccd\u0caf",
          "network": "Namma Metro",
          "note": "Contributors are requested to not edit the \"network\" and the \"operator\" tags. (2023/11/08)",
          "operator": "Bangalore Metro Rail Corporation Limited",
          "platforms": "2",
          "public_transport": "stop_position",
          "public_transport:version": "2",
          "railway": "stop",
          "source": "http://www.bmrc.co.in/English/Network.htm",
          "subway": "yes",
          "wheelchair": "yes"
        }
      },
      {
        "type": "node",
        "id": 5760198468,
        "lat": 12.9759557,
        "lon": 77.5728675,
        "tags": {
          "alt_name": "Majestic Metro Station",
          "code": "KGWA",
          "layer": "-2",
          "level": "-2",
          "name": "Nadaprabhu Kempegowda Station, Majestic (Green Line)",
          "name:etymology:wikidata": "Q6387049",
          "name:kn": "\u0c95\u0cc6\u0c82\u0caa\u0cc7\u0c97\u0ccc\u0ca1",
          "network": "Namma Metro",
          "note": "Contributors are requested to not edit the \"network\" and the \"operator\" tags. (2023/11/08)",
          "operator": "Bangalore Metro Rail Corporation Limited",
          "public_transport": "stop_position",
          "public_transport:version": "2",
          "railway": "stop",
          "source": "http://www.bmrc.co.in/English/Network.htm",
          "subway": "yes",
          "wheelchair": "yes"
        }
      },
      {
        "type": "node",
        "id": 5760198469,
        "lat": 12.9669249,
        "lon": 77.5745314,
        "tags": {
          "code": "CKPE",
          "name": "Chickpete",
          "name:hi": "\u091a\u093f\u0915\u092a\u0947\u091f\u0947",
          "name:kn": "\u0c9a\u0cbf\u0c95\u0ccd\u0c95\u0caa\u0cc7\u0c9f\u0cc6",
          "network": "Namma Metro",
          "note": "Contributors are requested to not edit the \"network\" and the \"operator\" tags. (2023/11/08)",
          "operator": "Bangalore Metro Rail Corporation Limited",
          "public_transport": "stop_position",
          "public_transport:version": "2",
          "railway": "stop",
          "source": "http://www.bmrc.co.in/English/Network.htm",
          "subway": "yes",
          "wheelchair": "yes"
        }
      },
      {
        "type": "node",
        "id": 5760198623,
        "lat": 12.9904282,
        "lon": 77.5706929,
        "tags": {
          "alt_name": "Swastik",
          "code": "SPGD",
          "name": "Mantri Square Sampige Road",
          "name:kn": "\u0cae\u0c82\u0ca4\u0ccd\u0cb0\u0cbf \u0cb8\u0ccd\u0c95\u0ccd\u0cb5\u0cc7\u0cb0\u0ccd \u0cb8\u0c82\u0caa\u0cbf\u0c97\u0cc6 \u0cb0\u0cb8\u0ccd\u0ca4\u0cc6",
          "network": "Namma Metro",
          "note": "Contributors are requested to not edit the \"network\" and the \"operator\" tags. (2023/11/08)",
          "operator": "Bangalore Metro Rail Corporation Limited",
          "public_transport": "stop_position",
          "public_transport:version": "2",
          "railway": "stop",
          "source": "http://www.bmrc.co.in/English/Network.htm",
          "subway": "yes",
          "wheelchair": "yes",
          "wikidata": "Q17088462",
          "wikipedia": "en:Sampige Road metro station"
        }
      },
      {
        "type": "node",
        "id": 6095308677,
        "lat": 12.9784514,
        "lon": 77.5717616,
        "tags": {
          "bus": "yes",
          "name": "Platform 19D",
          "operator": "BMTC",
          "public_transport": "stop_position"
        }
      },
      {
        "type": "node",
        "id": 6400857555,
        "lat": 12.9809575,
        "lon": 77.5975756,
        "tags": {
          "code": "CBPK",
          "name": "Cubbon Park",
          "name:etymology:wikidata": "Q6767214",
          "name:hi": "\u0915\u092c\u0928 \u092a\u093e\u0930\u094d\u0915",
          "name:kn": "\u0c95\u0cac\u0ccd\u0cac\u0ca8\u0ccd \u0caa\u0cbe\u0cb0\u0ccd\u0c95\u0ccd",
          "name:ml": "\u0d15\u0d2c\u0d4d\u0d2c\u0d7a \u0d2a\u0d3e\u0d7c\u0d15\u0d4d\u0d15\u0d4d",
          "network": "Namma Metro",
          "note": "Contributors are requested to not edit the \"network\" and the \"operator\" tags. (2023/11/08)",
          "operator": "Bangalore Metro Rail Corporation Limited",
          "public_transport": "station",
          "public_transport:version": "2",
          "railway": "station",
          "shelter": "yes",
          "station": "subway",
          "subway": "yes",
          "tunnel": "yes",
          "website": "https://english.brmc.co.in",
          "wheelchair": "yes"
        }
      },
      {
        "type": "node",
        "id": 6400857556,
        "lat": 12.9787419,
        "lon": 77.5916385,
        "tags": {
          "code": "VDSA",
          "name": "Dr. B. R. Ambedkar Station, Vidhana Soudha",
          "name:kn": "\u0ca1\u0cbe.\u0cac\u0cbf.\u0c86\u0cb0\u0ccd. \u0c85\u0c82\u0cac\u0cc7\u0ca1\u0ccd\u0c95\u0cb0\u0ccd \u0ca0\u0cbe\u0ca3\u0cc6, \u0cb5\u0cbf\u0ca7\u0cbe\u0ca8\u0cb8\u0ccc\u0ca7",
          "name:ml": "\u0d21\u0d4b.\u0d2c\u0d3f.\u0d06\u0d7c. \u0d05\u0d02\u0d2c\u0d47\u0d26\u0d4d\u0d15\u0d7c \u0d38\u0d4d\u0d31\u0d4d\u0d31\u0d47\u0d37\u0d7b, \u0d35\u0d3f\u0d27\u0d3e\u0d28 \u0d38\u0d57\u0d27",
          "network": "Namma Metro",
          "note": "Contributors are requested to not edit the \"network\" and the \"operator\" tags. (2023/11/08)",
          "operator": "Bangalore Metro Rail Corporation Limited",
          "public_transport": "station",
          "public_transport:version": "2",
          "railway": "station",
          "shelter": "yes",
          "station": "subway",
          "subway": "yes",
          "tunnel": "yes",
          "website": "https://english.brmc.co.in",
          "wheelchair": "yes"
        }
      },
      {
        "type": "node",
        "id": 6400857557,
        "lat": 12.9745197,
        "lon": 77.58422,
        "tags": {
          "alt_name": "Central College",
          "code": "VSWA",
          "name": "Sir M. Visvesvaraya Stn., Central College",
          "name:kn": "\u0cb8\u0cb0\u0ccd \u0c8e\u0c82 \u0cb5\u0cbf\u0cb6\u0ccd\u0cb5\u0cc7\u0cb6\u0ccd\u0cb5\u0cb0\u0caf\u0ccd\u0caf - \u0cb8\u0cc6\u0c82\u0c9f\u0ccd\u0cb0\u0cb2\u0ccd \u0c95\u0cbe\u0cb2\u0cc7\u0c9c\u0cc1",
          "name:ml": "\u0d38\u0d7c \u0d0e\u0d02 \u0d35\u0d3f\u0d36\u0d4d\u0d35\u0d47\u0d36\u0d4d\u0d35\u0d30\u0d2f\u0d4d\u0d2f - \u0d38\u0d46\u0d7b\u0d1f\u0d4d\u0d30\u0d7d \u0d15\u0d4b\u0d33\u0d47\u0d1c\u0d4d",
          "network": "Namma Metro",
          "note": "Contributors are requested to not edit the \"network\" and the \"operator\" tags. (2023/11/08)",
          "operator": "Bangalore Metro Rail Corporation Limited",
          "public_transport": "station",
          "public_transport:version": "2",
          "railway": "station",
          "shelter": "yes",
          "station": "subway",
          "subway": "yes",
          "tunnel": "yes",
          "website": "https://english.brmc.co.in",
          "wheelchair": "yes"
        }
      },
      {
        "type": "node",
        "id": 6400857558,
        "lat": 12.9757079,
        "lon": 77.5728757,
        "tags": {
          "alt_name": "Majestic Metro Station",
          "code": "KGWA",
          "level": "-2;-1;0",
          "name": "Nadaprabhu Kempegowda Station, Majestic",
          "name:etymology:wikidata": "Q6387049",
          "name:kn": "\u0ca8\u0cbe\u0ca1\u0caa\u0ccd\u0cb0\u0cad\u0cc1 \u0c95\u0cc6\u0c82\u0caa\u0cc7\u0c97\u0ccc\u0ca1 \u0ca8\u0cbf\u0cb2\u0ccd\u0ca6\u0cbe\u0ca3, \u0cae\u0cc6\u0c9c\u0cc6\u0cb8\u0ccd\u0c9f\u0cbf\u0c95\u0ccd",
          "name:ml": "\u0d28\u0d3e\u0d1f\u0d2a\u0d4d\u0d30\u0d2d\u0d41 \u0d15\u0d46\u0d2e\u0d4d\u0d2a\u0d17\u0d57\u0d21 \u0d38\u0d4d\u0d31\u0d4d\u0d31\u0d47\u0d37\u0d7b, \u0d2e\u0d1c\u0d38\u0d4d\u0d31\u0d4d\u0d31\u0d3f\u0d15\u0d4d",
          "name:ta": "\u0ba8\u0bbe\u0b9f\u0baa\u0bcd\u0baa\u0bbf\u0bb0\u0baa\u0bc1 \u0b95\u0bc6\u0bae\u0bcd\u0baa\u0bc7\u0b95\u0bb5\u0bc1\u0b9f\u0bbe \u0bae\u0bc6\u0b9c\u0bb8\u0bcd\u0b9f\u0bbf\u0b95\u0bcd",
          "network": "Namma Metro",
          "note": "Contributors are requested to not edit the \"network\" and the \"operator\" tags. (2023/11/08)",
          "operator": "Bangalore Metro Rail Corporation Limited",
          "public_transport": "station",
          "public_transport:version": "2",
          "railway": "station",
          "shelter": "yes",
          "station": "subway",
          "subway": "yes",
          "website": "https://english.brmc.co.in",
          "wheelchair": "yes",
          "wikidata": "Q6737727",
          "wikipedia": "en:Majestic metro station"
        }
      },
      {
        "type": "node",
        "id": 6400857559,
        "lat": 12.9758768,
        "lon": 77.5653767,
        "tags": {
          "code": "BRCS",
          "name": "Krantivira Sangolli Rayanna Railway Station",
          "name:kn": "\u0c95\u0ccd\u0cb0\u0cbe\u0c82\u0ca4\u0cbf\u0cb5\u0cc0\u0cb0 \u0cb8\u0c82\u0c97\u0cca\u0cb3\u0ccd\u0cb3\u0cbf \u0cb0\u0cbe\u0caf\u0ca3\u0ccd\u0ca3",
          "name:ml": "\u0d15\u0d4d\u0d30\u0d3e\u0d28\u0d4d\u0d24\u0d3f\u0d35\u0d40\u0d30 \u0d38\u0d19\u0d4d\u0d15\u0d4a\u0d32\u0d4d\u0d32\u0d3f \u0d30\u0d3e\u0d2f\u0d23\u0d4d\u0d23",
          "network": "Namma Metro",
          "note": "Contributors are requested to not edit the \"network\" and the \"operator\" tags. (2023/11/08)",
          "operator": "Bangalore Metro Rail Corporation Limited",
          "public_transport": "station",
          "public_transport:version": "2",
          "railway": "station",
          "shelter": "yes",
          "station": "subway",
          "subway": "yes",
          "website": "https://english.brmc.co.in",
          "wheelchair": "yes"
        }
      },
      {
        "type": "node",
        "id": 6410706688,
        "lat": 12.9904629,
        "lon": 77.5707293,
        "tags": {
          "code": "SPGD",
          "name": "Mantri Square Sampige Road",
          "name:kn": "\u0cae\u0c82\u0ca4\u0ccd\u0cb0\u0cbf \u0cb8\u0ccd\u0c95\u0ccd\u0cb5\u0cc7\u0cb0\u0ccd \u0cb8\u0c82\u0caa\u0cbf\u0c97\u0cc6 \u0cb0\u0cb8\u0ccd\u0ca4\u0cc6",
          "name:ml": "\u0d2e\u0d28\u0d4d\u0d24\u0d4d\u0d30\u0d3f \u0d38\u0d4d\u0d15\u0d4d\u0d35\u0d2f\u0d7c \u0d38\u0d2e\u0d4d\u0d2a\u0d3f\u0d17\u0d46 \u0d31\u0d4b\u0d21\u0d4d",
          "network": "Namma Metro",
          "network:wikidata": "Q279343",
          "note": "Contributors are requested to not edit the \"network\" and the \"operator\" tags. (2023/11/08)",
          "operator": "Bangalore Metro Rail Corporation Limited",
          "public_transport": "station",
          "public_transport:version": "2",
          "railway": "station",
          "shelter": "yes",
          "station": "subway",
          "subway": "yes",
          "website": "https://english.brmc.co.in",
          "wheelchair": "yes"
        }
      },
      {
        "type": "node",
        "id": 6432710301,
        "lat": 12.9668974,
        "lon": 77.5745566,
        "tags": {
          "code": "CKPE",
          "lit": "yes",
          "name": "Chickpete",
          "name:hi": "\u091a\u093f\u0915\u092a\u0947\u091f\u0947",
          "name:kn": "\u0c9a\u0cbf\u0c95\u0ccd\u0c95\u0caa\u0cc7\u0c9f\u0cc6",
          "name:ml": "\u0d1a\u0d3f\u0d15\u0d4d\u0d15\u0d2a\u0d4d\u0d2a\u0d47\u0d1f\u0d4d\u0d1f",
          "name:ta": "\u0b9a\u0bbf\u0b95\u0bcd\u0b95\u0baa\u0bc7\u0b9f\u0bcd\u0b9f\u0bc7",
          "network": "Namma Metro",
          "note": "Contributors are requested to not edit the \"network\" and the \"operator\" tags. (2023/11/08)",
          "operator": "Bangalore Metro Rail Corporation Limited",
          "public_transport": "station",
          "public_transport:version": "2",
          "railway": "station",
          "shelter": "yes",
          "station": "subway",
          "subway": "yes",
          "tunnel": "yes",
          "website": "https://english.brmc.co.in",
          "wheelchair": "yes"
        }
      },
      {
        "type": "node",
        "id": 6584009979,
        "lat": 12.9835206,
        "lon": 77.6031048,
        "tags": {
          "bus": "yes",
          "name": "Platform 7",
          "operator": "BMTC",
          "public_transport": "stop_position",
          "ref": "7"
        }
      },
      {
        "type": "node",
        "id": 6645712420,
        "lat": 12.9703358,
        "lon": 77.5942959,
        "tags": {
          "alt_name": "St Joseph Boys High School",
          "bus": "yes",
          "name": "Mallya Hospital",
          "name:en": "Mallya Hospital",
          "name:kn": "\u0cae\u0cb2\u0ccd\u0cb2\u0ccd\u0caf \u0c86\u0cb8\u0ccd\u0caa\u0ca4\u0ccd\u0cb0\u0cc6",
          "network": "BMTC",
          "operator": "BMTC",
          "public_transport": "stop_position"
        }
      },
      {
        "type": "node",
        "id": 6681215517,
        "lat": 12.9723378,
        "lon": 77.5822789,
        "tags": {
          "bus": "yes",
          "name": "Mysore Bank",
          "name:en": "Mysore Bank",
          "name:kn": "\u0cae\u0cc8\u0cb8\u0cc2\u0cb0\u0cc1 \u0cac\u0ccd\u0caf\u0cbe\u0c82\u0c95\u0ccd",
          "network": "BMTC",
          "operator": "BMTC",
          "public_transport": "stop_position"
        }
      },
      {
        "type": "node",
        "id": 6834406250,
        "lat": 12.9737361,
        "lon": 77.5954588,
        "tags": {
          "alt_name": "Museum",
          "bus": "yes",
          "name": "Kasturba Road",
          "name:en": "Kasturba Road",
          "name:etymology:wikidata": "Q264908",
          "name:kn": "\u0c95\u0cb8\u0ccd\u0ca4\u0cc2\u0cb0\u0ccd\u0cac\u0cbe \u0cb0\u0cb8\u0ccd\u0ca4\u0cc6",
          "network": "BMTC",
          "operator": "BMTC",
          "public_transport": "stop_position"
        }
      },
      {
        "type": "node",
        "id": 6834406267,
        "lat": 12.977413,
        "lon": 77.5988849,
        "tags": {
          "bus": "yes",
          "name": "Chinnaswamy Stadium",
          "name:en": "Chinnaswamy Stadium",
          "name:etymology:wikidata": "Q6712480",
          "name:kn": "\u0c9a\u0cbf\u0ca8\u0ccd\u0ca8\u0cb8\u0ccd\u0cb5\u0cbe\u0cae\u0cbf \u0c95\u0ccd\u0cb0\u0cc0\u0ca1\u0cbe\u0c82\u0c97\u0ca3",
          "network": "BMTC",
          "operator": "BMTC",
          "public_transport": "stop_position"
        }
      },
      {
        "type": "node",
        "id": 6834406268,
        "lat": 12.9772301,
        "lon": 77.5990996,
        "tags": {
          "bus": "yes",
          "name": "Chinnaswamy Stadium",
          "name:en": "Chinnaswamy Stadium",
          "name:etymology:wikidata": "Q6712480",
          "name:kn": "\u0c9a\u0cbf\u0ca8\u0ccd\u0ca8\u0cb8\u0ccd\u0cb5\u0cbe\u0cae\u0cbf \u0c95\u0ccd\u0cb0\u0cc0\u0ca1\u0cbe\u0c82\u0c97\u0ca3",
          "network": "BMTC",
          "operator": "BMTC",
          "public_transport": "stop_position"
        }
      },
      {
        "type": "node",
        "id": 7087593361,
        "lat": 12.9918414,
        "lon": 77.6020219,
        "tags": {
          "alt_name": "HK Degree College",
          "bus": "yes",
          "name": "Bamboo Bazar",
          "name:en": "Bamboo Bazar",
          "name:kn": "\u0cac\u0c82\u0cac\u0cc2 \u0cac\u0c9c\u0cbe\u0cb0\u0ccd",
          "network": "BMTC",
          "operator": "BMTC",
          "public_transport": "stop_position"
        }
      },
      {
        "type": "node",
        "id": 7093027181,
        "lat": 12.975765,
        "lon": 77.5638338,
        "tags": {
          "bus": "yes",
          "name": "1st Cross Magadi Road",
          "name:en": "1st Cross Magadi Road",
          "name:kn": "\u0cae\u0cbe\u0c97\u0ca1\u0cbf \u0cb0\u0cb8\u0ccd\u0ca4\u0cc6 \u0ce7\u0ca8\u0cc7 \u0c85\u0ca1\u0ccd\u0ca1",
          "network": "BMTC",
          "operator": "BMTC",
          "public_transport": "stop_position"
        }
      },
      {
        "type": "node",
        "id": 7104861389,
        "lat": 12.9829933,
        "lon": 77.5765385,
        "tags": {
          "bus": "yes",
          "name": "KPCC Office",
          "name:en": "KPCC Office",
          "network": "BMTC",
          "operator": "BMTC",
          "public_transport": "stop_position"
        }
      },
      {
        "type": "node",
        "id": 7104861390,
        "lat": 12.9685091,
        "lon": 77.586563,
        "tags": {
          "bus": "yes",
          "name": "Corporation",
          "name:en": "Corporation",
          "network": "BMTC",
          "operator": "BMTC",
          "public_transport": "stop_position"
        }
      },
      {
        "type": "node",
        "id": 7104861391,
        "lat": 12.9638239,
        "lon": 77.5842663,
        "tags": {
          "bus": "yes",
          "name": "Town Hall",
          "name:en": "Town Hall",
          "network": "BMTC",
          "operator": "BMTC",
          "public_transport": "stop_position"
        }
      },
      {
        "type": "node",
        "id": 7104861392,
        "lat": 12.9641556,
        "lon": 77.5775287,
        "tags": {
          "bus": "yes",
          "name": "KR Market",
          "name:en": "KR Market",
          "name:kn": "\u0c95\u0cc3\u0cb7\u0ccd\u0ca3\u0cb0\u0cbe\u0c9c\u0cc7\u0c82\u0ca6\u0ccd\u0cb0 \u0cae\u0cbe\u0cb0\u0cc1\u0c95\u0c9f\u0ccd\u0c9f\u0cc6",
          "network": "BMTC",
          "operator": "BMTC",
          "public_transport": "stop_position"
        }
      },
      {
        "type": "node",
        "id": 7104861404,
        "lat": 12.9998561,
        "lon": 77.5841182,
        "tags": {
          "bus": "yes",
          "name": "RM Guttahalli",
          "name:en": "RM Guttahalli",
          "network": "BMTC",
          "operator": "BMTC",
          "public_transport": "stop_position"
        }
      },
      {
        "type": "node",
        "id": 7104861405,
        "lat": 12.9877439,
        "lon": 77.5804978,
        "tags": {
          "bus": "yes",
          "name": "Shivananda Stores",
          "name:en": "Shivananda Stores",
          "network": "BMTC",
          "operator": "BMTC",
          "public_transport": "stop_position"
        }
      },
      {
        "type": "node",
        "id": 7105069826,
        "lat": 12.9636047,
        "lon": 77.5773314,
        "tags": {
          "bus": "yes",
          "name": "KR Market",
          "name:en": "KR Market",
          "network": "BMTC",
          "operator": "BMTC",
          "public_transport": "stop_position"
        }
      },
      {
        "type": "node",
        "id": 7105069827,
        "lat": 12.9636904,
        "lon": 77.5844796,
        "tags": {
          "bus": "yes",
          "name": "Town Hall",
          "name:en": "Town Hall",
          "name:kn": "\u0cae\u0cb9\u0cbe\u0ca8\u0c97\u0cb0 \u0caa\u0cbe\u0cb2\u0cbf\u0c95\u0cc6",
          "network": "BMTC",
          "operator": "BMTC",
          "public_transport": "stop_position"
        }
      },
      {
        "type": "node",
        "id": 7105069829,
        "lat": 12.9697701,
        "lon": 77.5871314,
        "tags": {
          "bus": "yes",
          "name": "St Marthas Hospital",
          "name:en": "St Marthas Hospital",
          "name:kn": "\u0cb8\u0cc6\u0c82\u0c9f\u0ccd \u0cae\u0cbe\u0cb0\u0ccd\u0ca5 \u0c86\u0cb8\u0ccd\u0caa\u0ca4\u0ccd\u0cb0\u0cc6",
          "network": "BMTC",
          "operator": "BMTC",
          "public_transport": "stop_position"
        }
      },
      {
        "type": "node",
        "id": 7105069831,
        "lat": 12.9802218,
        "lon": 77.5716716,
        "tags": {
          "bus": "yes",
          "name": "Khodays Circle",
          "name:en": "Khodays Circle",
          "name:kn": "\u0c96\u0ccb\u0ca1\u0cc6 \u0cb5\u0cc3\u0ca4\u0ccd\u0ca4",
          "network": "BMTC",
          "operator": "BMTC",
          "public_transport": "stop_position"
        }
      },
      {
        "type": "node",
        "id": 7105069833,
        "lat": 12.9872306,
        "lon": 77.5676565,
        "tags": {
          "bus": "yes",
          "name": "Bashyam Nagara Okalipuram",
          "name:en": "Bashyam Nagara Okalipuram",
          "network": "BMTC",
          "operator": "BMTC",
          "public_transport": "stop_position"
        }
      },
      {
        "type": "node",
        "id": 7105069834,
        "lat": 12.9884306,
        "lon": 77.5665592,
        "tags": {
          "bus": "yes",
          "name": "Aruna Talkies, Gandhi School",
          "name:en": "Aruna Talkies, Gandhi School",
          "network": "BMTC",
          "operator": "BMTC",
          "public_transport": "stop_position"
        }
      },
      {
        "type": "node",
        "id": 7105069835,
        "lat": 12.9905312,
        "lon": 77.5665122,
        "tags": {
          "bus": "yes",
          "name": "7th Main Srirampura",
          "name:en": "7th Main Srirampura",
          "name:kn": "\u0cee\u0ca8\u0cc7 \u0cae\u0cc1\u0c96\u0ccd\u0caf \u0cb0\u0cb8\u0ccd\u0ca4\u0cc6",
          "network": "BMTC",
          "operator": "BMTC",
          "public_transport": "stop_position"
        }
      },
      {
        "type": "node",
        "id": 7105069837,
        "lat": 12.9921958,
        "lon": 77.5664676,
        "tags": {
          "bus": "yes",
          "name": "5th Cross Sriramapura",
          "name:en": "5th Cross Sriramapura",
          "name:kn": "\u0ceb\u0ca8\u0cc7 \u0c85\u0ca1\u0ccd\u0ca1\u0cb0\u0cb8\u0ccd\u0ca4\u0cc6",
          "network": "BMTC",
          "operator": "BMTC",
          "public_transport": "stop_position"
        }
      },
      {
        "type": "node",
        "id": 7105069838,
        "lat": 12.9949125,
        "lon": 77.5663707,
        "tags": {
          "bus": "yes",
          "name": "Chowdeshwari Temple",
          "name:en": "Chowdeshwari Temple",
          "name:kn": "\u0c9a\u0ccc\u0ca1\u0cc7\u0cb6\u0ccd\u0cb5\u0cb0\u0cbf \u0ca6\u0cc7\u0cb5\u0cb8\u0ccd\u0ca5\u0cbe\u0ca8",
          "network": "BMTC",
          "operator": "BMTC",
          "public_transport": "stop_position"
        }
      },
      {
        "type": "node",
        "id": 7106320854,
        "lat": 12.9684272,
        "lon": 77.5896134,
        "tags": {
          "bus": "yes",
          "name": "Corporation Circle (Cubbon Park)",
          "name:en": "Corporation Circle (Cubbon Park)",
          "network": "BMTC",
          "operator": "BMTC",
          "public_transport": "stop_position"
        }
      },
      {
        "type": "node",
        "id": 7106320855,
        "lat": 12.9740699,
        "lon": 77.5957691,
        "tags": {
          "alt_name": "Museum",
          "bus": "yes",
          "name": "Kasturba Road",
          "name:en": "Kasturba Road",
          "name:etymology:wikidata": "Q264908",
          "name:kn": "\u0c95\u0cb8\u0ccd\u0ca4\u0cc2\u0cb0\u0ccd\u0cac\u0cbe \u0cb0\u0cb8\u0ccd\u0ca4\u0cc6",
          "network": "BMTC",
          "operator": "BMTC",
          "public_transport": "stop_position"
        }
      },
      {
        "type": "node",
        "id": 7106320856,
        "lat": 12.9759482,
        "lon": 77.5982272,
        "tags": {
          "bus": "yes",
          "name": "MG Statue",
          "name:en": "MG Statue",
          "network": "BMTC",
          "operator": "BMTC",
          "public_transport": "stop_position"
        }
      },
      {
        "type": "node",
        "id": 7106320858,
        "lat": 12.9839227,
        "lon": 77.5965833,
        "tags": {
          "alt_name": "Balekundri Circle",
          "bus": "yes",
          "name": "Indian Express",
          "name:en": "Indian Express",
          "name:kn": "\u0c87\u0c82\u0ca1\u0cbf\u0caf\u0ca8\u0ccd \u0c8e\u0c95\u0ccd\u0cb8\u0caa\u0ccd\u0cb0\u0cc6\u0cb8\u0ccd",
          "network": "BMTC",
          "network:wikidata": "Q3345039",
          "operator": "BMTC",
          "public_transport": "stop_position"
        }
      },
      {
        "type": "node",
        "id": 7106320860,
        "lat": 12.9876208,
        "lon": 77.594528,
        "tags": {
          "bus": "yes",
          "name": "Cunningham Road",
          "name:en": "Cunningham Road",
          "name:etymology:wikidata": "Q5480658",
          "name:kn": "\u0c95\u0ca8\u0ccd\u0ca8\u0cbf\u0c82\u0c97\u0ccd\u0ca8\u0cae\u0ccd \u0cb0\u0cb8\u0ccd\u0ca4\u0cc6",
          "network": "BMTC",
          "operator": "BMTC",
          "public_transport": "stop_position"
        }
      },
      {
        "type": "node",
        "id": 7106320861,
        "lat": 12.9929231,
        "lon": 77.5951715,
        "tags": {
          "alt_name": "Ambedkar Bhavan",
          "bus": "yes",
          "name": "Vasanth Nagar",
          "name:en": "Vasanth Nagar",
          "name:kn": "\u0cb5\u0cb8\u0c82\u0ca4 \u0ca8\u0c97\u0cb0",
          "network": "BMTC",
          "operator": "BMTC",
          "public_transport": "stop_position"
        }
      },
      {
        "type": "node",
        "id": 7108468328,
        "lat": 12.9933875,
        "lon": 77.5972114,
        "tags": {
          "bus": "yes",
          "name": "Cantonment Railway Station",
          "name:en": "Cantonment Railway Station",
          "name:kn": "\u0c95\u0c82\u0c9f\u0ccb\u0ca8\u0ccd\u0cae\u0cc6\u0c82\u0c9f\u0ccd \u0cb0\u0cc8\u0cb2\u0ccd\u0cb5\u0cc6 \u0ca8\u0cbf\u0cb2\u0ccd\u0ca6\u0cbe\u0ca3",
          "network": "BMTC",
          "operator": "BMTC",
          "public_transport": "stop_position"
        }
      },
      {
        "type": "node",
        "id": 7108477360,
        "lat": 12.9840731,
        "lon": 77.5975329,
        "tags": {
          "alt_name": "Balekundri Circle",
          "bus": "yes",
          "name": "Indian Express",
          "name:en": "Indian Express",
          "name:kn": "\u0c87\u0c82\u0ca1\u0cbf\u0caf\u0ca8\u0ccd \u0c8e\u0c95\u0ccd\u0cb8\u0caa\u0ccd\u0cb0\u0cc6\u0cb8\u0ccd",
          "network": "BMTC",
          "network:wikidata": "Q3345039",
          "operator": "BMTC",
          "public_transport": "stop_position"
        }
      },
      {
        "type": "node",
        "id": 7108562590,
        "lat": 12.985767,
        "lon": 77.5885816,
        "tags": {
          "alt_name": "Sophia School",
          "bus": "yes",
          "loc_name": "Vasantha Nagara",
          "name": "Basava Bhavan",
          "name:en": "Basava Bhavan",
          "name:kn": "\u0cac\u0cb8\u0cb5 \u0cad\u0cb5\u0ca8",
          "network": "BMTC",
          "old_name": "High Grounds Police Station",
          "operator": "BMTC",
          "public_transport": "stop_position"
        }
      },
      {
        "type": "node",
        "id": 7108562605,
        "lat": 12.9841656,
        "lon": 77.597574,
        "tags": {
          "alt_name": "Balekundri Circle",
          "bus": "yes",
          "name": "Indian Express",
          "name:en": "Indian Express",
          "name:kn": "\u0c87\u0c82\u0ca1\u0cbf\u0caf\u0ca8\u0ccd \u0c8e\u0c95\u0ccd\u0cb8\u0caa\u0ccd\u0cb0\u0cc6\u0cb8\u0ccd",
          "network": "BMTC",
          "network:wikidata": "Q3345039",
          "operator": "BMTC",
          "public_transport": "stop_position"
        }
      },
      {
        "type": "node",
        "id": 7108562606,
        "lat": 12.9897683,
        "lon": 77.5993038,
        "tags": {
          "bus": "yes",
          "name": "CSI Hospital",
          "name:en": "CSI Hospital",
          "name:kn": "\u0cb8\u0cbf \u0c8e\u0cb8\u0ccd \u0c90 \u0c86\u0cb8\u0ccd\u0caa\u0ca4\u0ccd\u0cb0\u0cc6",
          "network": "BMTC",
          "operator": "BMTC",
          "public_transport": "stop_position"
        }
      },
      {
        "type": "node",
        "id": 7108562607,
        "lat": 12.99034,
        "lon": 77.5891596,
        "tags": {
          "bus": "yes",
          "name": "Avinash Petrol Bunk",
          "name:en": "Avinash Petrol Bunk",
          "network": "BMTC",
          "operator": "BMTC",
          "public_transport": "stop_position"
        }
      },
      {
        "type": "node",
        "id": 7108562609,
        "lat": 12.9841703,
        "lon": 77.5869736,
        "tags": {
          "bus": "yes",
          "name": "RC College",
          "name:en": "RC College",
          "name:kn": "\u0c86\u0cb0\u0ccd \u0cb8\u0cbf \u0c95\u0cbe\u0cb2\u0cc7\u0c9c\u0cc1",
          "network": "BMTC",
          "operator": "BMTC",
          "public_transport": "stop_position"
        }
      },
      {
        "type": "node",
        "id": 7108562610,
        "lat": 12.9872126,
        "lon": 77.5788305,
        "tags": {
          "bus": "yes",
          "name": "Shivananda Stores",
          "name:en": "Shivananda Stores",
          "network": "BMTC",
          "operator": "BMTC",
          "public_transport": "stop_position"
        }
      },
      {
        "type": "node",
        "id": 7108562611,
        "lat": 12.9889359,
        "lon": 77.574743,
        "tags": {
          "bus": "yes",
          "name": "Swastik Sheshadripuram College",
          "name:en": "Swastik Sheshadripuram College",
          "name:kn": "\u0cb8\u0ccd\u0cb5\u0cb8\u0ccd\u0ca4\u0cbf\u0c95",
          "network": "BMTC",
          "operator": "BMTC",
          "public_transport": "stop_position"
        }
      },
      {
        "type": "node",
        "id": 7108562612,
        "lat": 12.9941083,
        "lon": 77.5738961,
        "tags": {
          "bus": "yes",
          "name": "Link Road",
          "name:en": "Link Road",
          "network": "BMTC",
          "operator": "BMTC",
          "public_transport": "stop_position"
        }
      },
      {
        "type": "node",
        "id": 7131511276,
        "lat": 12.9639618,
        "lon": 77.5789324,
        "tags": {
          "bus": "yes",
          "name": "KR Market",
          "name:en": "KR Market",
          "name:kn": "\u0c95\u0cc3\u0cb7\u0ccd\u0ca3\u0cb0\u0cbe\u0c9c\u0cc7\u0c82\u0ca6\u0ccd\u0cb0 \u0cae\u0cbe\u0cb0\u0cc1\u0c95\u0c9f\u0ccd\u0c9f\u0cc6",
          "network": "BMTC",
          "operator": "BMTC",
          "public_transport": "stop_position"
        }
      },
      {
        "type": "node",
        "id": 7132418219,
        "lat": 12.9647441,
        "lon": 77.587909,
        "tags": {
          "bus": "yes",
          "name": "Corporation, Mission Road (Towards Subbiah Circle)",
          "name:en": "Corporation, Mission Road (Towards Subbiah Circle)",
          "network": "BMTC",
          "operator": "BMTC",
          "public_transport": "stop_position"
        }
      },
      {
        "type": "node",
        "id": 7132452573,
        "lat": 12.9777168,
        "lon": 77.6020138,
        "tags": {
          "alt_name": "MG Road",
          "bus": "yes",
          "name": "Anil Kumble Circle",
          "name:en": "Anil Kumble Circle",
          "name:kn": "\u0c85\u0ca8\u0cbf\u0cb2\u0ccd \u0c95\u0cc1\u0c82\u0cac\u0ccd\u0cb3\u0cc6 \u0cb5\u0cc3\u0ca4\u0ccd\u0ca4",
          "network": "BMTC",
          "operator": "BMTC",
          "public_transport": "stop_position"
        }
      },
      {
        "type": "node",
        "id": 7132495617,
        "lat": 13.0040058,
        "lon": 77.593684,
        "tags": {
          "alt_name": "Munireddy Palya J C Nagara",
          "bus": "yes",
          "name": "JC Nagara",
          "name:en": "JC Nagara",
          "name:kn": "\u0c9c\u0cc6\u0cb8\u0cbf \u0ca8\u0c97\u0cb0",
          "network": "BMTC",
          "operator": "BMTC",
          "public_transport": "stop_position"
        }
      },
      {
        "type": "node",
        "id": 7132495618,
        "lat": 13.0009928,
        "lon": 77.5945475,
        "tags": {
          "bus": "yes",
          "name": "Jayamahal",
          "name:en": "Jayamahal",
          "name:kn": "\u0c9c\u0caf\u0cae\u0cb9\u0cb2\u0ccd",
          "network": "BMTC",
          "operator": "BMTC",
          "public_transport": "stop_position"
        }
      },
      {
        "type": "node",
        "id": 7136947081,
        "lat": 12.96737,
        "lon": 77.5993941,
        "tags": {
          "bus": "yes",
          "name": "Richmond Circle",
          "name:en": "Richmond Circle",
          "name:kn": "\u0cb0\u0cbf\u0c9a\u0ccd\u0cae\u0c82\u0ca1\u0ccd \u0cb5\u0cc3\u0ca4\u0ccd\u0ca4",
          "network": "BMTC",
          "operator": "BMTC",
          "public_transport": "stop_position"
        }
      },
      {
        "type": "node",
        "id": 7140563287,
        "lat": 12.9951057,
        "lon": 77.5925255,
        "tags": {
          "bus": "yes",
          "name": "Ganesha Temple Vasanthanagara",
          "name:en": "Ganesha Temple Vasanthanagara",
          "name:kn": "\u0c97\u0ca3\u0cc7\u0cb6 \u0ca6\u0cc7\u0cb5\u0cb8\u0ccd\u0ca5\u0cbe\u0ca8 \u0cb5\u0cb8\u0c82\u0ca4\u0ca8\u0c97\u0cb0",
          "network": "BMTC",
          "operator": "BMTC",
          "public_transport": "stop_position"
        }
      },
      {
        "type": "node",
        "id": 7140563288,
        "lat": 12.9929279,
        "lon": 77.5887916,
        "tags": {
          "bus": "yes",
          "name": "Mount Carmel College",
          "name:en": "Mount Carmel College",
          "name:kn": "\u0cae\u0ccc\u0c82\u0c9f\u0ccd \u0c95\u0cbe\u0cb0\u0ccd\u0cae\u0cc6\u0cb2\u0ccd \u0c95\u0cbe\u0cb2\u0cc7\u0c9c\u0cc1",
          "network": "BMTC",
          "operator": "BMTC",
          "public_transport": "stop_position"
        }
      },
      {
        "type": "node",
        "id": 7140563289,
        "lat": 12.9890619,
        "lon": 77.5887371,
        "tags": {
          "bus": "yes",
          "name": "High Grounds Police Station",
          "name:en": "High Ground Police Station",
          "name:kn": "\u0cb9\u0cc8\u0c97\u0ccd\u0cb0\u0ccc\u0c82\u0ca1\u0ccd\u0cb8\u0ccd \u0caa\u0cca\u0cb2\u0cc0\u0cb8\u0ccd \u0ca0\u0cbe\u0ca3\u0cc6",
          "network": "BMTC",
          "operator": "BMTC",
          "public_transport": "stop_position"
        }
      },
      {
        "type": "node",
        "id": 7140563293,
        "lat": 12.9790169,
        "lon": 77.5849485,
        "tags": {
          "bus": "yes",
          "name": "Maharani's College",
          "name:en": "Maharanis College",
          "name:kn": "\u0cae\u0cb9\u0cbe\u0cb0\u0cbe\u0ca3\u0cbf \u0c95\u0cbe\u0cb2\u0cc7\u0c9c\u0cc1",
          "network": "BMTC",
          "operator": "BMTC",
          "public_transport": "stop_position"
        }
      },
      {
        "type": "node",
        "id": 7140563295,
        "lat": 12.9827236,
        "lon": 77.5871529,
        "tags": {
          "bus": "yes",
          "name": "Telephone Exchange AGO, Vasantha Nagara",
          "name:en": "Telephone Exchange AGO, Vasantha Nagara",
          "network": "BMTC",
          "operator": "BMTC",
          "public_transport": "stop_position"
        }
      },
      {
        "type": "node",
        "id": 7140581378,
        "lat": 12.9756728,
        "lon": 77.5866293,
        "tags": {
          "bus": "yes",
          "name": "KR Circle",
          "name:en": "Krishnarajendra Circle",
          "name:kn": "\u0c95\u0cc3\u0cb7\u0ccd\u0ca3\u0cb0\u0cbe\u0c9c\u0cc7\u0c82\u0ca6\u0ccd\u0cb0 \u0cb5\u0cc3\u0ca4\u0ccd\u0ca4",
          "network": "BMTC",
          "operator": "BMTC",
          "public_transport": "stop_position"
        }
      },
      {
        "type": "node",
        "id": 7140581382,
        "lat": 12.9802235,
        "lon": 77.5930116,
        "tags": {
          "alt_name": "Karnataka High Court",
          "bus": "yes",
          "name": "Vidhana Soudha",
          "name:en": "Vidhana Soudha",
          "name:kn": "\u0cb5\u0cbf\u0ca7\u0cbe\u0ca8 \u0cb8\u0ccc\u0ca7",
          "network": "BMTC",
          "operator": "BMTC",
          "public_transport": "stop_position"
        }
      },
      {
        "type": "node",
        "id": 7141291016,
        "lat": 13.0007836,
        "lon": 77.5995619,
        "tags": {
          "alt_name": "YMCA Nandidurga Road",
          "bus": "yes",
          "name": "Nandidurga Road",
          "name:en": "Nandidurga Road",
          "name:kn": "\u0ca8\u0c82\u0ca6\u0cbf\u0ca6\u0cc1\u0cb0\u0ccd\u0c97 \u0cb0\u0cb8\u0ccd\u0ca4\u0cc6",
          "network": "BMTC",
          "operator": "BMTC",
          "public_transport": "stop_position"
        }
      },
      {
        "type": "node",
        "id": 7141291017,
        "lat": 12.9956014,
        "lon": 77.6013756,
        "tags": {
          "bus": "yes",
          "name": "Canara Bank Millers Road",
          "name:en": "Canara Bank Millers Road",
          "network": "BMTC",
          "operator": "BMTC",
          "public_transport": "stop_position"
        }
      },
      {
        "type": "node",
        "id": 7142097522,
        "lat": 12.9734934,
        "lon": 77.5814153,
        "tags": {
          "bus": "yes",
          "name": "Cauvery Bhavana",
          "name:en": "Cauvery Bhavana",
          "name:kn": "\u0cae\u0cc8\u0cb8\u0cc2\u0cb0\u0cc1 \u0cac\u0ccd\u0caf\u0cbe\u0c82\u0c95\u0ccd",
          "network": "BMTC",
          "operator": "BMTC",
          "public_transport": "stop_position"
        }
      },
      {
        "type": "node",
        "id": 7142097524,
        "lat": 12.9768247,
        "lon": 77.5858877,
        "tags": {
          "bus": "yes",
          "name": "Maharani College, KR Circle",
          "name:en": "Maharani College, KR Circle",
          "network": "BMTC",
          "operator": "BMTC",
          "public_transport": "stop_position"
        }
      },
      {
        "type": "node",
        "id": 7142097526,
        "lat": 12.977223,
        "lon": 77.5899909,
        "tags": {
          "bus": "yes",
          "name": "Vidhana Soudha",
          "name:en": "Vidhana Soudha",
          "name:kn": "\u0cb5\u0cbf\u0ca7\u0cbe\u0ca8 \u0cb8\u0ccc\u0ca7",
          "network": "BMTC",
          "operator": "BMTC",
          "public_transport": "stop_position"
        }
      },
      {
        "type": "node",
        "id": 7142097527,
        "lat": 12.9835542,
        "lon": 77.5963121,
        "tags": {
          "bus": "yes",
          "local_ref": "BALEKUNDRI CIRCLE",
          "name": "Indian Express",
          "name:en": "Indian Express",
          "name:kn": "\u0cb5\u0cb8\u0c82\u0ca4 \u0ca8\u0c97\u0cb0",
          "network": "BMTC",
          "operator": "BMTC",
          "public_transport": "stop_position"
        }
      },
      {
        "type": "node",
        "id": 7142097529,
        "lat": 12.9918487,
        "lon": 77.6019141,
        "tags": {
          "bus": "yes",
          "name": "Bamboo Bazar",
          "name:en": "Bamboo Bazar",
          "name:kn": "\u0cac\u0c82\u0cac\u0cc2 \u0cac\u0c9c\u0cbe\u0cb0\u0ccd",
          "network": "BMTC",
          "operator": "BMTC",
          "public_transport": "stop_position"
        }
      },
      {
        "type": "node",
        "id": 7156865437,
        "lat": 12.9914325,
        "lon": 77.5639827,
        "tags": {
          "bus": "yes",
          "name": "Bandi Reddy Circle",
          "name:en": "Bandi Reddy Circle",
          "name:kn": "\u0cac\u0c82\u0ca1\u0cbf\u0cb0\u0cc6\u0ca1\u0ccd\u0ca1\u0cbf \u0cb5\u0cc3\u0ca4\u0ccd\u0ca4",
          "network": "BMTC",
          "operator": "BMTC",
          "public_transport": "stop_position"
        }
      },
      {
        "type": "node",
        "id": 7156865438,
        "lat": 12.9947434,
        "lon": 77.5663773,
        "tags": {
          "bus": "yes",
          "name": "Chowdeshwari Temple",
          "name:en": "Chowdeshwari Temple",
          "name:kn": "\u0c9a\u0ccc\u0ca1\u0cc7\u0cb6\u0ccd\u0cb5\u0cb0\u0cbf \u0ca6\u0cc7\u0cb5\u0cb8\u0ccd\u0ca5\u0cbe\u0ca8",
          "network": "BMTC",
          "operator": "BMTC",
          "public_transport": "stop_position"
        }
      },
      {
        "type": "node",
        "id": 7156865440,
        "lat": 12.9935055,
        "lon": 77.5682527,
        "tags": {
          "bus": "yes",
          "name": "Ramamandira",
          "name:en": "Ramamandira",
          "name:kn": "\u0cb0\u0cbe\u0cae\u0cae\u0c82\u0ca6\u0cbf\u0cb0",
          "network": "BMTC",
          "operator": "BMTC",
          "public_transport": "stop_position"
        }
      },
      {
        "type": "node",
        "id": 7156865441,
        "lat": 12.9932748,
        "lon": 77.569703,
        "tags": {
          "bus": "yes",
          "name": "MD Block",
          "name:en": "MD Block",
          "network": "BMTC",
          "operator": "BMTC",
          "public_transport": "stop_position"
        }
      },
      {
        "type": "node",
        "id": 7156865442,
        "lat": 12.9840467,
        "lon": 77.5868815,
        "tags": {
          "bus": "yes",
          "name": "RC College",
          "name:en": "RC College",
          "name:kn": "\u0cb0\u0cbe\u0cae\u0ca8\u0cbe\u0cb0\u0caf\u0ca3 \u0c9a\u0cc6\u0cb2\u0ccd\u0cb2\u0cb0\u0cbe\u0cae\u0ccd \u0c95\u0cbe\u0cb2\u0cc7\u0c9c\u0cc1",
          "network": "BMTC",
          "operator": "BMTC",
          "public_transport": "stop_position"
        }
      },
      {
        "type": "node",
        "id": 7156865444,
        "lat": 12.9817965,
        "lon": 77.5949609,
        "tags": {
          "bus": "yes",
          "name": "GPO",
          "name:en": "GPO",
          "network": "BMTC",
          "operator": "BMTC",
          "public_transport": "stop_position"
        }
      },
      {
        "type": "node",
        "id": 7156865446,
        "lat": 12.9830369,
        "lon": 77.5922081,
        "tags": {
          "bus": "yes",
          "name": "Raj Bhavan",
          "name:en": "Raj Bhavan",
          "name:kn": "\u0cb0\u0cbe\u0c9c \u0cad\u0cb5\u0ca8",
          "network": "BMTC",
          "operator": "BMTC",
          "public_transport": "stop_position"
        }
      },
      {
        "type": "node",
        "id": 7156971594,
        "lat": 12.994438,
        "lon": 77.5780216,
        "tags": {
          "bus": "yes",
          "name": "RMS Sheshadripuram",
          "name:en": "RMS Sheshadripuram",
          "network": "BMTC",
          "operator": "BMTC",
          "public_transport": "stop_position"
        }
      },
      {
        "type": "node",
        "id": 7156971595,
        "lat": 12.9984759,
        "lon": 77.5820504,
        "tags": {
          "bus": "yes",
          "name": "RM Guttahalli",
          "name:en": "RM Guttahalli",
          "network": "BMTC",
          "operator": "BMTC",
          "public_transport": "stop_position"
        }
      },
      {
        "type": "node",
        "id": 7156971597,
        "lat": 12.9952241,
        "lon": 77.5920953,
        "tags": {
          "bus": "yes",
          "name": "Ganesha Temple Vasanthanagara",
          "name:en": "Ganesha Temple Vasanthanagara",
          "name:kn": "\u0c97\u0ca3\u0cc7\u0cb6 \u0ca6\u0cc7\u0cb5\u0cb8\u0ccd\u0ca5\u0cbe\u0ca8 \u0cb5\u0cb8\u0c82\u0ca4\u0ca8\u0c97\u0cb0",
          "network": "BMTC",
          "operator": "BMTC",
          "public_transport": "stop_position"
        }
      },
      {
        "type": "node",
        "id": 7157889189,
        "lat": 12.9746794,
        "lon": 77.6014488,
        "tags": {
          "alt_name": "Bowring Institute",
          "bus": "yes",
          "name": "State Bank India Garage",
          "name:en": "State Bank India Garage",
          "network": "BMTC",
          "official_name": "Bowring Institute",
          "operator": "BMTC",
          "public_transport": "stop_position"
        }
      },
      {
        "type": "node",
        "id": 7236205634,
        "lat": 12.9826229,
        "lon": 77.5624563,
        "tags": {
          "bus": "yes",
          "name": "Sujatha Talkies",
          "name:en": "Sujatha Talkies",
          "name:kn": "\u0cb8\u0cc1\u0c9c\u0cbe\u0ca4 \u0c9a\u0cbf\u0ca4\u0ccd\u0cb0\u0cae\u0c82\u0ca6\u0cbf\u0cb0",
          "network": "BMTC",
          "operator": "BMTC",
          "public_transport": "stop_position"
        }
      },
      {
        "type": "node",
        "id": 7276500272,
        "lat": 12.9862919,
        "lon": 77.5724177,
        "tags": {
          "amenity": "fuel",
          "name": "Aegis Auto Gas"
        }
      },
      {
        "type": "node",
        "id": 7292218766,
        "lat": 12.9824553,
        "lon": 77.5678893,
        "tags": {
          "bus": "yes",
          "name": "Okalipura",
          "name:en": "Okalipura",
          "name:kn": "\u0c93\u0c95\u0cb3\u0cbf\u0caa\u0cc1\u0cb0",
          "network": "BMTC",
          "operator": "BMTC",
          "public_transport": "stop_position"
        }
      },
      {
        "type": "node",
        "id": 7292436123,
        "lat": 12.9681954,
        "lon": 77.5873387,
        "tags": {
          "bus": "yes",
          "name": "Corporation",
          "name:en": "Corporation",
          "name:kn": "\u0c95\u0cbe\u0cb0\u0ccd\u0caa\u0ccb\u0cb0\u0cc7\u0cb6\u0ca8\u0ccd",
          "network": "BMTC",
          "operator": "BMTC",
          "public_transport": "stop_position"
        }
      },
      {
        "type": "node",
        "id": 9140200257,
        "lat": 12.9756053,
        "lon": 77.5866527,
        "tags": {
          "bus": "yes",
          "name": "KR Circle",
          "name:en": "Krishnarajendra Circle",
          "name:kn": "\u0c95\u0cc3\u0cb7\u0ccd\u0ca3\u0cb0\u0cbe\u0c9c\u0cc7\u0c82\u0ca6\u0ccd\u0cb0 \u0cb5\u0cc3\u0ca4\u0ccd\u0ca4",
          "network": "BMTC",
          "operator": "BMTC",
          "public_transport": "stop_position"
        }
      },
      {
        "type": "node",
        "id": 9141920977,
        "lat": 12.9969081,
        "lon": 77.5688175,
        "tags": {
          "bus": "yes",
          "name": "Malleshwaram Circle",
          "name:en": "Malleshwaram Circle",
          "name:kn": "\u0cae\u0cb2\u0ccd\u0cb2\u0cc7\u0cb6\u0ccd\u0cb5\u0cb0\u0c82 \u0cb5\u0cc3\u0ca4\u0ccd\u0ca4",
          "network": "BMTC",
          "operator": "BMTC",
          "public_transport": "stop_position"
        }
      },
      {
        "type": "node",
        "id": 9573432790,
        "lat": 12.991472,
        "lon": 77.5970008,
        "tags": {
          "amenity": "theatre",
          "name": "Sri Chiranjiv Singh Auditorium"
        }
      },
      {
        "type": "node",
        "id": 9779677437,
        "lat": 12.9928258,
        "lon": 77.5878243,
        "tags": {
          "amenity": "theatre",
          "name": "Amphitheatre"
        }
      },
      {
        "type": "node",
        "id": 9779677464,
        "lat": 12.9932192,
        "lon": 77.5882796,
        "tags": {
          "amenity": "theatre",
          "name": "Diamond Jubilee Auditorium"
        }
      },
      {
        "type": "node",
        "id": 9786116679,
        "lat": 12.9974283,
        "lon": 77.5694375,
        "tags": {
          "bus": "yes",
          "name": "Malleshwaram Circle",
          "name:en": "Malleshwaram Circle",
          "name:kn": "\u0cae\u0cb2\u0ccd\u0cb2\u0cc7\u0cb6\u0ccd\u0cb5\u0cb0\u0c82 \u0cb5\u0cc3\u0ca4\u0ccd\u0ca4",
          "network": "BMTC",
          "operator": "BMTC",
          "public_transport": "stop_position"
        }
      },
      {
        "type": "node",
        "id": 9910012978,
        "lat": 12.9933017,
        "lon": 77.570107,
        "tags": {
          "bus": "yes",
          "name": "MD Block",
          "name:en": "MD Block",
          "network": "BMTC",
          "operator": "BMTC",
          "public_transport": "stop_position"
        }
      },
      {
        "type": "node",
        "id": 10006930129,
        "lat": 12.977526,
        "lon": 77.5708147,
        "tags": {
          "bus": "yes",
          "name": "Railway Station, Majestic",
          "name:en": "Railway Station, Majestic",
          "network": "BMTC",
          "operator": "BMTC",
          "public_transport": "stop_position"
        }
      },
      {
        "type": "node",
        "id": 10036152486,
        "lat": 12.9743529,
        "lon": 77.5818701,
        "tags": {
          "alt_name": "Mysore Bank",
          "bus": "yes",
          "name": "Cauvery Bhavana",
          "name:en": "Cauvery Bhavana",
          "name:kn": "\u0c95\u0cbe\u0cb5\u0cc7\u0cb0\u0cbf \u0cad\u0cb5\u0ca8",
          "network": "BMTC",
          "operator": "BMTC",
          "public_transport": "stop_position"
        }
      },
      {
        "type": "node",
        "id": 10295411732,
        "lat": 12.9766871,
        "lon": 77.6000287,
        "tags": {
          "bus": "yes",
          "name": "MG Statue",
          "name:en": "MG Statue",
          "network": "BMTC",
          "operator": "BMTC",
          "public_transport": "stop_position"
        }
      },
      {
        "type": "node",
        "id": 10570929389,
        "lat": 12.9816867,
        "lon": 77.5632835,
        "tags": {
          "amenity": "cinema",
          "brand": "Cin\u00e9polis",
          "brand:wikidata": "Q5686673",
          "name": "Cinepolis",
          "screen": "11"
        }
      },
      {
        "type": "node",
        "id": 10753340368,
        "lat": 12.974437,
        "lon": 77.596864,
        "tags": {
          "amenity": "theatre",
          "level": "1",
          "name": "Mazumdar Shaw Auditorium"
        }
      },
      {
        "type": "node",
        "id": 10761493346,
        "lat": 12.9841726,
        "lon": 77.5988975,
        "tags": {
          "bus": "yes",
          "network": "BMTC",
          "operator": "BMTC",
          "public_transport": "stop_position"
        }
      },
      {
        "type": "node",
        "id": 10833947202,
        "lat": 12.9896124,
        "lon": 77.5718868,
        "tags": {
          "bus": "yes",
          "name": "Central",
          "name:en": "Central",
          "network": "BMTC",
          "operator": "BMTC",
          "public_transport": "stop_position"
        }
      },
      {
        "type": "node",
        "id": 10833947203,
        "lat": 12.9898645,
        "lon": 77.5718467,
        "tags": {
          "bus": "yes",
          "name": "Central",
          "name:en": "Central",
          "network": "BMTC",
          "operator": "BMTC",
          "public_transport": "stop_position"
        }
      },
      {
        "type": "node",
        "id": 10934276527,
        "lat": 13.0004968,
        "lon": 77.5782583,
        "tags": {
          "bus": "yes",
          "name": "Vyalikaval Police Station",
          "name:en": "Vyalikaval Police Station",
          "name:kn": "\u0cb5\u0caf\u0cbe\u0cb2\u0cbf\u0c95\u0cbe\u0cb5\u0cb2\u0ccd \u0c86\u0cb0\u0c95\u0ccd\u0cb7\u0c95 \u0ca0\u0cbe\u0ca3\u0cc6",
          "network": "BMTC",
          "note": "6\u20195 Th Main Road",
          "operator": "BMTC",
          "public_transport": "stop_position"
        }
      },
      {
        "type": "node",
        "id": 10934276535,
        "lat": 12.9989278,
        "lon": 77.5743023,
        "tags": {
          "bus": "yes",
          "name": "Dattatreya Temple",
          "name:en": "Dattatreya Temple",
          "name:kn": "\u0ca6\u0ca4\u0ccd\u0ca4\u0cbe\u0ca4\u0ccd\u0cb0\u0cc7\u0caf \u0ca6\u0cc7\u0cb5\u0cb8\u0ccd\u0ca5\u0cbe\u0ca8",
          "network": "BMTC",
          "operator": "BMTC",
          "public_transport": "stop_position"
        }
      },
      {
        "type": "node",
        "id": 11096782369,
        "lat": 12.9989482,
        "lon": 77.5749528,
        "tags": {
          "bus": "yes",
          "name": "Dattatreya Temple",
          "name:en": "Dattatreya Temple",
          "name:kn": "\u0ca6\u0ca4\u0ccd\u0ca4\u0cbe\u0ca4\u0ccd\u0cb0\u0cc7\u0caf \u0ca6\u0cc7\u0cb5\u0cb8\u0ccd\u0ca5\u0cbe\u0ca8",
          "network": "BMTC",
          "operator": "BMTC",
          "public_transport": "stop_position"
        }
      },
      {
        "type": "node",
        "id": 11097276362,
        "lat": 12.9844362,
        "lon": 77.5927702,
        "tags": {
          "bus": "yes",
          "name": "Ali Asker Road",
          "name:en": "Ali Asker Road",
          "name:kn": "\u0c85\u0cb2\u0cbf \u0c85\u0cb8\u0ccd\u0c95\u0cb0\u0ccd \u0cb0\u0cb8\u0ccd\u0ca4\u0cc6",
          "network": "BMTC",
          "operator": "BMTC",
          "public_transport": "stop_position"
        }
      },
      {
        "type": "node",
        "id": 11097276364,
        "lat": 12.9868849,
        "lon": 77.5906987,
        "tags": {
          "bus": "yes",
          "name": "St. Anne's College",
          "name:en": "St. Anne's College",
          "name:kn": "\u0cb8\u0cc7\u0c82\u0c9f\u0ccd \u0c86\u0ca8\u0ccd\u0cb8\u0ccd \u0c95\u0cbe\u0cb2\u0cc7\u0c9c\u0cc1",
          "network": "BMTC",
          "operator": "BMTC",
          "public_transport": "stop_position"
        }
      },
      {
        "type": "node",
        "id": 11097276366,
        "lat": 12.9894313,
        "lon": 77.5926836,
        "tags": {
          "alt_name": "High Grounds Police Station",
          "bus": "yes",
          "name": "Kalpana Circle",
          "name:en": "Kalpana Circle",
          "name:kn": "\u0c95\u0cb2\u0ccd\u0caa\u0ca8\u0cbe \u0cb5\u0cc3\u0ca4\u0ccd\u0ca4",
          "network": "BMTC",
          "operator": "BMTC",
          "public_transport": "stop_position"
        }
      },
      {
        "type": "node",
        "id": 11097276368,
        "lat": 12.9928206,
        "lon": 77.5887587,
        "tags": {
          "bus": "yes",
          "name": "Mount Carmel College",
          "name:en": "Mount Carmel College",
          "name:kn": "\u0cae\u0ccc\u0c82\u0c9f\u0ccd \u0c95\u0cbe\u0cb0\u0ccd\u0cae\u0cc6\u0cb2\u0ccd \u0c95\u0cbe\u0cb2\u0cc7\u0c9c\u0cc1",
          "network": "BMTC",
          "operator": "BMTC",
          "public_transport": "stop_position"
        }
      },
      {
        "type": "node",
        "id": 11097276370,
        "lat": 12.9895425,
        "lon": 77.5929386,
        "tags": {
          "bus": "yes",
          "name": "Chandrika Hotel",
          "name:en": "Chandrika Hotel",
          "network": "BMTC",
          "operator": "BMTC",
          "public_transport": "stop_position"
        }
      },
      {
        "type": "node",
        "id": 11097276372,
        "lat": 12.9807351,
        "lon": 77.598434,
        "tags": {
          "bus": "yes",
          "name": "Cubbon Park Metro Station",
          "name:en": "Cubbon Park",
          "name:kn": "\u0c95\u0cac\u0ccd\u0cac\u0ca8\u0ccd \u0caa\u0cbe\u0cb0\u0ccd\u0c95\u0ccd",
          "network": "BMTC",
          "operator": "BMTC",
          "public_transport": "stop_position"
        }
      },
      {
        "type": "node",
        "id": 11214889013,
        "lat": 12.9805484,
        "lon": 77.5978893,
        "tags": {
          "amenity": "charging_station",
          "charging_station:battery_swapping": "yes",
          "name": "Pulse"
        }
      },
      {
        "type": "node",
        "id": 11297781805,
        "lat": 12.9710109,
        "lon": 77.597788,
        "tags": {
          "amenity": "charging_station",
          "brand": "Hero Vida"
        }
      },
      {
        "type": "node",
        "id": 11341218806,
        "lat": 12.9745975,
        "lon": 77.5660497,
        "tags": {
          "bus": "yes",
          "name": "Angalaparameshwari Temple",
          "name:en": "Angalaparameshwari Temple",
          "name:kn": "\u0c85\u0c82\u0c97\u0cbe\u0cb2\u0caa\u0cb0\u0cae\u0cc7\u0cb6\u0ccd\u0cb5\u0cb0\u0cbf",
          "network": "BMTC",
          "operator": "BMTC",
          "public_transport": "stop_position"
        }
      },
      {
        "type": "node",
        "id": 11341218849,
        "lat": 12.9752846,
        "lon": 77.5651817,
        "tags": {
          "bus": "yes",
          "name": "Hunasemara",
          "name:en": "Hunasemara",
          "name:kn": "\u0cb9\u0cc1\u0ca3\u0cb8\u0cc6\u0cae\u0cb0",
          "network": "BMTC",
          "operator": "BMTC",
          "public_transport": "stop_position"
        }
      },
      {
        "type": "node",
        "id": 11408768738,
        "lat": 12.9736666,
        "lon": 77.5830855,
        "tags": {
          "amenity": "charging_station",
          "charging_station:battery_swapping": "yes"
        }
      },
      {
        "type": "node",
        "id": 11696866840,
        "lat": 12.9791186,
        "lon": 77.5851012,
        "tags": {
          "bus": "yes",
          "name": "Maharani's College",
          "name:en": "Maharani's College",
          "name:kn": "\u0cae\u0cb9\u0cbe\u0cb0\u0cbe\u0ca3\u0cbf \u0c95\u0cbe\u0cb2\u0cc7\u0c9c\u0cc1",
          "network": "BMTC",
          "operator": "BMTC",
          "public_transport": "stop_position"
        }
      },
      {
        "type": "node",
        "id": 11869483352,
        "lat": 13.0018764,
        "lon": 77.5944004,
        "tags": {
          "bus": "yes",
          "name": "Jayamahal",
          "name:en": "Jayamahal",
          "network": "BMTC",
          "operator": "BMTC",
          "public_transport": "stop_position"
        }
      },
      {
        "type": "node",
        "id": 11873345642,
        "lat": 12.9998283,
        "lon": 77.571342,
        "tags": {
          "bus": "yes",
          "name": "Malleshwaram 8th Cross",
          "name:en": "Malleshwaram 8th Cross",
          "network": "BMTC",
          "operator": "BMTC",
          "public_transport": "stop_position"
        }
      },
      {
        "type": "node",
        "id": 11890400011,
        "lat": 12.9775345,
        "lon": 77.5848731,
        "tags": {
          "bus": "yes",
          "name": "Maharani College",
          "name:en": "Maharani College",
          "name:kn": "\u0cae\u0cb9\u0cbe\u0cb0\u0cbe\u0ca3\u0cbf \u0c95\u0cbe\u0cb2\u0cc7\u0c9c\u0cc1",
          "network": "BMTC",
          "operator": "BMTC",
          "public_transport": "stop_position"
        }
      },
      {
        "type": "node",
        "id": 11898958081,
        "lat": 12.9969658,
        "lon": 77.5715223,
        "tags": {
          "bus": "yes",
          "name": "Malleswaram Circle",
          "name:en": "Malleswaram Circle",
          "network": "BMTC",
          "note": "Stop used only for Metro Feeder bus route MF-8A",
          "operator": "BMTC",
          "public_transport": "stop_position"
        }
      },
      {
        "type": "node",
        "id": 11993402960,
        "lat": 12.9998962,
        "lon": 77.5693762,
        "tags": {
          "bus": "yes",
          "name": "Malleshwaram 8th Cross",
          "name:en": "Malleshwaram 8th Cross",
          "network": "BMTC",
          "operator": "BMTC",
          "public_transport": "stop_position"
        }
      },
      {
        "type": "node",
        "id": 12002046035,
        "lat": 12.977855,
        "lon": 77.5812757,
        "tags": {
          "amenity": "charging_station",
          "fee": "yes",
          "motorcar": "yes",
          "motorcycle": "yes"
        }
      },
      {
        "type": "node",
        "id": 12006306827,
        "lat": 12.9994892,
        "lon": 77.5842618,
        "tags": {
          "bus": "yes",
          "name": "Palace Guttahalli",
          "name:en": "Palace Guttahalli",
          "network": "BMTC",
          "operator": "BMTC",
          "public_transport": "stop_position"
        }
      },
      {
        "type": "node",
        "id": 12009455446,
        "lat": 12.9897084,
        "lon": 77.5727323,
        "tags": {
          "bus": "yes",
          "name": "Central",
          "name:en": "Central",
          "network": "BMTC",
          "operator": "BMTC",
          "public_transport": "stop_position"
        }
      },
      {
        "type": "node",
        "id": 12078138004,
        "lat": 12.9810756,
        "lon": 77.5966804,
        "tags": {
          "amenity": "charging_station"
        }
      },
      {
        "type": "node",
        "id": 12135983669,
        "lat": 12.9622079,
        "lon": 77.5842821,
        "tags": {
          "amenity": "theatre",
          "name": "ADA Ranga Mandira"
        }
      },
      {
        "type": "node",
        "id": 12425345228,
        "lat": 12.9977329,
        "lon": 77.5714364,
        "tags": {
          "bus": "yes",
          "name": "Malleswaram Circle",
          "name:kn": "\u0cae\u0cb2\u0ccd\u0cb2\u0cc7\u0cb6\u0ccd\u0cb5\u0cb0\u0c82 \u0cb5\u0cc3\u0ca4\u0ccd\u0ca4",
          "operator": "BMTC",
          "public_transport": "stop_position"
        }
      },
      {
        "type": "node",
        "id": 12479801113,
        "lat": 12.9786,
        "lon": 77.5721999,
        "tags": {
          "bus": "yes",
          "name": "Platform 20B",
          "operator": "BMTC",
          "public_transport": "stop_position"
        }
      },
      {
        "type": "node",
        "id": 12479801114,
        "lat": 12.9785778,
        "lon": 77.5720175,
        "tags": {
          "bus": "yes",
          "name": "Platform 20A",
          "operator": "BMTC",
          "public_transport": "stop_position"
        }
      },
      {
        "type": "node",
        "id": 12479801115,
        "lat": 12.9785118,
        "lon": 77.5718715,
        "tags": {
          "bus": "yes",
          "name": "Platform 20",
          "operator": "BMTC",
          "public_transport": "stop_position"
        }
      },
      {
        "type": "node",
        "id": 12479801117,
        "lat": 12.9783014,
        "lon": 77.5715901,
        "tags": {
          "bus": "yes",
          "name": "Platform 19B",
          "operator": "BMTC",
          "public_transport": "stop_position"
        }
      },
      {
        "type": "node",
        "id": 12479801118,
        "lat": 12.978148,
        "lon": 77.5714678,
        "tags": {
          "bus": "yes",
          "name": "Platform 19A",
          "operator": "BMTC",
          "public_transport": "stop_position"
        }
      },
      {
        "type": "node",
        "id": 12479801119,
        "lat": 12.978004,
        "lon": 77.5713937,
        "tags": {
          "bus": "yes",
          "name": "Platform 19",
          "operator": "BMTC",
          "public_transport": "stop_position"
        }
      },
      {
        "type": "node",
        "id": 12479801171,
        "lat": 12.9778982,
        "lon": 77.5716,
        "tags": {
          "bus": "yes",
          "name": "Platform 18A",
          "operator": "BMTC",
          "public_transport": "stop_position"
        }
      },
      {
        "type": "node",
        "id": 12479801172,
        "lat": 12.9780256,
        "lon": 77.5716466,
        "tags": {
          "bus": "yes",
          "name": "Platform 18",
          "operator": "BMTC",
          "public_transport": "stop_position"
        }
      },
      {
        "type": "node",
        "id": 12479801173,
        "lat": 12.978163,
        "lon": 77.5717468,
        "tags": {
          "bus": "yes",
          "name": "Platform 17A",
          "operator": "BMTC",
          "public_transport": "stop_position"
        }
      },
      {
        "type": "node",
        "id": 12479801174,
        "lat": 12.9782831,
        "lon": 77.5718746,
        "tags": {
          "bus": "yes",
          "name": "Platform 17",
          "operator": "BMTC",
          "public_transport": "stop_position"
        }
      },
      {
        "type": "node",
        "id": 12479801175,
        "lat": 12.9783511,
        "lon": 77.5719972,
        "tags": {
          "bus": "yes",
          "name": "Platform 16",
          "operator": "BMTC",
          "public_transport": "stop_position"
        }
      },
      {
        "type": "node",
        "id": 12479801176,
        "lat": 12.9784076,
        "lon": 77.5721601,
        "tags": {
          "bus": "yes",
          "name": "Platform 15A",
          "operator": "BMTC",
          "public_transport": "stop_position"
        }
      },
      {
        "type": "node",
        "id": 12479801177,
        "lat": 12.9784244,
        "lon": 77.5722951,
        "tags": {
          "bus": "yes",
          "name": "Platform 15",
          "operator": "BMTC",
          "public_transport": "stop_position"
        }
      },
      {
        "type": "node",
        "id": 12479801190,
        "lat": 12.9784189,
        "lon": 77.5724888,
        "tags": {
          "bus": "yes",
          "name": "Platform 14",
          "operator": "BMTC",
          "public_transport": "stop_position"
        }
      },
      {
        "type": "node",
        "id": 12479801191,
        "lat": 12.9783995,
        "lon": 77.5725967,
        "tags": {
          "bus": "yes",
          "name": "Platform 13",
          "operator": "BMTC",
          "public_transport": "stop_position"
        }
      },
      {
        "type": "node",
        "id": 12479801192,
        "lat": 12.9783424,
        "lon": 77.5727364,
        "tags": {
          "bus": "yes",
          "name": "Platform 12A",
          "operator": "BMTC",
          "public_transport": "stop_position"
        }
      },
      {
        "type": "node",
        "id": 12479801194,
        "lat": 12.9779899,
        "lon": 77.5731353,
        "tags": {
          "bus": "yes",
          "name": "Platform 11A",
          "operator": "BMTC",
          "public_transport": "stop_position"
        }
      },
      {
        "type": "node",
        "id": 12479801195,
        "lat": 12.9778782,
        "lon": 77.5731873,
        "tags": {
          "bus": "yes",
          "name": "Platform 11",
          "operator": "BMTC",
          "public_transport": "stop_position"
        }
      },
      {
        "type": "node",
        "id": 12479806808,
        "lat": 12.9780777,
        "lon": 77.572811,
        "tags": {
          "bus": "yes",
          "name": "Platform 9",
          "operator": "BMTC",
          "public_transport": "stop_position"
        }
      },
      {
        "type": "node",
        "id": 12479806809,
        "lat": 12.9781644,
        "lon": 77.5726809,
        "tags": {
          "bus": "yes",
          "name": "Platform 8B",
          "operator": "BMTC",
          "public_transport": "stop_position"
        }
      },
      {
        "type": "node",
        "id": 12479806822,
        "lat": 12.9777735,
        "lon": 77.5719062,
        "tags": {
          "bus": "yes",
          "name": "Platform 4B",
          "operator": "BMTC",
          "public_transport": "stop_position"
        }
      },
      {
        "type": "node",
        "id": 12479806823,
        "lat": 12.9779433,
        "lon": 77.572024,
        "tags": {
          "bus": "yes",
          "name": "Platform 4A",
          "operator": "BMTC",
          "public_transport": "stop_position"
        }
      },
      {
        "type": "node",
        "id": 12479806835,
        "lat": 12.9779386,
        "lon": 77.5729337,
        "tags": {
          "bus": "yes",
          "name": "Platform 10",
          "operator": "BMTC",
          "public_transport": "stop_position"
        }
      },
      {
        "type": "node",
        "id": 12479806836,
        "lat": 12.9780131,
        "lon": 77.5721195,
        "tags": {
          "bus": "yes",
          "name": "Platform 4",
          "name:kn": "\u0cb5\u0cc7\u0ca6\u0cbf\u0c95\u0cc6 \u0cea",
          "operator": "BMTC",
          "public_transport": "stop_position"
        }
      },
      {
        "type": "node",
        "id": 12506944637,
        "lat": 12.9784072,
        "lon": 77.5725538,
        "tags": {
          "bus": "yes",
          "name": "Platform 25C",
          "operator": "BMTC",
          "public_transport": "stop_position"
        }
      },
      {
        "type": "node",
        "id": 12506944638,
        "lat": 12.9783342,
        "lon": 77.5727541,
        "tags": {
          "bus": "yes",
          "name": "Platform 25B",
          "operator": "BMTC",
          "public_transport": "stop_position"
        }
      },
      {
        "type": "node",
        "id": 12506944639,
        "lat": 12.9782715,
        "lon": 77.5728788,
        "tags": {
          "bus": "yes",
          "name": "Platform 25A",
          "operator": "BMTC",
          "public_transport": "stop_position"
        }
      },
      {
        "type": "node",
        "id": 12506944640,
        "lat": 12.9781179,
        "lon": 77.5730294,
        "tags": {
          "bus": "yes",
          "name": "Platform 25",
          "operator": "BMTC",
          "public_transport": "stop_position"
        }
      },
      {
        "type": "node",
        "id": 12506944641,
        "lat": 12.9779091,
        "lon": 77.5731729,
        "tags": {
          "bus": "yes",
          "name": "Platform 24",
          "operator": "BMTC",
          "public_transport": "stop_position"
        }
      },
      {
        "type": "node",
        "id": 12506944656,
        "lat": 12.9778642,
        "lon": 77.5715876,
        "tags": {
          "bus": "yes",
          "name": "Platform 29C",
          "operator": "BMTC",
          "public_transport": "stop_position"
        }
      },
      {
        "type": "node",
        "id": 12506944657,
        "lat": 12.9779458,
        "lon": 77.5716174,
        "tags": {
          "bus": "yes",
          "name": "Platform 29B",
          "operator": "BMTC",
          "public_transport": "stop_position"
        }
      },
      {
        "type": "node",
        "id": 12506944658,
        "lat": 12.9780107,
        "lon": 77.5716411,
        "tags": {
          "bus": "yes",
          "name": "Platform 29A",
          "operator": "BMTC",
          "public_transport": "stop_position"
        }
      },
      {
        "type": "node",
        "id": 12506944659,
        "lat": 12.9780846,
        "lon": 77.5716859,
        "tags": {
          "bus": "yes",
          "name": "Platform 29",
          "operator": "BMTC",
          "public_transport": "stop_position"
        }
      },
      {
        "type": "node",
        "id": 12506944660,
        "lat": 12.9782721,
        "lon": 77.5718623,
        "tags": {
          "bus": "yes",
          "name": "Platform 28",
          "operator": "BMTC",
          "public_transport": "stop_position"
        }
      },
      {
        "type": "node",
        "id": 12506944661,
        "lat": 12.9783183,
        "lon": 77.571935,
        "tags": {
          "bus": "yes",
          "name": "Platform 27A",
          "operator": "BMTC",
          "public_transport": "stop_position"
        }
      },
      {
        "type": "node",
        "id": 12506944662,
        "lat": 12.9783675,
        "lon": 77.5720375,
        "tags": {
          "bus": "yes",
          "name": "Platform 27",
          "operator": "BMTC",
          "public_transport": "stop_position"
        }
      },
      {
        "type": "node",
        "id": 12506944663,
        "lat": 12.978402,
        "lon": 77.5721355,
        "tags": {
          "bus": "yes",
          "name": "Platform 26A",
          "operator": "BMTC",
          "public_transport": "stop_position"
        }
      },
      {
        "type": "node",
        "id": 12506944664,
        "lat": 12.9784197,
        "lon": 77.5722573,
        "tags": {
          "bus": "yes",
          "name": "Platform 26",
          "operator": "BMTC",
          "public_transport": "stop_position"
        }
      },
      {
        "type": "node",
        "id": 12506944679,
        "lat": 12.9783916,
        "lon": 77.5716921,
        "tags": {
          "bus": "yes",
          "name": "Platform 19C",
          "operator": "BMTC",
          "public_transport": "stop_position"
        }
      },
      {
        "type": "node",
        "id": 12506944680,
        "lat": 12.9781569,
        "lon": 77.5729941,
        "tags": {
          "bus": "yes",
          "name": "Platform 11C",
          "operator": "BMTC",
          "public_transport": "stop_position"
        }
      },
      {
        "type": "node",
        "id": 12506944681,
        "lat": 12.9780954,
        "lon": 77.5730497,
        "tags": {
          "bus": "yes",
          "name": "Platform 11B",
          "operator": "BMTC",
          "public_transport": "stop_position"
        }
      },
      {
        "type": "node",
        "id": 12506944693,
        "lat": 12.9775139,
        "lon": 77.5726718,
        "tags": {
          "bus": "yes",
          "name": "KIA Bus Stop",
          "official_name": "Platform 30",
          "operator": "BMTC",
          "public_transport": "stop_position"
        }
      },
      {
        "type": "node",
        "id": 12506944698,
        "lat": 12.9778904,
        "lon": 77.5733875,
        "tags": {
          "bus": "yes",
          "name": "Platform 23D",
          "operator": "BMTC",
          "public_transport": "stop_position"
        }
      },
      {
        "type": "node",
        "id": 12506944699,
        "lat": 12.9780198,
        "lon": 77.5733244,
        "tags": {
          "bus": "yes",
          "name": "Platform 23C",
          "operator": "BMTC",
          "public_transport": "stop_position"
        }
      },
      {
        "type": "node",
        "id": 12506944700,
        "lat": 12.9782161,
        "lon": 77.5731911,
        "tags": {
          "bus": "yes",
          "name": "Platform 23A",
          "operator": "BMTC",
          "public_transport": "stop_position"
        }
      },
      {
        "type": "node",
        "id": 12506953101,
        "lat": 12.9784828,
        "lon": 77.5729077,
        "tags": {
          "bus": "yes",
          "name": "Platform 22B",
          "operator": "BMTC",
          "public_transport": "stop_position"
        }
      },
      {
        "type": "node",
        "id": 12506953102,
        "lat": 12.9785603,
        "lon": 77.5727305,
        "tags": {
          "bus": "yes",
          "name": "Platform 22",
          "operator": "BMTC",
          "public_transport": "stop_position"
        }
      },
      {
        "type": "node",
        "id": 12507237905,
        "lat": 12.9837499,
        "lon": 77.6030616,
        "tags": {
          "bus": "yes",
          "name": "Platform 12",
          "operator": "BMTC",
          "public_transport": "stop_position",
          "ref": "12"
        }
      },
      {
        "type": "node",
        "id": 12507237906,
        "lat": 12.9835508,
        "lon": 77.602996,
        "tags": {
          "bus": "yes",
          "name": "Platform 11",
          "operator": "BMTC",
          "public_transport": "stop_position",
          "ref": "11"
        }
      },
      {
        "type": "node",
        "id": 12507237907,
        "lat": 12.9833479,
        "lon": 77.6029292,
        "tags": {
          "bus": "yes",
          "name": "Platform 10",
          "operator": "BMTC",
          "public_transport": "stop_position",
          "ref": "10"
        }
      },
      {
        "type": "node",
        "id": 12507237908,
        "lat": 12.9831435,
        "lon": 77.6028619,
        "tags": {
          "bus": "yes",
          "name": "Platform 9",
          "operator": "BMTC",
          "public_transport": "stop_position",
          "ref": "9"
        }
      },
      {
        "type": "node",
        "id": 12507237909,
        "lat": 12.9831135,
        "lon": 77.6029756,
        "tags": {
          "bus": "yes",
          "name": "Platform 5",
          "operator": "BMTC",
          "public_transport": "stop_position",
          "ref": "5"
        }
      },
      {
        "type": "node",
        "id": 12507237910,
        "lat": 12.983317,
        "lon": 77.6030402,
        "tags": {
          "bus": "yes",
          "name": "Platform 6",
          "operator": "BMTC",
          "public_transport": "stop_position",
          "ref": "6"
        }
      },
      {
        "type": "node",
        "id": 12507237911,
        "lat": 12.9837213,
        "lon": 77.6031685,
        "tags": {
          "bus": "yes",
          "name": "Platform 8",
          "operator": "BMTC",
          "public_transport": "stop_position",
          "ref": "8"
        }
      },
      {
        "type": "node",
        "id": 12507237912,
        "lat": 12.9836838,
        "lon": 77.6032885,
        "tags": {
          "bus": "yes",
          "name": "Platform 4",
          "operator": "BMTC",
          "public_transport": "stop_position",
          "ref": "4"
        }
      },
      {
        "type": "node",
        "id": 12507237913,
        "lat": 12.9834832,
        "lon": 77.6032283,
        "tags": {
          "bus": "yes",
          "name": "Platform 3",
          "operator": "BMTC",
          "public_transport": "stop_position",
          "ref": "3"
        }
      },
      {
        "type": "node",
        "id": 12507237914,
        "lat": 12.9832866,
        "lon": 77.6031693,
        "tags": {
          "bus": "yes",
          "name": "Platform 2",
          "operator": "BMTC",
          "public_transport": "stop_position",
          "ref": "2"
        }
      },
      {
        "type": "node",
        "id": 12507237915,
        "lat": 12.9830792,
        "lon": 77.6031071,
        "tags": {
          "bus": "yes",
          "name": "Platform 1",
          "operator": "BMTC",
          "public_transport": "stop_position",
          "ref": "1"
        }
      },
      {
        "type": "node",
        "id": 12511727435,
        "lat": 12.9944198,
        "lon": 77.5779993,
        "tags": {
          "bus": "yes",
          "name": "RMS Sheshadripuram",
          "name:en": "RMS Sheshadripuram",
          "network": "BMTC",
          "operator": "BMTC",
          "public_transport": "stop_position"
        }
      },
      {
        "type": "node",
        "id": 12512417632,
        "lat": 12.9977498,
        "lon": 77.5840988,
        "tags": {
          "bus": "yes",
          "name": "Guttahalli Underpass",
          "name:en": "Guttahalli Underpass",
          "network": "BMTC",
          "note": "Stop used only for Metro Feeder bus route MF-8A",
          "operator": "BMTC",
          "public_transport": "stop_position"
        }
      },
      {
        "type": "node",
        "id": 12512417634,
        "lat": 12.9977878,
        "lon": 77.584791,
        "tags": {
          "bus": "yes",
          "name": "Guttahalli Underpass",
          "name:en": "Guttahalli Underpass",
          "network": "BMTC",
          "note": "Stop used only for Metro Feeder bus route MF-8A",
          "operator": "BMTC",
          "public_transport": "stop_position"
        }
      },
      {
        "type": "node",
        "id": 12512417636,
        "lat": 12.9992356,
        "lon": 77.5827481,
        "tags": {
          "bus": "yes",
          "name": "RM Guttahalli Post Office",
          "name:en": "RM Guttahalli Post Office",
          "network": "BMTC",
          "operator": "BMTC",
          "public_transport": "stop_position"
        }
      },
      {
        "type": "node",
        "id": 12512417638,
        "lat": 12.9905573,
        "lon": 77.571683,
        "tags": {
          "bus": "yes",
          "name": "Mantri Square Metro Station",
          "name:en": "Mantri Square Metro Station",
          "network": "BMTC",
          "note": "Stop used only for Metro Feeder bus route MF-8A",
          "operator": "BMTC",
          "public_transport": "stop_position"
        }
      },
      {
        "type": "node",
        "id": 12526337224,
        "lat": 12.9816889,
        "lon": 77.574589,
        "tags": {
          "bus": "yes",
          "name": "Ananda Rao Circle",
          "name:en": "Ananda Rao Circle",
          "network": "BMTC",
          "operator": "BMTC",
          "public_transport": "stop_position"
        }
      },
      {
        "type": "node",
        "id": 13020763140,
        "lat": 12.9998796,
        "lon": 77.5839524,
        "tags": {
          "bus": "yes",
          "name": "RM Guttahalli",
          "name:en": "RM Guttahalli",
          "network": "BMTC",
          "operator": "BMTC",
          "public_transport": "stop_position"
        }
      },
      {
        "type": "node",
        "id": 13074467490,
        "lat": 12.9824045,
        "lon": 77.5886066,
        "tags": {
          "bus": "yes",
          "name": "Telephone Exchange AGO/VSD",
          "name:en": "Telephone Exchange AGO/VSD",
          "network": "BMTC",
          "operator": "BMTC",
          "public_transport": "stop_position"
        }
      }
    ]
  }
}