{
  "pois_1km": {
    "version": 0.6,
    "generator": "Overpass API 0.7.62.8 e802775f",
    "osm3s": {
      "timestamp_osm_base": "2025-09-06T08:20:35Z",
      "copyright": "The data included in this document is from www.openstreetmap.org. The data is made available under ODbL."
    },
    "elements": [
      {
        "type": "node",
        "id": 1186904262,
        "lat": 12.9637486,
        "lon": 77.747755,
        "tags": {
          "leisure": "playground",
          "name": "Sanctuary"
        }
      },
      {
        "type": "node",
        "id": 1434548918,
        "lat": 12.957157,
        "lon": 77.7386411,
        "tags": {
          "addr:street": "Varthur Road",
          "amenity": "fast_food",
          "brand": "Domino's",
          "brand:ks": "\u0688\u0648\u0645\u06cc\u0646\u0648\u0632",
          "brand:pa": "\u0a21\u0a4b\u0a2e\u0a40\u0a28\u0a4b\u0a1c\u0a3c",
          "brand:ur": "\u0688\u0648\u0645\u06cc\u0646\u0648\u0632",
          "brand:wikidata": "Q839466",
          "brand:wikipedia": "en:Domino's Pizza",
          "check_date": "2025-06-29",
          "cuisine": "pizza",
          "name": "Domino's",
          "name:kn": "\u0ca1\u0cbe\u0cae\u0cbf\u0ca8\u0ccb\u0cb8\u0ccd",
          "name:ks": "\u0688\u0648\u0645\u06cc\u0646\u0648\u0632",
          "name:pa": "\u0a21\u0a4b\u0a2e\u0a40\u0a28\u0a4b\u0a1c\u0a3c",
          "name:ur": "\u0688\u0648\u0645\u06cc\u0646\u0648\u0632",
          "takeaway": "yes"
        }
      },
      {
        "type": "node",
        "id": 1435072304,
        "lat": 12.9575682,
        "lon": 77.7409586,
        "tags": {
          "addr:street": "Varthur Road",
          "amenity": "restaurant",
          "cuisine": "international",
          "name": "The Fat Chef",
          "name:kn": "\u0ca6\u0cbf \u0cab\u0ccd\u0caf\u0cbe\u0c9f\u0ccd \u0cb6\u0cc6\u0cab\u0ccd",
          "website": "https://www.thefatchef.co.in/"
        }
      },
      {
        "type": "node",
        "id": 1437206305,
        "lat": 12.9632258,
        "lon": 77.7482429,
        "tags": {
          "amenity": "restaurant",
          "name": "Bhagini Park",
          "name:kn": "\u0cad\u0cbe\u0c97\u0cbf\u0ca8\u0cbf \u0caa\u0cbe\u0cb0\u0ccd\u0c95\u0ccd"
        }
      },
      {
        "type": "node",
        "id": 1437209536,
        "lat": 12.9564558,
        "lon": 77.7427026,
        "tags": {
          "addr:street": "Varthur Road",
          "amenity": "restaurant",
          "cuisine": "indian",
          "name": "Saffron Patch",
          "name:kn": "\u0cb8\u0cbe\u0cab\u0ccd\u0cb0\u0ca8\u0ccd \u0caa\u0ccd\u0caf\u0cbe\u0c9a\u0ccd"
        }
      },
      {
        "type": "node",
        "id": 1472800108,
        "lat": 12.9636019,
        "lon": 77.7481495,
        "tags": {
          "amenity": "pharmacy",
          "check_date": "2025-05-24",
          "dispensing": "yes",
          "healthcare": "pharmacy",
          "name": "Medi House Pharma"
        }
      },
      {
        "type": "node",
        "id": 2195873984,
        "lat": 12.9614804,
        "lon": 77.7397504,
        "tags": {
          "leisure": "playground"
        }
      },
      {
        "type": "node",
        "id": 2195873986,
        "lat": 12.961125,
        "lon": 77.7410111,
        "tags": {
          "shop": "supermarket",
          "wheelchair": "yes"
        }
      },
      {
        "type": "node",
        "id": 2195873993,
        "lat": 12.9640026,
        "lon": 77.7403674,
        "tags": {
          "amenity": "atm"
        }
      },
      {
        "type": "node",
        "id": 2696072361,
        "lat": 12.9592423,
        "lon": 77.7463002,
        "tags": {
          "addr:city": "Bengaluru",
          "addr:postcode": "560066",
          "addr:street": "Whitefield Main Road",
          "amenity": "bank",
          "atm": "yes",
          "brand": "State Bank of India",
          "brand:wikidata": "Q1340361",
          "brand:wikipedia": "en:State Bank of India",
          "check_date": "2025-05-24",
          "name": "State Bank of India",
          "name:kn": "\u0cad\u0cbe\u0cb0\u0ca4\u0cc0\u0caf \u0cb8\u0ccd\u0c9f\u0cc7\u0c9f\u0ccd \u0cac\u0ccd\u0caf\u0cbe\u0c82\u0c95\u0ccd",
          "short_name": "SBI",
          "website": "https://www.sbi.co.in"
        }
      },
      {
        "type": "node",
        "id": 3654380563,
        "lat": 12.9698283,
        "lon": 77.735625,
        "tags": {
          "amenity": "restaurant",
          "cuisine": "international",
          "name": "The Marigold - Fine Dine"
        }
      },
      {
        "type": "node",
        "id": 4017367031,
        "lat": 12.9692333,
        "lon": 77.7357052,
        "tags": {
          "amenity": "bank",
          "brand": "Andhra Bank",
          "brand:wikidata": "Q2003476",
          "brand:wikipedia": "en:Andhra Bank",
          "name": "Andhra Bank",
          "name:en": "Andhra Bank",
          "name:kn": "\u0c86\u0c82\u0ca7\u0ccd\u0cb0 \u0cac\u0ccd\u0caf\u0cbe\u0c82\u0c95\u0ccd",
          "website": "https://www.andhrabank.in"
        }
      },
      {
        "type": "node",
        "id": 4446112113,
        "lat": 12.957136,
        "lon": 77.7392761,
        "tags": {
          "addr:city": "Bengaluru",
          "addr:housenumber": "682",
          "addr:postcode": "560066",
          "addr:street": "Shop No 5 Varthur Main Road, Ramagondanahalli, Whitefield, Karnataka",
          "amenity": "pharmacy",
          "healthcare": "pharmacy",
          "name": "Vignesh Medicals",
          "phone": "+9199865 96899"
        }
      },
      {
        "type": "node",
        "id": 4446865302,
        "lat": 12.9567879,
        "lon": 77.7413601,
        "tags": {
          "addr:city": "Bengaluru",
          "addr:housenumber": "1/1",
          "addr:postcode": "560066",
          "addr:street": "Opp. Jagrithi Apartment,, Varthur Main Road, Whitefield Main Rd, Ramagondanahalli, Whitefield",
          "amenity": "clinic",
          "healthcare": "clinic",
          "name": "Revive Aesthetic Clinic Skin Hair And Laser Center",
          "phone": "080 4095 3301",
          "website": "reviveclinic.in"
        }
      },
      {
        "type": "node",
        "id": 4446915481,
        "lat": 12.9593576,
        "lon": 77.7461682,
        "tags": {
          "addr:city": "Bengaluru",
          "addr:full": "Sai Harsha Towers, 2nd floor, Opp Forum Value Mall, Above HDFC Bank,, Whitefield Main Road",
          "addr:housenumber": "#183",
          "addr:postcode": "560066",
          "addr:street": "Whitefield Main Road",
          "amenity": "hospital",
          "emergency": "yes",
          "healthcare": "hospital",
          "name": "Wellness Ever",
          "phone": "095919 89220",
          "source": "http://bestofhealthindia.com/",
          "website": "https://wellnessever.com/"
        }
      },
      {
        "type": "node",
        "id": 4446919794,
        "lat": 12.9566858,
        "lon": 77.7419283,
        "tags": {
          "addr:city": "Bengaluru",
          "addr:housenumber": "32",
          "addr:postcode": "560066",
          "addr:street": "MCC Tower, Opposite Sigma Tech Park, Varthur Kodi, Varthur Main Rd, Ramagondanahalli, Whitefield",
          "amenity": "hospital",
          "emergency": "yes",
          "healthcare": "hospital",
          "name": "Hair Loss Treatment in Bangalore - Hairline International",
          "phone": "091488 74972",
          "source": "http://www.bangalorean.co.in/",
          "website": "hairline.in"
        }
      },
      {
        "type": "node",
        "id": 4446921910,
        "lat": 12.9700147,
        "lon": 77.7334952,
        "tags": {
          "addr:city": "bangalore",
          "addr:housenumber": "#669",
          "addr:postcode": "560066",
          "addr:street": "1st A Main Rd, Whitefield",
          "amenity": "pharmacy",
          "name": "MedPlus",
          "phone": "085536 54002",
          "source": "http://bestofhealthindia.com/"
        }
      },
      {
        "type": "node",
        "id": 5125725658,
        "lat": 12.9690444,
        "lon": 77.7388659,
        "tags": {
          "name": "Top in Town",
          "shop": "supermarket",
          "wheelchair": "no"
        }
      },
      {
        "type": "node",
        "id": 5281840006,
        "lat": 12.9691604,
        "lon": 77.7406794,
        "tags": {
          "amenity": "atm",
          "brand": "ICICI Bank",
          "brand:wikidata": "Q1653258",
          "check_date": "2022-04-11",
          "operator": "ICICI Bank",
          "operator:wikidata": "Q1653258",
          "short_name": "ICICI"
        }
      },
      {
        "type": "node",
        "id": 5637655127,
        "lat": 12.9692742,
        "lon": 77.7355237,
        "tags": {
          "amenity": "atm",
          "brand": "HDFC Bank",
          "brand:wikidata": "Q631047",
          "check_date": "2022-06-14",
          "operator": "HDFC Bank",
          "operator:wikidata": "Q631047",
          "short_name": "HDFC"
        }
      },
      {
        "type": "node",
        "id": 5833761331,
        "lat": 12.9691244,
        "lon": 77.7377783,
        "tags": {
          "addr:city": "Bangalore",
          "addr:housenumber": "3 & 4, Borewell Road, Nellurhalli, Whitefield",
          "addr:postcode": "560066",
          "addr:street": "Borewell Road",
          "amenity": "fast_food",
          "drive_through": "no",
          "indoor_seating": "no",
          "name": "Sowparnika Bakery And Sweets",
          "outdoor_seating": "no",
          "takeaway": "only"
        }
      },
      {
        "type": "node",
        "id": 6043189192,
        "lat": 12.9651802,
        "lon": 77.7451632,
        "tags": {
          "leisure": "playground"
        }
      },
      {
        "type": "node",
        "id": 6312931438,
        "lat": 12.9690693,
        "lon": 77.7391248,
        "tags": {
          "amenity": "atm",
          "brand": "Andhra Bank",
          "brand:wikidata": "Q2003476",
          "check_date": "2022-04-11",
          "operator": "Andhra Bank",
          "operator:wikidata": "Q2003476"
        }
      },
      {
        "type": "node",
        "id": 9838632466,
        "lat": 12.9617173,
        "lon": 77.7479186,
        "tags": {
          "amenity": "bank",
          "brand": "Bank of India",
          "brand:wikidata": "Q2004439",
          "check_date": "2025-07-03",
          "name": "Bank of India",
          "wheelchair": "no"
        }
      },
      {
        "type": "node",
        "id": 9838632467,
        "lat": 12.9617854,
        "lon": 77.7479183,
        "tags": {
          "amenity": "restaurant",
          "check_date": "2025-06-25",
          "cuisine": "south_indian",
          "diet:vegetarian": "yes",
          "indoor_seating": "yes",
          "name": "Udupi Adithya",
          "outdoor_seating": "no",
          "wheelchair": "limited"
        }
      },
      {
        "type": "node",
        "id": 9841049853,
        "lat": 12.9687509,
        "lon": 77.7354147,
        "tags": {
          "amenity": "restaurant",
          "cuisine": "indian",
          "diet:vegetarian": "yes",
          "name": "Sri Udupi Food Hub"
        }
      },
      {
        "type": "node",
        "id": 9841485171,
        "lat": 12.9594969,
        "lon": 77.7319889,
        "tags": {
          "amenity": "restaurant",
          "indoor_seating": "yes",
          "name": "Madhurai Idly Shop",
          "outdoor_seating": "no"
        }
      },
      {
        "type": "node",
        "id": 9862517210,
        "lat": 12.9578019,
        "lon": 77.7454789,
        "tags": {
          "amenity": "restaurant",
          "cuisine": "biryani",
          "name": "Paradise"
        }
      },
      {
        "type": "node",
        "id": 9862517211,
        "lat": 12.9577393,
        "lon": 77.7454721,
        "tags": {
          "amenity": "restaurant",
          "check_date": "2025-07-29",
          "cuisine": "barbecue",
          "name": "Barbeque Nation"
        }
      },
      {
        "type": "node",
        "id": 9874059055,
        "lat": 12.9693727,
        "lon": 77.7374799,
        "tags": {
          "amenity": "restaurant",
          "diet:vegetarian": "yes",
          "name": "Udupi Veg"
        }
      },
      {
        "type": "node",
        "id": 9900960153,
        "lat": 12.9568015,
        "lon": 77.7400011,
        "tags": {
          "amenity": "bank",
          "brand": "State Bank of India",
          "brand:wikidata": "Q1340361",
          "check_date": "2025-06-29",
          "name": "State Bank of India",
          "name:kn": "\u0c8e\u0cb8\u0ccd \u0cac\u0cbf \u0c90",
          "short_name": "SBI"
        }
      },
      {
        "type": "node",
        "id": 10051271536,
        "lat": 12.957308,
        "lon": 77.7366851,
        "tags": {
          "amenity": "cafe",
          "name": "Third Wave Coffee"
        }
      },
      {
        "type": "node",
        "id": 10284858512,
        "lat": 12.9572286,
        "lon": 77.736325,
        "tags": {
          "amenity": "atm",
          "brand": "ICICI Bank",
          "brand:wikidata": "Q1653258",
          "check_date": "2025-07-05",
          "operator": "ICICI Bank",
          "operator:wikidata": "Q1653258",
          "short_name": "ICICI"
        }
      },
      {
        "type": "node",
        "id": 10284858592,
        "lat": 12.9571764,
        "lon": 77.7435018,
        "tags": {
          "amenity": "restaurant",
          "check_date": "2025-06-01",
          "name": "Hyderabadi Biryani",
          "name:kn": "\u0cb9\u0cc8\u0ca6\u0cb0\u0cbe\u0cac\u0cbe\u0ca6\u0ccd \u0cac\u0cbf\u0cb0\u0cbf\u0caf\u0cbe\u0ca8\u0cbf"
        }
      },
      {
        "type": "node",
        "id": 10649418819,
        "lat": 12.9663414,
        "lon": 77.7333677,
        "tags": {
          "amenity": "cafe",
          "contact:instagram": "paperandpieblr",
          "fixme": "Approximate location",
          "name": "Paper & Pie"
        }
      },
      {
        "type": "node",
        "id": 10716772889,
        "lat": 12.962909,
        "lon": 77.7477379,
        "tags": {
          "addr:street": "Whitefield Main Road",
          "amenity": "restaurant",
          "cuisine": "kashmiri",
          "diet:vegetarian": "yes",
          "name": "Orzuv",
          "phone": "+91 9755-564656",
          "website": "https://orzuv.co"
        }
      },
      {
        "type": "node",
        "id": 10738521365,
        "lat": 12.960406,
        "lon": 77.7422215,
        "tags": {
          "name": "Loyal City Supermarket",
          "shop": "supermarket"
        }
      },
      {
        "type": "node",
        "id": 11640744663,
        "lat": 12.9688174,
        "lon": 77.7354254,
        "tags": {
          "amenity": "restaurant",
          "diet:vegetarian": "yes",
          "level": "7",
          "name": "Celeb's"
        }
      },
      {
        "type": "node",
        "id": 11826962880,
        "lat": 12.963666,
        "lon": 77.7330257,
        "tags": {
          "amenity": "pharmacy",
          "healthcare": "pharmacy",
          "name": "Brothers Chemist"
        }
      },
      {
        "type": "node",
        "id": 11826962883,
        "lat": 12.9637303,
        "lon": 77.7330322,
        "tags": {
          "amenity": "atm",
          "brand": "Axis Bank",
          "brand:wikidata": "Q2003549",
          "operator": "Axis Bank",
          "operator:wikidata": "Q2003549",
          "wheelchair": "no"
        }
      },
      {
        "type": "node",
        "id": 11826962961,
        "lat": 12.966127,
        "lon": 77.7334534,
        "tags": {
          "amenity": "restaurant",
          "name": "The Thali House"
        }
      },
      {
        "type": "node",
        "id": 11826962991,
        "lat": 12.9664737,
        "lon": 77.7337604,
        "tags": {
          "name": "SNLS Mart",
          "shop": "department_store"
        }
      },
      {
        "type": "node",
        "id": 11826963019,
        "lat": 12.9688836,
        "lon": 77.7354394,
        "tags": {
          "amenity": "restaurant",
          "bar": "yes",
          "name": "Chowki"
        }
      },
      {
        "type": "node",
        "id": 12208448672,
        "lat": 12.9600342,
        "lon": 77.7325657,
        "tags": {
          "amenity": "cafe",
          "contact:instagram": "nammaashram",
          "name": "Namma Ashram Cafe"
        }
      },
      {
        "type": "node",
        "id": 12211634995,
        "lat": 12.9568336,
        "lon": 77.7408114,
        "tags": {
          "amenity": "restaurant",
          "brand": "Pizza Hut",
          "brand:wikidata": "Q191615",
          "check_date": "2025-06-29",
          "cuisine": "pizza",
          "name": "Pizza Hut"
        }
      },
      {
        "type": "node",
        "id": 12211668056,
        "lat": 12.9571546,
        "lon": 77.7388836,
        "tags": {
          "amenity": "pharmacy",
          "brand": "MedPlus",
          "brand:wikidata": "Q65684234",
          "check_date": "2025-06-29",
          "healthcare": "pharmacy",
          "name": "MedPlus"
        }
      },
      {
        "type": "node",
        "id": 12211669706,
        "lat": 12.956801,
        "lon": 77.7419198,
        "tags": {
          "amenity": "restaurant",
          "check_date": "2025-05-31",
          "cuisine": "indian",
          "diet:vegetarian": "yes",
          "name": "New Udupi Upahar"
        }
      },
      {
        "type": "node",
        "id": 12241219036,
        "lat": 12.9568467,
        "lon": 77.7402255,
        "tags": {
          "amenity": "clinic",
          "check_date": "2025-06-28",
          "name": "RK Multispeciality center"
        }
      },
      {
        "type": "node",
        "id": 12247713062,
        "lat": 12.9568587,
        "lon": 77.7411055,
        "tags": {
          "amenity": "fast_food",
          "check_date": "2024-10-13",
          "name": "Ocean Cake"
        }
      },
      {
        "type": "node",
        "id": 12651832969,
        "lat": 12.9566829,
        "lon": 77.7414284,
        "tags": {
          "amenity": "hospital",
          "check_date": "2025-03-11",
          "healthcare": "hospital",
          "name": "Cloud Nine"
        }
      },
      {
        "type": "node",
        "id": 12695926126,
        "lat": 12.963561,
        "lon": 77.7331668,
        "tags": {
          "amenity": "pharmacy",
          "check_date": "2025-03-24",
          "healthcare": "pharmacy",
          "name": "Ashwini Medical And General Store"
        }
      },
      {
        "type": "node",
        "id": 12704522793,
        "lat": 12.9571991,
        "lon": 77.738507,
        "tags": {
          "amenity": "fast_food",
          "name": "Sai Ram Hot Chips"
        }
      },
      {
        "type": "node",
        "id": 12704522795,
        "lat": 12.9571606,
        "lon": 77.7387642,
        "tags": {
          "amenity": "cafe",
          "name": "Sri Viniyaka Mess"
        }
      },
      {
        "type": "node",
        "id": 12714938775,
        "lat": 12.9568072,
        "lon": 77.7363519,
        "tags": {
          "alt_name": "Kentucky Fried Chicken",
          "alt_name:en": "Kentucky Fried Chicken",
          "alt_name:hi": "\u0915\u0947\u0902\u091f\u0941\u0915\u0940 \u092b\u094d\u0930\u093e\u0907\u0921 \u091a\u093f\u0915\u0928",
          "alt_name:pa": "\u0a15\u0a48\u0a02\u0a1f\u0a41\u0a15\u0a40 \u0a2b\u0a4d\u0a30\u0a3e\u0a08\u0a21 \u0a1a\u0a3f\u0a15\u0a28",
          "alt_name:pnb": "\u06a9\u06cc\u0646\u0679\u06a9\u06cc \u0641\u0631\u0627\u0626\u06cc\u0688 \u0686\u06a9\u0646",
          "alt_name:ur": "\u06a9\u06cc\u0646\u0679\u06a9\u06cc \u0641\u0631\u0627\u0626\u06cc\u0688 \u0686\u06a9\u0646",
          "amenity": "fast_food",
          "brand": "KFC",
          "brand:en": "KFC",
          "brand:hi": "\u0915\u0947\u090f\u092b\u0938\u0940",
          "brand:pa": "\u0a15\u0a47\u0a10\u0a2b\u0a38\u0a40",
          "brand:pnb": "\u06a9\u06d2 \u0627\u06cc\u0641 \u0633\u06cc",
          "brand:ur": "\u06a9\u06d2 \u0627\u06cc\u0641 \u0633\u06cc",
          "brand:wikidata": "Q524757",
          "check_date": "2025-06-29",
          "cuisine": "chicken",
          "name": "KFC",
          "name:en": "KFC",
          "name:hi": "\u0915\u0947\u090f\u092b\u0938\u0940",
          "name:pa": "\u0a15\u0a47\u0a10\u0a2b\u0a38\u0a40",
          "name:pnb": "\u06a9\u06d2 \u0627\u06cc\u0641 \u0633\u06cc",
          "name:ur": "\u06a9\u06d2 \u0627\u06cc\u0641 \u0633\u06cc",
          "takeaway": "yes"
        }
      },
      {
        "type": "node",
        "id": 12715087995,
        "lat": 12.9567667,
        "lon": 77.7425694,
        "tags": {
          "amenity": "fast_food",
          "check_date": "2025-03-31",
          "cuisine": "juice",
          "name": "Sri Ganesh Fruit Juice Center"
        }
      },
      {
        "type": "node",
        "id": 12715088000,
        "lat": 12.9568671,
        "lon": 77.7392132,
        "tags": {
          "amenity": "fast_food",
          "check_date": "2025-06-29",
          "name": "Viniyaka Hot Chips"
        }
      },
      {
        "type": "node",
        "id": 12715098613,
        "lat": 12.9568341,
        "lon": 77.740717,
        "tags": {
          "amenity": "restaurant",
          "check_date": "2025-03-31",
          "name": "MCC"
        }
      },
      {
        "type": "node",
        "id": 12715098621,
        "lat": 12.9568252,
        "lon": 77.7408435,
        "tags": {
          "amenity": "clinic",
          "check_date": "2025-03-31",
          "healthcare": "clinic",
          "name": "Niyamh Health"
        }
      },
      {
        "type": "node",
        "id": 12723978276,
        "lat": 12.9566131,
        "lon": 77.7440565,
        "tags": {
          "amenity": "cafe",
          "check_date": "2025-04-03",
          "name": "Nellore Mess"
        }
      },
      {
        "type": "node",
        "id": 12730620931,
        "lat": 12.9568026,
        "lon": 77.7423896,
        "tags": {
          "amenity": "restaurant",
          "check_date": "2025-04-05",
          "diet:vegetarian": "yes",
          "name": "Udupi Upahar Veg"
        }
      },
      {
        "type": "node",
        "id": 12860980662,
        "lat": 12.9608198,
        "lon": 77.7470624,
        "tags": {
          "amenity": "doctors",
          "check_date": "2025-05-24",
          "healthcare": "doctor",
          "healthcare:speciality": "ophthalmology",
          "name": "Whitefield Eye Clinic"
        }
      },
      {
        "type": "node",
        "id": 12860980665,
        "lat": 12.9592471,
        "lon": 77.7462681,
        "tags": {
          "amenity": "bank",
          "brand": "HDFC Bank",
          "brand:wikidata": "Q631047",
          "check_date": "2025-05-24",
          "name": "HDFC Bank",
          "short_name": "HDFC"
        }
      },
      {
        "type": "node",
        "id": 12860980668,
        "lat": 12.9592241,
        "lon": 77.7462486,
        "tags": {
          "addr:city": "Bengaluru",
          "addr:street": "Whitefield Main Road",
          "amenity": "doctors",
          "check_date": "2025-05-24",
          "healthcare": "doctor",
          "healthcare:speciality": "dermatology",
          "name": "Dr Rai's Skin And Hair Clinic"
        }
      },
      {
        "type": "node",
        "id": 12918784601,
        "lat": 12.9591049,
        "lon": 77.7463607,
        "tags": {
          "amenity": "atm",
          "brand": "HDFC Bank",
          "brand:wikidata": "Q631047",
          "check_date": "2025-05-24",
          "operator": "HDFC Bank",
          "operator:wikidata": "Q631047",
          "short_name": "HDFC"
        }
      },
      {
        "type": "node",
        "id": 12918784608,
        "lat": 12.9592301,
        "lon": 77.7462313,
        "tags": {
          "amenity": "clinic",
          "healthcare": "clinic",
          "healthcare:speciality": "cardiology",
          "name": "Heart Clinic & Pharmacy"
        }
      },
      {
        "type": "node",
        "id": 12965791638,
        "lat": 12.9625188,
        "lon": 77.7482173,
        "tags": {
          "amenity": "atm",
          "brand": "Union Bank of India",
          "brand:wikidata": "Q2004078",
          "check_date": "2025-07-03",
          "operator": "Union Bank of India",
          "operator:wikidata": "Q2004078"
        }
      },
      {
        "type": "node",
        "id": 13104081667,
        "lat": 12.9623684,
        "lon": 77.7328259,
        "tags": {
          "amenity": "fast_food",
          "contact:instagram": "milanopizzacafe_india",
          "cuisine": "pizza",
          "name": "Milano Pizza"
        }
      }
    ]
  },
  "pois_2_5km": {
    "version": 0.6,
    "generator": "Overpass API 0.7.62.8 e802775f",
    "osm3s": {
      "timestamp_osm_base": "2025-09-06T08:20:35Z",
      "copyright": "The data included in this document is from www.openstreetmap.org. The data is made available under ODbL."
    },
    "elements": [
      {
        "type": "node",
        "id": 821379632,
        "lat": 12.9597284,
        "lon": 77.748507,
        "tags": {
          "addr:floor": "2",
          "air_conditioning": "yes",
          "amenity": "cinema",
          "brand": "INOX Leisure",
          "brand:wikidata": "Q5972349",
          "check_date": "2025-06-25",
          "level": "2",
          "name": "Inox Cinemas",
          "payment:mastercard": "yes",
          "payment:visa": "yes",
          "short_name": "INOX",
          "source": "survey",
          "wheelchair": "no"
        }
      },
      {
        "type": "node",
        "id": 1472791595,
        "lat": 12.97053,
        "lon": 77.75002,
        "tags": {
          "alt_name": "Whitefield Post Office",
          "bus": "yes",
          "name": "Whitefield",
          "name:en": "Whitefield",
          "name:kn": "\u0cb5\u0cc8\u0c9f\u0ccd\u200c\u0cab\u0cc0\u0cb2\u0ccd\u0ca1\u0ccd\u200c",
          "network": "BMTC",
          "operator": "BMTC",
          "public_transport": "stop_position"
        }
      },
      {
        "type": "node",
        "id": 1483713528,
        "lat": 12.9575795,
        "lon": 77.7408479,
        "tags": {
          "amenity": "theatre",
          "name": "Jagriti Theatre",
          "name:kn": "\u0c9c\u0cbe\u0c97\u0cc3\u0ca4\u0cbf \u0c9a\u0cbf\u0ca4\u0ccd\u0cb0\u0cae\u0c82\u0ca6\u0cbf\u0cb0"
        }
      },
      {
        "type": "node",
        "id": 5760197751,
        "lat": 12.9811949,
        "lon": 77.7275361,
        "tags": {
          "alt_name": "Satya Sai Hospital",
          "code": "SSHP",
          "colour": "#e542de",
          "name": "Sri Sathya Sai Hospital",
          "name:kn": "\u0cb6\u0ccd\u0cb0\u0cc0 \u0cb8\u0ca4\u0ccd\u0caf \u0cb8\u0cbe\u0caf\u0cbf \u0c86\u0cb8\u0ccd\u0caa\u0ca4\u0ccd\u0cb0\u0cc6",
          "name:ta": "\u0bb8\u0bcd\u0bb0\u0bc0 \u0b9a\u0ba4\u0bcd\u0baf \u0b9a\u0bbe\u0baf\u0bcd \u0bae\u0bb0\u0bc1\u0ba4\u0bcd\u0ba4\u0bc1\u0bb5\u0bae\u0ba9\u0bc8",
          "network": "Namma Metro",
          "note": "Contributors are requested to not edit the \"network\" and the \"operator\" tags. (2023/11/08)",
          "operator": "Bangalore Metro Rail Corporation Limited",
          "public_transport": "station",
          "railway": "station",
          "station": "subway",
          "subway": "yes",
          "wheelchair": "yes",
          "wikipedia": "en:Sri Sathya Sai Hospital metro station"
        }
      },
      {
        "type": "node",
        "id": 5760197754,
        "lat": 12.9766408,
        "lon": 77.7248845,
        "tags": {
          "alt_name": "Nallurhalli",
          "code": "VDHP",
          "colour": "#e542de",
          "name": "Nallurahalli",
          "name:kn": "\u0ca8\u0cb2\u0ccd\u0cb2\u0cc2\u0cb0\u0cb9\u0cb3\u0ccd\u0cb3\u0cbf",
          "name:ta": "\u0ba8\u0bb2\u0bcd\u0bb2\u0bc2\u0bb0\u0bb9\u0bb3\u0bcd\u0bb3\u0bbf",
          "network": "Namma Metro",
          "note": "Contributors are requested to not edit the \"network\" and the \"operator\" tags. (2023/11/08)",
          "operator": "Bangalore Metro Rail Corporation Limited",
          "public_transport": "station",
          "railway": "station",
          "station": "subway",
          "subway": "yes",
          "wheelchair": "yes",
          "wikipedia": "en:Nallurhalli metro station"
        }
      },
      {
        "type": "node",
        "id": 9970369575,
        "lat": 12.9770485,
        "lon": 77.7510368,
        "tags": {
          "bus": "yes",
          "name": "Ambedkar Nagar",
          "name:en": "Ambedkar Nagar",
          "name:kn": "\u0c85\u0c82\u0cac\u0cc7\u0ca1\u0ccd\u0c95\u0cb0\u0ccd \u0ca8\u0c97\u0cb0",
          "network": "BMTC",
          "operator": "BMTC",
          "public_transport": "stop_position"
        }
      },
      {
        "type": "node",
        "id": 9970369576,
        "lat": 12.9740054,
        "lon": 77.750437,
        "tags": {
          "bus": "yes",
          "name": "Saibaba General Hospital",
          "name:en": "Saibaba General Hospital",
          "name:kn": "\u0cb8\u0cbe\u0caf\u0cbf\u0cac\u0cbe\u0cac\u0cbe \u0c86\u0cb8\u0ccd\u0caa\u0ca4\u0ccd\u0cb0\u0cc6",
          "network": "BMTC",
          "operator": "BMTC",
          "public_transport": "stop_position"
        }
      },
      {
        "type": "node",
        "id": 10761647025,
        "lat": 12.9807354,
        "lon": 77.7274963,
        "tags": {
          "alt_name": "Satya Sai Hospital",
          "code": "SSHP",
          "name": "Sri Sathya Sai Hospital",
          "name:kn": "\u0cb6\u0ccd\u0cb0\u0cc0 \u0cb8\u0ca4\u0ccd\u0caf \u0cb8\u0cbe\u0caf\u0cbf \u0c86\u0cb8\u0ccd\u0caa\u0ca4\u0ccd\u0cb0\u0cc6",
          "network": "Namma Metro",
          "note": "Contributors are requested to not edit the \"network\" and the \"operator\" tags. (2023/11/08)",
          "operator": "Bangalore Metro Rail Corporation Limited",
          "platforms": "2",
          "public_transport": "stop_position",
          "public_transport:version": "2",
          "railway": "stop",
          "subway": "yes",
          "wheelchair": "yes"
        }
      },
      {
        "type": "node",
        "id": 10761647026,
        "lat": 12.9817149,
        "lon": 77.7276627,
        "tags": {
          "alt_name": "Satya Sai Hospital",
          "code": "SSHP",
          "name": "Sri Sathya Sai Hospital",
          "name:kn": "\u0cb6\u0ccd\u0cb0\u0cc0 \u0cb8\u0ca4\u0ccd\u0caf \u0cb8\u0cbe\u0caf\u0cbf \u0c86\u0cb8\u0ccd\u0caa\u0ca4\u0ccd\u0cb0\u0cc6",
          "network": "Namma Metro",
          "note": "Contributors are requested to not edit the \"network\" and the \"operator\" tags. (2023/11/08)",
          "operator": "Bangalore Metro Rail Corporation Limited",
          "platforms": "2",
          "public_transport": "stop_position",
          "public_transport:version": "2",
          "railway": "stop",
          "subway": "yes",
          "wheelchair": "yes"
        }
      },
      {
        "type": "node",
        "id": 10761647027,
        "lat": 12.9766126,
        "lon": 77.7243495,
        "tags": {
          "alt_name": "Nallurhalli",
          "code": "VDHP",
          "name": "Nallurahalli",
          "name:kn": "\u0ca8\u0cb2\u0ccd\u0cb2\u0cc2\u0cb0\u0cb9\u0cb3\u0ccd\u0cb3\u0cbf",
          "network": "Namma Metro",
          "note": "Contributors are requested to not edit the \"network\" and the \"operator\" tags. (2023/11/08)",
          "operator": "Bangalore Metro Rail Corporation Limited",
          "platforms": "2",
          "public_transport": "stop_position",
          "public_transport:version": "2",
          "railway": "stop",
          "subway": "yes",
          "wheelchair": "yes"
        }
      },
      {
        "type": "node",
        "id": 10761647028,
        "lat": 12.9765754,
        "lon": 77.7253457,
        "tags": {
          "alt_name": "Nallurhalli",
          "code": "VDHP",
          "name": "Nallurahalli",
          "name:kn": "\u0ca8\u0cb2\u0ccd\u0cb2\u0cc2\u0cb0\u0cb9\u0cb3\u0ccd\u0cb3\u0cbf",
          "network": "Namma Metro",
          "note": "Contributors are requested to not edit the \"network\" and the \"operator\" tags. (2023/11/08)",
          "operator": "Bangalore Metro Rail Corporation Limited",
          "platforms": "2",
          "public_transport": "stop_position",
          "public_transport:version": "2",
          "railway": "stop",
          "subway": "yes",
          "wheelchair": "yes"
        }
      },
      {
        "type": "node",
        "id": 12147224863,
        "lat": 12.9663526,
        "lon": 77.7177981,
        "tags": {
          "amenity": "cinema",
          "brand": "INOX Leisure",
          "brand:short": "INOX",
          "brand:wikidata": "Q5972349",
          "check_date": "2024-08-30",
          "name": "INOX Leisure",
          "short_name": "INOX"
        }
      },
      {
        "type": "node",
        "id": 12989026907,
        "lat": 12.979957,
        "lon": 77.7516718,
        "tags": {
          "bus": "yes",
          "name": "Coffee Day Hope Farm",
          "name:en": "Coffee Day Hope Farm",
          "network": "BMTC",
          "operator": "BMTC",
          "public_transport": "stop_position"
        }
      }
    ]
  }
}