{
  "pois_1km": {
    "version": 0.6,
    "generator": "Overpass API 0.7.62.8 e802775f",
    "osm3s": {
      "timestamp_osm_base": "2025-09-06T08:25:45Z",
      "copyright": "The data included in this document is from www.openstreetmap.org. The data is made available under ODbL."
    },
    "elements": [
      {
        "type": "node",
        "id": 665871268,
        "lat": 12.9671651,
        "lon": 77.580199,
        "tags": {
          "amenity": "restaurant",
          "cuisine": "indian",
          "diet:vegetarian": "yes",
          "name": "Chatpat",
          "name:kn": "\u0c9a\u0c9f\u0ccd\u0caa\u0c9f\u0ccd"
        }
      },
      {
        "type": "node",
        "id": 665871269,
        "lat": 12.9697027,
        "lon": 77.5796625,
        "tags": {
          "amenity": "cafe",
          "name": "Cane Crush"
        }
      },
      {
        "type": "node",
        "id": 665871273,
        "lat": 12.9703805,
        "lon": 77.5800395,
        "tags": {
          "amenity": "restaurant",
          "cuisine": "indian",
          "name": "Hotel Madhuvan",
          "name:kn": "\u0cae\u0ca7\u0cc1\u0cb5\u0ca8"
        }
      },
      {
        "type": "node",
        "id": 1389210293,
        "lat": 12.9655798,
        "lon": 77.5845651,
        "tags": {
          "addr:street": "Dharmaraya Temple Road",
          "amenity": "atm",
          "brand": "ICICI Bank",
          "brand:wikidata": "Q1653258",
          "check_date": "2023-06-11",
          "network": "ICICI Bank",
          "operator": "ICICI Bank",
          "operator:wikidata": "Q1653258",
          "short_name": "ICICI",
          "source": "survey"
        }
      },
      {
        "type": "node",
        "id": 1617398461,
        "lat": 12.9554704,
        "lon": 77.5801737,
        "tags": {
          "amenity": "restaurant",
          "cuisine": "indian",
          "name": "Kamat Minerva",
          "name:kn": "\u0c95\u0cbe\u0cae\u0ca4\u0ccd \u0cae\u0cbf\u0ca8\u0cb0\u0ccd\u0cb5"
        }
      },
      {
        "type": "node",
        "id": 1739362359,
        "lat": 12.9658764,
        "lon": 77.5860284,
        "tags": {
          "amenity": "restaurant",
          "diet:vegetarian": "only",
          "name": "Pai Vihar",
          "name:kn": "\u0caa\u0cc8 \u0cb5\u0cbf\u0cb9\u0cbe\u0cb0\u0ccd"
        }
      },
      {
        "type": "node",
        "id": 1791886696,
        "lat": 12.9573769,
        "lon": 77.5717084,
        "tags": {
          "amenity": "atm",
          "brand": "State Bank of India",
          "brand:wikidata": "Q1340361",
          "fee": "no",
          "name": "State Bank of India",
          "operator": "State Bank of India",
          "operator:wikidata": "Q1340361",
          "short_name": "SBI",
          "wheelchair": "no"
        }
      },
      {
        "type": "node",
        "id": 1791962125,
        "lat": 12.9552387,
        "lon": 77.5790523,
        "tags": {
          "amenity": "restaurant",
          "cuisine": "indian",
          "name": "Nandini",
          "name:kn": "\u0ca8\u0c82\u0ca6\u0cbf\u0ca8\u0cbf",
          "wheelchair": "no"
        }
      },
      {
        "type": "node",
        "id": 2014227810,
        "lat": 12.9699846,
        "lon": 77.5797207,
        "tags": {
          "amenity": "fast_food",
          "name": "Banaras Sweets"
        }
      },
      {
        "type": "node",
        "id": 2014232345,
        "lat": 12.9700251,
        "lon": 77.5799594,
        "tags": {
          "amenity": "bank",
          "atm": "yes",
          "branch": "Vysya Bank",
          "brand": "ING",
          "brand:wikidata": "Q645708",
          "name": "ING",
          "wheelchair": "no"
        }
      },
      {
        "type": "node",
        "id": 2868502488,
        "lat": 12.9573933,
        "lon": 77.582077,
        "tags": {
          "amenity": "bank",
          "atm": "yes",
          "brand": "Dena Bank",
          "brand:wikidata": "Q3595747",
          "brand:wikipedia": "en:Dena Bank",
          "name": "Dena Bank",
          "name:en": "Dena Bank",
          "name:kn": "\u0ca6\u0cc7\u0ca8 \u0cac\u0ccd\u0caf\u0cbe\u0c82\u0c95\u0ccd",
          "operator": "Dena Bank",
          "website": "http://www.denabank.com"
        }
      },
      {
        "type": "node",
        "id": 3010263824,
        "lat": 12.9606096,
        "lon": 77.5835432,
        "tags": {
          "amenity": "bank",
          "brand": "State Bank of India",
          "brand:wikidata": "Q1340361",
          "brand:wikipedia": "en:State Bank of India",
          "name": "State Bank of India",
          "name:kn": "\u0cad\u0cbe\u0cb0\u0ca4\u0cc0\u0caf \u0cb8\u0ccd\u0c9f\u0cc7\u0c9f\u0ccd \u0cac\u0ccd\u0caf\u0cbe\u0c82\u0c95\u0ccd",
          "short_name": "SBI",
          "source": "voice, GPS",
          "website": "https://www.sbi.co.in"
        }
      },
      {
        "type": "node",
        "id": 3010263825,
        "lat": 12.9579091,
        "lon": 77.5823797,
        "tags": {
          "amenity": "bank",
          "atm": "no",
          "brand": "State Bank of India",
          "brand:wikidata": "Q1340361",
          "brand:wikipedia": "en:State Bank of India",
          "name": "State Bank of India",
          "name:kn": "\u0cad\u0cbe\u0cb0\u0ca4\u0cc0\u0caf \u0cb8\u0ccd\u0c9f\u0cc7\u0c9f\u0ccd \u0cac\u0ccd\u0caf\u0cbe\u0c82\u0c95\u0ccd",
          "operator": "State Bank of India",
          "short_name": "SBI",
          "source": "voice, GPS"
        }
      },
      {
        "type": "node",
        "id": 3391135051,
        "lat": 12.962822,
        "lon": 77.5764714,
        "tags": {
          "amenity": "restaurant",
          "diet:vegetarian": "only",
          "name": "Hotel Annakuteera vegetarian"
        }
      },
      {
        "type": "node",
        "id": 3395246644,
        "lat": 12.9606852,
        "lon": 77.5715513,
        "tags": {
          "amenity": "pharmacy",
          "check_date": "2025-06-19",
          "name": "Sri Manjunatha Medical & General Stores"
        }
      },
      {
        "type": "node",
        "id": 4209484254,
        "lat": 12.9680202,
        "lon": 77.5787717,
        "tags": {
          "amenity": "atm",
          "brand": "State Bank of India",
          "brand:wikidata": "Q1340361",
          "name": "State Bank of India",
          "name:kn": "\u0cad\u0cbe\u0cb0\u0ca4\u0cc0\u0caf \u0cb8\u0ccd\u0c9f\u0cc7\u0c9f\u0ccd \u0cac\u0ccd\u0caf\u0cbe\u0c82\u0c95\u0ccd",
          "operator": "State Bank of India",
          "operator:wikidata": "Q1340361",
          "short_name": "SBI"
        }
      },
      {
        "type": "node",
        "id": 4413510290,
        "lat": 12.969833,
        "lon": 77.5775083,
        "tags": {
          "addr:city": "Bangalore",
          "addr:housenumber": "45/6",
          "addr:postcode": "500006",
          "addr:street": "6th Cross Road",
          "amenity": "cafe",
          "cuisine": "coffee_shop",
          "internet_access": "yes",
          "name": "CCD",
          "opening_hours": "09:00-06:00",
          "smoking": "no"
        }
      },
      {
        "type": "node",
        "id": 4445171747,
        "lat": 12.960753,
        "lon": 77.575626,
        "tags": {
          "addr:city": "Bangalore",
          "addr:housenumber": "2",
          "addr:postcode": "560008",
          "addr:street": "6th Cross Rd, HAL 3rd Stage, Kodihalli, Bengaluru",
          "amenity": "restaurant",
          "cuisine": "regional",
          "delivery": "yes",
          "name": "Srinidhi Sagar",
          "name:kn": "\u0cb6\u0ccd\u0cb0\u0cc0\u0ca8\u0cbf\u0ca7\u0cbf \u0cb8\u0cbe\u0c97\u0cb0",
          "opening_hours": "07:00-23:00",
          "phone": "+91 80 25219337",
          "smoking": "no",
          "takeaway": "yes"
        }
      },
      {
        "type": "node",
        "id": 4446899258,
        "lat": 12.9671955,
        "lon": 77.5736828,
        "tags": {
          "addr:city": "bangalore",
          "addr:housenumber": "164",
          "addr:postcode": "560053",
          "addr:street": "P.o box 7182,1st floor, sultanpet,",
          "amenity": "pharmacy",
          "name": "Fair Deal Pharma (Medkart)",
          "phone": "080 2234 1736"
        }
      },
      {
        "type": "node",
        "id": 4447086612,
        "lat": 12.9681071,
        "lon": 77.570295,
        "tags": {
          "addr:city": "bangalore",
          "addr:housenumber": "76/2",
          "addr:postcode": "560001",
          "addr:street": "Avenue Road, Bangalore City",
          "amenity": "pharmacy",
          "phone": "+91 80 2287 7428",
          "source": "www.asklaila.com",
          "website": "https://www.microlabsltd.com/"
        }
      },
      {
        "type": "node",
        "id": 4447108639,
        "lat": 12.9543124,
        "lon": 77.5786901,
        "tags": {
          "addr:city": "Bengaluru",
          "addr:postcode": "560004",
          "addr:street": "V V Puram College of Science, Parvathipuram, Basavanagudi",
          "amenity": "restaurant",
          "cuisine": "regional",
          "delivery": "yes",
          "name": "New Modern Hotel",
          "phone": "080 2661 2625",
          "smoking": "no",
          "takeaway": "yes",
          "website": "https://newmodernhotel.com/"
        }
      },
      {
        "type": "node",
        "id": 4849108026,
        "lat": 12.9555428,
        "lon": 77.5802105,
        "tags": {
          "amenity": "bank",
          "brand": "Axis Bank",
          "brand:wikidata": "Q2003549",
          "brand:wikipedia": "en:Axis Bank",
          "name": "Axis Bank",
          "name:en": "Axis Bank",
          "name:kn": "\u0c86\u0c95\u0ccd\u0cb8\u0cbf\u0cb8\u0ccd \u0cac\u0ccd\u0caf\u0cbe\u0c82\u0c95\u0ccd",
          "website": "https://www.axisbank.com"
        }
      },
      {
        "type": "node",
        "id": 6418985026,
        "lat": 12.9705176,
        "lon": 77.5760191,
        "tags": {
          "addr:housenumber": "29",
          "addr:street": "B.V.K. Iyengar Road",
          "name": "Mutha department stores",
          "shop": "department_store"
        }
      },
      {
        "type": "node",
        "id": 6418987489,
        "lat": 12.9715705,
        "lon": 77.5772659,
        "tags": {
          "amenity": "fast_food",
          "name": "Jodhpur Sweets"
        }
      },
      {
        "type": "node",
        "id": 6419008685,
        "lat": 12.9703241,
        "lon": 77.5760364,
        "tags": {
          "amenity": "fast_food",
          "name": "Kachori house"
        }
      },
      {
        "type": "node",
        "id": 6419008687,
        "lat": 12.9690365,
        "lon": 77.5768479,
        "tags": {
          "name": "Rukmini building",
          "shop": "department_store"
        }
      },
      {
        "type": "node",
        "id": 6419024189,
        "lat": 12.9717448,
        "lon": 77.5770331,
        "tags": {
          "amenity": "fast_food",
          "name": "Karnataka Chat"
        }
      },
      {
        "type": "node",
        "id": 6419027087,
        "lat": 12.9696813,
        "lon": 77.577009,
        "tags": {
          "addr:street": "A M line-A",
          "amenity": "fast_food",
          "name": "\u0939\u0928\u0941\u092e\u093e\u0928 \u091a\u093e\u091f\u094d\u0938",
          "name:en": "Hanuman chats"
        }
      },
      {
        "type": "node",
        "id": 6419044988,
        "lat": 12.9692985,
        "lon": 77.5793482,
        "tags": {
          "addr:street": "Avenue Road",
          "amenity": "bank",
          "brand": "Karur Vysya Bank",
          "brand:wikidata": "Q6373724",
          "name": "Karur Vysya Bank",
          "name:kn": "\u0c95\u0cb0\u0cc2\u0cb0\u0cc1 \u0cb5\u0cc8\u0cb6\u0ccd\u0caf \u0cac\u0ccd\u0caf\u0cbe\u0c82\u0c95\u0ccd"
        }
      },
      {
        "type": "node",
        "id": 6419044990,
        "lat": 12.9688815,
        "lon": 77.5791931,
        "tags": {
          "amenity": "atm",
          "brand": "ICICI Bank",
          "brand:wikidata": "Q1653258",
          "name": "ICICI Bank",
          "operator": "ICICI Bank",
          "operator:wikidata": "Q1653258",
          "short_name": "ICICI",
          "survey:date": "2022-07-17"
        }
      },
      {
        "type": "node",
        "id": 6419049986,
        "lat": 12.9709487,
        "lon": 77.578094,
        "tags": {
          "alt_name": "Haldiram",
          "amenity": "fast_food",
          "brand": "Haldiram's",
          "brand:wikidata": "Q17054442",
          "cuisine": "indian",
          "name": "Haldiram's",
          "shop": "confectionery",
          "takeaway": "yes"
        }
      },
      {
        "type": "node",
        "id": 6419052586,
        "lat": 12.9692487,
        "lon": 77.5794495,
        "tags": {
          "amenity": "atm",
          "brand": "IDFC First Bank",
          "brand:wikidata": "Q22031467",
          "check_date": "2022-07-17",
          "name": "IDFC First Bank",
          "operator": "IDFC First Bank",
          "operator:wikidata": "Q22031467",
          "survey:date": "2022-07-17"
        }
      },
      {
        "type": "node",
        "id": 6419052685,
        "lat": 12.9692728,
        "lon": 77.579469,
        "tags": {
          "amenity": "atm",
          "brand": "Canara Bank",
          "brand:en": "Canara Bank",
          "brand:hi": "\u0915\u0947\u0928\u0930\u093e \u092c\u0948\u0902\u0915",
          "brand:kn": "\u0c95\u0cc6\u0ca8\u0cb0\u0cbe \u0cac\u0ccd\u0caf\u0cbe\u0c82\u0c95\u0ccd",
          "brand:pa": "\u0a15\u0a47\u0a28\u0a30\u0a3e \u0a2c\u0a48\u0a02\u0a15",
          "brand:pnb": "\u06a9\u06cc\u0646\u0631\u0627 \u0628\u06cc\u0646\u06a9",
          "brand:ur": "\u06a9\u06cc\u0646\u0631\u0627 \u0628\u06cc\u0646\u06a9",
          "brand:wikidata": "Q2003777",
          "name": "Canara Bank",
          "name:en": "Canara Bank",
          "name:hi": "\u0915\u0947\u0928\u0930\u093e \u092c\u0948\u0902\u0915",
          "name:kn": "\u0c95\u0cc6\u0ca8\u0cb0\u0cbe \u0cac\u0ccd\u0caf\u0cbe\u0c82\u0c95\u0ccd",
          "name:pa": "\u0a15\u0a47\u0a28\u0a30\u0a3e \u0a2c\u0a48\u0a02\u0a15",
          "name:pnb": "\u06a9\u06cc\u0646\u0631\u0627 \u0628\u06cc\u0646\u06a9",
          "name:ur": "\u06a9\u06cc\u0646\u0631\u0627 \u0628\u06cc\u0646\u06a9",
          "operator": "Canara Bank",
          "operator:wikidata": "Q2003777"
        }
      },
      {
        "type": "node",
        "id": 6419052686,
        "lat": 12.9692389,
        "lon": 77.5795139,
        "tags": {
          "amenity": "bank",
          "brand": "Canara Bank",
          "brand:en": "Canara Bank",
          "brand:hi": "\u0915\u0947\u0928\u0930\u093e \u092c\u0948\u0902\u0915",
          "brand:kn": "\u0c95\u0cc6\u0ca8\u0cb0\u0cbe \u0cac\u0ccd\u0caf\u0cbe\u0c82\u0c95\u0ccd",
          "brand:pa": "\u0a15\u0a47\u0a28\u0a30\u0a3e \u0a2c\u0a48\u0a02\u0a15",
          "brand:pnb": "\u06a9\u06cc\u0646\u0631\u0627 \u0628\u06cc\u0646\u06a9",
          "brand:ur": "\u06a9\u06cc\u0646\u0631\u0627 \u0628\u06cc\u0646\u06a9",
          "brand:wikidata": "Q2003777",
          "brand:wikipedia": "en:Canara Bank",
          "brand:wikipedia:pa": "\u0a15\u0a47\u0a28\u0a30\u0a3e \u0a2c\u0a48\u0a02\u0a15",
          "name": "Canara Bank",
          "name:en": "Canara Bank",
          "name:hi": "\u0915\u0947\u0928\u0930\u093e \u092c\u0948\u0902\u0915",
          "name:kn": "\u0c95\u0cc6\u0ca8\u0cb0\u0cbe \u0cac\u0ccd\u0caf\u0cbe\u0c82\u0c95\u0ccd",
          "name:pa": "\u0a15\u0a47\u0a28\u0a30\u0a3e \u0a2c\u0a48\u0a02\u0a15",
          "name:pnb": "\u06a9\u06cc\u0646\u0631\u0627 \u0628\u06cc\u0646\u06a9",
          "name:ur": "\u06a9\u06cc\u0646\u0631\u0627 \u0628\u06cc\u0646\u06a9"
        }
      },
      {
        "type": "node",
        "id": 6419055686,
        "lat": 12.9697564,
        "lon": 77.5797471,
        "tags": {
          "addr:street": "Avenue Road",
          "amenity": "bank",
          "brand": "Indian Bank",
          "brand:wikidata": "Q2003789",
          "name": "Indian Bank",
          "name:kn": "\u0c87\u0c82\u0ca1\u0cbf\u0caf\u0ca8\u0ccd \u0cac\u0ccd\u0caf\u0cbe\u0c82\u0c95\u0ccd"
        }
      },
      {
        "type": "node",
        "id": 6419055687,
        "lat": 12.9692492,
        "lon": 77.5793602,
        "tags": {
          "addr:housenumber": "544",
          "addr:postcode": "560053",
          "addr:street": "Avenue Road",
          "amenity": "fast_food",
          "name": "Aradhana Gowri Condiments & Chats"
        }
      },
      {
        "type": "node",
        "id": 6938775840,
        "lat": 12.9711822,
        "lon": 77.5781228,
        "tags": {
          "addr:district": "Bengaluru Urban",
          "addr:full": "7Th Cross, Rangaswamy Temple Street",
          "addr:postcode": "560053",
          "addr:state": "Karnataka",
          "amenity": "hospital",
          "name": "Amar Hospital",
          "name:kn": "\u0c85\u0cae\u0cb0\u0ccd \u0c86\u0cb8\u0ccd\u0caa\u0ca4\u0ccd\u0cb0\u0cc6",
          "source": "OpenGovernmentData"
        }
      },
      {
        "type": "node",
        "id": 6938775851,
        "lat": 12.9583613,
        "lon": 77.5713274,
        "tags": {
          "addr:district": "Bengaluru Urban",
          "addr:full": "248,4 Th Main Road Chamarajpet",
          "addr:postcode": "560018",
          "addr:state": "Karnataka",
          "amenity": "clinic",
          "name": "Jubilee Nursing Home",
          "source": "OpenGovernmentData"
        }
      },
      {
        "type": "node",
        "id": 6944096791,
        "lat": 12.9717138,
        "lon": 77.5770294,
        "tags": {
          "addr:district": "Bengaluru Urban",
          "addr:full": "202/3 Mahesh Towers R T Street",
          "addr:postcode": "560053",
          "addr:state": "Karnataka",
          "amenity": "clinic",
          "name": "Mahesh Clinic",
          "source": "OpenGovernmentData"
        }
      },
      {
        "type": "node",
        "id": 6944128588,
        "lat": 12.9563016,
        "lon": 77.5747874,
        "tags": {
          "addr:district": "Bengaluru Urban",
          "addr:full": "K. R. Road, V. V. Puram",
          "addr:postcode": "560004",
          "addr:state": "Karnataka",
          "amenity": "hospital",
          "name": "Kims Hospital and Research Centre",
          "source": "OpenGovernmentData"
        }
      },
      {
        "type": "node",
        "id": 6944925493,
        "lat": 12.9563042,
        "lon": 77.5830996,
        "tags": {
          "addr:district": "Bengaluru Urban",
          "addr:full": "J.C.Road",
          "addr:postcode": "560002",
          "addr:state": "Karnataka",
          "amenity": "hospital",
          "name": "Bengaluru West Lions Hospital",
          "operator:type": "private",
          "source": "OpenGovernmentData",
          "website": "http://dpal.kar.nic.in/Kanunu%20padakosha%20PDF%20Files/Recognised%20Hospitals.pdf"
        }
      },
      {
        "type": "node",
        "id": 6945020140,
        "lat": 12.9685305,
        "lon": 77.5843965,
        "tags": {
          "addr:district": "Bengaluru Urban",
          "addr:full": "No 37, Next To Ganesha Temple Near Cubbonpet Market Near Cubbonpet Market",
          "addr:postcode": "560002",
          "addr:state": "Karnataka",
          "amenity": "hospital",
          "name": "Punarjyoti Eye Hospital, Bengaluru Urban",
          "source": "OpenGovernmentData"
        }
      },
      {
        "type": "node",
        "id": 6947682067,
        "lat": 12.9619528,
        "lon": 77.5728562,
        "tags": {
          "addr:district": "Bengaluru Urban",
          "addr:full": "Victoria Hospital Campus",
          "addr:postcode": "560002",
          "addr:state": "Karnataka",
          "amenity": "hospital",
          "healthcare": "hospital",
          "name": "Institute Of Nephro Urology hospital",
          "source": "OpenGovernmentData"
        }
      },
      {
        "type": "node",
        "id": 6950124308,
        "lat": 12.9543465,
        "lon": 77.5755649,
        "tags": {
          "addr:district": "Bengaluru Urban",
          "addr:full": "506, Aswathankatte Road V V Puram",
          "addr:postcode": "560004",
          "addr:state": "Karnataka",
          "amenity": "hospital",
          "name": "Venkateswara Hospital, Bengaluru Urban",
          "name:kn": "\u0cb5\u0cc6\u0c82\u0c95\u0c9f\u0cc7\u0cb6\u0ccd\u0cb5\u0cb0 \u0c86\u0cb8\u0ccd\u0caa\u0ca4\u0ccd\u0cb0\u0cc6",
          "source": "OpenGovernmentData"
        }
      },
      {
        "type": "node",
        "id": 7576958028,
        "lat": 12.9633185,
        "lon": 77.5790145,
        "tags": {
          "addr:district": "Bengaluru Urban",
          "addr:full": "Near Jamia Masjid, NR Road, Bengaluru",
          "addr:postcode": "560002",
          "addr:state": "Karnataka",
          "amenity": "hospital",
          "name": "Unani Hospital",
          "source": "Local Knowledge"
        }
      },
      {
        "type": "node",
        "id": 7576958029,
        "lat": 12.970483,
        "lon": 77.5789065,
        "tags": {
          "addr:district": "Bengaluru Urban",
          "addr:full": "Anchepet, Chickpet, Bengaluru",
          "addr:postcode": "560053",
          "addr:state": "Karnataka",
          "amenity": "clinic",
          "name": "Priya Clinic",
          "source": "Local Knowledge"
        }
      },
      {
        "type": "node",
        "id": 7576958054,
        "lat": 12.9712575,
        "lon": 77.5777304,
        "tags": {
          "addr:district": "Bengaluru Urban",
          "addr:full": "Rangaswamy Temple Road, Mamulpet, Bengaluru",
          "addr:postcode": "560053",
          "addr:state": "Karnataka",
          "amenity": "clinic",
          "name": "Sham Singh Clinic",
          "source": "Local Knowledge"
        }
      },
      {
        "type": "node",
        "id": 7576958086,
        "lat": 12.9702549,
        "lon": 77.5734571,
        "tags": {
          "addr:district": "Bengaluru Urban",
          "addr:full": "Santhusapet, Bengaluru",
          "addr:postcode": "560053",
          "addr:state": "Karnataka",
          "amenity": "hospital",
          "name": "Manavarthapet Pregnancy Hospital",
          "source": "Local Knowledge"
        }
      },
      {
        "type": "node",
        "id": 7576958114,
        "lat": 12.9690341,
        "lon": 77.57708,
        "tags": {
          "addr:district": "Bengaluru Urban",
          "addr:full": "Cubbon Pet Main Road, Cubbonpet, Bengaluru",
          "addr:postcode": "560002",
          "addr:state": "Karnataka",
          "amenity": "clinic",
          "healthcare": "clinic",
          "name": "Shyam Clinic",
          "source": "Local Knowledge"
        }
      },
      {
        "type": "node",
        "id": 8170392717,
        "lat": 12.9564805,
        "lon": 77.5828736,
        "tags": {
          "amenity": "pharmacy",
          "name": "Max Medicals"
        }
      },
      {
        "type": "node",
        "id": 9140200243,
        "lat": 12.9689448,
        "lon": 77.5842382,
        "tags": {
          "amenity": "cafe",
          "name": "Coffee"
        }
      },
      {
        "type": "node",
        "id": 9140200244,
        "lat": 12.9683717,
        "lon": 77.5844461,
        "tags": {
          "amenity": "fast_food",
          "cuisine": "regional",
          "name": "Chikkanna Tiffin Room",
          "takeaway": "yes"
        }
      },
      {
        "type": "node",
        "id": 9289356417,
        "lat": 12.9580517,
        "lon": 77.5824765,
        "tags": {
          "amenity": "restaurant",
          "name": "Udupi Sagar Veg Restaurant"
        }
      },
      {
        "type": "node",
        "id": 9531680758,
        "lat": 12.9559991,
        "lon": 77.5806662,
        "tags": {
          "amenity": "restaurant",
          "cuisine": "indian",
          "diet:non-vegetarian": "yes",
          "name": "Mayuri"
        }
      },
      {
        "type": "node",
        "id": 9893686519,
        "lat": 12.9686449,
        "lon": 77.5749197,
        "tags": {
          "amenity": "atm",
          "brand": "HDFC Bank",
          "brand:wikidata": "Q631047",
          "cash_in": "no",
          "check_date": "2025-08-23",
          "name": "HDFC Bank",
          "operator": "HDFC Bank",
          "operator:wikidata": "Q631047",
          "short_name": "HDFC",
          "survey:date": "2022-07-17"
        }
      },
      {
        "type": "node",
        "id": 10853089401,
        "lat": 12.9634257,
        "lon": 77.5842141,
        "tags": {
          "amenity": "bank",
          "atm": "yes",
          "brand": "Union Bank",
          "name": "Union Bank",
          "operator": "Union Bank"
        }
      },
      {
        "type": "node",
        "id": 10969398448,
        "lat": 12.965565,
        "lon": 77.5844677,
        "tags": {
          "amenity": "atm",
          "cash_in": "no",
          "check_date": "2023-06-11",
          "network": "DCB Bank",
          "operator": "DCB Bank",
          "source": "survey"
        }
      },
      {
        "type": "node",
        "id": 11178140427,
        "lat": 12.9603952,
        "lon": 77.5691466,
        "tags": {
          "amenity": "restaurant",
          "check_date": "2023-09-09",
          "name": "Bharathi Refreshments"
        }
      },
      {
        "type": "node",
        "id": 11178144186,
        "lat": 12.9571579,
        "lon": 77.5718768,
        "tags": {
          "addr:housenumber": "38/1",
          "addr:street": "Pampa Mahakavi Road",
          "addr:unit": "3",
          "amenity": "pharmacy",
          "check_date": "2023-09-09",
          "dispensing": "yes",
          "drive_through": "no",
          "healthcare": "pharmacy",
          "name": "Sri Lakshminarasimha Drug Centre"
        }
      },
      {
        "type": "node",
        "id": 11178144188,
        "lat": 12.9571591,
        "lon": 77.571976,
        "tags": {
          "amenity": "fast_food",
          "check_date": "2023-09-09",
          "cuisine": "regional",
          "diet:vegetarian": "yes",
          "drive_through": "no",
          "level": "0",
          "name": "Sri Sai Vasavi Tiffin Centre",
          "opening_hours": "Mo-Sa 06:00-21:30; Su off"
        }
      },
      {
        "type": "node",
        "id": 11178150971,
        "lat": 12.9571059,
        "lon": 77.5705359,
        "tags": {
          "amenity": "bank",
          "atm": "no",
          "branch": "Chamrajpet",
          "brand": "Karnataka Bank",
          "brand:wikidata": "Q2042632",
          "check_date": "2023-09-09",
          "drive_through": "no",
          "name": "Karnataka Bank",
          "name:kn": "\u0c95\u0cb0\u0ccd\u0ca8\u0cbe\u0c9f\u0c95 \u0cac\u0ccd\u0caf\u0cbe\u0c82\u0c95\u0ccd",
          "opening_hours": "Mo-Sa 10:00-14:00,14:30-16:00; Sa[2,4] off",
          "operator": "Karnataka Bank"
        }
      },
      {
        "type": "node",
        "id": 11296585668,
        "lat": 12.9554251,
        "lon": 77.5800148,
        "tags": {
          "amenity": "fast_food",
          "check_date": "2023-10-29",
          "name": "Coastrica Bar & Rest"
        }
      },
      {
        "type": "node",
        "id": 11304774639,
        "lat": 12.9675719,
        "lon": 77.5746436,
        "tags": {
          "amenity": "fast_food",
          "cuisine": "juice",
          "level": "0",
          "name": "The Cane Joint"
        }
      },
      {
        "type": "node",
        "id": 11304774640,
        "lat": 12.9697214,
        "lon": 77.5757325,
        "tags": {
          "amenity": "fast_food",
          "cuisine": "juice",
          "level": "0",
          "name": "Bhavani Juice Center"
        }
      },
      {
        "type": "node",
        "id": 11304774643,
        "lat": 12.9690078,
        "lon": 77.5750942,
        "tags": {
          "amenity": "restaurant",
          "level": "0;1",
          "name": "Hotel Raghavendra Prasanna",
          "wheelchair": "limited"
        }
      },
      {
        "type": "node",
        "id": 11331558610,
        "lat": 12.9589981,
        "lon": 77.5825067,
        "tags": {
          "amenity": "bank",
          "brand": "Union Bank of India",
          "brand:wikidata": "Q2004078",
          "name": "Union Bank of India"
        }
      },
      {
        "type": "node",
        "id": 11355730140,
        "lat": 12.9596838,
        "lon": 77.5829494,
        "tags": {
          "amenity": "bank",
          "brand": "Yes Bank",
          "brand:wikidata": "Q2040394",
          "check_date": "2023-11-16",
          "name": "Yes Bank"
        }
      },
      {
        "type": "node",
        "id": 11355730141,
        "lat": 12.9607154,
        "lon": 77.5835644,
        "tags": {
          "amenity": "bank",
          "brand": "State Bank of India",
          "brand:wikidata": "Q1340361",
          "check_date": "2023-11-16",
          "name": "State Bank of India",
          "name:kn": "\u0c8e\u0cb8\u0ccd \u0cac\u0cbf \u0c90",
          "short_name": "SBI"
        }
      },
      {
        "type": "node",
        "id": 11355774238,
        "lat": 12.9614194,
        "lon": 77.5751313,
        "tags": {
          "amenity": "atm",
          "brand": "State Bank of India",
          "brand:wikidata": "Q1340361",
          "check_date": "2023-11-16",
          "layer": "-1",
          "level": "-1",
          "operator": "State Bank of India",
          "operator:wikidata": "Q1340361",
          "short_name": "SBI"
        }
      },
      {
        "type": "node",
        "id": 11416992093,
        "lat": 12.9596245,
        "lon": 77.5832707,
        "tags": {
          "amenity": "bank",
          "brand": "HDFC Bank",
          "brand:wikidata": "Q631047",
          "check_date": "2023-12-14",
          "name": "HDFC Bank",
          "name:kn": "\u0c8e\u0c9a\u0ccd \u0ca1\u0cbf \u0c8e\u0cab\u0ccd \u0cb8\u0cbf",
          "short_name": "HDFC"
        }
      },
      {
        "type": "node",
        "id": 12135983674,
        "lat": 12.9613041,
        "lon": 77.5837721,
        "tags": {
          "amenity": "bank",
          "brand": "Dhanlaxmi Bank",
          "brand:wikidata": "Q2040440",
          "name": "Dhanlaxmi Bank",
          "name:kn": "\u0ca7\u0ca8\u0cb2\u0c95\u0ccd\u0cb7\u0ccd\u0cae\u0cbf \u0cac\u0ccd\u0caf\u0cbe\u0c82\u0c95\u0ccd"
        }
      },
      {
        "type": "node",
        "id": 12135983693,
        "lat": 12.9626393,
        "lon": 77.5857113,
        "tags": {
          "amenity": "fast_food",
          "name": "Ravindra Kalakshetra Canteen"
        }
      },
      {
        "type": "node",
        "id": 12541779301,
        "lat": 12.9569057,
        "lon": 77.5824398,
        "tags": {
          "amenity": "hospital",
          "name": "H Siddiah Referral Hospital"
        }
      },
      {
        "type": "node",
        "id": 12811493359,
        "lat": 12.9552932,
        "lon": 77.5800239,
        "tags": {
          "amenity": "atm",
          "name": "Kotak Mahindra Bank ATM"
        }
      },
      {
        "type": "node",
        "id": 12925420094,
        "lat": 12.9621663,
        "lon": 77.5717564,
        "tags": {
          "check_date": "2025-06-19",
          "name": "Chamundi Dry Fruits and Spices",
          "shop": "supermarket"
        }
      }
    ]
  },
  "pois_2_5km": {
    "version": 0.6,
    "generator": "Overpass API 0.7.62.8 e802775f",
    "osm3s": {
      "timestamp_osm_base": "2025-09-06T08:25:45Z",
      "copyright": "The data included in this document is from www.openstreetmap.org. The data is made available under ODbL."
    },
    "elements": [
      {
        "type": "node",
        "id": 246396993,
        "lat": 12.9783064,
        "lon": 77.5692678,
        "tags": {
          "name": "Bangalore City Junction",
          "public_transport": "stop_position",
          "railway": "stop",
          "ref": "SBC:1",
          "train": "yes"
        }
      },
      {
        "type": "node",
        "id": 320647365,
        "lat": 12.9642064,
        "lon": 77.5768931,
        "tags": {
          "bus": "yes",
          "crossing": "uncontrolled",
          "highway": "traffic_signals",
          "name": "KR Market",
          "name:en": "Krishnarajendra Market",
          "name:kn": "\u0c95\u0cc3\u0cb7\u0ccd\u0ca3\u0cb0\u0cbe\u0c9c\u0cc7\u0c82\u0ca6\u0ccd\u0cb0 \u0cae\u0cbe\u0cb0\u0cc1\u0c95\u0c9f\u0ccd\u0c9f\u0cc6",
          "network": "BMTC",
          "operator": "BMTC",
          "public_transport": "stop_position"
        }
      },
      {
        "type": "node",
        "id": 347295628,
        "lat": 12.9781831,
        "lon": 77.5717624,
        "tags": {
          "bus": "yes",
          "name": "Platform 28A",
          "operator": "BMTC",
          "public_transport": "stop_position"
        }
      },
      {
        "type": "node",
        "id": 347295648,
        "lat": 12.9783665,
        "lon": 77.5730556,
        "tags": {
          "bus": "yes",
          "name": "Platform 23",
          "operator": "BMTC",
          "public_transport": "stop_position"
        }
      },
      {
        "type": "node",
        "id": 429698093,
        "lat": 12.9766767,
        "lon": 77.5766838,
        "tags": {
          "amenity": "theatre",
          "name": "Gubbi Veerana Nataka",
          "name:kn": "\u0c97\u0cc1\u0cac\u0ccd\u0cac\u0cbf \u0cb5\u0cc0\u0cb0\u0ca3\u0ccd\u0ca3 \u0ca8\u0cbe\u0c9f\u0c95"
        }
      },
      {
        "type": "node",
        "id": 459815970,
        "lat": 12.9692233,
        "lon": 77.5984978,
        "tags": {
          "air_conditioning": "yes",
          "amenity": "theatre",
          "name": "Bishop George Edward Lynch Cotton Auditorium",
          "source": "local knowledge;survey",
          "website": "https://bishopcottonboysschool.edu.in/infrastructure",
          "wikimedia_commons": "File:Cottons_Auditorium.jpg"
        }
      },
      {
        "type": "node",
        "id": 568344479,
        "lat": 12.9779727,
        "lon": 77.5911088,
        "tags": {
          "code": "VDSA",
          "local_ref": "2",
          "name": "Dr. B. R. Ambedkar Station, Vidhana Soudha",
          "name:etymology:wikidata": "Q231690",
          "name:kn": "\u0cb5\u0cbf\u0ca7\u0cbe\u0ca8 \u0cb8\u0ccc\u0ca7",
          "network": "Namma Metro",
          "note": "Contributors are requested to not edit the \"network\" and the \"operator\" tags. (2023/11/08)",
          "operator": "Bangalore Metro Rail Corporation Limited",
          "public_transport": "stop_position",
          "public_transport:version": "2",
          "railway": "stop",
          "source": "http://www.bmrc.co.in/English/Network.htm",
          "subway": "yes",
          "to": "Challaghatta",
          "wheelchair": "yes"
        }
      },
      {
        "type": "node",
        "id": 594206377,
        "lat": 12.9571863,
        "lon": 77.5862334,
        "tags": {
          "addr:street": "Lalbagh Road",
          "amenity": "fuel",
          "brand": "Indian Oil",
          "brand:wikidata": "Q1289348",
          "brand:wikipedia": "en:Indian Oil Corporation",
          "name": "Indian Oil",
          "name:kn": "\u0c87\u0c82\u0ca1\u0cbf\u0caf\u0ca8\u0ccd \u0c86\u0caf\u0cbf\u0cb2\u0ccd"
        }
      },
      {
        "type": "node",
        "id": 663599423,
        "lat": 12.9725456,
        "lon": 77.5862547,
        "tags": {
          "addr:street": "Nrupathunga Road",
          "amenity": "theatre",
          "name": "Daly Memorial Hall"
        }
      },
      {
        "type": "node",
        "id": 665811373,
        "lat": 12.9737987,
        "lon": 77.5866865,
        "tags": {
          "bus": "yes",
          "name": "KR Circle",
          "name:en": "KR Circle",
          "name:kn": "\u0c95\u0cc3\u0cb7\u0ccd\u0ca3\u0cb0\u0cbe\u0c9c\u0cc7\u0c82\u0ca6\u0ccd\u0cb0 \u0cb5\u0cc3\u0ca4\u0ccd\u0ca4",
          "network": "BMTC",
          "operator": "BMTC",
          "public_transport": "stop_position"
        }
      },
      {
        "type": "node",
        "id": 806588782,
        "lat": 12.9783651,
        "lon": 77.5681771,
        "tags": {
          "name": "Bangalore City Junction",
          "name:kn": "\u0cac\u0cc6\u0c82\u0c97\u0cb3\u0cc2\u0cb0\u0cc1 \u0ca8\u0c97\u0cb0",
          "public_transport": "stop_position",
          "railway": "stop",
          "ref": "SBC:7",
          "train": "yes"
        }
      },
      {
        "type": "node",
        "id": 806588784,
        "lat": 12.9782669,
        "lon": 77.5689394,
        "tags": {
          "name": "Bangalore City Junction",
          "name:kn": "\u0cac\u0cc6\u0c82\u0c97\u0cb3\u0cc2\u0cb0\u0cc1 \u0ca8\u0c97\u0cb0",
          "public_transport": "stop_position",
          "railway": "stop",
          "ref": "SBC:4",
          "train": "yes"
        }
      },
      {
        "type": "node",
        "id": 806588786,
        "lat": 12.9783166,
        "lon": 77.5692242,
        "tags": {
          "name": "Bangalore City Junction",
          "name:kn": "\u0cac\u0cc6\u0c82\u0c97\u0cb3\u0cc2\u0cb0\u0cc1 \u0ca8\u0c97\u0cb0",
          "public_transport": "stop_position",
          "railway": "stop",
          "ref": "SBC:2",
          "train": "yes"
        }
      },
      {
        "type": "node",
        "id": 806588787,
        "lat": 12.9783553,
        "lon": 77.5682244,
        "tags": {
          "name": "Bangalore City Junction",
          "public_transport": "stop_position",
          "railway": "stop",
          "ref": "SBC:6",
          "train": "yes"
        }
      },
      {
        "type": "node",
        "id": 806588788,
        "lat": 12.9784008,
        "lon": 77.5678774,
        "tags": {
          "name": "Bangalore City Junction",
          "name:kn": "\u0cac\u0cc6\u0c82\u0c97\u0cb3\u0cc2\u0cb0\u0cc1 \u0ca8\u0c97\u0cb0",
          "public_transport": "stop_position",
          "railway": "stop",
          "ref": "SBC:10",
          "train": "yes"
        }
      },
      {
        "type": "node",
        "id": 806588789,
        "lat": 12.9784045,
        "lon": 77.568007,
        "tags": {
          "name": "Bangalore City Junction",
          "name:kn": "\u0cac\u0cc6\u0c82\u0c97\u0cb3\u0cc2\u0cb0\u0cc1 \u0ca8\u0c97\u0cb0",
          "public_transport": "stop_position",
          "railway": "stop",
          "ref": "SBC:9",
          "train": "yes"
        }
      },
      {
        "type": "node",
        "id": 806588796,
        "lat": 12.9783992,
        "lon": 77.568046,
        "tags": {
          "name": "Bangalore City Junction",
          "name:kn": "\u0cac\u0cc6\u0c82\u0c97\u0cb3\u0cc2\u0cb0\u0cc1 \u0ca8\u0c97\u0cb0 \u0cb0\u0cc8\u0cb2\u0cc1 \u0ca8\u0cbf\u0cb2\u0ccd\u0ca6\u0cbe\u0ca3",
          "public_transport": "stop_position",
          "railway": "stop",
          "ref": "SBC:8",
          "train": "yes"
        }
      },
      {
        "type": "node",
        "id": 806588798,
        "lat": 12.9782835,
        "lon": 77.5685839,
        "tags": {
          "name": "Bangalore City Junction",
          "name:kn": "\u0cac\u0cc6\u0c82\u0c97\u0cb3\u0cc2\u0cb0\u0cc1 \u0ca8\u0c97\u0cb0",
          "public_transport": "stop_position",
          "railway": "stop",
          "ref": "SBC:5",
          "train": "yes"
        }
      },
      {
        "type": "node",
        "id": 1060580206,
        "lat": 12.9677686,
        "lon": 77.569887,
        "tags": {
          "amenity": "cinema",
          "name": "Super talkies"
        }
      },
      {
        "type": "node",
        "id": 1087823607,
        "lat": 12.9745014,
        "lon": 77.5842326,
        "tags": {
          "alt_name": "Central College",
          "code": "VSWA",
          "name": "Sir M. Visvesvaraya Stn., Central College",
          "name:kn": "\u0cb5\u0cbf\u0cb6\u0ccd\u0cb5\u0cc7\u0cb6\u0ccd\u0cb5\u0cb0\u0caf\u0ccd\u0caf",
          "network": "Namma Metro",
          "note": "Contributors are requested to not edit the \"network\" and the \"operator\" tags. (2023/11/08)",
          "operator": "Bangalore Metro Rail Corporation Limited",
          "platforms": "2",
          "public_transport": "stop_position",
          "public_transport:version": "2",
          "railway": "stop",
          "source": "http://www.bmrc.co.in/English/Network.htm",
          "subway": "yes",
          "wheelchair": "yes"
        }
      },
      {
        "type": "node",
        "id": 1437223296,
        "lat": 12.9465345,
        "lon": 77.5800377,
        "tags": {
          "code": "LBGH",
          "name": "Lalbagh",
          "name:hi": "\u0932\u093e\u0932\u092c\u093e\u0917\u093c",
          "name:kn": "\u0cb2\u0cbe\u0cb2\u0ccd \u0cac\u0cbe\u0c97\u0ccd",
          "network": "Namma Metro",
          "note": "Contributors are requested to not edit the \"network\" and the \"operator\" tags. (2023/11/08)",
          "operator": "Bangalore Metro Rail Corporation Limited",
          "platforms": "2",
          "public_transport": "stop_position",
          "public_transport:version": "2",
          "railway": "stop",
          "source": "http://www.bmrc.co.in/English/Network.htm",
          "subway": "yes",
          "wheelchair": "yes"
        }
      },
      {
        "type": "node",
        "id": 1449021351,
        "lat": 12.9420282,
        "lon": 77.5802856,
        "tags": {
          "addr:city": "Bangalore",
          "addr:postcode": "560004",
          "addr:street": "Rashtriya Vidyalaya Road",
          "amenity": "fuel",
          "brand": "Indian Oil",
          "brand:wikidata": "Q1289348",
          "brand:wikipedia": "en:Indian Oil Corporation",
          "compressed_air": "yes",
          "name": "Indian Oil",
          "name:kn": "\u0c87\u0c82\u0ca1\u0cbf\u0caf\u0ca8\u0ccd \u0c86\u0caf\u0cbf\u0cb2\u0ccd"
        }
      },
      {
        "type": "node",
        "id": 1473921794,
        "lat": 12.9462008,
        "lon": 77.5679859,
        "tags": {
          "amenity": "fuel",
          "brand": "Indian Oil",
          "brand:wikidata": "Q1289348",
          "name": "Bull Temple Filling Station"
        }
      },
      {
        "type": "node",
        "id": 1524381509,
        "lat": 12.9505258,
        "lon": 77.573712,
        "tags": {
          "code": "NLC",
          "name": "National College",
          "name:kn": "\u0cb0\u0cbe\u0cb7\u0ccd\u0c9f\u0ccd\u0cb0\u0cc0\u0caf \u0c95\u0cbe\u0cb2\u0cc7\u0c9c\u0cc1",
          "network": "Namma Metro",
          "note": "Contributors are requested to not edit the \"network\" and the \"operator\" tags. (2023/11/08)",
          "operator": "Bangalore Metro Rail Corporation Limited",
          "platforms": "2",
          "public_transport": "stop_position",
          "public_transport:version": "2",
          "railway": "stop",
          "source": "http://www.bmrc.co.in/English/Network.htm",
          "subway": "yes",
          "wheelchair": "yes"
        }
      },
      {
        "type": "node",
        "id": 1524381523,
        "lat": 12.9608898,
        "lon": 77.5746822,
        "tags": {
          "code": "KRMT",
          "name": "Krishna Rajendra Market",
          "name:kn": "\u0c95\u0cc3\u0cb7\u0ccd\u0ca3\u0cb0\u0cbe\u0c9c\u0cc7\u0c82\u0ca6\u0ccd\u0cb0 \u0cae\u0cbe\u0cb0\u0cc1\u0c95\u0c9f\u0ccd\u0c9f\u0cc6",
          "network": "Namma Metro",
          "note": "Contributors are requested to not edit the \"network\" and the \"operator\" tags. (2023/11/08)",
          "operator": "Bangalore Metro Rail Corporation Limited",
          "platforms": "2",
          "public_transport": "stop_position",
          "public_transport:version": "2",
          "railway": "stop",
          "short_name": "K R Market",
          "source": "http://www.bmrc.co.in/English/Network.htm",
          "subway": "yes",
          "wheelchair": "yes",
          "wikidata": "Q24912918",
          "wikipedia": "en:Krishna Rajendra Market metro station"
        }
      },
      {
        "type": "node",
        "id": 1548300484,
        "lat": 12.966924,
        "lon": 77.5745737,
        "tags": {
          "code": "CKPE",
          "name": "Chickpete",
          "name:hi": "\u091a\u093f\u0915\u092a\u0947\u091f\u0947",
          "name:kn": "\u0c9a\u0cbf\u0c95\u0ccd\u0c95\u0caa\u0cc7\u0c9f\u0cc6",
          "network": "Namma Metro",
          "note": "Contributors are requested to not edit the \"network\" and the \"operator\" tags. (2023/11/08)",
          "operator": "Bangalore Metro Rail Corporation Limited",
          "public_transport": "stop_position",
          "public_transport:version": "2",
          "railway": "stop",
          "source": "http://www.bmrc.co.in/English/Network.htm",
          "subway": "yes",
          "wheelchair": "yes"
        }
      },
      {
        "type": "node",
        "id": 1560067666,
        "lat": 12.9758581,
        "lon": 77.5653792,
        "tags": {
          "code": "BRCS",
          "name": "Krantivira Sangolli Rayanna Railway Station",
          "name:kn": "\u0ca8\u0c97\u0cb0 \u0cb0\u0cc8\u0cb2\u0cc1 \u0ca8\u0cbf\u0cb2\u0ccd\u0ca6\u0cbe\u0ca3",
          "network": "Namma Metro",
          "note": "Contributors are requested to not edit the \"network\" and the \"operator\" tags. (2023/11/08)",
          "operator": "Bangalore Metro Rail Corporation Limited",
          "platforms": "2",
          "public_transport": "stop_position",
          "public_transport:version": "2",
          "railway": "stop",
          "source": "http://www.bmrc.co.in/English/Network.htm",
          "subway": "yes",
          "wheelchair": "yes",
          "wikidata": "Q39070950",
          "wikipedia": "en:City Railway Station metro station (Bangalore)"
        }
      },
      {
        "type": "node",
        "id": 1617398481,
        "lat": 12.9596642,
        "lon": 77.5829322,
        "tags": {
          "amenity": "fuel",
          "brand": "BP"
        }
      },
      {
        "type": "node",
        "id": 1782176660,
        "lat": 12.9571508,
        "lon": 77.5624395,
        "tags": {
          "amenity": "fuel",
          "brand": "Indian Oil",
          "brand:wikidata": "Q1289348",
          "fuel:1_25": "no",
          "fuel:GTL_diesel": "no",
          "fuel:HGV_diesel": "yes",
          "fuel:biodiesel": "no",
          "fuel:biogas": "no",
          "fuel:cng": "no",
          "fuel:diesel": "yes",
          "fuel:e10": "no",
          "fuel:e85": "no",
          "fuel:electricity": "no",
          "fuel:lpg": "yes",
          "fuel:octane_100": "no",
          "fuel:octane_91": "yes",
          "fuel:octane_95": "no",
          "fuel:octane_98": "no",
          "name": "Anjandri Petrol / Gas Station",
          "toilets:wheelchair": "no",
          "wheelchair": "yes"
        }
      },
      {
        "type": "node",
        "id": 1791587673,
        "lat": 12.9554779,
        "lon": 77.5733626,
        "tags": {
          "addr:street": "Krishna Rajendra Road",
          "amenity": "theatre",
          "name": "Gayana Samaja",
          "name:kn": "\u0c97\u0cbe\u0caf\u0ca8 \u0cb8\u0cae\u0cbe\u0c9c",
          "wheelchair": "no"
        }
      },
      {
        "type": "node",
        "id": 1806966554,
        "lat": 12.9672844,
        "lon": 77.57,
        "tags": {
          "amenity": "fuel",
          "brand": "AEGIS AUTO GAS",
          "fuel:1_25": "no",
          "fuel:1_50": "no",
          "fuel:GTL_diesel": "no",
          "fuel:HGV_diesel": "no",
          "fuel:biodiesel": "no",
          "fuel:biogas": "no",
          "fuel:cng": "no",
          "fuel:diesel": "no",
          "fuel:e10": "no",
          "fuel:e85": "no",
          "fuel:electricity": "no",
          "fuel:lpg": "yes",
          "fuel:octane_100": "no",
          "fuel:octane_91": "no",
          "fuel:octane_95": "no",
          "fuel:octane_98": "no",
          "name": "Shree Krishna Auto Gas",
          "wheelchair": "yes"
        }
      },
      {
        "type": "node",
        "id": 1836940205,
        "lat": 12.9495184,
        "lon": 77.5799728,
        "tags": {
          "bus": "yes",
          "name": "Lalbagh West Gate, V V Puram",
          "name:en": "Lalbagh West Gate, V V Puram",
          "network": "BMTC",
          "operator": "BMTC",
          "public_transport": "stop_position"
        }
      },
      {
        "type": "node",
        "id": 2057197603,
        "lat": 12.9479149,
        "lon": 77.5794869,
        "tags": {
          "amenity": "fuel",
          "brand": "Bharat Petroleum",
          "brand:wikidata": "Q854826",
          "name": "Bharat Petroleum",
          "name:kn": "\u0cad\u0cbe\u0cb0\u0ca4\u0ccd \u0caa\u0cc6\u0c9f\u0ccd\u0cb0\u0ccb\u0cb2\u0cbf\u0caf\u0c82",
          "operator": "Bharat Petroleum"
        }
      },
      {
        "type": "node",
        "id": 2466476118,
        "lat": 12.9765112,
        "lon": 77.5799146,
        "tags": {
          "amenity": "fuel",
          "brand": "Bharat Petroleum",
          "brand:wikidata": "Q854826",
          "check_date": "2024-03-02",
          "compressed_air": "yes",
          "name": "Bharat Petroleum",
          "operator": "Chanders"
        }
      },
      {
        "type": "node",
        "id": 2476128053,
        "lat": 12.9782608,
        "lon": 77.5729,
        "tags": {
          "bus": "yes",
          "name": "Platform 12",
          "operator": "BMTC",
          "public_transport": "stop_position"
        }
      },
      {
        "type": "node",
        "id": 2669084978,
        "lat": 12.9781739,
        "lon": 77.5695603,
        "tags": {
          "internet_access": "wlan",
          "name": "Krantivira Sangolli Rayanna (Bengaluru)",
          "name:kn": "\u0c95\u0ccd\u0cb0\u0cbe\u0c82\u0ca4\u0cbf\u0cb5\u0cc0\u0cb0 \u0cb8\u0c82\u0c97\u0cca\u0cb3\u0ccd\u0cb3\u0cbf \u0cb0\u0cbe\u0caf\u0ca3\u0ccd\u0ca3 \u0cb0\u0cc8\u0cb2\u0ccd\u0cb5\u0cc6 \u0ca8\u0cbf\u0cb2\u0ccd\u0ca6\u0cbe\u0ca3",
          "name:ml": "\u0d15\u0d4d\u0d30\u0d3e\u0d28\u0d4d\u0d24\u0d3f\u0d35\u0d40\u0d30 \u0d38\u0d19\u0d4d\u0d15\u0d4a\u0d32\u0d4d\u0d32\u0d3f \u0d30\u0d3e\u0d2f\u0d23\u0d4d\u0d23 \u0d31\u0d46\u0d2f\u0d3f\u0d7d\u0d35\u0d47 \u0d38\u0d4d\u0d31\u0d4d\u0d31\u0d47\u0d37\u0d7b",
          "name:te": "\u0c15\u0c4d\u0c30\u0c3e\u0c02\u0c24\u0c3f\u0c35\u0c40\u0c30 \u0c38\u0c02\u0c17\u0c4a\u0c32\u0c4d\u0c32\u0c3f \u0c30\u0c3e\u0c2f\u0c28\u0c4d\u0c28 \u0c30\u0c48\u0c32\u0c4d\u0c35\u0c47 \u0c38\u0c4d\u0c1f\u0c47\u0c37\u0c28\u0c4d",
          "network": "IR",
          "old_name": "Bangalore City Junction",
          "operator": "SWR",
          "public_transport": "station",
          "railway": "station",
          "ref": "SBC",
          "short_name": "KSR Bengaluru",
          "wheelchair": "yes",
          "wikidata": "Q3633970"
        }
      },
      {
        "type": "node",
        "id": 3755608905,
        "lat": 12.9786086,
        "lon": 77.5725521,
        "tags": {
          "bus": "yes",
          "name": "Platform 21",
          "operator": "BMTC",
          "public_transport": "stop_position"
        }
      },
      {
        "type": "node",
        "id": 3875744057,
        "lat": 12.9777644,
        "lon": 77.5728494,
        "tags": {
          "bus": "yes",
          "name": "Platform 1",
          "name:kn": "\u0c85\u0c82\u0c95\u0ca3 \u0ce7",
          "operator": "BMTC",
          "public_transport": "stop_position"
        }
      },
      {
        "type": "node",
        "id": 3875744058,
        "lat": 12.9779442,
        "lon": 77.5727259,
        "tags": {
          "bus": "yes",
          "name": "Platform 2",
          "name:kn": "\u0c85\u0c82\u0c95\u0ca3 \u0ce8",
          "operator": "BMTC",
          "public_transport": "stop_position"
        }
      },
      {
        "type": "node",
        "id": 3875768038,
        "lat": 12.9780562,
        "lon": 77.5725348,
        "tags": {
          "bus": "yes",
          "name": "Platform 3",
          "name:kn": "\u0c85\u0c82\u0c95\u0ca3 \u0ce9",
          "operator": "BMTC",
          "public_transport": "stop_position"
        }
      },
      {
        "type": "node",
        "id": 3875768039,
        "lat": 12.9780653,
        "lon": 77.5722489,
        "tags": {
          "bus": "yes",
          "name": "Platform 3A",
          "operator": "BMTC",
          "public_transport": "stop_position"
        }
      },
      {
        "type": "node",
        "id": 3875768040,
        "lat": 12.9779148,
        "lon": 77.571813,
        "tags": {
          "bus": "yes",
          "name": "Platform 5",
          "name:kn": "\u0c85\u0c82\u0c95\u0ca3 \u0ceb",
          "operator": "BMTC",
          "public_transport": "stop_position"
        }
      },
      {
        "type": "node",
        "id": 3875790066,
        "lat": 12.9780458,
        "lon": 77.5719149,
        "tags": {
          "bus": "yes",
          "name": "Platform 6",
          "name:kn": "\u0cb5\u0cc7\u0ca6\u0cbf\u0c95\u0cc6 \u0cec",
          "operator": "BMTC",
          "public_transport": "stop_position"
        }
      },
      {
        "type": "node",
        "id": 3875790067,
        "lat": 12.9781429,
        "lon": 77.5720401,
        "tags": {
          "bus": "yes",
          "name": "Platform 6A",
          "name:kn": "\u0cb5\u0cc7\u0ca6\u0cbf\u0c95\u0cc6 \u0cec\u0c8e",
          "operator": "BMTC",
          "public_transport": "stop_position"
        }
      },
      {
        "type": "node",
        "id": 3875790068,
        "lat": 12.9781992,
        "lon": 77.5721632,
        "tags": {
          "bus": "yes",
          "name": "Platform 7",
          "name:kn": "\u0cb5\u0cc7\u0ca6\u0cbf\u0c95\u0cc6 \u0ced",
          "operator": "BMTC",
          "public_transport": "stop_position"
        }
      },
      {
        "type": "node",
        "id": 3875790069,
        "lat": 12.9782295,
        "lon": 77.5722952,
        "tags": {
          "bus": "yes",
          "name": "Platform 8",
          "name:kn": "\u0cb5\u0cc7\u0ca6\u0cbf\u0c95\u0cc6 \u0cee",
          "operator": "BMTC",
          "public_transport": "stop_position"
        }
      },
      {
        "type": "node",
        "id": 3875790070,
        "lat": 12.9782221,
        "lon": 77.5725112,
        "tags": {
          "bus": "yes",
          "name": "Platform 8A",
          "name:kn": "\u0cb5\u0cc7\u0ca6\u0cbf\u0c95\u0cc6 \u0cee\u0c8e",
          "operator": "BMTC",
          "public_transport": "stop_position"
        }
      },
      {
        "type": "node",
        "id": 4128058314,
        "lat": 12.9554504,
        "lon": 77.574569,
        "tags": {
          "amenity": "theatre"
        }
      },
      {
        "type": "node",
        "id": 4130913293,
        "lat": 12.9602862,
        "lon": 77.5570381,
        "tags": {
          "amenity": "fuel",
          "brand": "Bharat Petroleum",
          "brand:wikidata": "Q854826",
          "compressed_air": "no",
          "name": "Bharat Petroleum",
          "name:kn": "\u0cad\u0cbe\u0cb0\u0ca4\u0ccd \u0caa\u0cc6\u0c9f\u0ccd\u0cb0\u0ccb\u0cb2\u0cbf\u0caf\u0c82"
        }
      },
      {
        "type": "node",
        "id": 4130960190,
        "lat": 12.965813,
        "lon": 77.5622167,
        "tags": {
          "addr:street": "Tank Bund Road",
          "amenity": "cinema",
          "brand": "Cinepolis",
          "brand:wikidata": "Q5686673",
          "name": "Cinepolis ETA Mall"
        }
      },
      {
        "type": "node",
        "id": 4395689916,
        "lat": 12.9650035,
        "lon": 77.6001039,
        "tags": {
          "amenity": "theatre",
          "name": "Montgomery Hall",
          "name:en": "Montgomery Hall"
        }
      },
      {
        "type": "node",
        "id": 4824986021,
        "lat": 12.9434017,
        "lon": 77.5771336,
        "tags": {
          "amenity": "fuel",
          "brand": "Bharat Petroleum",
          "brand:wikidata": "Q854826",
          "name": "Bharat Petroleum",
          "name:en": "Bharat Petroleum",
          "name:kn": "\u0cad\u0cbe\u0cb0\u0ca4\u0ccd \u0caa\u0cc6\u0c9f\u0ccd\u0cb0\u0ccb\u0cb2\u0cbf\u0caf\u0c82"
        }
      },
      {
        "type": "node",
        "id": 5305932617,
        "lat": 12.9756704,
        "lon": 77.5728057,
        "tags": {
          "alt_name": "Majestic Metro Station",
          "code": "KGWA",
          "layer": "-1",
          "level": "-1",
          "name": "Nadaprabhu Kempegowda Station, Majestic (Purple Line)",
          "name:etymology:wikidata": "Q6387049",
          "name:kn": "\u0c95\u0cc6\u0c82\u0caa\u0cc7\u0c97\u0ccc\u0ca1",
          "network": "Namma Metro",
          "note": "Contributors are requested to not edit the \"network\" and the \"operator\" tags. (2023/11/08)",
          "operator": "Bangalore Metro Rail Corporation Limited",
          "public_transport": "stop_position",
          "public_transport:version": "2",
          "railway": "stop",
          "source": "http://www.bmrc.co.in/English/Network.htm",
          "subway": "yes",
          "wheelchair": "yes"
        }
      },
      {
        "type": "node",
        "id": 5335240455,
        "lat": 12.9771006,
        "lon": 77.5857758,
        "tags": {
          "bus": "yes",
          "highway": "bus_stop",
          "name": "Maharani College, KR Circle",
          "network": "BMTC",
          "network:wikidata": "Q3345039",
          "operator": "BMTC",
          "public_transport": "stop_position"
        }
      },
      {
        "type": "node",
        "id": 5358355670,
        "lat": 12.9488622,
        "lon": 77.5676519,
        "tags": {
          "bus": "yes",
          "name": "Ramakrishna Ashrama, Gavipuram Extention",
          "name:en": "Ramakrishna Ashrama, Gavipuram Extention",
          "network": "BMTC",
          "operator": "BMTC",
          "public_transport": "stop_position"
        }
      },
      {
        "type": "node",
        "id": 5464787094,
        "lat": 12.9750646,
        "lon": 77.5730388,
        "tags": {
          "alt_name": "Majestic Metro Station",
          "code": "KGWA",
          "layer": "-2",
          "level": "-2",
          "name": "Nadaprabhu Kempegowda Station, Majestic (Green Line)",
          "name:etymology:wikidata": "Q6387049",
          "name:kn": "\u0c95\u0cc6\u0c82\u0caa\u0cc7\u0c97\u0ccc\u0ca1",
          "network": "Namma Metro",
          "note": "Contributors are requested to not edit the \"network\" and the \"operator\" tags. (2023/11/08)",
          "operator": "Bangalore Metro Rail Corporation Limited",
          "public_transport": "stop_position",
          "public_transport:version": "2",
          "railway": "stop",
          "source": "http://www.bmrc.co.in/English/Network.htm",
          "subway": "yes",
          "wheelchair": "yes"
        }
      },
      {
        "type": "node",
        "id": 5558684094,
        "lat": 12.9612109,
        "lon": 77.5750888,
        "tags": {
          "alt_name": "Veterinary Hospital",
          "bus": "yes",
          "name": "KR Market",
          "name:en": "KR Market",
          "name:kn": "\u0c95\u0cc3\u0cb7\u0ccd\u0ca3\u0cb0\u0cbe\u0c9c\u0cc7\u0c82\u0ca6\u0ccd\u0cb0 \u0cae\u0cbe\u0cb0\u0cc1\u0c95\u0c9f\u0ccd\u0c9f\u0cc6",
          "public_transport": "stop_position"
        }
      },
      {
        "type": "node",
        "id": 5560544561,
        "lat": 12.9678731,
        "lon": 77.5906692,
        "tags": {
          "bus": "yes",
          "name": "Hudson Circle",
          "name:en": "Hudson Circle",
          "name:kn": "\u0cb9\u0ca1\u0ccd\u0cb8\u0ca8\u0ccd \u0cb5\u0cc3\u0ca4\u0ccd\u0ca4",
          "network": "BMTC",
          "operator": "BMTC",
          "public_transport": "stop_position"
        }
      },
      {
        "type": "node",
        "id": 5560544562,
        "lat": 12.9544238,
        "lon": 77.5925051,
        "tags": {
          "bus": "yes",
          "name": "Shantinagara TTMC",
          "name:en": "Shantinagara TTMC",
          "name:kn": "\u0cb6\u0cbe\u0c82\u0ca4\u0cbf\u0ca8\u0c97\u0cb0",
          "network": "BMTC",
          "operator": "BMTC",
          "public_transport": "stop_position"
        }
      },
      {
        "type": "node",
        "id": 5760197788,
        "lat": 12.9759026,
        "lon": 77.5653744,
        "tags": {
          "code": "BRCS",
          "name": "Krantivira Sangolli Rayanna Railway Station",
          "name:kn": "\u0ca8\u0c97\u0cb0 \u0cb0\u0cc8\u0cb2\u0cc1 \u0ca8\u0cbf\u0cb2\u0ccd\u0ca6\u0cbe\u0ca3",
          "network": "Namma Metro",
          "note": "Contributors are requested to not edit the \"network\" and the \"operator\" tags. (2023/11/08)",
          "operator": "Bangalore Metro Rail Corporation Limited",
          "platforms": "2",
          "public_transport": "stop_position",
          "public_transport:version": "2",
          "railway": "stop",
          "source": "http://www.bmrc.co.in/English/Network.htm",
          "subway": "yes",
          "wheelchair": "yes",
          "wikidata": "Q39070950",
          "wikipedia": "en:City Railway Station metro station (Bangalore)"
        }
      },
      {
        "type": "node",
        "id": 5760197799,
        "lat": 12.978996,
        "lon": 77.591831,
        "tags": {
          "code": "VDSA",
          "local_ref": "1",
          "name": "Dr. B. R. Ambedkar Station, Vidhana Soudha",
          "name:etymology:wikidata": "Q231690",
          "name:kn": "\u0cb5\u0cbf\u0ca7\u0cbe\u0ca8 \u0cb8\u0ccc\u0ca7",
          "network": "Namma Metro",
          "note": "Contributors are requested to not edit the \"network\" and the \"operator\" tags. (2023/11/08)",
          "operator": "Bangalore Metro Rail Corporation Limited",
          "public_transport": "stop_position",
          "public_transport:version": "2",
          "railway": "stop",
          "source": "http://www.bmrc.co.in/English/Network.htm",
          "subway": "yes",
          "to": "Whitefield (Kadugodi)",
          "wheelchair": "yes"
        }
      },
      {
        "type": "node",
        "id": 5760197800,
        "lat": 12.9757512,
        "lon": 77.5730887,
        "tags": {
          "alt_name": "Majestic Metro Station",
          "code": "KGWA",
          "layer": "-1",
          "level": "-1",
          "name": "Nadaprabhu Kempegowda Station, Majestic (Purple Line)",
          "name:etymology:wikidata": "Q6387049",
          "name:kn": "\u0c95\u0cc6\u0c82\u0caa\u0cc7\u0c97\u0ccc\u0ca1",
          "network": "Namma Metro",
          "note": "Contributors are requested to not edit the \"network\" and the \"operator\" tags. (2023/11/08)",
          "operator": "Bangalore Metro Rail Corporation Limited",
          "public_transport": "stop_position",
          "public_transport:version": "2",
          "railway": "stop",
          "source": "http://www.bmrc.co.in/English/Network.htm",
          "subway": "yes",
          "wheelchair": "yes"
        }
      },
      {
        "type": "node",
        "id": 5760197802,
        "lat": 12.9745398,
        "lon": 77.584209,
        "tags": {
          "alt_name": "Central College",
          "code": "VSWA",
          "name": "Sir M. Visvesvaraya Stn., Central College",
          "name:kn": "\u0cb5\u0cbf\u0cb6\u0ccd\u0cb5\u0cc7\u0cb6\u0ccd\u0cb5\u0cb0\u0caf\u0ccd\u0caf",
          "network": "Namma Metro",
          "note": "Contributors are requested to not edit the \"network\" and the \"operator\" tags. (2023/11/08)",
          "operator": "Bangalore Metro Rail Corporation Limited",
          "platforms": "2",
          "public_transport": "stop_position",
          "public_transport:version": "2",
          "railway": "stop",
          "source": "http://www.bmrc.co.in/English/Network.htm",
          "subway": "yes",
          "wheelchair": "yes"
        }
      },
      {
        "type": "node",
        "id": 5760198468,
        "lat": 12.9759557,
        "lon": 77.5728675,
        "tags": {
          "alt_name": "Majestic Metro Station",
          "code": "KGWA",
          "layer": "-2",
          "level": "-2",
          "name": "Nadaprabhu Kempegowda Station, Majestic (Green Line)",
          "name:etymology:wikidata": "Q6387049",
          "name:kn": "\u0c95\u0cc6\u0c82\u0caa\u0cc7\u0c97\u0ccc\u0ca1",
          "network": "Namma Metro",
          "note": "Contributors are requested to not edit the \"network\" and the \"operator\" tags. (2023/11/08)",
          "operator": "Bangalore Metro Rail Corporation Limited",
          "public_transport": "stop_position",
          "public_transport:version": "2",
          "railway": "stop",
          "source": "http://www.bmrc.co.in/English/Network.htm",
          "subway": "yes",
          "wheelchair": "yes"
        }
      },
      {
        "type": "node",
        "id": 5760198469,
        "lat": 12.9669249,
        "lon": 77.5745314,
        "tags": {
          "code": "CKPE",
          "name": "Chickpete",
          "name:hi": "\u091a\u093f\u0915\u092a\u0947\u091f\u0947",
          "name:kn": "\u0c9a\u0cbf\u0c95\u0ccd\u0c95\u0caa\u0cc7\u0c9f\u0cc6",
          "network": "Namma Metro",
          "note": "Contributors are requested to not edit the \"network\" and the \"operator\" tags. (2023/11/08)",
          "operator": "Bangalore Metro Rail Corporation Limited",
          "public_transport": "stop_position",
          "public_transport:version": "2",
          "railway": "stop",
          "source": "http://www.bmrc.co.in/English/Network.htm",
          "subway": "yes",
          "wheelchair": "yes"
        }
      },
      {
        "type": "node",
        "id": 5760198472,
        "lat": 12.9465339,
        "lon": 77.5799954,
        "tags": {
          "code": "LBGH",
          "name": "Lalbagh",
          "name:hi": "\u0932\u093e\u0932\u092c\u093e\u0917\u093c",
          "name:kn": "\u0cb2\u0cbe\u0cb2\u0ccd \u0cac\u0cbe\u0c97\u0ccd",
          "network": "Namma Metro",
          "note": "Contributors are requested to not edit the \"network\" and the \"operator\" tags. (2023/11/08)",
          "operator": "Bangalore Metro Rail Corporation Limited",
          "platforms": "2",
          "public_transport": "stop_position",
          "public_transport:version": "2",
          "railway": "stop",
          "source": "http://www.bmrc.co.in/English/Network.htm",
          "subway": "yes",
          "wheelchair": "yes"
        }
      },
      {
        "type": "node",
        "id": 5760198473,
        "lat": 12.960896,
        "lon": 77.5746404,
        "tags": {
          "code": "KRMT",
          "name": "Krishna Rajendra Market",
          "name:kn": "\u0c95\u0cc3\u0cb7\u0ccd\u0ca3\u0cb0\u0cbe\u0c9c\u0cc7\u0c82\u0ca6\u0ccd\u0cb0 \u0cae\u0cbe\u0cb0\u0cc1\u0c95\u0c9f\u0ccd\u0c9f\u0cc6",
          "network": "Namma Metro",
          "note": "Contributors are requested to not edit the \"network\" and the \"operator\" tags. (2023/11/08)",
          "operator": "Bangalore Metro Rail Corporation Limited",
          "platforms": "2",
          "public_transport": "stop_position",
          "public_transport:version": "2",
          "railway": "stop",
          "short_name": "K R Market",
          "source": "http://www.bmrc.co.in/English/Network.htm",
          "subway": "yes",
          "wheelchair": "yes",
          "wikidata": "Q24912918",
          "wikipedia": "en:Krishna Rajendra Market metro station"
        }
      },
      {
        "type": "node",
        "id": 5760198474,
        "lat": 12.9505263,
        "lon": 77.5736697,
        "tags": {
          "code": "NLC",
          "name": "National College",
          "name:kn": "\u0cb0\u0cbe\u0cb7\u0ccd\u0c9f\u0ccd\u0cb0\u0cc0\u0caf \u0c95\u0cbe\u0cb2\u0cc7\u0c9c\u0cc1",
          "network": "Namma Metro",
          "note": "Contributors are requested to not edit the \"network\" and the \"operator\" tags. (2023/11/08)",
          "operator": "Bangalore Metro Rail Corporation Limited",
          "platforms": "2",
          "public_transport": "stop_position",
          "public_transport:version": "2",
          "railway": "stop",
          "source": "http://www.bmrc.co.in/English/Network.htm",
          "subway": "yes",
          "wheelchair": "yes"
        }
      },
      {
        "type": "node",
        "id": 5983455179,
        "lat": 12.9588104,
        "lon": 77.5868782,
        "tags": {
          "amenity": "fuel",
          "check_date": "2023-04-05",
          "name": "Gogas",
          "source": "survey"
        }
      },
      {
        "type": "node",
        "id": 6095308677,
        "lat": 12.9784514,
        "lon": 77.5717616,
        "tags": {
          "bus": "yes",
          "name": "Platform 19D",
          "operator": "BMTC",
          "public_transport": "stop_position"
        }
      },
      {
        "type": "node",
        "id": 6400857556,
        "lat": 12.9787419,
        "lon": 77.5916385,
        "tags": {
          "code": "VDSA",
          "name": "Dr. B. R. Ambedkar Station, Vidhana Soudha",
          "name:kn": "\u0ca1\u0cbe.\u0cac\u0cbf.\u0c86\u0cb0\u0ccd. \u0c85\u0c82\u0cac\u0cc7\u0ca1\u0ccd\u0c95\u0cb0\u0ccd \u0ca0\u0cbe\u0ca3\u0cc6, \u0cb5\u0cbf\u0ca7\u0cbe\u0ca8\u0cb8\u0ccc\u0ca7",
          "name:ml": "\u0d21\u0d4b.\u0d2c\u0d3f.\u0d06\u0d7c. \u0d05\u0d02\u0d2c\u0d47\u0d26\u0d4d\u0d15\u0d7c \u0d38\u0d4d\u0d31\u0d4d\u0d31\u0d47\u0d37\u0d7b, \u0d35\u0d3f\u0d27\u0d3e\u0d28 \u0d38\u0d57\u0d27",
          "network": "Namma Metro",
          "note": "Contributors are requested to not edit the \"network\" and the \"operator\" tags. (2023/11/08)",
          "operator": "Bangalore Metro Rail Corporation Limited",
          "public_transport": "station",
          "public_transport:version": "2",
          "railway": "station",
          "shelter": "yes",
          "station": "subway",
          "subway": "yes",
          "tunnel": "yes",
          "website": "https://english.brmc.co.in",
          "wheelchair": "yes"
        }
      },
      {
        "type": "node",
        "id": 6400857557,
        "lat": 12.9745197,
        "lon": 77.58422,
        "tags": {
          "alt_name": "Central College",
          "code": "VSWA",
          "name": "Sir M. Visvesvaraya Stn., Central College",
          "name:kn": "\u0cb8\u0cb0\u0ccd \u0c8e\u0c82 \u0cb5\u0cbf\u0cb6\u0ccd\u0cb5\u0cc7\u0cb6\u0ccd\u0cb5\u0cb0\u0caf\u0ccd\u0caf - \u0cb8\u0cc6\u0c82\u0c9f\u0ccd\u0cb0\u0cb2\u0ccd \u0c95\u0cbe\u0cb2\u0cc7\u0c9c\u0cc1",
          "name:ml": "\u0d38\u0d7c \u0d0e\u0d02 \u0d35\u0d3f\u0d36\u0d4d\u0d35\u0d47\u0d36\u0d4d\u0d35\u0d30\u0d2f\u0d4d\u0d2f - \u0d38\u0d46\u0d7b\u0d1f\u0d4d\u0d30\u0d7d \u0d15\u0d4b\u0d33\u0d47\u0d1c\u0d4d",
          "network": "Namma Metro",
          "note": "Contributors are requested to not edit the \"network\" and the \"operator\" tags. (2023/11/08)",
          "operator": "Bangalore Metro Rail Corporation Limited",
          "public_transport": "station",
          "public_transport:version": "2",
          "railway": "station",
          "shelter": "yes",
          "station": "subway",
          "subway": "yes",
          "tunnel": "yes",
          "website": "https://english.brmc.co.in",
          "wheelchair": "yes"
        }
      },
      {
        "type": "node",
        "id": 6400857558,
        "lat": 12.9757079,
        "lon": 77.5728757,
        "tags": {
          "alt_name": "Majestic Metro Station",
          "code": "KGWA",
          "level": "-2;-1;0",
          "name": "Nadaprabhu Kempegowda Station, Majestic",
          "name:etymology:wikidata": "Q6387049",
          "name:kn": "\u0ca8\u0cbe\u0ca1\u0caa\u0ccd\u0cb0\u0cad\u0cc1 \u0c95\u0cc6\u0c82\u0caa\u0cc7\u0c97\u0ccc\u0ca1 \u0ca8\u0cbf\u0cb2\u0ccd\u0ca6\u0cbe\u0ca3, \u0cae\u0cc6\u0c9c\u0cc6\u0cb8\u0ccd\u0c9f\u0cbf\u0c95\u0ccd",
          "name:ml": "\u0d28\u0d3e\u0d1f\u0d2a\u0d4d\u0d30\u0d2d\u0d41 \u0d15\u0d46\u0d2e\u0d4d\u0d2a\u0d17\u0d57\u0d21 \u0d38\u0d4d\u0d31\u0d4d\u0d31\u0d47\u0d37\u0d7b, \u0d2e\u0d1c\u0d38\u0d4d\u0d31\u0d4d\u0d31\u0d3f\u0d15\u0d4d",
          "name:ta": "\u0ba8\u0bbe\u0b9f\u0baa\u0bcd\u0baa\u0bbf\u0bb0\u0baa\u0bc1 \u0b95\u0bc6\u0bae\u0bcd\u0baa\u0bc7\u0b95\u0bb5\u0bc1\u0b9f\u0bbe \u0bae\u0bc6\u0b9c\u0bb8\u0bcd\u0b9f\u0bbf\u0b95\u0bcd",
          "network": "Namma Metro",
          "note": "Contributors are requested to not edit the \"network\" and the \"operator\" tags. (2023/11/08)",
          "operator": "Bangalore Metro Rail Corporation Limited",
          "public_transport": "station",
          "public_transport:version": "2",
          "railway": "station",
          "shelter": "yes",
          "station": "subway",
          "subway": "yes",
          "website": "https://english.brmc.co.in",
          "wheelchair": "yes",
          "wikidata": "Q6737727",
          "wikipedia": "en:Majestic metro station"
        }
      },
      {
        "type": "node",
        "id": 6400857559,
        "lat": 12.9758768,
        "lon": 77.5653767,
        "tags": {
          "code": "BRCS",
          "name": "Krantivira Sangolli Rayanna Railway Station",
          "name:kn": "\u0c95\u0ccd\u0cb0\u0cbe\u0c82\u0ca4\u0cbf\u0cb5\u0cc0\u0cb0 \u0cb8\u0c82\u0c97\u0cca\u0cb3\u0ccd\u0cb3\u0cbf \u0cb0\u0cbe\u0caf\u0ca3\u0ccd\u0ca3",
          "name:ml": "\u0d15\u0d4d\u0d30\u0d3e\u0d28\u0d4d\u0d24\u0d3f\u0d35\u0d40\u0d30 \u0d38\u0d19\u0d4d\u0d15\u0d4a\u0d32\u0d4d\u0d32\u0d3f \u0d30\u0d3e\u0d2f\u0d23\u0d4d\u0d23",
          "network": "Namma Metro",
          "note": "Contributors are requested to not edit the \"network\" and the \"operator\" tags. (2023/11/08)",
          "operator": "Bangalore Metro Rail Corporation Limited",
          "public_transport": "station",
          "public_transport:version": "2",
          "railway": "station",
          "shelter": "yes",
          "station": "subway",
          "subway": "yes",
          "website": "https://english.brmc.co.in",
          "wheelchair": "yes"
        }
      },
      {
        "type": "node",
        "id": 6432710298,
        "lat": 12.9465265,
        "lon": 77.580016,
        "tags": {
          "code": "LBGH",
          "layer": "1",
          "lit": "yes",
          "name": "Lalbagh",
          "name:hi": "\u0932\u093e\u0932\u092c\u093e\u0917\u093c",
          "name:kn": "\u0cb2\u0cbe\u0cb2\u0ccd \u0cac\u0cbe\u0c97\u0ccd",
          "name:ml": "\u0d32\u0d3e\u0d7d\u0d2c\u0d3e\u0d17\u0d4d",
          "name:ta": "\u0bb2\u0bbe\u0bb2\u0bcd\u0baa\u0bbe\u0b95\u0bcd",
          "network": "Namma Metro",
          "note": "Contributors are requested to not edit the \"network\" and the \"operator\" tags. (2023/11/08)",
          "operator": "Bangalore Metro Rail Corporation Limited",
          "platforms": "2",
          "public_transport": "station",
          "public_transport:version": "2",
          "railway": "station",
          "shelter": "yes",
          "station": "subway",
          "subway": "yes",
          "website": "https://english.brmc.co.in",
          "wheelchair": "yes"
        }
      },
      {
        "type": "node",
        "id": 6432710299,
        "lat": 12.9505266,
        "lon": 77.5736898,
        "tags": {
          "code": "NLC",
          "layer": "1",
          "lit": "yes",
          "name": "National College",
          "name:kn": "\u0ca8\u0ccd\u0caf\u0cbe\u0cb6\u0ca8\u0cb2\u0ccd \u0c95\u0cbe\u0cb2\u0cc7\u0c9c\u0cc1",
          "name:ml": "\u0d28\u0d3e\u0d37\u0d23\u0d7d \u0d15\u0d4b\u0d33\u0d47\u0d1c\u0d4d",
          "name:ta": "\u0ba8\u0bc7\u0bb7\u0ba9\u0bb2\u0bcd \u0b95\u0bb2\u0bcd\u0bb2\u0bc2\u0bb0\u0bbf",
          "network": "Namma Metro",
          "note": "Contributors are requested to not edit the \"network\" and the \"operator\" tags. (2023/11/08)",
          "operator": "Bangalore Metro Rail Corporation Limited",
          "platforms": "2",
          "public_transport": "station",
          "public_transport:version": "2",
          "railway": "station",
          "shelter": "yes",
          "station": "subway",
          "subway": "yes",
          "website": "https://english.brmc.co.in",
          "wheelchair": "yes"
        }
      },
      {
        "type": "node",
        "id": 6432710300,
        "lat": 12.9608788,
        "lon": 77.5746578,
        "tags": {
          "code": "KRMT",
          "lit": "yes",
          "name": "Krishna Rajendra Market",
          "name:kn": "\u0c95\u0cc3\u0cb7\u0ccd\u0ca3\u0cb0\u0cbe\u0c9c\u0cc7\u0c82\u0ca6\u0ccd\u0cb0 \u0cae\u0cbe\u0cb0\u0cc1\u0c95\u0c9f\u0ccd\u0c9f\u0cc6",
          "name:ml": "\u0d15\u0d43\u0d37\u0d4d\u0d23 \u0d30\u0d3e\u0d1c\u0d47\u0d28\u0d4d\u0d26\u0d4d\u0d30 \u0d2e\u0d3e\u0d7c\u0d15\u0d4d\u0d15\u0d31\u0d4d\u0d31\u0d4d",
          "name:ta": "\u0b95\u0bbf\u0bb0\u0bc1\u0bb7\u0bcd\u0ba3 \u0bb0\u0bbe\u0b9c\u0bc7\u0ba8\u0bcd\u0ba4\u0bbf\u0bb0\u200c \u0bae\u0bbe\u0bb0\u0bcd\u0b95\u0bc6\u0b9f\u0bcd",
          "network": "Namma Metro",
          "note": "Contributors are requested to not edit the \"network\" and the \"operator\" tags. (2023/11/08)",
          "operator": "Bangalore Metro Rail Corporation Limited",
          "public_transport": "station",
          "public_transport:version": "2",
          "railway": "station",
          "shelter": "yes",
          "station": "subway",
          "subway": "yes",
          "tunnel": "yes",
          "website": "https://english.brmc.co.in",
          "wheelchair": "yes"
        }
      },
      {
        "type": "node",
        "id": 6432710301,
        "lat": 12.9668974,
        "lon": 77.5745566,
        "tags": {
          "code": "CKPE",
          "lit": "yes",
          "name": "Chickpete",
          "name:hi": "\u091a\u093f\u0915\u092a\u0947\u091f\u0947",
          "name:kn": "\u0c9a\u0cbf\u0c95\u0ccd\u0c95\u0caa\u0cc7\u0c9f\u0cc6",
          "name:ml": "\u0d1a\u0d3f\u0d15\u0d4d\u0d15\u0d2a\u0d4d\u0d2a\u0d47\u0d1f\u0d4d\u0d1f",
          "name:ta": "\u0b9a\u0bbf\u0b95\u0bcd\u0b95\u0baa\u0bc7\u0b9f\u0bcd\u0b9f\u0bc7",
          "network": "Namma Metro",
          "note": "Contributors are requested to not edit the \"network\" and the \"operator\" tags. (2023/11/08)",
          "operator": "Bangalore Metro Rail Corporation Limited",
          "public_transport": "station",
          "public_transport:version": "2",
          "railway": "station",
          "shelter": "yes",
          "station": "subway",
          "subway": "yes",
          "tunnel": "yes",
          "website": "https://english.brmc.co.in",
          "wheelchair": "yes"
        }
      },
      {
        "type": "node",
        "id": 6645712420,
        "lat": 12.9703358,
        "lon": 77.5942959,
        "tags": {
          "alt_name": "St Joseph Boys High School",
          "bus": "yes",
          "name": "Mallya Hospital",
          "name:en": "Mallya Hospital",
          "name:kn": "\u0cae\u0cb2\u0ccd\u0cb2\u0ccd\u0caf \u0c86\u0cb8\u0ccd\u0caa\u0ca4\u0ccd\u0cb0\u0cc6",
          "network": "BMTC",
          "operator": "BMTC",
          "public_transport": "stop_position"
        }
      },
      {
        "type": "node",
        "id": 6681215517,
        "lat": 12.9723378,
        "lon": 77.5822789,
        "tags": {
          "bus": "yes",
          "name": "Mysore Bank",
          "name:en": "Mysore Bank",
          "name:kn": "\u0cae\u0cc8\u0cb8\u0cc2\u0cb0\u0cc1 \u0cac\u0ccd\u0caf\u0cbe\u0c82\u0c95\u0ccd",
          "network": "BMTC",
          "operator": "BMTC",
          "public_transport": "stop_position"
        }
      },
      {
        "type": "node",
        "id": 6834406250,
        "lat": 12.9737361,
        "lon": 77.5954588,
        "tags": {
          "alt_name": "Museum",
          "bus": "yes",
          "name": "Kasturba Road",
          "name:en": "Kasturba Road",
          "name:etymology:wikidata": "Q264908",
          "name:kn": "\u0c95\u0cb8\u0ccd\u0ca4\u0cc2\u0cb0\u0ccd\u0cac\u0cbe \u0cb0\u0cb8\u0ccd\u0ca4\u0cc6",
          "network": "BMTC",
          "operator": "BMTC",
          "public_transport": "stop_position"
        }
      },
      {
        "type": "node",
        "id": 6834406251,
        "lat": 12.964493,
        "lon": 77.5968024,
        "tags": {
          "bus": "yes",
          "name": "Richmond Circle",
          "name:en": "Richmond Circle",
          "name:kn": "\u0cb0\u0cbf\u0c9a\u0ccd\u0cae\u0c82\u0ca1\u0ccd \u0cb5\u0cc3\u0ca4\u0ccd\u0ca4",
          "network": "BMTC",
          "operator": "BMTC",
          "public_transport": "stop_position"
        }
      },
      {
        "type": "node",
        "id": 7093027180,
        "lat": 12.975699,
        "lon": 77.5603955,
        "tags": {
          "bus": "yes",
          "name": "5th Cross Magadi Road",
          "name:en": "5th Cross Magadi Road",
          "name:kn": "\u0cae\u0cbe\u0c97\u0ca1\u0cbf \u0cb0\u0cb8\u0ccd\u0ca4\u0cc6 \u0ceb\u0ca8\u0cc7 \u0c85\u0ca1\u0ccd\u0ca1",
          "network": "BMTC",
          "operator": "BMTC",
          "public_transport": "stop_position"
        }
      },
      {
        "type": "node",
        "id": 7093027181,
        "lat": 12.975765,
        "lon": 77.5638338,
        "tags": {
          "bus": "yes",
          "name": "1st Cross Magadi Road",
          "name:en": "1st Cross Magadi Road",
          "name:kn": "\u0cae\u0cbe\u0c97\u0ca1\u0cbf \u0cb0\u0cb8\u0ccd\u0ca4\u0cc6 \u0ce7\u0ca8\u0cc7 \u0c85\u0ca1\u0ccd\u0ca1",
          "network": "BMTC",
          "operator": "BMTC",
          "public_transport": "stop_position"
        }
      },
      {
        "type": "node",
        "id": 7093027182,
        "lat": 12.9705248,
        "lon": 77.5662977,
        "tags": {
          "bus": "yes",
          "name": "Binny Mill",
          "name:en": "Binny Mill",
          "name:kn": "\u0cac\u0cbf\u0ca8\u0ccd\u0ca8\u0cbf \u0cae\u0cbf\u0cb2\u0ccd\u0cb8\u0ccd",
          "network": "BMTC",
          "operator": "BMTC",
          "public_transport": "stop_position"
        }
      },
      {
        "type": "node",
        "id": 7093073085,
        "lat": 12.9643384,
        "lon": 77.5615155,
        "tags": {
          "bus": "yes",
          "name": "Binnypet",
          "name:en": "Binnypet",
          "name:kn": "\u0cac\u0cbf\u0ca8\u0ccd\u0ca8\u0caa\u0cc7\u0c9f\u0cc6",
          "network": "BMTC",
          "operator": "BMTC",
          "public_transport": "stop_position"
        }
      },
      {
        "type": "node",
        "id": 7093073087,
        "lat": 12.9604853,
        "lon": 77.5680425,
        "tags": {
          "bus": "yes",
          "name": "Royan Circle",
          "name:en": "Royan Circle",
          "name:kn": "\u0cb0\u0cbe\u0caf\u0ca8\u0ccd \u0cb5\u0cc3\u0ca4\u0ccd\u0ca4",
          "network": "BMTC",
          "operator": "BMTC",
          "public_transport": "stop_position"
        }
      },
      {
        "type": "node",
        "id": 7093073088,
        "lat": 12.9575961,
        "lon": 77.5737037,
        "tags": {
          "bus": "yes",
          "name": "Makkala Koota",
          "name:en": "Makkala Koota",
          "name:kn": "\u0cae\u0c95\u0ccd\u0c95\u0cb3 \u0c95\u0cc2\u0c9f",
          "network": "BMTC",
          "operator": "BMTC",
          "public_transport": "stop_position"
        }
      },
      {
        "type": "node",
        "id": 7093073089,
        "lat": 12.9571735,
        "lon": 77.5678546,
        "tags": {
          "bus": "yes",
          "name": "Chamarajapet",
          "name:en": "Chamarajapet",
          "name:kn": "\u0c9a\u0cbe\u0cae\u0cb0\u0cbe\u0c9c\u0caa\u0cc7\u0c9f\u0cc6",
          "network": "BMTC",
          "operator": "BMTC",
          "public_transport": "stop_position"
        }
      },
      {
        "type": "node",
        "id": 7093073090,
        "lat": 12.9518861,
        "lon": 77.5675501,
        "tags": {
          "bus": "yes",
          "name": "Bengaluru High School, Kempe Gowda Nagara",
          "name:en": "Bengaluru High School, Kempe Gowda Nagara",
          "network": "BMTC",
          "operator": "BMTC",
          "public_transport": "stop_position"
        }
      },
      {
        "type": "node",
        "id": 7093073091,
        "lat": 12.9472829,
        "lon": 77.5663057,
        "tags": {
          "bus": "yes",
          "name": "Kohinoor Ground",
          "name:en": "Kohinoor Ground",
          "name:kn": "\u0c95\u0ccb\u0cb9\u0cbf\u0ca8\u0cc2\u0cb0\u0ccd \u0cae\u0cc8\u0ca6\u0cbe\u0ca8",
          "network": "BMTC",
          "operator": "BMTC",
          "public_transport": "stop_position"
        }
      },
      {
        "type": "node",
        "id": 7093073092,
        "lat": 12.9469178,
        "lon": 77.5642362,
        "tags": {
          "bus": "yes",
          "name": "Hanumantha Nagara Syndicate Bank",
          "name:en": "Hanumantha Nagara Syndicate Bank",
          "network": "BMTC",
          "operator": "BMTC",
          "public_transport": "stop_position"
        }
      },
      {
        "type": "node",
        "id": 7104861389,
        "lat": 12.9829933,
        "lon": 77.5765385,
        "tags": {
          "bus": "yes",
          "name": "KPCC Office",
          "name:en": "KPCC Office",
          "network": "BMTC",
          "operator": "BMTC",
          "public_transport": "stop_position"
        }
      },
      {
        "type": "node",
        "id": 7104861390,
        "lat": 12.9685091,
        "lon": 77.586563,
        "tags": {
          "bus": "yes",
          "name": "Corporation",
          "name:en": "Corporation",
          "network": "BMTC",
          "operator": "BMTC",
          "public_transport": "stop_position"
        }
      },
      {
        "type": "node",
        "id": 7104861391,
        "lat": 12.9638239,
        "lon": 77.5842663,
        "tags": {
          "bus": "yes",
          "name": "Town Hall",
          "name:en": "Town Hall",
          "network": "BMTC",
          "operator": "BMTC",
          "public_transport": "stop_position"
        }
      },
      {
        "type": "node",
        "id": 7104861392,
        "lat": 12.9641556,
        "lon": 77.5775287,
        "tags": {
          "bus": "yes",
          "name": "KR Market",
          "name:en": "KR Market",
          "name:kn": "\u0c95\u0cc3\u0cb7\u0ccd\u0ca3\u0cb0\u0cbe\u0c9c\u0cc7\u0c82\u0ca6\u0ccd\u0cb0 \u0cae\u0cbe\u0cb0\u0cc1\u0c95\u0c9f\u0ccd\u0c9f\u0cc6",
          "network": "BMTC",
          "operator": "BMTC",
          "public_transport": "stop_position"
        }
      },
      {
        "type": "node",
        "id": 7105069820,
        "lat": 12.9573822,
        "lon": 77.559255,
        "tags": {
          "bus": "yes",
          "name": "TR Mill, Raghavendra Colony",
          "name:en": "TR Mill, Raghavendra Colony",
          "network": "BMTC",
          "operator": "BMTC",
          "public_transport": "stop_position"
        }
      },
      {
        "type": "node",
        "id": 7105069821,
        "lat": 12.9570275,
        "lon": 77.5638422,
        "tags": {
          "bus": "yes",
          "name": "Rama Mandira Chamarajapet",
          "name:en": "Rama Mandira Chamarajapet",
          "name:kn": "\u0cb0\u0cbe\u0cae \u0cae\u0c82\u0ca6\u0cbf\u0cb0 \u0c9a\u0cbe\u0cae\u0cb0\u0cbe\u0c9c\u0caa\u0cc7\u0c9f\u0cc6",
          "network": "BMTC",
          "operator": "BMTC",
          "public_transport": "stop_position"
        }
      },
      {
        "type": "node",
        "id": 7105069822,
        "lat": 12.9571181,
        "lon": 77.5670381,
        "tags": {
          "bus": "yes",
          "name": "Chamarajapet",
          "name:en": "Chamarajapet",
          "name:kn": "\u0c9a\u0cbe\u0cae\u0cb0\u0cbe\u0c9c\u0caa\u0cc7\u0c9f\u0cc6",
          "network": "BMTC",
          "operator": "BMTC",
          "public_transport": "stop_position"
        }
      },
      {
        "type": "node",
        "id": 7105069824,
        "lat": 12.9573368,
        "lon": 77.5730356,
        "tags": {
          "bus": "yes",
          "name": "Makkala Koota",
          "name:en": "Makkala Koota",
          "name:kn": "\u0cae\u0c95\u0ccd\u0c95\u0cb3 \u0c95\u0cc2\u0c9f",
          "network": "BMTC",
          "operator": "BMTC",
          "public_transport": "stop_position"
        }
      },
      {
        "type": "node",
        "id": 7105069826,
        "lat": 12.9636047,
        "lon": 77.5773314,
        "tags": {
          "bus": "yes",
          "name": "KR Market",
          "name:en": "KR Market",
          "network": "BMTC",
          "operator": "BMTC",
          "public_transport": "stop_position"
        }
      },
      {
        "type": "node",
        "id": 7105069827,
        "lat": 12.9636904,
        "lon": 77.5844796,
        "tags": {
          "bus": "yes",
          "name": "Town Hall",
          "name:en": "Town Hall",
          "name:kn": "\u0cae\u0cb9\u0cbe\u0ca8\u0c97\u0cb0 \u0caa\u0cbe\u0cb2\u0cbf\u0c95\u0cc6",
          "network": "BMTC",
          "operator": "BMTC",
          "public_transport": "stop_position"
        }
      },
      {
        "type": "node",
        "id": 7105069829,
        "lat": 12.9697701,
        "lon": 77.5871314,
        "tags": {
          "bus": "yes",
          "name": "St Marthas Hospital",
          "name:en": "St Marthas Hospital",
          "name:kn": "\u0cb8\u0cc6\u0c82\u0c9f\u0ccd \u0cae\u0cbe\u0cb0\u0ccd\u0ca5 \u0c86\u0cb8\u0ccd\u0caa\u0ca4\u0ccd\u0cb0\u0cc6",
          "network": "BMTC",
          "operator": "BMTC",
          "public_transport": "stop_position"
        }
      },
      {
        "type": "node",
        "id": 7105069831,
        "lat": 12.9802218,
        "lon": 77.5716716,
        "tags": {
          "bus": "yes",
          "name": "Khodays Circle",
          "name:en": "Khodays Circle",
          "name:kn": "\u0c96\u0ccb\u0ca1\u0cc6 \u0cb5\u0cc3\u0ca4\u0ccd\u0ca4",
          "network": "BMTC",
          "operator": "BMTC",
          "public_transport": "stop_position"
        }
      },
      {
        "type": "node",
        "id": 7106320854,
        "lat": 12.9684272,
        "lon": 77.5896134,
        "tags": {
          "bus": "yes",
          "name": "Corporation Circle (Cubbon Park)",
          "name:en": "Corporation Circle (Cubbon Park)",
          "network": "BMTC",
          "operator": "BMTC",
          "public_transport": "stop_position"
        }
      },
      {
        "type": "node",
        "id": 7106320855,
        "lat": 12.9740699,
        "lon": 77.5957691,
        "tags": {
          "alt_name": "Museum",
          "bus": "yes",
          "name": "Kasturba Road",
          "name:en": "Kasturba Road",
          "name:etymology:wikidata": "Q264908",
          "name:kn": "\u0c95\u0cb8\u0ccd\u0ca4\u0cc2\u0cb0\u0ccd\u0cac\u0cbe \u0cb0\u0cb8\u0ccd\u0ca4\u0cc6",
          "network": "BMTC",
          "operator": "BMTC",
          "public_transport": "stop_position"
        }
      },
      {
        "type": "node",
        "id": 7131511276,
        "lat": 12.9639618,
        "lon": 77.5789324,
        "tags": {
          "bus": "yes",
          "name": "KR Market",
          "name:en": "KR Market",
          "name:kn": "\u0c95\u0cc3\u0cb7\u0ccd\u0ca3\u0cb0\u0cbe\u0c9c\u0cc7\u0c82\u0ca6\u0ccd\u0cb0 \u0cae\u0cbe\u0cb0\u0cc1\u0c95\u0c9f\u0ccd\u0c9f\u0cc6",
          "network": "BMTC",
          "operator": "BMTC",
          "public_transport": "stop_position"
        }
      },
      {
        "type": "node",
        "id": 7131511278,
        "lat": 12.961084,
        "lon": 77.5877158,
        "tags": {
          "bus": "yes",
          "name": "Poornima Talkies",
          "name:en": "Poornima Talkies",
          "name:kn": "\u0caa\u0cc2\u0cb0\u0ccd\u0ca3\u0cbf\u0cae\u0cbe \u0c9f\u0cbe\u0c95\u0cbf\u0cb8\u0ccd",
          "network": "BMTC",
          "operator": "BMTC",
          "public_transport": "stop_position"
        }
      },
      {
        "type": "node",
        "id": 7131511279,
        "lat": 12.9621976,
        "lon": 77.5964997,
        "tags": {
          "bus": "yes",
          "name": "Akkithimmanahalli",
          "name:en": "Akkithimmanahalli",
          "name:kn": "\u0c85\u0c95\u0ccd\u0c95\u0cbf\u0ca4\u0cbf\u0cae\u0ccd\u0cae\u0ca8\u0cb9\u0cb3\u0ccd\u0cb3\u0cbf",
          "network": "BMTC",
          "operator": "BMTC",
          "public_transport": "stop_position"
        }
      },
      {
        "type": "node",
        "id": 7132418217,
        "lat": 12.9576497,
        "lon": 77.5928942,
        "tags": {
          "bus": "yes",
          "name": "KH Road",
          "name:en": "KH Road",
          "name:kn": "\u0c95\u0cc6\u0c82\u0c97\u0cb2\u0ccd \u0cb9\u0ca8\u0cc1\u0cae\u0c82\u0ca4\u0caf\u0ccd\u0caf \u0cb0\u0cb8\u0ccd\u0ca4\u0cc6",
          "network": "BMTC",
          "operator": "BMTC",
          "public_transport": "stop_position"
        }
      },
      {
        "type": "node",
        "id": 7132418218,
        "lat": 12.9626539,
        "lon": 77.5907878,
        "tags": {
          "bus": "yes",
          "name": "Subbaiah Circle",
          "name:en": "Subbaiah Circle",
          "name:kn": "\u0cb8\u0cc1\u0cac\u0ccd\u0cac\u0caf\u0ccd\u0caf \u0cb5\u0cc3\u0ca4\u0ccd\u0ca4",
          "network": "BMTC",
          "operator": "BMTC",
          "public_transport": "stop_position"
        }
      },
      {
        "type": "node",
        "id": 7132418219,
        "lat": 12.9647441,
        "lon": 77.587909,
        "tags": {
          "bus": "yes",
          "name": "Corporation, Mission Road (Towards Subbiah Circle)",
          "name:en": "Corporation, Mission Road (Towards Subbiah Circle)",
          "network": "BMTC",
          "operator": "BMTC",
          "public_transport": "stop_position"
        }
      },
      {
        "type": "node",
        "id": 7132418222,
        "lat": 12.9638348,
        "lon": 77.5685892,
        "tags": {
          "bus": "yes",
          "name": "Vinayaka Talkies",
          "name:en": "Vinayaka Talkies",
          "name:kn": "\u0cb5\u0cbf\u0ca8\u0cbe\u0caf\u0c95 \u0c9f\u0cbe\u0c95\u0cc0\u0cb8\u0ccd",
          "network": "BMTC",
          "operator": "BMTC",
          "public_transport": "stop_position"
        }
      },
      {
        "type": "node",
        "id": 7136947081,
        "lat": 12.96737,
        "lon": 77.5993941,
        "tags": {
          "bus": "yes",
          "name": "Richmond Circle",
          "name:en": "Richmond Circle",
          "name:kn": "\u0cb0\u0cbf\u0c9a\u0ccd\u0cae\u0c82\u0ca1\u0ccd \u0cb5\u0cc3\u0ca4\u0ccd\u0ca4",
          "network": "BMTC",
          "operator": "BMTC",
          "public_transport": "stop_position"
        }
      },
      {
        "type": "node",
        "id": 7140560441,
        "lat": 12.9621372,
        "lon": 77.5969643,
        "tags": {
          "bus": "yes",
          "name": "Akkithimmanahalli",
          "name:en": "Akkithimmanahalli",
          "name:kn": "\u0c85\u0c95\u0ccd\u0c95\u0cbf\u0ca4\u0cbf\u0cae\u0ccd\u0cae\u0ca8\u0cb9\u0cb3\u0ccd\u0cb3\u0cbf",
          "network": "BMTC",
          "operator": "BMTC",
          "public_transport": "stop_position"
        }
      },
      {
        "type": "node",
        "id": 7140563293,
        "lat": 12.9790169,
        "lon": 77.5849485,
        "tags": {
          "bus": "yes",
          "name": "Maharani's College",
          "name:en": "Maharanis College",
          "name:kn": "\u0cae\u0cb9\u0cbe\u0cb0\u0cbe\u0ca3\u0cbf \u0c95\u0cbe\u0cb2\u0cc7\u0c9c\u0cc1",
          "network": "BMTC",
          "operator": "BMTC",
          "public_transport": "stop_position"
        }
      },
      {
        "type": "node",
        "id": 7140563295,
        "lat": 12.9827236,
        "lon": 77.5871529,
        "tags": {
          "bus": "yes",
          "name": "Telephone Exchange AGO, Vasantha Nagara",
          "name:en": "Telephone Exchange AGO, Vasantha Nagara",
          "network": "BMTC",
          "operator": "BMTC",
          "public_transport": "stop_position"
        }
      },
      {
        "type": "node",
        "id": 7140581378,
        "lat": 12.9756728,
        "lon": 77.5866293,
        "tags": {
          "bus": "yes",
          "name": "KR Circle",
          "name:en": "Krishnarajendra Circle",
          "name:kn": "\u0c95\u0cc3\u0cb7\u0ccd\u0ca3\u0cb0\u0cbe\u0c9c\u0cc7\u0c82\u0ca6\u0ccd\u0cb0 \u0cb5\u0cc3\u0ca4\u0ccd\u0ca4",
          "network": "BMTC",
          "operator": "BMTC",
          "public_transport": "stop_position"
        }
      },
      {
        "type": "node",
        "id": 7142097522,
        "lat": 12.9734934,
        "lon": 77.5814153,
        "tags": {
          "bus": "yes",
          "name": "Cauvery Bhavana",
          "name:en": "Cauvery Bhavana",
          "name:kn": "\u0cae\u0cc8\u0cb8\u0cc2\u0cb0\u0cc1 \u0cac\u0ccd\u0caf\u0cbe\u0c82\u0c95\u0ccd",
          "network": "BMTC",
          "operator": "BMTC",
          "public_transport": "stop_position"
        }
      },
      {
        "type": "node",
        "id": 7142097524,
        "lat": 12.9768247,
        "lon": 77.5858877,
        "tags": {
          "bus": "yes",
          "name": "Maharani College, KR Circle",
          "name:en": "Maharani College, KR Circle",
          "network": "BMTC",
          "operator": "BMTC",
          "public_transport": "stop_position"
        }
      },
      {
        "type": "node",
        "id": 7142097526,
        "lat": 12.977223,
        "lon": 77.5899909,
        "tags": {
          "bus": "yes",
          "name": "Vidhana Soudha",
          "name:en": "Vidhana Soudha",
          "name:kn": "\u0cb5\u0cbf\u0ca7\u0cbe\u0ca8 \u0cb8\u0ccc\u0ca7",
          "network": "BMTC",
          "operator": "BMTC",
          "public_transport": "stop_position"
        }
      },
      {
        "type": "node",
        "id": 7157856781,
        "lat": 12.9538368,
        "lon": 77.5799874,
        "tags": {
          "bus": "yes",
          "name": "Minarva Circle, Rashtriya Vidyalaya Road",
          "name:en": "Minarva Circle, Rashtriya Vidyalaya Road",
          "network": "BMTC",
          "operator": "BMTC",
          "public_transport": "stop_position"
        }
      },
      {
        "type": "node",
        "id": 7157856782,
        "lat": 12.9540427,
        "lon": 77.585581,
        "tags": {
          "bus": "yes",
          "name": "Lalbagh Main Gate",
          "name:en": "Lalbagh Main Gate",
          "name:kn": "\u0cb2\u0cbe\u0cb2\u0ccd\u200c\u0cac\u0cbe\u0c97\u0ccd \u0cae\u0cc1\u0c96\u0ccd\u0caf \u0ca6\u0ccd\u0cb5\u0cbe\u0cb0",
          "network": "BMTC",
          "operator": "BMTC",
          "public_transport": "stop_position"
        }
      },
      {
        "type": "node",
        "id": 7157889188,
        "lat": 12.954921,
        "lon": 77.5917316,
        "tags": {
          "bus": "yes",
          "name": "Shanthinagara Bus Stop KH Road",
          "name:en": "Shanthinagara Bus Stop KH Road",
          "network": "BMTC",
          "operator": "BMTC",
          "public_transport": "stop_position"
        }
      },
      {
        "type": "node",
        "id": 7157889191,
        "lat": 12.9583156,
        "lon": 77.5930429,
        "tags": {
          "bus": "yes",
          "name": "KH Road, Double Road",
          "name:en": "KH Road, Double Road",
          "network": "BMTC",
          "operator": "BMTC",
          "public_transport": "stop_position"
        }
      },
      {
        "type": "node",
        "id": 7157895258,
        "lat": 12.9531079,
        "lon": 77.5836028,
        "tags": {
          "bus": "yes",
          "name": "Krumbigal Road",
          "name:en": "Krumbigal Road",
          "name:kn": "\u0c95\u0ccd\u0cb0\u0cc1\u0c82\u0cac\u0cbf\u0c97\u0cb2\u0ccd \u0cb0\u0cb8\u0ccd\u0ca4\u0cc6",
          "network": "BMTC",
          "operator": "BMTC",
          "public_transport": "stop_position"
        }
      },
      {
        "type": "node",
        "id": 7157895259,
        "lat": 12.954792,
        "lon": 77.5917926,
        "tags": {
          "bus": "yes",
          "name": "Shanthinagara Bus Stop KH Road",
          "name:en": "Shanthinagara Bus Stop KH Road",
          "network": "BMTC",
          "operator": "BMTC",
          "public_transport": "stop_position"
        }
      },
      {
        "type": "node",
        "id": 7164445936,
        "lat": 12.9687913,
        "lon": 77.5593047,
        "tags": {
          "bus": "yes",
          "name": "Railway Gate Kempapura",
          "name:en": "Railway Gate Kempapura",
          "network": "BMTC",
          "operator": "BMTC",
          "public_transport": "stop_position"
        }
      },
      {
        "type": "node",
        "id": 7164445937,
        "lat": 12.9614186,
        "lon": 77.5594742,
        "tags": {
          "bus": "yes",
          "name": "Sirsi Circle",
          "name:en": "Sirsi Circle",
          "name:kn": "\u0cb6\u0cbf\u0cb0\u0cb8\u0cbf \u0cb5\u0cc3\u0ca4\u0ccd\u0ca4",
          "network": "BMTC",
          "operator": "BMTC",
          "public_transport": "stop_position"
        }
      },
      {
        "type": "node",
        "id": 7164445940,
        "lat": 12.9634944,
        "lon": 77.5677992,
        "tags": {
          "bus": "yes",
          "name": "Vinayaka Talkies KR Market",
          "name:en": "Vinayaka Talkies KR Market",
          "name:kn": "\u0cb5\u0cbf\u0ca8\u0cbe\u0caf\u0c95 \u0c9f\u0cbe\u0c95\u0cc0\u0cb8\u0ccd",
          "network": "BMTC",
          "operator": "BMTC",
          "public_transport": "stop_position"
        }
      },
      {
        "type": "node",
        "id": 7292218766,
        "lat": 12.9824553,
        "lon": 77.5678893,
        "tags": {
          "bus": "yes",
          "name": "Okalipura",
          "name:en": "Okalipura",
          "name:kn": "\u0c93\u0c95\u0cb3\u0cbf\u0caa\u0cc1\u0cb0",
          "network": "BMTC",
          "operator": "BMTC",
          "public_transport": "stop_position"
        }
      },
      {
        "type": "node",
        "id": 7292436123,
        "lat": 12.9681954,
        "lon": 77.5873387,
        "tags": {
          "bus": "yes",
          "name": "Corporation",
          "name:en": "Corporation",
          "name:kn": "\u0c95\u0cbe\u0cb0\u0ccd\u0caa\u0ccb\u0cb0\u0cc7\u0cb6\u0ca8\u0ccd",
          "network": "BMTC",
          "operator": "BMTC",
          "public_transport": "stop_position"
        }
      },
      {
        "type": "node",
        "id": 9140200257,
        "lat": 12.9756053,
        "lon": 77.5866527,
        "tags": {
          "bus": "yes",
          "name": "KR Circle",
          "name:en": "Krishnarajendra Circle",
          "name:kn": "\u0c95\u0cc3\u0cb7\u0ccd\u0ca3\u0cb0\u0cbe\u0c9c\u0cc7\u0c82\u0ca6\u0ccd\u0cb0 \u0cb5\u0cc3\u0ca4\u0ccd\u0ca4",
          "network": "BMTC",
          "operator": "BMTC",
          "public_transport": "stop_position"
        }
      },
      {
        "type": "node",
        "id": 10006930129,
        "lat": 12.977526,
        "lon": 77.5708147,
        "tags": {
          "bus": "yes",
          "name": "Railway Station, Majestic",
          "name:en": "Railway Station, Majestic",
          "network": "BMTC",
          "operator": "BMTC",
          "public_transport": "stop_position"
        }
      },
      {
        "type": "node",
        "id": 10036152486,
        "lat": 12.9743529,
        "lon": 77.5818701,
        "tags": {
          "alt_name": "Mysore Bank",
          "bus": "yes",
          "name": "Cauvery Bhavana",
          "name:en": "Cauvery Bhavana",
          "name:kn": "\u0c95\u0cbe\u0cb5\u0cc7\u0cb0\u0cbf \u0cad\u0cb5\u0ca8",
          "network": "BMTC",
          "operator": "BMTC",
          "public_transport": "stop_position"
        }
      },
      {
        "type": "node",
        "id": 10753340368,
        "lat": 12.974437,
        "lon": 77.596864,
        "tags": {
          "amenity": "theatre",
          "level": "1",
          "name": "Mazumdar Shaw Auditorium"
        }
      },
      {
        "type": "node",
        "id": 10839399453,
        "lat": 12.9411184,
        "lon": 77.5737183,
        "tags": {
          "bus": "yes",
          "name": "Basavanagudi Police Station",
          "name:en": "Basavanagudi Police Station",
          "network": "BMTC",
          "operator": "BMTC",
          "public_transport": "stop_position"
        }
      },
      {
        "type": "node",
        "id": 10853093227,
        "lat": 12.9470533,
        "lon": 77.5798514,
        "tags": {
          "amenity": "fuel",
          "brand": "Go Gas",
          "name": "Go Gas"
        }
      },
      {
        "type": "node",
        "id": 10855128073,
        "lat": 12.9542179,
        "lon": 77.5847004,
        "tags": {
          "bus": "yes",
          "name": "Lalbagh Main Gate",
          "name:en": "Lalbagh Main Gate",
          "name:kn": "\u0cb2\u0cbe\u0cb2\u0ccd\u200c\u0cac\u0cbe\u0c97\u0ccd \u0cae\u0cc1\u0c96\u0ccd\u0caf \u0ca6\u0ccd\u0cb5\u0cbe\u0cb0",
          "network": "BMTC",
          "operator": "BMTC",
          "public_transport": "stop_position"
        }
      },
      {
        "type": "node",
        "id": 10855128074,
        "lat": 12.9509145,
        "lon": 77.5918962,
        "tags": {
          "bus": "yes",
          "name": "Lalbagh HOPCOMS",
          "name:en": "Lalbagh HOPCOMS",
          "network": "BMTC",
          "operator": "BMTC",
          "public_transport": "stop_position"
        }
      },
      {
        "type": "node",
        "id": 11019492827,
        "lat": 12.9609431,
        "lon": 77.588207,
        "tags": {
          "bus": "yes",
          "name": "Poornima Talkies",
          "name:en": "Poornima Talkies",
          "network": "BMTC",
          "operator": "BMTC",
          "public_transport": "stop_position"
        }
      },
      {
        "type": "node",
        "id": 11178123519,
        "lat": 12.9576825,
        "lon": 77.5684466,
        "tags": {
          "amenity": "charging_station",
          "brand": "Ather",
          "operator": "Ather"
        }
      },
      {
        "type": "node",
        "id": 11195721103,
        "lat": 12.9491497,
        "lon": 77.5736717,
        "tags": {
          "bus": "yes",
          "name": "National College",
          "name:en": "National College",
          "name:kn": "\u0cb0\u0cbe\u0cb7\u0ccd\u0c9f\u0ccd\u0cb0\u0cc0\u0caf \u0c95\u0cbe\u0cb2\u0cc7\u0c9c\u0cc1",
          "network": "BMTC",
          "operator": "BMTC",
          "public_transport": "stop_position"
        }
      },
      {
        "type": "node",
        "id": 11297781805,
        "lat": 12.9710109,
        "lon": 77.597788,
        "tags": {
          "amenity": "charging_station",
          "brand": "Hero Vida"
        }
      },
      {
        "type": "node",
        "id": 11341218806,
        "lat": 12.9745975,
        "lon": 77.5660497,
        "tags": {
          "bus": "yes",
          "name": "Angalaparameshwari Temple",
          "name:en": "Angalaparameshwari Temple",
          "name:kn": "\u0c85\u0c82\u0c97\u0cbe\u0cb2\u0caa\u0cb0\u0cae\u0cc7\u0cb6\u0ccd\u0cb5\u0cb0\u0cbf",
          "network": "BMTC",
          "operator": "BMTC",
          "public_transport": "stop_position"
        }
      },
      {
        "type": "node",
        "id": 11341218849,
        "lat": 12.9752846,
        "lon": 77.5651817,
        "tags": {
          "bus": "yes",
          "name": "Hunasemara",
          "name:en": "Hunasemara",
          "name:kn": "\u0cb9\u0cc1\u0ca3\u0cb8\u0cc6\u0cae\u0cb0",
          "network": "BMTC",
          "operator": "BMTC",
          "public_transport": "stop_position"
        }
      },
      {
        "type": "node",
        "id": 11408768738,
        "lat": 12.9736666,
        "lon": 77.5830855,
        "tags": {
          "amenity": "charging_station",
          "charging_station:battery_swapping": "yes"
        }
      },
      {
        "type": "node",
        "id": 11696866840,
        "lat": 12.9791186,
        "lon": 77.5851012,
        "tags": {
          "bus": "yes",
          "name": "Maharani's College",
          "name:en": "Maharani's College",
          "name:kn": "\u0cae\u0cb9\u0cbe\u0cb0\u0cbe\u0ca3\u0cbf \u0c95\u0cbe\u0cb2\u0cc7\u0c9c\u0cc1",
          "network": "BMTC",
          "operator": "BMTC",
          "public_transport": "stop_position"
        }
      },
      {
        "type": "node",
        "id": 11890400011,
        "lat": 12.9775345,
        "lon": 77.5848731,
        "tags": {
          "bus": "yes",
          "name": "Maharani College",
          "name:en": "Maharani College",
          "name:kn": "\u0cae\u0cb9\u0cbe\u0cb0\u0cbe\u0ca3\u0cbf \u0c95\u0cbe\u0cb2\u0cc7\u0c9c\u0cc1",
          "network": "BMTC",
          "operator": "BMTC",
          "public_transport": "stop_position"
        }
      },
      {
        "type": "node",
        "id": 12002046035,
        "lat": 12.977855,
        "lon": 77.5812757,
        "tags": {
          "amenity": "charging_station",
          "fee": "yes",
          "motorcar": "yes",
          "motorcycle": "yes"
        }
      },
      {
        "type": "node",
        "id": 12101733050,
        "lat": 12.965406,
        "lon": 77.6002473,
        "tags": {
          "access": "yes",
          "amenity": "charging_station",
          "brand": "Ola Hypercharger"
        }
      },
      {
        "type": "node",
        "id": 12135983669,
        "lat": 12.9622079,
        "lon": 77.5842821,
        "tags": {
          "amenity": "theatre",
          "name": "ADA Ranga Mandira"
        }
      },
      {
        "type": "node",
        "id": 12135993230,
        "lat": 12.9617443,
        "lon": 77.5848647,
        "tags": {
          "amenity": "theatre",
          "name": "Nayana Auditorium"
        }
      },
      {
        "type": "node",
        "id": 12167710739,
        "lat": 12.9420666,
        "lon": 77.5854427,
        "tags": {
          "amenity": "fuel",
          "brand": "TotalEnergies",
          "brand:wikidata": "Q154037",
          "name": "TotalEnergies"
        }
      },
      {
        "type": "node",
        "id": 12462543992,
        "lat": 12.9432818,
        "lon": 77.5852556,
        "tags": {
          "bus": "yes",
          "name": "Ashoka Pillar",
          "name:en": "Ashoka Pillar",
          "network": "BMTC",
          "operator": "BMTC",
          "public_transport": "stop_position"
        }
      },
      {
        "type": "node",
        "id": 12462547447,
        "lat": 12.9602173,
        "lon": 77.5590291,
        "tags": {
          "bus": "yes",
          "name": "Sirsi Circle",
          "name:en": "Sirsi Circle",
          "network": "BMTC",
          "operator": "BMTC",
          "public_transport": "stop_position"
        }
      },
      {
        "type": "node",
        "id": 12462547448,
        "lat": 12.9458189,
        "lon": 77.5707129,
        "tags": {
          "bus": "yes",
          "name": "Gandhi Bazaar, Basavanagudi",
          "name:en": "Gandhi Bazaar, Basavanagudi",
          "network": "BMTC",
          "operator": "BMTC",
          "public_transport": "stop_position"
        }
      },
      {
        "type": "node",
        "id": 12462551338,
        "lat": 12.9411901,
        "lon": 77.5801014,
        "tags": {
          "bus": "yes",
          "name": "Vijaya College",
          "name:en": "Vijaya College",
          "network": "BMTC",
          "operator": "BMTC",
          "public_transport": "stop_position"
        }
      },
      {
        "type": "node",
        "id": 12462551339,
        "lat": 12.9443269,
        "lon": 77.5800855,
        "tags": {
          "bus": "yes",
          "name": "RV Teachers College",
          "name:en": "RV Teachers College",
          "network": "BMTC",
          "operator": "BMTC",
          "public_transport": "stop_position"
        }
      },
      {
        "type": "node",
        "id": 12466442937,
        "lat": 12.9463785,
        "lon": 77.5680606,
        "tags": {
          "amenity": "fuel",
          "brand": "Indian Oil",
          "brand:wikidata": "Q1289348",
          "check_date": "2025-01-01",
          "name": "Indian Oil"
        }
      },
      {
        "type": "node",
        "id": 12479801113,
        "lat": 12.9786,
        "lon": 77.5721999,
        "tags": {
          "bus": "yes",
          "name": "Platform 20B",
          "operator": "BMTC",
          "public_transport": "stop_position"
        }
      },
      {
        "type": "node",
        "id": 12479801114,
        "lat": 12.9785778,
        "lon": 77.5720175,
        "tags": {
          "bus": "yes",
          "name": "Platform 20A",
          "operator": "BMTC",
          "public_transport": "stop_position"
        }
      },
      {
        "type": "node",
        "id": 12479801115,
        "lat": 12.9785118,
        "lon": 77.5718715,
        "tags": {
          "bus": "yes",
          "name": "Platform 20",
          "operator": "BMTC",
          "public_transport": "stop_position"
        }
      },
      {
        "type": "node",
        "id": 12479801117,
        "lat": 12.9783014,
        "lon": 77.5715901,
        "tags": {
          "bus": "yes",
          "name": "Platform 19B",
          "operator": "BMTC",
          "public_transport": "stop_position"
        }
      },
      {
        "type": "node",
        "id": 12479801118,
        "lat": 12.978148,
        "lon": 77.5714678,
        "tags": {
          "bus": "yes",
          "name": "Platform 19A",
          "operator": "BMTC",
          "public_transport": "stop_position"
        }
      },
      {
        "type": "node",
        "id": 12479801119,
        "lat": 12.978004,
        "lon": 77.5713937,
        "tags": {
          "bus": "yes",
          "name": "Platform 19",
          "operator": "BMTC",
          "public_transport": "stop_position"
        }
      },
      {
        "type": "node",
        "id": 12479801171,
        "lat": 12.9778982,
        "lon": 77.5716,
        "tags": {
          "bus": "yes",
          "name": "Platform 18A",
          "operator": "BMTC",
          "public_transport": "stop_position"
        }
      },
      {
        "type": "node",
        "id": 12479801172,
        "lat": 12.9780256,
        "lon": 77.5716466,
        "tags": {
          "bus": "yes",
          "name": "Platform 18",
          "operator": "BMTC",
          "public_transport": "stop_position"
        }
      },
      {
        "type": "node",
        "id": 12479801173,
        "lat": 12.978163,
        "lon": 77.5717468,
        "tags": {
          "bus": "yes",
          "name": "Platform 17A",
          "operator": "BMTC",
          "public_transport": "stop_position"
        }
      },
      {
        "type": "node",
        "id": 12479801174,
        "lat": 12.9782831,
        "lon": 77.5718746,
        "tags": {
          "bus": "yes",
          "name": "Platform 17",
          "operator": "BMTC",
          "public_transport": "stop_position"
        }
      },
      {
        "type": "node",
        "id": 12479801175,
        "lat": 12.9783511,
        "lon": 77.5719972,
        "tags": {
          "bus": "yes",
          "name": "Platform 16",
          "operator": "BMTC",
          "public_transport": "stop_position"
        }
      },
      {
        "type": "node",
        "id": 12479801176,
        "lat": 12.9784076,
        "lon": 77.5721601,
        "tags": {
          "bus": "yes",
          "name": "Platform 15A",
          "operator": "BMTC",
          "public_transport": "stop_position"
        }
      },
      {
        "type": "node",
        "id": 12479801177,
        "lat": 12.9784244,
        "lon": 77.5722951,
        "tags": {
          "bus": "yes",
          "name": "Platform 15",
          "operator": "BMTC",
          "public_transport": "stop_position"
        }
      },
      {
        "type": "node",
        "id": 12479801190,
        "lat": 12.9784189,
        "lon": 77.5724888,
        "tags": {
          "bus": "yes",
          "name": "Platform 14",
          "operator": "BMTC",
          "public_transport": "stop_position"
        }
      },
      {
        "type": "node",
        "id": 12479801191,
        "lat": 12.9783995,
        "lon": 77.5725967,
        "tags": {
          "bus": "yes",
          "name": "Platform 13",
          "operator": "BMTC",
          "public_transport": "stop_position"
        }
      },
      {
        "type": "node",
        "id": 12479801192,
        "lat": 12.9783424,
        "lon": 77.5727364,
        "tags": {
          "bus": "yes",
          "name": "Platform 12A",
          "operator": "BMTC",
          "public_transport": "stop_position"
        }
      },
      {
        "type": "node",
        "id": 12479801194,
        "lat": 12.9779899,
        "lon": 77.5731353,
        "tags": {
          "bus": "yes",
          "name": "Platform 11A",
          "operator": "BMTC",
          "public_transport": "stop_position"
        }
      },
      {
        "type": "node",
        "id": 12479801195,
        "lat": 12.9778782,
        "lon": 77.5731873,
        "tags": {
          "bus": "yes",
          "name": "Platform 11",
          "operator": "BMTC",
          "public_transport": "stop_position"
        }
      },
      {
        "type": "node",
        "id": 12479806808,
        "lat": 12.9780777,
        "lon": 77.572811,
        "tags": {
          "bus": "yes",
          "name": "Platform 9",
          "operator": "BMTC",
          "public_transport": "stop_position"
        }
      },
      {
        "type": "node",
        "id": 12479806809,
        "lat": 12.9781644,
        "lon": 77.5726809,
        "tags": {
          "bus": "yes",
          "name": "Platform 8B",
          "operator": "BMTC",
          "public_transport": "stop_position"
        }
      },
      {
        "type": "node",
        "id": 12479806822,
        "lat": 12.9777735,
        "lon": 77.5719062,
        "tags": {
          "bus": "yes",
          "name": "Platform 4B",
          "operator": "BMTC",
          "public_transport": "stop_position"
        }
      },
      {
        "type": "node",
        "id": 12479806823,
        "lat": 12.9779433,
        "lon": 77.572024,
        "tags": {
          "bus": "yes",
          "name": "Platform 4A",
          "operator": "BMTC",
          "public_transport": "stop_position"
        }
      },
      {
        "type": "node",
        "id": 12479806835,
        "lat": 12.9779386,
        "lon": 77.5729337,
        "tags": {
          "bus": "yes",
          "name": "Platform 10",
          "operator": "BMTC",
          "public_transport": "stop_position"
        }
      },
      {
        "type": "node",
        "id": 12479806836,
        "lat": 12.9780131,
        "lon": 77.5721195,
        "tags": {
          "bus": "yes",
          "name": "Platform 4",
          "name:kn": "\u0cb5\u0cc7\u0ca6\u0cbf\u0c95\u0cc6 \u0cea",
          "operator": "BMTC",
          "public_transport": "stop_position"
        }
      },
      {
        "type": "node",
        "id": 12506944637,
        "lat": 12.9784072,
        "lon": 77.5725538,
        "tags": {
          "bus": "yes",
          "name": "Platform 25C",
          "operator": "BMTC",
          "public_transport": "stop_position"
        }
      },
      {
        "type": "node",
        "id": 12506944638,
        "lat": 12.9783342,
        "lon": 77.5727541,
        "tags": {
          "bus": "yes",
          "name": "Platform 25B",
          "operator": "BMTC",
          "public_transport": "stop_position"
        }
      },
      {
        "type": "node",
        "id": 12506944639,
        "lat": 12.9782715,
        "lon": 77.5728788,
        "tags": {
          "bus": "yes",
          "name": "Platform 25A",
          "operator": "BMTC",
          "public_transport": "stop_position"
        }
      },
      {
        "type": "node",
        "id": 12506944640,
        "lat": 12.9781179,
        "lon": 77.5730294,
        "tags": {
          "bus": "yes",
          "name": "Platform 25",
          "operator": "BMTC",
          "public_transport": "stop_position"
        }
      },
      {
        "type": "node",
        "id": 12506944641,
        "lat": 12.9779091,
        "lon": 77.5731729,
        "tags": {
          "bus": "yes",
          "name": "Platform 24",
          "operator": "BMTC",
          "public_transport": "stop_position"
        }
      },
      {
        "type": "node",
        "id": 12506944656,
        "lat": 12.9778642,
        "lon": 77.5715876,
        "tags": {
          "bus": "yes",
          "name": "Platform 29C",
          "operator": "BMTC",
          "public_transport": "stop_position"
        }
      },
      {
        "type": "node",
        "id": 12506944657,
        "lat": 12.9779458,
        "lon": 77.5716174,
        "tags": {
          "bus": "yes",
          "name": "Platform 29B",
          "operator": "BMTC",
          "public_transport": "stop_position"
        }
      },
      {
        "type": "node",
        "id": 12506944658,
        "lat": 12.9780107,
        "lon": 77.5716411,
        "tags": {
          "bus": "yes",
          "name": "Platform 29A",
          "operator": "BMTC",
          "public_transport": "stop_position"
        }
      },
      {
        "type": "node",
        "id": 12506944659,
        "lat": 12.9780846,
        "lon": 77.5716859,
        "tags": {
          "bus": "yes",
          "name": "Platform 29",
          "operator": "BMTC",
          "public_transport": "stop_position"
        }
      },
      {
        "type": "node",
        "id": 12506944660,
        "lat": 12.9782721,
        "lon": 77.5718623,
        "tags": {
          "bus": "yes",
          "name": "Platform 28",
          "operator": "BMTC",
          "public_transport": "stop_position"
        }
      },
      {
        "type": "node",
        "id": 12506944661,
        "lat": 12.9783183,
        "lon": 77.571935,
        "tags": {
          "bus": "yes",
          "name": "Platform 27A",
          "operator": "BMTC",
          "public_transport": "stop_position"
        }
      },
      {
        "type": "node",
        "id": 12506944662,
        "lat": 12.9783675,
        "lon": 77.5720375,
        "tags": {
          "bus": "yes",
          "name": "Platform 27",
          "operator": "BMTC",
          "public_transport": "stop_position"
        }
      },
      {
        "type": "node",
        "id": 12506944663,
        "lat": 12.978402,
        "lon": 77.5721355,
        "tags": {
          "bus": "yes",
          "name": "Platform 26A",
          "operator": "BMTC",
          "public_transport": "stop_position"
        }
      },
      {
        "type": "node",
        "id": 12506944664,
        "lat": 12.9784197,
        "lon": 77.5722573,
        "tags": {
          "bus": "yes",
          "name": "Platform 26",
          "operator": "BMTC",
          "public_transport": "stop_position"
        }
      },
      {
        "type": "node",
        "id": 12506944679,
        "lat": 12.9783916,
        "lon": 77.5716921,
        "tags": {
          "bus": "yes",
          "name": "Platform 19C",
          "operator": "BMTC",
          "public_transport": "stop_position"
        }
      },
      {
        "type": "node",
        "id": 12506944680,
        "lat": 12.9781569,
        "lon": 77.5729941,
        "tags": {
          "bus": "yes",
          "name": "Platform 11C",
          "operator": "BMTC",
          "public_transport": "stop_position"
        }
      },
      {
        "type": "node",
        "id": 12506944681,
        "lat": 12.9780954,
        "lon": 77.5730497,
        "tags": {
          "bus": "yes",
          "name": "Platform 11B",
          "operator": "BMTC",
          "public_transport": "stop_position"
        }
      },
      {
        "type": "node",
        "id": 12506944693,
        "lat": 12.9775139,
        "lon": 77.5726718,
        "tags": {
          "bus": "yes",
          "name": "KIA Bus Stop",
          "official_name": "Platform 30",
          "operator": "BMTC",
          "public_transport": "stop_position"
        }
      },
      {
        "type": "node",
        "id": 12506944698,
        "lat": 12.9778904,
        "lon": 77.5733875,
        "tags": {
          "bus": "yes",
          "name": "Platform 23D",
          "operator": "BMTC",
          "public_transport": "stop_position"
        }
      },
      {
        "type": "node",
        "id": 12506944699,
        "lat": 12.9780198,
        "lon": 77.5733244,
        "tags": {
          "bus": "yes",
          "name": "Platform 23C",
          "operator": "BMTC",
          "public_transport": "stop_position"
        }
      },
      {
        "type": "node",
        "id": 12506944700,
        "lat": 12.9782161,
        "lon": 77.5731911,
        "tags": {
          "bus": "yes",
          "name": "Platform 23A",
          "operator": "BMTC",
          "public_transport": "stop_position"
        }
      },
      {
        "type": "node",
        "id": 12506953101,
        "lat": 12.9784828,
        "lon": 77.5729077,
        "tags": {
          "bus": "yes",
          "name": "Platform 22B",
          "operator": "BMTC",
          "public_transport": "stop_position"
        }
      },
      {
        "type": "node",
        "id": 12506953102,
        "lat": 12.9785603,
        "lon": 77.5727305,
        "tags": {
          "bus": "yes",
          "name": "Platform 22",
          "operator": "BMTC",
          "public_transport": "stop_position"
        }
      },
      {
        "type": "node",
        "id": 12507290067,
        "lat": 12.9610244,
        "lon": 77.5774231,
        "tags": {
          "bus": "yes",
          "name": "Platform 6C",
          "operator": "BMTC",
          "public_transport": "stop_position"
        }
      },
      {
        "type": "node",
        "id": 12507290068,
        "lat": 12.9609478,
        "lon": 77.5773141,
        "tags": {
          "bus": "yes",
          "name": "Platform 6B",
          "operator": "BMTC",
          "public_transport": "stop_position"
        }
      },
      {
        "type": "node",
        "id": 12507290069,
        "lat": 12.9608754,
        "lon": 77.5772111,
        "tags": {
          "bus": "yes",
          "name": "Platform 6A",
          "operator": "BMTC",
          "public_transport": "stop_position"
        }
      },
      {
        "type": "node",
        "id": 12507290070,
        "lat": 12.960807,
        "lon": 77.5771138,
        "tags": {
          "bus": "yes",
          "name": "Platform 6",
          "operator": "BMTC",
          "public_transport": "stop_position"
        }
      },
      {
        "type": "node",
        "id": 12507290071,
        "lat": 12.9608221,
        "lon": 77.5773906,
        "tags": {
          "bus": "yes",
          "name": "Platform 5B",
          "operator": "BMTC",
          "public_transport": "stop_position"
        }
      },
      {
        "type": "node",
        "id": 12507290072,
        "lat": 12.9607074,
        "lon": 77.5772338,
        "tags": {
          "bus": "yes",
          "name": "Platform 5A",
          "operator": "BMTC",
          "public_transport": "stop_position"
        }
      },
      {
        "type": "node",
        "id": 12507290073,
        "lat": 12.9605989,
        "lon": 77.5770855,
        "tags": {
          "bus": "yes",
          "name": "Platform 5",
          "operator": "BMTC",
          "public_transport": "stop_position"
        }
      },
      {
        "type": "node",
        "id": 12507290074,
        "lat": 12.9606322,
        "lon": 77.5773696,
        "tags": {
          "bus": "yes",
          "name": "Platform 4",
          "operator": "BMTC",
          "public_transport": "stop_position"
        }
      },
      {
        "type": "node",
        "id": 12507290075,
        "lat": 12.9605549,
        "lon": 77.5772587,
        "tags": {
          "bus": "yes",
          "name": "Platform 3B",
          "operator": "BMTC",
          "public_transport": "stop_position"
        }
      },
      {
        "type": "node",
        "id": 12507290076,
        "lat": 12.9604827,
        "lon": 77.5771554,
        "tags": {
          "bus": "yes",
          "name": "Platform 3A",
          "operator": "BMTC",
          "public_transport": "stop_position"
        }
      },
      {
        "type": "node",
        "id": 12507290077,
        "lat": 12.960401,
        "lon": 77.5770383,
        "tags": {
          "bus": "yes",
          "name": "Platform 3",
          "operator": "BMTC",
          "public_transport": "stop_position"
        }
      },
      {
        "type": "node",
        "id": 12511443667,
        "lat": 12.9511732,
        "lon": 77.5916216,
        "tags": {
          "bus": "yes",
          "name": "Lalbagh HOPCOMS",
          "name:en": "Lalbagh HOPCOMS",
          "network": "BMTC",
          "operator": "BMTC",
          "public_transport": "stop_position"
        }
      },
      {
        "type": "node",
        "id": 12511443668,
        "lat": 12.9564797,
        "lon": 77.5772696,
        "tags": {
          "bus": "yes",
          "name": "Basappa Circle",
          "name:en": "Basappa Circle",
          "network": "BMTC",
          "operator": "BMTC",
          "public_transport": "stop_position"
        }
      },
      {
        "type": "node",
        "id": 12511443669,
        "lat": 12.9576978,
        "lon": 77.5738382,
        "tags": {
          "bus": "yes",
          "name": "Makkala Koota",
          "name:en": "Makkala Koota",
          "network": "BMTC",
          "operator": "BMTC",
          "public_transport": "stop_position"
        }
      },
      {
        "type": "node",
        "id": 12526337224,
        "lat": 12.9816889,
        "lon": 77.574589,
        "tags": {
          "bus": "yes",
          "name": "Ananda Rao Circle",
          "name:en": "Ananda Rao Circle",
          "network": "BMTC",
          "operator": "BMTC",
          "public_transport": "stop_position"
        }
      },
      {
        "type": "node",
        "id": 12999114793,
        "lat": 12.942457,
        "lon": 77.5851576,
        "tags": {
          "bus": "yes",
          "name": "Ashoka Pillar",
          "name:en": "Ashoka Pillar",
          "network": "BMTC",
          "operator": "BMTC",
          "public_transport": "stop_position"
        }
      },
      {
        "type": "node",
        "id": 13020763141,
        "lat": 12.9502567,
        "lon": 77.5957807,
        "tags": {
          "bus": "yes",
          "name": "Wilson Garden Police Station",
          "name:en": "Wilson Garden Police Station",
          "network": "BMTC",
          "operator": "BMTC",
          "public_transport": "stop_position"
        }
      },
      {
        "type": "node",
        "id": 13074467490,
        "lat": 12.9824045,
        "lon": 77.5886066,
        "tags": {
          "bus": "yes",
          "name": "Telephone Exchange AGO/VSD",
          "name:en": "Telephone Exchange AGO/VSD",
          "network": "BMTC",
          "operator": "BMTC",
          "public_transport": "stop_position"
        }
      },
      {
        "type": "node",
        "id": 13110965690,
        "lat": 12.9415864,
        "lon": 77.573834,
        "tags": {
          "bus": "yes",
          "name": "Basavanagudi Police Station",
          "name:en": "Basavanagudi Police Station",
          "network": "BMTC",
          "operator": "BMTC",
          "public_transport": "stop_position"
        }
      },
      {
        "type": "node",
        "id": 13110965693,
        "lat": 12.949791,
        "lon": 77.5737601,
        "tags": {
          "bus": "yes",
          "name": "National College",
          "name:en": "National College",
          "network": "BMTC",
          "operator": "BMTC",
          "public_transport": "stop_position"
        }
      }
    ]
  }
}