{
  "pois_1km": {
    "version": 0.6,
    "generator": "Overpass API 0.7.62.8 e802775f",
    "osm3s": {
      "timestamp_osm_base": "2025-09-06T08:23:40Z",
      "copyright": "The data included in this document is from www.openstreetmap.org. The data is made available under ODbL."
    },
    "elements": [
      {
        "type": "node",
        "id": 983328415,
        "lat": 12.9951883,
        "lon": 77.6985535,
        "tags": {
          "addr:city": "Mahadevapura, Bangalore",
          "addr:housenumber": "P-4",
          "addr:postcode": "560048",
          "addr:street": "Kssidc Industrial Area",
          "amenity": "bank",
          "atm": "yes",
          "brand": "HDFC Bank",
          "brand:wikidata": "Q631047",
          "fax": "+91-80-67126601",
          "name": "HDFC Bank",
          "operator": "HDFC Bank",
          "phone": "+91-80-66003333",
          "short_name": "HDFC"
        }
      },
      {
        "type": "node",
        "id": 983328421,
        "lat": 12.9953337,
        "lon": 77.6981627,
        "tags": {
          "addr:street": "Whitefield Road",
          "addr:suburb": "Mahadevapura",
          "amenity": "bank",
          "atm": "yes",
          "brand": "Canara Bank",
          "brand:en": "Canara Bank",
          "brand:hi": "\u0915\u0947\u0928\u0930\u093e \u092c\u0948\u0902\u0915",
          "brand:kn": "\u0c95\u0cc6\u0ca8\u0cb0\u0cbe \u0cac\u0ccd\u0caf\u0cbe\u0c82\u0c95\u0ccd",
          "brand:pa": "\u0a15\u0a47\u0a28\u0a30\u0a3e \u0a2c\u0a48\u0a02\u0a15",
          "brand:pnb": "\u06a9\u06cc\u0646\u0631\u0627 \u0628\u06cc\u0646\u06a9",
          "brand:ur": "\u06a9\u06cc\u0646\u0631\u0627 \u0628\u06cc\u0646\u06a9",
          "brand:wikidata": "Q2003777",
          "name": "Canara Bank",
          "name:en": "Canara Bank",
          "name:hi": "\u0915\u0947\u0928\u0930\u093e \u092c\u0948\u0902\u0915",
          "name:kn": "\u0c95\u0cc6\u0ca8\u0cb0\u0cbe \u0cac\u0ccd\u0caf\u0cbe\u0c82\u0c95\u0ccd",
          "name:pa": "\u0a15\u0a47\u0a28\u0a30\u0a3e \u0a2c\u0a48\u0a02\u0a15",
          "name:pnb": "\u06a9\u06cc\u0646\u0631\u0627 \u0628\u06cc\u0646\u06a9",
          "name:ur": "\u06a9\u06cc\u0646\u0631\u0627 \u0628\u06cc\u0646\u06a9",
          "operator": "Canara Bank"
        }
      },
      {
        "type": "node",
        "id": 983351500,
        "lat": 12.9956238,
        "lon": 77.6992864,
        "tags": {
          "addr:city": "Mahadevapura",
          "addr:street": "Whitefield Road",
          "amenity": "bank",
          "atm": "yes",
          "brand": "State Bank of India",
          "brand:wikidata": "Q1340361",
          "name": "State Bank of India",
          "name:kn": "\u0c8e\u0cb8\u0ccd \u0cac\u0cbf \u0c90",
          "operator": "SBI",
          "short_name": "SBI"
        }
      },
      {
        "type": "node",
        "id": 1104408041,
        "lat": 12.9930001,
        "lon": 77.7027197,
        "tags": {
          "addr:city": "Bangalore",
          "addr:street": "Whitefield Road",
          "amenity": "fast_food",
          "brand": "Domino's",
          "brand:ks": "\u0688\u0648\u0645\u06cc\u0646\u0648\u0632",
          "brand:pa": "\u0a21\u0a4b\u0a2e\u0a40\u0a28\u0a4b\u0a1c\u0a3c",
          "brand:ur": "\u0688\u0648\u0645\u06cc\u0646\u0648\u0632",
          "brand:wikidata": "Q839466",
          "brand:wikipedia": "en:Domino's Pizza",
          "cuisine": "pizza",
          "name": "Domino's",
          "name:kn": "\u0ca1\u0cbe\u0cae\u0cbf\u0ca8\u0ccb\u0cb8\u0ccd",
          "name:ks": "\u0688\u0648\u0645\u06cc\u0646\u0648\u0632",
          "name:pa": "\u0a21\u0a4b\u0a2e\u0a40\u0a28\u0a4b\u0a1c\u0a3c",
          "name:ur": "\u0688\u0648\u0645\u06cc\u0646\u0648\u0632",
          "takeaway": "yes"
        }
      },
      {
        "type": "node",
        "id": 1186831410,
        "lat": 12.9951629,
        "lon": 77.69923,
        "tags": {
          "addr:street": "Whitefield Road",
          "amenity": "hospital",
          "name": "Presidency Hospital"
        }
      },
      {
        "type": "node",
        "id": 1186831429,
        "lat": 12.9954058,
        "lon": 77.6992647,
        "tags": {
          "addr:street": "Whitefield Road",
          "amenity": "atm",
          "brand": "State Bank of India",
          "brand:wikidata": "Q1340361",
          "operator": "State Bank of India",
          "operator:wikidata": "Q1340361",
          "short_name": "SBI"
        }
      },
      {
        "type": "node",
        "id": 1350237055,
        "lat": 12.9949844,
        "lon": 77.6960255,
        "tags": {
          "addr:city": "Mahadevapura, Bangalore",
          "addr:street": "Whitefield Road",
          "amenity": "bank",
          "atm": "yes",
          "brand": "Corporation Bank",
          "brand:wikidata": "Q2003387",
          "brand:wikipedia": "en:Corporation Bank",
          "name": "Corporation Bank",
          "name:en": "Corporation Bank",
          "name:kn": "\u0c95\u0cbe\u0cb0\u0ccd\u0caa\u0cb0\u0cc7\u0cb7\u0ca8\u0ccd \u0cac\u0ccd\u0caf\u0cbe\u0c82\u0c95\u0ccd",
          "website": "https://corpbank.com/"
        }
      },
      {
        "type": "node",
        "id": 1717908330,
        "lat": 12.9912991,
        "lon": 77.6878913,
        "tags": {
          "amenity": "clinic",
          "name": "Maruthi Clinic",
          "name:kn": "\u0cae\u0cbe\u0cb0\u0cc1\u0ca4\u0cbf \u0c9a\u0cbf\u0c95\u0cbf\u0ca4\u0ccd\u0cb8\u0cbe\u0cb2\u0caf"
        }
      },
      {
        "type": "node",
        "id": 1717909484,
        "lat": 12.9960796,
        "lon": 77.6933786,
        "tags": {
          "addr:street": "Whitefield Road",
          "amenity": "clinic",
          "name": "Dr.Chandar Clinic"
        }
      },
      {
        "type": "node",
        "id": 1719522409,
        "lat": 12.9918615,
        "lon": 77.6883761,
        "tags": {
          "amenity": "pharmacy",
          "dispensing": "yes"
        }
      },
      {
        "type": "node",
        "id": 1719523296,
        "lat": 12.99131,
        "lon": 77.6878396,
        "tags": {
          "amenity": "pharmacy",
          "dispensing": "yes"
        }
      },
      {
        "type": "node",
        "id": 1733720842,
        "lat": 12.9926358,
        "lon": 77.7027672,
        "tags": {
          "amenity": "cafe",
          "brand": "Costa",
          "brand:wikidata": "Q608845",
          "cuisine": "coffee_shop",
          "name": "Costa",
          "takeaway": "yes"
        }
      },
      {
        "type": "node",
        "id": 1733720846,
        "lat": 12.9922906,
        "lon": 77.7027028,
        "tags": {
          "amenity": "fast_food",
          "name": "Kismiss"
        }
      },
      {
        "type": "node",
        "id": 1839606932,
        "lat": 12.9927632,
        "lon": 77.7027663,
        "tags": {
          "amenity": "bank",
          "atm": "yes",
          "brand": "State Bank of India",
          "brand:wikidata": "Q1340361",
          "brand:wikipedia": "en:State Bank of India",
          "name": "State Bank of India",
          "name:kn": "\u0cad\u0cbe\u0cb0\u0ca4\u0cc0\u0caf \u0cb8\u0ccd\u0c9f\u0cc7\u0c9f\u0ccd \u0cac\u0ccd\u0caf\u0cbe\u0c82\u0c95\u0ccd",
          "short_name": "SBI"
        }
      },
      {
        "type": "node",
        "id": 2282215762,
        "lat": 12.9916549,
        "lon": 77.6907785,
        "tags": {
          "amenity": "atm",
          "brand": "ICICI Bank",
          "brand:wikidata": "Q1653258",
          "operator": "ICICI Bank",
          "operator:wikidata": "Q1653258",
          "short_name": "ICICI"
        }
      },
      {
        "type": "node",
        "id": 2287631057,
        "lat": 12.9970313,
        "lon": 77.6915828,
        "tags": {
          "amenity": "atm",
          "brand": "IDBI Bank",
          "brand:wikidata": "Q3633485",
          "operator": "IDBI Bank",
          "operator:wikidata": "Q3633485",
          "short_name": "IDBI"
        }
      },
      {
        "type": "node",
        "id": 3426278198,
        "lat": 12.9925169,
        "lon": 77.7031605,
        "tags": {
          "amenity": "atm",
          "brand": "Citibank",
          "brand:wikidata": "Q857063",
          "name": "Citibank ATM",
          "operator": "Citibank",
          "operator:wikidata": "Q857063",
          "short_name": "Citi"
        }
      },
      {
        "type": "node",
        "id": 4172475591,
        "lat": 12.9970034,
        "lon": 77.6911331,
        "tags": {
          "addr:street": "Mahadevapura Main Road",
          "amenity": "pharmacy",
          "name": "Max Pharma"
        }
      },
      {
        "type": "node",
        "id": 4445573505,
        "lat": 12.9950766,
        "lon": 77.6967056,
        "tags": {
          "addr:city": "Bangalore",
          "addr:housenumber": "# 90A",
          "addr:postcode": "560048",
          "addr:street": "Whitefield Road, R.H.B. colony, Mahadevapura",
          "amenity": "pharmacy",
          "name": "Mass pharma",
          "phone": "+9197408 10151"
        }
      },
      {
        "type": "node",
        "id": 4445639834,
        "lat": 12.9929014,
        "lon": 77.7027759,
        "tags": {
          "addr:city": "Bangalore",
          "addr:housenumber": "113",
          "addr:postcode": "560048",
          "addr:street": "Whitefield Road,Garudachar Palya, Mahadevapura",
          "amenity": "pharmacy",
          "healthcare": "pharmacy",
          "name": "NationWide Primary Healthcare Services",
          "phone": "080 4205 5422"
        }
      },
      {
        "type": "node",
        "id": 4445660067,
        "lat": 12.9891818,
        "lon": 77.689783,
        "tags": {
          "addr:city": "Bangalore",
          "addr:housenumber": "#56/2",
          "addr:postcode": "560048",
          "addr:street": "ORR Service Road, Shiva Ganga Layout, B Narayanapura, Mahadevapura",
          "amenity": "hospital",
          "name": "Bright Children's Clinic",
          "phone": "+9178994 22511"
        }
      },
      {
        "type": "node",
        "id": 4446871115,
        "lat": 12.9969562,
        "lon": 77.6966407,
        "tags": {
          "addr:city": "Bengaluru",
          "addr:housename": "Phoenix Market City",
          "addr:housenumber": "106/107",
          "addr:postcode": "560048",
          "addr:street": "Whitefield Road",
          "addr:suburb": "Mahadevpura",
          "amenity": "clinic",
          "healthcare": "clinic",
          "level": "2",
          "name": "Kaya Skin Clinic",
          "phone": "080672 66266",
          "website": "https://kaya.in/"
        }
      },
      {
        "type": "node",
        "id": 4447090186,
        "lat": 12.9980375,
        "lon": 77.6962682,
        "tags": {
          "addr:city": "Bengaluru",
          "addr:postcode": "560048",
          "addr:street": "Whitefield Main Road, Mahadevpura, Devasandra Industrial Estate, Krishnarajapuram, Bengaluru",
          "amenity": "restaurant",
          "name": "Shanghai times",
          "opening_hours": "11:00-23:00",
          "phone": "+918067266130"
        }
      },
      {
        "type": "node",
        "id": 4447108501,
        "lat": 12.9979686,
        "lon": 77.6966599,
        "tags": {
          "addr:city": "Bengaluru",
          "addr:postcode": "560048",
          "addr:street": "Whitefield Main Road, Mahadevpura, Devasandra Industrial Estate, Krishnarajapuram",
          "amenity": "restaurant",
          "name": "PBN Express",
          "opening_hours": "11:00-22:30",
          "phone": "+918049138800",
          "website": "https://www.punjabibynature.com/"
        }
      },
      {
        "type": "node",
        "id": 4447119333,
        "lat": 12.9973146,
        "lon": 77.6969454,
        "tags": {
          "addr:street": "Whitefield Main Road, Mahadevpura, Devasandra Industrial Estate, Krishnarajapuram",
          "amenity": "restaurant",
          "name": "Copper Chimney",
          "opening_hours": "12:00-15:30, 19:00-23:00",
          "phone": "+918067266455",
          "website": "https://www.copperchimney.in/"
        }
      },
      {
        "type": "node",
        "id": 4447133078,
        "lat": 12.9974138,
        "lon": 77.6969243,
        "tags": {
          "addr:city": "Bengaluru",
          "addr:postcode": "560048",
          "addr:street": "Whitefield Main Road, Mahadevpura, Devasandra Industrial Estate, Krishnarajapuram",
          "amenity": "fast_food",
          "brand": "Wow! Momo",
          "brand:wikidata": "Q8037446",
          "cuisine": "momo",
          "indoor_seating": "yes",
          "name": "Wow! Momo",
          "outdoor_seating": "no",
          "phone": "+917411717503",
          "takeaway": "yes"
        }
      },
      {
        "type": "node",
        "id": 4447163802,
        "lat": 12.9971395,
        "lon": 77.6969098,
        "tags": {
          "addr:housenumber": "29",
          "addr:street": "Whitefield Main Road, Mahadevpura, Devasandra Industrial Estate, Krishnarajapuram",
          "amenity": "restaurant",
          "name": "Social",
          "opening_hours": "Mo-Su 09:00-12:30",
          "phone": "+918040515253"
        }
      },
      {
        "type": "node",
        "id": 4447343877,
        "lat": 12.9968154,
        "lon": 77.6968884,
        "tags": {
          "addr:city": "Bengaluru",
          "addr:housename": "Phoenix Market City",
          "addr:postcode": "560048",
          "addr:street": "Whitefield Road",
          "addr:suburb": "Mahadevpura",
          "air_conditioning": "yes",
          "amenity": "restaurant",
          "indoor_seating": "yes",
          "name": "Rajdhani",
          "name:kn": "\u0cb0\u0cbe\u0c9c\u0ca7\u0cbe\u0ca8\u0cbf",
          "opening_hours": "Mo-Su 11:30-15:30,19:30-23:00",
          "outdoor_seating": "no",
          "phone": "+918067266503",
          "smoking": "no",
          "website": "https://www.rajdhani.co.in/"
        }
      },
      {
        "type": "node",
        "id": 4447345580,
        "lat": 12.996706,
        "lon": 77.6968735,
        "tags": {
          "addr:city": "Bengaluru",
          "addr:housenumber": "UG-40/41",
          "addr:postcode": "560048",
          "addr:street": "Whitefield Main Road, Mahadevpura, Devasandra Industrial Estate, Krishnarajapuram",
          "amenity": "restaurant",
          "brand": "Chili's",
          "brand:wikidata": "Q1072948",
          "brand:wikipedia": "en:Chili's",
          "cuisine": "tex-mex",
          "name": "Chili's",
          "official_name": "Chili's Grill & Bar",
          "phone": "+918067266406",
          "website": "https://www.chilis.com/"
        }
      },
      {
        "type": "node",
        "id": 4447354211,
        "lat": 12.996601,
        "lon": 77.6968556,
        "tags": {
          "addr:city": "Bengaluru",
          "addr:postcode": "560048",
          "addr:street": "Whitefield Main Road, Mahadevpura, Devasandra Industrial Estate, Krishnarajapuram",
          "amenity": "restaurant",
          "brand": "Cafe Noir",
          "brand:wikidata": "Q124374751",
          "cuisine": "french",
          "delivery": "yes",
          "name": "Cafe Noir",
          "opening_hours": "10:30-23:00",
          "phone": "+918067266099",
          "takeaway": "yes",
          "website": "https://www.cafenoir.co.in/"
        }
      },
      {
        "type": "node",
        "id": 4447357910,
        "lat": 12.9965221,
        "lon": 77.6967696,
        "tags": {
          "addr:city": "Bengaluru",
          "addr:postcode": "560048",
          "addr:street": "Whitefield Main Road, Mahadevpura, Devasandra Industrial Estate, Krishnarajapuram",
          "amenity": "fast_food",
          "name": "The United Sports Bar& Grill",
          "phone": "+918067266661"
        }
      },
      {
        "type": "node",
        "id": 4447438489,
        "lat": 12.9963625,
        "lon": 77.6968264,
        "tags": {
          "addr:city": "Bengaluru",
          "addr:postcode": "560048",
          "addr:street": "Whitefield Main Road, Mahadevpura, Devasandra Industrial Estate, Krishnarajapuram",
          "amenity": "restaurant",
          "cuisine": "regional",
          "name": "Belgyum",
          "phone": "+918049653058",
          "smoking": "no",
          "website": "www.belgyum.in"
        }
      },
      {
        "type": "node",
        "id": 4447446010,
        "lat": 12.9962814,
        "lon": 77.6968371,
        "tags": {
          "addr:city": "Bengaluru",
          "addr:postcode": "560048",
          "addr:street": "Whitefield Main Road, Mahadevpura, Devasandra Industrial Estate, Krishnarajapuram",
          "amenity": "fast_food",
          "brand": "Burger King",
          "brand:pa": "\u0a2c\u0a30\u0a17\u0a30 \u0a15\u0a3f\u0a70\u0a17",
          "brand:ur": "\u0628\u0631\u06af\u0631 \u06a9\u0646\u06af",
          "brand:wikidata": "Q177054",
          "brand:wikipedia": "en:Burger King",
          "brand:wikipedia:pa": "\u0a2c\u0a30\u0a17\u0a30 \u0a15\u0a3f\u0a70\u0a17",
          "brand:wikipedia:ur": "\u0628\u0631\u06af\u0631 \u06a9\u0646\u06af",
          "cuisine": "burger",
          "indoor_seating": "yes",
          "name": "Burger King",
          "name:pa": "\u0a2c\u0a30\u0a17\u0a30 \u0a15\u0a3f\u0a70\u0a17",
          "name:ru": "\u0411\u0443\u0440\u0433\u0435\u0440 \u041a\u0438\u043d\u0433",
          "name:ur": "\u0628\u0631\u06af\u0631 \u06a9\u0646\u06af",
          "opening_hours": "11:00-23:00",
          "outdoor_seating": "no",
          "phone": "+918049652529",
          "smoking": "no",
          "takeaway": "yes",
          "website": "https://www.burgerking.in/"
        }
      },
      {
        "type": "node",
        "id": 4447486771,
        "lat": 12.9960668,
        "lon": 77.6965785,
        "tags": {
          "addr:city": "Bengaluru",
          "addr:postcode": "560048",
          "addr:street": "Whitefield Main Road, Mahadevpura, Devasandra Industrial Estate, Krishnarajapuram",
          "amenity": "cafe",
          "name": "Buntea &Bubbly",
          "phone": "+919008026615",
          "website": "www.bunteabubbly.appspot.com"
        }
      },
      {
        "type": "node",
        "id": 4447494197,
        "lat": 12.9977264,
        "lon": 77.6966474,
        "tags": {
          "addr:city": "Bengaluru",
          "addr:housenumber": "Phoenix Marketcity Bangalore, Whitefield Main Road,",
          "addr:postcode": "560048",
          "addr:street": "Whitefield Main Road, Mahadevpura, Devasandra Industrial Estate, Krishnarajapuram",
          "amenity": "cafe",
          "brand": "Starbucks",
          "brand:pa": "\u0a38\u0a1f\u0a3e\u0a30\u0a2c\u0a15\u0a38",
          "brand:ur": "\u0627\u0633\u0679\u0627\u0631\u0628\u06a9\u0633",
          "brand:wikidata": "Q37158",
          "brand:wikipedia": "en:Starbucks",
          "cuisine": "coffee_shop",
          "internet_access": "yes",
          "level": "0",
          "name": "Starbucks",
          "name:kn": "\u0cb8\u0ccd\u0c9f\u0cbe\u0cb0\u0ccd\u0cac\u0c95\u0ccd\u0cb8\u0ccd",
          "name:pa": "\u0a38\u0a1f\u0a3e\u0a30\u0a2c\u0a15\u0a38",
          "name:ur": "\u0627\u0633\u0679\u0627\u0631\u0628\u06a9\u0633",
          "official_name": "Starbucks Coffee",
          "official_name:pa": "\u0a38\u0a1f\u0a3e\u0a30\u0a2c\u0a15\u0a38 \u0a15\u0a4c\u0a2b\u0a40",
          "official_name:ur": "\u0627\u0633\u0679\u0627\u0631\u0628\u06a9\u0633 \u06a9\u0627\u0641\u06cc",
          "opening_hours": "10:30-22:00",
          "smoking": "no",
          "takeaway": "yes",
          "website": "https://www.starbucks.in/"
        }
      },
      {
        "type": "node",
        "id": 4448657260,
        "lat": 12.9977968,
        "lon": 77.6959728,
        "tags": {
          "addr:city": "Bengaluru",
          "addr:housename": "Phoenix Market City",
          "addr:postcode": "560048",
          "addr:street": "Whitefield Road",
          "addr:suburb": "Mahadevpura",
          "amenity": "restaurant",
          "cuisine": "regional",
          "delivery": "no",
          "indoor_seating": "no",
          "level": "1",
          "name": "Noodle Bar",
          "opening_hours": "10:30-22:00",
          "outdoor_seating": "yes",
          "phone": "8033166466",
          "smoking": "no",
          "takeaway": "yes"
        }
      },
      {
        "type": "node",
        "id": 4528143099,
        "lat": 12.9991705,
        "lon": 77.6946147,
        "tags": {
          "addr:city": "Bengaluru",
          "addr:housenumber": "125",
          "addr:postcode": "560048",
          "addr:street": "2nd Main Road",
          "amenity": "cafe",
          "name": "Zarco",
          "opening_hours": "10:00 - 22:00",
          "phone": "+91 1929891929",
          "smoking": "no",
          "website": "www.aumzone.com"
        }
      },
      {
        "type": "node",
        "id": 4528143100,
        "lat": 12.9994057,
        "lon": 77.6943679,
        "tags": {
          "addr:housenumber": "125",
          "addr:postcode": "560048",
          "addr:street": "2nd Main Road",
          "amenity": "bank",
          "atm": "yes",
          "brand": "State Bank of India",
          "brand:wikidata": "Q1340361",
          "brand:wikipedia": "en:State Bank of India",
          "name": "State Bank of India",
          "name:kn": "\u0cad\u0cbe\u0cb0\u0ca4\u0cc0\u0caf \u0cb8\u0ccd\u0c9f\u0cc7\u0c9f\u0ccd \u0cac\u0ccd\u0caf\u0cbe\u0c82\u0c95\u0ccd",
          "phone": "+91 8939393931",
          "short_name": "SBI",
          "website": "https://www.sbi.co.in"
        }
      },
      {
        "type": "node",
        "id": 4569805089,
        "lat": 12.9954289,
        "lon": 77.697316,
        "tags": {
          "amenity": "fast_food",
          "cuisine": "arab",
          "name": "Kabab Mandra",
          "name:en": "Kabab Mandra"
        }
      },
      {
        "type": "node",
        "id": 7178597794,
        "lat": 12.9964417,
        "lon": 77.695743,
        "tags": {
          "addr:city": "Bengaluru",
          "addr:country": "IN",
          "addr:hamlet": "Mahadevapura",
          "addr:housenumber": "VR Mall",
          "addr:postcode": "560048",
          "addr:street": "Whitefield Road",
          "amenity": "cafe",
          "name": "Food Hall",
          "website": "https://www.foodhallonline.com/"
        }
      },
      {
        "type": "node",
        "id": 7572131843,
        "lat": 12.9936892,
        "lon": 77.7016795,
        "tags": {
          "addr:district": "Bengaluru Urban",
          "addr:full": "Garudachar Palya, Mahadevapura, Bengaluru",
          "addr:postcode": "560048",
          "addr:state": "Karnataka",
          "amenity": "clinic",
          "name": "Chirayu Health care centre",
          "source": "Local Knowledge"
        }
      },
      {
        "type": "node",
        "id": 7572131873,
        "lat": 12.993824,
        "lon": 77.7029,
        "tags": {
          "addr:district": "Bengaluru Urban",
          "addr:full": "Kaveri Nagar, Krishnarajapura, Bengaluru",
          "addr:postcode": "560048",
          "addr:state": "Karnataka",
          "amenity": "clinic",
          "name": "Sai Kripa Nursing Home",
          "source": "Local Knowledge"
        }
      },
      {
        "type": "node",
        "id": 7572131874,
        "lat": 12.992777,
        "lon": 77.694674,
        "tags": {
          "addr:district": "Bengaluru Urban",
          "addr:full": "Lakshmi Sagar Layout, RHB Colony, Mahadevapura, Bengaluru, Karnatak",
          "addr:postcode": "560048",
          "addr:state": "Karnataka",
          "amenity": "clinic",
          "name": "Lyfas Digital Health Clinic",
          "source": "Local Knowledge"
        }
      },
      {
        "type": "node",
        "id": 7572131937,
        "lat": 12.9924407,
        "lon": 77.7027556,
        "tags": {
          "addr:district": "Bengaluru Urban",
          "addr:full": "Whitefield Main Road, Garudachar Palya, Mahadevapura, Bengaluru",
          "addr:postcode": "560048",
          "addr:state": "Karnataka",
          "amenity": "clinic",
          "healthcare": "clinic",
          "name": "Tata Health Clinic",
          "source": "Local Knowledge"
        }
      },
      {
        "type": "node",
        "id": 9892036253,
        "lat": 12.9969552,
        "lon": 77.6969165,
        "tags": {
          "amenity": "restaurant",
          "cuisine": "regional",
          "fixme": "Exact location within Phoenix Market City",
          "name": "Hitchki"
        }
      },
      {
        "type": "node",
        "id": 9937603690,
        "lat": 12.9940421,
        "lon": 77.7019634,
        "tags": {
          "amenity": "atm",
          "brand": "HDFC Bank",
          "brand:wikidata": "Q631047",
          "name": "HDFC Bank",
          "name:kn": "\u0c8e\u0c9a\u0ccd \u0ca1\u0cbf \u0c8e\u0cab\u0ccd \u0cb8\u0cbf",
          "operator": "HDFC Bank",
          "operator:wikidata": "Q631047",
          "short_name": "HDFC"
        }
      },
      {
        "type": "node",
        "id": 9937603696,
        "lat": 12.9938978,
        "lon": 77.7006253,
        "tags": {
          "name": "Ratnadeep Supermarket",
          "shop": "supermarket"
        }
      },
      {
        "type": "node",
        "id": 9937603698,
        "lat": 12.9937994,
        "lon": 77.7012007,
        "tags": {
          "amenity": "restaurant",
          "name": "Sindhoora Gardenia"
        }
      },
      {
        "type": "node",
        "id": 10792878640,
        "lat": 12.9946616,
        "lon": 77.6961287,
        "tags": {
          "amenity": "clinic",
          "check_date": "2023-04-05",
          "healthcare": "clinic",
          "name": "Harsha Poly Clinic & Maternity Home",
          "phone": "+91 93428 63309",
          "source": "survey"
        }
      },
      {
        "type": "node",
        "id": 10792878643,
        "lat": 12.9976424,
        "lon": 77.6964763,
        "tags": {
          "amenity": "fast_food",
          "brand": "Taco Bell",
          "brand:wikidata": "Q752941",
          "check_date": "2023-04-05",
          "cuisine": "tex-mex",
          "name": "Taco Bell",
          "takeaway": "yes"
        }
      },
      {
        "type": "node",
        "id": 10792878645,
        "lat": 12.9977308,
        "lon": 77.6968948,
        "tags": {
          "amenity": "fast_food",
          "brand": "Subway",
          "brand:wikidata": "Q244457",
          "check_date": "2023-04-05",
          "cuisine": "sandwich",
          "diet:non-vegetarian": "yes",
          "diet:vegetarian": "yes",
          "drive_through": "no",
          "name": "Subway",
          "payment:credit_cards": "yes",
          "payment:debit_cards": "yes",
          "source": "survey",
          "takeaway": "yes"
        }
      },
      {
        "type": "node",
        "id": 10792878646,
        "lat": 12.9977909,
        "lon": 77.6968282,
        "tags": {
          "amenity": "fast_food",
          "check_date": "2023-04-05",
          "cuisine": "pizza",
          "diet:non-vegetarian": "yes",
          "diet:vegetarian": "yes",
          "name": "Gopizza",
          "payment:credit_cards": "yes",
          "payment:debit_cards": "yes",
          "source": "survey"
        }
      },
      {
        "type": "node",
        "id": 10792878647,
        "lat": 12.9974899,
        "lon": 77.6967744,
        "tags": {
          "addr:city": "Bengaluru",
          "addr:floor": "2",
          "addr:housename": "Phoenix Market City",
          "addr:postcode": "560048",
          "addr:street": "Whitefield Road",
          "addr:suburb": "Mahadevpura",
          "amenity": "fast_food",
          "check_date": "2023-04-05",
          "cuisine": "donut",
          "level": "2",
          "name": "Mad Over Donuts",
          "payment:credit_cards": "yes",
          "payment:debit_cards": "yes",
          "source": "survey"
        }
      },
      {
        "type": "node",
        "id": 10792878649,
        "lat": 12.9971943,
        "lon": 77.6968291,
        "tags": {
          "amenity": "cafe",
          "brand": "Third Wave Coffee Roasters",
          "brand:wikidata": "Q7785004",
          "check_date": "2023-04-05",
          "cuisine": "coffee_shop",
          "delivery": "yes",
          "name": "Third Wave Coffee Roasters",
          "outdoor_seating": "no",
          "payment:credit_cards": "yes",
          "payment:debit_cards": "yes",
          "source": "survey",
          "takeaway": "yes"
        }
      },
      {
        "type": "node",
        "id": 10792878651,
        "lat": 12.9960944,
        "lon": 77.6953909,
        "tags": {
          "addr:floor": "UG",
          "amenity": "cafe",
          "brand": "Blue Tokai Coffee Roasters",
          "check_date": "2025-04-10",
          "check_date:opening_hours": "2025-04-10",
          "cuisine": "coffee_shop",
          "delivery": "yes",
          "level": "0",
          "name": "Blue Tokai Coffee Roasters",
          "opening_hours": "Mo-Sa 08:00-23:00",
          "outdoor_seating": "yes",
          "payment:credit_cards": "yes",
          "payment:debit_cards": "yes",
          "takeaway": "yes"
        }
      },
      {
        "type": "node",
        "id": 11444019769,
        "lat": 12.9937268,
        "lon": 77.7008262,
        "tags": {
          "air_conditioning": "yes",
          "amenity": "restaurant",
          "cuisine": "barbecue;indian",
          "diet:vegetarian": "yes",
          "level": "3",
          "name": "Sattvam",
          "name:kn": "\u0cb8\u0ca4\u0ccd\u0cb5\u0c82",
          "opening_hours": "Mo-Su 12:00-15:30,19:00-23:00",
          "phone": "+91 63641 50001",
          "website": "https://www.sattvam.com"
        }
      },
      {
        "type": "node",
        "id": 11488322160,
        "lat": 12.9963038,
        "lon": 77.6947333,
        "tags": {
          "amenity": "restaurant",
          "check_date": "2024-01-04",
          "name": "Hyderabad Biryani",
          "name:kn": "\u0cb9\u0cc8\u0ca6\u0cb0\u0cbe\u0cac\u0cbe\u0ca6\u0ccd \u0cac\u0cbf\u0cb0\u0cbf\u0caf\u0cbe\u0ca8\u0cbf"
        }
      },
      {
        "type": "node",
        "id": 12174714926,
        "lat": 12.9949316,
        "lon": 77.6970521,
        "tags": {
          "amenity": "restaurant",
          "contact:website": "https://chefpillai.com",
          "name": "North Rasoi"
        }
      },
      {
        "type": "node",
        "id": 12174714927,
        "lat": 12.9949545,
        "lon": 77.6972062,
        "tags": {
          "addr:city": "Bengaluru",
          "addr:postcode": "560048",
          "addr:street": "Whitefield Road",
          "amenity": "restaurant",
          "name": "Restaurant Chef Pillai",
          "phone": "+91 8943150000",
          "website": "https://chefpillai.com/"
        }
      },
      {
        "type": "node",
        "id": 12294001114,
        "lat": 12.9940111,
        "lon": 77.6993264,
        "tags": {
          "amenity": "fast_food",
          "contact:instagram": "goodflippin",
          "cuisine": "burger",
          "delivery": "yes",
          "name": "Good Flippin' Burgers",
          "takeaway": "yes",
          "website": "https://goodflippin.com/"
        }
      },
      {
        "type": "node",
        "id": 12413065038,
        "lat": 12.9938867,
        "lon": 77.7033425,
        "tags": {
          "air_conditioning": "yes",
          "amenity": "restaurant",
          "bar": "yes",
          "check_date": "2024-12-11",
          "level": "4",
          "level:ref": "3",
          "name": "Sky Garden"
        }
      },
      {
        "type": "node",
        "id": 12862846481,
        "lat": 12.997768,
        "lon": 77.6961552,
        "tags": {
          "addr:city": "Bangalore",
          "amenity": "restaurant",
          "brand": "Cafe Noir",
          "brand:wikidata": "Q124374751",
          "cuisine": "french;burger",
          "delivery": "yes",
          "indoor_seating": "yes",
          "name": "Cafe Noir",
          "name:kn": "\u0c95\u0cab\u0cc6 \u0ca8\u0cbe\u0cb0\u0ccd\u0caf\u0ccd",
          "takeaway": "yes"
        }
      },
      {
        "type": "node",
        "id": 13013588709,
        "lat": 12.9918797,
        "lon": 77.7026349,
        "tags": {
          "amenity": "cafe",
          "name": "The Junk Free Cafe"
        }
      }
    ]
  },
  "pois_2_5km": {
    "version": 0.6,
    "generator": "Overpass API 0.7.62.8 e802775f",
    "osm3s": {
      "timestamp_osm_base": "2025-09-06T08:23:40Z",
      "copyright": "The data included in this document is from www.openstreetmap.org. The data is made available under ODbL."
    },
    "elements": [
      {
        "type": "node",
        "id": 1010036512,
        "lat": 12.9919287,
        "lon": 77.7151394,
        "tags": {
          "bus": "yes",
          "public_transport": "stop_position"
        }
      },
      {
        "type": "node",
        "id": 1576856364,
        "lat": 12.9813697,
        "lon": 77.7086129,
        "tags": {
          "alt_name": "Sitaramapalya",
          "code": "VWIA",
          "name": "Seetharampalya",
          "name:kn": "\u0cb8\u0cc0\u0ca4\u0cbe\u0cb0\u0cbe\u0cae \u0caa\u0cbe\u0cb3\u0ccd\u0caf",
          "network": "Namma Metro",
          "note": "Contributors are requested to not edit the \"network\" and the \"operator\" tags. (2023/11/08)",
          "operator": "Bangalore Metro Rail Corporation Limited",
          "public_transport": "stop_position",
          "railway": "stop",
          "subway": "yes",
          "wheelchair": "yes"
        }
      },
      {
        "type": "node",
        "id": 1706585734,
        "lat": 13.0042943,
        "lon": 77.7122219,
        "tags": {
          "amenity": "fuel",
          "brand": "Bharat Petroleum",
          "brand:wikidata": "Q854826",
          "fuel:diesel": "yes",
          "name": "Bharat Petroleum Pump",
          "name:kn": "\u0cad\u0cbe\u0cb0\u0ca4\u0ccd \u0caa\u0cc6\u0c9f\u0ccd\u0cb0\u0ccb\u0cb2\u0cbf\u0caf\u0c82"
        }
      },
      {
        "type": "node",
        "id": 2466603915,
        "lat": 13.0045053,
        "lon": 77.6960311,
        "tags": {
          "amenity": "fuel",
          "brand": "Indian Oil",
          "brand:wikidata": "Q1289348",
          "brand:wikipedia": "en:Indian Oil Corporation",
          "name": "B R Muniyappa Petrol / Gas Station",
          "operator": "Indian Oil"
        }
      },
      {
        "type": "node",
        "id": 2643922981,
        "lat": 12.9891327,
        "lon": 77.7118453,
        "tags": {
          "code": "DKIA",
          "name": "Hoodi",
          "name:kn": "\u0cb9\u0cc2\u0ca1\u0cbf",
          "network": "Namma Metro",
          "note": "Contributors are requested to not edit the \"network\" and the \"operator\" tags. (2023/11/08)",
          "old_name": "Hoodi Junction",
          "operator": "Bangalore Metro Rail Corporation Limited",
          "public_transport": "stop_position",
          "railway": "stop",
          "subway": "yes",
          "wheelchair": "yes"
        }
      },
      {
        "type": "node",
        "id": 4270322789,
        "lat": 12.9966807,
        "lon": 77.6954878,
        "tags": {
          "addr:floor": "3",
          "addr:street": "Whitefield Road",
          "air_conditioning": "yes",
          "amenity": "cinema",
          "brand": "PVR Cinemas",
          "brand:wikidata": "Q3359908",
          "check_date": "2023-02-08",
          "internet_access": "no",
          "level": "3",
          "name": "PVR IMAX",
          "payment:cash": "yes",
          "payment:credit_cards": "yes",
          "payment:debit_cards": "yes",
          "payment:upi": "yes",
          "short_name": "PVR",
          "source": "survey",
          "wheelchair": "yes"
        }
      },
      {
        "type": "node",
        "id": 4548694631,
        "lat": 12.9998836,
        "lon": 77.6778421,
        "tags": {
          "alt_name": "Krishnarajapuram",
          "code": "KRAM",
          "name": "Krishnarajapura",
          "name:kn": "\u0c95\u0cc3\u0cb7\u0ccd\u0ca3\u0cb0\u0cbe\u0c9c\u0caa\u0cc1\u0cb0 (\u0c95\u0cc6.\u0c86\u0cb0\u0ccd.\u0caa\u0cc1\u0cb0)",
          "network": "Namma Metro",
          "note": "Contributors are requested to not edit the \"network\" and the \"operator\" tags. (2023/11/08)",
          "old_name": "K R Pura",
          "operator": "Bangalore Metro Rail Corporation Limited",
          "platforms": "2",
          "public_transport": "stop_position",
          "public_transport:version": "2",
          "railway": "stop",
          "subway": "yes",
          "wheelchair": "yes"
        }
      },
      {
        "type": "node",
        "id": 5760197757,
        "lat": 12.9808558,
        "lon": 77.7087854,
        "tags": {
          "alt_name": "Sitaramapalya",
          "code": "VWIA",
          "name": "Seetharampalya",
          "name:kn": "\u0cb8\u0cc0\u0ca4\u0cbe\u0cb0\u0cbe\u0cae \u0caa\u0cbe\u0cb3\u0ccd\u0caf",
          "name:ta": "\u0b9a\u0bc0\u0ba4\u0bcd\u0ba4\u0bbe\u0bb0\u0bbe\u0bae\u0bcd\u0baa\u0bbe\u0bb3\u0bcd\u0baf\u0bbe",
          "network": "Namma Metro",
          "note": "Contributors are requested to not edit the \"network\" and the \"operator\" tags. (2023/11/08)",
          "operator": "Bangalore Metro Rail Corporation Limited",
          "public_transport": "station",
          "railway": "station",
          "station": "subway",
          "subway": "yes",
          "wheelchair": "yes",
          "wikipedia": "en:Sitharama Palya metro station"
        }
      },
      {
        "type": "node",
        "id": 5760197761,
        "lat": 12.9888029,
        "lon": 77.711326,
        "tags": {
          "code": "DKIA",
          "colour": "#e542de",
          "name": "Hoodi",
          "name:kn": "\u0cb9\u0cc2\u0ca1\u0cbf",
          "name:ta": "\u0bb9\u0bc2\u0b9f\u0bbf",
          "network": "Namma Metro",
          "note": "Contributors are requested to not edit the \"network\" and the \"operator\" tags. (2023/11/08)",
          "old_name": "Hoodi Junction",
          "operator": "Bangalore Metro Rail Corporation Limited",
          "public_transport": "station",
          "railway": "station",
          "station": "subway",
          "subway": "yes",
          "wheelchair": "yes",
          "wikipedia": "en:Hoodi Junction metro station"
        }
      },
      {
        "type": "node",
        "id": 5760197762,
        "lat": 12.9934505,
        "lon": 77.7036768,
        "tags": {
          "alt_name": "\u0c97\u0cb0\u0cc1\u0ca1\u0cbe\u0c9a\u0cbe\u0cb0\u0ccd \u0caa\u0cbe\u0cb3\u0ccd\u0caf",
          "code": "GDCP",
          "colour": "#e542de",
          "name": "Garudacharpalya",
          "name:kn": "\u0c97\u0cb0\u0cc1\u0ca1\u0cbe\u0c9a\u0cbe\u0cb0\u0ccd \u0caa\u0cbe\u0cb3\u0ccd\u0caf",
          "name:ml": "\u0d17\u0d30\u0d41\u0d21\u0d3e\u0d1a\u0d3e\u0d30\u0d4d \u0d2a\u0d3e\u0d32\u0d4d\u0d2f",
          "name:ta": "\u0b95\u0bb0\u0bc1\u0b9f\u0b9a\u0bbe\u0bb0\u0bcd\u0baa\u0bbe\u0bb2\u0bcd\u0baf\u0bbe",
          "network": "Namma Metro",
          "note": "Contributors are requested to not edit the \"network\" and the \"operator\" tags. (2023/11/08)",
          "operator": "Bangalore Metro Rail Corporation Limited",
          "public_transport": "station",
          "railway": "station",
          "station": "subway",
          "subway": "yes",
          "wheelchair": "yes",
          "wikipedia": "en:Garudacharapalya metro station"
        }
      },
      {
        "type": "node",
        "id": 5760197764,
        "lat": 12.9965445,
        "lon": 77.6927176,
        "tags": {
          "alt_name": "Mahadevapura",
          "code": "MDVP",
          "colour": "#e542de",
          "name": "Singayyanapalya",
          "name:kn": "\u0cb8\u0cbf\u0c82\u0c97\u0caf\u0ccd\u0caf\u0ca8\u0caa\u0cbe\u0cb3\u0ccd\u0caf",
          "name:ml": "\u0d38\u0d3f\u0d02\u0d17\u0d2f\u0d4d\u0d2f\u0d28\u0d2a\u0d3e\u0d33\u0d2f",
          "network": "Namma Metro",
          "note": "Contributors are requested to not edit the \"network\" and the \"operator\" tags. (2023/11/08)",
          "old_name": "Mahadevapura",
          "operator": "Bangalore Metro Rail Corporation Limited",
          "public_transport": "station",
          "railway": "station",
          "station": "subway",
          "subway": "yes",
          "wheelchair": "yes",
          "wikidata": "Q112683430",
          "wikipedia": "en:Singayyanapalya metro station"
        }
      },
      {
        "type": "node",
        "id": 5760197765,
        "lat": 12.9999024,
        "lon": 77.6776703,
        "tags": {
          "alt_name": "Krishnarajapuram",
          "code": "KRAM",
          "colour": "#e542de",
          "name": "Krishnarajapura",
          "name:kn": "\u0c95\u0cc3\u0cb7\u0ccd\u0ca3\u0cb0\u0cbe\u0c9c\u0caa\u0cc1\u0cb0 (\u0c95\u0cc6.\u0c86\u0cb0\u0ccd.\u0caa\u0cc1\u0cb0)",
          "name:ml": "\u0d15\u0d43\u0d37\u0d4d\u0d23\u0d30\u0d3e\u0d1c\u0d2a\u0d41\u0d30\u0d02",
          "name:ta": "\u0b95\u0bbf\u0bb0\u0bc1\u0bb7\u0bcd\u0ba3\u0bb0\u0bbe\u0b9c\u0baa\u0bc1\u0bb0\u0bbe",
          "network": "Namma Metro",
          "note": "Contributors are requested to not edit the \"network\" and the \"operator\" tags. (2023/11/08)",
          "old_name": "K R Pura",
          "operator": "Bangalore Metro Rail Corporation Limited",
          "public_transport": "station",
          "railway": "station",
          "short_name": "K.R. Pura",
          "station": "subway",
          "subway": "yes",
          "wheelchair": "yes",
          "wikidata": "Q112683488",
          "wikipedia": "en:Krishnarajapura metro station"
        }
      },
      {
        "type": "node",
        "id": 7139674997,
        "lat": 13.0077503,
        "lon": 77.6925278,
        "tags": {
          "bus": "yes",
          "name": "KR Puram Govt Hospital",
          "name:en": "KR Puram Government Hospital",
          "network": "BMTC",
          "operator": "BMTC",
          "public_transport": "stop_position"
        }
      },
      {
        "type": "node",
        "id": 7139674999,
        "lat": 13.0054194,
        "lon": 77.6852715,
        "tags": {
          "bus": "yes",
          "name": "ITI Colony Gate",
          "name:en": "ITI Colony Gate",
          "network": "BMTC",
          "operator": "BMTC",
          "public_transport": "stop_position"
        }
      },
      {
        "type": "node",
        "id": 7139675000,
        "lat": 13.0079864,
        "lon": 77.6832947,
        "tags": {
          "bus": "yes",
          "name": "ITI Circle",
          "name:en": "ITI Circle",
          "network": "BMTC",
          "operator": "BMTC",
          "public_transport": "stop_position"
        }
      },
      {
        "type": "node",
        "id": 9796873472,
        "lat": 12.9947371,
        "lon": 77.6993007,
        "tags": {
          "amenity": "charging_station",
          "capacity": "2",
          "operator": "BESCOM"
        }
      },
      {
        "type": "node",
        "id": 10252966552,
        "lat": 13.0005993,
        "lon": 77.6756492,
        "tags": {
          "alt_name": "K R Puram Junction",
          "internet_access": "wlan",
          "name": "Krishnarajapuram",
          "name:kn": "\u0c95\u0cc3\u0cb7\u0ccd\u0ca3\u0cb0\u0cbe\u0c9c\u0caa\u0cc1\u0cb0",
          "name:ml": "\u0d15\u0d43\u0d37\u0d4d\u0d23\u0d30\u0d3e\u0d1c\u0d2a\u0d41\u0d30\u0d02",
          "network": "IR",
          "operator": "SWR",
          "public_transport": "station",
          "railway": "station",
          "ref": "KJM",
          "train": "yes",
          "wikidata": "Q6437604",
          "wikipedia": "en:Krishnarajapuram railway station"
        }
      },
      {
        "type": "node",
        "id": 10761647016,
        "lat": 12.9999402,
        "lon": 77.6779104,
        "tags": {
          "alt_name": "Krishnarajapuram",
          "code": "KRAM",
          "name": "Krishnarajapura",
          "name:kn": "\u0c95\u0cc3\u0cb7\u0ccd\u0ca3\u0cb0\u0cbe\u0c9c\u0caa\u0cc1\u0cb0 (\u0c95\u0cc6.\u0c86\u0cb0\u0ccd.\u0caa\u0cc1\u0cb0)",
          "network": "Namma Metro",
          "note": "Contributors are requested to not edit the \"network\" and the \"operator\" tags. (2023/11/08)",
          "old_name": "K R Pura",
          "operator": "Bangalore Metro Rail Corporation Limited",
          "platforms": "2",
          "public_transport": "stop_position",
          "public_transport:version": "2",
          "railway": "stop",
          "subway": "yes",
          "wheelchair": "yes"
        }
      },
      {
        "type": "node",
        "id": 10761647032,
        "lat": 12.9885448,
        "lon": 77.7109265,
        "tags": {
          "code": "DKIA",
          "name": "Hoodi",
          "name:kn": "\u0cb9\u0cc2\u0ca1\u0cbf",
          "network": "Namma Metro",
          "note": "Contributors are requested to not edit the \"network\" and the \"operator\" tags. (2023/11/08)",
          "old_name": "Hoodi Junction",
          "operator": "Bangalore Metro Rail Corporation Limited",
          "public_transport": "stop_position",
          "railway": "stop",
          "subway": "yes",
          "wheelchair": "yes"
        }
      },
      {
        "type": "node",
        "id": 10761647033,
        "lat": 12.9935165,
        "lon": 77.7032966,
        "tags": {
          "alt_name": "\u0c97\u0cb0\u0cc1\u0ca1\u0cbe\u0c9a\u0cbe\u0cb0\u0ccd \u0caa\u0cbe\u0cb3\u0ccd\u0caf",
          "code": "GDCP",
          "name": "Garudacharpalya",
          "name:kn": "\u0c97\u0cb0\u0cc1\u0ca1\u0cbe\u0c9a\u0cbe\u0cb0\u0ccd \u0caa\u0cbe\u0cb3\u0ccd\u0caf",
          "network": "Namma Metro",
          "note": "Contributors are requested to not edit the \"network\" and the \"operator\" tags. (2023/11/08)",
          "old_name": "Mahadevapura",
          "operator": "Bangalore Metro Rail Corporation Limited",
          "platforms": "2",
          "public_transport": "stop_position",
          "public_transport:version": "2",
          "railway": "stop",
          "subway": "yes",
          "wheelchair": "yes"
        }
      },
      {
        "type": "node",
        "id": 10761647034,
        "lat": 12.9933397,
        "lon": 77.7041125,
        "tags": {
          "alt_name": "\u0c97\u0cb0\u0cc1\u0ca1\u0cbe\u0c9a\u0cbe\u0cb0\u0ccd \u0caa\u0cbe\u0cb3\u0ccd\u0caf",
          "code": "GDCP",
          "name": "Garudacharpalya",
          "name:kn": "\u0c97\u0cb0\u0cc1\u0ca1\u0cbe\u0c9a\u0cbe\u0cb0\u0ccd \u0caa\u0cbe\u0cb3\u0ccd\u0caf",
          "network": "Namma Metro",
          "note": "Contributors are requested to not edit the \"network\" and the \"operator\" tags. (2023/11/08)",
          "old_name": "Mahadevapura",
          "operator": "Bangalore Metro Rail Corporation Limited",
          "platforms": "2",
          "public_transport": "stop_position",
          "public_transport:version": "2",
          "railway": "stop",
          "subway": "yes",
          "wheelchair": "yes"
        }
      },
      {
        "type": "node",
        "id": 10761647035,
        "lat": 12.9966967,
        "lon": 77.6921457,
        "tags": {
          "alt_name": "Mahadevapura",
          "code": "MDVP",
          "name": "Singayyanapalya",
          "name:kn": "\u0cb8\u0cbf\u0c82\u0c97\u0caf\u0ccd\u0caf\u0ca8\u0caa\u0cbe\u0cb3\u0ccd\u0caf",
          "network": "Namma Metro",
          "note": "Contributors are requested to not edit the \"network\" and the \"operator\" tags. (2023/11/08)",
          "old_name": "Mahadevapura",
          "operator": "Bangalore Metro Rail Corporation Limited",
          "platforms": "2",
          "public_transport": "stop_position",
          "public_transport:version": "2",
          "railway": "stop",
          "subway": "yes",
          "wheelchair": "yes"
        }
      },
      {
        "type": "node",
        "id": 10761647036,
        "lat": 12.9964536,
        "lon": 77.6930464,
        "tags": {
          "alt_name": "Mahadevapura",
          "code": "MDVP",
          "name": "Singayyanapalya",
          "name:kn": "\u0cb8\u0cbf\u0c82\u0c97\u0caf\u0ccd\u0caf\u0ca8\u0caa\u0cbe\u0cb3\u0ccd\u0caf",
          "network": "Namma Metro",
          "note": "Contributors are requested to not edit the \"network\" and the \"operator\" tags. (2023/11/08)",
          "old_name": "Mahadevapura",
          "operator": "Bangalore Metro Rail Corporation Limited",
          "platforms": "2",
          "public_transport": "stop_position",
          "public_transport:version": "2",
          "railway": "stop",
          "subway": "yes",
          "wheelchair": "yes"
        }
      },
      {
        "type": "node",
        "id": 10763340457,
        "lat": 12.980531,
        "lon": 77.7088952,
        "tags": {
          "alt_name": "Sitaramapalya",
          "code": "VWIA",
          "name": "Seetharampalya",
          "name:kn": "\u0cb8\u0cc0\u0ca4\u0cbe\u0cb0\u0cbe\u0cae \u0caa\u0cbe\u0cb3\u0ccd\u0caf",
          "network": "Namma Metro",
          "note": "Contributors are requested to not edit the \"network\" and the \"operator\" tags. (2023/11/08)",
          "operator": "Bangalore Metro Rail Corporation Limited",
          "public_transport": "stop_position",
          "railway": "stop",
          "subway": "yes",
          "wheelchair": "yes"
        }
      },
      {
        "type": "node",
        "id": 11331562274,
        "lat": 12.9944699,
        "lon": 77.684646,
        "tags": {
          "amenity": "fuel",
          "brand": "Hindustan Petroleum",
          "brand:wikidata": "Q1619375",
          "compressed_air": "yes",
          "name": "HP",
          "official_name": "Hindustan Petroleum"
        }
      },
      {
        "type": "node",
        "id": 11506269875,
        "lat": 12.9838086,
        "lon": 77.6793841,
        "tags": {
          "bus": "yes",
          "name": "Kaggadasapura",
          "name:en": "Kaggadasapura",
          "name:kn": "\u0c95\u0c97\u0ccd\u0c97\u0ca6\u0cbe\u0cb8\u0caa\u0cc1\u0cb0",
          "network": "BMTC",
          "operator": "BMTC",
          "public_transport": "stop_position"
        }
      },
      {
        "type": "node",
        "id": 11598159736,
        "lat": 12.9793416,
        "lon": 77.6808568,
        "tags": {
          "bus": "yes",
          "name": "Abbaiah Layout",
          "name:en": "Abbaiah Layout",
          "name:kn": "\u0c85\u0cac\u0ccd\u0cac\u0caf\u0ccd\u0caf \u0cac\u0ca1\u0cbe\u0cb5\u0ca3\u0cc6",
          "network": "BMTC",
          "operator": "BMTC",
          "public_transport": "stop_position"
        }
      },
      {
        "type": "node",
        "id": 12534145133,
        "lat": 12.993427,
        "lon": 77.7043141,
        "tags": {
          "amenity": "charging_station",
          "name": "Honda e:swap"
        }
      },
      {
        "type": "node",
        "id": 12534184756,
        "lat": 12.993427,
        "lon": 77.7043141,
        "tags": {
          "amenity": "charging_station",
          "name": "Honda e:swap"
        }
      },
      {
        "type": "node",
        "id": 13019311943,
        "lat": 13.0083742,
        "lon": 77.6952901,
        "tags": {
          "bus": "yes",
          "name": "KR Pura Market",
          "name:en": "KR Pura Market",
          "network": "BMTC",
          "operator": "BMTC",
          "public_transport": "stop_position"
        }
      },
      {
        "type": "node",
        "id": 13020309804,
        "lat": 13.0001013,
        "lon": 77.6770903,
        "tags": {
          "bus": "yes",
          "name": "KR Pura Metro Station",
          "name:en": "KR Pura Metro Station",
          "network": "BMTC",
          "operator": "BMTC",
          "public_transport": "stop_position"
        }
      },
      {
        "type": "node",
        "id": 13120636975,
        "lat": 12.9857026,
        "lon": 77.7077508,
        "tags": {
          "amenity": "fuel"
        }
      },
      {
        "type": "node",
        "id": 13120641506,
        "lat": 12.9872387,
        "lon": 77.7088261,
        "tags": {
          "amenity": "fuel"
        }
      }
    ]
  }
}