{
  "pois_1km": {
    "version": 0.6,
    "generator": "Overpass API 0.7.62.8 e802775f",
    "osm3s": {
      "timestamp_osm_base": "2025-09-06T08:19:29Z",
      "copyright": "The data included in this document is from www.openstreetmap.org. The data is made available under ODbL."
    },
    "elements": [
      {
        "type": "node",
        "id": 1440194638,
        "lat": 12.98568,
        "lon": 77.5421189,
        "tags": {
          "addr:housename": "Canara bank",
          "addr:postcode": "560079",
          "addr:street": "Basaveshwaranagar",
          "amenity": "bank",
          "atm": "yes",
          "brand": "Canara Bank",
          "brand:en": "Canara Bank",
          "brand:hi": "\u0915\u0947\u0928\u0930\u093e \u092c\u0948\u0902\u0915",
          "brand:kn": "\u0c95\u0cc6\u0ca8\u0cb0\u0cbe \u0cac\u0ccd\u0caf\u0cbe\u0c82\u0c95\u0ccd",
          "brand:pa": "\u0a15\u0a47\u0a28\u0a30\u0a3e \u0a2c\u0a48\u0a02\u0a15",
          "brand:pnb": "\u06a9\u06cc\u0646\u0631\u0627 \u0628\u06cc\u0646\u06a9",
          "brand:ur": "\u06a9\u06cc\u0646\u0631\u0627 \u0628\u06cc\u0646\u06a9",
          "brand:wikidata": "Q2003777",
          "brand:wikipedia": "en:Canara Bank",
          "brand:wikipedia:pa": "\u0a15\u0a47\u0a28\u0a30\u0a3e \u0a2c\u0a48\u0a02\u0a15",
          "name": "Canara Bank",
          "name:en": "Canara Bank",
          "name:hi": "\u0915\u0947\u0928\u0930\u093e \u092c\u0948\u0902\u0915",
          "name:kn": "\u0c95\u0cc6\u0ca8\u0cb0\u0cbe \u0cac\u0ccd\u0caf\u0cbe\u0c82\u0c95\u0ccd",
          "name:pa": "\u0a15\u0a47\u0a28\u0a30\u0a3e \u0a2c\u0a48\u0a02\u0a15",
          "name:pnb": "\u06a9\u06cc\u0646\u0631\u0627 \u0628\u06cc\u0646\u06a9",
          "name:ur": "\u06a9\u06cc\u0646\u0631\u0627 \u0628\u06cc\u0646\u06a9",
          "website": "https://www.canarabank.com/"
        }
      },
      {
        "type": "node",
        "id": 1440197001,
        "lat": 12.9860568,
        "lon": 77.5418754,
        "tags": {
          "addr:housename": "Karnataka State Co-op Apex Bank",
          "addr:housenumber": "No 1",
          "addr:postcode": "560079",
          "addr:street": "15th Main, 3rd Stage, Basaveshwaranagar",
          "amenity": "bank",
          "atm": "no",
          "name": "Karnataka State Co-op Apex Bank"
        }
      },
      {
        "type": "node",
        "id": 1467501674,
        "lat": 12.9856724,
        "lon": 77.5420617,
        "tags": {
          "amenity": "atm",
          "brand": "Canara Bank",
          "brand:en": "Canara Bank",
          "brand:hi": "\u0915\u0947\u0928\u0930\u093e \u092c\u0948\u0902\u0915",
          "brand:kn": "\u0c95\u0cc6\u0ca8\u0cb0\u0cbe \u0cac\u0ccd\u0caf\u0cbe\u0c82\u0c95\u0ccd",
          "brand:pa": "\u0a15\u0a47\u0a28\u0a30\u0a3e \u0a2c\u0a48\u0a02\u0a15",
          "brand:pnb": "\u06a9\u06cc\u0646\u0631\u0627 \u0628\u06cc\u0646\u06a9",
          "brand:ur": "\u06a9\u06cc\u0646\u0631\u0627 \u0628\u06cc\u0646\u06a9",
          "brand:wikidata": "Q2003777",
          "name": "Canara Bank",
          "name:en": "Canara Bank",
          "name:hi": "\u0915\u0947\u0928\u0930\u093e \u092c\u0948\u0902\u0915",
          "name:kn": "\u0c95\u0cc6\u0ca8\u0cb0\u0cbe \u0cac\u0ccd\u0caf\u0cbe\u0c82\u0c95\u0ccd",
          "name:pa": "\u0a15\u0a47\u0a28\u0a30\u0a3e \u0a2c\u0a48\u0a02\u0a15",
          "name:pnb": "\u06a9\u06cc\u0646\u0631\u0627 \u0628\u06cc\u0646\u06a9",
          "name:ur": "\u06a9\u06cc\u0646\u0631\u0627 \u0628\u06cc\u0646\u06a9",
          "operator": "Canara Bank",
          "operator:wikidata": "Q2003777"
        }
      },
      {
        "type": "node",
        "id": 1470547253,
        "lat": 12.9970293,
        "lon": 77.5539717,
        "tags": {
          "amenity": "fast_food",
          "name": "Shanti Sagar Hotel",
          "wheelchair": "no"
        }
      },
      {
        "type": "node",
        "id": 1472178615,
        "lat": 12.9872341,
        "lon": 77.549974,
        "tags": {
          "amenity": "fast_food",
          "name": "Gangasagar Chats",
          "wheelchair": "no"
        }
      },
      {
        "type": "node",
        "id": 1472178648,
        "lat": 12.9880757,
        "lon": 77.5496789,
        "tags": {
          "amenity": "cafe",
          "wheelchair": "no"
        }
      },
      {
        "type": "node",
        "id": 1474819884,
        "lat": 12.997825,
        "lon": 77.5499844,
        "tags": {
          "addr:city": "Bangalore",
          "addr:housenumber": "5",
          "addr:postcode": "560010",
          "addr:street": "Modi Hospital Main Road",
          "amenity": "restaurant",
          "cuisine": "regional",
          "delivery": "yes",
          "name": "Swati Deluxe",
          "name:kn": "\u0cb8\u0ccd\u0cb5\u0cbe\u0ca4\u0cbf \u0ca1\u0cbf\u0cb2\u0c95\u0ccd\u0cb8\u0ccd",
          "opening_hours": "11:30-16:00,18:30-21:00",
          "phone": "+(91)-80-23595565",
          "phone_1": "23597075",
          "phone_2": "23498074"
        }
      },
      {
        "type": "node",
        "id": 1474819885,
        "lat": 12.9971233,
        "lon": 77.5512976,
        "tags": {
          "amenity": "pharmacy",
          "healthcare": "pharmacy",
          "name": "Sri Rama Medicals and General Stores"
        }
      },
      {
        "type": "node",
        "id": 1474819894,
        "lat": 12.9963776,
        "lon": 77.5514093,
        "tags": {
          "addr:city": "Bangalore",
          "addr:housenumber": "156",
          "addr:postcode": "560010",
          "addr:street": "19th Main (Goorur Ramaswamy Iyengar Road)",
          "name": "Health and Glow",
          "phone": "+(91)-80-32466651",
          "shop": "supermarket"
        }
      },
      {
        "type": "node",
        "id": 1474819896,
        "lat": 12.9956506,
        "lon": 77.5510696,
        "tags": {
          "addr:city": "Bangalore",
          "addr:district": "Bengaluru Urban",
          "addr:full": "25/91, Chord Road, Iind Block, Rajajinagar",
          "addr:housenumber": "25/91",
          "addr:postcode": "560010",
          "addr:state": "Karnataka",
          "addr:street": "Chord Road",
          "amenity": "hospital",
          "name": "Citi Hospital",
          "opening_hours": "24/7",
          "phone": "+(91)-80-23131778",
          "phone_1": "23131777",
          "phone_2": "23526910",
          "source": "OpenGovernmentData"
        }
      },
      {
        "type": "node",
        "id": 1474820324,
        "lat": 12.9872807,
        "lon": 77.5494174,
        "tags": {
          "amenity": "restaurant",
          "name": "Sree Nandini Palace Restaurant",
          "name:kn": "\u0cb6\u0ccd\u0cb0\u0cc0 \u0ca8\u0c82\u0ca6\u0cbf\u0ca8\u0cbf \u0caa\u0ccd\u0caf\u0cbe\u0cb2\u0cb8\u0ccd \u0cb0\u0cc6\u0cb8\u0ccd\u0c9f\u0ccb\u0cb0\u0cc6\u0c82\u0c9f\u0ccd"
        }
      },
      {
        "type": "node",
        "id": 1808814311,
        "lat": 12.9976921,
        "lon": 77.5475818,
        "tags": {
          "amenity": "restaurant",
          "cuisine": "indian",
          "name": "Kadamba Veg",
          "name:kn": "\u0c95\u0ca6\u0c82\u0cac \u0cb5\u0cc6\u0c9c\u0ccd"
        }
      },
      {
        "type": "node",
        "id": 1808814321,
        "lat": 12.9972835,
        "lon": 77.5465706,
        "tags": {
          "addr:city": "Bangalore",
          "addr:housenumber": "729",
          "addr:postcode": "560086",
          "addr:street": "Modi Hospital Main Road",
          "alt_name": "Kentucky Fried Chicken",
          "alt_name:en": "Kentucky Fried Chicken",
          "alt_name:hi": "\u0915\u0947\u0902\u091f\u0941\u0915\u0940 \u092b\u094d\u0930\u093e\u0907\u0921 \u091a\u093f\u0915\u0928",
          "alt_name:pa": "\u0a15\u0a48\u0a02\u0a1f\u0a41\u0a15\u0a40 \u0a2b\u0a4d\u0a30\u0a3e\u0a08\u0a21 \u0a1a\u0a3f\u0a15\u0a28",
          "alt_name:pnb": "\u06a9\u06cc\u0646\u0679\u06a9\u06cc \u0641\u0631\u0627\u0626\u06cc\u0688 \u0686\u06a9\u0646",
          "alt_name:ur": "\u06a9\u06cc\u0646\u0679\u06a9\u06cc \u0641\u0631\u0627\u0626\u06cc\u0688 \u0686\u06a9\u0646",
          "amenity": "fast_food",
          "brand": "KFC",
          "brand:en": "KFC",
          "brand:hi": "\u0915\u0947\u090f\u092b\u0938\u0940",
          "brand:pa": "\u0a15\u0a47\u0a10\u0a2b\u0a38\u0a40",
          "brand:pnb": "\u06a9\u06d2 \u0627\u06cc\u0641 \u0633\u06cc",
          "brand:ur": "\u06a9\u06d2 \u0627\u06cc\u0641 \u0633\u06cc",
          "brand:wikidata": "Q524757",
          "brand:wikipedia": "en:KFC",
          "brand:wikipedia:pa": "\u0a15\u0a47\u0a10\u0a2b\u0a38\u0a40",
          "brand:wikipedia:ur": "\u06a9\u06cc\u0646\u0679\u06a9\u06cc \u0641\u0631\u0627\u0626\u06cc\u0688 \u0686\u06a9\u0646",
          "contact:phone": "080 42102114",
          "cuisine": "chicken",
          "delivery": "yes",
          "name": "KFC",
          "name:en": "KFC",
          "name:hi": "\u0915\u0947\u090f\u092b\u0938\u0940",
          "name:pa": "\u0a15\u0a47\u0a10\u0a2b\u0a38\u0a40",
          "name:pnb": "\u06a9\u06d2 \u0627\u06cc\u0641 \u0633\u06cc",
          "name:ur": "\u06a9\u06d2 \u0627\u06cc\u0641 \u0633\u06cc",
          "opening_hours": "11:00-23:00",
          "operator": "KFC",
          "phone": "080 44844484",
          "takeaway": "yes",
          "website": "https://online.kfc.co.in/"
        }
      },
      {
        "type": "node",
        "id": 1979075210,
        "lat": 12.9829855,
        "lon": 77.5486383,
        "tags": {
          "amenity": "restaurant",
          "name": "1947",
          "name:kn": "\u0ce7\u0cef\u0cea\u0ced",
          "wheelchair": "no"
        }
      },
      {
        "type": "node",
        "id": 2249069522,
        "lat": 12.9856882,
        "lon": 77.5435424,
        "tags": {
          "addr:district": "Bengaluru Urban",
          "addr:full": "#6, Thimmaiah Layout, 1st Main 3rd D Cross, 3rd Stage, 2nd Block",
          "addr:postcode": "560079",
          "addr:state": "Karnataka",
          "addr:subdistrict": "Basaveshwaranagar",
          "amenity": "hospital",
          "name": "Shanbhag Hospital",
          "operator:type": "private",
          "source": "OpenGovernmentData",
          "website": "http://snsvo7.seekandsource.com/shanbhag/",
          "wheelchair": "yes"
        }
      },
      {
        "type": "node",
        "id": 2293249618,
        "lat": 12.9843055,
        "lon": 77.5537764,
        "tags": {
          "addr:city": "Bangalore",
          "addr:postcode": "560079",
          "addr:street": "60th Cross Road",
          "alt_name": "A2B",
          "amenity": "restaurant",
          "brand": "Adyar Ananda Bhavan",
          "brand:wikidata": "Q15178238",
          "cuisine": "regional",
          "diet:vegetarian": "only",
          "name": "Adyar Ananda Bhavan",
          "name:kn": "\u0c86\u0ca6\u0ccd\u0caf\u0cbe\u0cb0\u0ccd \u0c86\u0ca8\u0c82\u0ca6 \u0cad\u0cb5\u0ca8",
          "operator": "Adyar Ananda Bhavan",
          "phone": "+91 80 4212 3599",
          "smoking": "no",
          "website": "https://aabsweets.com",
          "wheelchair": "no"
        }
      },
      {
        "type": "node",
        "id": 2301066273,
        "lat": 12.9973524,
        "lon": 77.5476248,
        "tags": {
          "addr:city": "Bangalore",
          "addr:housenumber": "725",
          "addr:postcode": "560086",
          "addr:street": "Modi Hospital Main Road",
          "amenity": "restaurant",
          "cuisine": "seafood",
          "delivery": "yes",
          "level": "1",
          "name": "Sea Route Restaurant",
          "opening_hours": "11:30-15:30, 18:30-23:00",
          "phone": "080 41222292",
          "phone_1": "+91 9900166088"
        }
      },
      {
        "type": "node",
        "id": 2554302439,
        "lat": 12.9855811,
        "lon": 77.5556847,
        "tags": {
          "amenity": "cafe",
          "cuisine": "regional",
          "name": "Crane Crush"
        }
      },
      {
        "type": "node",
        "id": 2554302473,
        "lat": 12.9846268,
        "lon": 77.5558117,
        "tags": {
          "amenity": "bank",
          "atm": "yes",
          "brand": "State Bank of India",
          "brand:wikidata": "Q1340361",
          "brand:wikipedia": "en:State Bank of India",
          "name": "State Bank of India",
          "name:kn": "\u0cad\u0cbe\u0cb0\u0ca4\u0cc0\u0caf \u0cb8\u0ccd\u0c9f\u0cc7\u0c9f\u0ccd \u0cac\u0ccd\u0caf\u0cbe\u0c82\u0c95\u0ccd",
          "short_name": "SBI"
        }
      },
      {
        "type": "node",
        "id": 2554302512,
        "lat": 12.9843701,
        "lon": 77.555666,
        "tags": {
          "amenity": "hospital",
          "name": "Pragathi Ayurvedic Center",
          "wheelchair": "no"
        }
      },
      {
        "type": "node",
        "id": 3391133321,
        "lat": 12.9976064,
        "lon": 77.5512613,
        "tags": {
          "amenity": "pharmacy",
          "brand": "Apollo Pharmacy",
          "brand:wikidata": "Q62562612",
          "healthcare": "pharmacy",
          "name": "Apollo Pharmacy",
          "name:kn": "\u0c85\u0caa\u0cca\u0cb2\u0ccb \u0cab\u0cbe\u0cb0\u0ccd\u0cae\u0cb8\u0cbf"
        }
      },
      {
        "type": "node",
        "id": 3391135055,
        "lat": 12.9852058,
        "lon": 77.5564437,
        "tags": {
          "amenity": "bank",
          "brand": "Axis Bank",
          "brand:wikidata": "Q2003549",
          "brand:wikipedia": "en:Axis Bank",
          "name": "Axis Bank",
          "name:en": "Axis Bank",
          "name:kn": "\u0c86\u0c95\u0ccd\u0cb8\u0cbf\u0cb8\u0ccd \u0cac\u0ccd\u0caf\u0cbe\u0c82\u0c95\u0ccd",
          "website": "https://www.axisbank.com"
        }
      },
      {
        "type": "node",
        "id": 3391135057,
        "lat": 12.9899339,
        "lon": 77.5526805,
        "tags": {
          "amenity": "restaurant",
          "name": "New Sagar Fast Food & Party Hall"
        }
      },
      {
        "type": "node",
        "id": 3392655602,
        "lat": 12.9874289,
        "lon": 77.5541838,
        "tags": {
          "amenity": "bank",
          "brand": "State Bank of India",
          "brand:wikidata": "Q1340361",
          "name": "State Bank of India",
          "operator": "State Bank Of India",
          "short_name": "SBI"
        }
      },
      {
        "type": "node",
        "id": 3412397362,
        "lat": 12.9898332,
        "lon": 77.5561709,
        "tags": {
          "amenity": "cafe",
          "brand": "Cafe Coffee Day",
          "brand:wikidata": "Q5017235",
          "brand:wikipedia": "en:Caf\u00e9 Coffee Day",
          "cuisine": "coffee_shop",
          "name": "Cafe Coffee Day",
          "name:kn": "\u0c95\u0cab\u0cc6 \u0c95\u0cbe\u0cab\u0cbf \u0ca1\u0cc7",
          "takeaway": "yes",
          "wheelchair": "no"
        }
      },
      {
        "type": "node",
        "id": 3412399842,
        "lat": 12.9895832,
        "lon": 77.5560181,
        "tags": {
          "amenity": "clinic",
          "healthcare": "clinic",
          "name": "CKV Clinic"
        }
      },
      {
        "type": "node",
        "id": 3412401298,
        "lat": 12.9896302,
        "lon": 77.5560208,
        "tags": {
          "amenity": "pharmacy",
          "name": "Standard Medicals",
          "wheelchair": "no"
        }
      },
      {
        "type": "node",
        "id": 3412649472,
        "lat": 12.9891936,
        "lon": 77.5559165,
        "tags": {
          "amenity": "clinic",
          "name": "Santosh Clinic - Family Physician"
        }
      },
      {
        "type": "node",
        "id": 3412651166,
        "lat": 12.9891599,
        "lon": 77.5559116,
        "tags": {
          "amenity": "pharmacy",
          "name": "Sairam Medicals and General Stores"
        }
      },
      {
        "type": "node",
        "id": 3412653430,
        "lat": 12.9890694,
        "lon": 77.5558999,
        "tags": {
          "amenity": "bank",
          "atm": "yes",
          "brand": "Syndicate Bank",
          "brand:wikidata": "Q2004088",
          "building": "bank",
          "name": "Syndicate Bank",
          "name:en": "Syndicate Bank",
          "name:kn": "\u0cb8\u0cbf\u0c82\u0ca1\u0cbf\u0c95\u0cc7\u0c9f\u0ccd \u0cac\u0ccd\u0caf\u0cbe\u0c82\u0c95\u0ccd",
          "website": "https://www.syndicatebank.in"
        }
      },
      {
        "type": "node",
        "id": 3412690280,
        "lat": 12.9904639,
        "lon": 77.5569256,
        "tags": {
          "amenity": "pharmacy",
          "healthcare": "pharmacy",
          "name": "Sri Prasamshi Medical Stores"
        }
      },
      {
        "type": "node",
        "id": 4035007844,
        "lat": 12.9852789,
        "lon": 77.5434809,
        "tags": {
          "amenity": "restaurant",
          "cuisine": "indian",
          "name": "Sri Krishna Sagar"
        }
      },
      {
        "type": "node",
        "id": 4343881190,
        "lat": 12.9850421,
        "lon": 77.5460481,
        "tags": {
          "addr:district": "Bengaluru Urban",
          "addr:full": "No 370.371,I Stage West Of Cord Road",
          "addr:postcode": "560079",
          "addr:state": "Karnataka",
          "amenity": "hospital",
          "name": "Dr Raos Maternity Hospital",
          "source": "OpenGovernmentData"
        }
      },
      {
        "type": "node",
        "id": 4382905014,
        "lat": 12.9973946,
        "lon": 77.5485023,
        "tags": {
          "brand": "Reliance Fresh",
          "brand:wikidata": "Q7311014",
          "brand:wikipedia": "en:Reliance Fresh",
          "name": "Reliance Fresh",
          "name:kn": "\u0cb0\u0cbf\u0cb2\u0cbe\u0caf\u0ca8\u0ccd\u0cb8\u0ccd \u0cab\u0ccd\u0cb0\u0cc6\u0cb6\u0ccd",
          "shop": "supermarket"
        }
      },
      {
        "type": "node",
        "id": 4383676406,
        "lat": 12.9939186,
        "lon": 77.5513274,
        "tags": {
          "name": "Simply Organics",
          "organic": "only",
          "shop": "supermarket"
        }
      },
      {
        "type": "node",
        "id": 4443484964,
        "lat": 12.9898377,
        "lon": 77.5550568,
        "tags": {
          "addr:city": "bangalore",
          "addr:housenumber": "723/B",
          "addr:postcode": "560010",
          "addr:street": "11th Main Rd, 3rd Block, Rajaji Nagar",
          "amenity": "pharmacy",
          "healthcare": "pharmacy",
          "name": "Dr. Suresh's Dia Care",
          "phone": "080 2338 2867",
          "website": "drsureshdiacare.com"
        }
      },
      {
        "type": "node",
        "id": 4443592306,
        "lat": 12.9882463,
        "lon": 77.5584271,
        "tags": {
          "addr:city": "bangalore",
          "addr:housenumber": "2/835/64/1",
          "addr:postcode": "560010",
          "addr:street": "4th Block, Amulya Corner, 3rd Main, 3rd Main Road, 4th Block, Rajaji Nagar",
          "amenity": "pharmacy",
          "name": "Nandhi Medical And General Stores",
          "phone": "080 2314 5334"
        }
      },
      {
        "type": "node",
        "id": 4446271460,
        "lat": 12.9908258,
        "lon": 77.5578843,
        "tags": {
          "addr:city": "bangalore",
          "addr:housenumber": "1000",
          "addr:postcode": "560010",
          "addr:street": "4th Block, Dr Rajkumar Road,Rajajinagar",
          "amenity": "restaurant",
          "cuisine": "regional",
          "name": "Navarang Kabab Corner",
          "opening_hours": "12:00-15:00,18:30-22:00",
          "phone": "080 41487575",
          "website": "navrangkababkorner.in"
        }
      },
      {
        "type": "node",
        "id": 4446284111,
        "lat": 12.9845159,
        "lon": 77.5478044,
        "tags": {
          "addr:city": "bangalore",
          "addr:postcode": "560010",
          "addr:street": "GEF Block,\u00a0RajajinagarIndustrial Town, Rajajinaga",
          "amenity": "restaurant",
          "cuisine": "regional",
          "name": "Kolkata Biryani And Rolls",
          "opening_hours": "12:00-15:00,18:30-22:00",
          "phone": "+91 7676471371"
        }
      },
      {
        "type": "node",
        "id": 4446322676,
        "lat": 12.9903931,
        "lon": 77.5584441,
        "tags": {
          "addr:city": "bangalore",
          "addr:housenumber": "73",
          "addr:postcode": "560010",
          "addr:street": "Kantha Complex, Dr. Rajkumar Road, 3rd Stage,\u00a0Rajajinaga",
          "amenity": "restaurant",
          "cuisine": "regional",
          "name": "Kudla beach",
          "opening_hours": "11:30-16:30,18:30-23:00",
          "phone": "080 32409844"
        }
      },
      {
        "type": "node",
        "id": 4446343508,
        "lat": 12.9967355,
        "lon": 77.5543173,
        "tags": {
          "addr:city": "bangalore",
          "addr:postcode": "560010",
          "addr:street": "Dr Rajkumar Road, Opposite KLE College, Near Navrang Theatre,Rajajinaga",
          "amenity": "restaurant",
          "check_date": "2025-03-18",
          "cuisine": "regional",
          "diet:vegan": "no",
          "diet:vegetarian": "only",
          "indoor_seating": "yes",
          "name": "Sagar Caterers and Hotel",
          "opening_hours": "11:00-23:00",
          "outdoor_seating": "no",
          "payment:credit_cards": "yes",
          "payment:debit_cards": "yes",
          "phone": "080 23325917",
          "wheelchair": "no"
        }
      },
      {
        "type": "node",
        "id": 4446347659,
        "lat": 12.9891546,
        "lon": 77.5500014,
        "tags": {
          "addr:city": "bangalore",
          "addr:housenumber": "1",
          "addr:postcode": "560010",
          "addr:street": "5th Main, West of Chord Road, Shivanagar,\u00a0Rajajinagar",
          "amenity": "restaurant",
          "cuisine": "regional",
          "name": "Shree Nandana Palace",
          "opening_hours": "12:00-23:00",
          "phone": "080 64444455"
        }
      },
      {
        "type": "node",
        "id": 4446664412,
        "lat": 12.9881648,
        "lon": 77.5548179,
        "tags": {
          "addr:city": "bangalore",
          "addr:housenumber": "111",
          "addr:postcode": "560010",
          "addr:street": "West of Chord Road,, Opp Rajajinagar 1st Block Junction",
          "amenity": "hospital",
          "name": "Fortis Hospital",
          "name:kn": "\u0cab\u0ccb\u0cb0\u0ccd\u0c9f\u0cbf\u0cb8\u0ccd \u0c86\u0cb8\u0ccd\u0caa\u0ca4\u0ccd\u0cb0\u0cc6",
          "phone": "080-2300-4444",
          "website": "fortisbangalore.com"
        }
      },
      {
        "type": "node",
        "id": 4446670981,
        "lat": 12.9883267,
        "lon": 77.5549712,
        "tags": {
          "addr:city": "bangalore",
          "addr:housenumber": "2",
          "addr:postcode": "560010",
          "addr:street": "46th cross, Rajajinagar 4th Block",
          "amenity": "pharmacy",
          "name": "Nandhi Medicals",
          "phone": "+91 80 2314 5334"
        }
      },
      {
        "type": "node",
        "id": 4446692224,
        "lat": 12.9898567,
        "lon": 77.5542305,
        "tags": {
          "addr:city": "Bangalore",
          "addr:housenumber": "955",
          "addr:postcode": "560010,",
          "addr:street": "3rd Block, Rajajinagar",
          "amenity": "pharmacy",
          "healthcare": "pharmacy",
          "name": "Sri Venkateshwara Medical & General Store",
          "phone": "+91 94491 68854"
        }
      },
      {
        "type": "node",
        "id": 4446701038,
        "lat": 12.9862636,
        "lon": 77.5575477,
        "tags": {
          "addr:city": "Bangalore",
          "addr:housenumber": "403",
          "addr:postcode": "560010",
          "addr:street": "Dr Rajkumar Road, Rajajinagar",
          "amenity": "pharmacy",
          "name": "Amrutha Medicals",
          "name:kn": "\u0c85\u0cae\u0cc3\u0ca4 \u0cae\u0cc6\u0ca1\u0cbf\u0c95\u0cb2\u0ccd\u0cb8\u0ccd",
          "phone": "+91 80 2311 7929"
        }
      },
      {
        "type": "node",
        "id": 4446986158,
        "lat": 12.9877039,
        "lon": 77.5530939,
        "tags": {
          "addr:city": "bangalore",
          "addr:housenumber": "13",
          "addr:postcode": "560003",
          "addr:street": ",2nd Main Rd, Malleshwaram",
          "amenity": "pharmacy",
          "name": "Sridhar Medicals",
          "phone": "080 2336 3765"
        }
      },
      {
        "type": "node",
        "id": 4446999695,
        "lat": 12.9887964,
        "lon": 77.5555474,
        "tags": {
          "addr:city": "Bangalore",
          "addr:housenumber": "2/835/64/1,",
          "addr:postcode": "560010",
          "addr:street": "4th Block, Rajaji Nagar",
          "amenity": "pharmacy",
          "name": "Nandhi Medicals",
          "phone": "+9180 2314 5334",
          "source": "www.justdial.com"
        }
      },
      {
        "type": "node",
        "id": 4447156426,
        "lat": 12.9898003,
        "lon": 77.5500343,
        "tags": {
          "addr:city": "bangalore",
          "addr:housenumber": "5",
          "addr:postcode": "560010",
          "addr:street": "1st Stage, West Shivanahalli, Chord Road, Shivanagar, Rajaji Nagar",
          "amenity": "restaurant",
          "cuisine": "regional",
          "name": "Shree Nandini Palace",
          "opening_hours": "10:30-16:00,18:00-22:30",
          "phone": "080 2335 0055"
        }
      },
      {
        "type": "node",
        "id": 4447163944,
        "lat": 12.9878305,
        "lon": 77.5558493,
        "tags": {
          "addr:city": "Bangalore",
          "addr:housenumber": "638",
          "addr:postcode": "560010",
          "addr:street": "2nd Main, Near-Navarang Theater, Dr Rajkumar Rd, D-Block, 2nd Stage, Rajaji Nagar,",
          "amenity": "restaurant",
          "cuisine": "regional",
          "name": "Ambika Veg Restaurant",
          "opening_hours": "10:00 - 01:00",
          "phone": "080 4121 4708"
        }
      },
      {
        "type": "node",
        "id": 4448781935,
        "lat": 12.998169,
        "lon": 77.5496373,
        "tags": {
          "addr:city": "Bangalore",
          "addr:housenumber": "12",
          "addr:postcode": "560086",
          "addr:street": "1st Main Road",
          "amenity": "bank",
          "brand": "Bank of Baroda",
          "brand:wikidata": "Q2003797",
          "brand:wikipedia": "en:Vijaya Bank",
          "name": "Bank of Baroda",
          "name:kn": "\u0cb5\u0cbf\u0c9c\u0caf \u0cac\u0ccd\u0caf\u0cbe\u0c82\u0c95\u0cc1",
          "phone": "+91 80 25584066"
        }
      },
      {
        "type": "node",
        "id": 4477057218,
        "lat": 12.9895041,
        "lon": 77.54581,
        "tags": {
          "addr:city": "Bangalore",
          "addr:postcode": "560010",
          "addr:street": "7th Main Road",
          "amenity": "fast_food",
          "cuisine": "indian",
          "name": "Sai Tiffin Centre"
        }
      },
      {
        "type": "node",
        "id": 4477057220,
        "lat": 12.993015,
        "lon": 77.5459803,
        "tags": {
          "amenity": "bank",
          "brand": "Axis Bank",
          "brand:wikidata": "Q2003549",
          "brand:wikipedia": "en:Axis Bank",
          "name": "Axis Bank",
          "name:en": "Axis Bank",
          "name:kn": "\u0c86\u0c95\u0ccd\u0cb8\u0cbf\u0cb8\u0ccd \u0cac\u0ccd\u0caf\u0cbe\u0c82\u0c95\u0ccd",
          "website": "https://www.axisbank.com"
        }
      },
      {
        "type": "node",
        "id": 4477083305,
        "lat": 12.9977967,
        "lon": 77.5474478,
        "tags": {
          "addr:city": "bangalore",
          "addr:housenumber": "706",
          "addr:postcode": "560086",
          "addr:street": "Modi Hospital Main Road",
          "amenity": "restaurant",
          "cuisine": "italian",
          "delivery": "yes",
          "level": "3",
          "name": "Onesta",
          "phone": "7760714154",
          "takeaway": "yes",
          "website": "https://www.onestalove.com/"
        }
      },
      {
        "type": "node",
        "id": 4477083306,
        "lat": 12.9973118,
        "lon": 77.5469972,
        "tags": {
          "addr:city": "bangalore",
          "addr:housenumber": "726",
          "addr:postcode": "560086",
          "addr:street": "Modi Hospital Main Road",
          "amenity": "restaurant",
          "cuisine": "chinese",
          "delivery": "yes",
          "name": "Chung's Chinese Corner",
          "opening_hours": "12:00-15:00, 19:00-23:00",
          "phone": "080 23104929",
          "phone_1": "080 23207729",
          "takeaway": "yes"
        }
      },
      {
        "type": "node",
        "id": 4488021019,
        "lat": 12.984947,
        "lon": 77.5540532,
        "tags": {
          "addr:city": "Bangalore",
          "addr:housenumber": "179/Y",
          "addr:postcode": "560010",
          "addr:street": "Rajajinagar",
          "name": "Sweet Chariot",
          "phone": "(91)-80-23151481",
          "shop": "supermarket"
        }
      },
      {
        "type": "node",
        "id": 4528688849,
        "lat": 12.9978601,
        "lon": 77.5495201,
        "tags": {
          "amenity": "atm"
        }
      },
      {
        "type": "node",
        "id": 4528688850,
        "lat": 12.9981241,
        "lon": 77.5495926,
        "tags": {
          "amenity": "atm"
        }
      },
      {
        "type": "node",
        "id": 4528688851,
        "lat": 12.9974416,
        "lon": 77.550126,
        "tags": {
          "amenity": "atm",
          "brand": "State Bank of India",
          "brand:wikidata": "Q1340361",
          "name": "State Bank of India",
          "operator": "State Bank of India",
          "operator:wikidata": "Q1340361",
          "short_name": "SBI"
        }
      },
      {
        "type": "node",
        "id": 4530356087,
        "lat": 12.9889585,
        "lon": 77.555959,
        "tags": {
          "amenity": "cafe",
          "name": "Priya Tiffin Room"
        }
      },
      {
        "type": "node",
        "id": 4586321862,
        "lat": 12.9974969,
        "lon": 77.5501201,
        "tags": {
          "addr:city": "Bangalore",
          "addr:housenumber": "1",
          "addr:postcode": "560010",
          "addr:street": "Modi Hospital Main Road",
          "amenity": "fast_food",
          "delivery": "yes",
          "name": "Rolls Kitchen",
          "opening_hours": "12:00-22:30",
          "outdoor_seating": "no",
          "phone": "+91 7022164745"
        }
      },
      {
        "type": "node",
        "id": 4586321863,
        "lat": 12.9978602,
        "lon": 77.5519674,
        "tags": {
          "addr:city": "Bangalore",
          "addr:housenumber": "32",
          "addr:postcode": "560010",
          "addr:street": "Mahakavi Kuvempu Road",
          "amenity": "restaurant",
          "cuisine": "regional",
          "delivery": "yes",
          "name": "Empire Plaza",
          "opening_hours": "11:00-23:00"
        }
      },
      {
        "type": "node",
        "id": 4596136692,
        "lat": 12.9973268,
        "lon": 77.5478423,
        "tags": {
          "addr:city": "Bangalore",
          "addr:housenumber": "706",
          "addr:postcode": "560086",
          "addr:street": "Modi Hospital Main Road",
          "amenity": "fast_food",
          "brand": "Burger King",
          "brand:pa": "\u0a2c\u0a30\u0a17\u0a30 \u0a15\u0a3f\u0a70\u0a17",
          "brand:ur": "\u0628\u0631\u06af\u0631 \u06a9\u0646\u06af",
          "brand:wikidata": "Q177054",
          "brand:wikipedia": "en:Burger King",
          "brand:wikipedia:pa": "\u0a2c\u0a30\u0a17\u0a30 \u0a15\u0a3f\u0a70\u0a17",
          "brand:wikipedia:ur": "\u0628\u0631\u06af\u0631 \u06a9\u0646\u06af",
          "cuisine": "burger",
          "delivery": "yes",
          "name": "Burger King",
          "name:kn": "\u0cac\u0cb0\u0ccd\u0c97\u0cb0\u0ccd \u0c95\u0cbf\u0c82\u0c97\u0ccd",
          "name:pa": "\u0a2c\u0a30\u0a17\u0a30 \u0a15\u0a3f\u0a70\u0a17",
          "name:ru": "\u0411\u0443\u0440\u0433\u0435\u0440 \u041a\u0438\u043d\u0433",
          "name:ur": "\u0628\u0631\u06af\u0631 \u06a9\u0646\u06af",
          "outdoor_seating": "no",
          "phone": "080 33558000",
          "takeaway": "yes",
          "website": "https://burgerking.com/"
        }
      },
      {
        "type": "node",
        "id": 4623723101,
        "lat": 12.997613,
        "lon": 77.5509423,
        "tags": {
          "addr:district": "Bengaluru Urban",
          "addr:full": "No.607/77, 1st Main, Dr.Rajkumar Road, Rajajinagar 2nd Block",
          "addr:postcode": "560021",
          "addr:state": "Karnataka",
          "amenity": "hospital",
          "healthcare": "hospital",
          "name": "Nethradhama Superspeciality Eye Hospital, Rajajinagar",
          "name:en": "Nethradhama",
          "name:kn": "\u0ca8\u0cc7\u0ca4\u0ccd\u0cb0\u0ca7\u0cbe\u0cae",
          "source": "OpenGovernmentData"
        }
      },
      {
        "type": "node",
        "id": 4697889490,
        "lat": 12.9835135,
        "lon": 77.554155,
        "tags": {
          "addr:housenumber": "63",
          "addr:postcode": "560010",
          "addr:street": "63rd Cross Road",
          "amenity": "clinic",
          "internet_access": "wlan",
          "name": "Sevabhaya hospital",
          "name:en": "Sevabhaya hospital",
          "opening_hours": "Mo-Su 09:00-22:00"
        }
      },
      {
        "type": "node",
        "id": 4975005038,
        "lat": 12.9974316,
        "lon": 77.5486505,
        "tags": {
          "amenity": "atm",
          "brand": "State Bank of India",
          "brand:wikidata": "Q1340361",
          "name": "State Bank of India",
          "name:kn": "\u0cad\u0cbe\u0cb0\u0ca4\u0cc0\u0caf \u0cb8\u0ccd\u0c9f\u0cc7\u0c9f\u0ccd \u0cac\u0ccd\u0caf\u0cbe\u0c82\u0c95\u0ccd",
          "operator": "State Bank of India",
          "operator:wikidata": "Q1340361",
          "short_name": "SBI"
        }
      },
      {
        "type": "node",
        "id": 4975005039,
        "lat": 12.9974264,
        "lon": 77.5485995,
        "tags": {
          "amenity": "bank",
          "atm": "yes",
          "brand": "State Bank of India",
          "brand:wikidata": "Q1340361",
          "name": "State Bank of India",
          "name:kn": "\u0cad\u0cbe\u0cb0\u0ca4\u0cc0\u0caf \u0cb8\u0ccd\u0c9f\u0cc7\u0c9f\u0ccd \u0cac\u0ccd\u0caf\u0cbe\u0c82\u0c95\u0ccd",
          "short_name": "SBI"
        }
      },
      {
        "type": "node",
        "id": 5091022374,
        "lat": 12.997704,
        "lon": 77.5494434,
        "tags": {
          "amenity": "fast_food",
          "name": "Nandini Grand"
        }
      },
      {
        "type": "node",
        "id": 5157373803,
        "lat": 12.9899364,
        "lon": 77.5528432,
        "tags": {
          "amenity": "pharmacy",
          "healthcare": "pharmacy",
          "name": "Kasturi Pharma and General Stores"
        }
      },
      {
        "type": "node",
        "id": 5157373807,
        "lat": 12.9849537,
        "lon": 77.5569222,
        "tags": {
          "addr:district": "Bengaluru Urban",
          "addr:full": "6/63, 59Th Cross, 4Th Block, Rajajinagar Entrance, Mei Polytechnic, Rajajinagar",
          "addr:postcode": "560010",
          "addr:state": "Karnataka",
          "alt_name": "Altius Cancer Center",
          "amenity": "hospital",
          "healthcare": "hospital",
          "name": "Altius Hospital",
          "source": "OpenGovernmentData"
        }
      },
      {
        "type": "node",
        "id": 5175027877,
        "lat": 12.9979084,
        "lon": 77.5521686,
        "tags": {
          "amenity": "atm",
          "brand": "HDFC Bank",
          "brand:wikidata": "Q631047",
          "name": "HDFC Bank",
          "operator": "HDFC Bank",
          "operator:wikidata": "Q631047",
          "short_name": "HDFC"
        }
      },
      {
        "type": "node",
        "id": 5227398203,
        "lat": 12.997507,
        "lon": 77.5500266,
        "tags": {
          "amenity": "restaurant",
          "name": "Santhosh Bar & Restaurant"
        }
      },
      {
        "type": "node",
        "id": 5227399587,
        "lat": 12.9979227,
        "lon": 77.5522341,
        "tags": {
          "amenity": "restaurant",
          "name": "Hotel Nalapaka",
          "name:kn": "\u0ca8\u0cb3\u0caa\u0cbe\u0c95"
        }
      },
      {
        "type": "node",
        "id": 5232581130,
        "lat": 12.9974492,
        "lon": 77.5488565,
        "tags": {
          "amenity": "fast_food",
          "name": "Sree Ganesh Fruit Juice Center"
        }
      },
      {
        "type": "node",
        "id": 5265572204,
        "lat": 12.996966,
        "lon": 77.5523974,
        "tags": {
          "amenity": "bank",
          "name": "HDFC Securities"
        }
      },
      {
        "type": "node",
        "id": 5274915541,
        "lat": 12.9978121,
        "lon": 77.5505122,
        "tags": {
          "amenity": "fast_food",
          "brand": "Indira Canteen",
          "brand:wikidata": "Q36164828",
          "cuisine": "south_indian",
          "delivery": "no",
          "drive_through": "no",
          "name": "Indira Canteen",
          "operator": "BBMP",
          "takeaway": "no"
        }
      },
      {
        "type": "node",
        "id": 5277355067,
        "lat": 12.9971501,
        "lon": 77.5484803,
        "tags": {
          "amenity": "atm",
          "brand": "Corporation Bank",
          "brand:wikidata": "Q2003387",
          "name": "Corporation Bank",
          "name:kn": "\u0c95\u0cbe\u0cb0\u0ccd\u0caa\u0cb0\u0cc7\u0cb7\u0ca8\u0ccd \u0cac\u0ccd\u0caf\u0cbe\u0c82\u0c95\u0ccd",
          "operator": "Corporation Bank",
          "operator:wikidata": "Q2003387"
        }
      },
      {
        "type": "node",
        "id": 5623433261,
        "lat": 12.9864932,
        "lon": 77.5558162,
        "tags": {
          "amenity": "pharmacy",
          "brand": "Apollo Pharmacy",
          "brand:wikidata": "Q62562612",
          "healthcare": "pharmacy",
          "name": "Apollo Pharmacy",
          "name:kn": "\u0c85\u0caa\u0cca\u0cb2\u0ccb \u0cab\u0cbe\u0cb0\u0ccd\u0cae\u0cb8\u0cbf"
        }
      },
      {
        "type": "node",
        "id": 5623433264,
        "lat": 12.986288,
        "lon": 77.5558088,
        "tags": {
          "amenity": "atm",
          "brand": "State Bank of India",
          "brand:wikidata": "Q1340361",
          "name": "State Bank of India",
          "operator": "State Bank of India",
          "operator:wikidata": "Q1340361",
          "short_name": "SBI"
        }
      },
      {
        "type": "node",
        "id": 5623433265,
        "lat": 12.9861567,
        "lon": 77.5557927,
        "tags": {
          "amenity": "fast_food",
          "cuisine": "regional",
          "name": "Sri Venkateshwara Utsav"
        }
      },
      {
        "type": "node",
        "id": 5623433275,
        "lat": 12.985206,
        "lon": 77.5557887,
        "tags": {
          "amenity": "clinic",
          "name": "Shri Kaushika Dental Clinic"
        }
      },
      {
        "type": "node",
        "id": 5623550268,
        "lat": 12.9877078,
        "lon": 77.5558591,
        "tags": {
          "amenity": "bank",
          "atm": "yes",
          "brand": "Canara Bank",
          "brand:en": "Canara Bank",
          "brand:hi": "\u0915\u0947\u0928\u0930\u093e \u092c\u0948\u0902\u0915",
          "brand:kn": "\u0c95\u0cc6\u0ca8\u0cb0\u0cbe \u0cac\u0ccd\u0caf\u0cbe\u0c82\u0c95\u0ccd",
          "brand:pa": "\u0a15\u0a47\u0a28\u0a30\u0a3e \u0a2c\u0a48\u0a02\u0a15",
          "brand:pnb": "\u06a9\u06cc\u0646\u0631\u0627 \u0628\u06cc\u0646\u06a9",
          "brand:ur": "\u06a9\u06cc\u0646\u0631\u0627 \u0628\u06cc\u0646\u06a9",
          "brand:wikidata": "Q2003777",
          "brand:wikipedia": "en:Canara Bank",
          "brand:wikipedia:pa": "\u0a15\u0a47\u0a28\u0a30\u0a3e \u0a2c\u0a48\u0a02\u0a15",
          "name": "Canara Bank",
          "name:en": "Canara Bank",
          "name:hi": "\u0915\u0947\u0928\u0930\u093e \u092c\u0948\u0902\u0915",
          "name:kn": "\u0c95\u0cc6\u0ca8\u0cb0\u0cbe \u0cac\u0ccd\u0caf\u0cbe\u0c82\u0c95\u0ccd",
          "name:pa": "\u0a15\u0a47\u0a28\u0a30\u0a3e \u0a2c\u0a48\u0a02\u0a15",
          "name:pnb": "\u06a9\u06cc\u0646\u0631\u0627 \u0628\u06cc\u0646\u06a9",
          "name:ur": "\u06a9\u06cc\u0646\u0631\u0627 \u0628\u06cc\u0646\u06a9"
        }
      },
      {
        "type": "node",
        "id": 5623550269,
        "lat": 12.9876052,
        "lon": 77.5558577,
        "tags": {
          "amenity": "atm",
          "brand": "Canara Bank",
          "brand:en": "Canara Bank",
          "brand:hi": "\u0915\u0947\u0928\u0930\u093e \u092c\u0948\u0902\u0915",
          "brand:kn": "\u0c95\u0cc6\u0ca8\u0cb0\u0cbe \u0cac\u0ccd\u0caf\u0cbe\u0c82\u0c95\u0ccd",
          "brand:pa": "\u0a15\u0a47\u0a28\u0a30\u0a3e \u0a2c\u0a48\u0a02\u0a15",
          "brand:pnb": "\u06a9\u06cc\u0646\u0631\u0627 \u0628\u06cc\u0646\u06a9",
          "brand:ur": "\u06a9\u06cc\u0646\u0631\u0627 \u0628\u06cc\u0646\u06a9",
          "brand:wikidata": "Q2003777",
          "name": "Canara Bank",
          "name:en": "Canara Bank",
          "name:hi": "\u0915\u0947\u0928\u0930\u093e \u092c\u0948\u0902\u0915",
          "name:kn": "\u0c95\u0cc6\u0ca8\u0cb0\u0cbe \u0cac\u0ccd\u0caf\u0cbe\u0c82\u0c95\u0ccd",
          "name:pa": "\u0a15\u0a47\u0a28\u0a30\u0a3e \u0a2c\u0a48\u0a02\u0a15",
          "name:pnb": "\u06a9\u06cc\u0646\u0631\u0627 \u0628\u06cc\u0646\u06a9",
          "name:ur": "\u06a9\u06cc\u0646\u0631\u0627 \u0628\u06cc\u0646\u06a9",
          "operator": "Canara Bank",
          "operator:wikidata": "Q2003777"
        }
      },
      {
        "type": "node",
        "id": 5624262706,
        "lat": 12.9898621,
        "lon": 77.5546219,
        "tags": {
          "amenity": "atm",
          "brand": "indicash"
        }
      },
      {
        "type": "node",
        "id": 5624262708,
        "lat": 12.9898516,
        "lon": 77.5551738,
        "tags": {
          "amenity": "atm",
          "brand": "HDFC Bank",
          "brand:wikidata": "Q631047",
          "name": "HDFC Bank",
          "operator": "HDFC Bank",
          "operator:wikidata": "Q631047",
          "short_name": "HDFC"
        }
      },
      {
        "type": "node",
        "id": 5624262710,
        "lat": 12.9898418,
        "lon": 77.5553763,
        "tags": {
          "amenity": "atm",
          "brand": "Union Bank"
        }
      },
      {
        "type": "node",
        "id": 5624262715,
        "lat": 12.9898418,
        "lon": 77.555723,
        "tags": {
          "amenity": "clinic",
          "healthcare": "clinic",
          "name": "Deepashri Clinical Laboratory"
        }
      },
      {
        "type": "node",
        "id": 5624262720,
        "lat": 12.9885991,
        "lon": 77.555898,
        "tags": {
          "amenity": "atm",
          "name": "NKGSB Bank"
        }
      },
      {
        "type": "node",
        "id": 5624263021,
        "lat": 12.9887846,
        "lon": 77.555898,
        "tags": {
          "note": "name unknown",
          "shop": "supermarket"
        }
      },
      {
        "type": "node",
        "id": 5624263022,
        "lat": 12.9886337,
        "lon": 77.5558993,
        "tags": {
          "amenity": "bank",
          "atm": "yes",
          "name": "NKGSB Bank"
        }
      },
      {
        "type": "node",
        "id": 5624263031,
        "lat": 12.9880221,
        "lon": 77.5558457,
        "tags": {
          "amenity": "pharmacy",
          "name": "Sree Prabhu Medical Centre"
        }
      },
      {
        "type": "node",
        "id": 5922659264,
        "lat": 12.9970049,
        "lon": 77.550213,
        "tags": {
          "amenity": "atm",
          "brand": "ICICI Bank",
          "brand:wikidata": "Q1653258",
          "name": "ICICI Bank",
          "operator": "ICICI Bank",
          "operator:wikidata": "Q1653258",
          "short_name": "ICICI"
        }
      },
      {
        "type": "node",
        "id": 5922659265,
        "lat": 12.9969748,
        "lon": 77.5502077,
        "tags": {
          "amenity": "atm",
          "brand": "Axis Bank",
          "brand:wikidata": "Q2003549",
          "name": "Axis Bank",
          "name:kn": "\u0c86\u0c95\u0ccd\u0cb8\u0cbf\u0cb8\u0ccd \u0cac\u0ccd\u0caf\u0cbe\u0c82\u0c95\u0ccd",
          "operator": "Axis Bank",
          "operator:wikidata": "Q2003549"
        }
      },
      {
        "type": "node",
        "id": 5922659275,
        "lat": 12.9928703,
        "lon": 77.550834,
        "tags": {
          "amenity": "fast_food",
          "cuisine": "regional",
          "name": "Hotel Park Inn"
        }
      },
      {
        "type": "node",
        "id": 5922659282,
        "lat": 12.9910238,
        "lon": 77.5505564,
        "tags": {
          "amenity": "atm",
          "brand": "ICICI Bank",
          "brand:wikidata": "Q1653258",
          "operator": "ICICI Bank",
          "operator:wikidata": "Q1653258",
          "short_name": "ICICI"
        }
      },
      {
        "type": "node",
        "id": 5922660392,
        "lat": 12.9899111,
        "lon": 77.5532211,
        "tags": {
          "amenity": "restaurant",
          "cuisine": "regional",
          "name": "Sri Durga Grand Veg"
        }
      },
      {
        "type": "node",
        "id": 5922660393,
        "lat": 12.9899104,
        "lon": 77.5531138,
        "tags": {
          "amenity": "pharmacy",
          "name": "Seetha Medicals & General Store"
        }
      },
      {
        "type": "node",
        "id": 5922660394,
        "lat": 12.9899287,
        "lon": 77.5528993,
        "tags": {
          "amenity": "bank",
          "atm": "yes",
          "brand": "Axis Bank",
          "brand:wikidata": "Q2003549",
          "name": "Axis Bank",
          "name:kn": "\u0c86\u0c95\u0ccd\u0cb8\u0cbf\u0cb8\u0ccd \u0cac\u0ccd\u0caf\u0cbe\u0c82\u0c95\u0ccd"
        }
      },
      {
        "type": "node",
        "id": 5922660395,
        "lat": 12.9899349,
        "lon": 77.5527977,
        "tags": {
          "amenity": "fast_food",
          "cuisine": "regional",
          "name": "Hotel Kaveri",
          "name:kn": "\u0cb9\u0cca\u0c9f\u0cc6\u0cb2\u0ccd \u0c95\u0cbe\u0cb5\u0cc7\u0cb0\u0cbf"
        }
      },
      {
        "type": "node",
        "id": 6464656296,
        "lat": 12.9873587,
        "lon": 77.5495564,
        "tags": {
          "amenity": "fast_food",
          "name": "Nala's Kitchen"
        }
      },
      {
        "type": "node",
        "id": 6464656297,
        "lat": 12.9861643,
        "lon": 77.5491935,
        "tags": {
          "amenity": "clinic",
          "name": "New Modern Clinic"
        }
      },
      {
        "type": "node",
        "id": 6487165551,
        "lat": 12.9904646,
        "lon": 77.5505346,
        "tags": {
          "amenity": "restaurant",
          "cuisine": "indian",
          "name": "Udupi Upachar"
        }
      },
      {
        "type": "node",
        "id": 6502980174,
        "lat": 12.9821954,
        "lon": 77.5493143,
        "tags": {
          "addr:district": "Bengaluru Urban",
          "addr:full": "1032, 5th Block Opp Ganesh Temple, Chor Road Rajajinagar",
          "addr:postcode": "560010",
          "addr:state": "Karnataka",
          "amenity": "hospital",
          "healthcare": "hospital",
          "name": "The Eye Surgical Centre"
        }
      },
      {
        "type": "node",
        "id": 6546848143,
        "lat": 12.997802,
        "lon": 77.5492702,
        "tags": {
          "amenity": "bank",
          "atm": "yes",
          "brand": "ICICI Bank",
          "brand:wikidata": "Q1653258",
          "level": "2",
          "name": "ICICI Bank",
          "name:kn": "\u0c90\u0cb8\u0cbf\u0c90\u0cb8\u0cbf\u0c90 \u0cac\u0ccd\u0caf\u0cbe\u0c82\u0c95\u0cc1",
          "short_name": "ICICI"
        }
      },
      {
        "type": "node",
        "id": 6546848148,
        "lat": 12.9977484,
        "lon": 77.5473746,
        "tags": {
          "amenity": "restaurant",
          "level": "2",
          "name": "Hotel Akshaya Non Veg"
        }
      },
      {
        "type": "node",
        "id": 6546848157,
        "lat": 12.9973525,
        "lon": 77.5475825,
        "tags": {
          "level": "0",
          "name": "Eastern Super Market",
          "shop": "supermarket"
        }
      },
      {
        "type": "node",
        "id": 6546848158,
        "lat": 12.9973198,
        "lon": 77.547093,
        "tags": {
          "amenity": "fast_food",
          "cuisine": "indian",
          "name": "Raje Donne Biryani Manne"
        }
      },
      {
        "type": "node",
        "id": 6646295302,
        "lat": 12.9860978,
        "lon": 77.5543504,
        "tags": {
          "addr:city": "Bangalore",
          "addr:postcode": "560010",
          "addr:street": "12th Main Road",
          "air_conditioning": "no",
          "amenity": "restaurant",
          "bar": "no",
          "cuisine": "indian;juice;ice_cream",
          "name": "New Shanthi Sagar",
          "opening_hours": "Mo-Su 06:00-22:00"
        }
      },
      {
        "type": "node",
        "id": 6681254105,
        "lat": 12.9963828,
        "lon": 77.5508957,
        "tags": {
          "amenity": "pharmacy",
          "healthcare": "pharmacy",
          "name": "Prashanthi Ayurvedic Centre"
        }
      },
      {
        "type": "node",
        "id": 6681254107,
        "lat": 12.9899287,
        "lon": 77.5529918,
        "tags": {
          "amenity": "restaurant",
          "name": "Al-Taj Restaurant"
        }
      },
      {
        "type": "node",
        "id": 6681254112,
        "lat": 12.9869192,
        "lon": 77.5562131,
        "tags": {
          "amenity": "cafe",
          "name": "by 2 coffy"
        }
      },
      {
        "type": "node",
        "id": 6938690601,
        "lat": 12.9848505,
        "lon": 77.5581537,
        "tags": {
          "addr:district": "Bengaluru Urban",
          "addr:full": "No. 546/46, 6Th Main, 4Th Block, Rajajinagar",
          "addr:postcode": "560010",
          "addr:state": "Karnataka",
          "amenity": "clinic",
          "name": "Spandana Nursing Home, Bengaluru Urban",
          "source": "OpenGovernmentData"
        }
      },
      {
        "type": "node",
        "id": 6938690602,
        "lat": 12.9845343,
        "lon": 77.5532775,
        "tags": {
          "addr:district": "Bengaluru Urban",
          "addr:full": "25 27 60Th Cross 5Th Block Near Bashyam Circle Rajajinagar",
          "addr:postcode": "560010",
          "addr:state": "Karnataka",
          "amenity": "clinic",
          "name": "Jinka Nursing Home",
          "source": "OpenGovernmentData"
        }
      },
      {
        "type": "node",
        "id": 6938690603,
        "lat": 12.9845512,
        "lon": 77.5528322,
        "tags": {
          "addr:district": "Bengaluru Urban",
          "addr:full": "No. 851/D , 5Th Block , Rajajinagar , 60Th Cross",
          "addr:postcode": "560040",
          "addr:state": "Karnataka",
          "amenity": "hospital",
          "name": "Vaidyam Hospital",
          "source": "OpenGovernmentData"
        }
      },
      {
        "type": "node",
        "id": 6938690604,
        "lat": 12.9897745,
        "lon": 77.5551014,
        "tags": {
          "addr:district": "Bengaluru Urban",
          "addr:full": "723 / B Main E S I Hospital Raod, 3Road Block, Rajajinagar",
          "addr:postcode": "560010",
          "addr:state": "Karnataka",
          "amenity": "hospital",
          "name": "Suresh Hospital - Bangalore",
          "source": "OpenGovernmentData"
        }
      },
      {
        "type": "node",
        "id": 6939061708,
        "lat": 12.9856882,
        "lon": 77.5565229,
        "tags": {
          "addr:district": "Bengaluru Urban",
          "addr:full": "Rajaji Nager",
          "addr:postcode": "560010",
          "addr:state": "Karnataka",
          "amenity": "clinic",
          "name": "Ramamni Nursing And Maternity",
          "source": "OpenGovernmentData"
        }
      },
      {
        "type": "node",
        "id": 6939438895,
        "lat": 12.982442,
        "lon": 77.5493681,
        "tags": {
          "addr:district": "Bengaluru Urban",
          "addr:full": "1031, 20Th Main Road, 5Th Block, Rajajinagar",
          "addr:postcode": "560010",
          "addr:state": "Karnataka",
          "amenity": "hospital",
          "name": "Sidvin Hospital Pvt Ltd",
          "source": "OpenGovernmentData"
        }
      },
      {
        "type": "node",
        "id": 6945606655,
        "lat": 12.9907644,
        "lon": 77.5568951,
        "tags": {
          "addr:district": "Bengaluru Urban",
          "addr:full": "No 562, 3Road Main Second Block, Rajajinagar",
          "addr:postcode": "560010",
          "addr:state": "Karnataka",
          "amenity": "clinic",
          "healthcare": "clinic",
          "name": "Kumar Nethralaya",
          "source": "OpenGovernmentData"
        }
      },
      {
        "type": "node",
        "id": 6948438892,
        "lat": 12.9817233,
        "lon": 77.5549364,
        "tags": {
          "addr:district": "Bengaluru Urban",
          "addr:full": "10Th, A Main, 68Th Cross, 5Th Block, Rajajinagar Near Bhasyam Circle",
          "addr:postcode": "560010",
          "addr:state": "Karnataka",
          "amenity": "hospital",
          "name": "Rotary Eye Hospital (A Unit Of Bangalore North Rotary Trust)",
          "source": "OpenGovernmentData"
        }
      },
      {
        "type": "node",
        "id": 6948540414,
        "lat": 12.9880313,
        "lon": 77.5557142,
        "tags": {
          "addr:district": "Bengaluru Urban",
          "addr:full": "No. 652 , 46Th Cross , 'A' , 3Road Block Rajajinagar Near Cananra Bank",
          "addr:postcode": "560010",
          "addr:state": "Karnataka",
          "amenity": "clinic",
          "name": "Sri Sai Clinic and Maternity Home",
          "source": "OpenGovernmentData"
        }
      },
      {
        "type": "node",
        "id": 7043906886,
        "lat": 12.9882933,
        "lon": 77.5561065,
        "tags": {
          "amenity": "pharmacy",
          "brand": "Wellness Forever",
          "healthcare": "pharmacy",
          "name": "Wellness Forever"
        }
      },
      {
        "type": "node",
        "id": 7139631437,
        "lat": 12.9843239,
        "lon": 77.5486091,
        "tags": {
          "amenity": "fast_food",
          "cuisine": "regional",
          "name": "Saanvi Delicacy"
        }
      },
      {
        "type": "node",
        "id": 7146770599,
        "lat": 12.9976465,
        "lon": 77.5523655,
        "tags": {
          "amenity": "cafe",
          "name": "Cafe 916 & Bake"
        }
      },
      {
        "type": "node",
        "id": 7146770600,
        "lat": 12.9955818,
        "lon": 77.5538957,
        "tags": {
          "amenity": "bank",
          "atm": "yes",
          "brand": "Canara Bank",
          "brand:en": "Canara Bank",
          "brand:hi": "\u0915\u0947\u0928\u0930\u093e \u092c\u0948\u0902\u0915",
          "brand:kn": "\u0c95\u0cc6\u0ca8\u0cb0\u0cbe \u0cac\u0ccd\u0caf\u0cbe\u0c82\u0c95\u0ccd",
          "brand:pa": "\u0a15\u0a47\u0a28\u0a30\u0a3e \u0a2c\u0a48\u0a02\u0a15",
          "brand:pnb": "\u06a9\u06cc\u0646\u0631\u0627 \u0628\u06cc\u0646\u06a9",
          "brand:ur": "\u06a9\u06cc\u0646\u0631\u0627 \u0628\u06cc\u0646\u06a9",
          "brand:wikidata": "Q2003777",
          "brand:wikipedia": "en:Canara Bank",
          "brand:wikipedia:pa": "\u0a15\u0a47\u0a28\u0a30\u0a3e \u0a2c\u0a48\u0a02\u0a15",
          "name": "Canara Bank",
          "name:en": "Canara Bank",
          "name:hi": "\u0915\u0947\u0928\u0930\u093e \u092c\u0948\u0902\u0915",
          "name:kn": "\u0c95\u0cc6\u0ca8\u0cb0\u0cbe \u0cac\u0ccd\u0caf\u0cbe\u0c82\u0c95\u0ccd",
          "name:pa": "\u0a15\u0a47\u0a28\u0a30\u0a3e \u0a2c\u0a48\u0a02\u0a15",
          "name:pnb": "\u06a9\u06cc\u0646\u0631\u0627 \u0628\u06cc\u0646\u06a9",
          "name:ur": "\u06a9\u06cc\u0646\u0631\u0627 \u0628\u06cc\u0646\u06a9"
        }
      },
      {
        "type": "node",
        "id": 7146770602,
        "lat": 12.9921881,
        "lon": 77.5546494,
        "tags": {
          "amenity": "restaurant",
          "cuisine": "regional",
          "name": "Karavali Fine Dine"
        }
      },
      {
        "type": "node",
        "id": 7146770603,
        "lat": 12.988307,
        "lon": 77.5558618,
        "tags": {
          "amenity": "fast_food",
          "cuisine": "regional",
          "name": "Spicy Secret"
        }
      },
      {
        "type": "node",
        "id": 7156536792,
        "lat": 12.9906161,
        "lon": 77.5505832,
        "tags": {
          "amenity": "pharmacy",
          "name": "Harshitha Medical & General Store"
        }
      },
      {
        "type": "node",
        "id": 7156536793,
        "lat": 12.988699,
        "lon": 77.5499944,
        "tags": {
          "amenity": "atm",
          "brand": "ICICI Bank",
          "brand:wikidata": "Q1653258",
          "name": "ICICI Bank",
          "operator": "ICICI Bank",
          "operator:wikidata": "Q1653258",
          "short_name": "ICICI"
        }
      },
      {
        "type": "node",
        "id": 7215440253,
        "lat": 12.997484,
        "lon": 77.5498729,
        "tags": {
          "amenity": "atm",
          "brand": "Karnataka Bank",
          "brand:wikidata": "Q2042632",
          "name": "Karnataka Bank",
          "operator": "Karnataka Bank",
          "operator:wikidata": "Q2042632"
        }
      },
      {
        "type": "node",
        "id": 7235403686,
        "lat": 12.9853993,
        "lon": 77.5454024,
        "tags": {
          "amenity": "hospital",
          "name": "Yashas Neurocare"
        }
      },
      {
        "type": "node",
        "id": 7235403985,
        "lat": 12.9870634,
        "lon": 77.549951,
        "tags": {
          "amenity": "hospital",
          "name": "Focus Diagnostic Center"
        }
      },
      {
        "type": "node",
        "id": 7236205644,
        "lat": 12.9853419,
        "lon": 77.5564646,
        "tags": {
          "amenity": "atm",
          "brand": "ICICI Bank",
          "brand:wikidata": "Q1653258",
          "name": "ICICI Bank",
          "operator": "ICICI Bank",
          "operator:wikidata": "Q1653258",
          "short_name": "ICICI"
        }
      },
      {
        "type": "node",
        "id": 7236205645,
        "lat": 12.9872008,
        "lon": 77.556077,
        "tags": {
          "amenity": "fast_food",
          "name": "Malnad Aroma"
        }
      },
      {
        "type": "node",
        "id": 7236205647,
        "lat": 12.9893831,
        "lon": 77.5561236,
        "tags": {
          "amenity": "fast_food",
          "cuisine": "juice",
          "name": "Lassi Corner"
        }
      },
      {
        "type": "node",
        "id": 7236205648,
        "lat": 12.9900398,
        "lon": 77.5557384,
        "tags": {
          "amenity": "pharmacy",
          "name": "Stay Happi Pharmacy"
        }
      },
      {
        "type": "node",
        "id": 7236205657,
        "lat": 12.9850504,
        "lon": 77.5532533,
        "tags": {
          "amenity": "pharmacy",
          "brand": "Apollo Pharmacy",
          "brand:wikidata": "Q62562612",
          "healthcare": "pharmacy",
          "name": "Apollo Pharmacy",
          "name:kn": "\u0c85\u0caa\u0cca\u0cb2\u0ccb \u0cab\u0cbe\u0cb0\u0ccd\u0cae\u0cb8\u0cbf"
        }
      },
      {
        "type": "node",
        "id": 7236205658,
        "lat": 12.9857287,
        "lon": 77.5524808,
        "tags": {
          "amenity": "bank",
          "atm": "yes",
          "brand": "HDFC Bank",
          "brand:wikidata": "Q631047",
          "name": "HDFC Bank",
          "operator": "HDFC Bank",
          "short_name": "HDFC"
        }
      },
      {
        "type": "node",
        "id": 7236205659,
        "lat": 12.9858058,
        "lon": 77.5513798,
        "tags": {
          "amenity": "bank",
          "atm": "yes",
          "brand": "Karur Vysya Bank",
          "brand:wikidata": "Q6373724",
          "name": "Karur Vysya Bank",
          "name:kn": "\u0c95\u0cb0\u0cc2\u0cb0\u0cc1 \u0cb5\u0cc8\u0cb6\u0ccd\u0caf \u0cac\u0ccd\u0caf\u0cbe\u0c82\u0c95\u0ccd",
          "operator": "Karur Vysya Bank"
        }
      },
      {
        "type": "node",
        "id": 7236205660,
        "lat": 12.9862606,
        "lon": 77.5508527,
        "tags": {
          "name": "Ashirwad Market",
          "shop": "supermarket"
        }
      },
      {
        "type": "node",
        "id": 7236205661,
        "lat": 12.9863873,
        "lon": 77.5508474,
        "tags": {
          "amenity": "bank",
          "atm": "yes",
          "brand": "Bank of Maharashtra",
          "brand:wikidata": "Q2004304",
          "name": "Bank of Maharashtra",
          "operator": "Bank of Maharashtra"
        }
      },
      {
        "type": "node",
        "id": 7572526722,
        "lat": 12.981027,
        "lon": 77.550187,
        "tags": {
          "addr:district": "Bengaluru Urban",
          "addr:full": "Jedara Halli, Rajajinagar, Bengaluru",
          "addr:postcode": "560010",
          "addr:state": "Karnataka",
          "amenity": "clinic",
          "name": "Shree Maternity",
          "source": "Local Knowledge"
        }
      },
      {
        "type": "node",
        "id": 8187959329,
        "lat": 12.9900506,
        "lon": 77.5561739,
        "tags": {
          "addr:full": "Shop No.53, 41st Cross, Near Old Police Station, 2nd Block, 4th Block, Rajajinagar, Bengaluru, Karnataka",
          "addr:state": "Karnataka",
          "amenity": "bank",
          "brand": "Vijaya Bank",
          "brand:wikidata": "Q2003171",
          "brand:wikipedia": "en:Vijaya Bank",
          "name": "Vijaya Bank",
          "name:kn": "\u0cb5\u0cbf\u0c9c\u0caf \u0cac\u0ccd\u0caf\u0cbe\u0c82\u0c95\u0ccd"
        }
      },
      {
        "type": "node",
        "id": 8187962466,
        "lat": 12.9937009,
        "lon": 77.5556279,
        "tags": {
          "addr:full": "No.82, Patel Arcade, Dr Rajkumar Road, 2nd Block, 2nd Block, Rajajinagar, Bengaluru, Karnataka",
          "addr:state": "Karnataka",
          "amenity": "bank",
          "brand": "IDBI Bank",
          "brand:wikidata": "Q3633485",
          "brand:wikipedia": "en:IDBI Bank",
          "name": "IDBI Bank",
          "name:kn": "\u0c90\u0ca1\u0cbf\u0cac\u0cbf\u0c90 \u0cac\u0ccd\u0caf\u0cbe\u0c82\u0c95\u0ccd",
          "short_name": "IDBI"
        }
      },
      {
        "type": "node",
        "id": 8187962477,
        "lat": 12.9926008,
        "lon": 77.5552992,
        "tags": {
          "addr:full": "33-34, 2nd Main Rd, 2nd Block, Rajajinagar, Bengaluru, Karnataka",
          "addr:state": "Karnataka",
          "amenity": "bank",
          "brand": "Federal Bank",
          "brand:wikidata": "Q2044983",
          "brand:wikipedia": "en:Federal Bank",
          "name": "Federal Bank"
        }
      },
      {
        "type": "node",
        "id": 8187962488,
        "lat": 12.9916668,
        "lon": 77.5549016,
        "tags": {
          "addr:full": "41st Cross Rd, 2nd Block, Rajajinagar, Bengaluru, Karnataka",
          "addr:state": "Karnataka",
          "amenity": "bank",
          "brand": "Union Bank of India",
          "brand:wikidata": "Q2004078",
          "brand:wikipedia": "en:Union Bank of India",
          "name": "Union Bank of India",
          "name:kn": "\u0caf\u0cc2\u0ca8\u0cbf\u0caf\u0ca8\u0ccd \u0cac\u0ccd\u0caf\u0cbe\u0c82\u0c95\u0ccd"
        }
      },
      {
        "type": "node",
        "id": 8187962500,
        "lat": 12.9910228,
        "lon": 77.5576941,
        "tags": {
          "addr:full": "588, Dr Rajkumar Rd, 2nd Block, Rajajinagar, Bengaluru, Karnataka",
          "addr:state": "Karnataka",
          "amenity": "bank",
          "brand": "Andhra Bank",
          "brand:wikidata": "Q2003476",
          "brand:wikipedia": "en:Andhra Bank",
          "name": "Andhra Bank",
          "name:kn": "\u0c86\u0c82\u0ca7\u0ccd\u0cb0 \u0cac\u0ccd\u0caf\u0cbe\u0c82\u0c95\u0ccd"
        }
      },
      {
        "type": "node",
        "id": 8187962507,
        "lat": 12.9905494,
        "lon": 77.5578922,
        "tags": {
          "addr:full": "Dr Rajkumar Rd, 4th Block, RajajiNagar, 4th Block, Rajajinagar, Bengaluru, Karnataka",
          "addr:state": "Karnataka",
          "amenity": "bank",
          "brand": "Bank of Baroda",
          "brand:wikidata": "Q2003797",
          "brand:wikipedia": "en:Bank of Baroda",
          "name": "Bank of Baroda",
          "name:kn": "\u0cac\u0ccd\u0caf\u0cbe\u0c82\u0c95\u0ccd \u0c86\u0cab\u0ccd \u0cac\u0cb0\u0ccb\u0ca1"
        }
      },
      {
        "type": "node",
        "id": 8188038735,
        "lat": 12.9916924,
        "lon": 77.5539007,
        "tags": {
          "addr:full": "620/A/1, 12th Main Rd, 2nd Block, Rajajinagar, Bengaluru, Karnataka",
          "addr:state": "Karnataka",
          "amenity": "hospital",
          "healthcare": "hospital",
          "name": "ESIC Model Hospital"
        }
      },
      {
        "type": "node",
        "id": 8188038742,
        "lat": 12.9905045,
        "lon": 77.5566355,
        "tags": {
          "addr:full": "172/A, 8th Main Rd, 2nd Block, Rajajinagar, Bengaluru, Karnataka",
          "addr:state": "Karnataka",
          "amenity": "hospital",
          "healthcare": "hospital",
          "name": "Government Hospital",
          "name:kn": "\u0cb8\u0cb0\u0ccd\u0c95\u0cbe\u0cb0\u0cbf \u0c86\u0cb8\u0ccd\u0caa\u0ca4\u0ccd\u0cb0\u0cc6"
        }
      },
      {
        "type": "node",
        "id": 8188038743,
        "lat": 12.9904985,
        "lon": 77.5530924,
        "tags": {
          "addr:full": "3rd Block, Rajajinagar, Bengaluru, Karnataka",
          "addr:state": "Karnataka",
          "amenity": "hospital",
          "healthcare": "hospital",
          "name": "Esi Hospital Bangalore",
          "operator": "Employees' State Insurance",
          "operator:short": "ESI",
          "operator:wikidata": "Q3595726"
        }
      },
      {
        "type": "node",
        "id": 8188038786,
        "lat": 12.9844963,
        "lon": 77.5551801,
        "tags": {
          "addr:full": "20th Main Rd, 5 Block, 3rd Block, Rajajinagar, Bengaluru, Karnataka",
          "addr:state": "Karnataka",
          "amenity": "hospital",
          "name": "Government Hospital",
          "name:kn": "\u0cb8\u0cb0\u0ccd\u0c95\u0cbe\u0cb0\u0cbf \u0c86\u0cb8\u0ccd\u0caa\u0ca4\u0ccd\u0cb0\u0cc6"
        }
      },
      {
        "type": "node",
        "id": 8989622941,
        "lat": 12.9883109,
        "lon": 77.556248,
        "tags": {
          "amenity": "fast_food",
          "cuisine": "regional",
          "name": "Prakriti Deluxe"
        }
      },
      {
        "type": "node",
        "id": 8989622948,
        "lat": 12.9974681,
        "lon": 77.5491837,
        "tags": {
          "amenity": "fast_food",
          "cuisine": "regional",
          "name": "Hasanamba Benne Dosa"
        }
      },
      {
        "type": "node",
        "id": 9063447833,
        "lat": 12.9870447,
        "lon": 77.5422372,
        "tags": {
          "amenity": "cafe",
          "name": "Rasayana coffee bar"
        }
      },
      {
        "type": "node",
        "id": 9136927430,
        "lat": 12.9953858,
        "lon": 77.5546266,
        "tags": {
          "addr:housenumber": "624",
          "amenity": "pharmacy",
          "name": "Pradhanmantri Bharatiya Janaushadhi Kendra"
        }
      },
      {
        "type": "node",
        "id": 9687256224,
        "lat": 12.9850753,
        "lon": 77.5567442,
        "tags": {
          "amenity": "fast_food",
          "brand": "Domino's",
          "brand:wikidata": "Q839466",
          "cuisine": "pizza",
          "delivery": "yes",
          "name": "Domino's",
          "operator": "Domino's",
          "outdoor_seating": "no",
          "takeaway": "yes"
        }
      },
      {
        "type": "node",
        "id": 9870845392,
        "lat": 12.9977582,
        "lon": 77.5482101,
        "tags": {
          "amenity": "fast_food",
          "brand": "Domino's",
          "brand:ks": "\u0688\u0648\u0645\u06cc\u0646\u0648\u0632",
          "brand:pa": "\u0a21\u0a4b\u0a2e\u0a40\u0a28\u0a4b\u0a1c\u0a3c",
          "brand:ur": "\u0688\u0648\u0645\u06cc\u0646\u0648\u0632",
          "brand:wikidata": "Q839466",
          "brand:wikipedia": "en:Domino's Pizza",
          "cuisine": "pizza",
          "delivery": "yes",
          "name": "Domino's",
          "name:kn": "\u0ca1\u0cbe\u0cae\u0cbf\u0ca8\u0ccb\u0cb8\u0ccd",
          "name:ks": "\u0688\u0648\u0645\u06cc\u0646\u0648\u0632",
          "name:pa": "\u0a21\u0a4b\u0a2e\u0a40\u0a28\u0a4b\u0a1c\u0a3c",
          "name:ur": "\u0688\u0648\u0645\u06cc\u0646\u0648\u0632",
          "takeaway": "yes"
        }
      },
      {
        "type": "node",
        "id": 9870845395,
        "lat": 12.9972198,
        "lon": 77.5466269,
        "tags": {
          "amenity": "restaurant",
          "cuisine": "regional",
          "delivery": "yes",
          "name": "Dindigul Thalapakatti",
          "takeaway": "yes"
        }
      },
      {
        "type": "node",
        "id": 9872645098,
        "lat": 12.9852752,
        "lon": 77.5564539,
        "tags": {
          "amenity": "atm",
          "brand": "State Bank of India",
          "brand:wikidata": "Q1340361",
          "name": "State Bank of India",
          "name:kn": "\u0c8e\u0cb8\u0ccd \u0cac\u0cbf \u0c90",
          "operator": "State Bank of India",
          "operator:wikidata": "Q1340361",
          "short_name": "SBI"
        }
      },
      {
        "type": "node",
        "id": 9872645103,
        "lat": 12.9895171,
        "lon": 77.5561675,
        "tags": {
          "amenity": "cafe",
          "name": "Tandoor Chai Point"
        }
      },
      {
        "type": "node",
        "id": 9909999116,
        "lat": 12.9893616,
        "lon": 77.5561199,
        "tags": {
          "amenity": "fast_food",
          "cuisine": "regional",
          "name": "Malnad Cafe"
        }
      },
      {
        "type": "node",
        "id": 9910000932,
        "lat": 12.9977366,
        "lon": 77.5493745,
        "tags": {
          "amenity": "cafe",
          "name": "Kaappi Ready"
        }
      },
      {
        "type": "node",
        "id": 10285926888,
        "lat": 12.9894334,
        "lon": 77.5540446,
        "tags": {
          "amenity": "restaurant",
          "cuisine": "regional",
          "name": "Swagat"
        }
      },
      {
        "type": "node",
        "id": 11031908387,
        "lat": 12.9918503,
        "lon": 77.5437825,
        "tags": {
          "addr:city": "Basaveshwara Nagar, Bangalore",
          "addr:housenumber": "629",
          "addr:postcode": "560079",
          "addr:street": "8th B Main Road, 3rd Stage, 2nd Block, Basaveshwaranagara",
          "amenity": "hospital",
          "healthcare": "hospital",
          "healthcare:speciality": "gynaecology;orthodontics;dentist;vaccination;plastic_surgery",
          "name": "Janani Clinics",
          "operator": "Dr. V. Jeevan Prakash",
          "operator:type": "private",
          "phone": "9036817877"
        }
      },
      {
        "type": "node",
        "id": 11102274266,
        "lat": 12.9847002,
        "lon": 77.5536101,
        "tags": {
          "amenity": "restaurant",
          "name": "Kim Lee Restaurant"
        }
      },
      {
        "type": "node",
        "id": 11102274267,
        "lat": 12.9857652,
        "lon": 77.55176,
        "tags": {
          "amenity": "restaurant",
          "name": "Sicilia Point"
        }
      },
      {
        "type": "node",
        "id": 11102274271,
        "lat": 12.9873583,
        "lon": 77.5507381,
        "tags": {
          "amenity": "clinic",
          "name": "Dhanavantri Health Care"
        }
      },
      {
        "type": "node",
        "id": 11982389393,
        "lat": 12.9977266,
        "lon": 77.5496662,
        "tags": {
          "amenity": "fast_food",
          "check_date": "2024-06-15",
          "name": "Ganapa Thatte Idli"
        }
      },
      {
        "type": "node",
        "id": 12103825770,
        "lat": 12.9978859,
        "lon": 77.5523038,
        "tags": {
          "amenity": "fast_food",
          "check_date": "2024-08-11",
          "name": "New Meenakshi Coffee Bar"
        }
      },
      {
        "type": "node",
        "id": 12118816469,
        "lat": 12.990542,
        "lon": 77.5580302,
        "tags": {
          "addr:street": "Dr. Rajkumar Road",
          "amenity": "bank",
          "atm": "yes",
          "brand": "City Union Bank",
          "brand:en": "City Union Bank",
          "brand:hi": "\u0938\u093f\u091f\u0940 \u092f\u0942\u0928\u093f\u092f\u0928 \u092c\u0948\u0902\u0915",
          "brand:ta": "\u0b9a\u0bbf\u0b9f\u0bcd\u0b9f\u0bbf \u0baf\u0bc2\u0ba9\u0bbf\u0baf\u0ba9\u0bcd \u0bb5\u0b99\u0bcd\u0b95\u0bbf",
          "brand:wikidata": "Q2040264",
          "name": "City Union Bank",
          "name:en": "City Union Bank",
          "name:hi": "\u0938\u093f\u091f\u0940 \u092f\u0942\u0928\u093f\u092f\u0928 \u092c\u0948\u0902\u0915",
          "name:ta": "\u0b9a\u0bbf\u0b9f\u0bcd\u0b9f\u0bbf \u0baf\u0bc2\u0ba9\u0bbf\u0baf\u0ba9\u0bcd \u0bb5\u0b99\u0bcd\u0b95\u0bbf",
          "short_name": "CUB"
        }
      },
      {
        "type": "node",
        "id": 12240737170,
        "lat": 12.99743,
        "lon": 77.5510293,
        "tags": {
          "amenity": "hospital",
          "name": "Netradhama"
        }
      },
      {
        "type": "node",
        "id": 12438065188,
        "lat": 12.9828948,
        "lon": 77.5493318,
        "tags": {
          "amenity": "restaurant",
          "check_date": "2024-12-21"
        }
      },
      {
        "type": "node",
        "id": 12512224863,
        "lat": 12.9972963,
        "lon": 77.5472693,
        "tags": {
          "amenity": "restaurant",
          "name": "Taffy's Rooftop Pub and Kitchen"
        }
      },
      {
        "type": "node",
        "id": 12676261338,
        "lat": 12.9937247,
        "lon": 77.5539724,
        "tags": {
          "amenity": "hospital",
          "check_date": "2025-03-18",
          "healthcare": "hospital",
          "name": "Jindal Charitable Hospital"
        }
      },
      {
        "type": "node",
        "id": 12676261349,
        "lat": 12.9948384,
        "lon": 77.5552933,
        "tags": {
          "amenity": "fast_food",
          "check_date": "2025-03-18",
          "name": "Taj Biryani Paradise"
        }
      },
      {
        "type": "node",
        "id": 12676261352,
        "lat": 12.9955319,
        "lon": 77.5546673,
        "tags": {
          "amenity": "restaurant",
          "brand": "Pizza Hut",
          "brand:wikidata": "Q191615",
          "check_date": "2025-03-18",
          "cuisine": "pizza",
          "name": "Pizza Hut"
        }
      },
      {
        "type": "node",
        "id": 12901334775,
        "lat": 12.9859554,
        "lon": 77.5509443,
        "tags": {
          "amenity": "cafe",
          "brand": "Third Wave Coffee Roasters",
          "brand:wikidata": "Q7785004",
          "cuisine": "coffee_shop",
          "delivery": "yes",
          "name": "Third Wave Coffee Roasters",
          "takeaway": "yes"
        }
      }
    ]
  },
  "pois_2_5km": {
    "version": 0.6,
    "generator": "Overpass API 0.7.62.8 e802775f",
    "osm3s": {
      "timestamp_osm_base": "2025-09-06T08:19:29Z",
      "copyright": "The data included in this document is from www.openstreetmap.org. The data is made available under ODbL."
    },
    "elements": [
      {
        "type": "node",
        "id": 246396993,
        "lat": 12.9783064,
        "lon": 77.5692678,
        "tags": {
          "name": "Bangalore City Junction",
          "public_transport": "stop_position",
          "railway": "stop",
          "ref": "SBC:1",
          "train": "yes"
        }
      },
      {
        "type": "node",
        "id": 428317346,
        "lat": 13.0004488,
        "lon": 77.5637054,
        "tags": {
          "public_transport": "stop_position",
          "railway": "stop",
          "ref": "MWM:1"
        }
      },
      {
        "type": "node",
        "id": 446791195,
        "lat": 12.9974325,
        "lon": 77.5459103,
        "tags": {
          "bus": "yes",
          "name": "Modi Hospital",
          "name:kn": "\u0cae\u0ccb\u0ca6\u0cbf \u0c86\u0cb8\u0ccd\u0caa\u0ca4\u0ccd\u0cb0\u0cc6",
          "network": "BMTC",
          "operator": "BMTC",
          "public_transport": "stop_position"
        }
      },
      {
        "type": "node",
        "id": 446995802,
        "lat": 12.9964968,
        "lon": 77.5630859,
        "tags": {
          "bus": "yes",
          "highway": "bus_stop",
          "name": "Devaiah Park",
          "name:kn": "\u0ca6\u0cc7\u0cb5\u0caf\u0ccd\u0caf \u0c89\u0ca6\u0ccd\u0caf\u0cbe\u0ca8\u0cb5\u0ca8",
          "public_transport": "stop_position"
        }
      },
      {
        "type": "node",
        "id": 456039716,
        "lat": 12.9931208,
        "lon": 77.5710734,
        "tags": {
          "addr:street": "Sampige Road",
          "amenity": "cinema",
          "name": "Sampige Theatre",
          "name:kn": "\u0cb8\u0c82\u0caa\u0cbf\u0c97\u0cc6"
        }
      },
      {
        "type": "node",
        "id": 519549716,
        "lat": 12.9967798,
        "lon": 77.5404068,
        "tags": {
          "addr:street": "WOC Road",
          "amenity": "fuel",
          "brand": "Indian Oil",
          "brand:wikidata": "Q1289348",
          "brand:wikipedia": "en:Indian Oil Corporation",
          "name": "Indian Oil",
          "operator": "Indian Oil",
          "wheelchair": "yes"
        }
      },
      {
        "type": "node",
        "id": 519549718,
        "lat": 12.9966627,
        "lon": 77.5400464,
        "tags": {
          "addr:street": "WOC Road",
          "amenity": "fuel",
          "brand": "Bharat Petroleum",
          "brand:wikidata": "Q854826",
          "name": "Bharat Petroleum",
          "operator": "Bharat Petroleum",
          "wheelchair": "yes"
        }
      },
      {
        "type": "node",
        "id": 577030466,
        "lat": 12.9867764,
        "lon": 77.5671966,
        "tags": {
          "amenity": "theatre",
          "name": "Aruna Theatre",
          "wheelchair": "no"
        }
      },
      {
        "type": "node",
        "id": 693296243,
        "lat": 13.0004202,
        "lon": 77.5636645,
        "tags": {
          "public_transport": "stop_position",
          "railway": "stop",
          "ref": "MWM:2"
        }
      },
      {
        "type": "node",
        "id": 806588782,
        "lat": 12.9783651,
        "lon": 77.5681771,
        "tags": {
          "name": "Bangalore City Junction",
          "name:kn": "\u0cac\u0cc6\u0c82\u0c97\u0cb3\u0cc2\u0cb0\u0cc1 \u0ca8\u0c97\u0cb0",
          "public_transport": "stop_position",
          "railway": "stop",
          "ref": "SBC:7",
          "train": "yes"
        }
      },
      {
        "type": "node",
        "id": 806588784,
        "lat": 12.9782669,
        "lon": 77.5689394,
        "tags": {
          "name": "Bangalore City Junction",
          "name:kn": "\u0cac\u0cc6\u0c82\u0c97\u0cb3\u0cc2\u0cb0\u0cc1 \u0ca8\u0c97\u0cb0",
          "public_transport": "stop_position",
          "railway": "stop",
          "ref": "SBC:4",
          "train": "yes"
        }
      },
      {
        "type": "node",
        "id": 806588786,
        "lat": 12.9783166,
        "lon": 77.5692242,
        "tags": {
          "name": "Bangalore City Junction",
          "name:kn": "\u0cac\u0cc6\u0c82\u0c97\u0cb3\u0cc2\u0cb0\u0cc1 \u0ca8\u0c97\u0cb0",
          "public_transport": "stop_position",
          "railway": "stop",
          "ref": "SBC:2",
          "train": "yes"
        }
      },
      {
        "type": "node",
        "id": 806588787,
        "lat": 12.9783553,
        "lon": 77.5682244,
        "tags": {
          "name": "Bangalore City Junction",
          "public_transport": "stop_position",
          "railway": "stop",
          "ref": "SBC:6",
          "train": "yes"
        }
      },
      {
        "type": "node",
        "id": 806588788,
        "lat": 12.9784008,
        "lon": 77.5678774,
        "tags": {
          "name": "Bangalore City Junction",
          "name:kn": "\u0cac\u0cc6\u0c82\u0c97\u0cb3\u0cc2\u0cb0\u0cc1 \u0ca8\u0c97\u0cb0",
          "public_transport": "stop_position",
          "railway": "stop",
          "ref": "SBC:10",
          "train": "yes"
        }
      },
      {
        "type": "node",
        "id": 806588789,
        "lat": 12.9784045,
        "lon": 77.568007,
        "tags": {
          "name": "Bangalore City Junction",
          "name:kn": "\u0cac\u0cc6\u0c82\u0c97\u0cb3\u0cc2\u0cb0\u0cc1 \u0ca8\u0c97\u0cb0",
          "public_transport": "stop_position",
          "railway": "stop",
          "ref": "SBC:9",
          "train": "yes"
        }
      },
      {
        "type": "node",
        "id": 806588796,
        "lat": 12.9783992,
        "lon": 77.568046,
        "tags": {
          "name": "Bangalore City Junction",
          "name:kn": "\u0cac\u0cc6\u0c82\u0c97\u0cb3\u0cc2\u0cb0\u0cc1 \u0ca8\u0c97\u0cb0 \u0cb0\u0cc8\u0cb2\u0cc1 \u0ca8\u0cbf\u0cb2\u0ccd\u0ca6\u0cbe\u0ca3",
          "public_transport": "stop_position",
          "railway": "stop",
          "ref": "SBC:8",
          "train": "yes"
        }
      },
      {
        "type": "node",
        "id": 806588798,
        "lat": 12.9782835,
        "lon": 77.5685839,
        "tags": {
          "name": "Bangalore City Junction",
          "name:kn": "\u0cac\u0cc6\u0c82\u0c97\u0cb3\u0cc2\u0cb0\u0cc1 \u0ca8\u0c97\u0cb0",
          "public_transport": "stop_position",
          "railway": "stop",
          "ref": "SBC:5",
          "train": "yes"
        }
      },
      {
        "type": "node",
        "id": 1116412178,
        "lat": 12.9916942,
        "lon": 77.5457901,
        "tags": {
          "amenity": "fuel",
          "brand": "Indian Oil",
          "brand:wikidata": "Q1289348",
          "brand:wikipedia": "en:Indian Oil Corporation",
          "name": "Indian Oil",
          "name:kn": "\u0c87\u0c82\u0ca1\u0cbf\u0caf\u0ca8\u0ccd \u0c86\u0caf\u0cbf\u0cb2\u0ccd"
        }
      },
      {
        "type": "node",
        "id": 1440193832,
        "lat": 12.9865791,
        "lon": 77.5403594,
        "tags": {
          "amenity": "fuel",
          "brand": "Total",
          "brand:wikidata": "Q154037",
          "fuel:lpg": "yes",
          "name": "Total gas",
          "operator": "Total"
        }
      },
      {
        "type": "node",
        "id": 1470547294,
        "lat": 12.9973631,
        "lon": 77.5601119,
        "tags": {
          "bus": "yes",
          "highway": "bus_stop",
          "name": "Harishchandra Ghat Bus Stop",
          "name:kn": "\u0cb9\u0cb0\u0cbf\u0cb6\u0ccd\u0c9a\u0c82\u0ca6\u0ccd\u0cb0 \u0c98\u0c9f\u0ccd",
          "public_transport": "stop_position",
          "wheelchair": "limited"
        }
      },
      {
        "type": "node",
        "id": 1548828179,
        "lat": 12.9904754,
        "lon": 77.5707615,
        "tags": {
          "alt_name": "Swastik",
          "code": "SPGD",
          "name": "Mantri Square Sampige Road",
          "name:kn": "\u0cae\u0c82\u0ca4\u0ccd\u0cb0\u0cbf \u0cb8\u0ccd\u0c95\u0ccd\u0cb5\u0cc7\u0cb0\u0ccd \u0cb8\u0c82\u0caa\u0cbf\u0c97\u0cc6 \u0cb0\u0cb8\u0ccd\u0ca4\u0cc6",
          "network": "Namma Metro",
          "note": "Contributors are requested to not edit the \"network\" and the \"operator\" tags. (2023/11/08)",
          "operator": "Bangalore Metro Rail Corporation Limited",
          "public_transport": "stop_position",
          "public_transport:version": "2",
          "railway": "stop",
          "source": "http://www.bmrc.co.in/English/Network.htm",
          "subway": "yes",
          "wheelchair": "yes",
          "wikidata": "Q17088462",
          "wikipedia": "en:Sampige Road metro station"
        }
      },
      {
        "type": "node",
        "id": 1560067666,
        "lat": 12.9758581,
        "lon": 77.5653792,
        "tags": {
          "code": "BRCS",
          "name": "Krantivira Sangolli Rayanna Railway Station",
          "name:kn": "\u0ca8\u0c97\u0cb0 \u0cb0\u0cc8\u0cb2\u0cc1 \u0ca8\u0cbf\u0cb2\u0ccd\u0ca6\u0cbe\u0ca3",
          "network": "Namma Metro",
          "note": "Contributors are requested to not edit the \"network\" and the \"operator\" tags. (2023/11/08)",
          "operator": "Bangalore Metro Rail Corporation Limited",
          "platforms": "2",
          "public_transport": "stop_position",
          "public_transport:version": "2",
          "railway": "stop",
          "source": "http://www.bmrc.co.in/English/Network.htm",
          "subway": "yes",
          "wheelchair": "yes",
          "wikidata": "Q39070950",
          "wikipedia": "en:City Railway Station metro station (Bangalore)"
        }
      },
      {
        "type": "node",
        "id": 1565099078,
        "lat": 12.9964948,
        "lon": 77.5632993,
        "tags": {
          "code": "SPRU",
          "name": "Srirampura",
          "name:hi": "\u0936\u094d\u0930\u0940\u0930\u093e\u092e\u092a\u0941\u0930\u093e",
          "name:kn": "\u0cb6\u0ccd\u0cb0\u0cc0\u0cb0\u0cbe\u0cae\u0caa\u0cc1\u0cb0",
          "network": "Namma Metro",
          "note": "Contributors are requested to not edit the \"network\" and the \"operator\" tags. (2023/11/08)",
          "operator": "Bangalore Metro Rail Corporation Limited",
          "public_transport": "stop_position",
          "public_transport:version": "2",
          "railway": "stop",
          "source": "http://www.bmrc.co.in/English/Network.htm",
          "subway": "yes",
          "wheelchair": "yes",
          "wikidata": "Q17100145",
          "wikipedia": "en:Srirampura metro station"
        }
      },
      {
        "type": "node",
        "id": 1565099088,
        "lat": 12.9709391,
        "lon": 77.5374285,
        "tags": {
          "code": "VJN",
          "name": "Vijayanagara",
          "name:kn": "\u0cb5\u0cbf\u0c9c\u0caf\u0ca8\u0c97\u0cb0",
          "network": "Namma Metro",
          "note": "Contributors are requested to not edit the \"network\" and the \"operator\" tags. (2023/11/08)",
          "operator": "Bangalore Metro Rail Corporation Limited",
          "public_transport": "stop_position",
          "public_transport:version": "2",
          "railway": "stop",
          "source": "http://www.bmrc.co.in/English/Network.htm",
          "subway": "yes",
          "wheelchair": "yes",
          "wikidata": "Q39046429",
          "wikipedia": "en:Vijayanagar metro station"
        }
      },
      {
        "type": "node",
        "id": 1565099091,
        "lat": 13.0080714,
        "lon": 77.5488245,
        "tags": {
          "name": "Mahalakshmi",
          "name:hi": "\u092e\u0939\u093e\u0932\u0915\u094d\u0937\u094d\u092e\u0940",
          "name:kn": "\u0cae\u0cb9\u0cbe\u0cb2\u0c95\u0ccd\u0cb7\u0ccd\u0cae\u0cbf",
          "network": "Namma Metro",
          "note": "Contributors are requested to not edit the \"network\" and the \"operator\" tags. (2023/11/08)",
          "operator": "Bangalore Metro Rail Corporation Limited",
          "public_transport": "stop_position",
          "public_transport:version": "2",
          "railway": "stop",
          "source": "http://www.bmrc.co.in/English/Network.htm",
          "subway": "yes",
          "wheelchair": "yes"
        }
      },
      {
        "type": "node",
        "id": 1565099120,
        "lat": 13.0005359,
        "lon": 77.5496996,
        "tags": {
          "code": "RJNR",
          "layer": "2",
          "level": "2",
          "name": "Rajajinagar",
          "name:hi": "\u0930\u093e\u091c\u093e\u091c\u0940\u0928\u0917\u0930",
          "name:kn": "\u0cb0\u0cbe\u0c9c\u0cbe\u0c9c\u0cbf\u0ca8\u0c97\u0cb0",
          "network": "Namma Metro",
          "note": "Contributors are requested to not edit the \"network\" and the \"operator\" tags. (2023/11/08)",
          "operator": "Bangalore Metro Rail Corporation Limited",
          "public_transport": "stop_position",
          "public_transport:version": "2",
          "railway": "stop",
          "source": "http://www.bmrc.co.in/English/Network.htm",
          "subway": "yes",
          "wheelchair": "yes",
          "wikidata": "Q17085511",
          "wikipedia": "en:Rajajinagar metro station"
        }
      },
      {
        "type": "node",
        "id": 1565099143,
        "lat": 12.974267,
        "lon": 77.5456204,
        "tags": {
          "code": "HSLI",
          "name": "Sri Balagangadharanatha Swamiji Stn., Hosahalli",
          "name:kn": "\u0cb6\u0ccd\u0cb0\u0cc0 \u0cac\u0cbe\u0cb2\u0c97\u0c82\u0c97\u0cbe\u0ca7\u0cb0\u0ca8\u0cbe\u0ca5 \u0cae\u0cc6\u0c9f\u0ccd\u0cb0\u0ccb",
          "network": "Namma Metro",
          "note": "Contributors are requested to not edit the \"network\" and the \"operator\" tags. (2023/11/08)",
          "operator": "Bangalore Metro Rail Corporation Limited",
          "platforms": "2",
          "public_transport": "stop_position",
          "public_transport:version": "2",
          "railway": "stop",
          "source": "http://www.bmrc.co.in/English/Network.htm",
          "subway": "yes",
          "wheelchair": "yes",
          "wikidata": "Q23838583",
          "wikipedia": "en:Hosahalli metro station"
        }
      },
      {
        "type": "node",
        "id": 1565099154,
        "lat": 12.9985238,
        "lon": 77.5568794,
        "tags": {
          "code": "KVPR",
          "name": "Mahakavi Kuvempu Road",
          "name:etymology:wikidata": "Q3351108",
          "name:kn": "\u0cae\u0cb9\u0cbe\u0c95\u0cb5\u0cbf \u0c95\u0cc1\u0cb5\u0cc6\u0c82\u0caa\u0cc1 \u0cb0\u0cb8\u0ccd\u0ca4\u0cc6",
          "network": "Namma Metro",
          "note": "Contributors are requested to not edit the \"network\" and the \"operator\" tags. (2023/11/08)",
          "operator": "Bangalore Metro Rail Corporation Limited",
          "public_transport": "stop_position",
          "public_transport:version": "2",
          "railway": "stop",
          "short_name": "MKK Road",
          "source": "http://www.bmrc.co.in/English/Network.htm",
          "subway": "yes",
          "wheelchair": "yes",
          "wikidata": "Q17068244",
          "wikipedia": "en:Kuvempu Road metro station"
        }
      },
      {
        "type": "node",
        "id": 1778953948,
        "lat": 12.9771222,
        "lon": 77.5466032,
        "tags": {
          "amenity": "fuel",
          "brand": "Hindustan Petroleum",
          "brand:wikidata": "Q1619375",
          "name": "HP Petrol Bunk",
          "name:kn": "\u0cb9\u0cbf\u0c82\u0ca6\u0cc1\u0cb8\u0ccd\u0ca4\u0cbe\u0ca8\u0ccd \u0caa\u0cc6\u0c9f\u0ccd\u0cb0\u0ccb\u0cb2\u0cbf\u0caf\u0c82",
          "official_name": "Hindustan Petroleum",
          "wheelchair": "yes"
        }
      },
      {
        "type": "node",
        "id": 1778957265,
        "lat": 12.9793805,
        "lon": 77.5420846,
        "tags": {
          "amenity": "fuel",
          "brand": "Shell",
          "brand:wikidata": "Q110716465",
          "fuel:diesel": "yes",
          "fuel:lpg": "no",
          "fuel:octane_100": "yes",
          "name": "Shell Petrol Bunk",
          "name:kn": "\u0cb6\u0cc6\u0cb2\u0ccd",
          "operator": "Shell",
          "wheelchair": "yes"
        }
      },
      {
        "type": "node",
        "id": 1809669647,
        "lat": 12.9919287,
        "lon": 77.538523,
        "tags": {
          "bus": "yes",
          "highway": "bus_stop",
          "loc_name": "BASAVESHWARANAGARA",
          "name": "Kamalanagar 8th Main",
          "name:en": "Kamalanagar 8th Main",
          "network": "BMTC",
          "network:wikidata": "Q3345039",
          "operator": "BMTC",
          "public_transport": "stop_position"
        }
      },
      {
        "type": "node",
        "id": 1820408689,
        "lat": 12.975608,
        "lon": 77.5553564,
        "tags": {
          "code": "MIRD",
          "name": "Magadi Road",
          "name:kn": "\u0cae\u0cbe\u0c97\u0ca1\u0cbf \u0cb0\u0cb8\u0ccd\u0ca4\u0cc6",
          "network": "Namma Metro",
          "note": "Contributors are requested to not edit the \"network\" and the \"operator\" tags. (2023/11/08)",
          "operator": "Bangalore Metro Rail Corporation Limited",
          "platforms": "2",
          "public_transport": "stop_position",
          "public_transport:version": "2",
          "railway": "stop",
          "source": "http://www.bmrc.co.in/English/Network.htm",
          "subway": "yes",
          "wheelchair": "yes",
          "wikidata": "Q23838569",
          "wikipedia": "en:Magadi Road metro station"
        }
      },
      {
        "type": "node",
        "id": 1820438588,
        "lat": 12.9738144,
        "lon": 77.5517301,
        "tags": {
          "amenity": "cinema",
          "name": "PVR",
          "name:en": "PVR Cinemas",
          "wheelchair": "limited"
        }
      },
      {
        "type": "node",
        "id": 2016215963,
        "lat": 12.9841172,
        "lon": 77.5600221,
        "tags": {
          "amenity": "fuel"
        }
      },
      {
        "type": "node",
        "id": 2249045755,
        "lat": 12.9851341,
        "lon": 77.5433278,
        "tags": {
          "amenity": "fuel",
          "brand": "BP",
          "brand:wikidata": "Q152057",
          "name": "BP petrol pump",
          "wheelchair": "yes"
        }
      },
      {
        "type": "node",
        "id": 2249047993,
        "lat": 12.9916432,
        "lon": 77.5578265,
        "tags": {
          "amenity": "fuel",
          "brand": "Hindustan Petroleum",
          "brand:wikidata": "Q1619375",
          "brand:wikipedia": "en:Hindustan Petroleum",
          "compressed_air": "yes",
          "name": "HP",
          "name:kn": "\u0cb9\u0cbf\u0c82\u0ca6\u0cc1\u0cb8\u0ccd\u0ca4\u0cbe\u0ca8\u0ccd \u0caa\u0cc6\u0c9f\u0ccd\u0cb0\u0ccb\u0cb2\u0cbf\u0caf\u0c82",
          "official_name": "Hindustan Petroleum"
        }
      },
      {
        "type": "node",
        "id": 2249053699,
        "lat": 12.9810568,
        "lon": 77.5583911,
        "tags": {
          "amenity": "fuel",
          "brand": "Indian Oil",
          "brand:wikidata": "Q1289348",
          "brand:wikipedia": "en:Indian Oil Corporation",
          "name": "Indian Oil",
          "name:kn": "\u0c87\u0c82\u0ca1\u0cbf\u0caf\u0ca8\u0ccd \u0c86\u0caf\u0cbf\u0cb2\u0ccd",
          "wheelchair": "yes"
        }
      },
      {
        "type": "node",
        "id": 2403438706,
        "lat": 13.0006281,
        "lon": 77.5605652,
        "tags": {
          "alt_name": "Ramamandira",
          "bus": "yes",
          "highway": "bus_stop",
          "loc_name": "GAYTHRI NAGARA",
          "name": "Kodandarama",
          "name:kn": "\u0c95\u0ccb\u0ca6\u0c82\u0ca1\u0cb0\u0cbe\u0cae",
          "network": "BMTC",
          "operator": "BMTC",
          "public_transport": "stop_position",
          "wheelchair": "limited"
        }
      },
      {
        "type": "node",
        "id": 2403438888,
        "lat": 12.9993391,
        "lon": 77.5601837,
        "tags": {
          "bus": "yes",
          "highway": "bus_stop",
          "name": "SBM Gayathri Nagara",
          "network": "BMTC",
          "operator": "BMTC",
          "public_transport": "stop_position"
        }
      },
      {
        "type": "node",
        "id": 2403846910,
        "lat": 13.0048419,
        "lon": 77.5595007,
        "tags": {
          "bus": "yes",
          "highway": "bus_stop",
          "name": "Canara Bank Subramanyanagara",
          "name:kn": "\u0c95\u0cc6\u0ca8\u0cb0\u0cbe \u0cac\u0ccd\u0caf\u0cbe\u0c82\u0c95\u0ccd",
          "network": "BMTC",
          "operator": "BMTC",
          "public_transport": "stop_position"
        }
      },
      {
        "type": "node",
        "id": 2403847774,
        "lat": 13.0055147,
        "lon": 77.5566833,
        "tags": {
          "bus": "yes",
          "highway": "bus_stop",
          "loc_name": "RAJAJINAGARA 1ST BLOCK",
          "name": "East West Public School",
          "network": "BMTC",
          "operator": "BMTC",
          "public_transport": "stop_position"
        }
      },
      {
        "type": "node",
        "id": 2467854906,
        "lat": 12.9873459,
        "lon": 77.5723926,
        "tags": {
          "amenity": "fuel",
          "name": "Vijees Auto Gas"
        }
      },
      {
        "type": "node",
        "id": 2487524459,
        "lat": 12.9669405,
        "lon": 77.5470005,
        "tags": {
          "addr:city": "Bangalore",
          "addr:housename": "Vijayanagar",
          "addr:street": "Hosahalli Main Road",
          "amenity": "fuel",
          "brand": "Total",
          "brand:wikidata": "Q154037",
          "building": "yes",
          "name": "Total Gas"
        }
      },
      {
        "type": "node",
        "id": 2487524461,
        "lat": 12.9673086,
        "lon": 77.5461504,
        "tags": {
          "addr:city": "Bangalore",
          "addr:housename": "Vijayanagar",
          "addr:postcode": "560040",
          "addr:street": "Hosahalli Main Road",
          "amenity": "fuel",
          "brand": "Indian Oil",
          "brand:wikidata": "Q1289348",
          "brand:wikipedia": "en:Indian Oil Corporation",
          "building": "yes",
          "name": "Indian Oil",
          "name:kn": "\u0c87\u0c82\u0ca1\u0cbf\u0caf\u0ca8\u0ccd \u0c86\u0caf\u0cbf\u0cb2\u0ccd"
        }
      },
      {
        "type": "node",
        "id": 2489017325,
        "lat": 13.0106061,
        "lon": 77.555373,
        "tags": {
          "addr:city": "Bengaluru",
          "addr:country": "IN",
          "addr:floor": "3",
          "addr:housename": "Orion Mall",
          "addr:postcode": "560025",
          "addr:street": "Dr. Rajkumar Road",
          "air_conditioning": "yes",
          "amenity": "cinema",
          "brand": "PVR Cinemas",
          "brand:wikidata": "Q3359908",
          "check_date": "2024-11-22",
          "drive_in": "no",
          "level": "4",
          "name": "PVR Orion Mall",
          "operator": "PVR Cinemas",
          "screen": "8",
          "short_name": "PVR"
        }
      },
      {
        "type": "node",
        "id": 2669084978,
        "lat": 12.9781739,
        "lon": 77.5695603,
        "tags": {
          "internet_access": "wlan",
          "name": "Krantivira Sangolli Rayanna (Bengaluru)",
          "name:kn": "\u0c95\u0ccd\u0cb0\u0cbe\u0c82\u0ca4\u0cbf\u0cb5\u0cc0\u0cb0 \u0cb8\u0c82\u0c97\u0cca\u0cb3\u0ccd\u0cb3\u0cbf \u0cb0\u0cbe\u0caf\u0ca3\u0ccd\u0ca3 \u0cb0\u0cc8\u0cb2\u0ccd\u0cb5\u0cc6 \u0ca8\u0cbf\u0cb2\u0ccd\u0ca6\u0cbe\u0ca3",
          "name:ml": "\u0d15\u0d4d\u0d30\u0d3e\u0d28\u0d4d\u0d24\u0d3f\u0d35\u0d40\u0d30 \u0d38\u0d19\u0d4d\u0d15\u0d4a\u0d32\u0d4d\u0d32\u0d3f \u0d30\u0d3e\u0d2f\u0d23\u0d4d\u0d23 \u0d31\u0d46\u0d2f\u0d3f\u0d7d\u0d35\u0d47 \u0d38\u0d4d\u0d31\u0d4d\u0d31\u0d47\u0d37\u0d7b",
          "name:te": "\u0c15\u0c4d\u0c30\u0c3e\u0c02\u0c24\u0c3f\u0c35\u0c40\u0c30 \u0c38\u0c02\u0c17\u0c4a\u0c32\u0c4d\u0c32\u0c3f \u0c30\u0c3e\u0c2f\u0c28\u0c4d\u0c28 \u0c30\u0c48\u0c32\u0c4d\u0c35\u0c47 \u0c38\u0c4d\u0c1f\u0c47\u0c37\u0c28\u0c4d",
          "network": "IR",
          "old_name": "Bangalore City Junction",
          "operator": "SWR",
          "public_transport": "station",
          "railway": "station",
          "ref": "SBC",
          "short_name": "KSR Bengaluru",
          "wheelchair": "yes",
          "wikidata": "Q3633970"
        }
      },
      {
        "type": "node",
        "id": 3320950152,
        "lat": 12.9900294,
        "lon": 77.5721105,
        "tags": {
          "bus": "yes",
          "name": "Central",
          "name:en": "Central",
          "network": "BMTC",
          "operator": "BMTC",
          "public_transport": "stop_position"
        }
      },
      {
        "type": "node",
        "id": 3664774925,
        "lat": 12.9920489,
        "lon": 77.5706285,
        "tags": {
          "addr:city": "Bengaluru",
          "addr:postcode": "560003",
          "addr:street": "Sampige Road",
          "air_conditioning": "yes",
          "amenity": "cinema",
          "brand": "INOX Leisure",
          "brand:wikidata": "Q5972349",
          "name": "INOX Malleshwaram - Mantri Square",
          "short_name": "INOX"
        }
      },
      {
        "type": "node",
        "id": 3756218734,
        "lat": 12.9824156,
        "lon": 77.5620528,
        "tags": {
          "bus": "yes",
          "highway": "bus_stop",
          "loc_name": "RAMACHANDRAPURAM",
          "name": "Sujatha Talkies",
          "name:en": "Sujatha Talkies",
          "name:kn": "\u0cb8\u0cc1\u0c9c\u0cbe\u0ca4 \u0c9a\u0cbf\u0ca4\u0ccd\u0cb0\u0cae\u0c82\u0ca6\u0cbf\u0cb0",
          "network": "BMTC",
          "operator": "BMTC",
          "public_transport": "stop_position"
        }
      },
      {
        "type": "node",
        "id": 4108417932,
        "lat": 13.0006306,
        "lon": 77.563476,
        "tags": {
          "internet_access": "no",
          "name": "Malleswaram",
          "name:kn": "\u0cae\u0cb2\u0ccd\u0cb2\u0cc7\u0cb6\u0ccd\u0cb5\u0cb0\u0c82",
          "network": "IR",
          "operator": "SWR",
          "public_transport": "station",
          "railway": "station",
          "ref": "MWM",
          "toilets:wheelchair": "no",
          "wheelchair": "yes",
          "wikidata": "Q63356763"
        }
      },
      {
        "type": "node",
        "id": 4209389014,
        "lat": 12.9929929,
        "lon": 77.5292643,
        "tags": {
          "addr:postcode": "560079",
          "addr:street": "BEML Layout, Kamala Nagar, Bengaluru, Karnataka",
          "amenity": "theatre",
          "name": "Veerabhadreshwara Theatre",
          "name:kn": "\u0cb5\u0cc0\u0cb0\u0cad\u0ca6\u0ccd\u0cb0\u0cc7\u0cb6\u0ccd\u0cb5\u0cb0 \u0c9a\u0cbf\u0ca4\u0ccd\u0cb0\u0cae\u0c82\u0ca6\u0cbf\u0cb0",
          "opening_hours": "Mo-Su 10:00-23:00",
          "phone": "080-23230923"
        }
      },
      {
        "type": "node",
        "id": 4518422189,
        "lat": 12.9740504,
        "lon": 77.5500149,
        "tags": {
          "addr:street": "Magadi Road",
          "amenity": "fuel",
          "brand": "Total",
          "brand:wikidata": "Q154037",
          "name": "Total Gas Station",
          "name:en": "Total Gas Station"
        }
      },
      {
        "type": "node",
        "id": 4937191685,
        "lat": 13.0096257,
        "lon": 77.5432757,
        "tags": {
          "bus": "yes",
          "highway": "bus_stop",
          "name": "Ganesha Temple",
          "name:kn": "\u0c97\u0ca3\u0cc7\u0cb6 \u0ca6\u0cc7\u0cb5\u0cb8\u0ccd\u0ca5\u0cbe\u0ca8",
          "public_transport": "stop_position",
          "wheelchair": "limited"
        }
      },
      {
        "type": "node",
        "id": 4937191686,
        "lat": 12.9967945,
        "lon": 77.568963,
        "tags": {
          "bench": "yes",
          "bus": "yes",
          "covered": "yes",
          "highway": "bus_stop",
          "name": "Malleshwaram Circle",
          "name:kn": "\u0cae\u0cb2\u0ccd\u0cb2\u0cc7\u0cb6\u0ccd\u0cb5\u0cb0\u0c82 \u0cb5\u0cc3\u0ca4\u0ccd\u0ca4",
          "operator": "BMTC",
          "public_transport": "stop_position",
          "shelter": "yes"
        }
      },
      {
        "type": "node",
        "id": 4937863375,
        "lat": 12.9977319,
        "lon": 77.5713903,
        "tags": {
          "bus": "yes",
          "name": "Malleswaram Circle",
          "name:kn": "\u0cae\u0cb2\u0ccd\u0cb2\u0cc7\u0cb6\u0ccd\u0cb5\u0cb0\u0c82 \u0cb5\u0cc3\u0ca4\u0ccd\u0ca4",
          "operator": "BMTC",
          "public_transport": "stop_position"
        }
      },
      {
        "type": "node",
        "id": 5760197784,
        "lat": 12.9709537,
        "lon": 77.5373851,
        "tags": {
          "code": "VJN",
          "name": "Vijayanagar",
          "name:kn": "\u0cb5\u0cbf\u0c9c\u0caf\u0ca8\u0c97\u0cb0",
          "network": "Namma Metro",
          "note": "Contributors are requested to not edit the \"network\" and the \"operator\" tags. (2023/11/08)",
          "operator": "Bangalore Metro Rail Corporation Limited",
          "public_transport": "stop_position",
          "public_transport:version": "2",
          "railway": "stop",
          "source": "http://www.bmrc.co.in/English/Network.htm",
          "subway": "yes",
          "wheelchair": "yes",
          "wikidata": "Q39046429",
          "wikipedia": "en:Vijayanagar metro station"
        }
      },
      {
        "type": "node",
        "id": 5760197785,
        "lat": 12.9743117,
        "lon": 77.5456197,
        "tags": {
          "code": "HSLI",
          "name": "Sri Balagangadharanatha Swamiji Stn., Hosahalli",
          "name:kn": "\u0cb6\u0ccd\u0cb0\u0cc0 \u0cac\u0cbe\u0cb2\u0c97\u0c82\u0c97\u0cbe\u0ca7\u0cb0\u0ca8\u0cbe\u0ca5 \u0cae\u0cc6\u0c9f\u0ccd\u0cb0\u0ccb",
          "network": "Namma Metro",
          "note": "Contributors are requested to not edit the \"network\" and the \"operator\" tags. (2023/11/08)",
          "operator": "Bangalore Metro Rail Corporation Limited",
          "platforms": "2",
          "public_transport": "stop_position",
          "public_transport:version": "2",
          "railway": "stop",
          "source": "http://www.bmrc.co.in/English/Network.htm",
          "subway": "yes",
          "wheelchair": "yes",
          "wikidata": "Q23838583",
          "wikipedia": "en:Hosahalli metro station"
        }
      },
      {
        "type": "node",
        "id": 5760197786,
        "lat": 12.9756527,
        "lon": 77.5553548,
        "tags": {
          "code": "MIRD",
          "name": "Magadi Road",
          "name:kn": "\u0cae\u0cbe\u0c97\u0ca1\u0cbf \u0cb0\u0cb8\u0ccd\u0ca4\u0cc6",
          "network": "Namma Metro",
          "note": "Contributors are requested to not edit the \"network\" and the \"operator\" tags. (2023/11/08)",
          "operator": "Bangalore Metro Rail Corporation Limited",
          "platforms": "2",
          "public_transport": "stop_position",
          "public_transport:version": "2",
          "railway": "stop",
          "source": "http://www.bmrc.co.in/English/Network.htm",
          "subway": "yes",
          "wheelchair": "yes",
          "wikidata": "Q23838569",
          "wikipedia": "en:Magadi Road metro station"
        }
      },
      {
        "type": "node",
        "id": 5760197788,
        "lat": 12.9759026,
        "lon": 77.5653744,
        "tags": {
          "code": "BRCS",
          "name": "Krantivira Sangolli Rayanna Railway Station",
          "name:kn": "\u0ca8\u0c97\u0cb0 \u0cb0\u0cc8\u0cb2\u0cc1 \u0ca8\u0cbf\u0cb2\u0ccd\u0ca6\u0cbe\u0ca3",
          "network": "Namma Metro",
          "note": "Contributors are requested to not edit the \"network\" and the \"operator\" tags. (2023/11/08)",
          "operator": "Bangalore Metro Rail Corporation Limited",
          "platforms": "2",
          "public_transport": "stop_position",
          "public_transport:version": "2",
          "railway": "stop",
          "source": "http://www.bmrc.co.in/English/Network.htm",
          "subway": "yes",
          "wheelchair": "yes",
          "wikidata": "Q39070950",
          "wikipedia": "en:City Railway Station metro station (Bangalore)"
        }
      },
      {
        "type": "node",
        "id": 5760198623,
        "lat": 12.9904282,
        "lon": 77.5706929,
        "tags": {
          "alt_name": "Swastik",
          "code": "SPGD",
          "name": "Mantri Square Sampige Road",
          "name:kn": "\u0cae\u0c82\u0ca4\u0ccd\u0cb0\u0cbf \u0cb8\u0ccd\u0c95\u0ccd\u0cb5\u0cc7\u0cb0\u0ccd \u0cb8\u0c82\u0caa\u0cbf\u0c97\u0cc6 \u0cb0\u0cb8\u0ccd\u0ca4\u0cc6",
          "network": "Namma Metro",
          "note": "Contributors are requested to not edit the \"network\" and the \"operator\" tags. (2023/11/08)",
          "operator": "Bangalore Metro Rail Corporation Limited",
          "public_transport": "stop_position",
          "public_transport:version": "2",
          "railway": "stop",
          "source": "http://www.bmrc.co.in/English/Network.htm",
          "subway": "yes",
          "wheelchair": "yes",
          "wikidata": "Q17088462",
          "wikipedia": "en:Sampige Road metro station"
        }
      },
      {
        "type": "node",
        "id": 5760198624,
        "lat": 12.9965408,
        "lon": 77.5633115,
        "tags": {
          "code": "SPRU",
          "name": "Srirampura",
          "name:hi": "\u0936\u094d\u0930\u0940\u0930\u093e\u092e\u092a\u0941\u0930\u093e",
          "name:kn": "\u0cb6\u0ccd\u0cb0\u0cc0\u0cb0\u0cbe\u0cae\u0caa\u0cc1\u0cb0",
          "network": "Namma Metro",
          "note": "Contributors are requested to not edit the \"network\" and the \"operator\" tags. (2023/11/08)",
          "operator": "Bangalore Metro Rail Corporation Limited",
          "public_transport": "stop_position",
          "public_transport:version": "2",
          "railway": "stop",
          "source": "http://www.bmrc.co.in/English/Network.htm",
          "subway": "yes",
          "wheelchair": "yes",
          "wikidata": "Q17100145",
          "wikipedia": "en:Srirampura metro station"
        }
      },
      {
        "type": "node",
        "id": 5760198630,
        "lat": 13.0080774,
        "lon": 77.5487834,
        "tags": {
          "code": "MHLI",
          "name": "Mahalakshmi",
          "name:hi": "\u092e\u0939\u093e\u0932\u0915\u094d\u0937\u094d\u092e\u0940",
          "name:kn": "\u0cae\u0cb9\u0cbe\u0cb2\u0c95\u0ccd\u0cb7\u0ccd\u0cae\u0cbf",
          "network": "Namma Metro",
          "note": "Contributors are requested to not edit the \"network\" and the \"operator\" tags. (2023/11/08)",
          "operator": "Bangalore Metro Rail Corporation Limited",
          "public_transport": "stop_position",
          "public_transport:version": "2",
          "railway": "stop",
          "source": "http://www.bmrc.co.in/English/Network.htm",
          "subway": "yes",
          "wheelchair": "yes"
        }
      },
      {
        "type": "node",
        "id": 5760198631,
        "lat": 12.9984697,
        "lon": 77.5568746,
        "tags": {
          "code": "KVPR",
          "name": "Mahakavi Kuvempu Road",
          "name:etymology:wikidata": "Q3351108",
          "name:kn": "\u0cae\u0cb9\u0cbe\u0c95\u0cb5\u0cbf \u0c95\u0cc1\u0cb5\u0cc6\u0c82\u0caa\u0cc1 \u0cb0\u0cb8\u0ccd\u0ca4\u0cc6",
          "network": "Namma Metro",
          "note": "Contributors are requested to not edit the \"network\" and the \"operator\" tags. (2023/11/08)",
          "operator": "Bangalore Metro Rail Corporation Limited",
          "public_transport": "stop_position",
          "public_transport:version": "2",
          "railway": "stop",
          "short_name": "MKK Road",
          "source": "http://www.bmrc.co.in/English/Network.htm",
          "subway": "yes",
          "wheelchair": "yes",
          "wikidata": "Q17068244",
          "wikipedia": "en:Kuvempu Road metro station"
        }
      },
      {
        "type": "node",
        "id": 5760198632,
        "lat": 13.0005232,
        "lon": 77.5496166,
        "tags": {
          "code": "RJNR",
          "layer": "2",
          "level": "2",
          "name": "Rajajinagar",
          "name:hi": "\u0930\u093e\u091c\u093e\u091c\u0940\u0928\u0917\u0930",
          "name:kn": "\u0cb0\u0cbe\u0c9c\u0cbe\u0c9c\u0cbf\u0ca8\u0c97\u0cb0",
          "network": "Namma Metro",
          "note": "Contributors are requested to not edit the \"network\" and the \"operator\" tags. (2023/11/08)",
          "operator": "Bangalore Metro Rail Corporation Limited",
          "public_transport": "stop_position",
          "public_transport:version": "2",
          "railway": "stop",
          "source": "http://www.bmrc.co.in/English/Network.htm",
          "subway": "yes",
          "wheelchair": "yes",
          "wikidata": "Q17085511",
          "wikipedia": "en:Rajajinagar metro station"
        }
      },
      {
        "type": "node",
        "id": 5960788726,
        "lat": 12.9965253,
        "lon": 77.5631963,
        "tags": {
          "code": "SPRU",
          "lit": "yes",
          "name": "Srirampura",
          "name:hi": "\u0936\u094d\u0930\u0940\u0930\u093e\u092e\u092a\u0941\u0930\u093e",
          "name:kn": "\u0cb6\u0ccd\u0cb0\u0cc0\u0cb0\u0cbe\u0cae\u0caa\u0cc1\u0cb0",
          "name:ml": "\u0d36\u0d4d\u0d30\u0d40\u0d30\u0d3e\u0d02\u0d2a\u0d41\u0d30",
          "name:ta": "\u0bb8\u0bcd\u0bb0\u0bc0\u0bb0\u0bbe\u0bae\u0bcd\u0baa\u0bc1\u0bb0\u0bbe",
          "network": "Namma Metro",
          "network:wikidata": "Q279343",
          "note": "Contributors are requested to not edit the \"network\" and the \"operator\" tags. (2023/11/08)",
          "operator": "Bangalore Metro Rail Corporation Limited",
          "public_transport": "station",
          "public_transport:version": "2",
          "railway": "station",
          "shelter": "yes",
          "station": "subway",
          "subway": "yes",
          "website": "https://english.brmc.co.in",
          "wheelchair": "yes"
        }
      },
      {
        "type": "node",
        "id": 6342882646,
        "lat": 12.99797,
        "lon": 77.5516362,
        "tags": {
          "bus": "yes",
          "name": "Navarang Theatre",
          "name:kn": "\u0ca8\u0cb5\u0cb0\u0c82\u0c97 \u0c9a\u0cbf\u0ca4\u0ccd\u0cb0\u0cae\u0c82\u0ca6\u0cbf\u0cb0",
          "network": "BMTC",
          "operator": "BMTC",
          "public_transport": "stop_position"
        }
      },
      {
        "type": "node",
        "id": 6342882647,
        "lat": 12.9975227,
        "lon": 77.5489437,
        "tags": {
          "bus": "yes",
          "local_ref": "RAJAJINAGARA",
          "name": "Navarang Theatre",
          "name:kn": "\u0ca8\u0cb5\u0cb0\u0c82\u0c97 \u0c9a\u0cbf\u0ca4\u0ccd\u0cb0\u0cae\u0c82\u0ca6\u0cbf\u0cb0",
          "network": "BMTC",
          "operator": "BMTC",
          "public_transport": "stop_position"
        }
      },
      {
        "type": "node",
        "id": 6342882648,
        "lat": 12.9971317,
        "lon": 77.5536245,
        "tags": {
          "bus": "yes",
          "name": "Navarang Theatre",
          "name:kn": "\u0ca8\u0cb5\u0cb0\u0c82\u0c97 \u0c9a\u0cbf\u0ca4\u0ccd\u0cb0\u0cae\u0c82\u0ca6\u0cbf\u0cb0",
          "network": "BMTC",
          "operator": "BMTC",
          "public_transport": "stop_position"
        }
      },
      {
        "type": "node",
        "id": 6342882650,
        "lat": 12.9994242,
        "lon": 77.5498266,
        "tags": {
          "bus": "yes",
          "name": "Navarang Theatre",
          "name:kn": "\u0ca8\u0cb5\u0cb0\u0c82\u0c97 \u0c9a\u0cbf\u0ca4\u0ccd\u0cb0\u0cae\u0c82\u0ca6\u0cbf\u0cb0",
          "network": "BMTC",
          "operator": "BMTC",
          "public_transport": "stop_position"
        }
      },
      {
        "type": "node",
        "id": 6342882651,
        "lat": 12.9958322,
        "lon": 77.5507306,
        "tags": {
          "bus": "yes",
          "name": "Manjunatha Nagara",
          "name:kn": "\u0cae\u0c82\u0c9c\u0cc1\u0ca8\u0cbe\u0ca5 \u0ca8\u0c97\u0cb0",
          "network": "BMTC",
          "operator": "BMTC",
          "public_transport": "stop_position"
        }
      },
      {
        "type": "node",
        "id": 6342882652,
        "lat": 12.9956085,
        "lon": 77.5506983,
        "tags": {
          "bus": "yes",
          "name": "Manjunatha Nagara",
          "name:kn": "\u0cae\u0c82\u0c9c\u0cc1\u0ca8\u0cbe\u0ca5 \u0ca8\u0c97\u0cb0",
          "network": "BMTC",
          "operator": "BMTC",
          "public_transport": "stop_position"
        }
      },
      {
        "type": "node",
        "id": 6342915005,
        "lat": 12.9943801,
        "lon": 77.5527036,
        "tags": {
          "bus": "yes",
          "name": "Basaveshwara College",
          "name:kn": "\u0cac\u0cb8\u0cb5\u0cc7\u0cb6\u0ccd\u0cb5\u0cb0 \u0c95\u0cbe\u0cb2\u0cc7\u0c9c\u0cc1",
          "network": "BMTC",
          "operator": "BMTC",
          "public_transport": "stop_position"
        }
      },
      {
        "type": "node",
        "id": 6345481226,
        "lat": 12.9911754,
        "lon": 77.5525396,
        "tags": {
          "bus": "yes",
          "name": "ESI Hospital Rajajinagara (Towards Navarang)",
          "network": "BMTC",
          "operator": "BMTC",
          "public_transport": "stop_position"
        }
      },
      {
        "type": "node",
        "id": 6345520795,
        "lat": 12.9915725,
        "lon": 77.5525504,
        "tags": {
          "bus": "yes",
          "name": "ESI Hospital Rajajinagara (Towards Old Police Station)",
          "network": "BMTC",
          "operator": "BMTC",
          "public_transport": "stop_position"
        }
      },
      {
        "type": "node",
        "id": 6345534243,
        "lat": 12.9916467,
        "lon": 77.5508978,
        "tags": {
          "bus": "yes",
          "name": "ESI Hospital Rajajinagara (towards Yashawanthapura)",
          "network": "BMTC",
          "operator": "BMTC",
          "public_transport": "stop_position"
        }
      },
      {
        "type": "node",
        "id": 6347562414,
        "lat": 12.9985461,
        "lon": 77.5564611,
        "tags": {
          "bus": "yes",
          "name": "Mariyappanapalya",
          "name:kn": "\u0cae\u0cb0\u0cbf\u0caf\u0caa\u0ccd\u0caa\u0ca8\u0caa\u0cbe\u0cb3\u0ccd\u0caf",
          "network": "BMTC",
          "operator": "BMTC",
          "public_transport": "stop_position"
        }
      },
      {
        "type": "node",
        "id": 6347562415,
        "lat": 12.9986797,
        "lon": 77.5563292,
        "tags": {
          "bus": "yes",
          "name": "Mariyappanapalya",
          "name:kn": "\u0cae\u0cb0\u0cbf\u0caf\u0caa\u0ccd\u0caa\u0ca8\u0caa\u0cbe\u0cb3\u0ccd\u0caf",
          "network": "BMTC",
          "operator": "BMTC",
          "public_transport": "stop_position"
        }
      },
      {
        "type": "node",
        "id": 6347562416,
        "lat": 12.9960617,
        "lon": 77.5514458,
        "tags": {
          "bus": "yes",
          "name": "2nd Block Rajajinagara",
          "name:kn": "\u0ce8\u0ca8\u0cc7 \u0cb9\u0c82\u0ca4 \u0cb0\u0cbe\u0c9c\u0c9c\u0cbf\u0ca8\u0c97\u0cb0",
          "network": "BMTC",
          "operator": "BMTC",
          "public_transport": "stop_position"
        }
      },
      {
        "type": "node",
        "id": 6347562418,
        "lat": 12.997504,
        "lon": 77.5460945,
        "tags": {
          "bus": "yes",
          "name": "Modi Hospital",
          "name:kn": "\u0cae\u0ccb\u0ca6\u0cbf \u0c86\u0cb8\u0ccd\u0caa\u0ca4\u0ccd\u0cb0\u0cc6",
          "network": "BMTC",
          "operator": "BMTC",
          "public_transport": "stop_position"
        }
      },
      {
        "type": "node",
        "id": 6347562420,
        "lat": 13.0008811,
        "lon": 77.5504807,
        "tags": {
          "brand": "Canara Bank",
          "brand:pa": "\u0a15\u0a47\u0a28\u0a30\u0a3e \u0a2c\u0a48\u0a02\u0a15",
          "brand:ur": "\u06a9\u06cc\u0646\u0631\u0627 \u0628\u06cc\u0646\u06a9",
          "brand:wikidata": "Q2003777",
          "brand:wikipedia": "en:Canara Bank",
          "brand:wikipedia:pa": "\u0a15\u0a47\u0a28\u0a30\u0a3e \u0a2c\u0a48\u0a02\u0a15",
          "bus": "yes",
          "name": "Canara Bank",
          "name:kn": "\u0c95\u0cc6\u0ca8\u0cb0\u0cbe \u0cac\u0ccd\u0caf\u0cbe\u0c82\u0c95\u0ccd",
          "name:pa": "\u0a15\u0a47\u0a28\u0a30\u0a3e \u0a2c\u0a48\u0a02\u0a15",
          "name:ur": "\u06a9\u06cc\u0646\u0631\u0627 \u0628\u06cc\u0646\u06a9",
          "network": "BMTC",
          "public_transport": "stop_position"
        }
      },
      {
        "type": "node",
        "id": 6347562421,
        "lat": 12.9897558,
        "lon": 77.5506634,
        "tags": {
          "bus": "yes",
          "name": "ESI Hospital (towards Vijayanagara)",
          "network": "BMTC",
          "operator": "BMTC",
          "public_transport": "stop_position"
        }
      },
      {
        "type": "node",
        "id": 6347624110,
        "lat": 12.986105,
        "lon": 77.5563836,
        "tags": {
          "bus": "yes",
          "name": "Rama Mandira Rajajinagara",
          "name:kn": "\u0cb0\u0cbe\u0cae\u0cae\u0c82\u0ca6\u0cbf\u0cb0",
          "network": "BMTC",
          "operator": "BMTC",
          "public_transport": "stop_position"
        }
      },
      {
        "type": "node",
        "id": 6347624111,
        "lat": 12.9866499,
        "lon": 77.5497264,
        "tags": {
          "bus": "yes",
          "name": "Dhobi Ghat Rajajinagara",
          "name:en": "Dhobi Ghat Rajajinagara",
          "network": "BMTC",
          "operator": "BMTC",
          "public_transport": "stop_position"
        }
      },
      {
        "type": "node",
        "id": 6347624113,
        "lat": 12.9855619,
        "lon": 77.5491096,
        "tags": {
          "bus": "yes",
          "name": "Dhobi Ghat Rajajinagara",
          "name:en": "Dhobi Ghat Rajajinagara",
          "network": "BMTC",
          "operator": "BMTC",
          "public_transport": "stop_position"
        }
      },
      {
        "type": "node",
        "id": 6347624115,
        "lat": 12.9876702,
        "lon": 77.5511003,
        "tags": {
          "bus": "yes",
          "name": "Dhobi Ghat Rajajinagara",
          "name:en": "Dhobi Ghat Rajajinagara",
          "network": "BMTC",
          "operator": "BMTC",
          "public_transport": "stop_position"
        }
      },
      {
        "type": "node",
        "id": 6347624116,
        "lat": 12.9871177,
        "lon": 77.5508625,
        "tags": {
          "bus": "yes",
          "name": "Dhobi Ghat Rajajinagara",
          "name:en": "Dhobi Ghat Rajajinagara",
          "network": "BMTC",
          "operator": "BMTC",
          "public_transport": "stop_position"
        }
      },
      {
        "type": "node",
        "id": 6347624118,
        "lat": 12.9889458,
        "lon": 77.546862,
        "tags": {
          "alt_name": "Kunniladi",
          "bus": "yes",
          "name": "Shivanahalli 4th Main",
          "network": "BMTC",
          "operator": "BMTC",
          "public_transport": "stop_position"
        }
      },
      {
        "type": "node",
        "id": 6347624120,
        "lat": 12.9913642,
        "lon": 77.546065,
        "tags": {
          "bus": "yes",
          "name": "Pushpanjali Talkies",
          "name:kn": "\u0caa\u0cc1\u0cb7\u0ccd\u0caa\u0cbe\u0c82\u0c9c\u0cb2\u0cbf",
          "network": "BMTC",
          "operator": "BMTC",
          "public_transport": "stop_position"
        }
      },
      {
        "type": "node",
        "id": 6347624123,
        "lat": 12.9910966,
        "lon": 77.5577555,
        "tags": {
          "bus": "yes",
          "name": "Navarang Bar",
          "network": "BMTC",
          "operator": "BMTC",
          "public_transport": "stop_position"
        }
      },
      {
        "type": "node",
        "id": 6347624125,
        "lat": 12.9899301,
        "lon": 77.5551042,
        "tags": {
          "bus": "yes",
          "name": "Old Police Station",
          "name:kn": "\u0cb9\u0cb3\u0cc6 \u0c86\u0cb0\u0c95\u0ccd\u0cb7\u0c95 \u0ca0\u0cbe\u0ca3\u0cc6",
          "network": "BMTC",
          "operator": "BMTC",
          "public_transport": "stop_position"
        }
      },
      {
        "type": "node",
        "id": 6347624126,
        "lat": 12.9893348,
        "lon": 77.5543801,
        "tags": {
          "bus": "yes",
          "name": "Old Police Station Rajajinagara",
          "network": "BMTC",
          "operator": "BMTC",
          "public_transport": "stop_position"
        }
      },
      {
        "type": "node",
        "id": 6347654322,
        "lat": 13.0034192,
        "lon": 77.5535855,
        "tags": {
          "bus": "yes",
          "name": "Police Station Subramanyanagara",
          "name:kn": "\u0cb8\u0cc1\u0cac\u0ccd\u0cb0\u0cae\u0ca3\u0ccd\u0caf\u0ca8\u0c97\u0cb0 \u0c86\u0cb0\u0c95\u0ccd\u0cb7\u0c95 \u0ca0\u0cbe\u0ca3\u0cc6",
          "network": "BMTC",
          "operator": "BMTC",
          "public_transport": "stop_position"
        }
      },
      {
        "type": "node",
        "id": 6347654323,
        "lat": 13.0037794,
        "lon": 77.5500324,
        "tags": {
          "bus": "yes",
          "name": "Diacon Hospital",
          "name:kn": "\u0ca1\u0caf\u0cbe\u0c95\u0cbe\u0ca8\u0ccd \u0c86\u0cb8\u0ccd\u0caa\u0ca4\u0ccd\u0cb0\u0cc6",
          "network": "BMTC",
          "operator": "BMTC",
          "public_transport": "stop_position"
        }
      },
      {
        "type": "node",
        "id": 6347654324,
        "lat": 13.0038088,
        "lon": 77.5500268,
        "tags": {
          "bus": "yes",
          "name": "1st Block Rajajinagara Diacon Hospital",
          "name:kn": "\u0ca1\u0caf\u0cbe\u0c95\u0cbe\u0ca8\u0ccd \u0c86\u0cb8\u0ccd\u0caa\u0ca4\u0ccd\u0cb0\u0cc6",
          "network": "BMTC",
          "operator": "BMTC",
          "public_transport": "stop_position"
        }
      },
      {
        "type": "node",
        "id": 6347654326,
        "lat": 13.0036653,
        "lon": 77.5490908,
        "tags": {
          "bus": "yes",
          "name": "Rajaji Nagar 1st Block",
          "name:kn": "\u0cb0\u0cbe\u0c9c\u0cbe\u0c9c\u0cbf\u0ca8\u0c97\u0cb0 \u0cae\u0cca\u0ca6\u0cb2\u0ca8\u0cc6\u0caf \u0cb9\u0c82\u0ca4",
          "network": "BMTC",
          "operator": "BMTC",
          "public_transport": "stop_position"
        }
      },
      {
        "type": "node",
        "id": 6347654328,
        "lat": 13.0051543,
        "lon": 77.5488297,
        "tags": {
          "bus": "yes",
          "name": "Rajaji Nagar 1st Block",
          "name:kn": "\u0cb0\u0cbe\u0c9c\u0cbe\u0c9c\u0cbf\u0ca8\u0c97\u0cb0 \u0cae\u0cca\u0ca6\u0cb2\u0ca8\u0cc6\u0caf \u0cb9\u0c82\u0ca4",
          "network": "BMTC",
          "operator": "BMTC",
          "public_transport": "stop_position"
        }
      },
      {
        "type": "node",
        "id": 6347654329,
        "lat": 13.0059118,
        "lon": 77.5488669,
        "tags": {
          "bus": "yes",
          "name": "1st Block Rajajinagara",
          "name:kn": "\u0cb0\u0cbe\u0c9c\u0cbe\u0c9c\u0cbf\u0ca8\u0c97\u0cb0 \u0cae\u0cca\u0ca6\u0cb2\u0ca8\u0cc6\u0caf \u0cb9\u0c82\u0ca4",
          "network": "BMTC",
          "operator": "BMTC",
          "public_transport": "stop_position"
        }
      },
      {
        "type": "node",
        "id": 6347654330,
        "lat": 13.0085371,
        "lon": 77.5487745,
        "tags": {
          "bus": "yes",
          "name": "Mahalakshmi Layout Entrance",
          "network": "BMTC",
          "operator": "BMTC",
          "public_transport": "stop_position"
        }
      },
      {
        "type": "node",
        "id": 6347654332,
        "lat": 13.0073711,
        "lon": 77.5487687,
        "tags": {
          "bus": "yes",
          "name": "Mahalakshmi Layout Entrance",
          "network": "BMTC",
          "operator": "BMTC",
          "public_transport": "stop_position"
        }
      },
      {
        "type": "node",
        "id": 6347654333,
        "lat": 13.0078148,
        "lon": 77.5481561,
        "tags": {
          "bus": "yes",
          "name": "Mahalakshmi Layout Entrance",
          "network": "BMTC",
          "operator": "BMTC",
          "public_transport": "stop_position"
        }
      },
      {
        "type": "node",
        "id": 6400857559,
        "lat": 12.9758768,
        "lon": 77.5653767,
        "tags": {
          "code": "BRCS",
          "name": "Krantivira Sangolli Rayanna Railway Station",
          "name:kn": "\u0c95\u0ccd\u0cb0\u0cbe\u0c82\u0ca4\u0cbf\u0cb5\u0cc0\u0cb0 \u0cb8\u0c82\u0c97\u0cca\u0cb3\u0ccd\u0cb3\u0cbf \u0cb0\u0cbe\u0caf\u0ca3\u0ccd\u0ca3",
          "name:ml": "\u0d15\u0d4d\u0d30\u0d3e\u0d28\u0d4d\u0d24\u0d3f\u0d35\u0d40\u0d30 \u0d38\u0d19\u0d4d\u0d15\u0d4a\u0d32\u0d4d\u0d32\u0d3f \u0d30\u0d3e\u0d2f\u0d23\u0d4d\u0d23",
          "network": "Namma Metro",
          "note": "Contributors are requested to not edit the \"network\" and the \"operator\" tags. (2023/11/08)",
          "operator": "Bangalore Metro Rail Corporation Limited",
          "public_transport": "station",
          "public_transport:version": "2",
          "railway": "station",
          "shelter": "yes",
          "station": "subway",
          "subway": "yes",
          "website": "https://english.brmc.co.in",
          "wheelchair": "yes"
        }
      },
      {
        "type": "node",
        "id": 6400857560,
        "lat": 12.975632,
        "lon": 77.5553523,
        "tags": {
          "code": "MIRD",
          "name": "Magadi Road",
          "name:kn": "\u0cae\u0cbe\u0c97\u0ca1\u0cbf \u0cb0\u0cb8\u0ccd\u0ca4\u0cc6 \u0cae\u0cc6\u0c9f\u0ccd\u0cb0\u0cca",
          "name:ml": "\u0d2e\u0d3e\u0d17\u0d21\u0d3f \u0d31\u0d4b\u0d21\u0d4d",
          "network": "Namma Metro",
          "network:wikidata": "Q279343",
          "note": "Contributors are requested to not edit the \"network\" and the \"operator\" tags. (2023/11/08)",
          "operator": "Bangalore Metro Rail Corporation Limited",
          "public_transport": "station",
          "public_transport:version": "2",
          "railway": "station",
          "shelter": "yes",
          "station": "subway",
          "subway": "yes",
          "website": "https://english.brmc.co.in",
          "wheelchair": "yes"
        }
      },
      {
        "type": "node",
        "id": 6400857561,
        "lat": 12.9742933,
        "lon": 77.5456215,
        "tags": {
          "code": "HSLI",
          "name": "Sri Balagangadharanatha Swamiji Station, Hosahalli",
          "name:kn": "\u0cb6\u0ccd\u0cb0\u0cc0 \u0cac\u0cbe\u0cb2\u0c97\u0c82\u0c97\u0cbe\u0ca7\u0cb0\u0ca8\u0cbe\u0ca5 \u0cae\u0cc6\u0c9f\u0ccd\u0cb0\u0ccb",
          "name:ml": "\u0d36\u0d4d\u0d30\u0d40 \u0d2c\u0d3e\u0d32\u0d17\u0d02\u0d17\u0d3e\u0d27\u0d30\u0d28\u0d3e\u0d25 \u0d38\u0d4d\u0d35\u0d3e\u0d2e\u0d3f, \u0d39\u0d4a\u0d38\u0d39\u0d33\u0d4d\u0d33\u0d3f",
          "network": "Namma Metro",
          "network:wikidata": "Q279343",
          "note": "Contributors are requested to not edit the \"network\" and the \"operator\" tags. (2023/11/08)",
          "operator": "Bangalore Metro Rail Corporation Limited",
          "public_transport": "station",
          "public_transport:version": "2",
          "railway": "station",
          "shelter": "yes",
          "station": "subway",
          "subway": "yes",
          "website": "https://english.brmc.co.in",
          "wheelchair": "yes"
        }
      },
      {
        "type": "node",
        "id": 6400857562,
        "lat": 12.9709559,
        "lon": 77.5374044,
        "tags": {
          "code": "VJN",
          "name": "Vijayanagar",
          "name:kn": "\u0cb5\u0cbf\u0c9c\u0caf\u0ca8\u0c97\u0cb0",
          "name:ml": "\u0d35\u0d3f\u0d1c\u0d2f\u0d28\u0d17\u0d30",
          "network": "Namma Metro",
          "network:wikidata": "Q279343",
          "note": "Contributors are requested to not edit the \"network\" and the \"operator\" tags. (2023/11/08)",
          "operator": "Bangalore Metro Rail Corporation Limited",
          "public_transport": "station",
          "public_transport:version": "2",
          "railway": "station",
          "shelter": "yes",
          "station": "subway",
          "subway": "yes",
          "website": "https://english.brmc.co.in",
          "wheelchair": "yes"
        }
      },
      {
        "type": "node",
        "id": 6410706688,
        "lat": 12.9904629,
        "lon": 77.5707293,
        "tags": {
          "code": "SPGD",
          "name": "Mantri Square Sampige Road",
          "name:kn": "\u0cae\u0c82\u0ca4\u0ccd\u0cb0\u0cbf \u0cb8\u0ccd\u0c95\u0ccd\u0cb5\u0cc7\u0cb0\u0ccd \u0cb8\u0c82\u0caa\u0cbf\u0c97\u0cc6 \u0cb0\u0cb8\u0ccd\u0ca4\u0cc6",
          "name:ml": "\u0d2e\u0d28\u0d4d\u0d24\u0d4d\u0d30\u0d3f \u0d38\u0d4d\u0d15\u0d4d\u0d35\u0d2f\u0d7c \u0d38\u0d2e\u0d4d\u0d2a\u0d3f\u0d17\u0d46 \u0d31\u0d4b\u0d21\u0d4d",
          "network": "Namma Metro",
          "network:wikidata": "Q279343",
          "note": "Contributors are requested to not edit the \"network\" and the \"operator\" tags. (2023/11/08)",
          "operator": "Bangalore Metro Rail Corporation Limited",
          "public_transport": "station",
          "public_transport:version": "2",
          "railway": "station",
          "shelter": "yes",
          "station": "subway",
          "subway": "yes",
          "website": "https://english.brmc.co.in",
          "wheelchair": "yes"
        }
      },
      {
        "type": "node",
        "id": 6410706689,
        "lat": 12.9985297,
        "lon": 77.5568986,
        "tags": {
          "code": "KVPR",
          "name": "Mahakavi Kuvempu Road",
          "name:etymology:wikidata": "Q3351108",
          "name:kn": "\u0cae\u0cb9\u0cbe\u0c95\u0cb5\u0cbf \u0c95\u0cc1\u0cb5\u0cc6\u0c82\u0caa\u0cc1 \u0cb0\u0cb8\u0ccd\u0ca4\u0cc6",
          "name:ml": "\u0d2e\u0d39\u0d3e\u0d15\u0d35\u0d3f \u0d15\u0d41\u0d35\u0d46\u0d2e\u0d4d\u0d2a\u0d41 \u0d31\u0d4b\u0d21\u0d4d",
          "name:ta": "\u0bae\u0b95\u0bbe\u0b95\u0bb5\u0bbf \u0b95\u0bc1\u0bb5\u0bc7\u0bae\u0bcd\u0baa\u0bc1 \u0b9a\u0bbe\u0bb2\u0bc8",
          "network": "Namma Metro",
          "network:wikidata": "Q279343",
          "note": "Contributors are requested to not edit the \"network\" and the \"operator\" tags. (2023/11/08)",
          "operator": "Bangalore Metro Rail Corporation Limited",
          "public_transport": "station",
          "public_transport:version": "2",
          "railway": "station",
          "shelter": "yes",
          "short_name": "MKK Road",
          "station": "subway",
          "subway": "yes",
          "website": "https://english.brmc.co.in",
          "wheelchair": "yes"
        }
      },
      {
        "type": "node",
        "id": 6410706690,
        "lat": 13.0005247,
        "lon": 77.5496568,
        "tags": {
          "code": "RJNR",
          "name": "Rajajinagar",
          "name:hi": "\u0930\u093e\u091c\u093e\u091c\u0940\u0928\u0917\u0930",
          "name:kn": "\u0cb0\u0cbe\u0c9c\u0cbe\u0c9c\u0cbf\u0ca8\u0c97\u0cb0",
          "name:ml": "\u0d30\u0d3e\u0d1c\u0d3e\u0d1c\u0d3f\u0d28\u0d17\u0d7c",
          "name:ta": "\u0bb0\u0bbe\u0b9c\u0bbe\u0b9c\u0bbf \u0ba8\u0b95\u0bb0\u0bcd",
          "network": "Namma Metro",
          "note": "Contributors are requested to not edit the \"network\" and the \"operator\" tags. (2023/11/08)",
          "operator": "Bangalore Metro Rail Corporation Limited",
          "public_transport": "station",
          "public_transport:version": "2",
          "railway": "station",
          "shelter": "yes",
          "station": "subway",
          "subway": "yes",
          "website": "https://english.brmc.co.in",
          "wheelchair": "yes"
        }
      },
      {
        "type": "node",
        "id": 6410706691,
        "lat": 13.0080475,
        "lon": 77.5488066,
        "tags": {
          "code": "MHLI",
          "name": "Mahalakshmi",
          "name:hi": "\u092e\u0939\u093e\u0932\u0915\u094d\u0937\u094d\u092e\u0940",
          "name:kn": "\u0cae\u0cb9\u0cbe\u0cb2\u0c95\u0ccd\u0cb7\u0ccd\u0cae\u0cbf",
          "name:ml": "\u0d2e\u0d39\u0d3e\u0d32\u0d15\u0d4d\u0d37\u0d4d\u0d2e\u0d3f",
          "name:ta": "\u0bae\u0b95\u0bbe\u0bb2\u0b9f\u0bcd\u0b9a\u0bc1\u0bae\u0bbf",
          "network": "Namma Metro",
          "network:wikidata": "Q279343",
          "note": "Contributors are requested to not edit the \"network\" and the \"operator\" tags. (2023/11/08)",
          "operator": "Bangalore Metro Rail Corporation Limited",
          "public_transport": "station",
          "public_transport:version": "2",
          "railway": "station",
          "shelter": "yes",
          "station": "subway",
          "subway": "yes",
          "website": "https://english.brmc.co.in",
          "wheelchair": "yes"
        }
      },
      {
        "type": "node",
        "id": 6654537557,
        "lat": 13.0063003,
        "lon": 77.554209,
        "tags": {
          "alt_name": "Vivekananda College",
          "bus": "yes",
          "name": "St. Theresa Hospital",
          "name:en": "St. Theresa Hospital",
          "name:kn": "\u0cb8\u0cc8\u0c82\u0c9f\u0ccd \u0ca4\u0cc6\u0cb0\u0cc7\u0cb8 \u0c86\u0cb8\u0ccd\u0caa\u0ca4\u0ccd\u0cb0\u0cc6",
          "network": "BMTC",
          "operator": "BMTC",
          "public_transport": "stop_position"
        }
      },
      {
        "type": "node",
        "id": 7093027176,
        "lat": 12.9847107,
        "lon": 77.5541736,
        "tags": {
          "bus": "yes",
          "name": "Bashyam Circle",
          "name:en": "Bashyam Circle",
          "name:kn": "\u0cac\u0cbe\u0cb7\u0ccd\u0caf\u0c82 \u0cb5\u0cc3\u0ca4\u0ccd\u0ca4",
          "network": "BMTC",
          "operator": "BMTC",
          "public_transport": "stop_position"
        }
      },
      {
        "type": "node",
        "id": 7093027177,
        "lat": 12.9793989,
        "lon": 77.5535754,
        "tags": {
          "bus": "yes",
          "name": "6th Block Rajajinagara",
          "name:en": "6th Block Rajajinagara",
          "name:kn": "\u0cb0\u0cbe\u0c9c\u0cbe\u0c9c\u0cbf\u0ca8\u0c97\u0cb0 \u0cec\u0ca8\u0cc7 \u0cac\u0ccd\u0cb2\u0cbe\u0c95\u0ccd",
          "network": "BMTC",
          "operator": "BMTC",
          "public_transport": "stop_position"
        }
      },
      {
        "type": "node",
        "id": 7093027178,
        "lat": 12.9760801,
        "lon": 77.5525392,
        "tags": {
          "bus": "yes",
          "name": "Prasanna Theatre",
          "name:en": "Prasanna Theatre",
          "name:kn": "\u0caa\u0ccd\u0cb0\u0cb8\u0ca8\u0ccd\u0ca8 \u0c9a\u0cbf\u0ca4\u0ccd\u0cb0\u0cae\u0c82\u0ca6\u0cbf\u0cb0",
          "network": "BMTC",
          "operator": "BMTC",
          "public_transport": "stop_position"
        }
      },
      {
        "type": "node",
        "id": 7093027179,
        "lat": 12.975596,
        "lon": 77.5564839,
        "tags": {
          "bus": "yes",
          "name": "10th Cross Magadi Road",
          "name:en": "10th Cross Magadi Road",
          "name:kn": "\u0cae\u0cbe\u0c97\u0ca1\u0cbf \u0cb0\u0cb8\u0ccd\u0ca4\u0cc6 \u0ce7\u0ce6\u0ca8\u0cc7 \u0c85\u0ca1\u0ccd\u0ca1",
          "network": "BMTC",
          "operator": "BMTC",
          "public_transport": "stop_position"
        }
      },
      {
        "type": "node",
        "id": 7093027180,
        "lat": 12.975699,
        "lon": 77.5603955,
        "tags": {
          "bus": "yes",
          "name": "5th Cross Magadi Road",
          "name:en": "5th Cross Magadi Road",
          "name:kn": "\u0cae\u0cbe\u0c97\u0ca1\u0cbf \u0cb0\u0cb8\u0ccd\u0ca4\u0cc6 \u0ceb\u0ca8\u0cc7 \u0c85\u0ca1\u0ccd\u0ca1",
          "network": "BMTC",
          "operator": "BMTC",
          "public_transport": "stop_position"
        }
      },
      {
        "type": "node",
        "id": 7093027181,
        "lat": 12.975765,
        "lon": 77.5638338,
        "tags": {
          "bus": "yes",
          "name": "1st Cross Magadi Road",
          "name:en": "1st Cross Magadi Road",
          "name:kn": "\u0cae\u0cbe\u0c97\u0ca1\u0cbf \u0cb0\u0cb8\u0ccd\u0ca4\u0cc6 \u0ce7\u0ca8\u0cc7 \u0c85\u0ca1\u0ccd\u0ca1",
          "network": "BMTC",
          "operator": "BMTC",
          "public_transport": "stop_position"
        }
      },
      {
        "type": "node",
        "id": 7104383863,
        "lat": 13.0040737,
        "lon": 77.5536459,
        "tags": {
          "bus": "yes",
          "name": "Police Station Subramanyanagara",
          "name:kn": "\u0cb8\u0cc1\u0cac\u0ccd\u0cb0\u0cae\u0ca3\u0ccd\u0caf\u0ca8\u0c97\u0cb0 \u0c86\u0cb0\u0c95\u0ccd\u0cb7\u0c95 \u0ca0\u0cbe\u0ca3\u0cc6",
          "network": "BMTC",
          "operator": "BMTC",
          "public_transport": "stop_position"
        }
      },
      {
        "type": "node",
        "id": 7105069833,
        "lat": 12.9872306,
        "lon": 77.5676565,
        "tags": {
          "bus": "yes",
          "name": "Bashyam Nagara Okalipuram",
          "name:en": "Bashyam Nagara Okalipuram",
          "network": "BMTC",
          "operator": "BMTC",
          "public_transport": "stop_position"
        }
      },
      {
        "type": "node",
        "id": 7105069834,
        "lat": 12.9884306,
        "lon": 77.5665592,
        "tags": {
          "bus": "yes",
          "name": "Aruna Talkies, Gandhi School",
          "name:en": "Aruna Talkies, Gandhi School",
          "network": "BMTC",
          "operator": "BMTC",
          "public_transport": "stop_position"
        }
      },
      {
        "type": "node",
        "id": 7105069835,
        "lat": 12.9905312,
        "lon": 77.5665122,
        "tags": {
          "bus": "yes",
          "name": "7th Main Srirampura",
          "name:en": "7th Main Srirampura",
          "name:kn": "\u0cee\u0ca8\u0cc7 \u0cae\u0cc1\u0c96\u0ccd\u0caf \u0cb0\u0cb8\u0ccd\u0ca4\u0cc6",
          "network": "BMTC",
          "operator": "BMTC",
          "public_transport": "stop_position"
        }
      },
      {
        "type": "node",
        "id": 7105069837,
        "lat": 12.9921958,
        "lon": 77.5664676,
        "tags": {
          "bus": "yes",
          "name": "5th Cross Sriramapura",
          "name:en": "5th Cross Sriramapura",
          "name:kn": "\u0ceb\u0ca8\u0cc7 \u0c85\u0ca1\u0ccd\u0ca1\u0cb0\u0cb8\u0ccd\u0ca4\u0cc6",
          "network": "BMTC",
          "operator": "BMTC",
          "public_transport": "stop_position"
        }
      },
      {
        "type": "node",
        "id": 7105069838,
        "lat": 12.9949125,
        "lon": 77.5663707,
        "tags": {
          "bus": "yes",
          "name": "Chowdeshwari Temple",
          "name:en": "Chowdeshwari Temple",
          "name:kn": "\u0c9a\u0ccc\u0ca1\u0cc7\u0cb6\u0ccd\u0cb5\u0cb0\u0cbf \u0ca6\u0cc7\u0cb5\u0cb8\u0ccd\u0ca5\u0cbe\u0ca8",
          "network": "BMTC",
          "operator": "BMTC",
          "public_transport": "stop_position"
        }
      },
      {
        "type": "node",
        "id": 7105069839,
        "lat": 13.0005815,
        "lon": 77.5634109,
        "tags": {
          "bus": "yes",
          "name": "Malleshwaram Railway Station",
          "name:en": "Malleshwaram Railway Station",
          "name:kn": "\u0cae\u0cb2\u0ccd\u0cb2\u0cc7\u0cb6\u0ccd\u0cb5\u0cb0\u0c82 \u0cb0\u0cc8\u0cb2\u0cc1",
          "network": "BMTC",
          "operator": "BMTC",
          "public_transport": "stop_position"
        }
      },
      {
        "type": "node",
        "id": 7105069840,
        "lat": 13.0043554,
        "lon": 77.5612818,
        "tags": {
          "bus": "yes",
          "name": "Subramanyanagara",
          "name:en": "Subramanyanagara",
          "name:kn": "\u0cb8\u0cc1\u0cac\u0ccd\u0cb0\u0cae\u0ca3\u0ccd\u0caf\u0ca8\u0c97\u0cb0",
          "network": "BMTC",
          "operator": "BMTC",
          "public_transport": "stop_position"
        }
      },
      {
        "type": "node",
        "id": 7105069841,
        "lat": 13.0092677,
        "lon": 77.5596715,
        "tags": {
          "bus": "yes",
          "name": "Milk Colony Malleshwaram",
          "name:en": "Milk Colony Malleshwaram",
          "network": "BMTC",
          "operator": "BMTC",
          "public_transport": "stop_position"
        }
      },
      {
        "type": "node",
        "id": 7106084394,
        "lat": 12.9790377,
        "lon": 77.5406689,
        "tags": {
          "bus": "yes",
          "local_ref": "Magadi Road",
          "name": "Agrahara Dasarahalli",
          "name:en": "Agrahara Dasarahalli",
          "name:kn": "\u0ca6\u0cbe\u0cb8\u0cb0\u0cb9\u0cb3\u0ccd\u0cb3\u0cbf",
          "network": "BMTC",
          "operator": "BMTC",
          "public_transport": "stop_position",
          "wheelchair": "no"
        }
      },
      {
        "type": "node",
        "id": 7108562614,
        "lat": 12.9964363,
        "lon": 77.5642129,
        "tags": {
          "bus": "yes",
          "name": "Devaiah Park",
          "name:en": "Devaiah Park",
          "name:kn": "\u0ca6\u0cc7\u0cb5\u0caf\u0ccd\u0caf \u0c89\u0ca6\u0ccd\u0caf\u0cbe\u0ca8\u0cb5\u0ca8",
          "network": "BMTC",
          "operator": "BMTC",
          "public_transport": "stop_position"
        }
      },
      {
        "type": "node",
        "id": 7108562615,
        "lat": 12.9973063,
        "lon": 77.5605233,
        "tags": {
          "bus": "yes",
          "name": "Harishchandra Ghat",
          "name:en": "Harishchandra Ghat",
          "name:kn": "\u0cb9\u0cb0\u0cbf\u0cb6\u0ccd\u0c9a\u0c82\u0ca6\u0ccd\u0cb0 \u0c98\u0c9f\u0ccd",
          "network": "BMTC",
          "operator": "BMTC",
          "public_transport": "stop_position",
          "wheelchair": "limited"
        }
      },
      {
        "type": "node",
        "id": 7108562616,
        "lat": 12.999189,
        "lon": 77.5415833,
        "tags": {
          "bus": "yes",
          "name": "Shankar Mutt",
          "name:en": "Shankar Mutt",
          "name:kn": "\u0cb6\u0c82\u0c95\u0cb0 \u0cae\u0ca0",
          "network": "BMTC",
          "operator": "BMTC",
          "public_transport": "stop_position"
        }
      },
      {
        "type": "node",
        "id": 7108562618,
        "lat": 13.0011788,
        "lon": 77.5363056,
        "tags": {
          "bus": "yes",
          "name": "Kurubarahalli",
          "name:en": "Kurubarahalli",
          "name:kn": "\u0c95\u0cc1\u0cb0\u0cc1\u0cac\u0cb0\u0cb9\u0cb3\u0ccd\u0cb3\u0cbf",
          "network": "BMTC",
          "operator": "BMTC",
          "public_transport": "stop_position"
        }
      },
      {
        "type": "node",
        "id": 7108562620,
        "lat": 12.9997721,
        "lon": 77.5305288,
        "tags": {
          "alt_name": "Kaverinagara",
          "bus": "yes",
          "name": "Kaveri Nagara",
          "name:en": "Cauvery Nagara",
          "name:kn": "\u0c95\u0cbe\u0cb5\u0cc7\u0cb0\u0cbf\u0ca8\u0c97\u0cb0",
          "network": "BMTC",
          "operator": "BMTC",
          "public_transport": "stop_position"
        }
      },
      {
        "type": "node",
        "id": 7124635774,
        "lat": 12.9717625,
        "lon": 77.5377676,
        "tags": {
          "bus": "yes",
          "highway": "bus_stop",
          "name": "Vijaynagara",
          "name:en": "Vijaynagara",
          "name:kn": "\u0cb5\u0cbf\u0c9c\u0caf\u0ca8\u0c97\u0cb0",
          "network": "BMTC",
          "operator": "BMTC",
          "public_transport": "stop_position"
        }
      },
      {
        "type": "node",
        "id": 7124635775,
        "lat": 12.9735535,
        "lon": 77.5413021,
        "tags": {
          "bus": "yes",
          "name": "Vijayanagara Vijaya Bank",
          "name:en": "Vijaya Bank",
          "name:kn": "\u0cb5\u0cbf\u0c9c\u0caf\u0ca8\u0c97\u0cb0 \u0cb5\u0cbf\u0c9c\u0caf \u0cac\u0ccd\u0caf\u0cbe\u0c82\u0c95\u0ccd",
          "network": "BMTC",
          "operator": "BMTC",
          "public_transport": "stop_position"
        }
      },
      {
        "type": "node",
        "id": 7124635777,
        "lat": 12.9741235,
        "lon": 77.5463442,
        "tags": {
          "bus": "yes",
          "name": "Manu Vana",
          "name:en": "Manu Vana",
          "name:kn": "\u0cae\u0ca8\u0cc1\u0cb5\u0ca8",
          "network": "BMTC",
          "operator": "BMTC",
          "public_transport": "stop_position"
        }
      },
      {
        "type": "node",
        "id": 7124635778,
        "lat": 12.9785581,
        "lon": 77.5490005,
        "tags": {
          "bus": "yes",
          "name": "Aralimara Industrial Area Rajajinagara",
          "name:en": "Aralimara Industrial Area Rajajinagara",
          "name:kn": "\u0cb0\u0cbe\u0c9c\u0cbe\u0c9c\u0cbf\u0ca8\u0c97\u0cb0 \u0c95\u0cc8\u0c97\u0cbe\u0cb0\u0cbf\u0c95\u0cbe \u0caa\u0ccd\u0cb0\u0ca6\u0cc7\u0cb6",
          "network": "BMTC",
          "operator": "BMTC",
          "public_transport": "stop_position"
        }
      },
      {
        "type": "node",
        "id": 7124635779,
        "lat": 12.9819561,
        "lon": 77.5491684,
        "tags": {
          "bus": "yes",
          "name": "Industrial Area Rajajiangara",
          "name:en": "Industrial Area Rajajiangara",
          "network": "BMTC",
          "operator": "BMTC",
          "public_transport": "stop_position"
        }
      },
      {
        "type": "node",
        "id": 7139631430,
        "lat": 12.9721737,
        "lon": 77.5377206,
        "tags": {
          "bus": "yes",
          "highway": "bus_stop",
          "name": "Vijayanagara",
          "name:en": "Vijayanagara",
          "name:kn": "\u0cb5\u0cbf\u0c9c\u0caf\u0ca8\u0c97\u0cb0",
          "network": "BMTC",
          "operator": "BMTC",
          "public_transport": "stop_position"
        }
      },
      {
        "type": "node",
        "id": 7139631432,
        "lat": 12.9993674,
        "lon": 77.5499448,
        "tags": {
          "bus": "yes",
          "name": "Navarang Theatre",
          "name:en": "Navarang Theatre",
          "name:kn": "\u0ca8\u0cb5\u0cb0\u0c82\u0c97 \u0c9a\u0cbf\u0ca4\u0ccd\u0cb0\u0cae\u0c82\u0ca6\u0cbf\u0cb0",
          "network": "BMTC",
          "operator": "BMTC",
          "public_transport": "stop_position"
        }
      },
      {
        "type": "node",
        "id": 7139631438,
        "lat": 12.9844639,
        "lon": 77.5483676,
        "tags": {
          "bus": "yes",
          "name": "Rajajinagara Industrial Town",
          "name:en": "Rajajinagara Industrial Town",
          "network": "BMTC",
          "operator": "BMTC",
          "public_transport": "stop_position"
        }
      },
      {
        "type": "node",
        "id": 7146770606,
        "lat": 12.9847197,
        "lon": 77.5567862,
        "tags": {
          "bus": "yes",
          "name": "Rajajinagar Entrance",
          "name:en": "Rajajinagar Entrance",
          "network": "BMTC",
          "operator": "BMTC",
          "public_transport": "stop_position"
        }
      },
      {
        "type": "node",
        "id": 7156536799,
        "lat": 12.978421,
        "lon": 77.548925,
        "tags": {
          "alt_name": "Tolgate",
          "bus": "yes",
          "name": "Aralimara Industrial Area Rajajinagara",
          "name:en": "Aralimara Industrial Area Rajajinagara",
          "name:kn": "\u0cb0\u0cbe\u0c9c\u0cbe\u0c9c\u0cbf\u0ca8\u0c97\u0cb0 \u0c95\u0cc8\u0c97\u0cbe\u0cb0\u0cbf\u0c95\u0cbe \u0caa\u0ccd\u0cb0\u0ca6\u0cc7\u0cb6",
          "network": "BMTC",
          "operator": "BMTC",
          "public_transport": "stop_position"
        }
      },
      {
        "type": "node",
        "id": 7156865437,
        "lat": 12.9914325,
        "lon": 77.5639827,
        "tags": {
          "bus": "yes",
          "name": "Bandi Reddy Circle",
          "name:en": "Bandi Reddy Circle",
          "name:kn": "\u0cac\u0c82\u0ca1\u0cbf\u0cb0\u0cc6\u0ca1\u0ccd\u0ca1\u0cbf \u0cb5\u0cc3\u0ca4\u0ccd\u0ca4",
          "network": "BMTC",
          "operator": "BMTC",
          "public_transport": "stop_position"
        }
      },
      {
        "type": "node",
        "id": 7156865438,
        "lat": 12.9947434,
        "lon": 77.5663773,
        "tags": {
          "bus": "yes",
          "name": "Chowdeshwari Temple",
          "name:en": "Chowdeshwari Temple",
          "name:kn": "\u0c9a\u0ccc\u0ca1\u0cc7\u0cb6\u0ccd\u0cb5\u0cb0\u0cbf \u0ca6\u0cc7\u0cb5\u0cb8\u0ccd\u0ca5\u0cbe\u0ca8",
          "network": "BMTC",
          "operator": "BMTC",
          "public_transport": "stop_position"
        }
      },
      {
        "type": "node",
        "id": 7156865440,
        "lat": 12.9935055,
        "lon": 77.5682527,
        "tags": {
          "bus": "yes",
          "name": "Ramamandira",
          "name:en": "Ramamandira",
          "name:kn": "\u0cb0\u0cbe\u0cae\u0cae\u0c82\u0ca6\u0cbf\u0cb0",
          "network": "BMTC",
          "operator": "BMTC",
          "public_transport": "stop_position"
        }
      },
      {
        "type": "node",
        "id": 7156865441,
        "lat": 12.9932748,
        "lon": 77.569703,
        "tags": {
          "bus": "yes",
          "name": "MD Block",
          "name:en": "MD Block",
          "network": "BMTC",
          "operator": "BMTC",
          "public_transport": "stop_position"
        }
      },
      {
        "type": "node",
        "id": 7164445935,
        "lat": 12.9690863,
        "lon": 77.5546506,
        "tags": {
          "bus": "yes",
          "name": "Kempapura Agrahara",
          "name:en": "Kempapura Agrahara",
          "name:kn": "\u0c95\u0cc6\u0c82\u0caa\u0cbe\u0caa\u0cc1\u0cb0 \u0c85\u0c97\u0ccd\u0cb0\u0cb9\u0cbe\u0cb0",
          "network": "BMTC",
          "operator": "BMTC",
          "public_transport": "stop_position"
        }
      },
      {
        "type": "node",
        "id": 7164445936,
        "lat": 12.9687913,
        "lon": 77.5593047,
        "tags": {
          "bus": "yes",
          "name": "Railway Gate Kempapura",
          "name:en": "Railway Gate Kempapura",
          "network": "BMTC",
          "operator": "BMTC",
          "public_transport": "stop_position"
        }
      },
      {
        "type": "node",
        "id": 7201051896,
        "lat": 13.0041628,
        "lon": 77.5491513,
        "tags": {
          "bus": "yes",
          "name": "Rajaji Nagar 1st Block",
          "name:en": "Rajaji Nagar 1st Block",
          "name:kn": "\u0cb0\u0cbe\u0c9c\u0cbe\u0c9c\u0cbf\u0ca8\u0c97\u0cb0 \u0cae\u0cca\u0ca6\u0cb2\u0ca8\u0cc6\u0caf \u0cb9\u0c82\u0ca4",
          "network": "BMTC",
          "operator": "BMTC",
          "public_transport": "stop_position"
        }
      },
      {
        "type": "node",
        "id": 7215440252,
        "lat": 12.9980922,
        "lon": 77.5510209,
        "tags": {
          "bus": "yes",
          "name": "Navarang Theatre",
          "name:kn": "\u0ca8\u0cb5\u0cb0\u0c82\u0c97 \u0c9a\u0cbf\u0ca4\u0ccd\u0cb0\u0cae\u0c82\u0ca6\u0cbf\u0cb0",
          "network": "BMTC",
          "operator": "BMTC",
          "public_transport": "stop_position"
        }
      },
      {
        "type": "node",
        "id": 7236205634,
        "lat": 12.9826229,
        "lon": 77.5624563,
        "tags": {
          "bus": "yes",
          "name": "Sujatha Talkies",
          "name:en": "Sujatha Talkies",
          "name:kn": "\u0cb8\u0cc1\u0c9c\u0cbe\u0ca4 \u0c9a\u0cbf\u0ca4\u0ccd\u0cb0\u0cae\u0c82\u0ca6\u0cbf\u0cb0",
          "network": "BMTC",
          "operator": "BMTC",
          "public_transport": "stop_position"
        }
      },
      {
        "type": "node",
        "id": 7276500272,
        "lat": 12.9862919,
        "lon": 77.5724177,
        "tags": {
          "amenity": "fuel",
          "name": "Aegis Auto Gas"
        }
      },
      {
        "type": "node",
        "id": 7292218766,
        "lat": 12.9824553,
        "lon": 77.5678893,
        "tags": {
          "bus": "yes",
          "name": "Okalipura",
          "name:en": "Okalipura",
          "name:kn": "\u0c93\u0c95\u0cb3\u0cbf\u0caa\u0cc1\u0cb0",
          "network": "BMTC",
          "operator": "BMTC",
          "public_transport": "stop_position"
        }
      },
      {
        "type": "node",
        "id": 9141920977,
        "lat": 12.9969081,
        "lon": 77.5688175,
        "tags": {
          "bus": "yes",
          "name": "Malleshwaram Circle",
          "name:en": "Malleshwaram Circle",
          "name:kn": "\u0cae\u0cb2\u0ccd\u0cb2\u0cc7\u0cb6\u0ccd\u0cb5\u0cb0\u0c82 \u0cb5\u0cc3\u0ca4\u0ccd\u0ca4",
          "network": "BMTC",
          "operator": "BMTC",
          "public_transport": "stop_position"
        }
      },
      {
        "type": "node",
        "id": 9161008265,
        "lat": 12.9822201,
        "lon": 77.537201,
        "tags": {
          "bus": "yes",
          "name": "Siddaiah Puranik Junction",
          "name:en": "Siddaiah Puranik Junction",
          "network": "BMTC",
          "operator": "BMTC",
          "public_transport": "stop_position"
        }
      },
      {
        "type": "node",
        "id": 9161008284,
        "lat": 12.9830778,
        "lon": 77.5372068,
        "tags": {
          "bus": "yes",
          "name": "Siddaiah Puranik Junction",
          "name:en": "Siddaiah Puranik Junction",
          "network": "BMTC",
          "operator": "BMTC",
          "public_transport": "stop_position"
        }
      },
      {
        "type": "node",
        "id": 9786116679,
        "lat": 12.9974283,
        "lon": 77.5694375,
        "tags": {
          "bus": "yes",
          "name": "Malleshwaram Circle",
          "name:en": "Malleshwaram Circle",
          "name:kn": "\u0cae\u0cb2\u0ccd\u0cb2\u0cc7\u0cb6\u0ccd\u0cb5\u0cb0\u0c82 \u0cb5\u0cc3\u0ca4\u0ccd\u0ca4",
          "network": "BMTC",
          "operator": "BMTC",
          "public_transport": "stop_position"
        }
      },
      {
        "type": "node",
        "id": 9811397064,
        "lat": 13.0070271,
        "lon": 77.5544057,
        "tags": {
          "alt_name": "Vivekananda College",
          "bus": "yes",
          "name": "St. Theresa Hospital",
          "name:en": "St. Theresa Hospital",
          "name:kn": "\u0cb8\u0cc8\u0c82\u0c9f\u0ccd \u0ca4\u0cc6\u0cb0\u0cc7\u0cb8 \u0c86\u0cb8\u0ccd\u0caa\u0ca4\u0ccd\u0cb0\u0cc6",
          "network": "BMTC",
          "operator": "BMTC",
          "public_transport": "stop_position"
        }
      },
      {
        "type": "node",
        "id": 9910012978,
        "lat": 12.9933017,
        "lon": 77.570107,
        "tags": {
          "bus": "yes",
          "name": "MD Block",
          "name:en": "MD Block",
          "network": "BMTC",
          "operator": "BMTC",
          "public_transport": "stop_position"
        }
      },
      {
        "type": "node",
        "id": 10054362308,
        "lat": 12.9785414,
        "lon": 77.5490929,
        "tags": {
          "alt_name": "Tolgate",
          "bus": "yes",
          "name": "Aralimara Industrial Area Rajajinagara",
          "name:en": "Aralimara Industrial Area Rajajinagara",
          "name:kn": "\u0cb0\u0cbe\u0c9c\u0cbe\u0c9c\u0cbf\u0ca8\u0c97\u0cb0 \u0c95\u0cc8\u0c97\u0cbe\u0cb0\u0cbf\u0c95\u0cbe \u0caa\u0ccd\u0cb0\u0ca6\u0cc7\u0cb6",
          "network": "BMTC",
          "operator": "BMTC",
          "public_transport": "stop_position"
        }
      },
      {
        "type": "node",
        "id": 10570929389,
        "lat": 12.9816867,
        "lon": 77.5632835,
        "tags": {
          "amenity": "cinema",
          "brand": "Cin\u00e9polis",
          "brand:wikidata": "Q5686673",
          "name": "Cinepolis",
          "screen": "11"
        }
      },
      {
        "type": "node",
        "id": 10676078882,
        "lat": 12.9953016,
        "lon": 77.5380483,
        "tags": {
          "bus": "yes",
          "name": "Kamalanagar Water Tank",
          "name:en": "Kamalanagar Water Tank",
          "network": "BMTC",
          "operator": "BMTC",
          "public_transport": "stop_position"
        }
      },
      {
        "type": "node",
        "id": 10795162738,
        "lat": 13.0085539,
        "lon": 77.5439406,
        "tags": {
          "bus": "yes",
          "name": "Srinivasa Temple",
          "name:en": "Srinivasa Temple",
          "name:kn": "\u0cb6\u0ccd\u0cb0\u0cc0\u0ca8\u0cbf\u0cb5\u0cbe\u0cb8 \u0ca6\u0cc7\u0cb5\u0cb8\u0ccd\u0ca5\u0cbe\u0ca8",
          "network": "BMTC",
          "operator": "BMTC",
          "public_transport": "stop_position"
        }
      },
      {
        "type": "node",
        "id": 10833947202,
        "lat": 12.9896124,
        "lon": 77.5718868,
        "tags": {
          "bus": "yes",
          "name": "Central",
          "name:en": "Central",
          "network": "BMTC",
          "operator": "BMTC",
          "public_transport": "stop_position"
        }
      },
      {
        "type": "node",
        "id": 10833947203,
        "lat": 12.9898645,
        "lon": 77.5718467,
        "tags": {
          "bus": "yes",
          "name": "Central",
          "name:en": "Central",
          "network": "BMTC",
          "operator": "BMTC",
          "public_transport": "stop_position"
        }
      },
      {
        "type": "node",
        "id": 11182467849,
        "lat": 12.9811972,
        "lon": 77.5357921,
        "tags": {
          "bus": "yes",
          "name": "KHB Colony",
          "name:en": "KHB Colony",
          "name:kn": "\u0c95\u0cc6 \u0c8e\u0c9a\u0ccd \u0cac\u0cbf \u0c95\u0cbe\u0cb2\u0ccb\u0ca8\u0cbf",
          "network": "BMTC",
          "operator": "BMTC",
          "public_transport": "stop_position"
        }
      },
      {
        "type": "node",
        "id": 11281292785,
        "lat": 13.0047583,
        "lon": 77.5599301,
        "tags": {
          "bus": "yes",
          "name": "Subramanya Nagar",
          "name:en": "Subramanya Nagar",
          "name:kn": "\u0cb8\u0cc1\u0cac\u0ccd\u0cb0\u0cae\u0ca3\u0ccd\u0caf\u0ca8\u0c97\u0cb0",
          "network": "BMTC",
          "operator": "BMTC",
          "public_transport": "stop_position"
        }
      },
      {
        "type": "node",
        "id": 11341218806,
        "lat": 12.9745975,
        "lon": 77.5660497,
        "tags": {
          "bus": "yes",
          "name": "Angalaparameshwari Temple",
          "name:en": "Angalaparameshwari Temple",
          "name:kn": "\u0c85\u0c82\u0c97\u0cbe\u0cb2\u0caa\u0cb0\u0cae\u0cc7\u0cb6\u0ccd\u0cb5\u0cb0\u0cbf",
          "network": "BMTC",
          "operator": "BMTC",
          "public_transport": "stop_position"
        }
      },
      {
        "type": "node",
        "id": 11341218849,
        "lat": 12.9752846,
        "lon": 77.5651817,
        "tags": {
          "bus": "yes",
          "name": "Hunasemara",
          "name:en": "Hunasemara",
          "name:kn": "\u0cb9\u0cc1\u0ca3\u0cb8\u0cc6\u0cae\u0cb0",
          "network": "BMTC",
          "operator": "BMTC",
          "public_transport": "stop_position"
        }
      },
      {
        "type": "node",
        "id": 11775336514,
        "lat": 13.0005913,
        "lon": 77.5634317,
        "tags": {
          "bus": "yes",
          "name": "Malleshwaram Railway Station",
          "name:en": "Malleshwaram Railway Station",
          "name:kn": "\u0cae\u0cb2\u0ccd\u0cb2\u0cc7\u0cb6\u0ccd\u0cb5\u0cb0\u0c82 \u0cb0\u0cc8\u0cb2\u0cc1",
          "network": "BMTC",
          "operator": "BMTC",
          "public_transport": "stop_position"
        }
      },
      {
        "type": "node",
        "id": 11775336515,
        "lat": 13.0043631,
        "lon": 77.5613035,
        "tags": {
          "bus": "yes",
          "name": "Subramanyanagara",
          "name:en": "Subramanyanagara",
          "name:kn": "\u0cb8\u0cc1\u0cac\u0ccd\u0cb0\u0cae\u0ca3\u0ccd\u0caf\u0ca8\u0c97\u0cb0",
          "network": "BMTC",
          "operator": "BMTC",
          "public_transport": "stop_position"
        }
      },
      {
        "type": "node",
        "id": 11775336522,
        "lat": 13.0092738,
        "lon": 77.5596937,
        "tags": {
          "bus": "yes",
          "name": "Milk Colony Malleshwaram",
          "name:en": "Milk Colony Malleshwaram",
          "network": "BMTC",
          "operator": "BMTC",
          "public_transport": "stop_position"
        }
      },
      {
        "type": "node",
        "id": 11873228870,
        "lat": 12.9957867,
        "lon": 77.5399377,
        "tags": {
          "bus": "yes",
          "name": "Kamalanagar Water Tank",
          "name:en": "Kamalanagar Water Tank",
          "network": "BMTC",
          "operator": "BMTC",
          "public_transport": "stop_position"
        }
      },
      {
        "type": "node",
        "id": 11873228871,
        "lat": 12.9882898,
        "lon": 77.5375427,
        "tags": {
          "bus": "yes",
          "name": "Havanuru Circle",
          "name:en": "Havanuru Circle",
          "name:kn": "\u0cb9\u0cbe\u0cb5\u0ca8\u0cc2\u0cb0\u0cc1 \u0cb5\u0cc3\u0ca4\u0ccd\u0ca4",
          "network": "BMTC",
          "operator": "BMTC",
          "public_transport": "stop_position"
        }
      },
      {
        "type": "node",
        "id": 11873228872,
        "lat": 12.9859116,
        "lon": 77.541889,
        "tags": {
          "bus": "yes",
          "name": "Dasarahalli Kere",
          "name:en": "Dasarahalli Kere",
          "name:kn": "\u0c9a\u0cbf\u0c95\u0ccd\u0c95\u0cac\u0cc6\u0c9f\u0ccd\u0c9f\u0cb9\u0cb3\u0ccd\u0cb3\u0cbf \u0c95\u0cc6\u0cb0\u0cc6",
          "network": "BMTC",
          "operator": "BMTC",
          "public_transport": "stop_position"
        }
      },
      {
        "type": "node",
        "id": 11873228874,
        "lat": 12.984474,
        "lon": 77.5539288,
        "tags": {
          "bus": "yes",
          "name": "Bashyam Circle Rajajinagara",
          "name:en": "Bashyam Circle Rajajinagara",
          "network": "BMTC",
          "operator": "BMTC",
          "public_transport": "stop_position"
        }
      },
      {
        "type": "node",
        "id": 11873231714,
        "lat": 12.9884923,
        "lon": 77.5336884,
        "tags": {
          "bus": "yes",
          "name": "Basaveshwaranagara New Bus Stand",
          "name:en": "Basaveshwaranagara New Bus Stand",
          "network": "BMTC",
          "operator": "BMTC",
          "public_transport": "stop_position"
        }
      },
      {
        "type": "node",
        "id": 11873231718,
        "lat": 12.988006,
        "lon": 77.537077,
        "tags": {
          "bus": "yes",
          "name": "Havanuru Circle",
          "name:en": "Havanuru Circle",
          "name:kn": "\u0cb9\u0cbe\u0cb5\u0ca8\u0cc2\u0cb0\u0cc1 \u0cb5\u0cc3\u0ca4\u0ccd\u0ca4",
          "network": "BMTC",
          "operator": "BMTC",
          "public_transport": "stop_position"
        }
      },
      {
        "type": "node",
        "id": 11873248318,
        "lat": 13.0002344,
        "lon": 77.5506031,
        "tags": {
          "bus": "yes",
          "name": "Canara Bank Rajajinagara 1st Block",
          "name:en": "Canara Bank Rajajinagara 1st Block",
          "network": "BMTC",
          "operator": "BMTC",
          "public_transport": "stop_position"
        }
      },
      {
        "type": "node",
        "id": 11898958081,
        "lat": 12.9969658,
        "lon": 77.5715223,
        "tags": {
          "bus": "yes",
          "name": "Malleswaram Circle",
          "name:en": "Malleswaram Circle",
          "network": "BMTC",
          "note": "Stop used only for Metro Feeder bus route MF-8A",
          "operator": "BMTC",
          "public_transport": "stop_position"
        }
      },
      {
        "type": "node",
        "id": 11993402960,
        "lat": 12.9998962,
        "lon": 77.5693762,
        "tags": {
          "bus": "yes",
          "name": "Malleshwaram 8th Cross",
          "name:en": "Malleshwaram 8th Cross",
          "network": "BMTC",
          "operator": "BMTC",
          "public_transport": "stop_position"
        }
      },
      {
        "type": "node",
        "id": 11993402965,
        "lat": 12.9737926,
        "lon": 77.5498242,
        "tags": {
          "bus": "yes",
          "name": "Magadi Road Tollgate",
          "name:en": "Magadi Road Tollgate",
          "network": "BMTC",
          "operator": "BMTC",
          "public_transport": "stop_position"
        }
      },
      {
        "type": "node",
        "id": 12009455446,
        "lat": 12.9897084,
        "lon": 77.5727323,
        "tags": {
          "bus": "yes",
          "name": "Central",
          "name:en": "Central",
          "network": "BMTC",
          "operator": "BMTC",
          "public_transport": "stop_position"
        }
      },
      {
        "type": "node",
        "id": 12100028686,
        "lat": 13.0000143,
        "lon": 77.5499059,
        "tags": {
          "amenity": "charging_station",
          "charging_station:battery_swapping": "yes",
          "fee": "yes",
          "level": "0",
          "motorcar": "no",
          "motorcycle": "yes",
          "name": "Honda e:swap",
          "operator": "Honda e:swap"
        }
      },
      {
        "type": "node",
        "id": 12386430525,
        "lat": 12.9789851,
        "lon": 77.5405964,
        "tags": {
          "bus": "yes",
          "name": "Agrahara Dasarahalli",
          "name:en": "Agrahara Dasarahalli",
          "network": "BMTC",
          "operator": "BMTC",
          "public_transport": "stop_position"
        }
      },
      {
        "type": "node",
        "id": 12425345228,
        "lat": 12.9977329,
        "lon": 77.5714364,
        "tags": {
          "bus": "yes",
          "name": "Malleswaram Circle",
          "name:kn": "\u0cae\u0cb2\u0ccd\u0cb2\u0cc7\u0cb6\u0ccd\u0cb5\u0cb0\u0c82 \u0cb5\u0cc3\u0ca4\u0ccd\u0ca4",
          "operator": "BMTC",
          "public_transport": "stop_position"
        }
      },
      {
        "type": "node",
        "id": 12441118648,
        "lat": 12.9990606,
        "lon": 77.5416311,
        "tags": {
          "bus": "yes",
          "name": "Shankar Mutt",
          "name:en": "Shankar Mutt",
          "network": "BMTC",
          "operator": "BMTC",
          "public_transport": "stop_position"
        }
      },
      {
        "type": "node",
        "id": 12441126024,
        "lat": 12.9958074,
        "lon": 77.5398767,
        "tags": {
          "bus": "yes",
          "name": "Kamalanagar Water Tank",
          "name:en": "Kamalanagar Water Tank",
          "network": "BMTC",
          "operator": "BMTC",
          "public_transport": "stop_position"
        }
      },
      {
        "type": "node",
        "id": 12441126036,
        "lat": 12.9883094,
        "lon": 77.5374906,
        "tags": {
          "bus": "yes",
          "name": "Havanuru Circle",
          "name:en": "Havanuru Circle",
          "name:kn": "\u0cb9\u0cbe\u0cb5\u0ca8\u0cc2\u0cb0\u0cc1 \u0cb5\u0cc3\u0ca4\u0ccd\u0ca4",
          "network": "BMTC",
          "operator": "BMTC",
          "public_transport": "stop_position"
        }
      },
      {
        "type": "node",
        "id": 12512417638,
        "lat": 12.9905573,
        "lon": 77.571683,
        "tags": {
          "bus": "yes",
          "name": "Mantri Square Metro Station",
          "name:en": "Mantri Square Metro Station",
          "network": "BMTC",
          "note": "Stop used only for Metro Feeder bus route MF-8A",
          "operator": "BMTC",
          "public_transport": "stop_position"
        }
      },
      {
        "type": "node",
        "id": 12512535280,
        "lat": 12.9972417,
        "lon": 77.560491,
        "tags": {
          "bus": "yes",
          "name": "Harishchandra Ghat",
          "name:en": "Harishchandra Ghat",
          "name:kn": "\u0cb9\u0cb0\u0cbf\u0cb6\u0ccd\u0c9a\u0c82\u0ca6\u0ccd\u0cb0 \u0c98\u0c9f\u0ccd",
          "network": "BMTC",
          "operator": "BMTC",
          "public_transport": "stop_position",
          "wheelchair": "limited"
        }
      },
      {
        "type": "node",
        "id": 12512566601,
        "lat": 12.9972821,
        "lon": 77.5605112,
        "tags": {
          "bus": "yes",
          "name": "Harishchandra Ghat",
          "name:en": "Harishchandra Ghat",
          "name:kn": "\u0cb9\u0cb0\u0cbf\u0cb6\u0ccd\u0c9a\u0c82\u0ca6\u0ccd\u0cb0 \u0c98\u0c9f\u0ccd",
          "network": "BMTC",
          "operator": "BMTC",
          "public_transport": "stop_position",
          "wheelchair": "limited"
        }
      },
      {
        "type": "node",
        "id": 12989273947,
        "lat": 12.9741112,
        "lon": 77.5513532,
        "tags": {
          "bus": "yes",
          "name": "Prasanna Talkies",
          "name:en": "Prasanna Talkies",
          "network": "BMTC",
          "operator": "BMTC",
          "public_transport": "stop_position"
        }
      },
      {
        "type": "node",
        "id": 12989273948,
        "lat": 12.9796725,
        "lon": 77.5537605,
        "tags": {
          "bus": "yes",
          "name": "6th Block Rajajinagara",
          "name:en": "6th Block Rajajinagara",
          "network": "BMTC",
          "operator": "BMTC",
          "public_transport": "stop_position"
        }
      },
      {
        "type": "node",
        "id": 12989273950,
        "lat": 12.9806538,
        "lon": 77.5580989,
        "tags": {
          "bus": "yes",
          "name": "Gopalapura",
          "name:en": "Gopalapura",
          "network": "BMTC",
          "operator": "BMTC",
          "public_transport": "stop_position"
        }
      }
    ]
  }
}