{
  "pois_1km": {
    "version": 0.6,
    "generator": "Overpass API 0.7.62.8 e802775f",
    "osm3s": {
      "timestamp_osm_base": "2025-09-06T08:07:15Z",
      "copyright": "The data included in this document is from www.openstreetmap.org. The data is made available under ODbL."
    },
    "elements": [
      {
        "type": "node",
        "id": 469614286,
        "lat": 12.9870759,
        "lon": 77.5947417,
        "tags": {
          "addr:city": "Bengaluru",
          "addr:country": "IN",
          "addr:housename": "Shah Sultan Complex",
          "addr:housenumber": "17/1",
          "addr:street": "Cunningham Road",
          "alt_name": "Dialogues, Infinitea Cunningham Road",
          "amenity": "cafe",
          "name": "Infinitea",
          "operator": "Infinitea"
        }
      },
      {
        "type": "node",
        "id": 660666062,
        "lat": 12.9836146,
        "lon": 77.5948986,
        "tags": {
          "amenity": "atm",
          "brand": "Syndicate Bank",
          "brand:wikidata": "Q2004088",
          "name": "Syndicate Bank",
          "operator": "Syndicate Bank",
          "operator:wikidata": "Q2004088"
        }
      },
      {
        "type": "node",
        "id": 660666066,
        "lat": 12.991491,
        "lon": 77.5941489,
        "tags": {
          "addr:street": "Millers Road",
          "amenity": "restaurant",
          "cuisine": "american",
          "name": "Miller's 46",
          "name:kn": "\u0cae\u0cbf\u0cb2\u0ccd\u0cb2\u0cb0\u0ccd\u0cb8\u0ccd \u0cea\u0cec"
        }
      },
      {
        "type": "node",
        "id": 661983025,
        "lat": 12.985511,
        "lon": 77.5889985,
        "tags": {
          "amenity": "atm",
          "brand": "Canara Bank",
          "brand:en": "Canara Bank",
          "brand:hi": "\u0915\u0947\u0928\u0930\u093e \u092c\u0948\u0902\u0915",
          "brand:kn": "\u0c95\u0cc6\u0ca8\u0cb0\u0cbe \u0cac\u0ccd\u0caf\u0cbe\u0c82\u0c95\u0ccd",
          "brand:pa": "\u0a15\u0a47\u0a28\u0a30\u0a3e \u0a2c\u0a48\u0a02\u0a15",
          "brand:pnb": "\u06a9\u06cc\u0646\u0631\u0627 \u0628\u06cc\u0646\u06a9",
          "brand:ur": "\u06a9\u06cc\u0646\u0631\u0627 \u0628\u06cc\u0646\u06a9",
          "brand:wikidata": "Q2003777",
          "name": "Canara Bank",
          "name:en": "Canara Bank",
          "name:hi": "\u0915\u0947\u0928\u0930\u093e \u092c\u0948\u0902\u0915",
          "name:kn": "\u0c95\u0cc6\u0ca8\u0cb0\u0cbe \u0cac\u0ccd\u0caf\u0cbe\u0c82\u0c95\u0ccd",
          "name:pa": "\u0a15\u0a47\u0a28\u0a30\u0a3e \u0a2c\u0a48\u0a02\u0a15",
          "name:pnb": "\u06a9\u06cc\u0646\u0631\u0627 \u0628\u06cc\u0646\u06a9",
          "name:ur": "\u06a9\u06cc\u0646\u0631\u0627 \u0628\u06cc\u0646\u06a9",
          "operator": "Canara Bank",
          "operator:wikidata": "Q2003777"
        }
      },
      {
        "type": "node",
        "id": 661983031,
        "lat": 12.9819402,
        "lon": 77.5955017,
        "tags": {
          "addr:city": "Bangalore",
          "addr:postcode": "560001",
          "addr:street": "Raj Bhavan Road",
          "amenity": "bank",
          "atm": "yes",
          "brand": "State Bank of India",
          "brand:wikidata": "Q1340361",
          "brand:wikipedia": "en:State Bank of India",
          "name": "State Bank of India",
          "name:kn": "\u0cad\u0cbe\u0cb0\u0ca4\u0cc0\u0caf \u0cb8\u0ccd\u0c9f\u0cc7\u0c9f\u0ccd \u0cac\u0ccd\u0caf\u0cbe\u0c82\u0c95\u0ccd",
          "short_name": "SBI",
          "website": "https://www.sbi.co.in"
        }
      },
      {
        "type": "node",
        "id": 661983042,
        "lat": 12.9762175,
        "lon": 77.5993135,
        "tags": {
          "amenity": "bank",
          "atm": "yes",
          "brand": "Kotak Mahindra Bank",
          "brand:wikidata": "Q2040404",
          "brand:wikipedia": "en:Kotak Mahindra Bank",
          "name": "Kotak Mahindra Bank",
          "name:en": "Kotak Mahindra Bank",
          "name:kn": "\u0c95\u0ccb\u0c9f\u0c95\u0ccd \u0cae\u0cb9\u0cbf\u0c82\u0ca6\u0ccd\u0cb0 \u0cac\u0ccd\u0caf\u0cbe\u0c82\u0c95\u0ccd",
          "website": "http://www.kotak.com"
        }
      },
      {
        "type": "node",
        "id": 661983048,
        "lat": 12.9885568,
        "lon": 77.5923112,
        "tags": {
          "amenity": "bank",
          "brand": "Canara Bank",
          "brand:en": "Canara Bank",
          "brand:hi": "\u0915\u0947\u0928\u0930\u093e \u092c\u0948\u0902\u0915",
          "brand:kn": "\u0c95\u0cc6\u0ca8\u0cb0\u0cbe \u0cac\u0ccd\u0caf\u0cbe\u0c82\u0c95\u0ccd",
          "brand:pa": "\u0a15\u0a47\u0a28\u0a30\u0a3e \u0a2c\u0a48\u0a02\u0a15",
          "brand:pnb": "\u06a9\u06cc\u0646\u0631\u0627 \u0628\u06cc\u0646\u06a9",
          "brand:ur": "\u06a9\u06cc\u0646\u0631\u0627 \u0628\u06cc\u0646\u06a9",
          "brand:wikidata": "Q2003777",
          "name": "Canara Bank",
          "name:en": "Canara Bank",
          "name:hi": "\u0915\u0947\u0928\u0930\u093e \u092c\u0948\u0902\u0915",
          "name:kn": "\u0c95\u0cc6\u0ca8\u0cb0\u0cbe \u0cac\u0ccd\u0caf\u0cbe\u0c82\u0c95\u0ccd",
          "name:pa": "\u0a15\u0a47\u0a28\u0a30\u0a3e \u0a2c\u0a48\u0a02\u0a15",
          "name:pnb": "\u06a9\u06cc\u0646\u0631\u0627 \u0628\u06cc\u0646\u06a9",
          "name:ur": "\u06a9\u06cc\u0646\u0631\u0627 \u0628\u06cc\u0646\u06a9"
        }
      },
      {
        "type": "node",
        "id": 661983050,
        "lat": 12.9871688,
        "lon": 77.5946714,
        "tags": {
          "addr:city": "Bengaluru",
          "addr:country": "IN",
          "addr:housename": "Shah Sultan Complex",
          "addr:housenumber": "17/1",
          "addr:street": "Cunningham Road",
          "amenity": "restaurant",
          "name": "Shezan Restaurant",
          "name:kn": "\u0cb6\u0cc6\u0cb8\u0cbe\u0ca8\u0ccd \u0cb0\u0cc6\u0cb8\u0ccd\u0c9f\u0ccb\u0cb0\u0c82\u0c9f\u0ccd"
        }
      },
      {
        "type": "node",
        "id": 661983052,
        "lat": 12.988225,
        "lon": 77.5938291,
        "tags": {
          "addr:street": "Cunningham Road",
          "amenity": "fast_food",
          "brand": "Domino's",
          "brand:ks": "\u0688\u0648\u0645\u06cc\u0646\u0648\u0632",
          "brand:pa": "\u0a21\u0a4b\u0a2e\u0a40\u0a28\u0a4b\u0a1c\u0a3c",
          "brand:ur": "\u0688\u0648\u0645\u06cc\u0646\u0648\u0632",
          "brand:wikidata": "Q839466",
          "brand:wikipedia": "en:Domino's Pizza",
          "cuisine": "pizza",
          "name": "Domino's",
          "name:ks": "\u0688\u0648\u0645\u06cc\u0646\u0648\u0632",
          "name:pa": "\u0a21\u0a4b\u0a2e\u0a40\u0a28\u0a4b\u0a1c\u0a3c",
          "name:ur": "\u0688\u0648\u0645\u06cc\u0646\u0648\u0632",
          "takeaway": "yes"
        }
      },
      {
        "type": "node",
        "id": 661983059,
        "lat": 12.9888226,
        "lon": 77.592415,
        "tags": {
          "amenity": "bank",
          "atm": "yes",
          "brand": "HDFC Bank",
          "brand:wikidata": "Q631047",
          "brand:wikipedia": "en:HDFC Bank",
          "name": "HDFC Bank",
          "name:kn": "\u0c8e\u0c9a\u0ccd \u0ca1\u0cbf \u0c8e\u0cab\u0ccd \u0cb8\u0cbf",
          "short_name": "HDFC",
          "website": "https://www.hdfcbank.com"
        }
      },
      {
        "type": "node",
        "id": 661983062,
        "lat": 12.9887039,
        "lon": 77.5939333,
        "tags": {
          "addr:street": "Cunningham Road",
          "amenity": "restaurant",
          "cuisine": "indian",
          "name": "Ramana's",
          "name:kn": "\u0cb0\u0cae\u0ca3"
        }
      },
      {
        "type": "node",
        "id": 663313909,
        "lat": 12.9767317,
        "lon": 77.5891659,
        "tags": {
          "amenity": "fast_food"
        }
      },
      {
        "type": "node",
        "id": 663313910,
        "lat": 12.9758245,
        "lon": 77.5975433,
        "tags": {
          "addr:city": "Bangalore",
          "addr:street": "Kasturba Road",
          "air_conditioning": "yes",
          "amenity": "fast_food",
          "brand": "Subway",
          "brand:pa": "\u0a38\u0a2c\u0a35\u0a47\u0a05",
          "brand:ur": "\u0633\u0628 \u0648\u06d2",
          "brand:wikidata": "Q244457",
          "brand:wikipedia": "en:Subway (restaurant)",
          "cuisine": "sandwich",
          "diet:vegetarian": "yes",
          "indoor_seating": "yes",
          "name": "Subway",
          "name:pa": "\u0a38\u0a2c\u0a35\u0a47\u0a05",
          "name:ur": "\u0633\u0628 \u0648\u06d2",
          "outdoor_seating": "no",
          "smoking": "no",
          "takeaway": "yes"
        }
      },
      {
        "type": "node",
        "id": 663313912,
        "lat": 12.9757683,
        "lon": 77.5984496,
        "tags": {
          "addr:city": "Bangalore",
          "addr:floor": "G",
          "addr:street": "Kasturba Road",
          "amenity": "fast_food",
          "brand": "McDonald's",
          "brand:pa": "\u0a2e\u0a48\u0a15\u0a21\u0a4b\u0a28\u0a32\u0a21\u2019\u0a1c\u0a3c",
          "brand:ur": "\u0645\u06a9\u0688\u0648\u0646\u0644\u0688\u0632",
          "brand:wikidata": "Q38076",
          "brand:wikipedia": "en:McDonald's",
          "brand:wikipedia:pa": "\u0a2e\u0a48\u0a15\u0a21\u0a4b\u0a28\u0a32\u0a21\u2019\u0a1c\u0a3c",
          "brand:wikipedia:ur": "\u0645\u06a9\u0688\u0648\u0646\u0644\u0688\u0632",
          "check_date": "2025-04-15",
          "cuisine": "burger",
          "drive_through": "yes",
          "indoor_seating": "yes",
          "internet_access": "wlan",
          "internet_access:fee": "no",
          "level": "0",
          "name": "McDonald's",
          "name:kn": "\u0cae\u0ccd\u0caf\u0cbe\u0c95\u0ccd\u200c\u0ca1\u0cca\u0ca8\u0cbe\u0cb2\u0ccd\u0ca1\u0ccd\u0cb8\u0ccd",
          "name:pa": "\u0a2e\u0a48\u0a15\u0a21\u0a4b\u0a28\u0a32\u0a21\u2019\u0a1c\u0a3c",
          "name:ur": "\u0645\u06a9\u0688\u0648\u0646\u0644\u0688\u0632",
          "outdoor_seating": "no",
          "takeaway": "yes",
          "wheelchair": "no"
        }
      },
      {
        "type": "node",
        "id": 663573140,
        "lat": 12.9751175,
        "lon": 77.5976204,
        "tags": {
          "addr:street": "Kasturba Road",
          "amenity": "bank",
          "brand": "Dhanlaxmi Bank",
          "brand:wikidata": "Q2040440",
          "name": "Dhanlaxmi Bank"
        }
      },
      {
        "type": "node",
        "id": 663592955,
        "lat": 12.9756522,
        "lon": 77.597345,
        "tags": {
          "addr:city": "Bangalore",
          "addr:street": "Kasturba Road",
          "amenity": "bank",
          "brand": "Yes Bank",
          "brand:wikidata": "Q2040394",
          "brand:wikipedia": "en:Yes Bank",
          "name": "Yes Bank",
          "name:en": "YES Bank",
          "name:kn": "\u0caf\u0cb8\u0ccd \u0cac\u0ccd\u0caf\u0cbe\u0c82\u0c95\u0ccd",
          "website": "https://www.yesbank.in"
        }
      },
      {
        "type": "node",
        "id": 663941095,
        "lat": 12.9748503,
        "lon": 77.5956392,
        "tags": {
          "amenity": "fast_food",
          "name": "Museum Canteen"
        }
      },
      {
        "type": "node",
        "id": 663941136,
        "lat": 12.9770068,
        "lon": 77.5969363,
        "tags": {
          "leisure": "park",
          "name": "Bird and Rabbit park"
        }
      },
      {
        "type": "node",
        "id": 663941464,
        "lat": 12.9803653,
        "lon": 77.5950694,
        "tags": {
          "amenity": "restaurant",
          "diet:vegetarian": "only",
          "name": "Canteen",
          "name:kn": "\u0c95\u0ccd\u0caf\u0cbe\u0c82\u0c9f\u0cc0\u0ca8\u0ccd"
        }
      },
      {
        "type": "node",
        "id": 665045222,
        "lat": 12.9758502,
        "lon": 77.5891031,
        "tags": {
          "amenity": "restaurant",
          "name": "Parkview Hotel",
          "name:kn": "\u0caa\u0cbe\u0cb0\u0ccd\u0c95\u0ccd\u200c\u0cb5\u0cc0\u0cb5\u0ccd \u0cb9\u0ccb\u0c9f\u0cc6\u0cb2\u0ccd"
        }
      },
      {
        "type": "node",
        "id": 665871279,
        "lat": 12.9798386,
        "lon": 77.6027906,
        "tags": {
          "amenity": "restaurant",
          "cuisine": "indian",
          "name": "Hotel Empire",
          "name:kn": "\u0cb9\u0ccb\u0c9f\u0cc6\u0cb2\u0ccd \u0c8e\u0c82\u0caa\u0cc8\u0cb0\u0ccd"
        }
      },
      {
        "type": "node",
        "id": 665871282,
        "lat": 12.9847344,
        "lon": 77.5971261,
        "tags": {
          "addr:street": "Cunningham Road",
          "amenity": "restaurant",
          "cuisine": "regional",
          "diet:vegetarian": "yes",
          "name": "Sanman Veg"
        }
      },
      {
        "type": "node",
        "id": 665871289,
        "lat": 12.9857313,
        "lon": 77.595832,
        "tags": {
          "addr:street": "Cunningham Road",
          "amenity": "cafe",
          "brand": "Sweet Chariot",
          "delivery": "yes",
          "name": "Sweet Chariot",
          "shop": "pastry",
          "takeaway": "yes"
        }
      },
      {
        "type": "node",
        "id": 665871291,
        "lat": 12.98693,
        "lon": 77.5951971,
        "tags": {
          "addr:street": "Cunningham Road",
          "amenity": "bank",
          "atm": "yes",
          "brand": "Canara Bank",
          "brand:en": "Canara Bank",
          "brand:hi": "\u0915\u0947\u0928\u0930\u093e \u092c\u0948\u0902\u0915",
          "brand:kn": "\u0c95\u0cc6\u0ca8\u0cb0\u0cbe \u0cac\u0ccd\u0caf\u0cbe\u0c82\u0c95\u0ccd",
          "brand:pa": "\u0a15\u0a47\u0a28\u0a30\u0a3e \u0a2c\u0a48\u0a02\u0a15",
          "brand:pnb": "\u06a9\u06cc\u0646\u0631\u0627 \u0628\u06cc\u0646\u06a9",
          "brand:ur": "\u06a9\u06cc\u0646\u0631\u0627 \u0628\u06cc\u0646\u06a9",
          "brand:wikidata": "Q2003777",
          "brand:wikipedia": "en:Canara Bank",
          "brand:wikipedia:pa": "\u0a15\u0a47\u0a28\u0a30\u0a3e \u0a2c\u0a48\u0a02\u0a15",
          "name": "Canara Bank",
          "name:en": "Canara Bank",
          "name:hi": "\u0915\u0947\u0928\u0930\u093e \u092c\u0948\u0902\u0915",
          "name:kn": "\u0c95\u0cc6\u0ca8\u0cb0\u0cbe \u0cac\u0ccd\u0caf\u0cbe\u0c82\u0c95\u0ccd",
          "name:pa": "\u0a15\u0a47\u0a28\u0a30\u0a3e \u0a2c\u0a48\u0a02\u0a15",
          "name:pnb": "\u06a9\u06cc\u0646\u0631\u0627 \u0628\u06cc\u0646\u06a9",
          "name:ur": "\u06a9\u06cc\u0646\u0631\u0627 \u0628\u06cc\u0646\u06a9",
          "website": "https://www.canarabank.com/"
        }
      },
      {
        "type": "node",
        "id": 677288910,
        "lat": 12.982738,
        "lon": 77.6030551,
        "tags": {
          "amenity": "restaurant",
          "cuisine": "indian",
          "name": "Hotel Vinitha",
          "name:kn": "\u0cb9\u0ccb\u0c9f\u0cc6\u0cb2\u0ccd \u0cb5\u0cbf\u0ca8\u0cbf\u0ca4"
        }
      },
      {
        "type": "node",
        "id": 762086048,
        "lat": 12.9893411,
        "lon": 77.5929583,
        "tags": {
          "amenity": "restaurant",
          "cuisine": "indian",
          "name": "A Masala House",
          "name:kn": "\u0c85 \u0cae\u0cb8\u0cb2\u0cbe \u0cb9\u0ccc\u0cb8\u0ccd"
        }
      },
      {
        "type": "node",
        "id": 1005544881,
        "lat": 12.9815051,
        "lon": 77.6011944,
        "tags": {
          "addr:city": "Bangalore",
          "addr:housenumber": "55",
          "addr:postcode": "560001",
          "addr:street": "Infantry Road",
          "amenity": "hospital",
          "email": "bengaluru@medinovaindia.com",
          "fax": "+918022867244",
          "name": "Mallya Audikesh Diagnostics Center",
          "phone": "+918022868423",
          "website": "http://www.medinovaindia.com"
        }
      },
      {
        "type": "node",
        "id": 1306431953,
        "lat": 12.9831559,
        "lon": 77.5987115,
        "tags": {
          "addr:housenumber": "21/1",
          "addr:street": "Cunningham Road",
          "amenity": "restaurant",
          "cuisine": "indian",
          "full_name": "Eden Park Bar And Restaurant",
          "name": "Eden Park",
          "name:kn": "\u0c8e\u0ca1\u0cbf\u0ca8\u0ccd \u0caa\u0cbe\u0cb0\u0ccd\u0c95\u0ccd \u0cac\u0cbe\u0cb0\u0ccd \u0cae\u0ca4\u0ccd\u0ca4\u0cc1 \u0cb0\u0cc6\u0cb8\u0ccd\u0c9f\u0ccb\u0cb0\u0cc6\u0c82\u0c9f\u0ccd"
        }
      },
      {
        "type": "node",
        "id": 1307598721,
        "lat": 12.9823242,
        "lon": 77.594716,
        "tags": {
          "addr:street": "Dr B R Ambedkar Veedhi",
          "amenity": "cafe",
          "name": "India Coffee House",
          "name:kn": "\u0c87\u0c82\u0ca1\u0cbf\u0caf\u0cbe \u0c95\u0cbe\u0cab\u0cbf \u0cb9\u0ccc\u0cb8\u0ccd"
        }
      },
      {
        "type": "node",
        "id": 1644358679,
        "lat": 12.9891068,
        "lon": 77.5938601,
        "tags": {
          "addr:street": "Millers Tank Bund Road",
          "amenity": "restaurant",
          "cuisine": "chinese",
          "name": "Chung's",
          "name:kn": "\u0c9a\u0cc1\u0c82\u0c97\u0ccd\u0cb8\u0ccd",
          "toilets:wheelchair": "no",
          "wheelchair": "no"
        }
      },
      {
        "type": "node",
        "id": 1722589278,
        "lat": 12.9830301,
        "lon": 77.5943718,
        "tags": {
          "addr:postcode": "560001",
          "addr:street": "Infantry Road",
          "amenity": "restaurant",
          "diet:vegetarian": "only",
          "name": "Nisarga",
          "name:kn": "\u0ca8\u0cbf\u0cb8\u0cb0\u0ccd\u0c97"
        }
      },
      {
        "type": "node",
        "id": 2600844534,
        "lat": 12.9790476,
        "lon": 77.5935254,
        "tags": {
          "amenity": "restaurant",
          "diet:vegetarian": "only",
          "name": "High Court Canteen",
          "name:kn": "\u0cb9\u0cc8\u0c95\u0ccb\u0cb0\u0ccd\u0c9f\u0ccd \u0c95\u0ccd\u0caf\u0cbe\u0c82\u0c9f\u0cc0\u0ca8\u0ccd"
        }
      },
      {
        "type": "node",
        "id": 2630925035,
        "lat": 12.9888891,
        "lon": 77.5933559,
        "tags": {
          "addr:street": "Cunningham Road",
          "amenity": "fast_food",
          "brand": "Au Bon Pain",
          "brand:wikidata": "Q4818942",
          "cuisine": "sandwich",
          "name": "Au Bon Pain",
          "takeaway": "yes",
          "website": "http://www.aubonpain.com/"
        }
      },
      {
        "type": "node",
        "id": 3226589031,
        "lat": 12.9844175,
        "lon": 77.6033409,
        "tags": {
          "amenity": "cafe",
          "name": "Sreeraj Lassi Bar",
          "name:kn": "\u0cb6\u0ccd\u0cb0\u0cc0\u0cb0\u0cbe\u0c9c\u0ccd \u0cb2\u0cb8\u0ccd\u0cb8\u0cbf \u0cac\u0cbe\u0cb0\u0ccd"
        }
      },
      {
        "type": "node",
        "id": 3654139977,
        "lat": 12.9791721,
        "lon": 77.5934264,
        "tags": {
          "amenity": "atm",
          "brand": "Canara Bank",
          "brand:en": "Canara Bank",
          "brand:hi": "\u0915\u0947\u0928\u0930\u093e \u092c\u0948\u0902\u0915",
          "brand:kn": "\u0c95\u0cc6\u0ca8\u0cb0\u0cbe \u0cac\u0ccd\u0caf\u0cbe\u0c82\u0c95\u0ccd",
          "brand:pa": "\u0a15\u0a47\u0a28\u0a30\u0a3e \u0a2c\u0a48\u0a02\u0a15",
          "brand:pnb": "\u06a9\u06cc\u0646\u0631\u0627 \u0628\u06cc\u0646\u06a9",
          "brand:ur": "\u06a9\u06cc\u0646\u0631\u0627 \u0628\u06cc\u0646\u06a9",
          "brand:wikidata": "Q2003777",
          "brand:wikipedia": "en:Canara Bank",
          "brand:wikipedia:pa": "\u0a15\u0a47\u0a28\u0a30\u0a3e \u0a2c\u0a48\u0a02\u0a15",
          "drive_through": "no",
          "name": "Canara Bank",
          "name:en": "Canara Bank",
          "name:hi": "\u0915\u0947\u0928\u0930\u093e \u092c\u0948\u0902\u0915",
          "name:kn": "\u0c95\u0cc6\u0ca8\u0cb0\u0cbe \u0cac\u0ccd\u0caf\u0cbe\u0c82\u0c95\u0ccd",
          "name:pa": "\u0a15\u0a47\u0a28\u0a30\u0a3e \u0a2c\u0a48\u0a02\u0a15",
          "name:pnb": "\u06a9\u06cc\u0646\u0631\u0627 \u0628\u06cc\u0646\u06a9",
          "name:ur": "\u06a9\u06cc\u0646\u0631\u0627 \u0628\u06cc\u0646\u06a9",
          "operator": "Canara Bank",
          "operator:wikidata": "Q2003777"
        }
      },
      {
        "type": "node",
        "id": 3654142906,
        "lat": 12.981906,
        "lon": 77.5956848,
        "tags": {
          "addr:city": "Bangalore",
          "addr:postcode": "560001",
          "addr:street": "Raj Bhavan Road",
          "amenity": "restaurant",
          "check_date": "2023-10-12",
          "cuisine": "regional",
          "indoor_seating": "yes",
          "name": "KGID Canteen",
          "name:kn": "\u0c95\u0cc6\u0c9c\u0cbf\u0c90\u0ca1\u0cbf \u0c95\u0ccd\u0caf\u0cbe\u0c82\u0c9f\u0cc0\u0ca8\u0ccd",
          "outdoor_seating": "no"
        }
      },
      {
        "type": "node",
        "id": 3714125743,
        "lat": 12.9813859,
        "lon": 77.6014187,
        "tags": {
          "amenity": "fast_food",
          "name": "Santosh Chat"
        }
      },
      {
        "type": "node",
        "id": 3714125744,
        "lat": 12.9900105,
        "lon": 77.5988107,
        "tags": {
          "addr:district": "Bengaluru Urban",
          "addr:full": "Queens Road",
          "addr:state": "Karnataka",
          "addr:street": "Queen's Road",
          "amenity": "hospital",
          "name": "Shifa Hospital, Bengaluru Urban",
          "name:kn": "\u0cb6\u0cbf\u0cab\u0cbe \u0c86\u0cb8\u0ccd\u0caa\u0ca4\u0ccd\u0cb0\u0cc6",
          "operator:type": "private",
          "source": "OpenGovernmentData",
          "website": "http://dpal.kar.nic.in/Kanunu%20padakosha%20PDF%20Files/Recognised%20Hospitals.pdf"
        }
      },
      {
        "type": "node",
        "id": 3714125755,
        "lat": 12.9833614,
        "lon": 77.6033233,
        "tags": {
          "amenity": "atm",
          "brand": "Canara Bank",
          "brand:en": "Canara Bank",
          "brand:hi": "\u0915\u0947\u0928\u0930\u093e \u092c\u0948\u0902\u0915",
          "brand:kn": "\u0c95\u0cc6\u0ca8\u0cb0\u0cbe \u0cac\u0ccd\u0caf\u0cbe\u0c82\u0c95\u0ccd",
          "brand:pa": "\u0a15\u0a47\u0a28\u0a30\u0a3e \u0a2c\u0a48\u0a02\u0a15",
          "brand:pnb": "\u06a9\u06cc\u0646\u0631\u0627 \u0628\u06cc\u0646\u06a9",
          "brand:ur": "\u06a9\u06cc\u0646\u0631\u0627 \u0628\u06cc\u0646\u06a9",
          "brand:wikidata": "Q2003777",
          "name": "Canara Bank",
          "name:en": "Canara Bank",
          "name:hi": "\u0915\u0947\u0928\u0930\u093e \u092c\u0948\u0902\u0915",
          "name:kn": "\u0c95\u0cc6\u0ca8\u0cb0\u0cbe \u0cac\u0ccd\u0caf\u0cbe\u0c82\u0c95\u0ccd",
          "name:pa": "\u0a15\u0a47\u0a28\u0a30\u0a3e \u0a2c\u0a48\u0a02\u0a15",
          "name:pnb": "\u06a9\u06cc\u0646\u0631\u0627 \u0628\u06cc\u0646\u06a9",
          "name:ur": "\u06a9\u06cc\u0646\u0631\u0627 \u0628\u06cc\u0646\u06a9",
          "operator": "Canara Bank",
          "operator:wikidata": "Q2003777"
        }
      },
      {
        "type": "node",
        "id": 3761261085,
        "lat": 12.9775007,
        "lon": 77.5883584,
        "tags": {
          "amenity": "bank",
          "atm": "yes",
          "brand": "Syndicate Bank",
          "brand:wikidata": "Q2004088",
          "level": "-1",
          "name": "Syndicate Bank",
          "name:en": "Syndicate Bank",
          "name:kn": "\u0cb8\u0cbf\u0c82\u0ca1\u0cbf\u0c95\u0cc7\u0c9f\u0ccd \u0cac\u0ccd\u0caf\u0cbe\u0c82\u0c95\u0ccd",
          "website": "https://www.syndicatebank.in"
        }
      },
      {
        "type": "node",
        "id": 3761265943,
        "lat": 12.9782832,
        "lon": 77.5879912,
        "tags": {
          "amenity": "bank",
          "brand": "State Bank of India",
          "brand:wikidata": "Q1340361",
          "brand:wikipedia": "en:State Bank of India",
          "name": "State Bank of India",
          "name:kn": "\u0cb8\u0ccd\u0c9f\u0cc7\u0c9f\u0ccd \u0cac\u0ccd\u0caf\u0cbe\u0c82\u0c95\u0ccd \u0c86\u0cab\u0ccd \u0cae\u0cc8\u0cb8\u0cc2\u0cb0\u0cc1",
          "short_name": "SBI",
          "website": "https://www.sbi.co.in"
        }
      },
      {
        "type": "node",
        "id": 3954737033,
        "lat": 12.9813006,
        "lon": 77.5972585,
        "tags": {
          "amenity": "atm"
        }
      },
      {
        "type": "node",
        "id": 4172589989,
        "lat": 12.981434,
        "lon": 77.5957136,
        "tags": {
          "amenity": "atm",
          "check_date": "2024-08-31",
          "opening_hours": "24/7",
          "operator": "India Post ATM"
        }
      },
      {
        "type": "node",
        "id": 4294281307,
        "lat": 12.9814081,
        "lon": 77.6012679,
        "tags": {
          "amenity": "pharmacy",
          "level": "0",
          "name": "Green Apple"
        }
      },
      {
        "type": "node",
        "id": 4294824407,
        "lat": 12.9812314,
        "lon": 77.6017194,
        "tags": {
          "amenity": "bank",
          "atm": "yes",
          "branch": "(E  Vijaya Bank)",
          "brand": "Bank of Baroda",
          "brand:wikidata": "Q2003797",
          "brand:wikipedia": "en:Bank of Baroda",
          "name": "Bank of Baroda",
          "name:kn": "\u0cb5\u0cbf\u0c9c\u0caf \u0cac\u0ccd\u0caf\u0cbe\u0c82\u0c95\u0cc1"
        }
      },
      {
        "type": "node",
        "id": 4295493029,
        "lat": 12.9811084,
        "lon": 77.6014285,
        "tags": {
          "amenity": "atm",
          "name": "Lakshmi Vilasa Bank Ltd",
          "name:kn": "\u0cb2\u0c95\u0ccd\u0cb7\u0ccd\u0cae\u0cbf \u0cb5\u0cbf\u0cb2\u0cbe\u0cb8 \u0cac\u0cbe\u0c82\u0c95\u0ccd",
          "operator": "PNB"
        }
      },
      {
        "type": "node",
        "id": 4299309955,
        "lat": 12.9825997,
        "lon": 77.6028514,
        "tags": {
          "amenity": "bank",
          "name": "Amanath Co-op Bank Ltd"
        }
      },
      {
        "type": "node",
        "id": 4301452672,
        "lat": 12.9806364,
        "lon": 77.602787,
        "tags": {
          "amenity": "restaurant",
          "level": "0",
          "name": "Hotel Metropole"
        }
      },
      {
        "type": "node",
        "id": 4308197700,
        "lat": 12.9802643,
        "lon": 77.6022173,
        "tags": {
          "amenity": "bank",
          "brand": "Indian Overseas Bank",
          "brand:wikidata": "Q2003611",
          "brand:wikipedia": "en:Indian Overseas Bank",
          "level": "0",
          "name": "Indian Overseas Bank",
          "name:en": "Indian Overseas Bank",
          "name:kn": "\u0c90 \u0c93 \u0cac\u0cbf",
          "short_name": "IOB",
          "website": "https://www.iob.in"
        }
      },
      {
        "type": "node",
        "id": 4308225753,
        "lat": 12.9824437,
        "lon": 77.6021511,
        "tags": {
          "amenity": "bank",
          "name": "Karnataka State Co-operative Apex Bank Ltd"
        }
      },
      {
        "type": "node",
        "id": 4314374492,
        "lat": 12.9800143,
        "lon": 77.6023523,
        "tags": {
          "amenity": "bank",
          "brand": "Indian Overseas Bank",
          "brand:wikidata": "Q2003611",
          "brand:wikipedia": "en:Indian Overseas Bank",
          "name": "Indian Overseas Bank",
          "name:en": "Indian Overseas Bank",
          "name:kn": "\u0c90 \u0c93 \u0cac\u0cbf",
          "short_name": "IOB",
          "website": "https://www.iob.in"
        }
      },
      {
        "type": "node",
        "id": 4446295361,
        "lat": 12.9821279,
        "lon": 77.5982064,
        "tags": {
          "addr:city": "Bangalore",
          "addr:housenumber": "141",
          "addr:postcode": "560001",
          "addr:street": "Infantry Road, Shivaji Nagar, Bengaluru,",
          "amenity": "clinic",
          "name": "Sanjeevani Netralaya",
          "name:kn": "\u0cb8\u0c82\u0c9c\u0cc0\u0cb5\u0ca8\u0cbf \u0ca8\u0cc7\u0ca4\u0ccd\u0cb0\u0cbe\u0cb2\u0caf",
          "phone": "099455 44744",
          "website": "https://sanjeevannetralaya.com/"
        }
      },
      {
        "type": "node",
        "id": 4446306461,
        "lat": 12.9805291,
        "lon": 77.6032027,
        "tags": {
          "addr:city": "Bangalore",
          "addr:district": "Bengaluru Urban",
          "addr:full": "CGHS Dispensary No.1, Shivajinagar (FunctionalDispensary) 18/1, Infantry Road, Shivajinagar",
          "addr:housenumber": "111",
          "addr:postcode": "560001",
          "addr:state": "Karnataka",
          "addr:street": "3rd floor, Ganesh Towers, Infantry Road, Shivajinagar",
          "amenity": "clinic",
          "health_facility:type": "dispensary",
          "healthcare": "centre",
          "name": "CGHS Dispensary No.1",
          "operator:type": "government",
          "phone": "080 2558 9225",
          "source": "OpenGovernmentData",
          "website": "http://nb.bsf.gov.in/CGHS%20DIspenseries.pdf"
        }
      },
      {
        "type": "node",
        "id": 4446352742,
        "lat": 12.982224,
        "lon": 77.6029281,
        "tags": {
          "addr:city": "Bangalore",
          "addr:postcode": "560001",
          "addr:street": "Near Bowring Hospital , hospital Road , 22/2, Central St, Shivaji Nagar",
          "amenity": "pharmacy",
          "name": "J S Homoeo House",
          "phone": "+9198802 46426"
        }
      },
      {
        "type": "node",
        "id": 4446360304,
        "lat": 12.9762816,
        "lon": 77.5991019,
        "tags": {
          "addr:city": "Bangalore",
          "addr:housenumber": "32",
          "addr:postcode": "560001",
          "addr:street": "Quadrant Road, Shivaji Nagar, Near Taj Hotel, Shanthala Nagar, Ashok Nagar",
          "amenity": "pharmacy",
          "healthcare": "pharmacy",
          "name": "Nathans Vet Pharma Centre",
          "phone": "080 2286 1740"
        }
      },
      {
        "type": "node",
        "id": 4446388835,
        "lat": 12.9813797,
        "lon": 77.6029956,
        "tags": {
          "addr:city": "Bangalore",
          "addr:housenumber": "4/5",
          "addr:postcode": "560001",
          "addr:street": "Central Square Complex, 47, Central Street, Tasker Town, Shivaji Nagar, Tasker Town, Shivaji Nagar",
          "amenity": "pharmacy",
          "name": "Balaji Vaidyasala",
          "name:kn": "\u0cac\u0cbe\u0cb2\u0cbe\u0c9c\u0cbf \u0cb5\u0cc8\u0ca6\u0ccd\u0caf\u0cb6\u0cbe\u0cb2\u0cc6",
          "phone": "+9198455 01642"
        }
      },
      {
        "type": "node",
        "id": 4446394588,
        "lat": 12.9843238,
        "lon": 77.5984752,
        "tags": {
          "addr:city": "Bangalore",
          "addr:housenumber": "22",
          "addr:postcode": "560051",
          "addr:street": "1st Floor, NG Chambers, Venkataswamy Naidu Rd, Shivaji Nagar",
          "amenity": "pharmacy",
          "name": "T. K. Diagnostic Centre",
          "phone": "080 2286 0567"
        }
      },
      {
        "type": "node",
        "id": 4446404579,
        "lat": 12.9833669,
        "lon": 77.5966639,
        "tags": {
          "addr:city": "Bangalore",
          "addr:housenumber": "1 1/2",
          "addr:postcode": "560001",
          "addr:street": "Indian Express Building, 3rd Floor,, Queens Rd, Vasanth Nagar",
          "amenity": "pharmacy",
          "name": "elbitdiagnostics",
          "phone": "080 4057 0000",
          "website": "https://elbitdiagnostics.net/"
        }
      },
      {
        "type": "node",
        "id": 4446409631,
        "lat": 12.9816041,
        "lon": 77.6011061,
        "tags": {
          "addr:city": "Bangalore",
          "addr:housenumber": "55",
          "addr:postcode": "560001",
          "addr:street": "Infantry Road, Shivaji Nagar",
          "amenity": "pharmacy",
          "name": "Medinova",
          "phone": "080 2286 8423"
        }
      },
      {
        "type": "node",
        "id": 4447114135,
        "lat": 12.9814422,
        "lon": 77.6030131,
        "tags": {
          "addr:city": "Bangalore",
          "addr:postcode": "560001",
          "addr:street": "Lady Curzon Road,Shivajinagar",
          "amenity": "restaurant",
          "cuisine": "regional",
          "delivery": "yes",
          "name": "The Grand Taj",
          "opening_hours": "11:00- 16:30 , 19:00-23:30",
          "phone": "080 25591838",
          "smoking": "no",
          "takeaway": "yes"
        }
      },
      {
        "type": "node",
        "id": 4447156679,
        "lat": 12.9839499,
        "lon": 77.5985328,
        "tags": {
          "addr:city": "Shivaji Nagar, Bangalore",
          "addr:housenumber": "11",
          "addr:postcode": "560001",
          "addr:street": "Park Road, Shivaji Nagar",
          "amenity": "restaurant",
          "cuisine": "regional",
          "delivery": "yes",
          "name": "Tiger Trail",
          "name:kn": "\u0c9f\u0cc8\u0c97\u0cb0\u0ccd \u0c9f\u0ccd\u0cb0\u0cc6\u0cb2\u0ccd",
          "opening_hours": "12:00-15:30,19:00-23:00",
          "phone": "080 2286 5566",
          "smoking": "no",
          "takeaway": "yes",
          "website": "www.ramadabangalore.com"
        }
      },
      {
        "type": "node",
        "id": 4447161315,
        "lat": 12.9857716,
        "lon": 77.6020901,
        "tags": {
          "addr:city": "Shivaji Nagar, Bangalore",
          "addr:housenumber": "10",
          "addr:postcode": "560001",
          "addr:street": "HKP Road \u00a0Shivajinagar",
          "amenity": "restaurant",
          "cuisine": "regional",
          "delivery": "yes",
          "name": "Hilal Restaurant",
          "opening_hours": "09:00-23:30",
          "phone": "080 22867300",
          "smoking": "no",
          "takeaway": "yes"
        }
      },
      {
        "type": "node",
        "id": 4447171741,
        "lat": 12.9821477,
        "lon": 77.6032233,
        "tags": {
          "addr:city": "Shivaji Nagar, Bangalore",
          "addr:housenumber": "42/5",
          "addr:postcode": "560001",
          "addr:street": "Near Bowring Hospital,, Central Street, Shivaji Nagar",
          "amenity": "restaurant",
          "cuisine": "regional",
          "delivery": "yes",
          "name": "Impering",
          "name:en": "Imperial Restaurant",
          "opening_hours": "06:30-1:00",
          "phone": "080 2286 3639",
          "smoking": "no",
          "takeaway": "yes"
        }
      },
      {
        "type": "node",
        "id": 4565787289,
        "lat": 12.983394,
        "lon": 77.593893,
        "tags": {
          "name": "Kynkyny Art",
          "name:en": "Kynkyny Art",
          "opening_hours": "Su-Fr 10:00-19:00",
          "shop": "department_store",
          "website": "https://kynkyny.com/"
        }
      },
      {
        "type": "node",
        "id": 4586429691,
        "lat": 12.9874054,
        "lon": 77.5944696,
        "tags": {
          "amenity": "cafe",
          "brand": "Cafe Coffee Day",
          "brand:wikidata": "Q5017235",
          "cuisine": "coffee_shop",
          "name": "Cafe Coffee Day",
          "name:en": "Cafe Coffee Day",
          "name:kn": "\u0c95\u0cab\u0cc6 \u0c95\u0cbe\u0cab\u0cbf \u0ca1\u0cc7",
          "takeaway": "yes"
        }
      },
      {
        "type": "node",
        "id": 4607623009,
        "lat": 12.987281,
        "lon": 77.5949854,
        "tags": {
          "amenity": "bank",
          "brand": "Yes Bank",
          "brand:wikidata": "Q2040394",
          "brand:wikipedia": "en:Yes Bank",
          "name": "Yes Bank",
          "name:en": "YES Bank",
          "website": "https://www.yesbank.in"
        }
      },
      {
        "type": "node",
        "id": 4655364516,
        "lat": 12.9848107,
        "lon": 77.601649,
        "tags": {
          "addr:city": "Bangalore",
          "addr:housenumber": "180",
          "addr:postcode": "560051",
          "addr:street": "Shivaji Road",
          "amenity": "bank",
          "atm": "yes",
          "brand": "Allahabad Bank",
          "brand:wikidata": "Q2018840",
          "brand:wikipedia": "en:Allahabad Bank",
          "name": "Allahabad Bank",
          "name:en": "Allahabad Bank",
          "name:kn": "\u0c85\u0cb2\u0cb9\u0cbe\u0cac\u0cbe\u0ca6\u0ccd \u0cac\u0ccd\u0caf\u0cbe\u0c82\u0c95",
          "phone": "080-22865251",
          "website": "https://www.allahabadbank.in"
        }
      },
      {
        "type": "node",
        "id": 4711802190,
        "lat": 12.9890974,
        "lon": 77.5936081,
        "tags": {
          "amenity": "restaurant",
          "cuisine": "chinese;thai",
          "name": "Red Latern",
          "name:en": "Red Latern"
        }
      },
      {
        "type": "node",
        "id": 4716486089,
        "lat": 12.9899208,
        "lon": 77.5944935,
        "tags": {
          "amenity": "pharmacy",
          "name:en": "Pharmacy"
        }
      },
      {
        "type": "node",
        "id": 4849618966,
        "lat": 12.9851311,
        "lon": 77.5967445,
        "tags": {
          "amenity": "bank",
          "brand": "Axis Bank",
          "brand:wikidata": "Q2003549",
          "brand:wikipedia": "en:Axis Bank",
          "name": "Axis Bank",
          "name:en": "Axis Bank",
          "name:kn": "\u0c86\u0c95\u0ccd\u0cb8\u0cbf\u0cb8\u0ccd \u0cac\u0ccd\u0caf\u0cbe\u0c82\u0c95\u0ccd",
          "website": "https://www.axisbank.com"
        }
      },
      {
        "type": "node",
        "id": 4849618969,
        "lat": 12.9864576,
        "lon": 77.5956391,
        "tags": {
          "amenity": "bank",
          "brand": "State Bank of India",
          "brand:wikidata": "Q1340361",
          "brand:wikipedia": "en:State Bank of India",
          "name": "State Bank of India",
          "name:kn": "\u0cad\u0cbe\u0cb0\u0ca4\u0cc0\u0caf \u0cb8\u0ccd\u0c9f\u0cc7\u0c9f\u0ccd \u0cac\u0ccd\u0caf\u0cbe\u0c82\u0c95\u0ccd",
          "short_name": "SBI"
        }
      },
      {
        "type": "node",
        "id": 4849618970,
        "lat": 12.9880543,
        "lon": 77.5940452,
        "tags": {
          "amenity": "bank",
          "name": "Vijaya Bank",
          "name:kn": "\u0cb5\u0cbf\u0c9c\u0caf \u0cac\u0ccd\u0caf\u0cbe\u0c82\u0c95\u0cc1"
        }
      },
      {
        "type": "node",
        "id": 4873639822,
        "lat": 12.9907312,
        "lon": 77.5959415,
        "tags": {
          "amenity": "fast_food",
          "name": "\u0cb6\u0ccd\u0cb0\u0cc0\u0ca8\u0cbf\u0ca7\u0cbf \u0cb0\u0cbf\u0caf\u0cb2\u0ccd \u0cab\u0cc1\u0ca1\u0ccd",
          "name:en": "Srinidhi Real Food",
          "name:kn": "\u0cb6\u0ccd\u0cb0\u0cc0\u0ca8\u0cbf\u0ca7\u0cbf \u0cb0\u0cbf\u0caf\u0cb2\u0ccd \u0cab\u0cc1\u0ca1\u0ccd"
        }
      },
      {
        "type": "node",
        "id": 4898819421,
        "lat": 12.9845379,
        "lon": 77.590531,
        "tags": {
          "amenity": "fast_food",
          "name": "Nandini",
          "name:en": "Nandini",
          "name:kn": "\u0ca8\u0c82\u0ca6\u0cbf\u0ca8\u0cbf"
        }
      },
      {
        "type": "node",
        "id": 5012445079,
        "lat": 12.9899243,
        "lon": 77.5913426,
        "tags": {
          "amenity": "restaurant",
          "name": "Fat Buddha"
        }
      },
      {
        "type": "node",
        "id": 6594341985,
        "lat": 12.9873463,
        "lon": 77.5959886,
        "tags": {
          "addr:city": "Bengaluru",
          "addr:country": "IN",
          "addr:housenumber": "7/1",
          "addr:postcode": "560052",
          "addr:street": "Edward Road",
          "amenity": "cafe",
          "contact:instagram": "champacabooks",
          "email": "hello@champaca.in",
          "level": "1",
          "name": "Champaca Bookstore, Library & Cafe",
          "opening_hours": "Tu-Su 11:00-19:00",
          "phone": "+91 93536 08989",
          "shop": "books",
          "website": "https://www.champaca.in/"
        }
      },
      {
        "type": "node",
        "id": 6594341986,
        "lat": 12.9867258,
        "lon": 77.5953828,
        "tags": {
          "alt_name": "Kentucky Fried Chicken",
          "alt_name:en": "Kentucky Fried Chicken",
          "alt_name:hi": "\u0915\u0947\u0902\u091f\u0941\u0915\u0940 \u092b\u094d\u0930\u093e\u0907\u0921 \u091a\u093f\u0915\u0928",
          "alt_name:pa": "\u0a15\u0a48\u0a02\u0a1f\u0a41\u0a15\u0a40 \u0a2b\u0a4d\u0a30\u0a3e\u0a08\u0a21 \u0a1a\u0a3f\u0a15\u0a28",
          "alt_name:pnb": "\u06a9\u06cc\u0646\u0679\u06a9\u06cc \u0641\u0631\u0627\u0626\u06cc\u0688 \u0686\u06a9\u0646",
          "alt_name:ur": "\u06a9\u06cc\u0646\u0679\u06a9\u06cc \u0641\u0631\u0627\u0626\u06cc\u0688 \u0686\u06a9\u0646",
          "amenity": "fast_food",
          "brand": "KFC",
          "brand:en": "KFC",
          "brand:hi": "\u0915\u0947\u090f\u092b\u0938\u0940",
          "brand:pa": "\u0a15\u0a47\u0a10\u0a2b\u0a38\u0a40",
          "brand:pnb": "\u06a9\u06d2 \u0627\u06cc\u0641 \u0633\u06cc",
          "brand:ur": "\u06a9\u06d2 \u0627\u06cc\u0641 \u0633\u06cc",
          "brand:wikidata": "Q524757",
          "brand:wikipedia": "en:KFC",
          "brand:wikipedia:pa": "\u0a15\u0a47\u0a10\u0a2b\u0a38\u0a40",
          "brand:wikipedia:ur": "\u06a9\u06cc\u0646\u0679\u06a9\u06cc \u0641\u0631\u0627\u0626\u06cc\u0688 \u0686\u06a9\u0646",
          "cuisine": "chicken",
          "delivery": "yes",
          "name": "KFC",
          "name:en": "KFC",
          "name:hi": "\u0915\u0947\u090f\u092b\u0938\u0940",
          "name:pa": "\u0a15\u0a47\u0a10\u0a2b\u0a38\u0a40",
          "name:pnb": "\u06a9\u06d2 \u0627\u06cc\u0641 \u0633\u06cc",
          "name:ur": "\u06a9\u06d2 \u0627\u06cc\u0641 \u0633\u06cc",
          "takeaway": "yes"
        }
      },
      {
        "type": "node",
        "id": 6698387555,
        "lat": 12.9835262,
        "lon": 77.5942425,
        "tags": {
          "addr:city": "Bengaluru",
          "addr:housenumber": "147",
          "addr:street": "Infantry Road",
          "amenity": "restaurant",
          "name": "Nisarga"
        }
      },
      {
        "type": "node",
        "id": 6938701191,
        "lat": 12.9844415,
        "lon": 77.603471,
        "tags": {
          "addr:district": "Bengaluru Urban",
          "addr:full": "#165, Chick Bazaar Road, Opposite Shivajinagar Bus Stand",
          "addr:postcode": "560051",
          "addr:state": "Karnataka",
          "amenity": "clinic",
          "name": "Bangalore Piles Clinic",
          "source": "OpenGovernmentData"
        }
      },
      {
        "type": "node",
        "id": 6979847311,
        "lat": 12.9884809,
        "lon": 77.5931015,
        "tags": {
          "name": "Black Village Organic Food Store",
          "organic": "only",
          "shop": "supermarket"
        }
      },
      {
        "type": "node",
        "id": 7160302091,
        "lat": 12.9774664,
        "lon": 77.5918137,
        "tags": {
          "amenity": "atm",
          "brand": "State Bank of India",
          "brand:wikidata": "Q1340361",
          "cash_in": "no",
          "currency:INR": "yes",
          "drive_through": "no",
          "name": "State Bank of India",
          "network": "SBI",
          "operator": "State Bank of India",
          "operator:wikidata": "Q1340361",
          "short_name": "SBI"
        }
      },
      {
        "type": "node",
        "id": 7255929397,
        "lat": 12.9901417,
        "lon": 77.5932464,
        "tags": {
          "amenity": "restaurant",
          "name": "Grand Spicy"
        }
      },
      {
        "type": "node",
        "id": 7276500304,
        "lat": 12.9835372,
        "lon": 77.5858502,
        "tags": {
          "amenity": "atm",
          "brand": "Corporation Bank",
          "brand:wikidata": "Q2003387",
          "name": "Corporation Bank",
          "operator": "Corporation Bank",
          "operator:wikidata": "Q2003387"
        }
      },
      {
        "type": "node",
        "id": 7658290107,
        "lat": 12.9802518,
        "lon": 77.5861466,
        "tags": {
          "amenity": "restaurant",
          "name": "LORE"
        }
      },
      {
        "type": "node",
        "id": 7658290108,
        "lat": 12.9800179,
        "lon": 77.5859709,
        "tags": {
          "amenity": "restaurant",
          "name": "Tijuori"
        }
      },
      {
        "type": "node",
        "id": 7704862387,
        "lat": 12.9867147,
        "lon": 77.5956122,
        "tags": {
          "addr:street": "Cunningham Road",
          "amenity": "restaurant",
          "cuisine": "indian",
          "name": "Banjara Melting Pot"
        }
      },
      {
        "type": "node",
        "id": 8240293380,
        "lat": 12.9848923,
        "lon": 77.5879088,
        "tags": {
          "amenity": "fast_food",
          "name": "Gangotri",
          "name:kn": "\u0c97\u0c82\u0c97\u0ccb\u0ca4\u0ccd\u0cb0\u0cbf"
        }
      },
      {
        "type": "node",
        "id": 8240293381,
        "lat": 12.985676,
        "lon": 77.5878675,
        "tags": {
          "addr:city": "Bengaluru",
          "addr:country": "IN",
          "addr:hamlet": "High Grounds",
          "addr:housename": "Prestige Trade Tower",
          "addr:postcode": "560001",
          "addr:street": "Palace Road",
          "addr:suburb": "Sampangi Rama Nagar",
          "addr:unit": "The Courtyard by Sublime",
          "amenity": "restaurant",
          "brand": "Brik Oven",
          "brand:wikidata": "Q124374702",
          "cuisine": "pizza",
          "delivery": "yes",
          "name": "Brik Oven",
          "takeaway": "yes"
        }
      },
      {
        "type": "node",
        "id": 9063471385,
        "lat": 12.98638,
        "lon": 77.5949228,
        "tags": {
          "amenity": "cafe",
          "check_date": "2024-08-31",
          "contact:instagram": "dolcicafeblr",
          "delivery": "yes",
          "name": "Dolci Cafe",
          "outdoor_seating": "yes",
          "takeaway": "yes"
        }
      },
      {
        "type": "node",
        "id": 9161061917,
        "lat": 12.9748022,
        "lon": 77.5934368,
        "tags": {
          "amenity": "fast_food",
          "name": "Hopcoms Juice Stand"
        }
      },
      {
        "type": "node",
        "id": 9162183602,
        "lat": 12.9756556,
        "lon": 77.5951856,
        "tags": {
          "amenity": "fast_food",
          "check_date": "2023-10-12",
          "name": "Hopcoms Juice Stand"
        }
      },
      {
        "type": "node",
        "id": 9214580913,
        "lat": 12.9815652,
        "lon": 77.5974494,
        "tags": {
          "amenity": "atm",
          "brand": "Canara Bank",
          "brand:en": "Canara Bank",
          "brand:hi": "\u0915\u0947\u0928\u0930\u093e \u092c\u0948\u0902\u0915",
          "brand:kn": "\u0c95\u0cc6\u0ca8\u0cb0\u0cbe \u0cac\u0ccd\u0caf\u0cbe\u0c82\u0c95\u0ccd",
          "brand:pa": "\u0a15\u0a47\u0a28\u0a30\u0a3e \u0a2c\u0a48\u0a02\u0a15",
          "brand:pnb": "\u06a9\u06cc\u0646\u0631\u0627 \u0628\u06cc\u0646\u06a9",
          "brand:ur": "\u06a9\u06cc\u0646\u0631\u0627 \u0628\u06cc\u0646\u06a9",
          "brand:wikidata": "Q2003777",
          "name": "Canara Bank",
          "name:en": "Canara Bank",
          "name:hi": "\u0915\u0947\u0928\u0930\u093e \u092c\u0948\u0902\u0915",
          "name:kn": "\u0c95\u0cc6\u0ca8\u0cb0\u0cbe \u0cac\u0ccd\u0caf\u0cbe\u0c82\u0c95\u0ccd",
          "name:pa": "\u0a15\u0a47\u0a28\u0a30\u0a3e \u0a2c\u0a48\u0a02\u0a15",
          "name:pnb": "\u06a9\u06cc\u0646\u0631\u0627 \u0628\u06cc\u0646\u06a9",
          "name:ur": "\u06a9\u06cc\u0646\u0631\u0627 \u0628\u06cc\u0646\u06a9",
          "operator": "Canara Bank",
          "operator:wikidata": "Q2003777"
        }
      },
      {
        "type": "node",
        "id": 9573432730,
        "lat": 12.989538,
        "lon": 77.5986001,
        "tags": {
          "amenity": "fast_food",
          "name": "Maratha Darshan"
        }
      },
      {
        "type": "node",
        "id": 9573432743,
        "lat": 12.9852765,
        "lon": 77.5958897,
        "tags": {
          "addr:city": "Bangalore",
          "addr:country": "IN",
          "addr:housename": "The Hatworks Boulevard",
          "addr:housenumber": "32",
          "addr:postcode": "560052",
          "addr:street": "Cunningham Road",
          "addr:suburb": "Vasanth Nagar",
          "amenity": "cafe",
          "name": "Trippy Goat Cafe",
          "outdoor_seating": "yes",
          "toilets": "yes"
        }
      },
      {
        "type": "node",
        "id": 9573432745,
        "lat": 12.9875523,
        "lon": 77.5947766,
        "tags": {
          "addr:city": "Bengaluru",
          "addr:country": "IN",
          "addr:housenumber": "18",
          "addr:postcode": "560052",
          "addr:street": "Cunningham Road",
          "amenity": "cafe",
          "brand": "Third Wave Coffee Roasters",
          "brand:wikidata": "Q7785004",
          "cuisine": "coffee_shop",
          "delivery": "yes",
          "internet_access": "yes",
          "internet_access:fee": "no",
          "name": "Third Wave Coffee Roasters",
          "opening_hours": "08:00-00:00",
          "operator": "Third Wave Coffee",
          "smoking": "no",
          "takeaway": "yes",
          "website": "https://www.thirdwavecoffeeroasters.com/pages/bangalore-cunningham-rd"
        }
      },
      {
        "type": "node",
        "id": 9573432746,
        "lat": 12.9883998,
        "lon": 77.5937028,
        "tags": {
          "amenity": "restaurant",
          "contact:facebook": "pastastreet",
          "contact:instagram": "pasta.street",
          "cuisine": "pasta",
          "email": "info@pastastreet.co.in",
          "name": "Pasta Street",
          "phone": "+91 9266844026",
          "website": "https://pastastreet.co.in/"
        }
      },
      {
        "type": "node",
        "id": 9573432747,
        "lat": 12.9891564,
        "lon": 77.5926858,
        "tags": {
          "amenity": "cafe",
          "name": "India Chai Lounge"
        }
      },
      {
        "type": "node",
        "id": 9633893472,
        "lat": 12.9882921,
        "lon": 77.5986345,
        "tags": {
          "alt_name": "Kentucky Fried Chicken",
          "alt_name:en": "Kentucky Fried Chicken",
          "alt_name:hi": "\u0915\u0947\u0902\u091f\u0941\u0915\u0940 \u092b\u094d\u0930\u093e\u0907\u0921 \u091a\u093f\u0915\u0928",
          "alt_name:pa": "\u0a15\u0a48\u0a02\u0a1f\u0a41\u0a15\u0a40 \u0a2b\u0a4d\u0a30\u0a3e\u0a08\u0a21 \u0a1a\u0a3f\u0a15\u0a28",
          "alt_name:pnb": "\u06a9\u06cc\u0646\u0679\u06a9\u06cc \u0641\u0631\u0627\u0626\u06cc\u0688 \u0686\u06a9\u0646",
          "alt_name:ur": "\u06a9\u06cc\u0646\u0679\u06a9\u06cc \u0641\u0631\u0627\u0626\u06cc\u0688 \u0686\u06a9\u0646",
          "amenity": "fast_food",
          "brand": "KFC",
          "brand:en": "KFC",
          "brand:hi": "\u0915\u0947\u090f\u092b\u0938\u0940",
          "brand:pa": "\u0a15\u0a47\u0a10\u0a2b\u0a38\u0a40",
          "brand:pnb": "\u06a9\u06d2 \u0627\u06cc\u0641 \u0633\u06cc",
          "brand:ur": "\u06a9\u06d2 \u0627\u06cc\u0641 \u0633\u06cc",
          "brand:wikidata": "Q524757",
          "cuisine": "chicken",
          "name": "KFC",
          "name:en": "KFC",
          "name:hi": "\u0915\u0947\u090f\u092b\u0938\u0940",
          "name:pa": "\u0a15\u0a47\u0a10\u0a2b\u0a38\u0a40",
          "name:pnb": "\u06a9\u06d2 \u0627\u06cc\u0641 \u0633\u06cc",
          "name:ur": "\u06a9\u06d2 \u0627\u06cc\u0641 \u0633\u06cc",
          "takeaway": "yes"
        }
      },
      {
        "type": "node",
        "id": 9688218518,
        "lat": 12.9804171,
        "lon": 77.5969495,
        "tags": {
          "amenity": "fast_food",
          "name": "Coconut Water"
        }
      },
      {
        "type": "node",
        "id": 9779286640,
        "lat": 12.9911604,
        "lon": 77.5944675,
        "tags": {
          "addr:city": "Bengaluru",
          "addr:country": "IN",
          "addr:hamlet": "Kaverappa Layout",
          "addr:housenumber": "29/1",
          "addr:postcode": "560051",
          "addr:street": "Miller's Road",
          "addr:suburb": "Vasanth Nagar",
          "amenity": "restaurant",
          "contact:facebook": "curlysuepork",
          "contact:instagram": "curlysuepork",
          "delivery": "only",
          "email": "curlysuepork@gmail.com",
          "mobile": "+91 9108697096",
          "name": "Curly Sue Pork",
          "opening_hours": "Mo-Su 10:00-21:00",
          "takeaway": "only",
          "website": "https://www.curlysue.in/"
        }
      },
      {
        "type": "node",
        "id": 9779286641,
        "lat": 12.9911473,
        "lon": 77.5944346,
        "tags": {
          "addr:city": "Bengaluru",
          "addr:country": "IN",
          "addr:hamlet": "Kaverappa Layout",
          "addr:housenumber": "29/1",
          "addr:postcode": "560051",
          "addr:street": "Miller's Road",
          "addr:suburb": "Vasanth Nagar",
          "amenity": "restaurant",
          "contact:facebook": "bmd.gourmet",
          "contact:instagram": "bmd.gourmet",
          "contact:pinterest": "bmdgourmet",
          "delivery": "only",
          "email": "bmdgourmet@gmail.com",
          "mobile": "+91 89511 44266",
          "name": "BMD || Burger - Melts - Dogs",
          "opening_hours": "Mo off; Tu-Th 11:00-20:30; Fr-Su 11:00-21:00",
          "takeaway": "only",
          "website": "https://bmdgourmet.in"
        }
      },
      {
        "type": "node",
        "id": 9796560877,
        "lat": 12.9822329,
        "lon": 77.599225,
        "tags": {
          "amenity": "bank",
          "atm": "yes",
          "brand": "Kotak Mahindra Bank",
          "brand:wikidata": "Q2040404",
          "name": "Kotak Mahindra Bank",
          "operator": "Kotak Mahindra Bank"
        }
      },
      {
        "type": "node",
        "id": 9796560886,
        "lat": 12.9821258,
        "lon": 77.5994678,
        "tags": {
          "amenity": "bank",
          "atm": "yes",
          "brand": "HDFC Bank",
          "brand:wikidata": "Q631047",
          "name": "HDFC Bank",
          "operator": "HDFC Bank",
          "short_name": "HDFC"
        }
      },
      {
        "type": "node",
        "id": 9796560894,
        "lat": 12.9807928,
        "lon": 77.6013547,
        "tags": {
          "amenity": "bank",
          "atm": "yes",
          "brand": "HDFC Bank",
          "brand:wikidata": "Q631047",
          "name": "HDFC Bank",
          "name:kn": "\u0c8e\u0c9a\u0ccd \u0ca1\u0cbf \u0c8e\u0cab\u0ccd \u0cb8\u0cbf",
          "short_name": "HDFC"
        }
      },
      {
        "type": "node",
        "id": 9796561552,
        "lat": 12.9811522,
        "lon": 77.6032115,
        "tags": {
          "addr:city": "Bengaluru",
          "addr:country": "IN",
          "addr:housename": "Prestige Central",
          "addr:housenumber": "36",
          "addr:postcode": "560001",
          "addr:street": "Infantry Road",
          "amenity": "cafe",
          "delivery": "yes",
          "name": "Blue Tokai",
          "operator": "Blue Tokai",
          "takeaway": "yes",
          "website": "https://bluetokaicoffee.com/"
        }
      },
      {
        "type": "node",
        "id": 9797011346,
        "lat": 12.9855722,
        "lon": 77.6019143,
        "tags": {
          "amenity": "fast_food",
          "cuisine": "regional",
          "delivery": "yes",
          "name": "Shivajinagar Gardi Ustad Pehlwan Kale Bhai's - Pahilwani Handi",
          "takeaway": "yes"
        }
      },
      {
        "type": "node",
        "id": 9797011350,
        "lat": 12.9856477,
        "lon": 77.6017275,
        "tags": {
          "amenity": "cafe",
          "name": "Chai Shop"
        }
      },
      {
        "type": "node",
        "id": 9929991501,
        "lat": 12.9826877,
        "lon": 77.5977753,
        "tags": {
          "amenity": "bank",
          "atm": "yes",
          "brand": "Indian Overseas Bank",
          "brand:wikidata": "Q2003611",
          "name": "Indian Overseas Bank",
          "name:kn": "\u0c90 \u0c93 \u0cac\u0cbf",
          "operator": "Indian Overseas Bank"
        }
      },
      {
        "type": "node",
        "id": 10047263721,
        "lat": 12.9820371,
        "lon": 77.6032655,
        "tags": {
          "amenity": "fast_food",
          "name": "Hotel Swapna Sagara"
        }
      },
      {
        "type": "node",
        "id": 10591415447,
        "lat": 12.9859225,
        "lon": 77.5877778,
        "tags": {
          "addr:city": "Bengaluru",
          "addr:country": "IN",
          "addr:hamlet": "High Grounds",
          "addr:housename": "Prestige Trade Tower",
          "addr:postcode": "560001",
          "addr:street": "Palace Road",
          "addr:suburb": "Sampangi Rama Nagar",
          "addr:unit": "The Courtyard by Sublime",
          "amenity": "restaurant",
          "cuisine": "regional",
          "name": "Maayaa"
        }
      },
      {
        "type": "node",
        "id": 10601700605,
        "lat": 12.9849661,
        "lon": 77.5963422,
        "tags": {
          "amenity": "bank",
          "atm": "yes",
          "brand": "IDFC First Bank",
          "brand:wikidata": "Q22031467",
          "name": "IDFC First Bank",
          "operator": "IDFC First Bank"
        }
      },
      {
        "type": "node",
        "id": 10753340367,
        "lat": 12.9746415,
        "lon": 77.5967427,
        "tags": {
          "amenity": "cafe",
          "indoor_seating": "yes",
          "name": "MAP Cafe",
          "outdoor_seating": "no"
        }
      },
      {
        "type": "node",
        "id": 10761493314,
        "lat": 12.9870949,
        "lon": 77.5957107,
        "tags": {
          "addr:city": "Bengaluru",
          "addr:country": "IN",
          "addr:floor": "G",
          "addr:housenumber": "7/2",
          "addr:postcode": "560052",
          "addr:street": "Edward Road",
          "air_conditioning": "no",
          "amenity": "cafe",
          "check_date": "2024-06-29",
          "contact:instagram": "labonita.blr",
          "delivery": "yes",
          "diet:vegan": "yes",
          "diet:vegetarian": "yes",
          "level": "0",
          "name": "La Bonita Confiteria",
          "opening_hours": "Tu-Sa 09:00-19:00; Su 08:00-20:00",
          "outdoor_seating": "yes",
          "takeaway": "yes",
          "toilets": "yes",
          "toilets:wheelchair": "no",
          "wheelchair": "yes"
        }
      },
      {
        "type": "node",
        "id": 11063128444,
        "lat": 12.9886447,
        "lon": 77.5940005,
        "tags": {
          "amenity": "cafe",
          "brand": "Starbucks",
          "brand:wikidata": "Q37158",
          "cuisine": "coffee_shop",
          "name": "Starbucks",
          "official_name": "Starbucks Coffee",
          "takeaway": "yes"
        }
      },
      {
        "type": "node",
        "id": 11063128445,
        "lat": 12.9885799,
        "lon": 77.594038,
        "tags": {
          "amenity": "cafe",
          "brand": "Chaayos",
          "brand:wikidata": "Q117235235",
          "cuisine": "tea",
          "name": "Chaayos",
          "takeaway": "yes"
        }
      },
      {
        "type": "node",
        "id": 11107546220,
        "lat": 12.9744846,
        "lon": 77.5967949,
        "tags": {
          "amenity": "restaurant",
          "name": "Cumulus",
          "opening_hours": "Tu-Su 12:00-15:30;19:00-23:00",
          "phone": "+91 96099 96687"
        }
      },
      {
        "type": "node",
        "id": 11214889025,
        "lat": 12.9857351,
        "lon": 77.5877616,
        "tags": {
          "addr:city": "Bengaluru",
          "addr:country": "IN",
          "addr:hamlet": "High Grounds",
          "addr:housename": "Prestige Trade Tower",
          "addr:postcode": "560001",
          "addr:street": "Palace Road",
          "addr:suburb": "Sampangi Rama Nagar",
          "addr:unit": "The Courtyard by Sublime",
          "amenity": "cafe",
          "name": "Boba Tree"
        }
      },
      {
        "type": "node",
        "id": 11214889027,
        "lat": 12.9856786,
        "lon": 77.587802,
        "tags": {
          "addr:city": "Bengaluru",
          "addr:country": "IN",
          "addr:hamlet": "High Grounds",
          "addr:housename": "Prestige Trade Tower",
          "addr:postcode": "560001",
          "addr:street": "Palace Road",
          "addr:suburb": "Sampangi Rama Nagar",
          "addr:unit": "The Courtyard by Sublime",
          "amenity": "restaurant",
          "cuisine": "asian",
          "name": "Misu"
        }
      },
      {
        "type": "node",
        "id": 11214889028,
        "lat": 12.984269,
        "lon": 77.5865757,
        "tags": {
          "amenity": "bank",
          "atm": "yes",
          "brand": "Bank of Baroda",
          "brand:wikidata": "Q2003797",
          "name": "Bank of Baroda",
          "operator": "Bank of Baroda"
        }
      },
      {
        "type": "node",
        "id": 11475453356,
        "lat": 12.9865466,
        "lon": 77.5950151,
        "tags": {
          "addr:city": "Bengaluru",
          "addr:country": "IN",
          "addr:housenumber": "18",
          "addr:postcode": "560052",
          "addr:street": "Ali Asker Road",
          "amenity": "restaurant",
          "check_date": "2024-08-31",
          "contact:instagram": "tudum.blr",
          "delivery": "yes",
          "name": "Tudum",
          "takeaway": "yes"
        }
      },
      {
        "type": "node",
        "id": 11475453357,
        "lat": 12.9866459,
        "lon": 77.5950529,
        "tags": {
          "addr:city": "Bangalore",
          "amenity": "restaurant",
          "brand": "Cafe Noir",
          "brand:wikidata": "Q124374751",
          "cuisine": "french;burger",
          "delivery": "yes",
          "indoor_seating": "yes",
          "name": "Cafe Noir",
          "name:kn": "\u0c95\u0cab\u0cc6 \u0ca8\u0cbe\u0cb0\u0ccd\u0caf\u0ccd",
          "takeaway": "yes"
        }
      },
      {
        "type": "node",
        "id": 11478259470,
        "lat": 12.9858618,
        "lon": 77.5877734,
        "tags": {
          "addr:city": "Bengaluru",
          "addr:country": "IN",
          "addr:hamlet": "High Grounds",
          "addr:housename": "Prestige Trade Tower",
          "addr:postcode": "560001",
          "addr:street": "Palace Road",
          "addr:suburb": "Sampangi Rama Nagar",
          "addr:unit": "The Courtyard by Sublime",
          "amenity": "restaurant",
          "check_date": "2024-01-02",
          "cuisine": "punjabi",
          "name": "Tandoori Taal"
        }
      },
      {
        "type": "node",
        "id": 11524809954,
        "lat": 12.9821284,
        "lon": 77.5962022,
        "tags": {
          "access": "permissive",
          "amenity": "cafe",
          "name": "Caffe Macs"
        }
      },
      {
        "type": "node",
        "id": 11539173257,
        "lat": 12.9859547,
        "lon": 77.5878321,
        "tags": {
          "addr:city": "Bengaluru",
          "addr:country": "IN",
          "addr:hamlet": "High Grounds",
          "addr:housename": "Prestige Trade Tower",
          "addr:postcode": "560001",
          "addr:street": "Palace Road",
          "addr:suburb": "Sampangi Rama Nagar",
          "addr:unit": "The Courtyard by Sublime",
          "amenity": "fast_food",
          "contact:instagram": "beyondburginc",
          "cuisine": "burger",
          "delivery": "yes",
          "diet:halal": "yes",
          "name": "BeyondBurg Inc",
          "phone": "+91 8075303678",
          "takeaway": "yes",
          "website": "https://beyondburginc.com/"
        }
      },
      {
        "type": "node",
        "id": 11658509114,
        "lat": 12.9896423,
        "lon": 77.5932252,
        "tags": {
          "amenity": "bank",
          "brand": "Kotak Mahindra Bank",
          "brand:wikidata": "Q2040404",
          "check_date": "2024-02-24",
          "name": "Kotak Mahindra Bank",
          "name:kn": "\u0c95\u0ccb\u0c9f\u0c95\u0ccd \u0cae\u0cb9\u0cbf\u0c82\u0ca6\u0ccd\u0cb0 \u0cac\u0ccd\u0caf\u0cbe\u0c82\u0c95\u0ccd"
        }
      },
      {
        "type": "node",
        "id": 11658509115,
        "lat": 12.9896136,
        "lon": 77.5932516,
        "tags": {
          "amenity": "bank",
          "check_date": "2024-02-24",
          "name": "Unity Small Finance Bank"
        }
      },
      {
        "type": "node",
        "id": 11658509116,
        "lat": 12.9906437,
        "lon": 77.5931902,
        "tags": {
          "amenity": "fast_food",
          "check_date": "2024-02-24",
          "name": "Swathi Grand Veg"
        }
      },
      {
        "type": "node",
        "id": 11665305123,
        "lat": 12.9833321,
        "lon": 77.587783,
        "tags": {
          "amenity": "fast_food",
          "check_date": "2024-02-26",
          "cuisine": "juice",
          "name": "Sreeraj Lassi Bar",
          "name:kn": "\u0cb6\u0ccd\u0cb0\u0cc0\u0cb0\u0cbe\u0c9c\u0ccd \u0cb2\u0cb8\u0ccd\u0cb8\u0cbf \u0cac\u0cbe\u0cb0\u0ccd"
        }
      },
      {
        "type": "node",
        "id": 11676514098,
        "lat": 12.9897366,
        "lon": 77.5930452,
        "tags": {
          "amenity": "fast_food",
          "name": "Chandrika Hotel"
        }
      },
      {
        "type": "node",
        "id": 11676514099,
        "lat": 12.9883273,
        "lon": 77.593685,
        "tags": {
          "amenity": "bank",
          "brand": "ICICI Bank",
          "brand:wikidata": "Q1653258",
          "name": "ICICI Bank",
          "short_name": "ICICI"
        }
      },
      {
        "type": "node",
        "id": 11676514104,
        "lat": 12.9887657,
        "lon": 77.5918664,
        "tags": {
          "amenity": "bank",
          "brand": "RBL Bank",
          "brand:wikidata": "Q13120398",
          "name": "RBL Bank"
        }
      },
      {
        "type": "node",
        "id": 11676514105,
        "lat": 12.9884534,
        "lon": 77.5924256,
        "tags": {
          "amenity": "bank",
          "brand": "Central Bank of India",
          "brand:wikidata": "Q2007090",
          "name": "Central Bank of India"
        }
      },
      {
        "type": "node",
        "id": 11676514158,
        "lat": 12.9891525,
        "lon": 77.5937198,
        "tags": {
          "amenity": "cafe",
          "name": "Tea Time"
        }
      },
      {
        "type": "node",
        "id": 11921199878,
        "lat": 12.9746977,
        "lon": 77.5970538,
        "tags": {
          "addr:floor": "17",
          "amenity": "restaurant",
          "cuisine": "asian",
          "delivery": "no",
          "level": "17",
          "name": "Sozo Skyline"
        }
      },
      {
        "type": "node",
        "id": 12019980191,
        "lat": 12.9808365,
        "lon": 77.5981459,
        "tags": {
          "addr:floor": "-1",
          "amenity": "atm",
          "brand": "State Bank of India",
          "brand:wikidata": "Q1340361",
          "check_date": "2024-06-29",
          "level": "-1",
          "operator": "State Bank of India",
          "operator:wikidata": "Q1340361",
          "short_name": "SBI"
        }
      },
      {
        "type": "node",
        "id": 12022437803,
        "lat": 12.9857937,
        "lon": 77.5877686,
        "tags": {
          "addr:city": "Bengaluru",
          "addr:country": "IN",
          "addr:hamlet": "High Grounds",
          "addr:housename": "Prestige Trade Tower",
          "addr:postcode": "560001",
          "addr:street": "Palace Road",
          "addr:suburb": "Sampangi Rama Nagar",
          "addr:unit": "The Courtyard by Sublime",
          "amenity": "cafe",
          "name": "Sublime House of Tea"
        }
      },
      {
        "type": "node",
        "id": 12022437804,
        "lat": 12.9857221,
        "lon": 77.5879276,
        "tags": {
          "addr:city": "Bengaluru",
          "addr:country": "IN",
          "addr:hamlet": "High Grounds",
          "addr:housename": "Prestige Trade Tower",
          "addr:postcode": "560001",
          "addr:street": "Palace Road",
          "addr:suburb": "Sampangi Rama Nagar",
          "addr:unit": "The Courtyard by Sublime",
          "amenity": "cafe",
          "name": "Zed The Baker"
        }
      },
      {
        "type": "node",
        "id": 12022437805,
        "lat": 12.9859481,
        "lon": 77.5879172,
        "tags": {
          "addr:city": "Bengaluru",
          "addr:country": "IN",
          "addr:hamlet": "High Grounds",
          "addr:housename": "Prestige Trade Tower",
          "addr:postcode": "560001",
          "addr:street": "Palace Road",
          "addr:suburb": "Sampangi Rama Nagar",
          "addr:unit": "The Courtyard by Sublime",
          "amenity": "cafe",
          "brand": "Starbucks",
          "brand:wikidata": "Q37158",
          "cuisine": "coffee_shop",
          "name": "Starbucks",
          "official_name": "Starbucks Coffee",
          "takeaway": "yes"
        }
      },
      {
        "type": "node",
        "id": 12129019647,
        "lat": 12.9746519,
        "lon": 77.5970726,
        "tags": {
          "addr:city": "Bengaluru",
          "addr:country": "IN",
          "addr:floor": "18",
          "addr:postcode": "560001",
          "addr:street": "Kasturba Road",
          "addr:suburb": "Shanthala Nagar",
          "amenity": "restaurant",
          "level": "18",
          "name": "Botany Brew and Kitchen",
          "toilets": "yes",
          "toilets:access": "customers",
          "website": "https://www.botanyblr.com"
        }
      },
      {
        "type": "node",
        "id": 12133474018,
        "lat": 12.9820378,
        "lon": 77.5994651,
        "tags": {
          "air_conditioning": "no",
          "amenity": "fast_food",
          "check_date": "2024-08-24",
          "cuisine": "indian",
          "diet:vegetarian": "yes",
          "drive_through": "no",
          "highchair": "no",
          "internet_access": "no",
          "name": "Bangalore Thindies",
          "name:kn": "\u0cac\u0cc6\u0c82\u0c97\u0cb3\u0cc2\u0cb0\u0cc1 \u0ca4\u0cbf\u0c82\u0ca1\u0cbf",
          "outdoor_seating": "no",
          "takeaway": "yes",
          "toilets": "no",
          "wheelchair": "yes"
        }
      },
      {
        "type": "node",
        "id": 12139261505,
        "lat": 12.9834483,
        "lon": 77.5967735,
        "tags": {
          "amenity": "bank",
          "brand": "Axis Bank",
          "brand:wikidata": "Q2003549",
          "name": "Axis Bank",
          "name:kn": "\u0c86\u0c95\u0ccd\u0cb8\u0cbf\u0cb8\u0ccd \u0cac\u0ccd\u0caf\u0cbe\u0c82\u0c95\u0ccd"
        }
      },
      {
        "type": "node",
        "id": 12139261509,
        "lat": 12.9851053,
        "lon": 77.5963765,
        "tags": {
          "amenity": "fast_food",
          "name": "Rolls on Wheels"
        }
      },
      {
        "type": "node",
        "id": 12139261514,
        "lat": 12.9855706,
        "lon": 77.5958857,
        "tags": {
          "amenity": "bank",
          "brand": "ICICI Bank",
          "brand:wikidata": "Q1653258",
          "name": "ICICI Bank",
          "short_name": "ICICI"
        }
      },
      {
        "type": "node",
        "id": 12139261539,
        "lat": 12.9869349,
        "lon": 77.5948329,
        "tags": {
          "name": "the organic world",
          "shop": "supermarket"
        }
      },
      {
        "type": "node",
        "id": 12139261553,
        "lat": 12.9881763,
        "lon": 77.5939035,
        "tags": {
          "amenity": "bank",
          "brand": "Bank of Baroda",
          "brand:wikidata": "Q2003797",
          "name": "Bank of Baroda"
        }
      },
      {
        "type": "node",
        "id": 12139261554,
        "lat": 12.9880816,
        "lon": 77.5938244,
        "tags": {
          "amenity": "fast_food",
          "name": "Urs Prashanth Hotel"
        }
      },
      {
        "type": "node",
        "id": 12139261557,
        "lat": 12.9882064,
        "lon": 77.5937828,
        "tags": {
          "amenity": "cafe",
          "name": "Dunkin'"
        }
      },
      {
        "type": "node",
        "id": 12139261559,
        "lat": 12.9882688,
        "lon": 77.5937731,
        "tags": {
          "amenity": "fast_food",
          "cuisine": "burger",
          "name": "Biggies Burgers"
        }
      },
      {
        "type": "node",
        "id": 12231384212,
        "lat": 12.9908221,
        "lon": 77.5958341,
        "tags": {
          "amenity": "cafe",
          "check_date": "2024-10-07",
          "name": "BMJH Cafe",
          "wheelchair": "yes"
        }
      },
      {
        "type": "node",
        "id": 12260570016,
        "lat": 12.9864317,
        "lon": 77.5952943,
        "tags": {
          "amenity": "restaurant",
          "cuisine": "mediterranean",
          "level": "0",
          "name": "Maffei Kitchen",
          "toilets": "yes",
          "website": "https://www.maffei.in/"
        }
      },
      {
        "type": "node",
        "id": 12369618199,
        "lat": 12.9873412,
        "lon": 77.5934346,
        "tags": {
          "addr:city": "Bengaluru",
          "addr:street": "Cunningham Road",
          "addr:suburb": "Vasanth Nagar",
          "amenity": "cafe",
          "check_date": "2024-12-25",
          "contact:instagram": "maverickandfarmer",
          "cuisine": "coffee_shop",
          "delivery": "yes",
          "internet_access": "yes",
          "name": "Maverick and Farmer Coffee",
          "outdoor_seating": "yes",
          "takeaway": "yes",
          "toilets": "yes",
          "website": "https://www.maverickandfarmer.com/"
        }
      },
      {
        "type": "node",
        "id": 12401325625,
        "lat": 12.9857934,
        "lon": 77.5957495,
        "tags": {
          "amenity": "pharmacy",
          "check_date": "2024-12-07",
          "healthcare": "pharmacy",
          "name": "ThinkCare Pharma"
        }
      },
      {
        "type": "node",
        "id": 12409252953,
        "lat": 12.9864387,
        "lon": 77.594938,
        "tags": {
          "amenity": "cafe",
          "check_date": "2024-12-10",
          "name": "Ovenly Bliss"
        }
      },
      {
        "type": "node",
        "id": 12507236091,
        "lat": 12.9838037,
        "lon": 77.6034294,
        "tags": {
          "amenity": "atm"
        }
      },
      {
        "type": "node",
        "id": 12538083621,
        "lat": 12.9776263,
        "lon": 77.5878847,
        "tags": {
          "amenity": "fast_food",
          "name": "Canteen"
        }
      },
      {
        "type": "node",
        "id": 12674329834,
        "lat": 12.9847521,
        "lon": 77.5970662,
        "tags": {
          "air_conditioning": "no",
          "amenity": "restaurant",
          "cuisine": "chinese;south_indian",
          "name": "Aaha Thindi",
          "outdoor_seating": "no",
          "self_service": "yes",
          "toilets:access": "permissive",
          "wheelchair": "no"
        }
      },
      {
        "type": "node",
        "id": 12686350437,
        "lat": 12.9812089,
        "lon": 77.6020482,
        "tags": {
          "amenity": "clinic",
          "check_date": "2025-03-21",
          "healthcare": "clinic",
          "name": "Celera Diagnostics"
        }
      },
      {
        "type": "node",
        "id": 12686350457,
        "lat": 12.9836392,
        "lon": 77.5855122,
        "tags": {
          "amenity": "atm",
          "brand": "Union Bank of India",
          "brand:wikidata": "Q2004078",
          "check_date": "2025-03-21",
          "operator": "Union Bank of India",
          "operator:wikidata": "Q2004078"
        }
      },
      {
        "type": "node",
        "id": 12695892237,
        "lat": 12.9896019,
        "lon": 77.5993579,
        "tags": {
          "amenity": "fast_food",
          "check_date": "2025-03-24",
          "name": "KGN Biriyani Point"
        }
      },
      {
        "type": "node",
        "id": 12695892238,
        "lat": 12.9892976,
        "lon": 77.5992852,
        "tags": {
          "amenity": "fast_food",
          "check_date": "2025-03-24",
          "name": "Al Madiinah Biryani Store"
        }
      },
      {
        "type": "node",
        "id": 12695892239,
        "lat": 12.9887509,
        "lon": 77.5990782,
        "tags": {
          "amenity": "fast_food",
          "check_date": "2025-03-24",
          "name": "Bangalore Thindies"
        }
      },
      {
        "type": "node",
        "id": 12695892242,
        "lat": 12.9878162,
        "lon": 77.5987746,
        "tags": {
          "amenity": "fast_food",
          "check_date": "2025-03-24",
          "name": "Shahi Kabab Roll Centre"
        }
      },
      {
        "type": "node",
        "id": 12695892245,
        "lat": 12.9874974,
        "lon": 77.5986568,
        "tags": {
          "amenity": "fast_food",
          "check_date": "2025-03-24",
          "name": "Santosh Pan Paradise and Fresh Juices"
        }
      },
      {
        "type": "node",
        "id": 12695892246,
        "lat": 12.9868761,
        "lon": 77.5984573,
        "tags": {
          "amenity": "clinic",
          "check_date": "2025-03-24",
          "healthcare": "clinic",
          "name": "Aster Labs"
        }
      },
      {
        "type": "node",
        "id": 12809397080,
        "lat": 12.9885226,
        "lon": 77.5940846,
        "tags": {
          "amenity": "restaurant",
          "cuisine": "pizza",
          "name": "Serious Slice",
          "toilets": "yes"
        }
      },
      {
        "type": "node",
        "id": 13013588705,
        "lat": 12.9864023,
        "lon": 77.5953117,
        "tags": {
          "amenity": "restaurant",
          "cuisine": "indian",
          "level": "1",
          "name": "Svarasa"
        }
      },
      {
        "type": "node",
        "id": 13023088269,
        "lat": 12.983093,
        "lon": 77.5967084,
        "tags": {
          "addr:floor": "1",
          "amenity": "cafe",
          "check_date": "2025-07-25",
          "level": "1",
          "name": "The Green Door Coffee House"
        }
      },
      {
        "type": "node",
        "id": 13086275903,
        "lat": 12.9865219,
        "lon": 77.5952104,
        "tags": {
          "amenity": "restaurant",
          "name": "Thirtha"
        }
      }
    ]
  },
  "pois_2_5km": {
    "version": 0.6,
    "generator": "Overpass API 0.7.62.8 e802775f",
    "osm3s": {
      "timestamp_osm_base": "2025-09-06T08:07:15Z",
      "copyright": "The data included in this document is from www.openstreetmap.org. The data is made available under ODbL."
    },
    "elements": [
      {
        "type": "node",
        "id": 60952264,
        "lat": 12.9698611,
        "lon": 77.6029825,
        "tags": {
          "bus": "yes",
          "name": "St. Joseph's College",
          "name:en": "St. Joseph's College",
          "name:kn": "\u0cb8\u0cc7\u0c82\u0c9f\u0ccd \u0c9c\u0ccb\u0cb8\u0cc6\u0cab\u0ccd\u0cb8\u0ccd \u0c95\u0cbe\u0cb2\u0cc7\u0c9c\u0cc1",
          "network": "BMTC",
          "operator": "BMTC",
          "public_transport": "stop_position"
        }
      },
      {
        "type": "node",
        "id": 246397026,
        "lat": 12.9936865,
        "lon": 77.5980003,
        "tags": {
          "internet_access": "wlan",
          "name": "Bangalore Cantonment",
          "name:kn": "\u0cac\u0cc6\u0c82\u0c97\u0cb3\u0cc2\u0cb0\u0cc1 (\u0c95\u0c82\u0c9f\u0cca\u0ca8\u0ccd\u0cae\u0cc6\u0c82\u0c9f\u0ccd)",
          "name:ml": "\u0d2c\u0d46\u0d02\u0d17\u0d33\u0d42\u0d30\u0d41 \u0d15\u0d28\u0d4d\u0d31\u0d4b\u0d7a\u0d2e\u0d46\u0d28\u0d4d\u0d31\u0d4d",
          "network": "IR",
          "operator": "SWR",
          "railway": "station",
          "ref": "BNC",
          "wheelchair": "yes",
          "wikidata": "Q17049564",
          "wikipedia": "en:Bangalore Cantonment railway station"
        }
      },
      {
        "type": "node",
        "id": 347295648,
        "lat": 12.9783665,
        "lon": 77.5730556,
        "tags": {
          "bus": "yes",
          "name": "Platform 23",
          "operator": "BMTC",
          "public_transport": "stop_position"
        }
      },
      {
        "type": "node",
        "id": 429698093,
        "lat": 12.9766767,
        "lon": 77.5766838,
        "tags": {
          "amenity": "theatre",
          "name": "Gubbi Veerana Nataka",
          "name:kn": "\u0c97\u0cc1\u0cac\u0ccd\u0cac\u0cbf \u0cb5\u0cc0\u0cb0\u0ca3\u0ccd\u0ca3 \u0ca8\u0cbe\u0c9f\u0c95"
        }
      },
      {
        "type": "node",
        "id": 459815970,
        "lat": 12.9692233,
        "lon": 77.5984978,
        "tags": {
          "air_conditioning": "yes",
          "amenity": "theatre",
          "name": "Bishop George Edward Lynch Cotton Auditorium",
          "source": "local knowledge;survey",
          "website": "https://bishopcottonboysschool.edu.in/infrastructure",
          "wikimedia_commons": "File:Cottons_Auditorium.jpg"
        }
      },
      {
        "type": "node",
        "id": 568344479,
        "lat": 12.9779727,
        "lon": 77.5911088,
        "tags": {
          "code": "VDSA",
          "local_ref": "2",
          "name": "Dr. B. R. Ambedkar Station, Vidhana Soudha",
          "name:etymology:wikidata": "Q231690",
          "name:kn": "\u0cb5\u0cbf\u0ca7\u0cbe\u0ca8 \u0cb8\u0ccc\u0ca7",
          "network": "Namma Metro",
          "note": "Contributors are requested to not edit the \"network\" and the \"operator\" tags. (2023/11/08)",
          "operator": "Bangalore Metro Rail Corporation Limited",
          "public_transport": "stop_position",
          "public_transport:version": "2",
          "railway": "stop",
          "source": "http://www.bmrc.co.in/English/Network.htm",
          "subway": "yes",
          "to": "Challaghatta",
          "wheelchair": "yes"
        }
      },
      {
        "type": "node",
        "id": 663195620,
        "lat": 12.9758832,
        "lon": 77.5968704,
        "tags": {
          "amenity": "theatre",
          "name": "Bal Bhavan Auditorium"
        }
      },
      {
        "type": "node",
        "id": 663313913,
        "lat": 12.9758396,
        "lon": 77.5985677,
        "tags": {
          "addr:street": "Kasturba Road",
          "amenity": "fuel",
          "brand": "Bharat Petroleum",
          "brand:wikidata": "Q854826",
          "compressed_air": "yes",
          "name": "Bharat Petroleum",
          "name:kn": "\u0cad\u0cbe\u0cb0\u0ca4\u0ccd \u0caa\u0cc6\u0c9f\u0ccd\u0cb0\u0ccb\u0cb2\u0cbf\u0caf\u0c82"
        }
      },
      {
        "type": "node",
        "id": 663596610,
        "lat": 12.9839163,
        "lon": 77.5973764,
        "tags": {
          "alt_name": "Balekundri Circle",
          "bus": "yes",
          "highway": "bus_stop",
          "name": "Indian Express",
          "name:en": "Indian Express",
          "name:kn": "\u0c87\u0c82\u0ca1\u0cbf\u0caf\u0ca8\u0ccd \u0c8e\u0c95\u0ccd\u0cb8\u0caa\u0ccd\u0cb0\u0cc6\u0cb8\u0ccd",
          "network": "BMTC",
          "network:wikidata": "Q3345039",
          "operator": "BMTC",
          "public_transport": "stop_position"
        }
      },
      {
        "type": "node",
        "id": 663599423,
        "lat": 12.9725456,
        "lon": 77.5862547,
        "tags": {
          "addr:street": "Nrupathunga Road",
          "amenity": "theatre",
          "name": "Daly Memorial Hall"
        }
      },
      {
        "type": "node",
        "id": 665811373,
        "lat": 12.9737987,
        "lon": 77.5866865,
        "tags": {
          "bus": "yes",
          "name": "KR Circle",
          "name:en": "KR Circle",
          "name:kn": "\u0c95\u0cc3\u0cb7\u0ccd\u0ca3\u0cb0\u0cbe\u0c9c\u0cc7\u0c82\u0ca6\u0ccd\u0cb0 \u0cb5\u0cc3\u0ca4\u0ccd\u0ca4",
          "network": "BMTC",
          "operator": "BMTC",
          "public_transport": "stop_position"
        }
      },
      {
        "type": "node",
        "id": 850782876,
        "lat": 12.9756285,
        "lon": 77.6062979,
        "tags": {
          "alt_name": "Plaza Theatre Metro Station",
          "code": "MAGR",
          "int_name": "Mahatma Gandhi Road Metro",
          "local_ref": "2",
          "name": "Mahatma Gandhi Road",
          "name:etymology:wikidata": "Q1001",
          "name:kn": "\u0cae\u0cb9\u0cbe\u0ca4\u0ccd\u0cae \u0c97\u0cbe\u0c82\u0ca7\u0cbf \u0cb0\u0cb8\u0ccd\u0ca4\u0cc6",
          "network": "Namma Metro",
          "note": "Contributors are requested to not edit the \"network\" and the \"operator\" tags. (2023/11/08)",
          "operator": "Bangalore Metro Rail Corporation Limited",
          "public_transport": "stop_position",
          "public_transport:version": "2",
          "railway": "stop",
          "short_name": "MG Road",
          "source": "http://www.bmrc.co.in/English/Network.htm",
          "start_date": "20-10-2011",
          "subway": "yes",
          "to": "Challaghatta",
          "wheelchair": "yes"
        }
      },
      {
        "type": "node",
        "id": 1065137172,
        "lat": 12.9698334,
        "lon": 77.6098091,
        "tags": {
          "addr:housename": "Garuda Mall",
          "addr:street": "Commissariat Road",
          "amenity": "cinema",
          "brand": "INOX Leisure",
          "brand:wikidata": "Q5972349",
          "drive_in": "no",
          "name": "INOX Garuda Mall",
          "screen": "5",
          "short_name": "INOX"
        }
      },
      {
        "type": "node",
        "id": 1087823607,
        "lat": 12.9745014,
        "lon": 77.5842326,
        "tags": {
          "alt_name": "Central College",
          "code": "VSWA",
          "name": "Sir M. Visvesvaraya Stn., Central College",
          "name:kn": "\u0cb5\u0cbf\u0cb6\u0ccd\u0cb5\u0cc7\u0cb6\u0ccd\u0cb5\u0cb0\u0caf\u0ccd\u0caf",
          "network": "Namma Metro",
          "note": "Contributors are requested to not edit the \"network\" and the \"operator\" tags. (2023/11/08)",
          "operator": "Bangalore Metro Rail Corporation Limited",
          "platforms": "2",
          "public_transport": "stop_position",
          "public_transport:version": "2",
          "railway": "stop",
          "source": "http://www.bmrc.co.in/English/Network.htm",
          "subway": "yes",
          "wheelchair": "yes"
        }
      },
      {
        "type": "node",
        "id": 1290036140,
        "lat": 12.9950213,
        "lon": 77.5964919,
        "tags": {
          "addr:street": "Millers Road",
          "amenity": "fuel"
        }
      },
      {
        "type": "node",
        "id": 1363295014,
        "lat": 12.9895632,
        "lon": 77.5877862,
        "tags": {
          "amenity": "theatre",
          "name": "NGMA Auditorium"
        }
      },
      {
        "type": "node",
        "id": 1469265737,
        "lat": 12.98516,
        "lon": 77.6016342,
        "tags": {
          "amenity": "cinema",
          "name": "Elgin Cinema",
          "name:kn": "\u0c8e\u0cb2\u0ccd\u0c97\u0cbf\u0ca8\u0ccd \u0cb8\u0cbf\u0ca8\u0cc6\u0cae\u0cbe"
        }
      },
      {
        "type": "node",
        "id": 1614366547,
        "lat": 12.9883033,
        "lon": 77.5774436,
        "tags": {
          "amenity": "fuel",
          "brand": "Bharat Petroleum",
          "brand:wikidata": "Q854826",
          "name": "Bharat Petroleum",
          "name:kn": "\u0cad\u0cbe\u0cb0\u0ca4\u0ccd \u0caa\u0cc6\u0c9f\u0ccd\u0cb0\u0ccb\u0cb2\u0cbf\u0caf\u0c82",
          "wheelchair": "yes"
        }
      },
      {
        "type": "node",
        "id": 1809856714,
        "lat": 12.9744138,
        "lon": 77.6095784,
        "tags": {
          "amenity": "cinema",
          "check_date": "2024-08-19",
          "name": "Swagath ShankarNag Chitramandira"
        }
      },
      {
        "type": "node",
        "id": 1837823370,
        "lat": 12.9993649,
        "lon": 77.6093821,
        "tags": {
          "bus": "yes",
          "name": "Harris Road",
          "name:en": "Harris Road",
          "network": "BMTC",
          "operator": "BMTC",
          "public_transport": "stop_position"
        }
      },
      {
        "type": "node",
        "id": 2394045745,
        "lat": 12.9878348,
        "lon": 77.5743169,
        "tags": {
          "bus": "yes",
          "name": "Swastik Sheshadripuram College",
          "name:en": "Swastik Sheshadripuram College",
          "network": "BMTC",
          "operator": "BMTC",
          "public_transport": "stop_position"
        }
      },
      {
        "type": "node",
        "id": 2396420234,
        "lat": 12.9702144,
        "lon": 77.6051485,
        "tags": {
          "bus": "yes",
          "highway": "bus_stop",
          "name": "St Patrick's Church",
          "name:en": "St Patrick's Church",
          "name:kn": "\u0cb8\u0cc7\u0c82\u0c9f\u0ccd \u0caa\u0cbe\u0c9f\u0ccd\u0cb0\u0cbf\u0c95\u0ccd\u0cb8\u0ccd \u0c9a\u0cb0\u0ccd\u0c9a\u0ccd",
          "network": "BMTC",
          "network:wikidata": "Q3345039",
          "operator": "BMTC",
          "public_transport": "stop_position"
        }
      },
      {
        "type": "node",
        "id": 2397089966,
        "lat": 12.9834359,
        "lon": 77.5971078,
        "tags": {
          "bus": "yes",
          "local_ref": "BALEKUNDRI CIRCLE",
          "name": "Indian Express",
          "name:en": "Indian Express",
          "name:kn": "\u0cb5\u0cb8\u0c82\u0ca4 \u0ca8\u0c97\u0cb0",
          "network": "BMTC",
          "operator": "BMTC",
          "public_transport": "stop_position"
        }
      },
      {
        "type": "node",
        "id": 2466476118,
        "lat": 12.9765112,
        "lon": 77.5799146,
        "tags": {
          "amenity": "fuel",
          "brand": "Bharat Petroleum",
          "brand:wikidata": "Q854826",
          "check_date": "2024-03-02",
          "compressed_air": "yes",
          "name": "Bharat Petroleum",
          "operator": "Chanders"
        }
      },
      {
        "type": "node",
        "id": 2467854906,
        "lat": 12.9873459,
        "lon": 77.5723926,
        "tags": {
          "amenity": "fuel",
          "name": "Vijees Auto Gas"
        }
      },
      {
        "type": "node",
        "id": 2476128053,
        "lat": 12.9782608,
        "lon": 77.5729,
        "tags": {
          "bus": "yes",
          "name": "Platform 12",
          "operator": "BMTC",
          "public_transport": "stop_position"
        }
      },
      {
        "type": "node",
        "id": 3198633191,
        "lat": 12.9869097,
        "lon": 77.5789251,
        "tags": {
          "bus": "yes",
          "highway": "bus_stop",
          "loc_name": "VASANTHA NAGARA",
          "name": "Shivananda Stores",
          "name:en": "Shivananda Stores",
          "network": "BMTC",
          "operator": "BMTC",
          "public_transport": "stop_position"
        }
      },
      {
        "type": "node",
        "id": 3343297219,
        "lat": 12.9808954,
        "lon": 77.597562,
        "tags": {
          "code": "CBPK",
          "name": "Cubbon Park",
          "name:etymology:wikidata": "Q6767214",
          "name:hi": "\u0915\u092c\u0928 \u092a\u093e\u0930\u094d\u0915",
          "name:kn": "\u0c95\u0cac\u0ccd\u0cac\u0ca8\u0ccd \u0caa\u0cbe\u0cb0\u0ccd\u0c95\u0ccd",
          "network": "Namma Metro",
          "note": "Contributors are requested to not edit the \"network\" and the \"operator\" tags. (2023/11/08)",
          "operator": "Bangalore Metro Rail Corporation Limited",
          "platforms": "2",
          "public_transport": "stop_position",
          "public_transport:version": "2",
          "railway": "stop",
          "source": "http://www.bmrc.co.in/English/Network.htm",
          "subway": "yes",
          "wheelchair": "yes",
          "wikidata": "Q5192189",
          "wikipedia": "en:Cubbon Park metro station"
        }
      },
      {
        "type": "node",
        "id": 3755608905,
        "lat": 12.9786086,
        "lon": 77.5725521,
        "tags": {
          "bus": "yes",
          "name": "Platform 21",
          "operator": "BMTC",
          "public_transport": "stop_position"
        }
      },
      {
        "type": "node",
        "id": 3875744057,
        "lat": 12.9777644,
        "lon": 77.5728494,
        "tags": {
          "bus": "yes",
          "name": "Platform 1",
          "name:kn": "\u0c85\u0c82\u0c95\u0ca3 \u0ce7",
          "operator": "BMTC",
          "public_transport": "stop_position"
        }
      },
      {
        "type": "node",
        "id": 3875744058,
        "lat": 12.9779442,
        "lon": 77.5727259,
        "tags": {
          "bus": "yes",
          "name": "Platform 2",
          "name:kn": "\u0c85\u0c82\u0c95\u0ca3 \u0ce8",
          "operator": "BMTC",
          "public_transport": "stop_position"
        }
      },
      {
        "type": "node",
        "id": 3875768038,
        "lat": 12.9780562,
        "lon": 77.5725348,
        "tags": {
          "bus": "yes",
          "name": "Platform 3",
          "name:kn": "\u0c85\u0c82\u0c95\u0ca3 \u0ce9",
          "operator": "BMTC",
          "public_transport": "stop_position"
        }
      },
      {
        "type": "node",
        "id": 3875768039,
        "lat": 12.9780653,
        "lon": 77.5722489,
        "tags": {
          "bus": "yes",
          "name": "Platform 3A",
          "operator": "BMTC",
          "public_transport": "stop_position"
        }
      },
      {
        "type": "node",
        "id": 3875790067,
        "lat": 12.9781429,
        "lon": 77.5720401,
        "tags": {
          "bus": "yes",
          "name": "Platform 6A",
          "name:kn": "\u0cb5\u0cc7\u0ca6\u0cbf\u0c95\u0cc6 \u0cec\u0c8e",
          "operator": "BMTC",
          "public_transport": "stop_position"
        }
      },
      {
        "type": "node",
        "id": 3875790068,
        "lat": 12.9781992,
        "lon": 77.5721632,
        "tags": {
          "bus": "yes",
          "name": "Platform 7",
          "name:kn": "\u0cb5\u0cc7\u0ca6\u0cbf\u0c95\u0cc6 \u0ced",
          "operator": "BMTC",
          "public_transport": "stop_position"
        }
      },
      {
        "type": "node",
        "id": 3875790069,
        "lat": 12.9782295,
        "lon": 77.5722952,
        "tags": {
          "bus": "yes",
          "name": "Platform 8",
          "name:kn": "\u0cb5\u0cc7\u0ca6\u0cbf\u0c95\u0cc6 \u0cee",
          "operator": "BMTC",
          "public_transport": "stop_position"
        }
      },
      {
        "type": "node",
        "id": 3875790070,
        "lat": 12.9782221,
        "lon": 77.5725112,
        "tags": {
          "bus": "yes",
          "name": "Platform 8A",
          "name:kn": "\u0cb5\u0cc7\u0ca6\u0cbf\u0c95\u0cc6 \u0cee\u0c8e",
          "operator": "BMTC",
          "public_transport": "stop_position"
        }
      },
      {
        "type": "node",
        "id": 3997461617,
        "lat": 12.9764416,
        "lon": 77.6032781,
        "tags": {
          "addr:street": "Mahatma Gandhi Road",
          "amenity": "theatre",
          "name": "Rangasthala Auditorium",
          "name:kn": "\u0cb0\u0c82\u0c97\u0cb8\u0ccd\u0ca5\u0cb3 \u0cb8\u0cad\u0cbe\u0c82\u0c97\u0ca3"
        }
      },
      {
        "type": "node",
        "id": 4362379252,
        "lat": 12.996341,
        "lon": 77.5999117,
        "tags": {
          "amenity": "theatre",
          "name": "Tagore Hall"
        }
      },
      {
        "type": "node",
        "id": 4395689916,
        "lat": 12.9650035,
        "lon": 77.6001039,
        "tags": {
          "amenity": "theatre",
          "name": "Montgomery Hall",
          "name:en": "Montgomery Hall"
        }
      },
      {
        "type": "node",
        "id": 5305932617,
        "lat": 12.9756704,
        "lon": 77.5728057,
        "tags": {
          "alt_name": "Majestic Metro Station",
          "code": "KGWA",
          "layer": "-1",
          "level": "-1",
          "name": "Nadaprabhu Kempegowda Station, Majestic (Purple Line)",
          "name:etymology:wikidata": "Q6387049",
          "name:kn": "\u0c95\u0cc6\u0c82\u0caa\u0cc7\u0c97\u0ccc\u0ca1",
          "network": "Namma Metro",
          "note": "Contributors are requested to not edit the \"network\" and the \"operator\" tags. (2023/11/08)",
          "operator": "Bangalore Metro Rail Corporation Limited",
          "public_transport": "stop_position",
          "public_transport:version": "2",
          "railway": "stop",
          "source": "http://www.bmrc.co.in/English/Network.htm",
          "subway": "yes",
          "wheelchair": "yes"
        }
      },
      {
        "type": "node",
        "id": 5335240455,
        "lat": 12.9771006,
        "lon": 77.5857758,
        "tags": {
          "bus": "yes",
          "highway": "bus_stop",
          "name": "Maharani College, KR Circle",
          "network": "BMTC",
          "network:wikidata": "Q3345039",
          "operator": "BMTC",
          "public_transport": "stop_position"
        }
      },
      {
        "type": "node",
        "id": 5464787094,
        "lat": 12.9750646,
        "lon": 77.5730388,
        "tags": {
          "alt_name": "Majestic Metro Station",
          "code": "KGWA",
          "layer": "-2",
          "level": "-2",
          "name": "Nadaprabhu Kempegowda Station, Majestic (Green Line)",
          "name:etymology:wikidata": "Q6387049",
          "name:kn": "\u0c95\u0cc6\u0c82\u0caa\u0cc7\u0c97\u0ccc\u0ca1",
          "network": "Namma Metro",
          "note": "Contributors are requested to not edit the \"network\" and the \"operator\" tags. (2023/11/08)",
          "operator": "Bangalore Metro Rail Corporation Limited",
          "public_transport": "stop_position",
          "public_transport:version": "2",
          "railway": "stop",
          "source": "http://www.bmrc.co.in/English/Network.htm",
          "subway": "yes",
          "wheelchair": "yes"
        }
      },
      {
        "type": "node",
        "id": 5560544561,
        "lat": 12.9678731,
        "lon": 77.5906692,
        "tags": {
          "bus": "yes",
          "name": "Hudson Circle",
          "name:en": "Hudson Circle",
          "name:kn": "\u0cb9\u0ca1\u0ccd\u0cb8\u0ca8\u0ccd \u0cb5\u0cc3\u0ca4\u0ccd\u0ca4",
          "network": "BMTC",
          "operator": "BMTC",
          "public_transport": "stop_position"
        }
      },
      {
        "type": "node",
        "id": 5760197795,
        "lat": 12.9754288,
        "lon": 77.6072648,
        "tags": {
          "alt_name": "Plaza Theatre Metro Station",
          "code": "MAGR",
          "int_name": "Mahatma Gandhi Road Metro",
          "local_ref": "1",
          "name": "Mahatma Gandhi Road",
          "name:etymology:wikidata": "Q1001",
          "name:kn": "\u0cae\u0cb9\u0cbe\u0ca4\u0ccd\u0cae \u0c97\u0cbe\u0c82\u0ca7\u0cbf \u0cb0\u0cb8\u0ccd\u0ca4\u0cc6",
          "network": "Namma Metro",
          "note": "Contributors are requested to not edit the \"network\" and the \"operator\" tags. (2023/11/08)",
          "operator": "Bangalore Metro Rail Corporation Limited",
          "public_transport": "stop_position",
          "public_transport:version": "2",
          "railway": "stop",
          "short_name": "MG Road",
          "source": "http://www.bmrc.co.in/English/Network.htm",
          "start_date": "20-10-2011",
          "subway": "yes",
          "to": "Whitefield (Kadugodi)",
          "wheelchair": "yes"
        }
      },
      {
        "type": "node",
        "id": 5760197798,
        "lat": 12.9809794,
        "lon": 77.5975758,
        "tags": {
          "code": "CBPK",
          "name": "Cubbon Park",
          "name:etymology:wikidata": "Q6767214",
          "name:hi": "\u0915\u092c\u0928 \u092a\u093e\u0930\u094d\u0915",
          "name:kn": "\u0c95\u0cac\u0ccd\u0cac\u0ca8\u0ccd \u0caa\u0cbe\u0cb0\u0ccd\u0c95\u0ccd",
          "network": "Namma Metro",
          "note": "Contributors are requested to not edit the \"network\" and the \"operator\" tags. (2023/11/08)",
          "operator": "Bangalore Metro Rail Corporation Limited",
          "platforms": "2",
          "public_transport": "stop_position",
          "public_transport:version": "2",
          "railway": "stop",
          "source": "http://www.bmrc.co.in/English/Network.htm",
          "subway": "yes",
          "wheelchair": "yes",
          "wikidata": "Q5192189",
          "wikipedia": "en:Cubbon Park metro station"
        }
      },
      {
        "type": "node",
        "id": 5760197799,
        "lat": 12.978996,
        "lon": 77.591831,
        "tags": {
          "code": "VDSA",
          "local_ref": "1",
          "name": "Dr. B. R. Ambedkar Station, Vidhana Soudha",
          "name:etymology:wikidata": "Q231690",
          "name:kn": "\u0cb5\u0cbf\u0ca7\u0cbe\u0ca8 \u0cb8\u0ccc\u0ca7",
          "network": "Namma Metro",
          "note": "Contributors are requested to not edit the \"network\" and the \"operator\" tags. (2023/11/08)",
          "operator": "Bangalore Metro Rail Corporation Limited",
          "public_transport": "stop_position",
          "public_transport:version": "2",
          "railway": "stop",
          "source": "http://www.bmrc.co.in/English/Network.htm",
          "subway": "yes",
          "to": "Whitefield (Kadugodi)",
          "wheelchair": "yes"
        }
      },
      {
        "type": "node",
        "id": 5760197800,
        "lat": 12.9757512,
        "lon": 77.5730887,
        "tags": {
          "alt_name": "Majestic Metro Station",
          "code": "KGWA",
          "layer": "-1",
          "level": "-1",
          "name": "Nadaprabhu Kempegowda Station, Majestic (Purple Line)",
          "name:etymology:wikidata": "Q6387049",
          "name:kn": "\u0c95\u0cc6\u0c82\u0caa\u0cc7\u0c97\u0ccc\u0ca1",
          "network": "Namma Metro",
          "note": "Contributors are requested to not edit the \"network\" and the \"operator\" tags. (2023/11/08)",
          "operator": "Bangalore Metro Rail Corporation Limited",
          "public_transport": "stop_position",
          "public_transport:version": "2",
          "railway": "stop",
          "source": "http://www.bmrc.co.in/English/Network.htm",
          "subway": "yes",
          "wheelchair": "yes"
        }
      },
      {
        "type": "node",
        "id": 5760197802,
        "lat": 12.9745398,
        "lon": 77.584209,
        "tags": {
          "alt_name": "Central College",
          "code": "VSWA",
          "name": "Sir M. Visvesvaraya Stn., Central College",
          "name:kn": "\u0cb5\u0cbf\u0cb6\u0ccd\u0cb5\u0cc7\u0cb6\u0ccd\u0cb5\u0cb0\u0caf\u0ccd\u0caf",
          "network": "Namma Metro",
          "note": "Contributors are requested to not edit the \"network\" and the \"operator\" tags. (2023/11/08)",
          "operator": "Bangalore Metro Rail Corporation Limited",
          "platforms": "2",
          "public_transport": "stop_position",
          "public_transport:version": "2",
          "railway": "stop",
          "source": "http://www.bmrc.co.in/English/Network.htm",
          "subway": "yes",
          "wheelchair": "yes"
        }
      },
      {
        "type": "node",
        "id": 5760198468,
        "lat": 12.9759557,
        "lon": 77.5728675,
        "tags": {
          "alt_name": "Majestic Metro Station",
          "code": "KGWA",
          "layer": "-2",
          "level": "-2",
          "name": "Nadaprabhu Kempegowda Station, Majestic (Green Line)",
          "name:etymology:wikidata": "Q6387049",
          "name:kn": "\u0c95\u0cc6\u0c82\u0caa\u0cc7\u0c97\u0ccc\u0ca1",
          "network": "Namma Metro",
          "note": "Contributors are requested to not edit the \"network\" and the \"operator\" tags. (2023/11/08)",
          "operator": "Bangalore Metro Rail Corporation Limited",
          "public_transport": "stop_position",
          "public_transport:version": "2",
          "railway": "stop",
          "source": "http://www.bmrc.co.in/English/Network.htm",
          "subway": "yes",
          "wheelchair": "yes"
        }
      },
      {
        "type": "node",
        "id": 6400857554,
        "lat": 12.9755264,
        "lon": 77.6067902,
        "tags": {
          "alt_name": "Plaza Theatre Metro Station",
          "code": "MAGR",
          "layer": "1",
          "lit": "yes",
          "name": "Mahatma Gandhi Road",
          "name:kn": "\u0cae\u0cb9\u0cbe\u0ca4\u0ccd\u0cae \u0c97\u0cbe\u0c82\u0ca7\u0cbf \u0cb0\u0cb8\u0ccd\u0ca4\u0cc6",
          "name:ta": "\u0bae\u0b95\u0bbe\u0ba4\u0bcd\u0bae\u0bbe \u0b95\u0bbe\u0ba8\u0bcd\u0ba4\u0bbf \u0b9a\u0bbe\u0bb2\u0bc8",
          "network": "Namma Metro",
          "note": "Contributors are requested to not edit the \"network\" and the \"operator\" tags. (2023/11/08)",
          "operator": "Bangalore Metro Rail Corporation Limited",
          "platforms": "2",
          "public_transport": "station",
          "public_transport:version": "2",
          "railway": "station",
          "shelter": "yes",
          "short_name": "MG Road",
          "start_date": "20-10-2011",
          "station": "subway",
          "subway": "yes",
          "website": "https://english.brmc.co.in",
          "wheelchair": "yes",
          "wikidata": "Q5539354",
          "wikipedia": "en:Mahatma Gandhi Road metro station (Bangalore)"
        }
      },
      {
        "type": "node",
        "id": 6400857555,
        "lat": 12.9809575,
        "lon": 77.5975756,
        "tags": {
          "code": "CBPK",
          "name": "Cubbon Park",
          "name:etymology:wikidata": "Q6767214",
          "name:hi": "\u0915\u092c\u0928 \u092a\u093e\u0930\u094d\u0915",
          "name:kn": "\u0c95\u0cac\u0ccd\u0cac\u0ca8\u0ccd \u0caa\u0cbe\u0cb0\u0ccd\u0c95\u0ccd",
          "name:ml": "\u0d15\u0d2c\u0d4d\u0d2c\u0d7a \u0d2a\u0d3e\u0d7c\u0d15\u0d4d\u0d15\u0d4d",
          "network": "Namma Metro",
          "note": "Contributors are requested to not edit the \"network\" and the \"operator\" tags. (2023/11/08)",
          "operator": "Bangalore Metro Rail Corporation Limited",
          "public_transport": "station",
          "public_transport:version": "2",
          "railway": "station",
          "shelter": "yes",
          "station": "subway",
          "subway": "yes",
          "tunnel": "yes",
          "website": "https://english.brmc.co.in",
          "wheelchair": "yes"
        }
      },
      {
        "type": "node",
        "id": 6400857556,
        "lat": 12.9787419,
        "lon": 77.5916385,
        "tags": {
          "code": "VDSA",
          "name": "Dr. B. R. Ambedkar Station, Vidhana Soudha",
          "name:kn": "\u0ca1\u0cbe.\u0cac\u0cbf.\u0c86\u0cb0\u0ccd. \u0c85\u0c82\u0cac\u0cc7\u0ca1\u0ccd\u0c95\u0cb0\u0ccd \u0ca0\u0cbe\u0ca3\u0cc6, \u0cb5\u0cbf\u0ca7\u0cbe\u0ca8\u0cb8\u0ccc\u0ca7",
          "name:ml": "\u0d21\u0d4b.\u0d2c\u0d3f.\u0d06\u0d7c. \u0d05\u0d02\u0d2c\u0d47\u0d26\u0d4d\u0d15\u0d7c \u0d38\u0d4d\u0d31\u0d4d\u0d31\u0d47\u0d37\u0d7b, \u0d35\u0d3f\u0d27\u0d3e\u0d28 \u0d38\u0d57\u0d27",
          "network": "Namma Metro",
          "note": "Contributors are requested to not edit the \"network\" and the \"operator\" tags. (2023/11/08)",
          "operator": "Bangalore Metro Rail Corporation Limited",
          "public_transport": "station",
          "public_transport:version": "2",
          "railway": "station",
          "shelter": "yes",
          "station": "subway",
          "subway": "yes",
          "tunnel": "yes",
          "website": "https://english.brmc.co.in",
          "wheelchair": "yes"
        }
      },
      {
        "type": "node",
        "id": 6400857557,
        "lat": 12.9745197,
        "lon": 77.58422,
        "tags": {
          "alt_name": "Central College",
          "code": "VSWA",
          "name": "Sir M. Visvesvaraya Stn., Central College",
          "name:kn": "\u0cb8\u0cb0\u0ccd \u0c8e\u0c82 \u0cb5\u0cbf\u0cb6\u0ccd\u0cb5\u0cc7\u0cb6\u0ccd\u0cb5\u0cb0\u0caf\u0ccd\u0caf - \u0cb8\u0cc6\u0c82\u0c9f\u0ccd\u0cb0\u0cb2\u0ccd \u0c95\u0cbe\u0cb2\u0cc7\u0c9c\u0cc1",
          "name:ml": "\u0d38\u0d7c \u0d0e\u0d02 \u0d35\u0d3f\u0d36\u0d4d\u0d35\u0d47\u0d36\u0d4d\u0d35\u0d30\u0d2f\u0d4d\u0d2f - \u0d38\u0d46\u0d7b\u0d1f\u0d4d\u0d30\u0d7d \u0d15\u0d4b\u0d33\u0d47\u0d1c\u0d4d",
          "network": "Namma Metro",
          "note": "Contributors are requested to not edit the \"network\" and the \"operator\" tags. (2023/11/08)",
          "operator": "Bangalore Metro Rail Corporation Limited",
          "public_transport": "station",
          "public_transport:version": "2",
          "railway": "station",
          "shelter": "yes",
          "station": "subway",
          "subway": "yes",
          "tunnel": "yes",
          "website": "https://english.brmc.co.in",
          "wheelchair": "yes"
        }
      },
      {
        "type": "node",
        "id": 6400857558,
        "lat": 12.9757079,
        "lon": 77.5728757,
        "tags": {
          "alt_name": "Majestic Metro Station",
          "code": "KGWA",
          "level": "-2;-1;0",
          "name": "Nadaprabhu Kempegowda Station, Majestic",
          "name:etymology:wikidata": "Q6387049",
          "name:kn": "\u0ca8\u0cbe\u0ca1\u0caa\u0ccd\u0cb0\u0cad\u0cc1 \u0c95\u0cc6\u0c82\u0caa\u0cc7\u0c97\u0ccc\u0ca1 \u0ca8\u0cbf\u0cb2\u0ccd\u0ca6\u0cbe\u0ca3, \u0cae\u0cc6\u0c9c\u0cc6\u0cb8\u0ccd\u0c9f\u0cbf\u0c95\u0ccd",
          "name:ml": "\u0d28\u0d3e\u0d1f\u0d2a\u0d4d\u0d30\u0d2d\u0d41 \u0d15\u0d46\u0d2e\u0d4d\u0d2a\u0d17\u0d57\u0d21 \u0d38\u0d4d\u0d31\u0d4d\u0d31\u0d47\u0d37\u0d7b, \u0d2e\u0d1c\u0d38\u0d4d\u0d31\u0d4d\u0d31\u0d3f\u0d15\u0d4d",
          "name:ta": "\u0ba8\u0bbe\u0b9f\u0baa\u0bcd\u0baa\u0bbf\u0bb0\u0baa\u0bc1 \u0b95\u0bc6\u0bae\u0bcd\u0baa\u0bc7\u0b95\u0bb5\u0bc1\u0b9f\u0bbe \u0bae\u0bc6\u0b9c\u0bb8\u0bcd\u0b9f\u0bbf\u0b95\u0bcd",
          "network": "Namma Metro",
          "note": "Contributors are requested to not edit the \"network\" and the \"operator\" tags. (2023/11/08)",
          "operator": "Bangalore Metro Rail Corporation Limited",
          "public_transport": "station",
          "public_transport:version": "2",
          "railway": "station",
          "shelter": "yes",
          "station": "subway",
          "subway": "yes",
          "website": "https://english.brmc.co.in",
          "wheelchair": "yes",
          "wikidata": "Q6737727",
          "wikipedia": "en:Majestic metro station"
        }
      },
      {
        "type": "node",
        "id": 6584009979,
        "lat": 12.9835206,
        "lon": 77.6031048,
        "tags": {
          "bus": "yes",
          "name": "Platform 7",
          "operator": "BMTC",
          "public_transport": "stop_position",
          "ref": "7"
        }
      },
      {
        "type": "node",
        "id": 6645712420,
        "lat": 12.9703358,
        "lon": 77.5942959,
        "tags": {
          "alt_name": "St Joseph Boys High School",
          "bus": "yes",
          "name": "Mallya Hospital",
          "name:en": "Mallya Hospital",
          "name:kn": "\u0cae\u0cb2\u0ccd\u0cb2\u0ccd\u0caf \u0c86\u0cb8\u0ccd\u0caa\u0ca4\u0ccd\u0cb0\u0cc6",
          "network": "BMTC",
          "operator": "BMTC",
          "public_transport": "stop_position"
        }
      },
      {
        "type": "node",
        "id": 6681215517,
        "lat": 12.9723378,
        "lon": 77.5822789,
        "tags": {
          "bus": "yes",
          "name": "Mysore Bank",
          "name:en": "Mysore Bank",
          "name:kn": "\u0cae\u0cc8\u0cb8\u0cc2\u0cb0\u0cc1 \u0cac\u0ccd\u0caf\u0cbe\u0c82\u0c95\u0ccd",
          "network": "BMTC",
          "operator": "BMTC",
          "public_transport": "stop_position"
        }
      },
      {
        "type": "node",
        "id": 6834406250,
        "lat": 12.9737361,
        "lon": 77.5954588,
        "tags": {
          "alt_name": "Museum",
          "bus": "yes",
          "name": "Kasturba Road",
          "name:en": "Kasturba Road",
          "name:etymology:wikidata": "Q264908",
          "name:kn": "\u0c95\u0cb8\u0ccd\u0ca4\u0cc2\u0cb0\u0ccd\u0cac\u0cbe \u0cb0\u0cb8\u0ccd\u0ca4\u0cc6",
          "network": "BMTC",
          "operator": "BMTC",
          "public_transport": "stop_position"
        }
      },
      {
        "type": "node",
        "id": 6834406251,
        "lat": 12.964493,
        "lon": 77.5968024,
        "tags": {
          "bus": "yes",
          "name": "Richmond Circle",
          "name:en": "Richmond Circle",
          "name:kn": "\u0cb0\u0cbf\u0c9a\u0ccd\u0cae\u0c82\u0ca1\u0ccd \u0cb5\u0cc3\u0ca4\u0ccd\u0ca4",
          "network": "BMTC",
          "operator": "BMTC",
          "public_transport": "stop_position"
        }
      },
      {
        "type": "node",
        "id": 6834406267,
        "lat": 12.977413,
        "lon": 77.5988849,
        "tags": {
          "bus": "yes",
          "name": "Chinnaswamy Stadium",
          "name:en": "Chinnaswamy Stadium",
          "name:etymology:wikidata": "Q6712480",
          "name:kn": "\u0c9a\u0cbf\u0ca8\u0ccd\u0ca8\u0cb8\u0ccd\u0cb5\u0cbe\u0cae\u0cbf \u0c95\u0ccd\u0cb0\u0cc0\u0ca1\u0cbe\u0c82\u0c97\u0ca3",
          "network": "BMTC",
          "operator": "BMTC",
          "public_transport": "stop_position"
        }
      },
      {
        "type": "node",
        "id": 6834406268,
        "lat": 12.9772301,
        "lon": 77.5990996,
        "tags": {
          "bus": "yes",
          "name": "Chinnaswamy Stadium",
          "name:en": "Chinnaswamy Stadium",
          "name:etymology:wikidata": "Q6712480",
          "name:kn": "\u0c9a\u0cbf\u0ca8\u0ccd\u0ca8\u0cb8\u0ccd\u0cb5\u0cbe\u0cae\u0cbf \u0c95\u0ccd\u0cb0\u0cc0\u0ca1\u0cbe\u0c82\u0c97\u0ca3",
          "network": "BMTC",
          "operator": "BMTC",
          "public_transport": "stop_position"
        }
      },
      {
        "type": "node",
        "id": 7087593361,
        "lat": 12.9918414,
        "lon": 77.6020219,
        "tags": {
          "alt_name": "HK Degree College",
          "bus": "yes",
          "name": "Bamboo Bazar",
          "name:en": "Bamboo Bazar",
          "name:kn": "\u0cac\u0c82\u0cac\u0cc2 \u0cac\u0c9c\u0cbe\u0cb0\u0ccd",
          "network": "BMTC",
          "operator": "BMTC",
          "public_transport": "stop_position"
        }
      },
      {
        "type": "node",
        "id": 7087593365,
        "lat": 12.9952457,
        "lon": 77.6082577,
        "tags": {
          "bus": "yes",
          "name": "Coles Park",
          "name:en": "Coles Park",
          "name:kn": "\u0c95\u0ccb\u0cb2\u0ccd\u0cb8\u0ccd \u0caa\u0cbe\u0cb0\u0ccd\u0c95\u0ccd",
          "network": "BMTC",
          "operator": "BMTC",
          "public_transport": "stop_position"
        }
      },
      {
        "type": "node",
        "id": 7104861389,
        "lat": 12.9829933,
        "lon": 77.5765385,
        "tags": {
          "bus": "yes",
          "name": "KPCC Office",
          "name:en": "KPCC Office",
          "network": "BMTC",
          "operator": "BMTC",
          "public_transport": "stop_position"
        }
      },
      {
        "type": "node",
        "id": 7104861390,
        "lat": 12.9685091,
        "lon": 77.586563,
        "tags": {
          "bus": "yes",
          "name": "Corporation",
          "name:en": "Corporation",
          "network": "BMTC",
          "operator": "BMTC",
          "public_transport": "stop_position"
        }
      },
      {
        "type": "node",
        "id": 7104861391,
        "lat": 12.9638239,
        "lon": 77.5842663,
        "tags": {
          "bus": "yes",
          "name": "Town Hall",
          "name:en": "Town Hall",
          "network": "BMTC",
          "operator": "BMTC",
          "public_transport": "stop_position"
        }
      },
      {
        "type": "node",
        "id": 7104861404,
        "lat": 12.9998561,
        "lon": 77.5841182,
        "tags": {
          "bus": "yes",
          "name": "RM Guttahalli",
          "name:en": "RM Guttahalli",
          "network": "BMTC",
          "operator": "BMTC",
          "public_transport": "stop_position"
        }
      },
      {
        "type": "node",
        "id": 7104861405,
        "lat": 12.9877439,
        "lon": 77.5804978,
        "tags": {
          "bus": "yes",
          "name": "Shivananda Stores",
          "name:en": "Shivananda Stores",
          "network": "BMTC",
          "operator": "BMTC",
          "public_transport": "stop_position"
        }
      },
      {
        "type": "node",
        "id": 7105069827,
        "lat": 12.9636904,
        "lon": 77.5844796,
        "tags": {
          "bus": "yes",
          "name": "Town Hall",
          "name:en": "Town Hall",
          "name:kn": "\u0cae\u0cb9\u0cbe\u0ca8\u0c97\u0cb0 \u0caa\u0cbe\u0cb2\u0cbf\u0c95\u0cc6",
          "network": "BMTC",
          "operator": "BMTC",
          "public_transport": "stop_position"
        }
      },
      {
        "type": "node",
        "id": 7105069829,
        "lat": 12.9697701,
        "lon": 77.5871314,
        "tags": {
          "bus": "yes",
          "name": "St Marthas Hospital",
          "name:en": "St Marthas Hospital",
          "name:kn": "\u0cb8\u0cc6\u0c82\u0c9f\u0ccd \u0cae\u0cbe\u0cb0\u0ccd\u0ca5 \u0c86\u0cb8\u0ccd\u0caa\u0ca4\u0ccd\u0cb0\u0cc6",
          "network": "BMTC",
          "operator": "BMTC",
          "public_transport": "stop_position"
        }
      },
      {
        "type": "node",
        "id": 7105069831,
        "lat": 12.9802218,
        "lon": 77.5716716,
        "tags": {
          "bus": "yes",
          "name": "Khodays Circle",
          "name:en": "Khodays Circle",
          "name:kn": "\u0c96\u0ccb\u0ca1\u0cc6 \u0cb5\u0cc3\u0ca4\u0ccd\u0ca4",
          "network": "BMTC",
          "operator": "BMTC",
          "public_transport": "stop_position"
        }
      },
      {
        "type": "node",
        "id": 7106320854,
        "lat": 12.9684272,
        "lon": 77.5896134,
        "tags": {
          "bus": "yes",
          "name": "Corporation Circle (Cubbon Park)",
          "name:en": "Corporation Circle (Cubbon Park)",
          "network": "BMTC",
          "operator": "BMTC",
          "public_transport": "stop_position"
        }
      },
      {
        "type": "node",
        "id": 7106320855,
        "lat": 12.9740699,
        "lon": 77.5957691,
        "tags": {
          "alt_name": "Museum",
          "bus": "yes",
          "name": "Kasturba Road",
          "name:en": "Kasturba Road",
          "name:etymology:wikidata": "Q264908",
          "name:kn": "\u0c95\u0cb8\u0ccd\u0ca4\u0cc2\u0cb0\u0ccd\u0cac\u0cbe \u0cb0\u0cb8\u0ccd\u0ca4\u0cc6",
          "network": "BMTC",
          "operator": "BMTC",
          "public_transport": "stop_position"
        }
      },
      {
        "type": "node",
        "id": 7106320856,
        "lat": 12.9759482,
        "lon": 77.5982272,
        "tags": {
          "bus": "yes",
          "name": "MG Statue",
          "name:en": "MG Statue",
          "network": "BMTC",
          "operator": "BMTC",
          "public_transport": "stop_position"
        }
      },
      {
        "type": "node",
        "id": 7106320858,
        "lat": 12.9839227,
        "lon": 77.5965833,
        "tags": {
          "alt_name": "Balekundri Circle",
          "bus": "yes",
          "name": "Indian Express",
          "name:en": "Indian Express",
          "name:kn": "\u0c87\u0c82\u0ca1\u0cbf\u0caf\u0ca8\u0ccd \u0c8e\u0c95\u0ccd\u0cb8\u0caa\u0ccd\u0cb0\u0cc6\u0cb8\u0ccd",
          "network": "BMTC",
          "network:wikidata": "Q3345039",
          "operator": "BMTC",
          "public_transport": "stop_position"
        }
      },
      {
        "type": "node",
        "id": 7106320860,
        "lat": 12.9876208,
        "lon": 77.594528,
        "tags": {
          "bus": "yes",
          "name": "Cunningham Road",
          "name:en": "Cunningham Road",
          "name:etymology:wikidata": "Q5480658",
          "name:kn": "\u0c95\u0ca8\u0ccd\u0ca8\u0cbf\u0c82\u0c97\u0ccd\u0ca8\u0cae\u0ccd \u0cb0\u0cb8\u0ccd\u0ca4\u0cc6",
          "network": "BMTC",
          "operator": "BMTC",
          "public_transport": "stop_position"
        }
      },
      {
        "type": "node",
        "id": 7106320861,
        "lat": 12.9929231,
        "lon": 77.5951715,
        "tags": {
          "alt_name": "Ambedkar Bhavan",
          "bus": "yes",
          "name": "Vasanth Nagar",
          "name:en": "Vasanth Nagar",
          "name:kn": "\u0cb5\u0cb8\u0c82\u0ca4 \u0ca8\u0c97\u0cb0",
          "network": "BMTC",
          "operator": "BMTC",
          "public_transport": "stop_position"
        }
      },
      {
        "type": "node",
        "id": 7106320862,
        "lat": 12.9958327,
        "lon": 77.6068007,
        "tags": {
          "bus": "yes",
          "name": "Coles Park",
          "name:en": "Coles Park",
          "name:kn": "\u0c95\u0ccb\u0cb2\u0ccd\u0cb8\u0ccd \u0caa\u0cbe\u0cb0\u0ccd\u0c95\u0ccd",
          "network": "BMTC",
          "operator": "BMTC",
          "public_transport": "stop_position"
        }
      },
      {
        "type": "node",
        "id": 7108468326,
        "lat": 12.9964959,
        "lon": 77.6121753,
        "tags": {
          "bus": "yes",
          "name": "Coles Road",
          "name:en": "Coles Road",
          "name:kn": "\u0c95\u0ccb\u0cb2\u0ccd\u0cb8\u0ccd \u0cb0\u0cb8\u0ccd\u0ca4\u0cc6",
          "network": "BMTC",
          "operator": "BMTC",
          "public_transport": "stop_position"
        }
      },
      {
        "type": "node",
        "id": 7108468328,
        "lat": 12.9933875,
        "lon": 77.5972114,
        "tags": {
          "bus": "yes",
          "name": "Cantonment Railway Station",
          "name:en": "Cantonment Railway Station",
          "name:kn": "\u0c95\u0c82\u0c9f\u0ccb\u0ca8\u0ccd\u0cae\u0cc6\u0c82\u0c9f\u0ccd \u0cb0\u0cc8\u0cb2\u0ccd\u0cb5\u0cc6 \u0ca8\u0cbf\u0cb2\u0ccd\u0ca6\u0cbe\u0ca3",
          "network": "BMTC",
          "operator": "BMTC",
          "public_transport": "stop_position"
        }
      },
      {
        "type": "node",
        "id": 7108477360,
        "lat": 12.9840731,
        "lon": 77.5975329,
        "tags": {
          "alt_name": "Balekundri Circle",
          "bus": "yes",
          "name": "Indian Express",
          "name:en": "Indian Express",
          "name:kn": "\u0c87\u0c82\u0ca1\u0cbf\u0caf\u0ca8\u0ccd \u0c8e\u0c95\u0ccd\u0cb8\u0caa\u0ccd\u0cb0\u0cc6\u0cb8\u0ccd",
          "network": "BMTC",
          "network:wikidata": "Q3345039",
          "operator": "BMTC",
          "public_transport": "stop_position"
        }
      },
      {
        "type": "node",
        "id": 7108562590,
        "lat": 12.985767,
        "lon": 77.5885816,
        "tags": {
          "alt_name": "Sophia School",
          "bus": "yes",
          "loc_name": "Vasantha Nagara",
          "name": "Basava Bhavan",
          "name:en": "Basava Bhavan",
          "name:kn": "\u0cac\u0cb8\u0cb5 \u0cad\u0cb5\u0ca8",
          "network": "BMTC",
          "old_name": "High Grounds Police Station",
          "operator": "BMTC",
          "public_transport": "stop_position"
        }
      },
      {
        "type": "node",
        "id": 7108562597,
        "lat": 12.9912485,
        "lon": 77.6142401,
        "tags": {
          "bus": "yes",
          "name": "Thoms Bakery",
          "name:en": "Thoms Bakery",
          "network": "BMTC",
          "operator": "BMTC",
          "public_transport": "stop_position"
        }
      },
      {
        "type": "node",
        "id": 7108562599,
        "lat": 12.989717,
        "lon": 77.6154009,
        "tags": {
          "bus": "yes",
          "name": "Sivanchetty Gardens",
          "name:en": "Sivanchetty Gardens",
          "network": "BMTC",
          "operator": "BMTC",
          "public_transport": "stop_position"
        }
      },
      {
        "type": "node",
        "id": 7108562601,
        "lat": 12.9862261,
        "lon": 77.6155621,
        "tags": {
          "bus": "yes",
          "name": "Lavanya Talkies",
          "name:en": "Lavanya Talkies",
          "name:kn": "\u0cb2\u0cb5\u0cbe\u0ca3\u0ccd\u0caf",
          "network": "BMTC",
          "operator": "BMTC",
          "public_transport": "stop_position"
        }
      },
      {
        "type": "node",
        "id": 7108562602,
        "lat": 12.9808605,
        "lon": 77.6106852,
        "tags": {
          "bus": "yes",
          "name": "Dickenson Road",
          "name:en": "Dickenson Road",
          "name:kn": "\u0ca1\u0cbf\u0c95\u0cbf\u0ca8\u0ccd\u0cb8\u0ca8\u0ccd \u0cb0\u0cb8\u0ccd\u0ca4\u0cc6",
          "network": "BMTC",
          "operator": "BMTC",
          "public_transport": "stop_position"
        }
      },
      {
        "type": "node",
        "id": 7108562604,
        "lat": 12.9775288,
        "lon": 77.6079252,
        "tags": {
          "bus": "yes",
          "name": "Manikshaw Parade Ground",
          "name:en": "Manikshaw Parade Ground",
          "network": "BMTC",
          "operator": "BMTC",
          "public_transport": "stop_position"
        }
      },
      {
        "type": "node",
        "id": 7108562605,
        "lat": 12.9841656,
        "lon": 77.597574,
        "tags": {
          "alt_name": "Balekundri Circle",
          "bus": "yes",
          "name": "Indian Express",
          "name:en": "Indian Express",
          "name:kn": "\u0c87\u0c82\u0ca1\u0cbf\u0caf\u0ca8\u0ccd \u0c8e\u0c95\u0ccd\u0cb8\u0caa\u0ccd\u0cb0\u0cc6\u0cb8\u0ccd",
          "network": "BMTC",
          "network:wikidata": "Q3345039",
          "operator": "BMTC",
          "public_transport": "stop_position"
        }
      },
      {
        "type": "node",
        "id": 7108562606,
        "lat": 12.9897683,
        "lon": 77.5993038,
        "tags": {
          "bus": "yes",
          "name": "CSI Hospital",
          "name:en": "CSI Hospital",
          "name:kn": "\u0cb8\u0cbf \u0c8e\u0cb8\u0ccd \u0c90 \u0c86\u0cb8\u0ccd\u0caa\u0ca4\u0ccd\u0cb0\u0cc6",
          "network": "BMTC",
          "operator": "BMTC",
          "public_transport": "stop_position"
        }
      },
      {
        "type": "node",
        "id": 7108562607,
        "lat": 12.99034,
        "lon": 77.5891596,
        "tags": {
          "bus": "yes",
          "name": "Avinash Petrol Bunk",
          "name:en": "Avinash Petrol Bunk",
          "network": "BMTC",
          "operator": "BMTC",
          "public_transport": "stop_position"
        }
      },
      {
        "type": "node",
        "id": 7108562609,
        "lat": 12.9841703,
        "lon": 77.5869736,
        "tags": {
          "bus": "yes",
          "name": "RC College",
          "name:en": "RC College",
          "name:kn": "\u0c86\u0cb0\u0ccd \u0cb8\u0cbf \u0c95\u0cbe\u0cb2\u0cc7\u0c9c\u0cc1",
          "network": "BMTC",
          "operator": "BMTC",
          "public_transport": "stop_position"
        }
      },
      {
        "type": "node",
        "id": 7108562610,
        "lat": 12.9872126,
        "lon": 77.5788305,
        "tags": {
          "bus": "yes",
          "name": "Shivananda Stores",
          "name:en": "Shivananda Stores",
          "network": "BMTC",
          "operator": "BMTC",
          "public_transport": "stop_position"
        }
      },
      {
        "type": "node",
        "id": 7108562611,
        "lat": 12.9889359,
        "lon": 77.574743,
        "tags": {
          "bus": "yes",
          "name": "Swastik Sheshadripuram College",
          "name:en": "Swastik Sheshadripuram College",
          "name:kn": "\u0cb8\u0ccd\u0cb5\u0cb8\u0ccd\u0ca4\u0cbf\u0c95",
          "network": "BMTC",
          "operator": "BMTC",
          "public_transport": "stop_position"
        }
      },
      {
        "type": "node",
        "id": 7131511278,
        "lat": 12.961084,
        "lon": 77.5877158,
        "tags": {
          "bus": "yes",
          "name": "Poornima Talkies",
          "name:en": "Poornima Talkies",
          "name:kn": "\u0caa\u0cc2\u0cb0\u0ccd\u0ca3\u0cbf\u0cae\u0cbe \u0c9f\u0cbe\u0c95\u0cbf\u0cb8\u0ccd",
          "network": "BMTC",
          "operator": "BMTC",
          "public_transport": "stop_position"
        }
      },
      {
        "type": "node",
        "id": 7131511279,
        "lat": 12.9621976,
        "lon": 77.5964997,
        "tags": {
          "bus": "yes",
          "name": "Akkithimmanahalli",
          "name:en": "Akkithimmanahalli",
          "name:kn": "\u0c85\u0c95\u0ccd\u0c95\u0cbf\u0ca4\u0cbf\u0cae\u0ccd\u0cae\u0ca8\u0cb9\u0cb3\u0ccd\u0cb3\u0cbf",
          "network": "BMTC",
          "operator": "BMTC",
          "public_transport": "stop_position"
        }
      },
      {
        "type": "node",
        "id": 7132418218,
        "lat": 12.9626539,
        "lon": 77.5907878,
        "tags": {
          "bus": "yes",
          "name": "Subbaiah Circle",
          "name:en": "Subbaiah Circle",
          "name:kn": "\u0cb8\u0cc1\u0cac\u0ccd\u0cac\u0caf\u0ccd\u0caf \u0cb5\u0cc3\u0ca4\u0ccd\u0ca4",
          "network": "BMTC",
          "operator": "BMTC",
          "public_transport": "stop_position"
        }
      },
      {
        "type": "node",
        "id": 7132418219,
        "lat": 12.9647441,
        "lon": 77.587909,
        "tags": {
          "bus": "yes",
          "name": "Corporation, Mission Road (Towards Subbiah Circle)",
          "name:en": "Corporation, Mission Road (Towards Subbiah Circle)",
          "network": "BMTC",
          "operator": "BMTC",
          "public_transport": "stop_position"
        }
      },
      {
        "type": "node",
        "id": 7132452572,
        "lat": 12.9733493,
        "lon": 77.6098914,
        "tags": {
          "bus": "yes",
          "name": "Mayo Hall",
          "name:en": "Mayo Hall",
          "name:kn": "\u0cae\u0cbe\u0caf\u0cca \u0cb9\u0cbe\u0cb2\u0ccd",
          "network": "BMTC",
          "operator": "BMTC",
          "public_transport": "stop_position"
        }
      },
      {
        "type": "node",
        "id": 7132452573,
        "lat": 12.9777168,
        "lon": 77.6020138,
        "tags": {
          "alt_name": "MG Road",
          "bus": "yes",
          "name": "Anil Kumble Circle",
          "name:en": "Anil Kumble Circle",
          "name:kn": "\u0c85\u0ca8\u0cbf\u0cb2\u0ccd \u0c95\u0cc1\u0c82\u0cac\u0ccd\u0cb3\u0cc6 \u0cb5\u0cc3\u0ca4\u0ccd\u0ca4",
          "network": "BMTC",
          "operator": "BMTC",
          "public_transport": "stop_position"
        }
      },
      {
        "type": "node",
        "id": 7132452574,
        "lat": 12.9754287,
        "lon": 77.6065055,
        "tags": {
          "bus": "yes",
          "name": "MG Road Metro Station",
          "name:en": "MG Road Metro Station",
          "name:kn": "\u0cae\u0cb9\u0cbe\u0ca4\u0ccd\u0cae \u0c97\u0cbe\u0c82\u0ca7\u0cbf \u0cb0\u0cb8\u0ccd\u0ca4\u0cc6",
          "network": "BMTC",
          "operator": "BMTC",
          "public_transport": "stop_position"
        }
      },
      {
        "type": "node",
        "id": 7132495617,
        "lat": 13.0040058,
        "lon": 77.593684,
        "tags": {
          "alt_name": "Munireddy Palya J C Nagara",
          "bus": "yes",
          "name": "JC Nagara",
          "name:en": "JC Nagara",
          "name:kn": "\u0c9c\u0cc6\u0cb8\u0cbf \u0ca8\u0c97\u0cb0",
          "network": "BMTC",
          "operator": "BMTC",
          "public_transport": "stop_position"
        }
      },
      {
        "type": "node",
        "id": 7132495618,
        "lat": 13.0009928,
        "lon": 77.5945475,
        "tags": {
          "bus": "yes",
          "name": "Jayamahal",
          "name:en": "Jayamahal",
          "name:kn": "\u0c9c\u0caf\u0cae\u0cb9\u0cb2\u0ccd",
          "network": "BMTC",
          "operator": "BMTC",
          "public_transport": "stop_position"
        }
      },
      {
        "type": "node",
        "id": 7132495628,
        "lat": 12.9675822,
        "lon": 77.6110504,
        "tags": {
          "bus": "yes",
          "name": "D'Souza Circle",
          "name:en": "D'Souza Circle",
          "name:kn": "\u0ca1\u0cb8\u0cc2\u0c9d \u0cb5\u0cc3\u0ca4\u0ccd\u0ca4",
          "network": "BMTC",
          "operator": "BMTC",
          "public_transport": "stop_position"
        }
      },
      {
        "type": "node",
        "id": 7132495630,
        "lat": 12.9667187,
        "lon": 77.6090563,
        "tags": {
          "alt_name": "D'Souza Circle",
          "bus": "yes",
          "name": "Lifestyle",
          "name:en": "Lifestyle",
          "network": "BMTC",
          "operator": "BMTC",
          "public_transport": "stop_position"
        }
      },
      {
        "type": "node",
        "id": 7132495631,
        "lat": 12.9696871,
        "lon": 77.6104167,
        "tags": {
          "bus": "yes",
          "name": "Garuda Mall",
          "name:en": "Garuda Mall",
          "name:kn": "\u0c97\u0cb0\u0cc1\u0ca1 \u0cae\u0cbe\u0cb2\u0ccd",
          "network": "BMTC",
          "operator": "BMTC",
          "public_transport": "stop_position"
        }
      },
      {
        "type": "node",
        "id": 7132495633,
        "lat": 12.971811,
        "lon": 77.6105403,
        "tags": {
          "bus": "yes",
          "name": "Mayo Hall",
          "name:en": "Mayo Hall",
          "name:kn": "\u0cae\u0cbe\u0caf\u0cca \u0cb9\u0cbe\u0cb2\u0ccd",
          "network": "BMTC",
          "operator": "BMTC",
          "public_transport": "stop_position"
        }
      },
      {
        "type": "node",
        "id": 7133498158,
        "lat": 12.969826,
        "lon": 77.6117838,
        "tags": {
          "bus": "yes",
          "name": "Hosmat Hospital",
          "name:en": "Hosmat Hospital",
          "name:kn": "\u0cb9\u0cca\u0cb8\u0cae\u0ca4\u0ccd \u0c86\u0cb8\u0ccd\u0caa\u0ca4\u0ccd\u0cb0\u0cc6",
          "network": "BMTC",
          "operator": "BMTC",
          "public_transport": "stop_position"
        }
      },
      {
        "type": "node",
        "id": 7136947081,
        "lat": 12.96737,
        "lon": 77.5993941,
        "tags": {
          "bus": "yes",
          "name": "Richmond Circle",
          "name:en": "Richmond Circle",
          "name:kn": "\u0cb0\u0cbf\u0c9a\u0ccd\u0cae\u0c82\u0ca1\u0ccd \u0cb5\u0cc3\u0ca4\u0ccd\u0ca4",
          "network": "BMTC",
          "operator": "BMTC",
          "public_transport": "stop_position"
        }
      },
      {
        "type": "node",
        "id": 7140560441,
        "lat": 12.9621372,
        "lon": 77.5969643,
        "tags": {
          "bus": "yes",
          "name": "Akkithimmanahalli",
          "name:en": "Akkithimmanahalli",
          "name:kn": "\u0c85\u0c95\u0ccd\u0c95\u0cbf\u0ca4\u0cbf\u0cae\u0ccd\u0cae\u0ca8\u0cb9\u0cb3\u0ccd\u0cb3\u0cbf",
          "network": "BMTC",
          "operator": "BMTC",
          "public_transport": "stop_position"
        }
      },
      {
        "type": "node",
        "id": 7140563287,
        "lat": 12.9951057,
        "lon": 77.5925255,
        "tags": {
          "bus": "yes",
          "name": "Ganesha Temple Vasanthanagara",
          "name:en": "Ganesha Temple Vasanthanagara",
          "name:kn": "\u0c97\u0ca3\u0cc7\u0cb6 \u0ca6\u0cc7\u0cb5\u0cb8\u0ccd\u0ca5\u0cbe\u0ca8 \u0cb5\u0cb8\u0c82\u0ca4\u0ca8\u0c97\u0cb0",
          "network": "BMTC",
          "operator": "BMTC",
          "public_transport": "stop_position"
        }
      },
      {
        "type": "node",
        "id": 7140563288,
        "lat": 12.9929279,
        "lon": 77.5887916,
        "tags": {
          "bus": "yes",
          "name": "Mount Carmel College",
          "name:en": "Mount Carmel College",
          "name:kn": "\u0cae\u0ccc\u0c82\u0c9f\u0ccd \u0c95\u0cbe\u0cb0\u0ccd\u0cae\u0cc6\u0cb2\u0ccd \u0c95\u0cbe\u0cb2\u0cc7\u0c9c\u0cc1",
          "network": "BMTC",
          "operator": "BMTC",
          "public_transport": "stop_position"
        }
      },
      {
        "type": "node",
        "id": 7140563289,
        "lat": 12.9890619,
        "lon": 77.5887371,
        "tags": {
          "bus": "yes",
          "name": "High Grounds Police Station",
          "name:en": "High Ground Police Station",
          "name:kn": "\u0cb9\u0cc8\u0c97\u0ccd\u0cb0\u0ccc\u0c82\u0ca1\u0ccd\u0cb8\u0ccd \u0caa\u0cca\u0cb2\u0cc0\u0cb8\u0ccd \u0ca0\u0cbe\u0ca3\u0cc6",
          "network": "BMTC",
          "operator": "BMTC",
          "public_transport": "stop_position"
        }
      },
      {
        "type": "node",
        "id": 7140563293,
        "lat": 12.9790169,
        "lon": 77.5849485,
        "tags": {
          "bus": "yes",
          "name": "Maharani's College",
          "name:en": "Maharanis College",
          "name:kn": "\u0cae\u0cb9\u0cbe\u0cb0\u0cbe\u0ca3\u0cbf \u0c95\u0cbe\u0cb2\u0cc7\u0c9c\u0cc1",
          "network": "BMTC",
          "operator": "BMTC",
          "public_transport": "stop_position"
        }
      },
      {
        "type": "node",
        "id": 7140563295,
        "lat": 12.9827236,
        "lon": 77.5871529,
        "tags": {
          "bus": "yes",
          "name": "Telephone Exchange AGO, Vasantha Nagara",
          "name:en": "Telephone Exchange AGO, Vasantha Nagara",
          "network": "BMTC",
          "operator": "BMTC",
          "public_transport": "stop_position"
        }
      },
      {
        "type": "node",
        "id": 7140581378,
        "lat": 12.9756728,
        "lon": 77.5866293,
        "tags": {
          "bus": "yes",
          "name": "KR Circle",
          "name:en": "Krishnarajendra Circle",
          "name:kn": "\u0c95\u0cc3\u0cb7\u0ccd\u0ca3\u0cb0\u0cbe\u0c9c\u0cc7\u0c82\u0ca6\u0ccd\u0cb0 \u0cb5\u0cc3\u0ca4\u0ccd\u0ca4",
          "network": "BMTC",
          "operator": "BMTC",
          "public_transport": "stop_position"
        }
      },
      {
        "type": "node",
        "id": 7140581382,
        "lat": 12.9802235,
        "lon": 77.5930116,
        "tags": {
          "alt_name": "Karnataka High Court",
          "bus": "yes",
          "name": "Vidhana Soudha",
          "name:en": "Vidhana Soudha",
          "name:kn": "\u0cb5\u0cbf\u0ca7\u0cbe\u0ca8 \u0cb8\u0ccc\u0ca7",
          "network": "BMTC",
          "operator": "BMTC",
          "public_transport": "stop_position"
        }
      },
      {
        "type": "node",
        "id": 7141213461,
        "lat": 12.9636456,
        "lon": 77.6067133,
        "tags": {
          "bus": "yes",
          "name": "Johnson Market",
          "name:en": "Johnson Market",
          "name:kn": "\u0c9c\u0cbe\u0ca8\u0ccd\u0cb8\u0ca8\u0ccd \u0cae\u0cbe\u0cb0\u0ccd\u0c95\u0cc6\u0c9f\u0ccd",
          "network": "BMTC",
          "operator": "BMTC",
          "public_transport": "stop_position"
        }
      },
      {
        "type": "node",
        "id": 7141213463,
        "lat": 12.9657057,
        "lon": 77.6068318,
        "tags": {
          "alt_name": "Shoolay Circle",
          "bus": "yes",
          "name": "Vellara Junction",
          "name:en": "Vellara Junction",
          "name:kn": "\u0cb5\u0cc6\u0cb2\u0ccd\u0cb2\u0cbe\u0cb0 \u0c9c\u0c82\u0c95\u0ccd\u0cb7\u0ca8\u0ccd",
          "network": "BMTC",
          "operator": "BMTC",
          "public_transport": "stop_position"
        }
      },
      {
        "type": "node",
        "id": 7141213464,
        "lat": 12.9714805,
        "lon": 77.6067531,
        "tags": {
          "bus": "yes",
          "name": "Brigade Road",
          "name:en": "Brigade Road",
          "name:kn": "\u0cac\u0ccd\u0cb0\u0cbf\u0c97\u0cc7\u0ca1\u0ccd \u0cb0\u0cb8\u0ccd\u0ca4\u0cc6",
          "network": "BMTC",
          "operator": "BMTC",
          "public_transport": "stop_position"
        }
      },
      {
        "type": "node",
        "id": 7141291015,
        "lat": 13.0030311,
        "lon": 77.603523,
        "tags": {
          "bus": "yes",
          "name": "Chinnappa Garden",
          "name:en": "Chinnappa Garden",
          "name:kn": "\u0c9a\u0cbf\u0ca8\u0ccd\u0ca8\u0caa\u0ccd\u0caa \u0c89\u0ca6\u0ccd\u0caf\u0cbe\u0ca8\u0cb5\u0ca8",
          "network": "BMTC",
          "operator": "BMTC",
          "public_transport": "stop_position"
        }
      },
      {
        "type": "node",
        "id": 7141291016,
        "lat": 13.0007836,
        "lon": 77.5995619,
        "tags": {
          "alt_name": "YMCA Nandidurga Road",
          "bus": "yes",
          "name": "Nandidurga Road",
          "name:en": "Nandidurga Road",
          "name:kn": "\u0ca8\u0c82\u0ca6\u0cbf\u0ca6\u0cc1\u0cb0\u0ccd\u0c97 \u0cb0\u0cb8\u0ccd\u0ca4\u0cc6",
          "network": "BMTC",
          "operator": "BMTC",
          "public_transport": "stop_position"
        }
      },
      {
        "type": "node",
        "id": 7141291017,
        "lat": 12.9956014,
        "lon": 77.6013756,
        "tags": {
          "bus": "yes",
          "name": "Canara Bank Millers Road",
          "name:en": "Canara Bank Millers Road",
          "network": "BMTC",
          "operator": "BMTC",
          "public_transport": "stop_position"
        }
      },
      {
        "type": "node",
        "id": 7142073294,
        "lat": 12.993241,
        "lon": 77.609861,
        "tags": {
          "bus": "yes",
          "name": "Coles Park",
          "name:en": "Coles Park",
          "name:kn": "\u0c95\u0ccb\u0cb2\u0ccd\u0cb8\u0ccd \u0caa\u0cbe\u0cb0\u0ccd\u0c95\u0ccd",
          "network": "BMTC",
          "operator": "BMTC",
          "public_transport": "stop_position"
        }
      },
      {
        "type": "node",
        "id": 7142097522,
        "lat": 12.9734934,
        "lon": 77.5814153,
        "tags": {
          "bus": "yes",
          "name": "Cauvery Bhavana",
          "name:en": "Cauvery Bhavana",
          "name:kn": "\u0cae\u0cc8\u0cb8\u0cc2\u0cb0\u0cc1 \u0cac\u0ccd\u0caf\u0cbe\u0c82\u0c95\u0ccd",
          "network": "BMTC",
          "operator": "BMTC",
          "public_transport": "stop_position"
        }
      },
      {
        "type": "node",
        "id": 7142097524,
        "lat": 12.9768247,
        "lon": 77.5858877,
        "tags": {
          "bus": "yes",
          "name": "Maharani College, KR Circle",
          "name:en": "Maharani College, KR Circle",
          "network": "BMTC",
          "operator": "BMTC",
          "public_transport": "stop_position"
        }
      },
      {
        "type": "node",
        "id": 7142097526,
        "lat": 12.977223,
        "lon": 77.5899909,
        "tags": {
          "bus": "yes",
          "name": "Vidhana Soudha",
          "name:en": "Vidhana Soudha",
          "name:kn": "\u0cb5\u0cbf\u0ca7\u0cbe\u0ca8 \u0cb8\u0ccc\u0ca7",
          "network": "BMTC",
          "operator": "BMTC",
          "public_transport": "stop_position"
        }
      },
      {
        "type": "node",
        "id": 7142097527,
        "lat": 12.9835542,
        "lon": 77.5963121,
        "tags": {
          "bus": "yes",
          "local_ref": "BALEKUNDRI CIRCLE",
          "name": "Indian Express",
          "name:en": "Indian Express",
          "name:kn": "\u0cb5\u0cb8\u0c82\u0ca4 \u0ca8\u0c97\u0cb0",
          "network": "BMTC",
          "operator": "BMTC",
          "public_transport": "stop_position"
        }
      },
      {
        "type": "node",
        "id": 7142097529,
        "lat": 12.9918487,
        "lon": 77.6019141,
        "tags": {
          "bus": "yes",
          "name": "Bamboo Bazar",
          "name:en": "Bamboo Bazar",
          "name:kn": "\u0cac\u0c82\u0cac\u0cc2 \u0cac\u0c9c\u0cbe\u0cb0\u0ccd",
          "network": "BMTC",
          "operator": "BMTC",
          "public_transport": "stop_position"
        }
      },
      {
        "type": "node",
        "id": 7156865442,
        "lat": 12.9840467,
        "lon": 77.5868815,
        "tags": {
          "bus": "yes",
          "name": "RC College",
          "name:en": "RC College",
          "name:kn": "\u0cb0\u0cbe\u0cae\u0ca8\u0cbe\u0cb0\u0caf\u0ca3 \u0c9a\u0cc6\u0cb2\u0ccd\u0cb2\u0cb0\u0cbe\u0cae\u0ccd \u0c95\u0cbe\u0cb2\u0cc7\u0c9c\u0cc1",
          "network": "BMTC",
          "operator": "BMTC",
          "public_transport": "stop_position"
        }
      },
      {
        "type": "node",
        "id": 7156865444,
        "lat": 12.9817965,
        "lon": 77.5949609,
        "tags": {
          "bus": "yes",
          "name": "GPO",
          "name:en": "GPO",
          "network": "BMTC",
          "operator": "BMTC",
          "public_transport": "stop_position"
        }
      },
      {
        "type": "node",
        "id": 7156865446,
        "lat": 12.9830369,
        "lon": 77.5922081,
        "tags": {
          "bus": "yes",
          "name": "Raj Bhavan",
          "name:en": "Raj Bhavan",
          "name:kn": "\u0cb0\u0cbe\u0c9c \u0cad\u0cb5\u0ca8",
          "network": "BMTC",
          "operator": "BMTC",
          "public_transport": "stop_position"
        }
      },
      {
        "type": "node",
        "id": 7156942402,
        "lat": 12.9777052,
        "lon": 77.6069712,
        "tags": {
          "bus": "yes",
          "name": "Maniksha Parade Ground",
          "name:en": "Maniksha Parade Ground",
          "network": "BMTC",
          "operator": "BMTC",
          "public_transport": "stop_position"
        }
      },
      {
        "type": "node",
        "id": 7156942403,
        "lat": 12.9807778,
        "lon": 77.6106751,
        "tags": {
          "bus": "yes",
          "name": "Dickenson Road",
          "name:en": "Dickenson Road",
          "name:kn": "\u0ca1\u0cbf\u0c95\u0cc6\u0ca8\u0ccd\u0cb8\u0ca8\u0ccd \u0cb0\u0cb8\u0ccd\u0ca4\u0cc6",
          "network": "BMTC",
          "operator": "BMTC",
          "public_transport": "stop_position"
        }
      },
      {
        "type": "node",
        "id": 7156942404,
        "lat": 12.979429,
        "lon": 77.6142741,
        "tags": {
          "bus": "yes",
          "name": "Hasanath College",
          "name:en": "Hasanath College",
          "name:kn": "\u0cb9\u0cb8\u0ca8\u0cbe\u0ca5\u0ccd \u0c95\u0cbe\u0cb2\u0cc7\u0c9c\u0cc1",
          "network": "BMTC",
          "operator": "BMTC",
          "public_transport": "stop_position"
        }
      },
      {
        "type": "node",
        "id": 7156971594,
        "lat": 12.994438,
        "lon": 77.5780216,
        "tags": {
          "bus": "yes",
          "name": "RMS Sheshadripuram",
          "name:en": "RMS Sheshadripuram",
          "network": "BMTC",
          "operator": "BMTC",
          "public_transport": "stop_position"
        }
      },
      {
        "type": "node",
        "id": 7156971595,
        "lat": 12.9984759,
        "lon": 77.5820504,
        "tags": {
          "bus": "yes",
          "name": "RM Guttahalli",
          "name:en": "RM Guttahalli",
          "network": "BMTC",
          "operator": "BMTC",
          "public_transport": "stop_position"
        }
      },
      {
        "type": "node",
        "id": 7156971597,
        "lat": 12.9952241,
        "lon": 77.5920953,
        "tags": {
          "bus": "yes",
          "name": "Ganesha Temple Vasanthanagara",
          "name:en": "Ganesha Temple Vasanthanagara",
          "name:kn": "\u0c97\u0ca3\u0cc7\u0cb6 \u0ca6\u0cc7\u0cb5\u0cb8\u0ccd\u0ca5\u0cbe\u0ca8 \u0cb5\u0cb8\u0c82\u0ca4\u0ca8\u0c97\u0cb0",
          "network": "BMTC",
          "operator": "BMTC",
          "public_transport": "stop_position"
        }
      },
      {
        "type": "node",
        "id": 7157889187,
        "lat": 12.9804923,
        "lon": 77.6098757,
        "tags": {
          "bus": "yes",
          "name": "Commercial Street",
          "name:en": "Commercial Street",
          "network": "BMTC",
          "operator": "BMTC",
          "public_transport": "stop_position"
        }
      },
      {
        "type": "node",
        "id": 7157889189,
        "lat": 12.9746794,
        "lon": 77.6014488,
        "tags": {
          "alt_name": "Bowring Institute",
          "bus": "yes",
          "name": "State Bank India Garage",
          "name:en": "State Bank India Garage",
          "network": "BMTC",
          "official_name": "Bowring Institute",
          "operator": "BMTC",
          "public_transport": "stop_position"
        }
      },
      {
        "type": "node",
        "id": 7157895260,
        "lat": 12.9658163,
        "lon": 77.6042478,
        "tags": {
          "bus": "yes",
          "name": "Richmond Circle",
          "name:en": "Richmond Circle",
          "name:kn": "\u0cb0\u0cbf\u0c9a\u0ccd\u0cae\u0c82\u0ca1\u0ccd \u0cb5\u0cc3\u0ca4\u0ccd\u0ca4",
          "network": "BMTC",
          "operator": "BMTC",
          "public_transport": "stop_position"
        }
      },
      {
        "type": "node",
        "id": 7276500272,
        "lat": 12.9862919,
        "lon": 77.5724177,
        "tags": {
          "amenity": "fuel",
          "name": "Aegis Auto Gas"
        }
      },
      {
        "type": "node",
        "id": 7292436123,
        "lat": 12.9681954,
        "lon": 77.5873387,
        "tags": {
          "bus": "yes",
          "name": "Corporation",
          "name:en": "Corporation",
          "name:kn": "\u0c95\u0cbe\u0cb0\u0ccd\u0caa\u0ccb\u0cb0\u0cc7\u0cb6\u0ca8\u0ccd",
          "network": "BMTC",
          "operator": "BMTC",
          "public_transport": "stop_position"
        }
      },
      {
        "type": "node",
        "id": 7617898606,
        "lat": 12.9914254,
        "lon": 77.6088949,
        "tags": {
          "bus": "yes",
          "name": "Coles Park",
          "name:en": "Coles Park",
          "network": "BMTC",
          "operator": "BMTC",
          "public_transport": "stop_position"
        }
      },
      {
        "type": "node",
        "id": 9140200257,
        "lat": 12.9756053,
        "lon": 77.5866527,
        "tags": {
          "bus": "yes",
          "name": "KR Circle",
          "name:en": "Krishnarajendra Circle",
          "name:kn": "\u0c95\u0cc3\u0cb7\u0ccd\u0ca3\u0cb0\u0cbe\u0c9c\u0cc7\u0c82\u0ca6\u0ccd\u0cb0 \u0cb5\u0cc3\u0ca4\u0ccd\u0ca4",
          "network": "BMTC",
          "operator": "BMTC",
          "public_transport": "stop_position"
        }
      },
      {
        "type": "node",
        "id": 9573432790,
        "lat": 12.991472,
        "lon": 77.5970008,
        "tags": {
          "amenity": "theatre",
          "name": "Sri Chiranjiv Singh Auditorium"
        }
      },
      {
        "type": "node",
        "id": 9779677437,
        "lat": 12.9928258,
        "lon": 77.5878243,
        "tags": {
          "amenity": "theatre",
          "name": "Amphitheatre"
        }
      },
      {
        "type": "node",
        "id": 9779677464,
        "lat": 12.9932192,
        "lon": 77.5882796,
        "tags": {
          "amenity": "theatre",
          "name": "Diamond Jubilee Auditorium"
        }
      },
      {
        "type": "node",
        "id": 9796232707,
        "lat": 12.9792762,
        "lon": 77.6148087,
        "tags": {
          "bus": "yes",
          "name": "Hasanath College",
          "name:en": "Hasanath College",
          "name:kn": "\u0cb9\u0cb8\u0ca8\u0cbe\u0ca5\u0ccd \u0c95\u0cbe\u0cb2\u0cc7\u0c9c\u0cc1",
          "network": "BMTC",
          "operator": "BMTC",
          "public_transport": "stop_position"
        }
      },
      {
        "type": "node",
        "id": 10036152486,
        "lat": 12.9743529,
        "lon": 77.5818701,
        "tags": {
          "alt_name": "Mysore Bank",
          "bus": "yes",
          "name": "Cauvery Bhavana",
          "name:en": "Cauvery Bhavana",
          "name:kn": "\u0c95\u0cbe\u0cb5\u0cc7\u0cb0\u0cbf \u0cad\u0cb5\u0ca8",
          "network": "BMTC",
          "operator": "BMTC",
          "public_transport": "stop_position"
        }
      },
      {
        "type": "node",
        "id": 10234922550,
        "lat": 12.9726543,
        "lon": 77.6066925,
        "tags": {
          "addr:city": "Bangalore",
          "addr:country": "IN",
          "addr:district": "Bangalore Urban",
          "addr:hamlet": "Shanthala Nagar",
          "addr:housename": "Forum Rex Walk",
          "addr:housenumber": "202",
          "addr:postcode": "560001",
          "addr:state": "Karnataka",
          "addr:street": "Brigade Road",
          "addr:suburb": "Ashok Nagar",
          "amenity": "cinema",
          "brand": "PVR Cinemas",
          "brand:wikidata": "Q3359908",
          "check_date": "2024-08-19",
          "level": "3",
          "name": "PVR Director's Cut",
          "operator": "PVR Cinemas",
          "short_name": "PVR",
          "source": "https://www.cnbctv18.com/business/companies/pvr-unveils-south-indias-first-directors-cut-in-bangaluru-15318581.htm"
        }
      },
      {
        "type": "node",
        "id": 10293872605,
        "lat": 12.9712776,
        "lon": 77.6078832,
        "tags": {
          "amenity": "charging_station",
          "name": "inGO"
        }
      },
      {
        "type": "node",
        "id": 10295411732,
        "lat": 12.9766871,
        "lon": 77.6000287,
        "tags": {
          "bus": "yes",
          "name": "MG Statue",
          "name:en": "MG Statue",
          "network": "BMTC",
          "operator": "BMTC",
          "public_transport": "stop_position"
        }
      },
      {
        "type": "node",
        "id": 10753340368,
        "lat": 12.974437,
        "lon": 77.596864,
        "tags": {
          "amenity": "theatre",
          "level": "1",
          "name": "Mazumdar Shaw Auditorium"
        }
      },
      {
        "type": "node",
        "id": 10761493346,
        "lat": 12.9841726,
        "lon": 77.5988975,
        "tags": {
          "bus": "yes",
          "network": "BMTC",
          "operator": "BMTC",
          "public_transport": "stop_position"
        }
      },
      {
        "type": "node",
        "id": 11019492827,
        "lat": 12.9609431,
        "lon": 77.588207,
        "tags": {
          "bus": "yes",
          "name": "Poornima Talkies",
          "name:en": "Poornima Talkies",
          "network": "BMTC",
          "operator": "BMTC",
          "public_transport": "stop_position"
        }
      },
      {
        "type": "node",
        "id": 11097276362,
        "lat": 12.9844362,
        "lon": 77.5927702,
        "tags": {
          "bus": "yes",
          "name": "Ali Asker Road",
          "name:en": "Ali Asker Road",
          "name:kn": "\u0c85\u0cb2\u0cbf \u0c85\u0cb8\u0ccd\u0c95\u0cb0\u0ccd \u0cb0\u0cb8\u0ccd\u0ca4\u0cc6",
          "network": "BMTC",
          "operator": "BMTC",
          "public_transport": "stop_position"
        }
      },
      {
        "type": "node",
        "id": 11097276364,
        "lat": 12.9868849,
        "lon": 77.5906987,
        "tags": {
          "bus": "yes",
          "name": "St. Anne's College",
          "name:en": "St. Anne's College",
          "name:kn": "\u0cb8\u0cc7\u0c82\u0c9f\u0ccd \u0c86\u0ca8\u0ccd\u0cb8\u0ccd \u0c95\u0cbe\u0cb2\u0cc7\u0c9c\u0cc1",
          "network": "BMTC",
          "operator": "BMTC",
          "public_transport": "stop_position"
        }
      },
      {
        "type": "node",
        "id": 11097276366,
        "lat": 12.9894313,
        "lon": 77.5926836,
        "tags": {
          "alt_name": "High Grounds Police Station",
          "bus": "yes",
          "name": "Kalpana Circle",
          "name:en": "Kalpana Circle",
          "name:kn": "\u0c95\u0cb2\u0ccd\u0caa\u0ca8\u0cbe \u0cb5\u0cc3\u0ca4\u0ccd\u0ca4",
          "network": "BMTC",
          "operator": "BMTC",
          "public_transport": "stop_position"
        }
      },
      {
        "type": "node",
        "id": 11097276368,
        "lat": 12.9928206,
        "lon": 77.5887587,
        "tags": {
          "bus": "yes",
          "name": "Mount Carmel College",
          "name:en": "Mount Carmel College",
          "name:kn": "\u0cae\u0ccc\u0c82\u0c9f\u0ccd \u0c95\u0cbe\u0cb0\u0ccd\u0cae\u0cc6\u0cb2\u0ccd \u0c95\u0cbe\u0cb2\u0cc7\u0c9c\u0cc1",
          "network": "BMTC",
          "operator": "BMTC",
          "public_transport": "stop_position"
        }
      },
      {
        "type": "node",
        "id": 11097276370,
        "lat": 12.9895425,
        "lon": 77.5929386,
        "tags": {
          "bus": "yes",
          "name": "Chandrika Hotel",
          "name:en": "Chandrika Hotel",
          "network": "BMTC",
          "operator": "BMTC",
          "public_transport": "stop_position"
        }
      },
      {
        "type": "node",
        "id": 11097276372,
        "lat": 12.9807351,
        "lon": 77.598434,
        "tags": {
          "bus": "yes",
          "name": "Cubbon Park Metro Station",
          "name:en": "Cubbon Park",
          "name:kn": "\u0c95\u0cac\u0ccd\u0cac\u0ca8\u0ccd \u0caa\u0cbe\u0cb0\u0ccd\u0c95\u0ccd",
          "network": "BMTC",
          "operator": "BMTC",
          "public_transport": "stop_position"
        }
      },
      {
        "type": "node",
        "id": 11214889013,
        "lat": 12.9805484,
        "lon": 77.5978893,
        "tags": {
          "amenity": "charging_station",
          "charging_station:battery_swapping": "yes",
          "name": "Pulse"
        }
      },
      {
        "type": "node",
        "id": 11297781805,
        "lat": 12.9710109,
        "lon": 77.597788,
        "tags": {
          "amenity": "charging_station",
          "brand": "Hero Vida"
        }
      },
      {
        "type": "node",
        "id": 11408768738,
        "lat": 12.9736666,
        "lon": 77.5830855,
        "tags": {
          "amenity": "charging_station",
          "charging_station:battery_swapping": "yes"
        }
      },
      {
        "type": "node",
        "id": 11696866840,
        "lat": 12.9791186,
        "lon": 77.5851012,
        "tags": {
          "bus": "yes",
          "name": "Maharani's College",
          "name:en": "Maharani's College",
          "name:kn": "\u0cae\u0cb9\u0cbe\u0cb0\u0cbe\u0ca3\u0cbf \u0c95\u0cbe\u0cb2\u0cc7\u0c9c\u0cc1",
          "network": "BMTC",
          "operator": "BMTC",
          "public_transport": "stop_position"
        }
      },
      {
        "type": "node",
        "id": 11869483352,
        "lat": 13.0018764,
        "lon": 77.5944004,
        "tags": {
          "bus": "yes",
          "name": "Jayamahal",
          "name:en": "Jayamahal",
          "network": "BMTC",
          "operator": "BMTC",
          "public_transport": "stop_position"
        }
      },
      {
        "type": "node",
        "id": 11872065335,
        "lat": 12.9956719,
        "lon": 77.6110975,
        "tags": {
          "bus": "yes",
          "name": "Seventh Day School",
          "name:en": "Seventh Day School",
          "network": "BMTC",
          "operator": "BMTC",
          "public_transport": "stop_position"
        }
      },
      {
        "type": "node",
        "id": 11890400011,
        "lat": 12.9775345,
        "lon": 77.5848731,
        "tags": {
          "bus": "yes",
          "name": "Maharani College",
          "name:en": "Maharani College",
          "name:kn": "\u0cae\u0cb9\u0cbe\u0cb0\u0cbe\u0ca3\u0cbf \u0c95\u0cbe\u0cb2\u0cc7\u0c9c\u0cc1",
          "network": "BMTC",
          "operator": "BMTC",
          "public_transport": "stop_position"
        }
      },
      {
        "type": "node",
        "id": 12001070285,
        "lat": 12.9964741,
        "lon": 77.6122192,
        "tags": {
          "bus": "yes",
          "name": "Coles Road",
          "name:en": "Coles Road",
          "network": "BMTC",
          "operator": "BMTC",
          "public_transport": "stop_position"
        }
      },
      {
        "type": "node",
        "id": 12002046035,
        "lat": 12.977855,
        "lon": 77.5812757,
        "tags": {
          "amenity": "charging_station",
          "fee": "yes",
          "motorcar": "yes",
          "motorcycle": "yes"
        }
      },
      {
        "type": "node",
        "id": 12006306827,
        "lat": 12.9994892,
        "lon": 77.5842618,
        "tags": {
          "bus": "yes",
          "name": "Palace Guttahalli",
          "name:en": "Palace Guttahalli",
          "network": "BMTC",
          "operator": "BMTC",
          "public_transport": "stop_position"
        }
      },
      {
        "type": "node",
        "id": 12009455446,
        "lat": 12.9897084,
        "lon": 77.5727323,
        "tags": {
          "bus": "yes",
          "name": "Central",
          "name:en": "Central",
          "network": "BMTC",
          "operator": "BMTC",
          "public_transport": "stop_position"
        }
      },
      {
        "type": "node",
        "id": 12078138004,
        "lat": 12.9810756,
        "lon": 77.5966804,
        "tags": {
          "amenity": "charging_station"
        }
      },
      {
        "type": "node",
        "id": 12101733050,
        "lat": 12.965406,
        "lon": 77.6002473,
        "tags": {
          "access": "yes",
          "amenity": "charging_station",
          "brand": "Ola Hypercharger"
        }
      },
      {
        "type": "node",
        "id": 12479801113,
        "lat": 12.9786,
        "lon": 77.5721999,
        "tags": {
          "bus": "yes",
          "name": "Platform 20B",
          "operator": "BMTC",
          "public_transport": "stop_position"
        }
      },
      {
        "type": "node",
        "id": 12479801114,
        "lat": 12.9785778,
        "lon": 77.5720175,
        "tags": {
          "bus": "yes",
          "name": "Platform 20A",
          "operator": "BMTC",
          "public_transport": "stop_position"
        }
      },
      {
        "type": "node",
        "id": 12479801115,
        "lat": 12.9785118,
        "lon": 77.5718715,
        "tags": {
          "bus": "yes",
          "name": "Platform 20",
          "operator": "BMTC",
          "public_transport": "stop_position"
        }
      },
      {
        "type": "node",
        "id": 12479801175,
        "lat": 12.9783511,
        "lon": 77.5719972,
        "tags": {
          "bus": "yes",
          "name": "Platform 16",
          "operator": "BMTC",
          "public_transport": "stop_position"
        }
      },
      {
        "type": "node",
        "id": 12479801176,
        "lat": 12.9784076,
        "lon": 77.5721601,
        "tags": {
          "bus": "yes",
          "name": "Platform 15A",
          "operator": "BMTC",
          "public_transport": "stop_position"
        }
      },
      {
        "type": "node",
        "id": 12479801177,
        "lat": 12.9784244,
        "lon": 77.5722951,
        "tags": {
          "bus": "yes",
          "name": "Platform 15",
          "operator": "BMTC",
          "public_transport": "stop_position"
        }
      },
      {
        "type": "node",
        "id": 12479801190,
        "lat": 12.9784189,
        "lon": 77.5724888,
        "tags": {
          "bus": "yes",
          "name": "Platform 14",
          "operator": "BMTC",
          "public_transport": "stop_position"
        }
      },
      {
        "type": "node",
        "id": 12479801191,
        "lat": 12.9783995,
        "lon": 77.5725967,
        "tags": {
          "bus": "yes",
          "name": "Platform 13",
          "operator": "BMTC",
          "public_transport": "stop_position"
        }
      },
      {
        "type": "node",
        "id": 12479801192,
        "lat": 12.9783424,
        "lon": 77.5727364,
        "tags": {
          "bus": "yes",
          "name": "Platform 12A",
          "operator": "BMTC",
          "public_transport": "stop_position"
        }
      },
      {
        "type": "node",
        "id": 12479801194,
        "lat": 12.9779899,
        "lon": 77.5731353,
        "tags": {
          "bus": "yes",
          "name": "Platform 11A",
          "operator": "BMTC",
          "public_transport": "stop_position"
        }
      },
      {
        "type": "node",
        "id": 12479801195,
        "lat": 12.9778782,
        "lon": 77.5731873,
        "tags": {
          "bus": "yes",
          "name": "Platform 11",
          "operator": "BMTC",
          "public_transport": "stop_position"
        }
      },
      {
        "type": "node",
        "id": 12479806808,
        "lat": 12.9780777,
        "lon": 77.572811,
        "tags": {
          "bus": "yes",
          "name": "Platform 9",
          "operator": "BMTC",
          "public_transport": "stop_position"
        }
      },
      {
        "type": "node",
        "id": 12479806809,
        "lat": 12.9781644,
        "lon": 77.5726809,
        "tags": {
          "bus": "yes",
          "name": "Platform 8B",
          "operator": "BMTC",
          "public_transport": "stop_position"
        }
      },
      {
        "type": "node",
        "id": 12479806823,
        "lat": 12.9779433,
        "lon": 77.572024,
        "tags": {
          "bus": "yes",
          "name": "Platform 4A",
          "operator": "BMTC",
          "public_transport": "stop_position"
        }
      },
      {
        "type": "node",
        "id": 12479806835,
        "lat": 12.9779386,
        "lon": 77.5729337,
        "tags": {
          "bus": "yes",
          "name": "Platform 10",
          "operator": "BMTC",
          "public_transport": "stop_position"
        }
      },
      {
        "type": "node",
        "id": 12479806836,
        "lat": 12.9780131,
        "lon": 77.5721195,
        "tags": {
          "bus": "yes",
          "name": "Platform 4",
          "name:kn": "\u0cb5\u0cc7\u0ca6\u0cbf\u0c95\u0cc6 \u0cea",
          "operator": "BMTC",
          "public_transport": "stop_position"
        }
      },
      {
        "type": "node",
        "id": 12506944637,
        "lat": 12.9784072,
        "lon": 77.5725538,
        "tags": {
          "bus": "yes",
          "name": "Platform 25C",
          "operator": "BMTC",
          "public_transport": "stop_position"
        }
      },
      {
        "type": "node",
        "id": 12506944638,
        "lat": 12.9783342,
        "lon": 77.5727541,
        "tags": {
          "bus": "yes",
          "name": "Platform 25B",
          "operator": "BMTC",
          "public_transport": "stop_position"
        }
      },
      {
        "type": "node",
        "id": 12506944639,
        "lat": 12.9782715,
        "lon": 77.5728788,
        "tags": {
          "bus": "yes",
          "name": "Platform 25A",
          "operator": "BMTC",
          "public_transport": "stop_position"
        }
      },
      {
        "type": "node",
        "id": 12506944640,
        "lat": 12.9781179,
        "lon": 77.5730294,
        "tags": {
          "bus": "yes",
          "name": "Platform 25",
          "operator": "BMTC",
          "public_transport": "stop_position"
        }
      },
      {
        "type": "node",
        "id": 12506944641,
        "lat": 12.9779091,
        "lon": 77.5731729,
        "tags": {
          "bus": "yes",
          "name": "Platform 24",
          "operator": "BMTC",
          "public_transport": "stop_position"
        }
      },
      {
        "type": "node",
        "id": 12506944661,
        "lat": 12.9783183,
        "lon": 77.571935,
        "tags": {
          "bus": "yes",
          "name": "Platform 27A",
          "operator": "BMTC",
          "public_transport": "stop_position"
        }
      },
      {
        "type": "node",
        "id": 12506944662,
        "lat": 12.9783675,
        "lon": 77.5720375,
        "tags": {
          "bus": "yes",
          "name": "Platform 27",
          "operator": "BMTC",
          "public_transport": "stop_position"
        }
      },
      {
        "type": "node",
        "id": 12506944663,
        "lat": 12.978402,
        "lon": 77.5721355,
        "tags": {
          "bus": "yes",
          "name": "Platform 26A",
          "operator": "BMTC",
          "public_transport": "stop_position"
        }
      },
      {
        "type": "node",
        "id": 12506944664,
        "lat": 12.9784197,
        "lon": 77.5722573,
        "tags": {
          "bus": "yes",
          "name": "Platform 26",
          "operator": "BMTC",
          "public_transport": "stop_position"
        }
      },
      {
        "type": "node",
        "id": 12506944680,
        "lat": 12.9781569,
        "lon": 77.5729941,
        "tags": {
          "bus": "yes",
          "name": "Platform 11C",
          "operator": "BMTC",
          "public_transport": "stop_position"
        }
      },
      {
        "type": "node",
        "id": 12506944681,
        "lat": 12.9780954,
        "lon": 77.5730497,
        "tags": {
          "bus": "yes",
          "name": "Platform 11B",
          "operator": "BMTC",
          "public_transport": "stop_position"
        }
      },
      {
        "type": "node",
        "id": 12506944693,
        "lat": 12.9775139,
        "lon": 77.5726718,
        "tags": {
          "bus": "yes",
          "name": "KIA Bus Stop",
          "official_name": "Platform 30",
          "operator": "BMTC",
          "public_transport": "stop_position"
        }
      },
      {
        "type": "node",
        "id": 12506944698,
        "lat": 12.9778904,
        "lon": 77.5733875,
        "tags": {
          "bus": "yes",
          "name": "Platform 23D",
          "operator": "BMTC",
          "public_transport": "stop_position"
        }
      },
      {
        "type": "node",
        "id": 12506944699,
        "lat": 12.9780198,
        "lon": 77.5733244,
        "tags": {
          "bus": "yes",
          "name": "Platform 23C",
          "operator": "BMTC",
          "public_transport": "stop_position"
        }
      },
      {
        "type": "node",
        "id": 12506944700,
        "lat": 12.9782161,
        "lon": 77.5731911,
        "tags": {
          "bus": "yes",
          "name": "Platform 23A",
          "operator": "BMTC",
          "public_transport": "stop_position"
        }
      },
      {
        "type": "node",
        "id": 12506953101,
        "lat": 12.9784828,
        "lon": 77.5729077,
        "tags": {
          "bus": "yes",
          "name": "Platform 22B",
          "operator": "BMTC",
          "public_transport": "stop_position"
        }
      },
      {
        "type": "node",
        "id": 12506953102,
        "lat": 12.9785603,
        "lon": 77.5727305,
        "tags": {
          "bus": "yes",
          "name": "Platform 22",
          "operator": "BMTC",
          "public_transport": "stop_position"
        }
      },
      {
        "type": "node",
        "id": 12507237905,
        "lat": 12.9837499,
        "lon": 77.6030616,
        "tags": {
          "bus": "yes",
          "name": "Platform 12",
          "operator": "BMTC",
          "public_transport": "stop_position",
          "ref": "12"
        }
      },
      {
        "type": "node",
        "id": 12507237906,
        "lat": 12.9835508,
        "lon": 77.602996,
        "tags": {
          "bus": "yes",
          "name": "Platform 11",
          "operator": "BMTC",
          "public_transport": "stop_position",
          "ref": "11"
        }
      },
      {
        "type": "node",
        "id": 12507237907,
        "lat": 12.9833479,
        "lon": 77.6029292,
        "tags": {
          "bus": "yes",
          "name": "Platform 10",
          "operator": "BMTC",
          "public_transport": "stop_position",
          "ref": "10"
        }
      },
      {
        "type": "node",
        "id": 12507237908,
        "lat": 12.9831435,
        "lon": 77.6028619,
        "tags": {
          "bus": "yes",
          "name": "Platform 9",
          "operator": "BMTC",
          "public_transport": "stop_position",
          "ref": "9"
        }
      },
      {
        "type": "node",
        "id": 12507237909,
        "lat": 12.9831135,
        "lon": 77.6029756,
        "tags": {
          "bus": "yes",
          "name": "Platform 5",
          "operator": "BMTC",
          "public_transport": "stop_position",
          "ref": "5"
        }
      },
      {
        "type": "node",
        "id": 12507237910,
        "lat": 12.983317,
        "lon": 77.6030402,
        "tags": {
          "bus": "yes",
          "name": "Platform 6",
          "operator": "BMTC",
          "public_transport": "stop_position",
          "ref": "6"
        }
      },
      {
        "type": "node",
        "id": 12507237911,
        "lat": 12.9837213,
        "lon": 77.6031685,
        "tags": {
          "bus": "yes",
          "name": "Platform 8",
          "operator": "BMTC",
          "public_transport": "stop_position",
          "ref": "8"
        }
      },
      {
        "type": "node",
        "id": 12507237912,
        "lat": 12.9836838,
        "lon": 77.6032885,
        "tags": {
          "bus": "yes",
          "name": "Platform 4",
          "operator": "BMTC",
          "public_transport": "stop_position",
          "ref": "4"
        }
      },
      {
        "type": "node",
        "id": 12507237913,
        "lat": 12.9834832,
        "lon": 77.6032283,
        "tags": {
          "bus": "yes",
          "name": "Platform 3",
          "operator": "BMTC",
          "public_transport": "stop_position",
          "ref": "3"
        }
      },
      {
        "type": "node",
        "id": 12507237914,
        "lat": 12.9832866,
        "lon": 77.6031693,
        "tags": {
          "bus": "yes",
          "name": "Platform 2",
          "operator": "BMTC",
          "public_transport": "stop_position",
          "ref": "2"
        }
      },
      {
        "type": "node",
        "id": 12507237915,
        "lat": 12.9830792,
        "lon": 77.6031071,
        "tags": {
          "bus": "yes",
          "name": "Platform 1",
          "operator": "BMTC",
          "public_transport": "stop_position",
          "ref": "1"
        }
      },
      {
        "type": "node",
        "id": 12511727435,
        "lat": 12.9944198,
        "lon": 77.5779993,
        "tags": {
          "bus": "yes",
          "name": "RMS Sheshadripuram",
          "name:en": "RMS Sheshadripuram",
          "network": "BMTC",
          "operator": "BMTC",
          "public_transport": "stop_position"
        }
      },
      {
        "type": "node",
        "id": 12512417632,
        "lat": 12.9977498,
        "lon": 77.5840988,
        "tags": {
          "bus": "yes",
          "name": "Guttahalli Underpass",
          "name:en": "Guttahalli Underpass",
          "network": "BMTC",
          "note": "Stop used only for Metro Feeder bus route MF-8A",
          "operator": "BMTC",
          "public_transport": "stop_position"
        }
      },
      {
        "type": "node",
        "id": 12512417634,
        "lat": 12.9977878,
        "lon": 77.584791,
        "tags": {
          "bus": "yes",
          "name": "Guttahalli Underpass",
          "name:en": "Guttahalli Underpass",
          "network": "BMTC",
          "note": "Stop used only for Metro Feeder bus route MF-8A",
          "operator": "BMTC",
          "public_transport": "stop_position"
        }
      },
      {
        "type": "node",
        "id": 12512417636,
        "lat": 12.9992356,
        "lon": 77.5827481,
        "tags": {
          "bus": "yes",
          "name": "RM Guttahalli Post Office",
          "name:en": "RM Guttahalli Post Office",
          "network": "BMTC",
          "operator": "BMTC",
          "public_transport": "stop_position"
        }
      },
      {
        "type": "node",
        "id": 12526337224,
        "lat": 12.9816889,
        "lon": 77.574589,
        "tags": {
          "bus": "yes",
          "name": "Ananda Rao Circle",
          "name:en": "Ananda Rao Circle",
          "network": "BMTC",
          "operator": "BMTC",
          "public_transport": "stop_position"
        }
      },
      {
        "type": "node",
        "id": 12529348117,
        "lat": 12.9711887,
        "lon": 77.6143701,
        "tags": {
          "addr:city": "Bangalore",
          "addr:country": "IN",
          "addr:housenumber": "19",
          "addr:postcode": "560025",
          "addr:street": "Brunton Road",
          "addr:suburb": "Ashok Nagar",
          "amenity": "theatre",
          "capacity": "188",
          "level": "1",
          "name": "The Falcon's Den",
          "website": "https://thefalconsden.com/",
          "wheelchair": "yes"
        }
      },
      {
        "type": "node",
        "id": 12788139581,
        "lat": 12.9861844,
        "lon": 77.6156891,
        "tags": {
          "amenity": "charging_station",
          "charging_station:battery_swapping": "yes",
          "fee": "yes",
          "level": "0",
          "motorcar": "no",
          "motorcycle": "yes",
          "name": "Honda e:swap",
          "operator": "Honda e:swap"
        }
      },
      {
        "type": "node",
        "id": 13020763140,
        "lat": 12.9998796,
        "lon": 77.5839524,
        "tags": {
          "bus": "yes",
          "name": "RM Guttahalli",
          "name:en": "RM Guttahalli",
          "network": "BMTC",
          "operator": "BMTC",
          "public_transport": "stop_position"
        }
      },
      {
        "type": "node",
        "id": 13074467490,
        "lat": 12.9824045,
        "lon": 77.5886066,
        "tags": {
          "bus": "yes",
          "name": "Telephone Exchange AGO/VSD",
          "name:en": "Telephone Exchange AGO/VSD",
          "network": "BMTC",
          "operator": "BMTC",
          "public_transport": "stop_position"
        }
      }
    ]
  }
}