{
  "pois_1km": {
    "version": 0.6,
    "generator": "Overpass API 0.7.62.8 e802775f",
    "osm3s": {
      "timestamp_osm_base": "2025-09-06T08:12:26Z",
      "copyright": "The data included in this document is from www.openstreetmap.org. The data is made available under ODbL."
    },
    "elements": [
      {
        "type": "node",
        "id": 1464792560,
        "lat": 13.2009574,
        "lon": 77.7088941,
        "tags": {
          "amenity": "restaurant",
          "cuisine": "italian",
          "name": "Alta Vita"
        }
      },
      {
        "type": "node",
        "id": 1464792873,
        "lat": 13.1990257,
        "lon": 77.7042304,
        "tags": {
          "amenity": "atm",
          "brand": "Canara Bank",
          "brand:en": "Canara Bank",
          "brand:hi": "\u0915\u0947\u0928\u0930\u093e \u092c\u0948\u0902\u0915",
          "brand:kn": "\u0c95\u0cc6\u0ca8\u0cb0\u0cbe \u0cac\u0ccd\u0caf\u0cbe\u0c82\u0c95\u0ccd",
          "brand:pa": "\u0a15\u0a47\u0a28\u0a30\u0a3e \u0a2c\u0a48\u0a02\u0a15",
          "brand:pnb": "\u06a9\u06cc\u0646\u0631\u0627 \u0628\u06cc\u0646\u06a9",
          "brand:ur": "\u06a9\u06cc\u0646\u0631\u0627 \u0628\u06cc\u0646\u06a9",
          "brand:wikidata": "Q2003777",
          "name": "Canara Bank",
          "name:en": "Canara Bank",
          "name:hi": "\u0915\u0947\u0928\u0930\u093e \u092c\u0948\u0902\u0915",
          "name:kn": "\u0c95\u0cc6\u0ca8\u0cb0\u0cbe \u0cac\u0ccd\u0caf\u0cbe\u0c82\u0c95\u0ccd",
          "name:pa": "\u0a15\u0a47\u0a28\u0a30\u0a3e \u0a2c\u0a48\u0a02\u0a15",
          "name:pnb": "\u06a9\u06cc\u0646\u0631\u0627 \u0628\u06cc\u0646\u06a9",
          "name:ur": "\u06a9\u06cc\u0646\u0631\u0627 \u0628\u06cc\u0646\u06a9",
          "operator": "Canara Bank",
          "operator:wikidata": "Q2003777"
        }
      },
      {
        "type": "node",
        "id": 1512583613,
        "lat": 13.1991422,
        "lon": 77.7096814,
        "tags": {
          "amenity": "cafe",
          "brand": "Cafe Coffee Day",
          "brand:wikidata": "Q5017235",
          "brand:wikipedia": "en:Caf\u00e9 Coffee Day",
          "cuisine": "coffee_shop",
          "name": "Cafe Coffee Day",
          "name:kn": "\u0c95\u0cab\u0cc6 \u0c95\u0cbe\u0cab\u0cbf \u0ca1\u0cc7",
          "takeaway": "yes"
        }
      },
      {
        "type": "node",
        "id": 2917556710,
        "lat": 13.1996664,
        "lon": 77.7087072,
        "tags": {
          "amenity": "cafe",
          "cuisine": "international",
          "name": "Cafe Noir"
        }
      },
      {
        "type": "node",
        "id": 2917556712,
        "lat": 13.1998255,
        "lon": 77.7106089,
        "tags": {
          "amenity": "cafe",
          "brand": "Chai Point",
          "brand:wikidata": "Q28173415",
          "cuisine": "coffee_shop",
          "name": "Chai Point",
          "takeaway": "yes"
        }
      },
      {
        "type": "node",
        "id": 2917556713,
        "lat": 13.1998255,
        "lon": 77.7106894,
        "tags": {
          "amenity": "cafe",
          "cuisine": "coffee_shop",
          "name": "Hatti Coffee"
        }
      },
      {
        "type": "node",
        "id": 2917556715,
        "lat": 13.199849,
        "lon": 77.7091433,
        "tags": {
          "amenity": "fast_food",
          "brand": "Subway",
          "brand:pa": "\u0a38\u0a2c\u0a35\u0a47\u0a05",
          "brand:ur": "\u0633\u0628 \u0648\u06d2",
          "brand:wikidata": "Q244457",
          "brand:wikipedia": "en:Subway (restaurant)",
          "cuisine": "sandwich",
          "name": "Subway",
          "name:kn": "\u0cb8\u0cac\u0ccd\u200c\u0cb5\u0cc7",
          "name:pa": "\u0a38\u0a2c\u0a35\u0a47\u0a05",
          "name:ur": "\u0633\u0628 \u0648\u06d2",
          "takeaway": "yes"
        }
      },
      {
        "type": "node",
        "id": 3901539894,
        "lat": 13.200122,
        "lon": 77.7105196,
        "tags": {
          "amenity": "cafe",
          "brand": "Cafe Coffee Day",
          "brand:wikidata": "Q5017235",
          "brand:wikipedia": "en:Caf\u00e9 Coffee Day",
          "cuisine": "coffee_shop",
          "name": "Cafe Coffee Day",
          "name:kn": "\u0c95\u0cab\u0cc6 \u0c95\u0cbe\u0cab\u0cbf \u0ca1\u0cc7",
          "takeaway": "yes"
        }
      },
      {
        "type": "node",
        "id": 6536076515,
        "lat": 13.1990627,
        "lon": 77.7075967,
        "tags": {
          "amenity": "restaurant",
          "name": "Nandi Upachara",
          "name:kn": "\u0ca8\u0c82\u0ca6\u0cbf \u0c89\u0caa\u0cb9\u0cbe\u0cb0"
        }
      },
      {
        "type": "node",
        "id": 9722887370,
        "lat": 13.1995923,
        "lon": 77.7096285,
        "tags": {
          "amenity": "cafe",
          "brand": "Starbucks",
          "brand:wikidata": "Q37158",
          "cuisine": "coffee_shop",
          "name": "Starbucks",
          "name:kn": "\u0cb8\u0ccd\u0c9f\u0cbe\u0cb0\u0ccd\u0cac\u0c95\u0ccd\u0cb8\u0ccd",
          "official_name": "Starbucks Coffee",
          "takeaway": "yes"
        }
      },
      {
        "type": "node",
        "id": 9722896605,
        "lat": 13.1995047,
        "lon": 77.7097521,
        "tags": {
          "amenity": "fast_food",
          "name": "The Gourmet Food"
        }
      },
      {
        "type": "node",
        "id": 11069650916,
        "lat": 13.2009575,
        "lon": 77.7100794,
        "tags": {
          "amenity": "cafe",
          "name": "Cafe Espresso"
        }
      },
      {
        "type": "node",
        "id": 11069650919,
        "lat": 13.2009549,
        "lon": 77.7099312,
        "tags": {
          "name": "Relay",
          "shop": "supermarket"
        }
      },
      {
        "type": "node",
        "id": 11069650920,
        "lat": 13.2009549,
        "lon": 77.7098621,
        "tags": {
          "alt_name": "Kentucky Fried Chicken",
          "alt_name:en": "Kentucky Fried Chicken",
          "alt_name:hi": "\u0915\u0947\u0902\u091f\u0941\u0915\u0940 \u092b\u094d\u0930\u093e\u0907\u0921 \u091a\u093f\u0915\u0928",
          "alt_name:pa": "\u0a15\u0a48\u0a02\u0a1f\u0a41\u0a15\u0a40 \u0a2b\u0a4d\u0a30\u0a3e\u0a08\u0a21 \u0a1a\u0a3f\u0a15\u0a28",
          "alt_name:pnb": "\u06a9\u06cc\u0646\u0679\u06a9\u06cc \u0641\u0631\u0627\u0626\u06cc\u0688 \u0686\u06a9\u0646",
          "alt_name:ur": "\u06a9\u06cc\u0646\u0679\u06a9\u06cc \u0641\u0631\u0627\u0626\u06cc\u0688 \u0686\u06a9\u0646",
          "amenity": "fast_food",
          "brand": "KFC",
          "brand:en": "KFC",
          "brand:hi": "\u0915\u0947\u090f\u092b\u0938\u0940",
          "brand:pa": "\u0a15\u0a47\u0a10\u0a2b\u0a38\u0a40",
          "brand:pnb": "\u06a9\u06d2 \u0627\u06cc\u0641 \u0633\u06cc",
          "brand:ur": "\u06a9\u06d2 \u0627\u06cc\u0641 \u0633\u06cc",
          "brand:wikidata": "Q524757",
          "cuisine": "chicken",
          "name": "KFC",
          "name:en": "KFC",
          "name:hi": "\u0915\u0947\u090f\u092b\u0938\u0940",
          "name:pa": "\u0a15\u0a47\u0a10\u0a2b\u0a38\u0a40",
          "name:pnb": "\u06a9\u06d2 \u0627\u06cc\u0641 \u0633\u06cc",
          "name:ur": "\u06a9\u06d2 \u0627\u06cc\u0641 \u0633\u06cc",
          "takeaway": "yes"
        }
      },
      {
        "type": "node",
        "id": 11069650921,
        "lat": 13.2009575,
        "lon": 77.7094625,
        "tags": {
          "amenity": "cafe",
          "name": "Brewd Bar and Cafe"
        }
      },
      {
        "type": "node",
        "id": 11069650927,
        "lat": 13.2009536,
        "lon": 77.7098132,
        "tags": {
          "amenity": "fast_food",
          "cuisine": "donut",
          "name": "Krispy Kreme"
        }
      },
      {
        "type": "node",
        "id": 11069650936,
        "lat": 13.2009673,
        "lon": 77.7091229,
        "tags": {
          "amenity": "cafe",
          "name": "Smoor",
          "shop": "bakery"
        }
      },
      {
        "type": "node",
        "id": 11069650937,
        "lat": 13.200964,
        "lon": 77.7090213,
        "tags": {
          "amenity": "cafe",
          "brand": "Starbucks",
          "brand:wikidata": "Q37158",
          "cuisine": "coffee_shop",
          "name": "Starbucks",
          "name:kn": "\u0cb8\u0ccd\u0c9f\u0cbe\u0cb0\u0ccd\u0cac\u0c95\u0ccd\u0cb8\u0ccd",
          "official_name": "Starbucks Coffee",
          "takeaway": "yes"
        }
      },
      {
        "type": "node",
        "id": 11069650940,
        "lat": 13.2008217,
        "lon": 77.7088214,
        "tags": {
          "addr:city": "Bengaluru",
          "addr:housenumber": "1",
          "addr:postcode": "560300",
          "addr:street": "Terminal",
          "air_conditioning": "yes",
          "amenity": "restaurant",
          "bar": "yes",
          "branch": "KIA Terminal -1",
          "brand": "080",
          "changing_table": "yes",
          "diet:non-vegetarian": "yes",
          "diet:vegan": "yes",
          "diet:vegetarian": "yes",
          "level": "1",
          "name": "080 Domestic lounge",
          "opening_hours": "24/7",
          "toilets": "yes",
          "toilets:wheelchair": "yes",
          "wheelchair": "yes"
        }
      },
      {
        "type": "node",
        "id": 11069650943,
        "lat": 13.200964,
        "lon": 77.7085251,
        "tags": {
          "amenity": "restaurant",
          "cuisine": "regional",
          "name": "Tiffin Center"
        }
      },
      {
        "type": "node",
        "id": 11545500290,
        "lat": 13.2004977,
        "lon": 77.7087043,
        "tags": {
          "amenity": "atm",
          "atm": "yes",
          "brand": "State Bank of India",
          "brand:wikidata": "Q1340361",
          "name": "SBI ATM",
          "operator": "State Bank of India",
          "operator:wikidata": "Q1340361",
          "short_name": "SBI"
        }
      },
      {
        "type": "node",
        "id": 11545500291,
        "lat": 13.2002869,
        "lon": 77.7094194,
        "tags": {
          "amenity": "atm",
          "atm": "yes",
          "name": "Kotak bank ATM"
        }
      },
      {
        "type": "node",
        "id": 11545500292,
        "lat": 13.200877,
        "lon": 77.7091779,
        "tags": {
          "amenity": "atm",
          "atm": "yes",
          "name": "Kotak bank ATM"
        }
      },
      {
        "type": "node",
        "id": 11551855750,
        "lat": 13.1991687,
        "lon": 77.7092332,
        "tags": {
          "amenity": "restaurant",
          "name": "Bhartiya Jalpan"
        }
      },
      {
        "type": "node",
        "id": 11962610285,
        "lat": 13.1993022,
        "lon": 77.7186061,
        "tags": {
          "amenity": "cafe",
          "check_date": "2024-06-07",
          "cuisine": "coffee_shop",
          "name": "HMS",
          "outdoor_seating": "no"
        }
      },
      {
        "type": "node",
        "id": 11962610286,
        "lat": 13.1991311,
        "lon": 77.7184314,
        "tags": {
          "amenity": "cafe",
          "check_date": "2024-06-07",
          "name": "La Madeleine"
        }
      },
      {
        "type": "node",
        "id": 11962610287,
        "lat": 13.199299,
        "lon": 77.7183159,
        "tags": {
          "access": "passengers",
          "amenity": "restaurant",
          "check_date": "2024-06-07",
          "name": "Wolfgang Puck"
        }
      },
      {
        "type": "node",
        "id": 12060269128,
        "lat": 13.1986371,
        "lon": 77.7192148,
        "tags": {
          "amenity": "cafe",
          "check_date": "2024-07-18",
          "name": "Grab And Go"
        }
      },
      {
        "type": "node",
        "id": 12159824246,
        "lat": 13.1998993,
        "lon": 77.7111208,
        "tags": {
          "alt_name": "Dunkin' Donuts",
          "amenity": "fast_food",
          "brand": "Dunkin'",
          "brand:wikidata": "Q847743",
          "check_date": "2024-09-04",
          "cuisine": "donut;coffee_shop",
          "name": "Dunkin'",
          "takeaway": "yes"
        }
      },
      {
        "type": "node",
        "id": 12531970253,
        "lat": 13.1993633,
        "lon": 77.7092372,
        "tags": {
          "amenity": "fast_food",
          "name": "Dalkomi"
        }
      },
      {
        "type": "node",
        "id": 12657950229,
        "lat": 13.1989647,
        "lon": 77.7159869,
        "tags": {
          "amenity": "cafe",
          "cuisine": "coffee_shop",
          "name": "Coffee Bean & Tea Leaf"
        }
      },
      {
        "type": "node",
        "id": 12753677796,
        "lat": 13.1993319,
        "lon": 77.7088604,
        "tags": {
          "amenity": "cafe",
          "name": "Mitti Cafe"
        }
      },
      {
        "type": "node",
        "id": 13034200316,
        "lat": 13.2011455,
        "lon": 77.7103751,
        "tags": {
          "amenity": "cafe",
          "brand": "Chai Point",
          "brand:wikidata": "Q28173415",
          "cuisine": "coffee_shop",
          "name": "Chai Point",
          "takeaway": "yes"
        }
      },
      {
        "type": "node",
        "id": 13034200318,
        "lat": 13.201265,
        "lon": 77.7103738,
        "tags": {
          "amenity": "fast_food",
          "name": "Hello Goodbye Bar"
        }
      },
      {
        "type": "node",
        "id": 13034200319,
        "lat": 13.2012676,
        "lon": 77.7102812,
        "tags": {
          "amenity": "fast_food",
          "name": "Tiffin Express"
        }
      },
      {
        "type": "node",
        "id": 13034200323,
        "lat": 13.2009673,
        "lon": 77.7092137,
        "tags": {
          "alt_name": "Kentucky Fried Chicken",
          "amenity": "fast_food",
          "brand": "KFC",
          "brand:wikidata": "Q524757",
          "cuisine": "chicken",
          "name": "KFC",
          "takeaway": "yes"
        }
      },
      {
        "type": "node",
        "id": 13034200348,
        "lat": 13.2000919,
        "lon": 77.7087437,
        "tags": {
          "amenity": "cafe",
          "brand": "Cafe Coffee Day",
          "brand:wikidata": "Q5017235",
          "cuisine": "coffee_shop",
          "name": "Cafe Coffee Day",
          "takeaway": "yes"
        }
      },
      {
        "type": "node",
        "id": 13034200349,
        "lat": 13.1998647,
        "lon": 77.7087463,
        "tags": {
          "amenity": "fast_food",
          "name": "Ooru Canteen"
        }
      },
      {
        "type": "node",
        "id": 13034200350,
        "lat": 13.1998712,
        "lon": 77.7085398,
        "tags": {
          "amenity": "cafe",
          "brand": "Third Wave Coffee Roasters",
          "brand:wikidata": "Q7785004",
          "cuisine": "coffee_shop",
          "delivery": "yes",
          "name": "Third Wave Coffee Roasters",
          "takeaway": "yes"
        }
      },
      {
        "type": "node",
        "id": 13092337627,
        "lat": 13.200982,
        "lon": 77.7095087,
        "tags": {
          "amenity": "fast_food",
          "check_date": "2025-08-23",
          "name": "Tiffin Express"
        }
      }
    ]
  },
  "pois_2_5km": {
    "version": 0.6,
    "generator": "Overpass API 0.7.62.8 e802775f",
    "osm3s": {
      "timestamp_osm_base": "2025-09-06T08:12:26Z",
      "copyright": "The data included in this document is from www.openstreetmap.org. The data is made available under ODbL."
    },
    "elements": [
      {
        "type": "node",
        "id": 5631135850,
        "lat": 13.1991375,
        "lon": 77.7088381,
        "tags": {
          "bus": "yes",
          "name": "Kempegowda International Airport Bus Station",
          "name:en": "Kempegowda International Airport Bus Station",
          "name:kn": "\u0cac\u0cb8\u0ccd \u0ca8\u0cbf\u0cb2\u0ccd\u0ca6\u0cbe\u0ca3",
          "network": "BMTC",
          "operator": "BMTC",
          "public_transport": "stop_position"
        }
      },
      {
        "type": "node",
        "id": 6842561187,
        "lat": 13.1832627,
        "lon": 77.6952975,
        "tags": {
          "bus": "yes",
          "name": "Mylanahalli",
          "name:en": "Mylanahalli",
          "name:kn": "\u0cae\u0cc8\u0cb2\u0ca8\u0cb9\u0cb3\u0ccd\u0cb3\u0cbf",
          "network": "BMTC",
          "operator": "BMTC",
          "public_transport": "stop_position"
        }
      },
      {
        "type": "node",
        "id": 10178076779,
        "lat": 13.1973512,
        "lon": 77.7076171,
        "tags": {
          "amenity": "charging_station"
        }
      },
      {
        "type": "node",
        "id": 12375764112,
        "lat": 13.1982031,
        "lon": 77.7136633,
        "tags": {
          "covered": "yes",
          "level": "0",
          "name": "Kempegowda International Airport",
          "public_transport": "stop_position"
        }
      },
      {
        "type": "node",
        "id": 12630658253,
        "lat": 13.2000331,
        "lon": 77.6907112,
        "tags": {
          "amenity": "fuel",
          "brand": "Shell",
          "brand:wikidata": "Q110716465",
          "name": "Shell"
        }
      },
      {
        "type": "node",
        "id": 13034176477,
        "lat": 13.1985144,
        "lon": 77.7136669,
        "tags": {
          "bus": "yes",
          "name": "Platform 18",
          "name:en": "Platform 18",
          "network": "BMTC",
          "operator": "BMTC",
          "public_transport": "stop_position"
        }
      },
      {
        "type": "node",
        "id": 13034176478,
        "lat": 13.1983783,
        "lon": 77.7136653,
        "tags": {
          "bus": "yes",
          "name": "Platform 17",
          "name:en": "Platform 17",
          "network": "BMTC",
          "operator": "BMTC",
          "public_transport": "stop_position"
        }
      },
      {
        "type": "node",
        "id": 13034176479,
        "lat": 13.198243,
        "lon": 77.7136638,
        "tags": {
          "bus": "yes",
          "name": "Platform 16",
          "name:en": "Platform 16",
          "network": "BMTC",
          "operator": "BMTC",
          "public_transport": "stop_position"
        }
      },
      {
        "type": "node",
        "id": 13034176480,
        "lat": 13.1981077,
        "lon": 77.7136622,
        "tags": {
          "bus": "yes",
          "name": "Platform 15",
          "name:en": "Platform 15",
          "network": "BMTC",
          "operator": "BMTC",
          "public_transport": "stop_position"
        }
      },
      {
        "type": "node",
        "id": 13034176481,
        "lat": 13.1979732,
        "lon": 77.7136607,
        "tags": {
          "bus": "yes",
          "name": "Platform 14",
          "name:en": "Platform 14",
          "network": "BMTC",
          "operator": "BMTC",
          "public_transport": "stop_position"
        }
      },
      {
        "type": "node",
        "id": 13034176482,
        "lat": 13.1978387,
        "lon": 77.7136591,
        "tags": {
          "bus": "yes",
          "name": "Platform 13",
          "name:en": "Platform 13",
          "network": "BMTC",
          "operator": "BMTC",
          "public_transport": "stop_position"
        }
      },
      {
        "type": "node",
        "id": 13034176489,
        "lat": 13.1985137,
        "lon": 77.7137213,
        "tags": {
          "bus": "yes",
          "name": "Platform 12",
          "name:en": "Platform 12",
          "network": "BMTC",
          "operator": "BMTC",
          "public_transport": "stop_position"
        }
      },
      {
        "type": "node",
        "id": 13034176490,
        "lat": 13.1983776,
        "lon": 77.7137207,
        "tags": {
          "bus": "yes",
          "name": "Platform 11",
          "name:en": "Platform 11",
          "network": "BMTC",
          "operator": "BMTC",
          "public_transport": "stop_position"
        }
      },
      {
        "type": "node",
        "id": 13034176491,
        "lat": 13.1982419,
        "lon": 77.71372,
        "tags": {
          "bus": "yes",
          "name": "Platform 10",
          "name:en": "Platform 10",
          "network": "BMTC",
          "operator": "BMTC",
          "public_transport": "stop_position"
        }
      },
      {
        "type": "node",
        "id": 13034176492,
        "lat": 13.198107,
        "lon": 77.7137194,
        "tags": {
          "bus": "yes",
          "name": "Platform 9",
          "name:en": "Platform 9",
          "network": "BMTC",
          "operator": "BMTC",
          "public_transport": "stop_position"
        }
      },
      {
        "type": "node",
        "id": 13034176493,
        "lat": 13.1979725,
        "lon": 77.7137188,
        "tags": {
          "bus": "yes",
          "name": "Platform 8",
          "name:en": "Platform 8",
          "network": "BMTC",
          "operator": "BMTC",
          "public_transport": "stop_position"
        }
      },
      {
        "type": "node",
        "id": 13034176494,
        "lat": 13.197838,
        "lon": 77.7137182,
        "tags": {
          "bus": "yes",
          "name": "Platform 7",
          "name:en": "Platform 7",
          "network": "BMTC",
          "operator": "BMTC",
          "public_transport": "stop_position"
        }
      },
      {
        "type": "node",
        "id": 13034200301,
        "lat": 13.1985117,
        "lon": 77.7137752,
        "tags": {
          "bus": "yes",
          "name": "Platform 6",
          "name:en": "Platform 6",
          "network": "BMTC",
          "operator": "BMTC",
          "public_transport": "stop_position"
        }
      },
      {
        "type": "node",
        "id": 13034200302,
        "lat": 13.1983757,
        "lon": 77.7137744,
        "tags": {
          "bus": "yes",
          "name": "Platform 5",
          "name:en": "Platform 5",
          "network": "BMTC",
          "operator": "BMTC",
          "public_transport": "stop_position"
        }
      },
      {
        "type": "node",
        "id": 13034200303,
        "lat": 13.1982399,
        "lon": 77.7137736,
        "tags": {
          "bus": "yes",
          "name": "Platform 4",
          "name:en": "Platform 4",
          "network": "BMTC",
          "operator": "BMTC",
          "public_transport": "stop_position"
        }
      },
      {
        "type": "node",
        "id": 13034200304,
        "lat": 13.1981051,
        "lon": 77.7137728,
        "tags": {
          "bus": "yes",
          "name": "Platform 3",
          "name:en": "3 2Platform 3",
          "network": "BMTC",
          "operator": "BMTC",
          "public_transport": "stop_position"
        }
      },
      {
        "type": "node",
        "id": 13034200305,
        "lat": 13.1979705,
        "lon": 77.7137721,
        "tags": {
          "bus": "yes",
          "name": "Platform 2",
          "name:en": "Platform 2",
          "network": "BMTC",
          "operator": "BMTC",
          "public_transport": "stop_position"
        }
      },
      {
        "type": "node",
        "id": 13034200311,
        "lat": 13.1978363,
        "lon": 77.7137713,
        "tags": {
          "bus": "yes",
          "name": "Platform 1",
          "name:en": "Platform 1",
          "network": "BMTC",
          "operator": "BMTC",
          "public_transport": "stop_position"
        }
      },
      {
        "type": "node",
        "id": 13034200338,
        "lat": 13.1989573,
        "lon": 77.7079677,
        "tags": {
          "bus": "yes",
          "name": "KIA8C Chandapura",
          "name:en": "KIA8C Chandapura",
          "network": "BMTC",
          "operator": "BMTC",
          "public_transport": "stop_position"
        }
      },
      {
        "type": "node",
        "id": 13034200339,
        "lat": 13.1990189,
        "lon": 77.7082921,
        "tags": {
          "bus": "yes",
          "name": "KIA7A: HSR BDA Shopping Complex => Kempegowda International Airport Limited",
          "name:en": "KIA7A: HSR BDA Shopping Complex => Kempegowda International Airport Limited",
          "network": "BMTC",
          "operator": "BMTC",
          "public_transport": "stop_position"
        }
      },
      {
        "type": "node",
        "id": 13034200340,
        "lat": 13.1990009,
        "lon": 77.7084401,
        "tags": {
          "bus": "yes",
          "name": "KIA8: Electronic City => Kempegowda International Airport Limited",
          "name:en": "KIA8: Electronic City => Kempegowda International Airport Limited",
          "network": "BMTC",
          "operator": "BMTC",
          "public_transport": "stop_position"
        }
      },
      {
        "type": "node",
        "id": 13034200341,
        "lat": 13.1989988,
        "lon": 77.7085706,
        "tags": {
          "bus": "yes",
          "name": "KIA9",
          "name:en": "KIA9",
          "network": "BMTC",
          "operator": "BMTC",
          "public_transport": "stop_position"
        }
      },
      {
        "type": "node",
        "id": 13034200342,
        "lat": 13.1991452,
        "lon": 77.7086944,
        "tags": {
          "bus": "yes",
          "name": "Mysore Flybus",
          "name:en": "Mysore Flybus",
          "network": "BMTC",
          "operator": "BMTC",
          "public_transport": "stop_position"
        }
      },
      {
        "type": "node",
        "id": 13034200343,
        "lat": 13.1991475,
        "lon": 77.7085688,
        "tags": {
          "bus": "yes",
          "name": "KIA10: Mysore Road Satellite Bus Station => Kempegowda International Airport Limited",
          "name:en": "KIA15: Whitefield TTMC => Kempegowda International Airport Limited",
          "network": "BMTC",
          "operator": "BMTC",
          "public_transport": "stop_position"
        }
      },
      {
        "type": "node",
        "id": 13034200344,
        "lat": 13.1991497,
        "lon": 77.7084515,
        "tags": {
          "bus": "yes",
          "name": "KIA5: Banashankari TTMC => Kempegowda International Airport Limited",
          "name:en": "KIA15: Whitefield TTMC => Kempegowda International Airport Limited",
          "network": "BMTC",
          "operator": "BMTC",
          "public_transport": "stop_position"
        }
      },
      {
        "type": "node",
        "id": 13034200345,
        "lat": 13.1991551,
        "lon": 77.7081294,
        "tags": {
          "bus": "yes",
          "name": "KIA4A: Whitefield TTMC => Kempegowda International Airport Limited",
          "name:en": "KIA15: Whitefield TTMC => Kempegowda International Airport Limited",
          "network": "BMTC",
          "operator": "BMTC",
          "public_transport": "stop_position"
        }
      },
      {
        "type": "node",
        "id": 13034200346,
        "lat": 13.1991569,
        "lon": 77.7079889,
        "tags": {
          "bus": "yes",
          "name": "KIA15: Whitefield TTMC => Kempegowda International Airport Limited",
          "name:en": "KIA15: Whitefield TTMC => Kempegowda International Airport Limited",
          "network": "BMTC",
          "operator": "BMTC",
          "public_transport": "stop_position"
        }
      }
    ]
  }
}