{
  "pois_1km": {
    "version": 0.6,
    "generator": "Overpass API 0.7.62.8 e802775f",
    "osm3s": {
      "timestamp_osm_base": "2025-09-06T08:19:29Z",
      "copyright": "The data included in this document is from www.openstreetmap.org. The data is made available under ODbL."
    },
    "elements": [
      {
        "type": "node",
        "id": 267212843,
        "lat": 12.9185253,
        "lon": 77.6704998,
        "tags": {
          "amenity": "bank",
          "atm": "yes",
          "brand": "HDFC Bank",
          "brand:wikidata": "Q631047",
          "brand:wikipedia": "en:HDFC Bank",
          "drive_through": "no",
          "level": "0",
          "name": "HDFC Bank",
          "name:kn": "\u0c8e\u0c9a\u0ccd \u0ca1\u0cbf \u0c8e\u0cab\u0ccd \u0cb8\u0cbf",
          "short_name": "HDFC",
          "website": "https://www.hdfcbank.com"
        }
      },
      {
        "type": "node",
        "id": 590753375,
        "lat": 12.9250029,
        "lon": 77.664274,
        "tags": {
          "shop": "supermarket"
        }
      },
      {
        "type": "node",
        "id": 590753378,
        "lat": 12.9248306,
        "lon": 77.6642849,
        "tags": {
          "amenity": "pharmacy",
          "name": "Sri Manjunath Medical & General stores"
        }
      },
      {
        "type": "node",
        "id": 590753382,
        "lat": 12.9262764,
        "lon": 77.6698353,
        "tags": {
          "amenity": "restaurant",
          "name": "Wah Paratha"
        }
      },
      {
        "type": "node",
        "id": 650398934,
        "lat": 12.9186665,
        "lon": 77.6708407,
        "tags": {
          "name": "Families Hypermarket",
          "shop": "supermarket"
        }
      },
      {
        "type": "node",
        "id": 1067307517,
        "lat": 12.9192711,
        "lon": 77.6684296,
        "tags": {
          "addr:street": "Sarjapur Road",
          "amenity": "pharmacy",
          "healthcare": "pharmacy"
        }
      },
      {
        "type": "node",
        "id": 1338091641,
        "lat": 12.9241258,
        "lon": 77.671756,
        "tags": {
          "amenity": "bank",
          "atm": "yes",
          "brand": "ICICI Bank",
          "brand:wikidata": "Q1653258",
          "drive_through": "no",
          "name": "ICICI Bank",
          "name:en": "ICICI Bank",
          "name:kn": "\u0c90\u0cb8\u0cbf\u0c90\u0cb8\u0cbf\u0c90 \u0cac\u0ccd\u0caf\u0cbe\u0c82\u0c95\u0cc1",
          "short_name": "ICICI",
          "website": "https://www.icicibank.com"
        }
      },
      {
        "type": "node",
        "id": 1691795019,
        "lat": 12.9254591,
        "lon": 77.6698872,
        "tags": {
          "name": "Fresco",
          "shop": "supermarket",
          "toilets:wheelchair": "yes"
        }
      },
      {
        "type": "node",
        "id": 1691795363,
        "lat": 12.9265658,
        "lon": 77.6698488,
        "tags": {
          "amenity": "bank",
          "atm": "yes",
          "brand": "State Bank of India",
          "brand:wikidata": "Q1340361",
          "brand:wikipedia": "en:State Bank of India",
          "name": "State Bank of India",
          "name:kn": "\u0c8e\u0cb8\u0ccd \u0cac\u0cbf \u0c90",
          "short_name": "SBI",
          "source": "Survey"
        }
      },
      {
        "type": "node",
        "id": 1693119941,
        "lat": 12.926419,
        "lon": 77.669893,
        "tags": {
          "amenity": "bank",
          "atm": "yes",
          "brand": "Andhra Bank",
          "brand:wikidata": "Q2003476",
          "brand:wikipedia": "en:Andhra Bank",
          "name": "Andhra Bank",
          "name:en": "Andhra Bank",
          "name:kn": "\u0c86\u0c82\u0ca7\u0ccd\u0cb0 \u0cac\u0ccd\u0caf\u0cbe\u0c82\u0c95\u0ccd",
          "website": "https://www.andhrabank.in"
        }
      },
      {
        "type": "node",
        "id": 1693120843,
        "lat": 12.9267954,
        "lon": 77.6699091,
        "tags": {
          "amenity": "hospital",
          "designation": "Hospital",
          "emergency": "yes",
          "healthcare": "hospital",
          "level": "2",
          "name": "Sunny Medicals Hospital Clinic",
          "source": "Survey",
          "wheelchair": "limited",
          "wheelchair:description": "Steps at entrace to building, lift to hospital"
        }
      },
      {
        "type": "node",
        "id": 2085451771,
        "lat": 12.9253052,
        "lon": 77.6698803,
        "tags": {
          "amenity": "restaurant",
          "cuisine": "indian",
          "name": "Posh Palates"
        }
      },
      {
        "type": "node",
        "id": 2509415561,
        "lat": 12.9195943,
        "lon": 77.6670277,
        "tags": {
          "amenity": "pharmacy",
          "brand": "Apollo Pharmacy",
          "brand:wikidata": "Q62562612",
          "dispensing": "yes",
          "healthcare": "pharmacy",
          "name": "Apollo Pharmacy",
          "name:kn": "\u0c85\u0caa\u0cca\u0cb2\u0ccb \u0cab\u0cbe\u0cb0\u0ccd\u0cae\u0cb8\u0cbf"
        }
      },
      {
        "type": "node",
        "id": 2623077569,
        "lat": 12.9228223,
        "lon": 77.6730622,
        "tags": {
          "name": "G-Mart now VILLAGE",
          "opening_hours": "Mo-Th,Sa 08:00-21:30",
          "shop": "supermarket"
        }
      },
      {
        "type": "node",
        "id": 2623332318,
        "lat": 12.9231571,
        "lon": 77.6728066,
        "tags": {
          "amenity": "hospital",
          "healthcare": "hospital",
          "name": "Narayana Hrudayalaya Dental Clinic",
          "name:kn": "\u0ca8\u0cbe\u0cb0\u0cbe\u0caf\u0ca3 \u0cb9\u0cc3\u0ca6\u0caf\u0cbe\u0cb2\u0caf \u0ca6\u0c82\u0ca4 \u0c86\u0cb8\u0ccd\u0caa\u0ca4\u0ccd\u0cb0\u0cc6"
        }
      },
      {
        "type": "node",
        "id": 3022109714,
        "lat": 12.9232047,
        "lon": 77.6711807,
        "tags": {
          "amenity": "restaurant",
          "indoor_seating": "yes",
          "name": "Chowman",
          "outdoor_seating": "no"
        }
      },
      {
        "type": "node",
        "id": 3170077781,
        "lat": 12.9224971,
        "lon": 77.668466,
        "tags": {
          "air_conditioning": "yes",
          "amenity": "cafe",
          "brand": "Chai Point",
          "brand:wikidata": "Q28173415",
          "check_date": "2025-05-31",
          "cuisine": "coffee_shop",
          "diet:vegetarian": "yes",
          "indoor_seating": "yes",
          "level": "0",
          "name": "Chai Point",
          "outdoor_seating": "no",
          "payment:cash": "yes",
          "payment:mastercard": "yes",
          "payment:visa": "yes",
          "smoking": "no",
          "takeaway": "yes"
        }
      },
      {
        "type": "node",
        "id": 3170077787,
        "lat": 12.9224521,
        "lon": 77.6683425,
        "tags": {
          "amenity": "bank",
          "atm": "yes",
          "branch": "Bellandur",
          "brand": "Axis Bank",
          "brand:wikidata": "Q2003549",
          "brand:wikipedia": "en:Axis Bank",
          "check_date": "2025-01-31",
          "level": "0",
          "name": "Axis Bank",
          "operator": "Axis Bank",
          "operator:wikidata": "Q2003549",
          "operator:wikipedia": "en:Axis Bank"
        }
      },
      {
        "type": "node",
        "id": 3245631791,
        "lat": 12.9241101,
        "lon": 77.671697,
        "tags": {
          "amenity": "restaurant",
          "check_date": "2025-04-06",
          "cuisine": "regional",
          "name": "Punjabi Times"
        }
      },
      {
        "type": "node",
        "id": 3245633759,
        "lat": 12.924063,
        "lon": 77.6716755,
        "tags": {
          "name": "Evok",
          "shop": "department_store"
        }
      },
      {
        "type": "node",
        "id": 3760065158,
        "lat": 12.9185551,
        "lon": 77.6704667,
        "tags": {
          "addr:city": "Bengaluru",
          "amenity": "restaurant",
          "cuisine": "chinese",
          "delivery": "yes",
          "level": "1",
          "name": "Beijing Bites",
          "name:kn": "\u0cac\u0cc0\u0c9c\u0cbf\u0c82\u0c97\u0ccd \u0cac\u0cc8\u0c9f\u0ccd\u0cb8\u0ccd",
          "opening_hours": "Mo-Su 12:00-15:45,19:00-23:00",
          "outdoor_seating": "yes",
          "phone": "080 40932488",
          "smoking": "no",
          "takeaway": "no",
          "website": "https://beijingbites.com"
        }
      },
      {
        "type": "node",
        "id": 3760067974,
        "lat": 12.9185394,
        "lon": 77.6705565,
        "tags": {
          "amenity": "clinic",
          "healthcare": "clinic",
          "level": "2,3",
          "name": "Nurture IVF",
          "note": "Specialty Women's Clinic and Fertility Center"
        }
      },
      {
        "type": "node",
        "id": 4441681632,
        "lat": 12.9217604,
        "lon": 77.6618321,
        "tags": {
          "addr:city": "Bengaluru",
          "addr:postcode": "560103",
          "addr:street": "Service Rd, Agara, Iblur Village, Bellandur",
          "amenity": "hospital",
          "healthcare": "hospital",
          "name": "Kottakkal Arya Vaidya Sala",
          "phone": "+91-80 6450 4434",
          "website": "https://aryavaidyasala.com/"
        }
      },
      {
        "type": "node",
        "id": 4441692008,
        "lat": 12.9185476,
        "lon": 77.6708429,
        "tags": {
          "addr:city": "Bangalore",
          "addr:housenumber": "2nd Floor",
          "addr:postcode": "560035",
          "addr:street": "Chandra Mension, Bellandur, Sarjapur Main Road",
          "amenity": "clinic",
          "healthcare": "clinic",
          "name": "Sri Sai Dental & Medical Care",
          "phone": "+91-8041467774"
        }
      },
      {
        "type": "node",
        "id": 4441696317,
        "lat": 12.9188314,
        "lon": 77.6697997,
        "tags": {
          "addr:city": "Bangalore",
          "addr:housenumber": "No. 18/2A",
          "addr:postcode": "560102",
          "addr:street": "Ambalipura, Sarjapur Main Road",
          "amenity": "clinic",
          "healthcare": "clinic",
          "name": "Ittina Wellness Centre",
          "phone": "+91-80 4110 1898",
          "website": "https://www.ittinawellness.com/"
        }
      },
      {
        "type": "node",
        "id": 4441727139,
        "lat": 12.926508,
        "lon": 77.6698733,
        "tags": {
          "addr:city": "Bangalore",
          "addr:housenumber": "211",
          "addr:postcode": "560103",
          "addr:street": "Palm Ave, Green Glen Layout",
          "amenity": "clinic",
          "name": "Shaivi Homeopathic Clinic",
          "phone": "+91-97408 33100"
        }
      },
      {
        "type": "node",
        "id": 4441739099,
        "lat": 12.9142524,
        "lon": 77.6651948,
        "tags": {
          "addr:city": "Bangalore",
          "addr:housenumber": "309",
          "addr:postcode": "560068",
          "addr:street": "Mahaveer Cottage, Off Sarjapur Road",
          "amenity": "clinic",
          "healthcare": "clinic",
          "name": "Dr. Arpita Agarwal Clinic",
          "phone": "+91-080 6741 7785"
        }
      },
      {
        "type": "node",
        "id": 4442577373,
        "lat": 12.9140773,
        "lon": 77.6668361,
        "tags": {
          "addr:city": "Bangalore",
          "addr:housenumber": "Shub Enclave, 47",
          "addr:postcode": "560103",
          "addr:street": "Haralur Rd, Ambalipura",
          "amenity": "clinic",
          "healthcare": "clinic",
          "name": "Mahaveer Orthopeadic Clinic",
          "phone": "+91-80 3221 8709",
          "website": "http://www.mahaveerorthopodiatryclinic.com/"
        }
      },
      {
        "type": "node",
        "id": 4442597478,
        "lat": 12.9220379,
        "lon": 77.6720713,
        "tags": {
          "addr:city": "Bangalore",
          "addr:housenumber": "17/1",
          "addr:postcode": "560102",
          "addr:street": "ARB Complex, Ambalipura, Bellandur Gate, Bellandur Main Road Off Sarjapur Main Road",
          "amenity": "clinic",
          "name": "SK Eye and Skin Clinic",
          "phone": "+91-80 4121 4683",
          "website": "www.skeyeskin.com"
        }
      },
      {
        "type": "node",
        "id": 4442628971,
        "lat": 12.9164549,
        "lon": 77.6732085,
        "tags": {
          "addr:city": "Bangalore",
          "addr:housenumber": "14",
          "addr:postcode": "560034",
          "addr:street": "Kaikondrahalli, Sarjapur Road",
          "amenity": "clinic",
          "name": "Addresshealth Child Health Clinic",
          "phone": "+91-8066815572",
          "website": "https://www.addresshealth.com/"
        }
      },
      {
        "type": "node",
        "id": 4445167354,
        "lat": 12.9179831,
        "lon": 77.6691258,
        "tags": {
          "addr:city": "Bangalore",
          "addr:postcode": "560034",
          "addr:street": "Sarjapur Main Rd, Bellandur",
          "amenity": "hospital",
          "healthcare": "hospital",
          "name": "Dr Rachna - Homeopathy",
          "phone": "+9195909 10963"
        }
      },
      {
        "type": "node",
        "id": 4445373073,
        "lat": 12.9219138,
        "lon": 77.6617062,
        "tags": {
          "addr:housenumber": "30",
          "addr:street": "Survey No.41, 1st Floor, 2nd Main, Iblur, Marathahalli-Sarjapur Outer Ring Road, HSR Layout, Next to HSR Police station, Sarjapur Main Road, Iblur-Sarjapur Road",
          "amenity": "bank",
          "name": "Can Fin Homes Limited",
          "phone": "080 2574 0089",
          "website": "canfinhomes.com"
        }
      },
      {
        "type": "node",
        "id": 4445398750,
        "lat": 12.9221364,
        "lon": 77.6627275,
        "tags": {
          "addr:city": "Bengaluru",
          "addr:postcode": "560103",
          "addr:street": "Agra, Service Rd, Iblur Village, Bellandur",
          "name": "Aishwarya Departmental Store",
          "shop": "department_store"
        }
      },
      {
        "type": "node",
        "id": 4446990610,
        "lat": 12.9217659,
        "lon": 77.663626,
        "tags": {
          "addr:city": "Bengaluru",
          "addr:postcode": "560102",
          "addr:street": "5th Main, Agara Post, Sarjapur Main Rd, Ibbaluru, Iblur Village, Bellandur",
          "name": "Sri Venkateswara Provisions Store",
          "phone": "+91 98805 83577",
          "shop": "department_store"
        }
      },
      {
        "type": "node",
        "id": 4448806479,
        "lat": 12.9216216,
        "lon": 77.6638046,
        "tags": {
          "addr:city": "Bengaluru",
          "addr:housenumber": "39/13",
          "addr:postcode": "560034",
          "addr:street": "5th Main Road",
          "amenity": "restaurant",
          "cuisine": "regional",
          "delivery": "yes",
          "name": "Ira Residency",
          "opening_hours": "Mo-Su 07:00-23:00",
          "phone": "080 2572 7656",
          "smoking": "no",
          "takeaway": "yes"
        }
      },
      {
        "type": "node",
        "id": 4537379589,
        "lat": 12.9143525,
        "lon": 77.6636886,
        "tags": {
          "amenity": "atm"
        }
      },
      {
        "type": "node",
        "id": 5409624225,
        "lat": 12.9233912,
        "lon": 77.6700871,
        "tags": {
          "amenity": "atm",
          "brand": "Andhra Bank",
          "brand:wikidata": "Q2003476",
          "operator": "Andhra Bank",
          "operator:wikidata": "Q2003476"
        }
      },
      {
        "type": "node",
        "id": 5803999911,
        "lat": 12.918758,
        "lon": 77.6699518,
        "tags": {
          "amenity": "bank",
          "atm": "yes",
          "brand": "State Bank of India",
          "brand:wikidata": "Q1340361",
          "brand:wikipedia": "en:State Bank of India",
          "drive_through": "no",
          "name": "State Bank of India",
          "name:kn": "\u0cad\u0cbe\u0cb0\u0ca4\u0cc0\u0caf \u0cb8\u0ccd\u0c9f\u0cc7\u0c9f\u0ccd \u0cac\u0ccd\u0caf\u0cbe\u0c82\u0c95\u0ccd",
          "opening_hours": "Mo-Sa 10:00-16:00",
          "short_name": "SBI"
        }
      },
      {
        "type": "node",
        "id": 5807148430,
        "lat": 12.9187238,
        "lon": 77.6701231,
        "tags": {
          "brand": "Simpli Namdhari's",
          "diet:vegetarian": "only",
          "name": "Simpli Namdhari's",
          "organic": "only",
          "shop": "supermarket",
          "website": "https://www.simplinamdharis.com/"
        }
      },
      {
        "type": "node",
        "id": 5807148431,
        "lat": 12.9187002,
        "lon": 77.6701646,
        "tags": {
          "amenity": "cafe",
          "brand": "Cafe Coffee Day",
          "brand:wikidata": "Q5017235",
          "brand:wikipedia": "en:Caf\u00e9 Coffee Day",
          "cuisine": "coffee_shop",
          "name": "Cafe Coffee Day",
          "name:kn": "\u0c95\u0cab\u0cc6 \u0c95\u0cbe\u0cab\u0cbf \u0ca1\u0cc7",
          "takeaway": "yes"
        }
      },
      {
        "type": "node",
        "id": 5960908739,
        "lat": 12.9167208,
        "lon": 77.6732764,
        "tags": {
          "amenity": "restaurant",
          "name": "Purani Dilli",
          "wheelchair": "no"
        }
      },
      {
        "type": "node",
        "id": 5960908740,
        "lat": 12.9166598,
        "lon": 77.6733314,
        "tags": {
          "amenity": "restaurant",
          "cuisine": "North_Indian",
          "diet:vegetarian": "yes",
          "name": "Nayi Dilli",
          "wheelchair": "no"
        }
      },
      {
        "type": "node",
        "id": 6076100927,
        "lat": 12.921855,
        "lon": 77.6719953,
        "tags": {
          "amenity": "cafe",
          "name:en": "Udupi Saviruchi"
        }
      },
      {
        "type": "node",
        "id": 6076101984,
        "lat": 12.921609,
        "lon": 77.6719359,
        "tags": {
          "amenity": "bank"
        }
      },
      {
        "type": "node",
        "id": 6094890249,
        "lat": 12.9266553,
        "lon": 77.6696446,
        "tags": {
          "addr:city": "Bangalore",
          "addr:postcode": "560103",
          "addr:street": "Green Glen Layout",
          "amenity": "bank",
          "atm": "yes",
          "brand": "UCO Bank",
          "brand:wikidata": "Q2005310",
          "drive_through": "no",
          "name": "UCO Bank",
          "opening_hours": "Mo-Su 09:30-15:30",
          "website": "https://www.ucobank.com"
        }
      },
      {
        "type": "node",
        "id": 6204931244,
        "lat": 12.9186447,
        "lon": 77.6707111,
        "tags": {
          "amenity": "restaurant",
          "name": "Moritz"
        }
      },
      {
        "type": "node",
        "id": 7276566924,
        "lat": 12.9193144,
        "lon": 77.6651081,
        "tags": {
          "amenity": "restaurant",
          "cuisine": "asian",
          "name": "Asia Alive"
        }
      },
      {
        "type": "node",
        "id": 7298370324,
        "lat": 12.9107812,
        "lon": 77.6635605,
        "tags": {
          "amenity": "clinic",
          "healthcare": "clinic",
          "name": "Aria Clinic"
        }
      },
      {
        "type": "node",
        "id": 7298370325,
        "lat": 12.9106949,
        "lon": 77.6634425,
        "tags": {
          "amenity": "pharmacy",
          "healthcare": "pharmacy",
          "name": "Aria Pharma"
        }
      },
      {
        "type": "node",
        "id": 7298370330,
        "lat": 12.913857,
        "lon": 77.6665123,
        "tags": {
          "amenity": "bank",
          "atm": "yes",
          "brand": "HDFC Bank",
          "brand:wikidata": "Q631047",
          "brand:wikipedia": "en:HDFC Bank",
          "name": "HDFC Bank",
          "name:kn": "\u0c8e\u0c9a\u0ccd \u0ca1\u0cbf \u0c8e\u0cab\u0ccd \u0cb8\u0cbf",
          "short_name": "HDFC"
        }
      },
      {
        "type": "node",
        "id": 7298370332,
        "lat": 12.9136635,
        "lon": 77.6663929,
        "tags": {
          "amenity": "bank",
          "atm": "yes",
          "brand": "Axis Bank",
          "brand:wikidata": "Q2003549",
          "brand:wikipedia": "en:Axis Bank",
          "name": "Axis Bank",
          "name:kn": "\u0c86\u0c95\u0ccd\u0cb8\u0cbf\u0cb8\u0ccd \u0cac\u0ccd\u0caf\u0cbe\u0c82\u0c95\u0ccd",
          "operator": "Axis Bank"
        }
      },
      {
        "type": "node",
        "id": 7298370333,
        "lat": 12.9135524,
        "lon": 77.666354,
        "tags": {
          "amenity": "pharmacy",
          "brand": "Apollo Pharmacy",
          "brand:wikidata": "Q62562612",
          "healthcare": "pharmacy",
          "name": "Apollo Pharmacy",
          "name:kn": "\u0c85\u0caa\u0ccb\u0cb2\u0ccb \u0cab\u0cbe\u0cb0\u0ccd\u0cae\u0cb8\u0cbf"
        }
      },
      {
        "type": "node",
        "id": 7298370345,
        "lat": 12.9163079,
        "lon": 77.6680022,
        "tags": {
          "name": "Pluspoint Hypermarket",
          "shop": "supermarket"
        }
      },
      {
        "type": "node",
        "id": 9828595270,
        "lat": 12.9233117,
        "lon": 77.6697031,
        "tags": {
          "amenity": "restaurant",
          "cuisine": "arab",
          "name": "Zaatar"
        }
      },
      {
        "type": "node",
        "id": 9830902368,
        "lat": 12.9130791,
        "lon": 77.6662145,
        "tags": {
          "amenity": "cafe",
          "brand": "Cafe Coffee Day",
          "brand:wikidata": "Q5017235",
          "cuisine": "coffee_shop",
          "name": "Cafe Coffee Day",
          "name:kn": "\u0c95\u0cab\u0cc6 \u0c95\u0cbe\u0cab\u0cbf \u0ca1\u0cc7",
          "takeaway": "yes"
        }
      },
      {
        "type": "node",
        "id": 9830902374,
        "lat": 12.9192999,
        "lon": 77.6689075,
        "tags": {
          "brand": "Big Bazaar",
          "brand:wikidata": "Q3631008",
          "brand:wikipedia": "en:Big Bazaar",
          "name": "Big Bazaar",
          "name:kn": "\u0cac\u0cbf\u0c97\u0ccd \u0cac\u0c9c\u0cbe\u0cb0\u0ccd",
          "opening_hours": "Mo-Su 10:00-20:00",
          "payment:cash": "yes",
          "payment:credit_cards": "yes",
          "payment:visa": "yes",
          "phone": "07795976949",
          "shop": "supermarket",
          "website": "https://bigbazaar.in"
        }
      },
      {
        "type": "node",
        "id": 9830902380,
        "lat": 12.920196,
        "lon": 77.6670676,
        "tags": {
          "amenity": "restaurant",
          "cuisine": "italian",
          "name": "Little Italy"
        }
      },
      {
        "type": "node",
        "id": 10174066584,
        "lat": 12.9161745,
        "lon": 77.6730166,
        "tags": {
          "amenity": "restaurant",
          "cuisine": "continental;italian;mexican;asian;indian",
          "name": "Thyme & Whisk",
          "phone": "+91 97416 16018",
          "website": "https://www.thymeandwhisk.com"
        }
      },
      {
        "type": "node",
        "id": 10174066585,
        "lat": 12.9164974,
        "lon": 77.6679148,
        "tags": {
          "amenity": "cafe",
          "name": "Cafe Rite"
        }
      },
      {
        "type": "node",
        "id": 10174066602,
        "lat": 12.9139881,
        "lon": 77.6667861,
        "tags": {
          "amenity": "cafe",
          "name": "Chat House"
        }
      },
      {
        "type": "node",
        "id": 10174066603,
        "lat": 12.9139682,
        "lon": 77.6667895,
        "tags": {
          "amenity": "cafe",
          "indoor_seating": "yes",
          "name": "Frozen Bottle",
          "outdoor_seating": "no"
        }
      },
      {
        "type": "node",
        "id": 10174066605,
        "lat": 12.9131646,
        "lon": 77.6662853,
        "tags": {
          "amenity": "pharmacy",
          "dispensing": "yes",
          "healthcare": "pharmacy",
          "name": "Frank Ross"
        }
      },
      {
        "type": "node",
        "id": 10174066606,
        "lat": 12.9239689,
        "lon": 77.6714984,
        "tags": {
          "air_conditioning": "yes",
          "amenity": "cafe",
          "brand": "Starbucks",
          "brand:wikidata": "Q37158",
          "check_date": "2025-02-12",
          "cuisine": "coffee_shop",
          "diet:vegetarian": "yes",
          "indoor_seating": "yes",
          "name": "Starbucks",
          "official_name": "Starbucks Coffee",
          "outdoor_seating": "no",
          "payment:cash": "yes",
          "payment:mastercard": "yes",
          "payment:visa": "yes",
          "smoking": "no",
          "source": "survey",
          "takeaway": "yes"
        }
      },
      {
        "type": "node",
        "id": 10695273911,
        "lat": 12.9152962,
        "lon": 77.6657814,
        "tags": {
          "addr:city": "Bangalore",
          "addr:country": "IN",
          "addr:hamlet": "Ambalipura",
          "addr:postcode": "560102",
          "addr:street": "Haralur Road",
          "air_conditioning": "yes",
          "amenity": "restaurant",
          "delivery": "yes",
          "diet:vegetarian": "yes",
          "indoor_seating": "yes",
          "level": "0",
          "name": "Roxie",
          "outdoor_seating": "yes",
          "payment:credit_cards": "yes",
          "payment:debit_cards": "yes",
          "takeaway": "yes",
          "wheelchair": "yes"
        }
      },
      {
        "type": "node",
        "id": 11003344430,
        "lat": 12.9244765,
        "lon": 77.6668659,
        "tags": {
          "amenity": "restaurant",
          "name": "Petromax Lights"
        }
      },
      {
        "type": "node",
        "id": 11234174826,
        "lat": 12.9258445,
        "lon": 77.66963,
        "tags": {
          "amenity": "cafe",
          "cuisine": "coffee_shop",
          "name": "Coffee Brewery"
        }
      },
      {
        "type": "node",
        "id": 11524106718,
        "lat": 12.9231359,
        "lon": 77.6672743,
        "tags": {
          "amenity": "fast_food",
          "diet:vegetarian": "yes",
          "name": "Hot Chips"
        }
      },
      {
        "type": "node",
        "id": 11640105917,
        "lat": 12.9191136,
        "lon": 77.670829,
        "tags": {
          "amenity": "fast_food",
          "brand": "Subway",
          "brand:wikidata": "Q244457",
          "check_date": "2024-02-19",
          "cuisine": "sandwich",
          "diet:vegetarian": "yes",
          "drive_through": "no",
          "name": "Subway",
          "payment:cash": "yes",
          "payment:credit_cards": "yes",
          "payment:debit_cards": "yes",
          "takeaway": "yes",
          "wheelchair": "no"
        }
      },
      {
        "type": "node",
        "id": 11640105920,
        "lat": 12.9190532,
        "lon": 77.6709872,
        "tags": {
          "amenity": "restaurant",
          "check_date": "2024-02-19",
          "name": "Gongura Grand"
        }
      },
      {
        "type": "node",
        "id": 11640138816,
        "lat": 12.9199984,
        "lon": 77.6672173,
        "tags": {
          "check_date": "2024-02-19",
          "name": "Aishwarya Hypercity",
          "shop": "department_store"
        }
      },
      {
        "type": "node",
        "id": 11752296520,
        "lat": 12.9188259,
        "lon": 77.6701594,
        "tags": {
          "amenity": "restaurant",
          "check_date": "2024-03-22",
          "level": "1",
          "name": "Absolute Barbecues"
        }
      },
      {
        "type": "node",
        "id": 11835382817,
        "lat": 12.9217918,
        "lon": 77.6653251,
        "tags": {
          "amenity": "restaurant",
          "check_date": "2025-07-05",
          "name": "The Modak"
        }
      },
      {
        "type": "node",
        "id": 11897230619,
        "lat": 12.9259251,
        "lon": 77.6698885,
        "tags": {
          "amenity": "pharmacy",
          "healthcare": "pharmacy"
        }
      },
      {
        "type": "node",
        "id": 11903122244,
        "lat": 12.9231919,
        "lon": 77.6712011,
        "tags": {
          "amenity": "restaurant",
          "indoor_seating": "yes",
          "name": "Susswadu",
          "outdoor_seating": "no"
        }
      },
      {
        "type": "node",
        "id": 11962404393,
        "lat": 12.9191947,
        "lon": 77.6686389,
        "tags": {
          "amenity": "restaurant",
          "email": "customercare@shariefbhai.com",
          "name": "Sharief Bhai's",
          "phone": "+91 8095752222",
          "website": "https://www.shariefbhai.com/"
        }
      },
      {
        "type": "node",
        "id": 11962404394,
        "lat": 12.9187149,
        "lon": 77.6700787,
        "tags": {
          "amenity": "fast_food",
          "cuisine": "pizza",
          "name": "Nomad Pizza",
          "website": "https://nomadpizza.in/"
        }
      },
      {
        "type": "node",
        "id": 11962404403,
        "lat": 12.9197456,
        "lon": 77.6674893,
        "tags": {
          "amenity": "pharmacy",
          "healthcare": "pharmacy",
          "name": "Sundha Medicals"
        }
      },
      {
        "type": "node",
        "id": 12272838623,
        "lat": 12.9152207,
        "lon": 77.6650205,
        "tags": {
          "amenity": "restaurant",
          "name": "Shree Cafe"
        }
      },
      {
        "type": "node",
        "id": 12354206808,
        "lat": 12.9154997,
        "lon": 77.6675788,
        "tags": {
          "amenity": "bank",
          "atm": "yes",
          "brand": "ICICI Bank",
          "brand:wikidata": "Q1653258",
          "drive_through": "no",
          "name": "ICICI Bank",
          "operator": "ICICI Bank",
          "short_name": "ICICI",
          "wheelchair": "no"
        }
      },
      {
        "type": "node",
        "id": 12459144694,
        "lat": 12.9273127,
        "lon": 77.6689872,
        "tags": {
          "amenity": "fast_food",
          "brand": "Domino's",
          "brand:wikidata": "Q839466",
          "cuisine": "pizza",
          "name": "Domino's",
          "takeaway": "yes"
        }
      },
      {
        "type": "node",
        "id": 12459144695,
        "lat": 12.9271437,
        "lon": 77.6691386,
        "tags": {
          "amenity": "fast_food",
          "cuisine": "burger;wings;chicken",
          "delivery": "yes",
          "name": "Big Guys: Wings & More",
          "takeaway": "yes"
        }
      },
      {
        "type": "node",
        "id": 12580943043,
        "lat": 12.9155506,
        "lon": 77.6674822,
        "tags": {
          "amenity": "atm",
          "brand": "ICICI Bank",
          "brand:wikidata": "Q1653258",
          "check_date": "2025-02-12",
          "name": "ICICI Bank",
          "opening_hours": "24/7",
          "operator": "ICICI Bank",
          "operator:wikidata": "Q1653258",
          "short_name": "ICICI",
          "source": "survey"
        }
      },
      {
        "type": "node",
        "id": 12696023088,
        "lat": 12.9259207,
        "lon": 77.6698329,
        "tags": {
          "amenity": "fast_food",
          "cuisine": "juice",
          "name": "Sri Basaveshwara Sugar Cane"
        }
      },
      {
        "type": "node",
        "id": 12864358384,
        "lat": 12.9165301,
        "lon": 77.6714059,
        "tags": {
          "amenity": "cafe",
          "name": "Zepto Cafe"
        }
      },
      {
        "type": "node",
        "id": 12979176590,
        "lat": 12.9218214,
        "lon": 77.6653489,
        "tags": {
          "amenity": "pharmacy",
          "check_date": "2025-07-05",
          "healthcare": "pharmacy",
          "name": "Ramdev Medicals"
        }
      },
      {
        "type": "node",
        "id": 12979176591,
        "lat": 12.9219531,
        "lon": 77.665313,
        "tags": {
          "amenity": "cafe",
          "check_date": "2025-07-05",
          "name": "Cafe Amudham"
        }
      },
      {
        "type": "node",
        "id": 12979176592,
        "lat": 12.9222235,
        "lon": 77.665221,
        "tags": {
          "amenity": "fast_food",
          "check_date": "2025-07-05",
          "cuisine": "pizza",
          "name": "Pizza Galleria"
        }
      },
      {
        "type": "node",
        "id": 13063788973,
        "lat": 12.923879,
        "lon": 77.6728478,
        "tags": {
          "amenity": "bank",
          "name": "Yes Bank"
        }
      },
      {
        "type": "node",
        "id": 13063807386,
        "lat": 12.9238621,
        "lon": 77.6727962,
        "tags": {
          "amenity": "bank",
          "name": "HDFC Bank"
        }
      },
      {
        "type": "node",
        "id": 13063830115,
        "lat": 12.9210217,
        "lon": 77.6652526,
        "tags": {
          "amenity": "fast_food",
          "name": "Kolkata Daily Food Restaurant"
        }
      }
    ]
  },
  "pois_2_5km": {
    "version": 0.6,
    "generator": "Overpass API 0.7.62.8 e802775f",
    "osm3s": {
      "timestamp_osm_base": "2025-09-06T08:19:29Z",
      "copyright": "The data included in this document is from www.openstreetmap.org. The data is made available under ODbL."
    },
    "elements": [
      {
        "type": "node",
        "id": 747663280,
        "lat": 12.9244706,
        "lon": 77.6506405,
        "tags": {
          "bus": "yes",
          "name": "Agara",
          "name:en": "Agara",
          "name:kn": "\u0c85\u0c97\u0cb0",
          "network": "BMTC",
          "operator": "BMTC",
          "public_transport": "stop_position"
        }
      },
      {
        "type": "node",
        "id": 1691980738,
        "lat": 12.9263148,
        "lon": 77.6753554,
        "tags": {
          "addr:floor": "4",
          "air_conditioning": "yes",
          "amenity": "cinema",
          "brand": "PVR Cinemas",
          "brand:wikidata": "Q3359908",
          "check_date": "2024-01-28",
          "internet_access": "no",
          "level": "4",
          "name": "PVR Cinemas",
          "payment:cash": "yes",
          "payment:credit_cards": "yes",
          "payment:debit_cards": "yes",
          "short_name": "PVR",
          "source": "survey",
          "wheelchair": "limited"
        }
      },
      {
        "type": "node",
        "id": 2417260828,
        "lat": 12.9141005,
        "lon": 77.6865724,
        "tags": {
          "amenity": "theatre"
        }
      },
      {
        "type": "node",
        "id": 4470703091,
        "lat": 12.911639,
        "lon": 77.669657,
        "tags": {
          "amenity": "theatre",
          "name": "Amphitheatre",
          "name:en": "Amphitheatre"
        }
      },
      {
        "type": "node",
        "id": 5984858247,
        "lat": 12.9212489,
        "lon": 77.6622127,
        "tags": {
          "bench": "yes",
          "bus": "yes",
          "highway": "bus_stop",
          "name": "Ibbaluru",
          "name:en": "Ibbaluru",
          "name:kn": "\u0c87\u0cac\u0ccd\u0cac\u0cb2\u0cc2\u0cb0\u0cc1",
          "network": "BMTC",
          "operator": "BMTC",
          "public_transport": "stop_position",
          "shelter": "yes"
        }
      },
      {
        "type": "node",
        "id": 7276566940,
        "lat": 12.9212384,
        "lon": 77.6630783,
        "tags": {
          "bus": "yes",
          "name": "Ibbaluru",
          "name:en": "Ibbaluru",
          "name:kn": "\u0c87\u0cac\u0ccd\u0cac\u0cb2\u0cc2\u0cb0\u0cc1",
          "network": "BMTC",
          "operator": "Bengaluru Metro Transport Corporation",
          "public_transport": "stop_position"
        }
      },
      {
        "type": "node",
        "id": 7294282999,
        "lat": 12.9243847,
        "lon": 77.6507879,
        "tags": {
          "bus": "yes",
          "name": "Agara",
          "name:en": "Agara",
          "name:kn": "\u0c85\u0c97\u0cb0",
          "network": "BMTC",
          "operator": "Bengaluru Metropolitan Transport Corporation",
          "public_transport": "stop_position"
        }
      },
      {
        "type": "node",
        "id": 9904143773,
        "lat": 12.9159969,
        "lon": 77.6517866,
        "tags": {
          "bus": "yes",
          "name": "27th Main 13th Cross HSR Layout",
          "network": "BMTC",
          "operator": "BMTC",
          "public_transport": "stop_position"
        }
      },
      {
        "type": "node",
        "id": 9904143775,
        "lat": 12.9123432,
        "lon": 77.6518901,
        "tags": {
          "bus": "yes",
          "name": "NIFT College",
          "name:en": "NIFT College",
          "network": "BMTC",
          "operator": "BMTC",
          "public_transport": "stop_position"
        }
      },
      {
        "type": "node",
        "id": 10177662896,
        "lat": 12.9137732,
        "lon": 77.6441735,
        "tags": {
          "amenity": "charging_station",
          "capacity": "1"
        }
      },
      {
        "type": "node",
        "id": 10797325021,
        "lat": 12.9243014,
        "lon": 77.6505142,
        "tags": {
          "bus": "yes",
          "name": "Agara",
          "name:en": "Agara",
          "name:kn": "\u0c85\u0c97\u0cb0",
          "network": "BMTC",
          "operator": "BMTC",
          "public_transport": "stop_position"
        }
      },
      {
        "type": "node",
        "id": 10855128088,
        "lat": 12.9199817,
        "lon": 77.6516252,
        "tags": {
          "alt_name": "Petrol Bunk HSR Layout",
          "bus": "yes",
          "name": "HSR Police Station",
          "name:en": "HSR Police Station",
          "name:kn": "\u0c86\u0cb0\u0c95\u0ccd\u0cb7\u0c95 \u0ca0\u0cbe\u0ca3\u0cc6",
          "network": "BMTC",
          "operator": "BMTC",
          "public_transport": "stop_position"
        }
      },
      {
        "type": "node",
        "id": 10855128090,
        "lat": 12.9153187,
        "lon": 77.6517702,
        "tags": {
          "bus": "yes",
          "name": "CPWD Quarters HSR Layout",
          "name:en": "CPWD Quarters HSR Layout",
          "network": "BMTC",
          "operator": "BMTC",
          "public_transport": "stop_position"
        }
      },
      {
        "type": "node",
        "id": 10855128092,
        "lat": 12.9117477,
        "lon": 77.6518333,
        "tags": {
          "bus": "yes",
          "name": "NIFT College",
          "name:en": "NIFT College",
          "network": "BMTC",
          "operator": "BMTC",
          "public_transport": "stop_position"
        }
      },
      {
        "type": "node",
        "id": 10855128094,
        "lat": 12.9082254,
        "lon": 77.651801,
        "tags": {
          "bus": "yes",
          "name": "Parangipalya Cross",
          "name:en": "Parangipalya Cross",
          "network": "BMTC",
          "operator": "BMTC",
          "public_transport": "stop_position"
        }
      },
      {
        "type": "node",
        "id": 10855128096,
        "lat": 12.9023252,
        "lon": 77.6505777,
        "tags": {
          "bus": "yes",
          "name": "SVR College",
          "name:en": "SVR College",
          "network": "BMTC",
          "operator": "BMTC",
          "public_transport": "stop_position"
        }
      },
      {
        "type": "node",
        "id": 11099858521,
        "lat": 12.9230786,
        "lon": 77.651575,
        "tags": {
          "alt_name": "Agara",
          "bus": "yes",
          "name": "27th Main Road",
          "name:en": "27th Main",
          "name:kn": "\u0ce8\u0ced\u0ca8\u0cc7 \u0cae\u0cc1\u0c96\u0ccd\u0caf \u0cb0\u0cb8\u0ccd\u0ca4\u0cc6",
          "network": "BMTC",
          "operator": "BMTC",
          "public_transport": "stop_position"
        }
      },
      {
        "type": "node",
        "id": 11099858523,
        "lat": 12.9122121,
        "lon": 77.6518244,
        "tags": {
          "bus": "yes",
          "name": "NIFT",
          "name:en": "NIFT",
          "network": "BMTC",
          "operator": "BMTC",
          "public_transport": "stop_position"
        }
      },
      {
        "type": "node",
        "id": 11099858525,
        "lat": 12.9119143,
        "lon": 77.6491823,
        "tags": {
          "bus": "yes",
          "name": "KEB",
          "name:en": "KEB",
          "network": "BMTC",
          "operator": "BMTC",
          "public_transport": "stop_position"
        }
      },
      {
        "type": "node",
        "id": 11099858527,
        "lat": 12.9089654,
        "lon": 77.6493264,
        "tags": {
          "bus": "yes",
          "name": "Parangipalya",
          "name:en": "Parangipalya",
          "name:kn": "\u0caa\u0cb0\u0c82\u0c97\u0cbf\u0caa\u0cbe\u0cb3\u0ccd\u0caf",
          "network": "BMTC",
          "operator": "BMTC",
          "public_transport": "stop_position"
        }
      },
      {
        "type": "node",
        "id": 11099858528,
        "lat": 12.9090104,
        "lon": 77.6458737,
        "tags": {
          "bus": "yes",
          "network": "BMTC",
          "operator": "BMTC",
          "public_transport": "stop_position"
        }
      },
      {
        "type": "node",
        "id": 11099858545,
        "lat": 12.9123675,
        "lon": 77.6446596,
        "tags": {
          "bus": "yes",
          "name": "19th Main",
          "name:en": "19th Main",
          "name:kn": "\u0ce7\u0cef\u0ca8\u0cc7 \u0cae\u0cc1\u0c96\u0ccd\u0caf \u0cb0\u0cb8\u0ccd\u0ca4\u0cc6",
          "network": "BMTC",
          "operator": "BMTC",
          "public_transport": "stop_position"
        }
      },
      {
        "type": "node",
        "id": 11099858547,
        "lat": 12.9162628,
        "lon": 77.6448192,
        "tags": {
          "bus": "yes",
          "network": "BMTC",
          "operator": "BMTC",
          "public_transport": "stop_position"
        }
      },
      {
        "type": "node",
        "id": 11099858549,
        "lat": 12.9217025,
        "lon": 77.6450459,
        "tags": {
          "bus": "yes",
          "name": "Indian Oil",
          "name:en": "Indian Oil",
          "name:kn": "\u0c87\u0c82\u0ca1\u0cbf\u0caf\u0ca8\u0ccd \u0c86\u0caf\u0cbf\u0cb2\u0ccd",
          "network": "BMTC",
          "operator": "BMTC",
          "public_transport": "stop_position"
        }
      },
      {
        "type": "node",
        "id": 11417676425,
        "lat": 12.9240963,
        "lon": 77.6472229,
        "tags": {
          "bus": "yes",
          "name": "Agara",
          "name:en": "Agara",
          "name:kn": "\u0c85\u0c97\u0cb0",
          "network": "BMTC",
          "operator": "BMTC",
          "public_transport": "stop_position"
        }
      },
      {
        "type": "node",
        "id": 11417676431,
        "lat": 12.9234287,
        "lon": 77.6516294,
        "tags": {
          "alt_name": "Agara",
          "bus": "yes",
          "name": "1st Main Road",
          "name:en": "27th Main",
          "name:kn": "\u0ce8\u0cec\u0ca8\u0cc7 \u0cae\u0cc1\u0c96\u0ccd\u0caf \u0cb0\u0cb8\u0ccd\u0ca4\u0cc6",
          "network": "BMTC",
          "operator": "BMTC",
          "public_transport": "stop_position"
        }
      },
      {
        "type": "node",
        "id": 13062011329,
        "lat": 12.9108068,
        "lon": 77.6842726,
        "tags": {
          "alt_name": "Wipro Corporate;Sarjapura Wipro;Junnasandra Gate Wipro Regional Office",
          "bus": "yes",
          "name": "Moori Gate",
          "name:en": "Moori Gate",
          "network": "BMTC",
          "operator": "BMTC",
          "public_transport": "stop_position"
        }
      },
      {
        "type": "node",
        "id": 13062011330,
        "lat": 12.9108067,
        "lon": 77.684548,
        "tags": {
          "alt_name": "Wipro Corporate;Sarjapura Wipro;Junnasandra Gate Wipro Regional Office",
          "bus": "yes",
          "name": "Moori Gate",
          "name:en": "Moori Gate",
          "network": "BMTC",
          "operator": "BMTC",
          "public_transport": "stop_position"
        }
      },
      {
        "type": "node",
        "id": 13062011335,
        "lat": 12.9048756,
        "lon": 77.6760149,
        "tags": {
          "bus": "yes",
          "name": "Kasavanahalli",
          "name:en": "Kasavanahalli",
          "network": "Bus",
          "operator": "BMTC",
          "public_transport": "stop_position"
        }
      }
    ]
  }
}