{
  "pois_1km": {
    "version": 0.6,
    "generator": "Overpass API 0.7.62.8 e802775f",
    "osm3s": {
      "timestamp_osm_base": "2025-09-06T07:46:34Z",
      "copyright": "The data included in this document is from www.openstreetmap.org. The data is made available under ODbL."
    },
    "elements": [
      {
        "type": "node",
        "id": 745463693,
        "lat": 19.0717586,
        "lon": 72.8253808,
        "tags": {
          "amenity": "restaurant",
          "name": "Olive Restaurant",
          "source": "GPS; yahoo"
        }
      },
      {
        "type": "node",
        "id": 1501518125,
        "lat": 19.0714915,
        "lon": 72.8343432,
        "tags": {
          "amenity": "bank",
          "atm": "yes",
          "brand": "Citibank",
          "brand:wikidata": "Q857063",
          "brand:wikipedia": "en:Citibank",
          "name": "Citibank",
          "short_name": "Citi"
        }
      },
      {
        "type": "node",
        "id": 1501518157,
        "lat": 19.0752179,
        "lon": 72.8337907,
        "tags": {
          "addr:postcode": "400052",
          "amenity": "bank",
          "atm": "yes",
          "brand": "IDBI Bank",
          "brand:wikidata": "Q3633485",
          "brand:wikipedia": "en:IDBI Bank",
          "name": "IDBI Bank",
          "name:en": "IDBI Bank",
          "old_name": "Industrial Development Bank of India",
          "short_name": "IDBI",
          "website": "https://www.idbi.com"
        }
      },
      {
        "type": "node",
        "id": 1514451614,
        "lat": 19.0744557,
        "lon": 72.8260154,
        "tags": {
          "amenity": "bank",
          "atm": "yes",
          "brand": "Indian Overseas Bank",
          "brand:wikidata": "Q2003611",
          "brand:wikipedia": "en:Indian Overseas Bank",
          "name": "Indian Overseas Bank",
          "name:en": "Indian Overseas Bank",
          "short_name": "IOB",
          "website": "https://www.iob.in"
        }
      },
      {
        "type": "node",
        "id": 1514451615,
        "lat": 19.0748494,
        "lon": 72.8258483,
        "tags": {
          "addr:housename": "55c, Woodland Building",
          "addr:street": "Dr BR Ambedkar Road",
          "amenity": "restaurant",
          "cuisine": "south_indian,_chinese",
          "name": "Hotel Samudra"
        }
      },
      {
        "type": "node",
        "id": 1641775276,
        "lat": 19.0715816,
        "lon": 72.8222171,
        "tags": {
          "amenity": "fast_food",
          "name": "Little Hot"
        }
      },
      {
        "type": "node",
        "id": 1641869868,
        "lat": 19.0707547,
        "lon": 72.8224918,
        "tags": {
          "amenity": "restaurant",
          "cuisine": "lebanese,_chinese,_indian",
          "name": "Mezbaan"
        }
      },
      {
        "type": "node",
        "id": 2180954109,
        "lat": 19.0718264,
        "lon": 72.825446,
        "tags": {
          "amenity": "restaurant",
          "name": "Out of the Blue"
        }
      },
      {
        "type": "node",
        "id": 2440075893,
        "lat": 19.0657165,
        "lon": 72.8308387,
        "tags": {
          "amenity": "restaurant",
          "name": "Dakshin"
        }
      },
      {
        "type": "node",
        "id": 2440075895,
        "lat": 19.0653282,
        "lon": 72.8312029,
        "tags": {
          "amenity": "restaurant",
          "name": "Mini Punjab"
        }
      },
      {
        "type": "node",
        "id": 2680338196,
        "lat": 19.0713519,
        "lon": 72.8241542,
        "tags": {
          "amenity": "cafe",
          "name": "Guilt Trip"
        }
      },
      {
        "type": "node",
        "id": 2680353849,
        "lat": 19.0708008,
        "lon": 72.8342617,
        "tags": {
          "amenity": "bank",
          "atm": "yes",
          "brand": "Axis Bank",
          "brand:wikidata": "Q2003549",
          "brand:wikipedia": "en:Axis Bank",
          "name": "Axis Bank",
          "name:en": "Axis Bank",
          "website": "https://www.axisbank.com"
        }
      },
      {
        "type": "node",
        "id": 2680831253,
        "lat": 19.074102,
        "lon": 72.8283694,
        "tags": {
          "amenity": "fast_food",
          "name": "Keep Kool Ice Cream & Food"
        }
      },
      {
        "type": "node",
        "id": 2719044956,
        "lat": 19.0752035,
        "lon": 72.8259183,
        "tags": {
          "amenity": "cafe",
          "name": "Modern Tea House"
        }
      },
      {
        "type": "node",
        "id": 2970392691,
        "lat": 19.0681022,
        "lon": 72.8264504,
        "tags": {
          "amenity": "restaurant",
          "cuisine": "pizza",
          "name": "Metro Pizza",
          "wifi": "no"
        }
      },
      {
        "type": "node",
        "id": 3195574836,
        "lat": 19.0716568,
        "lon": 72.8341148,
        "tags": {
          "amenity": "bank",
          "brand": "Citibank",
          "brand:wikidata": "Q857063",
          "brand:wikipedia": "en:Citibank",
          "name": "Citibank",
          "short_name": "Citi"
        }
      },
      {
        "type": "node",
        "id": 3417207117,
        "lat": 19.0657265,
        "lon": 72.8247137,
        "tags": {
          "amenity": "cafe",
          "cuisine": "regional organic",
          "name": "the yoga house"
        }
      },
      {
        "type": "node",
        "id": 3606640948,
        "lat": 19.0712279,
        "lon": 72.8338775,
        "tags": {
          "amenity": "restaurant",
          "name": "Me So Happy"
        }
      },
      {
        "type": "node",
        "id": 3838398804,
        "lat": 19.0631425,
        "lon": 72.8248491,
        "tags": {
          "addr:city": "Mumbai",
          "addr:housenumber": "30",
          "addr:postcode": "400050",
          "addr:street": "Pali Mala Road",
          "addr:suburb": "Bandra West",
          "amenity": "cafe",
          "internet_access": "wlan",
          "name": "The Bagel Shop",
          "opening_hours": "Mo-Su 09:00-22:30",
          "phone": "+91 22 2605 0178",
          "smoking": "outside",
          "website": "http://thebagelshop.in"
        }
      },
      {
        "type": "node",
        "id": 4198985391,
        "lat": 19.0653991,
        "lon": 72.8298816,
        "tags": {
          "air_conditioning": "yes",
          "amenity": "restaurant",
          "bar": "yes",
          "cuisine": "burger;steak_house;pizza",
          "name": "Smokehouse Deli",
          "name:en": "Smokehouse Deli",
          "opening_hours": "Mo-Su 09:00-00:30"
        }
      },
      {
        "type": "node",
        "id": 4592165895,
        "lat": 19.0648165,
        "lon": 72.8308323,
        "tags": {
          "addr:housenumber": "1",
          "addr:postcode": "400050",
          "addr:street": "16th Road",
          "amenity": "restaurant",
          "name": "Bombay Salad Co.",
          "name:en": "Bombay Salad Co."
        }
      },
      {
        "type": "node",
        "id": 4929321222,
        "lat": 19.0777698,
        "lon": 72.8306284,
        "tags": {
          "leisure": "playground",
          "opening_hours": "Mo-Su 07:00-10:00,15:30-21:30"
        }
      },
      {
        "type": "node",
        "id": 5185427021,
        "lat": 19.0681994,
        "lon": 72.8334568,
        "tags": {
          "addr:housenumber": "400050",
          "addr:street": "Maharashtra",
          "amenity": "bank",
          "name:en": "Punjab bank"
        }
      },
      {
        "type": "node",
        "id": 5277163839,
        "lat": 19.063215,
        "lon": 72.824601,
        "tags": {
          "addr:city": "Mumbai",
          "addr:housenumber": "29",
          "addr:postcode": "400050",
          "addr:street": "Pali Mala Road",
          "addr:suburb": "Bandra West",
          "amenity": "restaurant",
          "name": "New Sunrise Restaurant",
          "opening_hours": "Mo-Su 07:00-23:30",
          "outdoor_seating": "no",
          "phone": "+91 22 2600 0310",
          "smoking": "outside"
        }
      },
      {
        "type": "node",
        "id": 5277423229,
        "lat": 19.0630814,
        "lon": 72.8247526,
        "tags": {
          "addr:city": "Mumbai",
          "addr:housenumber": "7",
          "addr:postcode": "400050",
          "addr:street": "Pali Mala Road",
          "addr:suburb": "Bandra West",
          "addr:unit": "Shop No. 8, Sefa House, A Wing",
          "amenity": "restaurant",
          "capacity": "3",
          "cuisine": "japanese;sushi;sushi_rolls",
          "name": "Yugo Sushi",
          "opening_hours": "Tu-Su 12:00-23:00",
          "outdoor_seating": "no",
          "phone": "+91 97692 53378",
          "smoking": "no",
          "website": "https://www.toku-enterprises.com/",
          "wheelchair": "no"
        }
      },
      {
        "type": "node",
        "id": 5277432568,
        "lat": 19.0631071,
        "lon": 72.8247559,
        "tags": {
          "addr:city": "Mumbai",
          "addr:housenumber": "7",
          "addr:postcode": "400050",
          "addr:street": "Pali Mala Road",
          "addr:suburb": "Bandra West",
          "addr:unit": "Sefa House, A Wing",
          "amenity": "pharmacy",
          "drive_through": "no",
          "healthcare": "pharmacy",
          "name": "Gems Medical and General Store",
          "phone": "+91 98190 85930"
        }
      },
      {
        "type": "node",
        "id": 5277435362,
        "lat": 19.0631056,
        "lon": 72.8249753,
        "tags": {
          "addr:city": "Mumbai",
          "addr:housenumber": "27/A",
          "addr:postcode": "400050",
          "addr:street": "Pali Mala Road",
          "addr:suburb": "Bandra West",
          "amenity": "cafe",
          "diet:vegan": "yes",
          "diet:vegetarian": "only",
          "name": "Seeds of Life",
          "old_name": "The Bhookha Beirdo\u2122",
          "opening_hours": "Mo-Su 11:00-23:00",
          "outdoor_seating": "no",
          "phone": "+91 98924 29167"
        }
      },
      {
        "type": "node",
        "id": 7045255055,
        "lat": 19.0739299,
        "lon": 72.832831,
        "tags": {
          "addr:district": "Mumbai",
          "addr:full": "Pujya Shri Kanshiram Jain Smarak, Ahimsa Bhavan, Ahimsa Marg, 14th A Road, Khar (West)",
          "addr:postcode": "400052",
          "addr:state": "Maharashtra",
          "amenity": "clinic",
          "contact:phone": "2226040676",
          "email": "info@mmrchospital.com",
          "healthcare": "hospital",
          "name": "Mahavir Medical Research Centre",
          "operator:type": "private",
          "source": "OpenGovernmentData",
          "website": "https://www.mmrchospital.com/"
        }
      },
      {
        "type": "node",
        "id": 7047840108,
        "lat": 19.0731837,
        "lon": 72.8263765,
        "tags": {
          "addr:city": "Mumbai",
          "addr:housenumber": "66",
          "addr:street": "Chuim Village Road",
          "amenity": "cafe",
          "name": "KCROASTERS - By Koinonia",
          "opening_hours": "Mo-Su 08:00-21:30",
          "phone": "+91-9136650277",
          "website": "https://kcroasters.com/"
        }
      },
      {
        "type": "node",
        "id": 7049584815,
        "lat": 19.0740757,
        "lon": 72.8329611,
        "tags": {
          "addr:district": "Mumbai",
          "addr:full": "21 - A, Sita Bhavan, 14Th A Road, Ahimsa Marg, Khar (West)",
          "addr:postcode": "400052",
          "addr:state": "Maharashtra",
          "amenity": "hospital",
          "email": "info@rghospital.com",
          "healthcare": "hospital",
          "healthcare:speciality": "urology;clinical_pathology",
          "name": "RG Stone Urology and Laparoscopy Hospital, Khar",
          "operator:type": "private",
          "source": "OpenGovernmentData",
          "website": "https://www.rghospitals.com/"
        }
      },
      {
        "type": "node",
        "id": 7051598695,
        "lat": 19.0747468,
        "lon": 72.8325889,
        "tags": {
          "addr:district": "Mumbai",
          "addr:full": "14-A Road , Khar",
          "addr:postcode": "400052",
          "addr:state": "Maharashtra",
          "amenity": "clinic",
          "healthcare": "clinic",
          "name": "Kumar Clinic, Mumbai",
          "source": "OpenGovernmentData"
        }
      },
      {
        "type": "node",
        "id": 7052185493,
        "lat": 19.0744458,
        "lon": 72.8344122,
        "tags": {
          "addr:district": "Mumbai",
          "addr:full": "1 Milton Tower, 290-291, Linking Road, Khar West",
          "addr:postcode": "400052",
          "addr:state": "Maharashtra",
          "amenity": "hospital",
          "healthcare": "hospital",
          "healthcare:speciality": "pathology",
          "name": "Khar Clinico-Pathology Laboratory",
          "source": "OpenGovernmentData"
        }
      },
      {
        "type": "node",
        "id": 7055460057,
        "lat": 19.0660316,
        "lon": 72.8319771,
        "tags": {
          "addr:district": "Mumbai",
          "addr:full": "Shyamkripa Bldg,Ground Floor 15Th Road, Khar (W)",
          "addr:postcode": "400052",
          "addr:state": "Maharashtra",
          "amenity": "hospital",
          "healthcare": "hospital",
          "name": "Tulip Womens Healthcare Centre - Khar (W)",
          "source": "OpenGovernmentData"
        }
      },
      {
        "type": "node",
        "id": 7085742085,
        "lat": 19.0721453,
        "lon": 72.8343692,
        "tags": {
          "addr:district": "Mumbai",
          "addr:full": "No. 7, Rajsarovar Nikethan, No. 315. A Working Road, Above Punjab Sindhi Bank, Khar West",
          "addr:postcode": "400054",
          "addr:state": "Maharashtra",
          "amenity": "hospital",
          "name": "Zen Eye Center",
          "source": "OpenGovernmentData"
        }
      },
      {
        "type": "node",
        "id": 8329715112,
        "lat": 19.0656386,
        "lon": 72.8308232,
        "tags": {
          "addr:city": "Mumbai",
          "addr:housenumber": "Shop 5, Silvercroft",
          "addr:place": "Bandra",
          "addr:postcode": "400050",
          "addr:street": "33rd Road",
          "amenity": "fast_food",
          "name": "Gurukripa Pani Puri"
        }
      },
      {
        "type": "node",
        "id": 10694358136,
        "lat": 19.0636814,
        "lon": 72.8293629,
        "tags": {
          "amenity": "cafe",
          "check_date": "2023-02-26",
          "diet:vegan": "yes",
          "diet:vegetarian": "yes",
          "name": "Greenr Cafe",
          "website": "https://thrivenow.in/greenr-cafe-all-locations"
        }
      },
      {
        "type": "node",
        "id": 11298617858,
        "lat": 19.0649138,
        "lon": 72.8298226,
        "tags": {
          "amenity": "pharmacy",
          "brand": "Wellness Forever",
          "brand:wikidata": "Q123114721",
          "healthcare": "pharmacy",
          "name": "Wellness Forever"
        }
      },
      {
        "type": "node",
        "id": 11298617868,
        "lat": 19.0650907,
        "lon": 72.8296379,
        "tags": {
          "addr:city": "Mumbai",
          "addr:postcode": "400050",
          "addr:street": "Dr. BR Ambedkar Road",
          "amenity": "cafe",
          "name": "Ritual Daily Coffee",
          "name:en": "Ritual Daily Coffee"
        }
      },
      {
        "type": "node",
        "id": 11298645288,
        "lat": 19.0657065,
        "lon": 72.8299736,
        "tags": {
          "amenity": "bank",
          "brand": "Bank of Baroda",
          "brand:wikidata": "Q2003797",
          "name": "Bank of Baroda"
        }
      },
      {
        "type": "node",
        "id": 11298645289,
        "lat": 19.0656817,
        "lon": 72.8299714,
        "tags": {
          "amenity": "atm",
          "brand": "Bank of Baroda",
          "brand:wikidata": "Q2003797",
          "operator": "Bank of Baroda",
          "operator:wikidata": "Q2003797"
        }
      },
      {
        "type": "node",
        "id": 11298645299,
        "lat": 19.0654365,
        "lon": 72.8305902,
        "tags": {
          "amenity": "restaurant",
          "name": "Sequel",
          "name:en": "Sequel"
        }
      },
      {
        "type": "node",
        "id": 11298645363,
        "lat": 19.0656021,
        "lon": 72.8316198,
        "tags": {
          "amenity": "pharmacy",
          "healthcare": "pharmacy",
          "name": "Noble Plus",
          "name:en": "Noble Plus"
        }
      },
      {
        "type": "node",
        "id": 11298645389,
        "lat": 19.0678533,
        "lon": 72.8326181,
        "tags": {
          "amenity": "fast_food",
          "brand": "Domino's",
          "brand:wikidata": "Q839466",
          "cuisine": "pizza",
          "name": "Domino's",
          "takeaway": "yes"
        }
      },
      {
        "type": "node",
        "id": 11298645390,
        "lat": 19.0679736,
        "lon": 72.8333777,
        "tags": {
          "amenity": "bank",
          "brand": "ICICI Bank",
          "brand:wikidata": "Q1653258",
          "name": "ICICI Bank",
          "short_name": "ICICI"
        }
      },
      {
        "type": "node",
        "id": 11298645404,
        "lat": 19.0675934,
        "lon": 72.8337555,
        "tags": {
          "amenity": "bank",
          "brand": "Punjab National Bank",
          "brand:wikidata": "Q2743499",
          "name": "Punjab National Bank"
        }
      },
      {
        "type": "node",
        "id": 11298645409,
        "lat": 19.0650052,
        "lon": 72.8316247,
        "tags": {
          "amenity": "bank",
          "name": "Bharat Bank",
          "name:en": "Bharat Bank"
        }
      },
      {
        "type": "node",
        "id": 11298645410,
        "lat": 19.0650358,
        "lon": 72.8316255,
        "tags": {
          "amenity": "atm",
          "operator": "Bharat Bank"
        }
      },
      {
        "type": "node",
        "id": 11364283731,
        "lat": 19.0679012,
        "lon": 72.8340037,
        "tags": {
          "amenity": "restaurant",
          "cuisine": "chinese;indian",
          "name": "Sheetal Bukhara",
          "name:en": "Sheetal Bukhara",
          "name:hi": "\u0936\u0940\u0924\u0932 \u092c\u0941\u0916\u093e\u0930\u093e",
          "name:mr": "\u0936\u0940\u0924\u0932 \u092c\u0941\u0916\u093e\u0930\u093e",
          "opening_hours": "Mo-Su 11:30-01:30"
        }
      },
      {
        "type": "node",
        "id": 11482202270,
        "lat": 19.0705444,
        "lon": 72.8226323,
        "tags": {
          "amenity": "cafe",
          "name": "Coffee by Di Bella",
          "name:en": "Coffee by Di Bella"
        }
      },
      {
        "type": "node",
        "id": 11482202271,
        "lat": 19.0705997,
        "lon": 72.822656,
        "tags": {
          "amenity": "restaurant",
          "name": "Carter Road Social",
          "name:en": "Carter Road Social"
        }
      },
      {
        "type": "node",
        "id": 11482202274,
        "lat": 19.0706407,
        "lon": 72.8226815,
        "tags": {
          "amenity": "fast_food",
          "name": "Tibb's Frankie",
          "name:en": "Tibb's Frankie"
        }
      },
      {
        "type": "node",
        "id": 11482202276,
        "lat": 19.070678,
        "lon": 72.8227903,
        "tags": {
          "amenity": "cafe",
          "cuisine": "bubble_tea",
          "name": "Mongoose The Bubble Bar",
          "name:en": "Mongoose The Bubble Bar",
          "name:hi": "\u092e\u094b\u0902\u0917\u0941\u0938",
          "name:mr": "\u092e\u094b\u0902\u0917\u0941\u0938"
        }
      },
      {
        "type": "node",
        "id": 11482202277,
        "lat": 19.0707048,
        "lon": 72.8228962,
        "tags": {
          "amenity": "restaurant",
          "cuisine": "pizza",
          "name": "The House Of Massimo",
          "name:en": "The House Of Massimo",
          "name:hi": "\u0926 \u0939\u093e\u0909\u0938 \u0911\u092b \u092e\u093e\u0938\u094d\u0938\u093f\u092e\u094b",
          "name:mr": "\u0926 \u0939\u093e\u0909\u0938 \u0911\u092b \u092e\u093e\u0938\u094d\u0938\u093f\u092e\u094b"
        }
      },
      {
        "type": "node",
        "id": 11482202278,
        "lat": 19.0707235,
        "lon": 72.8229574,
        "tags": {
          "amenity": "fast_food",
          "cuisine": "kebab",
          "name": "Carter's Blue",
          "name:en": "Carter's Blue"
        }
      },
      {
        "type": "node",
        "id": 11671765952,
        "lat": 19.071538,
        "lon": 72.8250012,
        "tags": {
          "amenity": "bank",
          "branch": "Pali Hill",
          "brand": "Canara Bank",
          "brand:en": "Canara Bank",
          "brand:hi": "\u0915\u0947\u0928\u0930\u093e \u092c\u0948\u0902\u0915",
          "brand:kn": "\u0c95\u0cc6\u0ca8\u0cb0\u0cbe \u0cac\u0ccd\u0caf\u0cbe\u0c82\u0c95\u0ccd",
          "brand:pa": "\u0a15\u0a47\u0a28\u0a30\u0a3e \u0a2c\u0a48\u0a02\u0a15",
          "brand:pnb": "\u06a9\u06cc\u0646\u0631\u0627 \u0628\u06cc\u0646\u06a9",
          "brand:ur": "\u06a9\u06cc\u0646\u0631\u0627 \u0628\u06cc\u0646\u06a9",
          "brand:wikidata": "Q2003777",
          "name": "Canara Bank",
          "name:en": "Canara Bank",
          "name:hi": "\u0915\u0947\u0928\u0930\u093e \u092c\u0948\u0902\u0915",
          "name:kn": "\u0c95\u0cc6\u0ca8\u0cb0\u0cbe \u0cac\u0ccd\u0caf\u0cbe\u0c82\u0c95\u0ccd",
          "name:pa": "\u0a15\u0a47\u0a28\u0a30\u0a3e \u0a2c\u0a48\u0a02\u0a15",
          "name:pnb": "\u06a9\u06cc\u0646\u0631\u0627 \u0628\u06cc\u0646\u06a9",
          "name:ur": "\u06a9\u06cc\u0646\u0631\u0627 \u0628\u06cc\u0646\u06a9"
        }
      },
      {
        "type": "node",
        "id": 11671956965,
        "lat": 19.0707397,
        "lon": 72.8224281,
        "tags": {
          "air_conditioning": "yes",
          "amenity": "cafe",
          "bar": "no",
          "drive_through": "no",
          "name": "The Library Cafe",
          "outdoor_seating": "yes"
        }
      },
      {
        "type": "node",
        "id": 11693903879,
        "lat": 19.0702675,
        "lon": 72.8291283,
        "tags": {
          "amenity": "bank",
          "brand": "State Bank of India",
          "brand:wikidata": "Q1340361",
          "name": "State Bank of India",
          "short_name": "SBI"
        }
      },
      {
        "type": "node",
        "id": 11901183801,
        "lat": 19.0756716,
        "lon": 72.8317315,
        "tags": {
          "amenity": "cafe",
          "brand": "Starbucks",
          "brand:wikidata": "Q37158",
          "cuisine": "coffee_shop",
          "name": "Starbucks",
          "official_name": "Starbucks Coffee",
          "takeaway": "yes"
        }
      },
      {
        "type": "node",
        "id": 12192784742,
        "lat": 19.0649558,
        "lon": 72.8279776,
        "tags": {
          "amenity": "bank",
          "brand": "Axis Bank",
          "brand:wikidata": "Q2003549",
          "name": "Axis Bank"
        }
      },
      {
        "type": "node",
        "id": 12192784743,
        "lat": 19.0650566,
        "lon": 72.8280182,
        "tags": {
          "amenity": "atm",
          "brand": "Axis Bank",
          "brand:wikidata": "Q2003549",
          "name": "Axis Bank",
          "operator": "Axis Bank",
          "operator:wikidata": "Q2003549"
        }
      },
      {
        "type": "node",
        "id": 12192784798,
        "lat": 19.0629065,
        "lon": 72.8246987,
        "tags": {
          "amenity": "cafe",
          "cuisine": "japanese",
          "name": "Abokado",
          "name:en": "Abokado",
          "name:hi": "\u0905\u092c\u094b\u0915\u093e\u0921\u094b",
          "name:mr": "\u0905\u092c\u094b\u0915\u093e\u0921\u094b"
        }
      },
      {
        "type": "node",
        "id": 12334116824,
        "lat": 19.0680108,
        "lon": 72.8323909,
        "tags": {
          "amenity": "restaurant",
          "cuisine": "chinese",
          "name": "5 Spice",
          "name:en": "5 Spice"
        }
      },
      {
        "type": "node",
        "id": 12334116825,
        "lat": 19.0680214,
        "lon": 72.8323561,
        "tags": {
          "amenity": "restaurant",
          "cuisine": "indian",
          "name": "Jai Jawan",
          "name:en": "Jai Jawan"
        }
      },
      {
        "type": "node",
        "id": 12334116841,
        "lat": 19.0696756,
        "lon": 72.8339227,
        "tags": {
          "amenity": "bank",
          "name": "Saraswat Bank",
          "name:en": "Saraswat Bank"
        }
      },
      {
        "type": "node",
        "id": 12334116885,
        "lat": 19.0728687,
        "lon": 72.8321001,
        "tags": {
          "amenity": "bank",
          "brand": "HDFC Bank",
          "brand:wikidata": "Q631047",
          "name": "HDFC Bank",
          "short_name": "HDFC"
        }
      },
      {
        "type": "node",
        "id": 12334116886,
        "lat": 19.0729408,
        "lon": 72.8320129,
        "tags": {
          "amenity": "atm",
          "brand": "HDFC Bank",
          "brand:wikidata": "Q631047",
          "name": "HDFC Bank",
          "operator": "HDFC Bank",
          "operator:wikidata": "Q631047",
          "short_name": "HDFC"
        }
      },
      {
        "type": "node",
        "id": 12892604956,
        "lat": 19.0669962,
        "lon": 72.8328138,
        "tags": {
          "amenity": "cafe",
          "name": "Farmers Cafe"
        }
      },
      {
        "type": "node",
        "id": 12920034718,
        "lat": 19.071019,
        "lon": 72.8331048,
        "tags": {
          "amenity": "cafe",
          "name": "August Cafe",
          "name:en": "August Cafe",
          "website": "https://augustcafe.in/home/"
        }
      },
      {
        "type": "node",
        "id": 12920626771,
        "lat": 19.0649355,
        "lon": 72.8308501,
        "tags": {
          "amenity": "bank",
          "brand": "Canara Bank",
          "brand:en": "Canara Bank",
          "brand:hi": "\u0915\u0947\u0928\u0930\u093e \u092c\u0948\u0902\u0915",
          "brand:kn": "\u0c95\u0cc6\u0ca8\u0cb0\u0cbe \u0cac\u0ccd\u0caf\u0cbe\u0c82\u0c95\u0ccd",
          "brand:pa": "\u0a15\u0a47\u0a28\u0a30\u0a3e \u0a2c\u0a48\u0a02\u0a15",
          "brand:pnb": "\u06a9\u06cc\u0646\u0631\u0627 \u0628\u06cc\u0646\u06a9",
          "brand:ur": "\u06a9\u06cc\u0646\u0631\u0627 \u0628\u06cc\u0646\u06a9",
          "brand:wikidata": "Q2003777",
          "name": "Canara Bank",
          "name:en": "Canara Bank",
          "name:hi": "\u0915\u0947\u0928\u0930\u093e \u092c\u0948\u0902\u0915",
          "name:kn": "\u0c95\u0cc6\u0ca8\u0cb0\u0cbe \u0cac\u0ccd\u0caf\u0cbe\u0c82\u0c95\u0ccd",
          "name:pa": "\u0a15\u0a47\u0a28\u0a30\u0a3e \u0a2c\u0a48\u0a02\u0a15",
          "name:pnb": "\u06a9\u06cc\u0646\u0631\u0627 \u0628\u06cc\u0646\u06a9",
          "name:ur": "\u06a9\u06cc\u0646\u0631\u0627 \u0628\u06cc\u0646\u06a9"
        }
      },
      {
        "type": "node",
        "id": 12920626772,
        "lat": 19.0649866,
        "lon": 72.8308509,
        "tags": {
          "amenity": "atm",
          "brand": "Canara Bank",
          "brand:en": "Canara Bank",
          "brand:hi": "\u0915\u0947\u0928\u0930\u093e \u092c\u0948\u0902\u0915",
          "brand:kn": "\u0c95\u0cc6\u0ca8\u0cb0\u0cbe \u0cac\u0ccd\u0caf\u0cbe\u0c82\u0c95\u0ccd",
          "brand:pa": "\u0a15\u0a47\u0a28\u0a30\u0a3e \u0a2c\u0a48\u0a02\u0a15",
          "brand:pnb": "\u06a9\u06cc\u0646\u0631\u0627 \u0628\u06cc\u0646\u06a9",
          "brand:ur": "\u06a9\u06cc\u0646\u0631\u0627 \u0628\u06cc\u0646\u06a9",
          "brand:wikidata": "Q2003777",
          "name": "Canara Bank",
          "operator": "Canara Bank",
          "operator:wikidata": "Q2003777"
        }
      },
      {
        "type": "node",
        "id": 12923020642,
        "lat": 19.0650522,
        "lon": 72.831054,
        "tags": {
          "amenity": "cafe",
          "name": "Bombay Brioche",
          "name:en": "Bombay Brioche",
          "outdoor_seating": "yes",
          "website": "https://bandra.bombaybrioche.com/"
        }
      },
      {
        "type": "node",
        "id": 12923020645,
        "lat": 19.0655985,
        "lon": 72.8303139,
        "tags": {
          "amenity": "restaurant",
          "cuisine": "indian",
          "name": "Khane Khas",
          "name:en": "Khane Khas",
          "name:mr": "\u0916\u093e\u0928\u0947 \u0916\u093e\u0938"
        }
      },
      {
        "type": "node",
        "id": 12923020646,
        "lat": 19.0656002,
        "lon": 72.8302778,
        "tags": {
          "amenity": "cafe",
          "cuisine": "bubble_tea",
          "name": "Bobakat",
          "name:en": "Bobakat",
          "name:mr": "\u092c\u094b\u092c\u093e\u0915\u0945\u091f"
        }
      },
      {
        "type": "node",
        "id": 12923020647,
        "lat": 19.0656019,
        "lon": 72.8302376,
        "tags": {
          "amenity": "pharmacy",
          "healthcare": "pharmacy",
          "name": "Guru Nanak Chemist",
          "name:en": "Guru Nanak Chemist",
          "name:mr": "\u0917\u0941\u0930\u0941 \u0928\u093e\u0928\u0915 \u091a\u0947\u092e\u093f\u0938\u094d\u091f"
        }
      },
      {
        "type": "node",
        "id": 12923020648,
        "lat": 19.0656094,
        "lon": 72.8301902,
        "tags": {
          "amenity": "restaurant",
          "cuisine": "indian",
          "drive_through": "no",
          "name": "Salim's Shahi Sigdi",
          "name:en": "Salim's Shahi Sigdi",
          "phone": "+91 99671 38646"
        }
      },
      {
        "type": "node",
        "id": 13086964873,
        "lat": 19.0634612,
        "lon": 72.8245334,
        "tags": {
          "amenity": "fast_food",
          "cuisine": "chicken",
          "name": "Chicken Affair",
          "name:en": "Chicken Affair",
          "name:mr": "\u091a\u093f\u0915\u0928 \u0905\u092b\u0947\u0905\u0930"
        }
      },
      {
        "type": "node",
        "id": 13086964886,
        "lat": 19.0633925,
        "lon": 72.8246256,
        "tags": {
          "amenity": "pharmacy",
          "healthcare": "pharmacy",
          "name": "Shree Krishna Medical & General Store",
          "name:en": "Shree Krishna Medical & General Store",
          "name:mr": "\u0936\u094d\u0930\u0940 \u0915\u0943\u0937\u094d\u0923\u093e \u092e\u0947\u0921\u093f\u0915\u0932 \u0906\u0923\u093f \u091c\u0928\u0930\u0932 \u0938\u094d\u091f\u094b\u0930"
        }
      },
      {
        "type": "node",
        "id": 13086966002,
        "lat": 19.0631232,
        "lon": 72.8249195,
        "tags": {
          "amenity": "cafe",
          "name": "Pause",
          "name:en": "Pause",
          "name:mr": "\u092a\u0949\u0938\u094d"
        }
      },
      {
        "type": "node",
        "id": 13089348621,
        "lat": 19.0715458,
        "lon": 72.8338617,
        "tags": {
          "amenity": "restaurant",
          "level": "1",
          "name": "Khao Piyo",
          "name:en": "Khao Piyo"
        }
      },
      {
        "type": "node",
        "id": 13112584779,
        "lat": 19.0656701,
        "lon": 72.8282103,
        "tags": {
          "amenity": "bank",
          "brand": "IDFC First Bank",
          "brand:wikidata": "Q22031467",
          "name": "IDFC First Bank"
        }
      },
      {
        "type": "node",
        "id": 13112584780,
        "lat": 19.0657106,
        "lon": 72.8282281,
        "tags": {
          "amenity": "atm",
          "brand": "IDFC First Bank",
          "brand:wikidata": "Q22031467",
          "name": "IDFC First Bank",
          "name:en": "IDFC First Bank",
          "operator": "IDFC First Bank",
          "operator:wikidata": "Q22031467"
        }
      },
      {
        "type": "node",
        "id": 13112584781,
        "lat": 19.065754,
        "lon": 72.8282397,
        "tags": {
          "amenity": "bank",
          "brand": "HDFC Bank",
          "brand:wikidata": "Q631047",
          "name": "HDFC Bank",
          "short_name": "HDFC"
        }
      },
      {
        "type": "node",
        "id": 13112584782,
        "lat": 19.0657992,
        "lon": 72.8282544,
        "tags": {
          "amenity": "atm",
          "brand": "HDFC Bank",
          "brand:wikidata": "Q631047",
          "name": "HDFC Bank",
          "name:en": "HDFC Bank",
          "operator": "HDFC Bank",
          "operator:wikidata": "Q631047"
        }
      },
      {
        "type": "node",
        "id": 13112602728,
        "lat": 19.0691355,
        "lon": 72.8284813,
        "tags": {
          "amenity": "atm",
          "brand": "ICICI Bank",
          "brand:wikidata": "Q1653258",
          "name": "ICICI Bank",
          "name:en": "ICICI Bank",
          "operator": "ICICI Bank",
          "operator:wikidata": "Q1653258"
        }
      },
      {
        "type": "node",
        "id": 13112602729,
        "lat": 19.0691214,
        "lon": 72.828502,
        "tags": {
          "amenity": "bank",
          "brand": "ICICI Bank",
          "brand:wikidata": "Q1653258",
          "drive_through": "no",
          "name": "ICICI Bank",
          "short_name": "ICICI"
        }
      }
    ]
  },
  "pois_2_5km": {
    "version": 0.6,
    "generator": "Overpass API 0.7.62.8 e802775f",
    "osm3s": {
      "timestamp_osm_base": "2025-09-06T07:46:34Z",
      "copyright": "The data included in this document is from www.openstreetmap.org. The data is made available under ODbL."
    },
    "elements": [
      {
        "type": "node",
        "id": 213030714,
        "lat": 19.0815223,
        "lon": 72.8417565,
        "tags": {
          "internet_access": "no",
          "name": "Santa Cruz",
          "name:hi": "\u0938\u093e\u0902\u0924\u093e\u0915\u094d\u0930\u0941\u091c\u093c",
          "name:mr": "\u0938\u093e\u0902\u0924\u093e\u0915\u094d\u0930\u0942\u091d",
          "network": "Mumbai Suburban Railway",
          "network:wikidata": "Q3273422",
          "operator": "WR",
          "public_transport": "station",
          "railway": "station",
          "ref": "STC",
          "train": "yes",
          "wikidata": "Q7420001",
          "wikipedia": "en:Santacruz railway station"
        }
      },
      {
        "type": "node",
        "id": 347138797,
        "lat": 19.0682411,
        "lon": 72.8400412,
        "tags": {
          "internet_access": "no",
          "name": "Khar Road",
          "name:en": "Khar Road",
          "name:hi": "\u0916\u093e\u0930 \u0930\u094b\u0921",
          "name:mr": "\u0916\u093e\u0930 \u0930\u094b\u0921",
          "network": "Mumbai Suburban Railway",
          "network:wikidata": "Q3273422",
          "operator": "WR",
          "public_transport": "station",
          "railway": "station",
          "ref": "KHAR",
          "start_date": "1924-07-01",
          "train": "yes",
          "wikidata": "Q372596",
          "wikipedia": "en:Khar Road railway station"
        }
      },
      {
        "type": "node",
        "id": 1233481359,
        "lat": 19.0547734,
        "lon": 72.8407919,
        "tags": {
          "name": "Bandra",
          "name:en": "Bandra",
          "name:mr": "\u0935\u093e\u0902\u0926\u094d\u0930\u0947",
          "public_transport": "stop_position",
          "railway": "stop",
          "ref": "5",
          "train": "yes"
        }
      },
      {
        "type": "node",
        "id": 1233481362,
        "lat": 19.054835,
        "lon": 72.8409588,
        "tags": {
          "name": "Bandra",
          "name:en": "Bandra",
          "name:mr": "\u0935\u093e\u0902\u0926\u094d\u0930\u0947",
          "public_transport": "stop_position",
          "railway": "stop",
          "ref": "7",
          "train": "yes"
        }
      },
      {
        "type": "node",
        "id": 1233481375,
        "lat": 19.0547878,
        "lon": 72.8408402,
        "tags": {
          "name": "Bandra",
          "name:en": "Bandra",
          "name:mr": "\u0935\u093e\u0902\u0926\u094d\u0930\u0947",
          "public_transport": "stop_position",
          "railway": "stop",
          "ref": "6",
          "train": "yes"
        }
      },
      {
        "type": "node",
        "id": 1233481385,
        "lat": 19.0546445,
        "lon": 72.8404627,
        "tags": {
          "name": "Bandra",
          "name:en": "Bandra",
          "name:mr": "\u0935\u093e\u0902\u0926\u094d\u0930\u0947",
          "public_transport": "stop_position",
          "railway": "stop",
          "ref": "1",
          "train": "yes"
        }
      },
      {
        "type": "node",
        "id": 1233481390,
        "lat": 19.0546544,
        "lon": 72.8404879,
        "tags": {
          "name": "Bandra",
          "name:en": "Bandra",
          "name:mr": "\u0935\u093e\u0902\u0926\u094d\u0930\u0947",
          "public_transport": "stop_position",
          "railway": "stop",
          "ref": "2",
          "train": "yes"
        }
      },
      {
        "type": "node",
        "id": 1392005679,
        "lat": 19.0629493,
        "lon": 72.8415372,
        "tags": {
          "amenity": "bus_station",
          "bus": "yes",
          "name": "Bandra Terminus",
          "public_transport": "station",
          "wheelchair": "yes"
        }
      },
      {
        "type": "node",
        "id": 2630075000,
        "lat": 19.0549792,
        "lon": 72.8402203,
        "tags": {
          "addr:city": "Bandra, Mumbai",
          "internet_access": "wlan",
          "name": "Bandra",
          "name:hi": "\u092c\u093e\u0902\u0926\u094d\u0930\u093e",
          "name:ml": "\u0d2c\u0d3e\u0d28\u0d4d\u0d26\u0d4d\u0d30",
          "name:mr": "\u0935\u093e\u0902\u0926\u094d\u0930\u0947",
          "network": "Mumbai Suburban Railway",
          "network:wikidata": "Q3273422",
          "operator": "WR",
          "public_transport": "station",
          "railway": "station",
          "ref": "BA",
          "ref:suburban": "B",
          "start_date": "1869",
          "train": "yes",
          "wheelchair": "no",
          "wikidata": "Q4854695",
          "wikipedia": "en:Bandra railway station"
        }
      },
      {
        "type": "node",
        "id": 3951527111,
        "lat": 19.0905676,
        "lon": 72.8382833,
        "tags": {
          "amenity": "bus_station",
          "bus": "yes",
          "name": "Santacruz Bus Depot",
          "public_transport": "station"
        }
      },
      {
        "type": "node",
        "id": 3951538082,
        "lat": 19.0860081,
        "lon": 72.8383183,
        "tags": {
          "amenity": "fuel",
          "brand": "Hindustan Petroleum",
          "brand:wikidata": "Q1619375",
          "brand:wikipedia": "en:Hindustan Petroleum",
          "name": "HP",
          "official_name": "Hindustan Petroleum"
        }
      },
      {
        "type": "node",
        "id": 4273389598,
        "lat": 19.0553844,
        "lon": 72.8386116,
        "tags": {
          "amenity": "cinema",
          "name": "Nandi Cinema"
        }
      },
      {
        "type": "node",
        "id": 4309819457,
        "lat": 19.0567446,
        "lon": 72.828704,
        "tags": {
          "addr:city": "Bandra, Mumbai",
          "addr:postcode": "400050",
          "addr:street": "St Dominic Street;7th Road",
          "amenity": "theatre",
          "name": "St. Andrew's Auditorium"
        }
      },
      {
        "type": "node",
        "id": 4345706690,
        "lat": 19.0690106,
        "lon": 72.8403841,
        "tags": {
          "name": "Khar Road",
          "name:en": "Khar Road",
          "name:hi": "\u0916\u093e\u0930 \u0930\u094b\u0921",
          "name:mr": "\u0916\u093e\u0930 \u0930\u094b\u0921",
          "public_transport": "stop_position",
          "railway": "stop",
          "ref": "6",
          "train": "yes"
        }
      },
      {
        "type": "node",
        "id": 4345706693,
        "lat": 19.0690942,
        "lon": 72.8398818,
        "tags": {
          "name": "Khar Road",
          "name:en": "Khar Road",
          "name:hi": "\u0916\u093e\u0930 \u0930\u094b\u0921",
          "name:mr": "\u0916\u093e\u0930 \u0930\u094b\u0921",
          "public_transport": "stop_position",
          "railway": "stop",
          "ref": "1",
          "train": "yes"
        }
      },
      {
        "type": "node",
        "id": 5926157724,
        "lat": 19.0562025,
        "lon": 72.8338672,
        "tags": {
          "amenity": "cinema",
          "brand": "PVR Cinemas",
          "brand:short": "PVR",
          "brand:wikidata": "Q3359908",
          "name": "PVR La Reve",
          "name:en": "PVR La Reve",
          "old_name": "Globus Cinema"
        }
      },
      {
        "type": "node",
        "id": 5942782562,
        "lat": 19.0896096,
        "lon": 72.8391558,
        "tags": {
          "amenity": "cinema",
          "name": "Gold Cinemas"
        }
      },
      {
        "type": "node",
        "id": 7510862068,
        "lat": 19.054716,
        "lon": 72.8406066,
        "tags": {
          "name": "Bandra",
          "name:en": "Bandra",
          "name:mr": "\u0935\u093e\u0902\u0926\u094d\u0930\u0947",
          "public_transport": "stop_position",
          "railway": "stop",
          "ref": "3",
          "train": "yes"
        }
      },
      {
        "type": "node",
        "id": 7510862069,
        "lat": 19.0547291,
        "lon": 72.8406538,
        "tags": {
          "name": "Bandra",
          "name:en": "Bandra",
          "name:mr": "\u0935\u093e\u0902\u0926\u094d\u0930\u0947",
          "public_transport": "stop_position",
          "railway": "stop",
          "ref": "4",
          "train": "yes"
        }
      },
      {
        "type": "node",
        "id": 7510862080,
        "lat": 19.0839117,
        "lon": 72.8418774,
        "tags": {
          "name": "Santa Cruz (CR)",
          "name:en": "Santa Cruz (CR)",
          "name:mr": "\u0938\u093e\u0902\u0924\u093e\u0915\u094d\u0930\u0942\u091d",
          "public_transport": "stop_position",
          "railway": "stop",
          "ref": "2",
          "train": "yes"
        }
      },
      {
        "type": "node",
        "id": 7510862081,
        "lat": 19.0816085,
        "lon": 72.8418625,
        "tags": {
          "name": "Santa Cruz (WR)",
          "name:en": "Santa Cruz (WR)",
          "name:mr": "\u0938\u093e\u0902\u0924\u093e\u0915\u094d\u0930\u0942\u091d",
          "public_transport": "stop_position",
          "railway": "stop",
          "ref": "6",
          "train": "yes"
        }
      },
      {
        "type": "node",
        "id": 7510862082,
        "lat": 19.0816252,
        "lon": 72.8417226,
        "tags": {
          "name": "Santa Cruz (WR)",
          "name:en": "Santa Cruz (WR)",
          "name:mr": "\u0938\u093e\u0902\u0924\u093e\u0915\u094d\u0930\u0942\u091d",
          "public_transport": "stop_position",
          "railway": "stop",
          "ref": "5",
          "train": "yes"
        }
      },
      {
        "type": "node",
        "id": 7510862083,
        "lat": 19.0816295,
        "lon": 72.8416835,
        "tags": {
          "name": "Santa Cruz (WR)",
          "name:en": "Santa Cruz (WR)",
          "name:mr": "\u0938\u093e\u0902\u0924\u093e\u0915\u094d\u0930\u0942\u091d",
          "public_transport": "stop_position",
          "railway": "stop",
          "ref": "4",
          "train": "yes"
        }
      },
      {
        "type": "node",
        "id": 7510862084,
        "lat": 19.0816184,
        "lon": 72.8415282,
        "tags": {
          "name": "Santa Cruz (WR)",
          "name:en": "Santa Cruz (WR)",
          "name:mr": "\u0938\u093e\u0902\u0924\u093e\u0915\u094d\u0930\u0942\u091d",
          "public_transport": "stop_position",
          "railway": "stop",
          "ref": "3",
          "train": "yes"
        }
      },
      {
        "type": "node",
        "id": 7510862785,
        "lat": 19.0839026,
        "lon": 72.8417442,
        "tags": {
          "name": "Santa Cruz (CR)",
          "name:en": "Santa Cruz (CR)",
          "name:mr": "\u0938\u093e\u0902\u0924\u093e\u0915\u094d\u0930\u0942\u091d",
          "public_transport": "stop_position",
          "railway": "stop",
          "ref": "1",
          "train": "yes"
        }
      },
      {
        "type": "node",
        "id": 7510862786,
        "lat": 19.0690432,
        "lon": 72.8402374,
        "tags": {
          "name": "Khar Road",
          "name:en": "Khar Road",
          "name:hi": "\u0916\u093e\u0930 \u0930\u094b\u0921",
          "name:mr": "\u0916\u093e\u0930 \u0930\u094b\u0921",
          "public_transport": "stop_position",
          "railway": "stop",
          "ref": "5",
          "train": "yes"
        }
      },
      {
        "type": "node",
        "id": 7510862787,
        "lat": 19.0690521,
        "lon": 72.8401907,
        "tags": {
          "name": "Khar Road",
          "name:en": "Khar Road",
          "name:hi": "\u0916\u093e\u0930 \u0930\u094b\u0921",
          "name:mr": "\u0916\u093e\u0930 \u0930\u094b\u0921",
          "public_transport": "stop_position",
          "railway": "stop",
          "ref": "4",
          "train": "yes"
        }
      },
      {
        "type": "node",
        "id": 7510862788,
        "lat": 19.0690693,
        "lon": 72.8400598,
        "tags": {
          "name": "Khar Road",
          "name:en": "Khar Road",
          "name:hi": "\u0916\u093e\u0930 \u0930\u094b\u0921",
          "name:mr": "\u0916\u093e\u0930 \u0930\u094b\u0921",
          "public_transport": "stop_position",
          "railway": "stop",
          "ref": "3",
          "train": "yes"
        }
      },
      {
        "type": "node",
        "id": 7510862789,
        "lat": 19.069074,
        "lon": 72.8400142,
        "tags": {
          "name": "Khar Road",
          "name:en": "Khar Road",
          "name:hi": "\u0916\u093e\u0930 \u0930\u094b\u0921",
          "name:mr": "\u0916\u093e\u0930 \u0930\u094b\u0921",
          "public_transport": "stop_position",
          "railway": "stop",
          "ref": "2",
          "train": "yes"
        }
      },
      {
        "type": "node",
        "id": 7611714585,
        "lat": 19.0615526,
        "lon": 72.8386394,
        "tags": {
          "addr:postcode": "400050",
          "addr:street": "Swami Vivekanand Road",
          "amenity": "cinema",
          "name": "G7 Gaiety Galaxy Multiplex",
          "name:en": "G7 Gaiety Galaxy Multiplex"
        }
      },
      {
        "type": "node",
        "id": 11069678663,
        "lat": 19.0740032,
        "lon": 72.8469774,
        "tags": {
          "bus": "yes",
          "name": "Maratha Colony",
          "name:en": "Maratha Colony",
          "public_transport": "stop_position"
        }
      },
      {
        "type": "node",
        "id": 11069702437,
        "lat": 19.0682353,
        "lon": 72.8467465,
        "tags": {
          "bus": "yes",
          "name": "Cardinal Gracias School",
          "name:en": "Cardinal Gracias School",
          "public_transport": "stop_position"
        }
      },
      {
        "type": "node",
        "id": 12074903223,
        "lat": 19.0703093,
        "lon": 72.8490294,
        "tags": {
          "name": "Bandra Colony",
          "network": "Mumbai Metro",
          "operator": "Mumbai Metro Rail Corporation Ltd",
          "public_transport": "stop_position",
          "railway": "stop",
          "subway": "yes"
        }
      },
      {
        "type": "node",
        "id": 12074903225,
        "lat": 19.0796105,
        "lon": 72.8470573,
        "tags": {
          "name": "Santacruz",
          "name:mr": "\u0938\u093e\u0902\u0924\u093e\u0915\u094d\u0930\u0942\u091d",
          "network": "Mumbai Metro",
          "operator": "Mumbai Metro Rail Corporation Ltd",
          "public_transport": "stop_position",
          "railway": "stop",
          "subway": "yes"
        }
      },
      {
        "type": "node",
        "id": 12074903226,
        "lat": 19.0787375,
        "lon": 72.8471387,
        "tags": {
          "name": "Santacruz",
          "name:mr": "\u0938\u093e\u0902\u0924\u093e\u0915\u094d\u0930\u0942\u091d",
          "network": "Mumbai Metro",
          "operator": "Mumbai Metro Rail Corporation Ltd",
          "public_transport": "stop_position",
          "railway": "stop",
          "subway": "yes"
        }
      },
      {
        "type": "node",
        "id": 12074909130,
        "lat": 19.0792887,
        "lon": 72.8471185,
        "tags": {
          "name": "Santacruz L3",
          "name:mr": "\u0938\u093e\u0902\u0924\u093e\u0915\u094d\u0930\u0942\u091d",
          "network": "Mumbai Metro",
          "operator": "Mumbai Metro Rail Corporation Ltd",
          "public_transport": "station",
          "railway": "station",
          "start_date": "2024-10-05",
          "station": "subway",
          "subway": "yes"
        }
      }
    ]
  }
}