{
  "pois_1km": {
    "version": 0.6,
    "generator": "Overpass API 0.7.62.8 e802775f",
    "osm3s": {
      "timestamp_osm_base": "2025-09-06T07:53:46Z",
      "copyright": "The data included in this document is from www.openstreetmap.org. The data is made available under ODbL."
    },
    "elements": [
      {
        "type": "node",
        "id": 605221678,
        "lat": 18.9446858,
        "lon": 72.8270162,
        "tags": {
          "amenity": "pharmacy",
          "healthcare": "pharmacy",
          "name": "Bobby's"
        }
      },
      {
        "type": "node",
        "id": 605222666,
        "lat": 18.9413574,
        "lon": 72.8279067,
        "tags": {
          "amenity": "pharmacy",
          "healthcare": "pharmacy"
        }
      },
      {
        "type": "node",
        "id": 605222671,
        "lat": 18.9413117,
        "lon": 72.82766,
        "tags": {
          "amenity": "pharmacy",
          "healthcare": "pharmacy"
        }
      },
      {
        "type": "node",
        "id": 605222672,
        "lat": 18.9413633,
        "lon": 72.8275945,
        "tags": {
          "addr:city": "Mumbai",
          "addr:housename": "Kakkad Arcade",
          "addr:housenumber": "50, 51",
          "addr:postcode": "400020",
          "addr:street": "New Marine Lines",
          "amenity": "pharmacy",
          "healthcare": "pharmacy",
          "name": "Real Chemist"
        }
      },
      {
        "type": "node",
        "id": 605222674,
        "lat": 18.9429607,
        "lon": 72.8291513,
        "tags": {
          "amenity": "fast_food",
          "name": "Rajdhani"
        }
      },
      {
        "type": "node",
        "id": 662459670,
        "lat": 18.9340269,
        "lon": 72.8336071,
        "tags": {
          "amenity": "restaurant",
          "name": "Mahesh Lunch Home"
        }
      },
      {
        "type": "node",
        "id": 662459710,
        "lat": 18.9341607,
        "lon": 72.8337661,
        "tags": {
          "amenity": "restaurant",
          "name": "Mocambo Cafe"
        }
      },
      {
        "type": "node",
        "id": 662488867,
        "lat": 18.9348609,
        "lon": 72.8337017,
        "tags": {
          "amenity": "restaurant",
          "name": "On Toes Restobar",
          "source": "GPS"
        }
      },
      {
        "type": "node",
        "id": 662488869,
        "lat": 18.9349624,
        "lon": 72.8342167,
        "tags": {
          "amenity": "restaurant",
          "name": "Ideal Corner"
        }
      },
      {
        "type": "node",
        "id": 1056702147,
        "lat": 18.9339181,
        "lon": 72.8270274,
        "tags": {
          "amenity": "restaurant",
          "diet:vegetarian": "only",
          "microbrewery": "no",
          "name": "Samrat"
        }
      },
      {
        "type": "node",
        "id": 1234802651,
        "lat": 18.9387735,
        "lon": 72.8344385,
        "tags": {
          "amenity": "fast_food",
          "brand": "McDonald's",
          "brand:pa": "\u0a2e\u0a48\u0a15\u0a21\u0a4b\u0a28\u0a32\u0a21\u2019\u0a1c\u0a3c",
          "brand:ur": "\u0645\u06a9\u0688\u0648\u0646\u0644\u0688\u0632",
          "brand:wikidata": "Q38076",
          "brand:wikipedia": "en:McDonald's",
          "brand:wikipedia:pa": "\u0a2e\u0a48\u0a15\u0a21\u0a4b\u0a28\u0a32\u0a21\u2019\u0a1c\u0a3c",
          "brand:wikipedia:ur": "\u0645\u06a9\u0688\u0648\u0646\u0644\u0688\u0632",
          "cuisine": "burger",
          "name": "McDonald's",
          "name:pa": "\u0a2e\u0a48\u0a15\u0a21\u0a4b\u0a28\u0a32\u0a21\u2019\u0a1c\u0a3c",
          "name:ur": "\u0645\u06a9\u0688\u0648\u0646\u0644\u0688\u0632",
          "source": "AND",
          "takeaway": "yes"
        }
      },
      {
        "type": "node",
        "id": 1286193467,
        "lat": 18.9348835,
        "lon": 72.8333857,
        "tags": {
          "amenity": "restaurant",
          "cuisine": "indian",
          "name": "Lalit"
        }
      },
      {
        "type": "node",
        "id": 1973436454,
        "lat": 18.9345879,
        "lon": 72.8241026,
        "tags": {
          "addr:housename": "Jyoti Sadan",
          "addr:street": "Marine Drive",
          "amenity": "fast_food",
          "cuisine": "ice_cream",
          "name": "Natural Ice Cream",
          "source": "local_knowledge",
          "website": "https://naturalicecreams.in/"
        }
      },
      {
        "type": "node",
        "id": 2166760742,
        "lat": 18.93526,
        "lon": 72.83113,
        "tags": {
          "amenity": "fast_food",
          "name": "bhelwala"
        }
      },
      {
        "type": "node",
        "id": 2166796344,
        "lat": 18.9383276,
        "lon": 72.8327115,
        "tags": {
          "amenity": "bank",
          "brand": "Deutsche Bank",
          "brand:wikidata": "Q66048",
          "brand:wikipedia": "en:Deutsche Bank",
          "name": "Deutsche Bank"
        }
      },
      {
        "type": "node",
        "id": 2166796346,
        "lat": 18.9377203,
        "lon": 72.8331562,
        "tags": {
          "amenity": "bank",
          "brand": "Vijaya Bank",
          "brand:wikidata": "Q2003171",
          "brand:wikipedia": "en:Vijaya Bank",
          "name": "Vijaya Bank"
        }
      },
      {
        "type": "node",
        "id": 2166872171,
        "lat": 18.9390156,
        "lon": 72.8342644,
        "tags": {
          "amenity": "cafe",
          "brand": "Cafe Coffee Day",
          "brand:wikidata": "Q5017235",
          "brand:wikipedia": "en:Caf\u00e9 Coffee Day",
          "cuisine": "coffee_shop",
          "name": "Cafe Coffee Day",
          "takeaway": "yes"
        }
      },
      {
        "type": "node",
        "id": 2166872172,
        "lat": 18.9392087,
        "lon": 72.8343769,
        "tags": {
          "amenity": "restaurant",
          "name": "New Majestic"
        }
      },
      {
        "type": "node",
        "id": 2168853713,
        "lat": 18.9336784,
        "lon": 72.8328438,
        "tags": {
          "amenity": "bank",
          "name": "Bank of Rajasthan"
        }
      },
      {
        "type": "node",
        "id": 2169130410,
        "lat": 18.9333406,
        "lon": 72.8315526,
        "tags": {
          "amenity": "bank",
          "name": "American Express Bank"
        }
      },
      {
        "type": "node",
        "id": 2189176387,
        "lat": 18.9365589,
        "lon": 72.833753,
        "tags": {
          "amenity": "bank",
          "atm": "yes",
          "brand": "Deutsche Bank",
          "brand:wikidata": "Q66048",
          "brand:wikipedia": "en:Deutsche Bank",
          "name": "Deutsche Bank"
        }
      },
      {
        "type": "node",
        "id": 2189176388,
        "lat": 18.9358085,
        "lon": 72.8334156,
        "tags": {
          "amenity": "bank",
          "atm": "yes",
          "brand": "ICICI Bank",
          "brand:wikidata": "Q1653258",
          "name": "ICICI Bank",
          "short_name": "ICICI"
        }
      },
      {
        "type": "node",
        "id": 2189176390,
        "lat": 18.9374417,
        "lon": 72.8340638,
        "tags": {
          "amenity": "restaurant",
          "name": "Suvidha"
        }
      },
      {
        "type": "node",
        "id": 3257870661,
        "lat": 18.9432705,
        "lon": 72.8286006,
        "tags": {
          "amenity": "restaurant",
          "name": "beer bar and restaurant"
        }
      },
      {
        "type": "node",
        "id": 3313013691,
        "lat": 18.9416893,
        "lon": 72.8281217,
        "tags": {
          "amenity": "restaurant",
          "cuisine": "pizza",
          "name": "Domminos"
        }
      },
      {
        "type": "node",
        "id": 3366103245,
        "lat": 18.9415002,
        "lon": 72.8275431,
        "tags": {
          "amenity": "restaurant",
          "name": "Liberty"
        }
      },
      {
        "type": "node",
        "id": 3366103247,
        "lat": 18.9414618,
        "lon": 72.827575,
        "tags": {
          "amenity": "restaurant",
          "name": "Shreeji Sagar"
        }
      },
      {
        "type": "node",
        "id": 3994771759,
        "lat": 18.944249,
        "lon": 72.824337,
        "tags": {
          "amenity": "restaurant",
          "cuisine": "indian",
          "internet_access": "no",
          "name": "Poonam Restaurant",
          "outdoor_seating": "no",
          "smoking": "no"
        }
      },
      {
        "type": "node",
        "id": 4133873660,
        "lat": 18.9352275,
        "lon": 72.8340853,
        "tags": {
          "amenity": "restaurant"
        }
      },
      {
        "type": "node",
        "id": 4225072291,
        "lat": 18.9374108,
        "lon": 72.8331683,
        "tags": {
          "addr:street": "Wallace Street",
          "amenity": "cafe",
          "cuisine": "coffee_shop",
          "name": "Creeda Board Game Cafe",
          "opening_hours": "Mo-Su 12:00-22:00",
          "website": "https://www.creeda.in/"
        }
      },
      {
        "type": "node",
        "id": 4346023475,
        "lat": 18.94939,
        "lon": 72.8282529,
        "tags": {
          "addr:city": "mumbai",
          "addr:housenumber": "106",
          "addr:postcode": "400002",
          "addr:street": "2nd floor swadesi market kalbadevi road",
          "fixme": "Survey opening and closing time, was \"12\".",
          "name": "tishacreation",
          "operator": "prakash goyal",
          "shop": "supermarket",
          "website": "www.tishacreation.in"
        }
      },
      {
        "type": "node",
        "id": 4454435389,
        "lat": 18.9425503,
        "lon": 72.8238866,
        "tags": {
          "amenity": "bank",
          "brand": "Axis Bank",
          "brand:wikidata": "Q2003549",
          "brand:wikipedia": "en:Axis Bank",
          "name": "Axis Bank",
          "name:en": "Axis Bank",
          "website": "https://www.axisbank.com"
        }
      },
      {
        "type": "node",
        "id": 4510126689,
        "lat": 18.9362175,
        "lon": 72.8339308,
        "tags": {
          "amenity": "atm",
          "operator": "DBS"
        }
      },
      {
        "type": "node",
        "id": 4510126690,
        "lat": 18.9360532,
        "lon": 72.8339959,
        "tags": {
          "amenity": "atm",
          "brand": "Bank of India",
          "brand:wikidata": "Q2004439",
          "operator": "Bank of India",
          "operator:wikidata": "Q2004439"
        }
      },
      {
        "type": "node",
        "id": 4593013889,
        "lat": 18.9382784,
        "lon": 72.8332041,
        "tags": {
          "amenity": "restaurant",
          "cuisine": "grill;coffee_shop;asian;noodles;fish_and_chips;diner;chicken;italian_pizza;indian;curry;fish;french;friture;chinese;barbecue",
          "name:en": "The Goose and Gridiron"
        }
      },
      {
        "type": "node",
        "id": 4678083190,
        "lat": 18.9332945,
        "lon": 72.8238813,
        "tags": {
          "addr:city": "Mumbai",
          "addr:housenumber": "143 Soona Mahal",
          "addr:postcode": "400020",
          "addr:street": "Veer Nariman Road",
          "air_conditioning": "yes",
          "amenity": "restaurant",
          "bar": "yes",
          "contact:facebook": "https://www.facebook.com/PizzaByTheBay/",
          "contact:instagram": "https://www.instagram.com/pbtbmumbai/",
          "contact:phone": "+91 22 2285 6115;+91 22 22843646;+91 22 22851876",
          "contact:tripadvisor": "https://www.tripadvisor.in/Restaurant_Review-g304554-d3206574-Reviews-Pizza_By_The_Bay-Mumbai_Maharashtra.html",
          "contact:twitter": "https://twitter.com/PBTBMumbai",
          "contact:website": "https://pizzabythebay.in/",
          "cuisine": "pizza;pasta;sandwich",
          "delivery": "yes",
          "diet:meat": "yes",
          "diet:vegetarian": "yes",
          "name": "Pizza By The Bay",
          "opening_hours": "Mo-Su 07:00-00:30",
          "smoking": "no",
          "takeaway": "yes"
        }
      },
      {
        "type": "node",
        "id": 4695132801,
        "lat": 18.9381795,
        "lon": 72.834279,
        "tags": {
          "amenity": "fast_food",
          "brand": "Burger King",
          "brand:wikidata": "Q177054",
          "cuisine": "burger",
          "name": "Burger King",
          "name:de": "Burger King",
          "name:en": "Burger King",
          "operator": "Burger King",
          "takeaway": "yes"
        }
      },
      {
        "type": "node",
        "id": 5201101021,
        "lat": 18.9467596,
        "lon": 72.8295028,
        "tags": {
          "addr:street": "Shamaldas Gandhi Road",
          "amenity": "doctors",
          "healthcare": "doctor",
          "name:en": "All India surgical mfr"
        }
      },
      {
        "type": "node",
        "id": 5304605321,
        "lat": 18.9381338,
        "lon": 72.8289414,
        "tags": {
          "amenity": "fast_food",
          "name:en": "Khau galli"
        }
      },
      {
        "type": "node",
        "id": 5451047523,
        "lat": 18.9385871,
        "lon": 72.8328817,
        "tags": {
          "amenity": "restaurant",
          "cuisine": "chinese",
          "name:en": "Royal China"
        }
      },
      {
        "type": "node",
        "id": 5455875270,
        "lat": 18.9336991,
        "lon": 72.8325516,
        "tags": {
          "amenity": "restaurant",
          "name:en": "Taste of Malabar"
        }
      },
      {
        "type": "node",
        "id": 6155507386,
        "lat": 18.938269,
        "lon": 72.8356327,
        "tags": {
          "amenity": "cafe",
          "name:en": "Pancham Puriwala"
        }
      },
      {
        "type": "node",
        "id": 6283843988,
        "lat": 18.9339638,
        "lon": 72.8330447,
        "tags": {
          "amenity": "restaurant",
          "name:en": "Taste of Kerala"
        }
      },
      {
        "type": "node",
        "id": 7045277900,
        "lat": 18.9424725,
        "lon": 72.8239059,
        "tags": {
          "addr:district": "Mumbai",
          "addr:full": "Gobind Mahal ,1st Floor ,86-B , Subhash Road, Marine Drive",
          "addr:postcode": "400002",
          "addr:state": "Maharashtra",
          "amenity": "clinic",
          "healthcare": "clinic",
          "name": "Shroff Eye Clinic",
          "source": "OpenGovernmentData"
        }
      },
      {
        "type": "node",
        "id": 7047557038,
        "lat": 18.9358357,
        "lon": 72.8332373,
        "tags": {
          "addr:district": "Mumbai",
          "addr:full": "Navsari Bldg.240,Dr. D.N. Road",
          "addr:postcode": "400001",
          "addr:state": "Maharashtra",
          "amenity": "hospital",
          "healthcare": "hospital",
          "name": "Banaji Eyesurgery and Laser Center",
          "source": "OpenGovernmentData"
        }
      },
      {
        "type": "node",
        "id": 7072544657,
        "lat": 18.9353764,
        "lon": 72.8281197,
        "tags": {
          "addr:district": "Mumbai",
          "addr:full": "CGO Building, Maharshi Karve Road",
          "addr:postcode": "400020",
          "addr:state": "Maharashtra",
          "amenity": "clinic",
          "health_facility:type": "dispensary",
          "healthcare": "centre",
          "name": "CGHS Dispensary No.1, C.G.O.",
          "operator:type": "government",
          "source": "OpenGovernmentData",
          "website": "http://nb.bsf.gov.in/CGHS%20DIspenseries.pdf"
        }
      },
      {
        "type": "node",
        "id": 7072544668,
        "lat": 18.9415002,
        "lon": 72.8278414,
        "tags": {
          "addr:district": "Mumbai",
          "addr:full": "3-D, Kakad House, 11, 3rd Floor, Opposite Liberty Cinema, Vithaldas Thackersey Marg, New Marine Lines",
          "addr:postcode": "400020",
          "addr:state": "Maharashtra",
          "amenity": "hospital",
          "healthcare": "hospital",
          "name": "Zain Eye Care",
          "source": "OpenGovernmentData",
          "website": "http://zaineyecare.net/"
        }
      },
      {
        "type": "node",
        "id": 7207893891,
        "lat": 18.9456103,
        "lon": 72.8345389,
        "tags": {
          "addr:city": "Mumbai",
          "addr:full": "1st Floor, Greenstone Heritage, Commercial premises, C-Wing, Chhatrapati Shivaji Terminus Area, Mumbai 400001",
          "addr:postcode": "400001",
          "amenity": "hospital",
          "emergency": "no",
          "healthcare": "laboratory",
          "healthcare:speciality": "blood_check",
          "phone": "+91 22 2344 8024"
        }
      },
      {
        "type": "node",
        "id": 7213603557,
        "lat": 18.9434146,
        "lon": 72.8249106,
        "tags": {
          "amenity": "restaurant",
          "cuisine": "indian",
          "name": "Gughan Veg"
        }
      },
      {
        "type": "node",
        "id": 7226426885,
        "lat": 18.9326943,
        "lon": 72.8274808,
        "tags": {
          "amenity": "cafe",
          "name:en": "Markiv's"
        }
      },
      {
        "type": "node",
        "id": 7278871285,
        "lat": 18.9428088,
        "lon": 72.8270686,
        "tags": {
          "addr:housenumber": "88/94",
          "addr:street": "Anandilal Podar Marg",
          "amenity": "fast_food",
          "cuisine": "pizza;burger;pasta;kebab;sandwich",
          "name:en": "Savera Fast Food"
        }
      },
      {
        "type": "node",
        "id": 7279287885,
        "lat": 18.9490981,
        "lon": 72.8287567,
        "tags": {
          "addr:housenumber": "344/46",
          "addr:postcode": "40002",
          "addr:street": "Kalbadevi",
          "amenity": "restaurant",
          "cuisine": "regional;local",
          "name:en": "Krishna Murari (Veg. Treat)",
          "phone": "22095675"
        }
      },
      {
        "type": "node",
        "id": 7280038501,
        "lat": 18.9459022,
        "lon": 72.831356,
        "tags": {
          "addr:housenumber": "262",
          "addr:postcode": "400002",
          "addr:street": "Lokmanya Tilak Marg",
          "amenity": "fast_food",
          "cuisine": "pizza;sandwich",
          "diet:vegetarian": "yes",
          "name:en": "GREENVEG Fresh Treat !!!!",
          "phone": "+91 98702 87287"
        }
      },
      {
        "type": "node",
        "id": 7925356116,
        "lat": 18.9437972,
        "lon": 72.8318235,
        "tags": {
          "amenity": "bank",
          "brand": "Corporation Bank",
          "brand:wikidata": "Q2003387",
          "brand:wikipedia": "en:Corporation Bank",
          "name": "Corporation Bank",
          "not:brand:wikidata": "Q2004078"
        }
      },
      {
        "type": "node",
        "id": 7944300038,
        "lat": 18.9401785,
        "lon": 72.8283196,
        "tags": {
          "amenity": "cafe",
          "brand": "Cafe Coffee Day",
          "brand:wikidata": "Q5017235",
          "brand:wikipedia": "en:Caf\u00e9 Coffee Day",
          "cuisine": "coffee_shop",
          "name": "Cafe Coffee Day",
          "takeaway": "yes"
        }
      },
      {
        "type": "node",
        "id": 9574698658,
        "lat": 18.9427789,
        "lon": 72.8269322,
        "tags": {
          "amenity": "restaurant",
          "name": "Sassanian"
        }
      },
      {
        "type": "node",
        "id": 9574735835,
        "lat": 18.9375389,
        "lon": 72.8336457,
        "tags": {
          "amenity": "restaurant",
          "name": "Cafe Excelsior"
        }
      },
      {
        "type": "node",
        "id": 10220801717,
        "lat": 18.9329648,
        "lon": 72.8260903,
        "tags": {
          "addr:housenumber": "80",
          "addr:postcode": "400020",
          "addr:street": "Veer Nariman Road",
          "amenity": "restaurant",
          "name": "Gaylord",
          "name:en": "Gaylord"
        }
      },
      {
        "type": "node",
        "id": 10223815018,
        "lat": 18.9439618,
        "lon": 72.8254403,
        "tags": {
          "addr:housenumber": "318",
          "addr:postcode": "400002",
          "addr:street": "Dr Cawasji Hormusji Street",
          "amenity": "fast_food",
          "cuisine": "burger",
          "name:en": "Good Flipping\u2018 Burgers"
        }
      },
      {
        "type": "node",
        "id": 10695142870,
        "lat": 18.9334992,
        "lon": 72.8259734,
        "tags": {
          "amenity": "restaurant",
          "cuisine": "indian",
          "name": "Shiv Sagar"
        }
      },
      {
        "type": "node",
        "id": 11250525037,
        "lat": 18.9439688,
        "lon": 72.8284833,
        "tags": {
          "amenity": "cafe",
          "name:en": "U. K. Juice center"
        }
      },
      {
        "type": "node",
        "id": 11307722469,
        "lat": 18.9475064,
        "lon": 72.8305084,
        "tags": {
          "addr:city": "Mumbai",
          "addr:district": "Mumbai",
          "addr:housenumber": "Anand Bhavan, Lohar Chawl, Kalbadevi",
          "addr:postcode": "400002",
          "addr:street": "Shamaldas Gandhi Road",
          "amenity": "pharmacy",
          "healthcare": "pharmacy",
          "name:en": "Honeybell Pharma Pvt. Ltd"
        }
      },
      {
        "type": "node",
        "id": 11456147262,
        "lat": 18.9328119,
        "lon": 72.8268738,
        "tags": {
          "amenity": "restaurant",
          "name": "Nksha"
        }
      },
      {
        "type": "node",
        "id": 11456248703,
        "lat": 18.9321506,
        "lon": 72.8280275,
        "tags": {
          "amenity": "cafe",
          "name": "The Beer Cafe"
        }
      },
      {
        "type": "node",
        "id": 12551327203,
        "lat": 18.9339344,
        "lon": 72.8269804,
        "tags": {
          "addr:postcode": "400020",
          "addr:street": "Scarsdale Street",
          "amenity": "fast_food",
          "brand": "Burger King",
          "brand:wikidata": "Q177054",
          "cuisine": "burger",
          "drive_through": "no",
          "name": "Burger King",
          "takeaway": "yes"
        }
      }
    ]
  },
  "pois_2_5km": {
    "version": 0.6,
    "generator": "Overpass API 0.7.62.8 e802775f",
    "osm3s": {
      "timestamp_osm_base": "2025-09-06T07:53:46Z",
      "copyright": "The data included in this document is from www.openstreetmap.org. The data is made available under ODbL."
    },
    "elements": [
      {
        "type": "node",
        "id": 316306549,
        "lat": 18.9406037,
        "lon": 72.8350795,
        "tags": {
          "level": "0",
          "name": "Mumbai CSMT (Suburban)",
          "official_name": "Mumbai Chhatrapati Shivaji Maharaj Terminus (Suburban)",
          "public_transport": "stop_position",
          "railway": "stop",
          "ref": "1",
          "source": "Esri World imagery (2024-09-14)",
          "tactile_paving": "yes",
          "train": "yes"
        }
      },
      {
        "type": "node",
        "id": 527987828,
        "lat": 18.9520361,
        "lon": 72.8179252,
        "tags": {
          "name": "Charni Road",
          "name:hi": "\u091a\u0930\u094d\u0928\u0940 \u0930\u094b\u0921",
          "network": "WR",
          "operator": "IR",
          "public_transport": "stop_position",
          "railway": "stop",
          "train": "yes"
        }
      },
      {
        "type": "node",
        "id": 528079150,
        "lat": 18.9527932,
        "lon": 72.8168508,
        "tags": {
          "name": "Charni Road",
          "name:hi": "\u091a\u0930\u094d\u0928\u0940 \u0930\u094b\u0921",
          "network": "WR",
          "operator": "IR",
          "public_transport": "stop_position",
          "railway": "stop",
          "train": "yes"
        }
      },
      {
        "type": "node",
        "id": 528082473,
        "lat": 18.9521256,
        "lon": 72.818007,
        "tags": {
          "name": "Charni Road",
          "name:hi": "\u091a\u0930\u094d\u0928\u0940 \u0930\u094b\u0921",
          "network": "WR",
          "operator": "IR",
          "public_transport": "stop_position",
          "railway": "stop",
          "train": "yes"
        }
      },
      {
        "type": "node",
        "id": 528082558,
        "lat": 18.9520922,
        "lon": 72.8179808,
        "tags": {
          "name": "Charni Road",
          "name:hi": "\u091a\u0930\u094d\u0928\u0940 \u0930\u094b\u0921",
          "network": "WR",
          "operator": "IR",
          "public_transport": "stop_position",
          "railway": "stop",
          "train": "yes"
        }
      },
      {
        "type": "node",
        "id": 528115484,
        "lat": 18.9465849,
        "lon": 72.8230857,
        "tags": {
          "local_ref": "2",
          "name": "Marine Lines",
          "name:hi": "\u092e\u0930\u0940\u0928 \u0932\u093e\u0907\u0928\u094d\u0938",
          "network": "WR",
          "operator": "IR",
          "public_transport": "stop_position",
          "railway": "stop",
          "train": "yes"
        }
      },
      {
        "type": "node",
        "id": 528115491,
        "lat": 18.9465688,
        "lon": 72.8230534,
        "tags": {
          "local_ref": "1",
          "name": "Marine Lines",
          "name:hi": "\u092e\u0930\u0940\u0928 \u0932\u093e\u0907\u0928\u094d\u0938",
          "network": "WR",
          "operator": "IR",
          "public_transport": "stop_position",
          "railway": "stop",
          "train": "yes"
        }
      },
      {
        "type": "node",
        "id": 619293646,
        "lat": 18.9406335,
        "lon": 72.8353869,
        "tags": {
          "level": "0",
          "name": "Mumbai CSMT (Suburban)",
          "official_name": "Mumbai Chhatrapati Shivaji Maharaj Terminus (Suburban)",
          "public_transport": "stop_position",
          "railway": "stop",
          "ref": "4",
          "source": "Esri World imagery (2024-09-14)",
          "tactile_paving": "yes",
          "train": "yes"
        }
      },
      {
        "type": "node",
        "id": 619293660,
        "lat": 18.9527822,
        "lon": 72.8381832,
        "tags": {
          "name": "Masjid",
          "public_transport": "stop_position",
          "railway": "stop",
          "ref": "3",
          "train": "yes"
        }
      },
      {
        "type": "node",
        "id": 619377230,
        "lat": 18.9612251,
        "lon": 72.8234361,
        "tags": {
          "amenity": "cinema",
          "name": "New Roshan Talkies"
        }
      },
      {
        "type": "node",
        "id": 619377234,
        "lat": 18.9615152,
        "lon": 72.8231708,
        "tags": {
          "amenity": "cinema",
          "name": "Alfred Talkies"
        }
      },
      {
        "type": "node",
        "id": 619377620,
        "lat": 18.9618801,
        "lon": 72.821185,
        "tags": {
          "amenity": "cinema",
          "name": "Super Plaza Cinema"
        }
      },
      {
        "type": "node",
        "id": 621906366,
        "lat": 18.9527837,
        "lon": 72.8380527,
        "tags": {
          "name": "Masjid",
          "public_transport": "stop_position",
          "railway": "stop",
          "ref": "1",
          "train": "yes"
        }
      },
      {
        "type": "node",
        "id": 621948374,
        "lat": 18.9343947,
        "lon": 72.8272055,
        "tags": {
          "local_ref": "1",
          "name": "Churchgate",
          "name:hi": "\u091a\u0930\u094d\u091a\u0917\u0947\u091f",
          "public_transport": "stop_position",
          "railway": "stop",
          "ref": "CCG",
          "train": "yes"
        }
      },
      {
        "type": "node",
        "id": 666064621,
        "lat": 18.9367891,
        "lon": 72.8396991,
        "tags": {
          "amenity": "fuel",
          "brand": "Bharat Petroleum",
          "brand:wikidata": "Q854826",
          "name": "Bharat Petroleum",
          "operator": "Bharat Petroleum",
          "source": "GPS"
        }
      },
      {
        "type": "node",
        "id": 669259757,
        "lat": 18.9245934,
        "lon": 72.8325192,
        "tags": {
          "amenity": "cinema",
          "name": "Regal Cinema"
        }
      },
      {
        "type": "node",
        "id": 870449150,
        "lat": 18.9229191,
        "lon": 72.8345228,
        "tags": {
          "amenity": "ferry_terminal",
          "ferry": "yes",
          "name": "Gateway of India - Mandwa Rewas Ferry Terminal",
          "public_transport": "station"
        }
      },
      {
        "type": "node",
        "id": 870449764,
        "lat": 18.9217835,
        "lon": 72.8347226,
        "tags": {
          "amenity": "ferry_terminal",
          "ferry": "yes",
          "name": "Gateway of India - Elephanta Island ferry service",
          "name:ar": "\u0628\u0648\u0627\u0628\u0629 \u0627\u0644\u0647\u0646\u062f",
          "name:zh": "\u5370\u5ea6\u95e8 - \u8c61\u5c9b\u6e21\u8f6e\u7ad9",
          "public_transport": "station"
        }
      },
      {
        "type": "node",
        "id": 1234805938,
        "lat": 18.9408204,
        "lon": 72.836017,
        "tags": {
          "level": "0",
          "name": "Mumbai CSMT (Suburban)",
          "official_name": "Mumbai Chhatrapati Shivaji Maharaj Terminus (Suburban)",
          "public_transport": "stop_position",
          "railway": "stop",
          "ref": "9",
          "source": "Esri World imagery (2024-09-14)",
          "tactile_paving": "yes",
          "train": "yes"
        }
      },
      {
        "type": "node",
        "id": 1234805948,
        "lat": 18.94081,
        "lon": 72.8359068,
        "tags": {
          "level": "0",
          "name": "Mumbai CSMT (Suburban)",
          "official_name": "Mumbai Chhatrapati Shivaji Maharaj Terminus (Suburban)",
          "public_transport": "stop_position",
          "railway": "stop",
          "ref": "8",
          "source": "Esri World imagery (2024-09-14)",
          "tactile_paving": "yes",
          "train": "yes"
        }
      },
      {
        "type": "node",
        "id": 1234815591,
        "lat": 18.9408811,
        "lon": 72.8362973,
        "tags": {
          "name": "CSMT",
          "public_transport": "stop_position",
          "railway": "stop",
          "ref": "CSTM:11",
          "train": "yes"
        }
      },
      {
        "type": "node",
        "id": 1234815595,
        "lat": 18.9417555,
        "lon": 72.8367595,
        "tags": {
          "name": "CSMT",
          "public_transport": "stop_position",
          "railway": "stop",
          "ref": "CSTM:15",
          "train": "yes"
        }
      },
      {
        "type": "node",
        "id": 1234815598,
        "lat": 18.9408763,
        "lon": 72.8361599,
        "tags": {
          "name": "CSMT",
          "public_transport": "stop_position",
          "railway": "stop",
          "ref": "CSTM:10",
          "train": "yes"
        }
      },
      {
        "type": "node",
        "id": 1234815616,
        "lat": 18.9452282,
        "lon": 72.8376755,
        "tags": {
          "name": "CSMT",
          "public_transport": "stop_position",
          "railway": "stop",
          "ref": "16",
          "train": "yes"
        }
      },
      {
        "type": "node",
        "id": 1234823928,
        "lat": 18.9406221,
        "lon": 72.8352693,
        "tags": {
          "level": "0",
          "name": "Mumbai CSMT (Suburban)",
          "official_name": "Mumbai Chhatrapati Shivaji Maharaj Terminus (Suburban)",
          "public_transport": "stop_position",
          "railway": "stop",
          "ref": "3",
          "source": "Esri World imagery (2024-09-14)",
          "tactile_paving": "yes",
          "train": "yes"
        }
      },
      {
        "type": "node",
        "id": 1236334975,
        "lat": 18.9344455,
        "lon": 72.8275534,
        "tags": {
          "local_ref": "4",
          "name": "Churchgate",
          "name:hi": "\u091a\u0930\u094d\u091a\u0917\u0947\u091f",
          "public_transport": "stop_position",
          "railway": "stop",
          "ref": "CCG",
          "train": "yes"
        }
      },
      {
        "type": "node",
        "id": 1236335031,
        "lat": 18.9344286,
        "lon": 72.8274374,
        "tags": {
          "local_ref": "3",
          "name": "Churchgate",
          "name:hi": "\u091a\u0930\u094d\u091a\u0917\u0947\u091f",
          "public_transport": "stop_position",
          "railway": "stop",
          "ref": "CCG",
          "train": "yes"
        }
      },
      {
        "type": "node",
        "id": 1236335056,
        "lat": 18.9344117,
        "lon": 72.8273215,
        "tags": {
          "local_ref": "2",
          "name": "Churchgate",
          "name:hi": "\u091a\u0930\u094d\u091a\u0917\u0947\u091f",
          "public_transport": "stop_position",
          "railway": "stop",
          "ref": "CCG",
          "train": "yes"
        }
      },
      {
        "type": "node",
        "id": 1236410131,
        "lat": 18.9466312,
        "lon": 72.8231784,
        "tags": {
          "local_ref": "3",
          "name": "Marine Lines",
          "name:hi": "\u092e\u0930\u0940\u0928 \u0932\u093e\u0907\u0928\u094d\u0938",
          "network": "WR",
          "operator": "IR",
          "public_transport": "stop_position",
          "railway": "stop",
          "train": "yes"
        }
      },
      {
        "type": "node",
        "id": 1236410240,
        "lat": 18.9466502,
        "lon": 72.8232164,
        "tags": {
          "local_ref": "4",
          "name": "Marine Lines",
          "name:hi": "\u092e\u0930\u0940\u0928 \u0932\u093e\u0907\u0928\u094d\u0938",
          "network": "WR",
          "operator": "IR",
          "public_transport": "stop_position",
          "railway": "stop",
          "train": "yes"
        }
      },
      {
        "type": "node",
        "id": 1236589832,
        "lat": 18.935965,
        "lon": 72.8406767,
        "tags": {
          "amenity": "fuel",
          "cmt": "14-FEB-10 15:55:59",
          "description": "14-FEB-10 15:55:59",
          "ele": "18.150513",
          "name": "Fuel",
          "source": "GPS",
          "sym": "Gas Station"
        }
      },
      {
        "type": "node",
        "id": 1332570741,
        "lat": 18.9322385,
        "lon": 72.8279388,
        "tags": {
          "amenity": "cinema",
          "name": "Eros Cinema"
        }
      },
      {
        "type": "node",
        "id": 1541857832,
        "lat": 18.9267067,
        "lon": 72.8273901,
        "tags": {
          "amenity": "fuel",
          "brand": "Hindustan Petroleum",
          "brand:wikidata": "Q1619375",
          "name": "HP",
          "official_name": "Hindustan Petroleum",
          "operator": "Bharat Petroleum"
        }
      },
      {
        "type": "node",
        "id": 2166796345,
        "lat": 18.9376728,
        "lon": 72.8332185,
        "tags": {
          "addr:postcode": "400001",
          "addr:street": "Amit Keshav Nayak Marg",
          "amenity": "cinema",
          "name": "New Excelsior Cinema",
          "name:de": "New Excelsior Cinema",
          "name:en": "New Excelsior Cinema",
          "phone": "022 2207 3830"
        }
      },
      {
        "type": "node",
        "id": 2166817451,
        "lat": 18.9406445,
        "lon": 72.8355003,
        "tags": {
          "level": "0",
          "name": "Mumbai CSMT (Suburban)",
          "official_name": "Mumbai Chhatrapati Shivaji Maharaj Terminus (Suburban)",
          "public_transport": "stop_position",
          "railway": "stop",
          "ref": "5",
          "source": "Esri World imagery (2024-09-14)",
          "tactile_paving": "yes",
          "train": "yes"
        }
      },
      {
        "type": "node",
        "id": 2166817452,
        "lat": 18.9406128,
        "lon": 72.8351737,
        "tags": {
          "level": "0",
          "name": "Mumbai CSMT (Suburban)",
          "official_name": "Mumbai Chhatrapati Shivaji Maharaj Terminus (Suburban)",
          "public_transport": "stop_position",
          "railway": "stop",
          "ref": "2",
          "source": "Esri World imagery (2024-09-14)",
          "tactile_paving": "yes",
          "train": "yes"
        }
      },
      {
        "type": "node",
        "id": 2166817453,
        "lat": 18.9406523,
        "lon": 72.8355803,
        "tags": {
          "level": "0",
          "name": "Mumbai CSMT (Suburban)",
          "official_name": "Mumbai Chhatrapati Shivaji Maharaj Terminus (Suburban)",
          "public_transport": "stop_position",
          "railway": "stop",
          "ref": "6",
          "source": "Esri World imagery (2024-09-14)",
          "tactile_paving": "yes",
          "train": "yes"
        }
      },
      {
        "type": "node",
        "id": 2166865878,
        "lat": 18.9341053,
        "lon": 72.8324982,
        "tags": {
          "name": "Hutatma Chowk/Siddharth College",
          "public_transport": "station",
          "ref": "01091"
        }
      },
      {
        "type": "node",
        "id": 2166865879,
        "lat": 18.9342003,
        "lon": 72.8325717,
        "tags": {
          "name": "Hutatma Chowk/Siddharth College",
          "public_transport": "station",
          "ref": "01090"
        }
      },
      {
        "type": "node",
        "id": 2175658375,
        "lat": 18.9408662,
        "lon": 72.8364907,
        "tags": {
          "name": "CSMT",
          "public_transport": "stop_position",
          "railway": "stop",
          "ref": "CSTM:13",
          "train": "yes"
        }
      },
      {
        "type": "node",
        "id": 2175658376,
        "lat": 18.9408787,
        "lon": 72.8363407,
        "tags": {
          "name": "CSMT",
          "public_transport": "stop_position",
          "railway": "stop",
          "ref": "CSTM:12",
          "train": "yes"
        }
      },
      {
        "type": "node",
        "id": 2175658385,
        "lat": 18.9417671,
        "lon": 72.8366107,
        "tags": {
          "name": "CSMT",
          "public_transport": "stop_position",
          "railway": "stop",
          "ref": "CSTM:14",
          "train": "yes"
        }
      },
      {
        "type": "node",
        "id": 2175658439,
        "lat": 18.9451809,
        "lon": 72.837865,
        "tags": {
          "name": "CSMT",
          "public_transport": "stop_position",
          "railway": "stop",
          "ref": "18",
          "train": "yes"
        }
      },
      {
        "type": "node",
        "id": 2175658440,
        "lat": 18.9451945,
        "lon": 72.8378123,
        "tags": {
          "name": "CSMT",
          "public_transport": "stop_position",
          "railway": "stop",
          "ref": "17",
          "train": "yes"
        }
      },
      {
        "type": "node",
        "id": 2175658444,
        "lat": 18.9452855,
        "lon": 72.8374542,
        "tags": {
          "name": "CSMT",
          "public_transport": "stop_position",
          "railway": "stop",
          "ref": "15",
          "train": "yes"
        }
      },
      {
        "type": "node",
        "id": 2175658446,
        "lat": 18.9453265,
        "lon": 72.837319,
        "tags": {
          "name": "CSMT",
          "public_transport": "stop_position",
          "railway": "stop",
          "ref": "14",
          "train": "yes"
        }
      },
      {
        "type": "node",
        "id": 2176850501,
        "lat": 18.9527822,
        "lon": 72.8381561,
        "tags": {
          "name": "Masjid",
          "public_transport": "stop_position",
          "railway": "stop",
          "ref": "2",
          "train": "yes"
        }
      },
      {
        "type": "node",
        "id": 2177554643,
        "lat": 18.9376489,
        "lon": 72.8343146,
        "tags": {
          "name": "Khadi Bhandar",
          "public_transport": "station",
          "ref": "01114"
        }
      },
      {
        "type": "node",
        "id": 2629682524,
        "lat": 18.9331079,
        "lon": 72.8285954,
        "tags": {
          "amenity": "bus_station",
          "bus": "yes",
          "name": "Churchgate",
          "public_transport": "station"
        }
      },
      {
        "type": "node",
        "id": 2630075002,
        "lat": 18.9518437,
        "lon": 72.8182401,
        "tags": {
          "IR:zone": "WR:CCG",
          "ele": "9",
          "internet_access": "no",
          "name": "Charni Road",
          "name:hi": "\u091a\u0930\u094d\u0928\u0940 \u0930\u094b\u0921",
          "name:ml": "\u0d1a\u0d7c\u0d23\u0d3f \u0d31\u0d4b\u0d21\u0d4d",
          "name:mr": "\u091a\u0930\u094d\u0928\u0940 \u0930\u094b\u0921",
          "network": "Mumbai Suburban Railway",
          "network:wikidata": "Q3273422",
          "operator": "WR",
          "public_transport": "station",
          "railway": "station",
          "ref": "CYR",
          "start_date": "1867",
          "train": "yes",
          "wikidata": "Q5121186",
          "wikipedia": "en:Charni Road railway station"
        }
      },
      {
        "type": "node",
        "id": 2630075006,
        "lat": 18.945764,
        "lon": 72.8237193,
        "tags": {
          "IR:zone": "WR:CCG",
          "ele": "7",
          "internet_access": "no",
          "name": "Marine Lines",
          "name:hi": "\u092e\u0930\u0940\u0928 \u0932\u093e\u0907\u0928\u094d\u0938",
          "name:ml": "\u0d2e\u0d31\u0d48\u0d7b \u0d32\u0d48\u0d7b\u0d38\u0d4d",
          "name:mr": "\u092e\u0930\u0940\u0928 \u0932\u093e\u0907\u0928\u094d\u0938",
          "network": "Mumbai Suburban Railway",
          "network:wikidata": "Q3273422",
          "operator": "WR",
          "public_transport": "station",
          "railway": "station",
          "ref": "MEL",
          "start_date": "1867",
          "train": "yes",
          "wikidata": "Q6764160",
          "wikipedia": "en:Marine Lines railway station"
        }
      },
      {
        "type": "node",
        "id": 3306535083,
        "lat": 18.9243367,
        "lon": 72.8328758,
        "tags": {
          "amenity": "fuel",
          "brand": "Bharat Petroleum",
          "brand:wikidata": "Q854826",
          "compressed_air": "yes",
          "name": "Bharat Petroleum"
        }
      },
      {
        "type": "node",
        "id": 3306535086,
        "lat": 18.9543825,
        "lon": 72.8149815,
        "tags": {
          "bus": "yes",
          "public_transport": "stop_position"
        }
      },
      {
        "type": "node",
        "id": 3501418269,
        "lat": 18.9527773,
        "lon": 72.8382858,
        "tags": {
          "name": "Masjid",
          "public_transport": "stop_position",
          "railway": "stop",
          "ref": "4",
          "train": "yes"
        }
      },
      {
        "type": "node",
        "id": 4260136290,
        "lat": 18.9354797,
        "lon": 72.8271741,
        "tags": {
          "IR:zone": "WR:CCG",
          "internet_access": "wlan",
          "name": "Churchgate",
          "name:hi": "\u091a\u0930\u094d\u091a\u0917\u0947\u091f",
          "name:ml": "\u0d1a\u0d7c\u0d1a\u0d4d\u0d1a\u0d4d\u0d17\u0d47\u0d31\u0d4d\u0d31\u0d4d",
          "name:mr": "\u091a\u0930\u094d\u091a\u0917\u0947\u091f",
          "name:zh": "\u6559\u5802\u95e8\u603b\u7ad9",
          "network": "Mumbai Suburban Railway",
          "network:wikidata": "Q3273422",
          "old_ref": "C",
          "operator": "WR",
          "public_transport": "station",
          "railway": "station",
          "ref": "CCG",
          "start_date": "1867-04-12",
          "train": "yes",
          "wikidata": "Q5118143",
          "wikipedia": "en:Churchgate railway station"
        }
      },
      {
        "type": "node",
        "id": 4362556096,
        "lat": 18.9253281,
        "lon": 72.8204171,
        "tags": {
          "amenity": "theatre",
          "name": "Little Theatre"
        }
      },
      {
        "type": "node",
        "id": 4695310999,
        "lat": 18.9384231,
        "lon": 72.8329457,
        "tags": {
          "amenity": "cinema",
          "name:de": "Sterling",
          "name:en": "Sterling Theatre",
          "wikidata": "Q7611381",
          "wikipedia": "en:Sterling Cineplex"
        }
      },
      {
        "type": "node",
        "id": 4844675131,
        "lat": 18.9558692,
        "lon": 72.8325809,
        "tags": {
          "amenity": "fuel",
          "brand": "Indian Oil",
          "brand:wikidata": "Q1289348",
          "name": "Indian Oil",
          "name:en": "Indian oil"
        }
      },
      {
        "type": "node",
        "id": 4844717526,
        "lat": 18.95806,
        "lon": 72.8252896,
        "tags": {
          "amenity": "fuel",
          "name:en": "Bharat"
        }
      },
      {
        "type": "node",
        "id": 4844717822,
        "lat": 18.9580205,
        "lon": 72.8254129,
        "tags": {
          "amenity": "cinema",
          "name:en": "Alankar"
        }
      },
      {
        "type": "node",
        "id": 5085177522,
        "lat": 18.9560477,
        "lon": 72.8155711,
        "tags": {
          "addr:street": "Mama Paramanand Marg",
          "amenity": "theatre",
          "name:en": "Royal Opera House",
          "phone": "+912223690511",
          "wikidata": "Q3210038",
          "wikimedia_commons": "Category:Royal Opera House (Mumbai)",
          "wikipedia": "en:Royal Opera House (Mumbai)"
        }
      },
      {
        "type": "node",
        "id": 5091222622,
        "lat": 18.953846,
        "lon": 72.8163006,
        "tags": {
          "amenity": "fuel",
          "brand": "Bharat Petroleum",
          "brand:wikidata": "Q854826",
          "name": "Bharat Petroleum"
        }
      },
      {
        "type": "node",
        "id": 5174623523,
        "lat": 18.9536132,
        "lon": 72.8370396,
        "tags": {
          "amenity": "bus_station",
          "bus": "yes",
          "public_transport": "station"
        }
      },
      {
        "type": "node",
        "id": 5174656421,
        "lat": 18.9536931,
        "lon": 72.8370631,
        "tags": {
          "amenity": "bus_station",
          "bus": "yes",
          "public_transport": "station"
        }
      },
      {
        "type": "node",
        "id": 10257874073,
        "lat": 18.9209635,
        "lon": 72.8305483,
        "tags": {
          "amenity": "bus_station",
          "bus": "yes",
          "name": "Colaba Bus Depot",
          "public_transport": "station"
        }
      },
      {
        "type": "node",
        "id": 11456230010,
        "lat": 18.9378435,
        "lon": 72.8274982,
        "tags": {
          "amenity": "fuel",
          "brand": "Bharat Petroleum",
          "brand:wikidata": "Q854826",
          "name": "Bharat Petroleum"
        }
      },
      {
        "type": "node",
        "id": 12171122260,
        "lat": 18.9522949,
        "lon": 72.8381771,
        "tags": {
          "internet_access": "no",
          "name": "Masjid",
          "name:hi": "\u092e\u0938\u094d\u091c\u093f\u0926",
          "name:ml": "\u0d2e\u0d38\u0d4d\u0d1c\u0d3f\u0d26\u0d4d",
          "name:mr": "\u092e\u0938\u094d\u091c\u093f\u0926",
          "name:ur": "\u0645\u0633\u062c\u062f",
          "network": "IR",
          "operator": "CR",
          "public_transport": "station",
          "railway": "station",
          "ref": "MSD",
          "train": "yes",
          "wikidata": "Q12445809",
          "wikipedia": "en:Masjid railway station"
        }
      },
      {
        "type": "node",
        "id": 12176277888,
        "lat": 18.9404925,
        "lon": 72.8357856,
        "tags": {
          "addr:city": "Mumbai",
          "addr:postcode": "400001",
          "addr:street": "Dr Dadabhai Naoroji Road",
          "internet_access": "wlan",
          "internet_access:ssid": "RailWire Wi-Fi",
          "name": "Mumbai CSMT",
          "name:hi": "\u092e\u0941\u0902\u092c\u0908 \u0938\u0940\u090f\u0938\u090f\u092e\u091f\u0940",
          "name:ur": "\u0645\u0645\u0628\u0626\u06cc \u0633\u06cc \u0627\u06cc\u0633 \u0627\u06cc\u0645 \u0679\u06cc \u0679\u0631\u0645\u06cc\u0646\u0644",
          "network": "CR",
          "operator": "Central Railway",
          "public_transport": "station",
          "railway": "station",
          "ref": "CSMT",
          "train": "yes",
          "wheelchair": "yes",
          "wikidata": "Q235884",
          "wikipedia": "en:Chhatrapati Shivaji Terminus railway station"
        }
      },
      {
        "type": "node",
        "id": 12176277892,
        "lat": 18.9408905,
        "lon": 72.8357077,
        "tags": {
          "level": "0",
          "name": "Mumbai CSMT (Suburban)",
          "official_name": "Mumbai Chhatrapati Shivaji Maharaj Terminus (Suburban)",
          "public_transport": "stop_position",
          "railway": "stop",
          "ref": "7",
          "source": "Esri World imagery (2024-09-14)",
          "tactile_paving": "yes",
          "train": "yes"
        }
      },
      {
        "type": "node",
        "id": 12298890606,
        "lat": 18.9526009,
        "lon": 72.8416795,
        "tags": {
          "amenity": "fuel",
          "brand": "Hindustan Petroleum",
          "brand:wikidata": "Q1619375",
          "name": "HP",
          "official_name": "Hindustan Petroleum"
        }
      },
      {
        "type": "node",
        "id": 12298890614,
        "lat": 18.9529035,
        "lon": 72.8417477,
        "tags": {
          "amenity": "fuel",
          "brand": "Bharat Petroleum",
          "brand:wikidata": "Q854826",
          "name": "Bharat Petroleum"
        }
      },
      {
        "type": "node",
        "id": 12299107686,
        "lat": 18.926054,
        "lon": 72.8331427,
        "tags": {
          "amenity": "theatre",
          "name": "Childrens Museum Amphitheathre"
        }
      },
      {
        "type": "node",
        "id": 13039612521,
        "lat": 18.944006,
        "lon": 72.8232477,
        "tags": {
          "amenity": "fuel",
          "name": "IndianOil",
          "name:en": "IndianOil",
          "name:mr": "\u092a\u0947\u091f\u094d\u0930\u094b\u0932 \u092a\u0902\u092a"
        }
      },
      {
        "type": "node",
        "id": 13112030001,
        "lat": 18.9552767,
        "lon": 72.816446,
        "tags": {
          "addr:housenumber": "5th",
          "addr:postcode": "400004",
          "addr:street": "Tata Road 2",
          "amenity": "theatre",
          "level": "0",
          "name": "Roxy Cinemas",
          "phone": "093241 28520",
          "website": "http://www.muktaa2cinemas.com"
        }
      }
    ]
  }
}