{
  "pois_1km": {
    "version": 0.6,
    "generator": "Overpass API 0.7.62.8 e802775f",
    "osm3s": {
      "timestamp_osm_base": "2025-09-06T07:54:46Z",
      "copyright": "The data included in this document is from www.openstreetmap.org. The data is made available under ODbL."
    },
    "elements": [
      {
        "type": "node",
        "id": 4426326390,
        "lat": 18.9801621,
        "lon": 72.8408053,
        "tags": {
          "amenity": "restaurant",
          "name:en": "Bharat Bhuvan"
        }
      },
      {
        "type": "node",
        "id": 4839324927,
        "lat": 18.9813317,
        "lon": 72.8271069,
        "tags": {
          "addr:housenumber": "25 zaveri bldg",
          "addr:street": "jacob circle",
          "amenity": "fast_food",
          "cuisine": "chinese;chicken;indian;barbecue;local",
          "name:en": "Cafe national",
          "phone": "9892703835"
        }
      },
      {
        "type": "node",
        "id": 4839325526,
        "lat": 18.9814212,
        "lon": 72.8269703,
        "tags": {
          "amenity": "fast_food",
          "name:en": "Pizza sandwich"
        }
      },
      {
        "type": "node",
        "id": 7047598027,
        "lat": 18.9868937,
        "lon": 72.8306866,
        "tags": {
          "addr:district": "Mumbai",
          "addr:full": "Subh Ashish, Subhash Nagar, Estate N M Joshi Marg",
          "addr:postcode": "400011",
          "addr:state": "Maharashtra",
          "amenity": "hospital",
          "name": "Nirmala Maternity and Surgical Hospital with Polyclinic",
          "source": "OpenGovernmentData"
        }
      },
      {
        "type": "node",
        "id": 7049356179,
        "lat": 18.9762105,
        "lon": 72.8357385,
        "tags": {
          "addr:district": "Mumbai",
          "addr:full": "Khan Mansion, Flat NO.1, Victoria Road, Byculla",
          "addr:postcode": "400027",
          "addr:state": "Maharashtra",
          "amenity": "clinic",
          "health_facility:type": "dispensary",
          "healthcare": "centre",
          "name": "CGHS Dispensary No.11, Byculla",
          "operator:type": "government",
          "source": "OpenGovernmentData",
          "website": "http://nb.bsf.gov.in/CGHS%20DIspenseries.pdf"
        }
      },
      {
        "type": "node",
        "id": 7050575276,
        "lat": 18.9707774,
        "lon": 72.8366089,
        "tags": {
          "addr:district": "Mumbai",
          "addr:full": "Aga Hall, Nesbit Road, Mazgaon",
          "addr:postcode": "400010",
          "addr:state": "Maharashtra",
          "amenity": "hospital",
          "emergency": "yes",
          "healthcare": "hospital",
          "healthcare:speciality": "general;gynaecology",
          "name": "Prince Aly Khan Hospital",
          "name:mr": "\u092a\u094d\u0930\u093f\u0902\u0938 \u0905\u0932\u0940 \u0916\u093e\u0928 \u0939\u0949\u0938\u094d\u092a\u093f\u091f\u0932",
          "source": "OpenGovernmentData"
        }
      },
      {
        "type": "node",
        "id": 7073895608,
        "lat": 18.9869495,
        "lon": 72.8354555,
        "tags": {
          "addr:district": "Mumbai",
          "addr:full": "Jain Sthanak Chawl, Dr Baba Saheb Ambedkar Rd, Chinchpokali (East)",
          "addr:postcode": "400012",
          "addr:state": "Maharashtra",
          "amenity": "clinic",
          "name": "N S Optical Contact Lens Clinic Ghatkopar",
          "source": "OpenGovernmentData"
        }
      },
      {
        "type": "node",
        "id": 7225067144,
        "lat": 18.98419,
        "lon": 72.830035,
        "tags": {
          "addr:district": "Mumbai",
          "addr:full": "Near Nirmal Park Railway Quarters, Chinchpokli",
          "addr:postcode": "400011",
          "addr:state": "Maharashtra",
          "amenity": "hospital",
          "description": "Civil Hospital/General Hospital",
          "name": "Kasturba Hospital",
          "source": "OpenGovernmentData"
        }
      },
      {
        "type": "node",
        "id": 7433749757,
        "lat": 18.9724219,
        "lon": 72.8357505,
        "tags": {
          "addr:postcode": "400010",
          "amenity": "hospital",
          "healthcare": "hospital",
          "healthcare:speciality": "gynaecology",
          "name": "Rajshree Maternity",
          "name:mr": "\u0930\u093e\u091c\u0936\u094d\u0930\u0940 \u092e\u0948\u091f\u0930\u0928\u093f\u091f\u0940"
        }
      },
      {
        "type": "node",
        "id": 7433829905,
        "lat": 18.9749545,
        "lon": 72.8357371,
        "tags": {
          "amenity": "hospital",
          "healthcare": "hospital",
          "healthcare:speciality": "oncology",
          "name": "Masina Cancer Center"
        }
      },
      {
        "type": "node",
        "id": 7869383739,
        "lat": 18.9865353,
        "lon": 72.834865,
        "tags": {
          "addr:city": "Mumbai",
          "addr:housenumber": "1, Parsi building, ground floor, Bawlawadi,opp. voltas house",
          "addr:postcode": "400012",
          "addr:street": "Dr Babasaheb Ambedkar Marg",
          "amenity": "clinic",
          "healthcare": "clinic",
          "healthcare:speciality": "general;gynaecology;ophthalmology;paediatrics;dentist;physiotherapy;community;clinic;dermatology;cardiology;optometry;surgery;urology;acupuncture",
          "name": "Om Shanti Churchgate J.D.F Mumbai Medical Centre Trust",
          "opening_hours": "Mo-Sa 08:00-19:00",
          "phone": "+912223778175 +912223635780"
        }
      },
      {
        "type": "node",
        "id": 8797105668,
        "lat": 18.9764756,
        "lon": 72.8416085,
        "tags": {
          "addr:district": "Mumbai",
          "addr:full": "Sant Savata Mali Marg, Naralwadi, Sewri, Mumbai",
          "addr:postcode": "400027",
          "addr:state": "Maharashtra",
          "amenity": "hospital",
          "source": "Local Knowledge"
        }
      },
      {
        "type": "node",
        "id": 10616180012,
        "lat": 18.9783359,
        "lon": 72.8271144,
        "tags": {
          "amenity": "hospital",
          "healthcare": "hospital"
        }
      },
      {
        "type": "node",
        "id": 11409102369,
        "lat": 18.9806543,
        "lon": 72.8265395,
        "tags": {
          "amenity": "fast_food",
          "brand": "McDonald's",
          "brand:wikidata": "Q38076",
          "cuisine": "burger",
          "name": "McDonald's",
          "name:en": "McDonald's",
          "takeaway": "yes"
        }
      },
      {
        "type": "node",
        "id": 11581535149,
        "lat": 18.9788845,
        "lon": 72.8337008,
        "tags": {
          "amenity": "restaurant",
          "name": "Maharaja Cafe"
        }
      },
      {
        "type": "node",
        "id": 11610878101,
        "lat": 18.9770886,
        "lon": 72.8308704,
        "tags": {
          "addr:housenumber": "near mithibai",
          "amenity": "cafe",
          "cuisine": "coffee_shop",
          "internet_access": "no",
          "name": "Blue bead cafe",
          "opening_hours": "Mo-Su 10:00-22:00",
          "outdoor_seating": "yes"
        }
      },
      {
        "type": "node",
        "id": 12129177281,
        "lat": 18.9757797,
        "lon": 72.8271356,
        "tags": {
          "leisure": "park"
        }
      }
    ]
  },
  "pois_2_5km": {
    "version": 0.6,
    "generator": "Overpass API 0.7.62.8 e802775f",
    "osm3s": {
      "timestamp_osm_base": "2025-09-06T07:54:46Z",
      "copyright": "The data included in this document is from www.openstreetmap.org. The data is made available under ODbL."
    },
    "elements": [
      {
        "type": "node",
        "id": 245657999,
        "lat": 18.9784419,
        "lon": 72.8140041,
        "tags": {
          "bus": "yes",
          "public_transport": "stop_position",
          "source": "AND"
        }
      },
      {
        "type": "node",
        "id": 245658476,
        "lat": 18.9859,
        "lon": 72.8427,
        "tags": {
          "amenity": "fuel"
        }
      },
      {
        "type": "node",
        "id": 528216004,
        "lat": 18.9707096,
        "lon": 72.8188347,
        "tags": {
          "IR:zone": "WR:CCG",
          "local_ref": "2",
          "name": "Mumbai Central (local)",
          "name:hi": "\u092e\u0941\u092e\u094d\u092c\u0908 \u0938\u0947\u0928\u094d\u091f\u094d\u0930\u0932",
          "name:mr": "\u092e\u0941\u0902\u092c\u0908 \u0938\u0947\u0902\u091f\u094d\u0930\u0932",
          "network": "WR",
          "old_name": "Bellasis Road",
          "operator": "IR",
          "public_transport": "stop_position",
          "railway": "stop",
          "ref": "MMCT",
          "train": "yes"
        }
      },
      {
        "type": "node",
        "id": 619290482,
        "lat": 18.9664287,
        "lon": 72.8442814,
        "tags": {
          "name": "Dockyard Road",
          "public_transport": "stop_position",
          "railway": "stop",
          "ref": "2",
          "train": "yes"
        }
      },
      {
        "type": "node",
        "id": 619293667,
        "lat": 18.9618375,
        "lon": 72.8393604,
        "tags": {
          "loc_ref": "1",
          "name": "Sandhurst Road",
          "public_transport": "stop_position",
          "railway": "stop",
          "ref": "SNRD:1",
          "train": "yes"
        }
      },
      {
        "type": "node",
        "id": 619293686,
        "lat": 18.9874068,
        "lon": 72.8327477,
        "tags": {
          "level": "-1",
          "name": "Chinchpokli",
          "public_transport": "stop_position",
          "railway": "stop",
          "train": "yes"
        }
      },
      {
        "type": "node",
        "id": 619344379,
        "lat": 18.9620981,
        "lon": 72.8186387,
        "tags": {
          "amenity": "cinema",
          "name": "Goodwill Theatre"
        }
      },
      {
        "type": "node",
        "id": 619377230,
        "lat": 18.9612251,
        "lon": 72.8234361,
        "tags": {
          "amenity": "cinema",
          "name": "New Roshan Talkies"
        }
      },
      {
        "type": "node",
        "id": 619377234,
        "lat": 18.9615152,
        "lon": 72.8231708,
        "tags": {
          "amenity": "cinema",
          "name": "Alfred Talkies"
        }
      },
      {
        "type": "node",
        "id": 619377620,
        "lat": 18.9618801,
        "lon": 72.821185,
        "tags": {
          "amenity": "cinema",
          "name": "Super Plaza Cinema"
        }
      },
      {
        "type": "node",
        "id": 621911847,
        "lat": 18.99568,
        "lon": 72.8302756,
        "tags": {
          "ele": "5",
          "internet_access": "no",
          "name": "Lower Parel",
          "name:hi": "\u0932\u094b\u0905\u0930 \u092a\u0930\u0947\u0932",
          "name:ml": "\u0d32\u0d4b\u0d35\u0d7c \u0d2a\u0d30\u0d7e",
          "name:mr": "\u0932\u094b\u0905\u0930 \u092a\u0930\u0933",
          "network": "Mumbai Suburban Railway",
          "network:wikidata": "Q3273422",
          "operator": "WR",
          "public_transport": "station",
          "railway": "station",
          "ref": "PL",
          "start_date": "1867",
          "train": "yes",
          "wikidata": "Q6693696",
          "wikipedia": "en:Lower Parel railway station"
        }
      },
      {
        "type": "node",
        "id": 700774352,
        "lat": 18.9761344,
        "lon": 72.8467663,
        "tags": {
          "amenity": "fuel"
        }
      },
      {
        "type": "node",
        "id": 700886403,
        "lat": 18.9871866,
        "lon": 72.8438965,
        "tags": {
          "name": "Cotton Green",
          "name:hi": "\u0915\u0949\u091f\u0928 \u0917\u094d\u0930\u0940\u0928",
          "network": "IR",
          "operator": "CR",
          "public_transport": "station",
          "railway": "station",
          "ref": "CTGN",
          "wikidata": "Q5175691",
          "wikipedia": "en:Cotton Green railway station"
        }
      },
      {
        "type": "node",
        "id": 1236582476,
        "lat": 18.9922548,
        "lon": 72.8143804,
        "tags": {
          "amenity": "fuel",
          "cmt": "30-JAN-10 10:24:17",
          "description": "30-JAN-10 10:24:17",
          "ele": "21.995728",
          "name": "Fuel",
          "source": "GPS",
          "sym": "Gas Station"
        }
      },
      {
        "type": "node",
        "id": 2178025599,
        "lat": 18.9700757,
        "lon": 72.8195845,
        "tags": {
          "IR:zone": "WR:CCG",
          "local_ref": "5",
          "name": "Mumbai Central",
          "name:hi": "\u092e\u0941\u092e\u094d\u092c\u0908 \u0938\u0947\u0928\u094d\u091f\u094d\u0930\u0932",
          "name:mr": "\u092e\u0941\u0902\u092c\u0908 \u0938\u0947\u0902\u091f\u094d\u0930\u0932",
          "network": "WR",
          "operator": "IR",
          "public_transport": "stop_position",
          "railway": "stop",
          "ref": "MMCT",
          "train": "yes"
        }
      },
      {
        "type": "node",
        "id": 2178025600,
        "lat": 18.9700768,
        "lon": 72.8195436,
        "tags": {
          "IR:zone": "WR:CCG",
          "local_ref": "4",
          "name": "Mumbai Central",
          "name:hi": "\u092e\u0941\u092e\u094d\u092c\u0908 \u0938\u0947\u0928\u094d\u091f\u094d\u0930\u0932",
          "name:mr": "\u092e\u0941\u0902\u092c\u0908 \u0938\u0947\u0902\u091f\u094d\u0930\u0932",
          "network": "WR",
          "operator": "IR",
          "public_transport": "stop_position",
          "railway": "stop",
          "ref": "MMCT",
          "train": "yes"
        }
      },
      {
        "type": "node",
        "id": 2178025601,
        "lat": 18.9700908,
        "lon": 72.8193557,
        "tags": {
          "IR:zone": "WR:CCG",
          "local_ref": "3",
          "name": "Mumbai Central",
          "name:hi": "\u092e\u0941\u092e\u094d\u092c\u0908 \u0938\u0947\u0928\u094d\u091f\u094d\u0930\u0932",
          "name:mr": "\u092e\u0941\u0902\u092c\u0908 \u0938\u0947\u0902\u091f\u094d\u0930\u0932",
          "network": "WR",
          "operator": "IR",
          "public_transport": "stop_position",
          "railway": "stop",
          "ref": "MMCT",
          "train": "yes"
        }
      },
      {
        "type": "node",
        "id": 2178025602,
        "lat": 18.970091,
        "lon": 72.8193067,
        "tags": {
          "IR:zone": "WR:CCG",
          "local_ref": "2",
          "name": "Mumbai Central",
          "name:hi": "\u092e\u0941\u092e\u094d\u092c\u0908 \u0938\u0947\u0928\u094d\u091f\u094d\u0930\u0932",
          "name:mr": "\u092e\u0941\u0902\u092c\u0908 \u0938\u0947\u0902\u091f\u094d\u0930\u0932",
          "network": "WR",
          "operator": "IR",
          "public_transport": "stop_position",
          "railway": "stop",
          "ref": "MMCT",
          "train": "yes"
        }
      },
      {
        "type": "node",
        "id": 2178163576,
        "lat": 18.9609243,
        "lon": 72.8393719,
        "tags": {
          "internet_access": "no",
          "name": "Sandhurst Road",
          "name:hi": "\u0938\u0901\u0921\u0939\u0930\u094d\u0938\u094d\u091f \u0930\u094b\u0921",
          "name:ml": "\u0d38\u0d3e\u0d7b\u0d21\u0d4d\u0d39\u0d7c\u0d38\u0d4d\u0d31\u0d4d\u0d31\u0d4d \u0d31\u0d4b\u0d21\u0d4d",
          "network": "IR",
          "operator": "CR",
          "public_transport": "station",
          "railway": "station",
          "ref": "SNRD",
          "wikidata": "Q5226365",
          "wikipedia": "en:Sandhurst Road"
        }
      },
      {
        "type": "node",
        "id": 2178163625,
        "lat": 18.9608485,
        "lon": 72.8395868,
        "tags": {
          "name": "Sandhurst Road",
          "public_transport": "stop_position",
          "railway": "stop",
          "ref": "4",
          "train": "yes"
        }
      },
      {
        "type": "node",
        "id": 2178163626,
        "lat": 18.9608688,
        "lon": 72.8395412,
        "tags": {
          "name": "Sandhurst Road",
          "public_transport": "stop_position",
          "railway": "stop",
          "ref": "3",
          "train": "yes"
        }
      },
      {
        "type": "node",
        "id": 2178254482,
        "lat": 18.9765515,
        "lon": 72.8326776,
        "tags": {
          "name": "Byculla",
          "public_transport": "stop_position",
          "railway": "stop",
          "train": "yes"
        }
      },
      {
        "type": "node",
        "id": 2178254483,
        "lat": 18.9765534,
        "lon": 72.8328591,
        "tags": {
          "name": "Byculla",
          "public_transport": "stop_position",
          "railway": "stop",
          "train": "yes"
        }
      },
      {
        "type": "node",
        "id": 2178269313,
        "lat": 18.9706926,
        "lon": 72.8190255,
        "tags": {
          "IR:zone": "WR:CCG",
          "local_ref": "4",
          "name": "Mumbai Central (local)",
          "name:hi": "\u092e\u0941\u092e\u094d\u092c\u0908 \u0938\u0947\u0928\u094d\u091f\u094d\u0930\u0932",
          "name:mr": "\u092e\u0941\u0902\u092c\u0908 \u0938\u0947\u0902\u091f\u094d\u0930\u0932",
          "network": "WR",
          "old_name": "Bellasis Road",
          "operator": "IR",
          "public_transport": "stop_position",
          "railway": "stop",
          "ref": "MMCT",
          "train": "yes"
        }
      },
      {
        "type": "node",
        "id": 2178269316,
        "lat": 18.9707063,
        "lon": 72.8188911,
        "tags": {
          "IR:zone": "WR:CCG",
          "local_ref": "3",
          "name": "Mumbai Central (local)",
          "name:hi": "\u092e\u0941\u092e\u094d\u092c\u0908 \u0938\u0947\u0928\u094d\u091f\u094d\u0930\u0932",
          "name:mr": "\u092e\u0941\u0902\u092c\u0908 \u0938\u0947\u0902\u091f\u094d\u0930\u0932",
          "network": "WR",
          "old_name": "Bellasis Road",
          "operator": "IR",
          "public_transport": "stop_position",
          "railway": "stop",
          "ref": "MMCT",
          "train": "yes"
        }
      },
      {
        "type": "node",
        "id": 2443092123,
        "lat": 18.9674767,
        "lon": 72.8445477,
        "tags": {
          "internet_access": "no",
          "name": "Dockyard Road",
          "name:hi": "\u0921\u0949\u0915\u092f\u093e\u0930\u094d\u0921 \u0930\u094b\u0921",
          "network": "IR",
          "operator": "CR",
          "public_transport": "station",
          "railway": "station",
          "ref": "DKRD",
          "wikidata": "Q5121871",
          "wikipedia": "en:Dockyard Road railway station"
        }
      },
      {
        "type": "node",
        "id": 2443096202,
        "lat": 18.9775506,
        "lon": 72.8441011,
        "tags": {
          "internet_access": "no",
          "name": "Reay Road",
          "name:hi": "\u0930\u0947 \u0930\u094b\u0921",
          "network": "IR",
          "operator": "CR",
          "public_transport": "station",
          "railway": "station",
          "ref": "RRD",
          "wikidata": "Q5121780",
          "wikipedia": "en:Reay Road railway station"
        }
      },
      {
        "type": "node",
        "id": 2444001671,
        "lat": 18.9945514,
        "lon": 72.8328707,
        "tags": {
          "internet_access": "no",
          "name": "Currey Road",
          "name:ml": "\u0d15\u0d31\u0d3f \u0d31\u0d4b\u0d21\u0d4d",
          "name:mr": "\u0915\u0930\u0940 \u0930\u094b\u0921",
          "network": "IR",
          "operator": "WR",
          "public_transport": "station",
          "railway": "station",
          "ref": "CRD",
          "wikidata": "Q5121321",
          "wikipedia": "en:Currey Road railway station"
        }
      },
      {
        "type": "node",
        "id": 2630075001,
        "lat": 18.9766219,
        "lon": 72.8327936,
        "tags": {
          "internet_access": "no",
          "name": "Byculla",
          "name:hi": "\u092d\u093e\u092f\u0916\u0932\u093e",
          "name:ml": "\u0d2c\u0d48\u0d15\u0d41\u0d32\u0d4d\u0d32",
          "network": "IR",
          "operator": "CR",
          "public_transport": "station",
          "railway": "station",
          "ref": "BY",
          "wikidata": "Q5003980",
          "wikipedia": "en:Byculla railway station"
        }
      },
      {
        "type": "node",
        "id": 2630075008,
        "lat": 18.9695855,
        "lon": 72.8193152,
        "tags": {
          "IR:zone": "WR:CCG",
          "ele": "6.62",
          "historic:name": "Bombay Central Terminal",
          "historic:ref": "BCT",
          "internet_access": "yes",
          "name": "Mumbai Central",
          "name:hi": "\u092e\u0941\u092e\u094d\u092c\u0908 \u0938\u0947\u0928\u094d\u091f\u094d\u0930\u0932",
          "name:ml": "\u0d2e\u0d41\u0d02\u0d2c\u0d48 \u0d38\u0d46\u0d7b\u0d1f\u0d4d\u0d30\u0d7d",
          "name:mr": "\u092e\u0941\u0902\u092c\u0908 \u0938\u0947\u0902\u091f\u094d\u0930\u0932",
          "network": "IR",
          "old_name": "Bellasis Road",
          "old_ref": "BCT",
          "operator": "WR",
          "public_transport": "station",
          "railway": "station",
          "ref": "MMCT",
          "start_date": "1930-12-18",
          "station": "terminal",
          "train": "yes",
          "wikidata": "Q3539796",
          "wikipedia": "en:Mumbai Central railway station"
        }
      },
      {
        "type": "node",
        "id": 3306535092,
        "lat": 18.9771509,
        "lon": 72.8115505,
        "tags": {
          "bus": "yes",
          "public_transport": "stop_position",
          "ref": "124"
        }
      },
      {
        "type": "node",
        "id": 3306535093,
        "lat": 18.9781036,
        "lon": 72.8108602,
        "tags": {
          "amenity": "fuel",
          "brand": "Bharat Petroleum"
        }
      },
      {
        "type": "node",
        "id": 3501418211,
        "lat": 18.9871984,
        "lon": 72.8326716,
        "tags": {
          "internet_access": "no",
          "name": "Chinchpokli",
          "name:hi": "\u091a\u093f\u0902\u091a\u092a\u094b\u0915\u0932\u0940",
          "name:ml": "\u0d1a\u0d3f\u0d1e\u0d4d\u0d1a\u0d4d\u0d2a\u0d4a\u0d15\u0d4d\u0d32\u0d3f",
          "network": "IR",
          "operator": "CR",
          "public_transport": "station",
          "railway": "station",
          "ref": "CHG",
          "wikidata": "Q5100314",
          "wikipedia": "en:Chinchpokli railway station"
        }
      },
      {
        "type": "node",
        "id": 3501419203,
        "lat": 18.9618507,
        "lon": 72.8394605,
        "tags": {
          "name": "Sandhurst Road",
          "public_transport": "stop_position",
          "railway": "stop",
          "ref": "2",
          "train": "yes"
        }
      },
      {
        "type": "node",
        "id": 3501419615,
        "lat": 18.9765536,
        "lon": 72.8328865,
        "tags": {
          "name": "Byculla",
          "public_transport": "stop_position",
          "railway": "stop",
          "train": "yes"
        }
      },
      {
        "type": "node",
        "id": 3501419617,
        "lat": 18.9765511,
        "lon": 72.8327203,
        "tags": {
          "name": "Byculla",
          "public_transport": "stop_position",
          "railway": "stop",
          "train": "yes"
        }
      },
      {
        "type": "node",
        "id": 3501419652,
        "lat": 18.987134,
        "lon": 72.8328365,
        "tags": {
          "level": "-1",
          "name": "Chinchpokli",
          "public_transport": "stop_position",
          "railway": "stop",
          "train": "yes"
        }
      },
      {
        "type": "node",
        "id": 3806743194,
        "lat": 18.9830921,
        "lon": 72.8285867,
        "tags": {
          "alt_name": "Jacob Circle",
          "monorail": "yes",
          "name": "Sant Gadge Maharaj Chowk",
          "public_transport": "platform",
          "railway": "station",
          "station": "monorail"
        }
      },
      {
        "type": "node",
        "id": 3806743195,
        "lat": 18.9945142,
        "lon": 72.8433086,
        "tags": {
          "monorail": "yes",
          "name": "Mint Colony",
          "public_transport": "platform",
          "railway": "station",
          "station": "monorail"
        }
      },
      {
        "type": "node",
        "id": 4264478427,
        "lat": 18.9825203,
        "lon": 72.8242196,
        "tags": {
          "IR:zone": "WR:CCG",
          "alt_name": "Mahalakshmi Railway Station",
          "internet_access": "no",
          "name": "Mahalaxmi",
          "name:hi": "\u092e\u0939\u093e\u0932\u0915\u094d\u0937\u094d\u092e\u0940",
          "name:ml": "\u0d2e\u0d39\u0d3e\u0d32\u0d15\u0d4d\u0d37\u0d4d\u0d2e\u0d3f",
          "name:mr": "\u092e\u0939\u093e\u0932\u0915\u094d\u0937\u094d\u092e\u0940",
          "network": "Mumbai Suburban Railway",
          "network:wikidata": "Q3273422",
          "operator": "WR",
          "public_transport": "station",
          "railway": "station",
          "ref": "MX",
          "start_date": "1867",
          "train": "yes",
          "wikidata": "Q6732924",
          "wikipedia": "en:Mahalaxmi railway station"
        }
      },
      {
        "type": "node",
        "id": 4264980597,
        "lat": 18.986503,
        "lon": 72.8432532,
        "tags": {
          "name": "Cotton Green",
          "public_transport": "stop_position",
          "railway": "stop",
          "ref": "2",
          "train": "yes"
        }
      },
      {
        "type": "node",
        "id": 5389227965,
        "lat": 18.9865041,
        "lon": 72.843223,
        "tags": {
          "name": "Cotton Green",
          "public_transport": "stop_position",
          "railway": "stop",
          "ref": "1",
          "train": "yes"
        }
      },
      {
        "type": "node",
        "id": 5389227991,
        "lat": 18.9664494,
        "lon": 72.8442516,
        "tags": {
          "name": "Dockyard Road",
          "public_transport": "stop_position",
          "railway": "stop",
          "ref": "1",
          "train": "yes"
        }
      },
      {
        "type": "node",
        "id": 5448396122,
        "lat": 18.9979515,
        "lon": 72.8372765,
        "tags": {
          "amenity": "fuel",
          "brand": "Hindustan Petroleum",
          "brand:wikidata": "Q1619375",
          "name": "HP",
          "name:en": "HP",
          "official_name": "Hindustan Petroleum"
        }
      },
      {
        "type": "node",
        "id": 6166727726,
        "lat": 18.970701,
        "lon": 72.8186917,
        "tags": {
          "IR:zone": "WR:CCG",
          "local_ref": "1",
          "name": "Mumbai Central (local)",
          "name:hi": "\u092e\u0941\u092e\u094d\u092c\u0908 \u0938\u0947\u0928\u094d\u091f\u094d\u0930\u0932",
          "name:mr": "\u092e\u0941\u0902\u092c\u0908 \u0938\u0947\u0902\u091f\u094d\u0930\u0932",
          "network": "WR",
          "old_name": "Bellasis Road",
          "operator": "IR",
          "public_transport": "stop_position",
          "railway": "stop",
          "ref": "MMCT",
          "train": "yes"
        }
      },
      {
        "type": "node",
        "id": 6168435926,
        "lat": 18.9785446,
        "lon": 72.8139768,
        "tags": {
          "bus": "yes",
          "public_transport": "stop_position",
          "source": "AND"
        }
      },
      {
        "type": "node",
        "id": 6498408219,
        "lat": 18.9931201,
        "lon": 72.8314698,
        "tags": {
          "monorail": "yes",
          "name": "Lower Parel",
          "public_transport": "platform",
          "railway": "station",
          "station": "monorail"
        }
      },
      {
        "type": "node",
        "id": 7510862062,
        "lat": 18.9774327,
        "lon": 72.8442643,
        "tags": {
          "name": "Reay Road",
          "public_transport": "stop_position",
          "railway": "stop",
          "ref": "2",
          "train": "yes"
        }
      },
      {
        "type": "node",
        "id": 7510862063,
        "lat": 18.9774257,
        "lon": 72.8442202,
        "tags": {
          "name": "Reay Road",
          "public_transport": "stop_position",
          "railway": "stop",
          "ref": "1",
          "train": "yes"
        }
      },
      {
        "type": "node",
        "id": 7511298719,
        "lat": 18.9821386,
        "lon": 72.8240475,
        "tags": {
          "IR:zone": "WR:CCG",
          "local_ref": "2",
          "name": "Mahalaxmi",
          "name:hi": "\u092e\u0939\u093e\u0932\u0915\u094d\u0937\u094d\u092e\u0940",
          "network": "WR",
          "operator": "IR",
          "public_transport": "stop_position",
          "railway": "stop",
          "train": "yes"
        }
      },
      {
        "type": "node",
        "id": 7511298720,
        "lat": 18.982232,
        "lon": 72.8239368,
        "tags": {
          "IR:zone": "WR:CCG",
          "local_ref": "1",
          "name": "Mahalaxmi",
          "name:hi": "\u092e\u0939\u093e\u0932\u0915\u094d\u0937\u094d\u092e\u0940",
          "network": "WR",
          "operator": "IR",
          "public_transport": "stop_position",
          "railway": "stop",
          "train": "yes"
        }
      },
      {
        "type": "node",
        "id": 7553582481,
        "lat": 18.9701022,
        "lon": 72.8191416,
        "tags": {
          "IR:zone": "WR:CCG",
          "local_ref": "1",
          "name": "Mumbai Central",
          "name:hi": "\u092e\u0941\u092e\u094d\u092c\u0908 \u0938\u0947\u0928\u094d\u091f\u094d\u0930\u0932",
          "name:mr": "\u092e\u0941\u0902\u092c\u0908 \u0938\u0947\u0902\u091f\u094d\u0930\u0932",
          "network": "WR",
          "operator": "IR",
          "public_transport": "stop_position",
          "railway": "stop",
          "ref": "MMCT",
          "train": "yes"
        }
      },
      {
        "type": "node",
        "id": 7817952879,
        "lat": 18.9955353,
        "lon": 72.8300633,
        "tags": {
          "IR:zone": "WR:CCG",
          "local_ref": "1",
          "name": "Lower Parel",
          "name:hi": "\u0932\u094b\u0905\u0930 \u092a\u0930\u0947\u0932",
          "name:mr": "\u0932\u094b\u0905\u0930 \u092a\u0930\u0933",
          "network": "WR",
          "operator": "IR",
          "public_transport": "stop_position",
          "railway": "stop",
          "train": "yes"
        }
      },
      {
        "type": "node",
        "id": 7817952880,
        "lat": 18.9955157,
        "lon": 72.8301006,
        "tags": {
          "IR:zone": "WR:CCG",
          "local_ref": "2",
          "name": "Lower Parel",
          "name:hi": "\u0932\u094b\u0905\u0930 \u092a\u0930\u0947\u0932",
          "name:mr": "\u0932\u094b\u0905\u0930 \u092a\u0930\u0933",
          "network": "WR",
          "operator": "IR",
          "public_transport": "stop_position",
          "railway": "stop",
          "train": "yes"
        }
      },
      {
        "type": "node",
        "id": 9135966843,
        "lat": 18.9936274,
        "lon": 72.8329074,
        "tags": {
          "name": "Currey Road",
          "name:mr": "\u0915\u0930\u0940 \u0930\u094b\u0921",
          "network": "CR",
          "operator": "IR",
          "public_transport": "stop_position",
          "railway": "stop",
          "ref": "CRD",
          "train": "yes"
        }
      },
      {
        "type": "node",
        "id": 9140706757,
        "lat": 18.9936375,
        "lon": 72.8327955,
        "tags": {
          "name": "Currey Road",
          "name:mr": "\u0915\u0930\u0940 \u0930\u094b\u0921",
          "network": "CR",
          "operator": "IR",
          "public_transport": "stop_position",
          "railway": "stop",
          "ref": "CRD",
          "train": "yes"
        }
      },
      {
        "type": "node",
        "id": 11375281416,
        "lat": 18.9951198,
        "lon": 72.8239441,
        "tags": {
          "amenity": "cinema",
          "brand": "PVR Cinemas",
          "brand:short": "PVR",
          "brand:wikidata": "Q3359908",
          "name": "PVR Cinemas",
          "short_name": "PVR"
        }
      },
      {
        "type": "node",
        "id": 11456249853,
        "lat": 18.9777892,
        "lon": 72.8239971,
        "tags": {
          "amenity": "fuel",
          "brand": "Hindustan Petroleum",
          "brand:wikidata": "Q1619375",
          "name": "HP",
          "official_name": "Hindustan Petroleum"
        }
      },
      {
        "type": "node",
        "id": 11456250689,
        "lat": 18.9645936,
        "lon": 72.8198705,
        "tags": {
          "amenity": "fuel",
          "brand": "Bharat Petroleum",
          "brand:wikidata": "Q854826",
          "name": "Bharat Petroleum"
        }
      }
    ]
  }
}