{
  "pois_1km": {
    "version": 0.6,
    "generator": "Overpass API 0.7.62.8 e802775f",
    "osm3s": {
      "timestamp_osm_base": "2025-09-06T07:36:19Z",
      "copyright": "The data included in this document is from www.openstreetmap.org. The data is made available under ODbL."
    },
    "elements": [
      {
        "type": "node",
        "id": 3216970890,
        "lat": 19.0993472,
        "lon": 72.8737316,
        "tags": {
          "amenity": "restaurant",
          "name": "Shiv Sagar"
        }
      },
      {
        "type": "node",
        "id": 3216971091,
        "lat": 19.0993371,
        "lon": 72.8737906,
        "tags": {
          "amenity": "cafe",
          "brand": "Cafe Coffee Day",
          "brand:wikidata": "Q5017235",
          "cuisine": "coffee_shop",
          "name": "Cafe Coffee Day",
          "takeaway": "yes"
        }
      },
      {
        "type": "node",
        "id": 3816244892,
        "lat": 19.0984956,
        "lon": 72.8743807,
        "tags": {
          "amenity": "cafe"
        }
      },
      {
        "type": "node",
        "id": 3816244893,
        "lat": 19.0985209,
        "lon": 72.8747294,
        "tags": {
          "amenity": "cafe"
        }
      },
      {
        "type": "node",
        "id": 4538233794,
        "lat": 19.0962776,
        "lon": 72.874303,
        "tags": {
          "amenity": "fast_food",
          "cuisine": "indian",
          "level": "3",
          "name": "Street Foods by Punjab Grill"
        }
      },
      {
        "type": "node",
        "id": 4538247791,
        "lat": 19.0960851,
        "lon": 72.8741102,
        "tags": {
          "amenity": "restaurant",
          "brand": "Pizza Hut",
          "brand:wikidata": "Q191615",
          "cuisine": "pizza",
          "level": "3",
          "name": "Pizza Hut"
        }
      },
      {
        "type": "node",
        "id": 4538247792,
        "lat": 19.0961519,
        "lon": 72.8749394,
        "tags": {
          "amenity": "fast_food",
          "brand": "Burger King",
          "brand:pa": "\u0a2c\u0a30\u0a17\u0a30 \u0a15\u0a3f\u0a70\u0a17",
          "brand:ur": "\u0628\u0631\u06af\u0631 \u06a9\u0646\u06af",
          "brand:wikidata": "Q177054",
          "brand:wikipedia": "en:Burger King",
          "brand:wikipedia:pa": "\u0a2c\u0a30\u0a17\u0a30 \u0a15\u0a3f\u0a70\u0a17",
          "brand:wikipedia:ur": "\u0628\u0631\u06af\u0631 \u06a9\u0646\u06af",
          "cuisine": "burger",
          "level": "3",
          "name": "Burger King",
          "name:pa": "\u0a2c\u0a30\u0a17\u0a30 \u0a15\u0a3f\u0a70\u0a17",
          "name:ru": "\u0411\u0443\u0440\u0433\u0435\u0440 \u041a\u0438\u043d\u0433",
          "name:ur": "\u0628\u0631\u06af\u0631 \u06a9\u0646\u06af",
          "takeaway": "yes"
        }
      },
      {
        "type": "node",
        "id": 4538286592,
        "lat": 19.0962077,
        "lon": 72.8742368,
        "tags": {
          "amenity": "fast_food",
          "cuisine": "asian",
          "level": "3",
          "name": "asia seven"
        }
      },
      {
        "type": "node",
        "id": 4538286593,
        "lat": 19.0961507,
        "lon": 72.8741614,
        "tags": {
          "alt_name": "Kentucky Fried Chicken",
          "alt_name:en": "Kentucky Fried Chicken",
          "alt_name:hi": "\u0915\u0947\u0902\u091f\u0941\u0915\u0940 \u092b\u094d\u0930\u093e\u0907\u0921 \u091a\u093f\u0915\u0928",
          "alt_name:pa": "\u0a15\u0a48\u0a02\u0a1f\u0a41\u0a15\u0a40 \u0a2b\u0a4d\u0a30\u0a3e\u0a08\u0a21 \u0a1a\u0a3f\u0a15\u0a28",
          "alt_name:pnb": "\u06a9\u06cc\u0646\u0679\u06a9\u06cc \u0641\u0631\u0627\u0626\u06cc\u0688 \u0686\u06a9\u0646",
          "alt_name:ur": "\u06a9\u06cc\u0646\u0679\u06a9\u06cc \u0641\u0631\u0627\u0626\u06cc\u0688 \u0686\u06a9\u0646",
          "amenity": "fast_food",
          "brand": "KFC",
          "brand:en": "KFC",
          "brand:hi": "\u0915\u0947\u090f\u092b\u0938\u0940",
          "brand:pa": "\u0a15\u0a47\u0a10\u0a2b\u0a38\u0a40",
          "brand:pnb": "\u06a9\u06d2 \u0627\u06cc\u0641 \u0633\u06cc",
          "brand:ur": "\u06a9\u06d2 \u0627\u06cc\u0641 \u0633\u06cc",
          "brand:wikidata": "Q524757",
          "brand:wikipedia": "en:KFC",
          "brand:wikipedia:pa": "\u0a15\u0a47\u0a10\u0a2b\u0a38\u0a40",
          "brand:wikipedia:ur": "\u06a9\u06cc\u0646\u0679\u06a9\u06cc \u0641\u0631\u0627\u0626\u06cc\u0688 \u0686\u06a9\u0646",
          "cuisine": "chicken",
          "level": "3",
          "name": "KFC",
          "name:en": "KFC",
          "name:hi": "\u0915\u0947\u090f\u092b\u0938\u0940",
          "name:pa": "\u0a15\u0a47\u0a10\u0a2b\u0a38\u0a40",
          "name:pnb": "\u06a9\u06d2 \u0627\u06cc\u0641 \u0633\u06cc",
          "name:ur": "\u06a9\u06d2 \u0627\u06cc\u0641 \u0633\u06cc",
          "takeaway": "yes"
        }
      },
      {
        "type": "node",
        "id": 4538287491,
        "lat": 19.1002116,
        "lon": 72.8747168,
        "tags": {
          "amenity": "cafe",
          "brand": "Starbucks",
          "brand:pa": "\u0a38\u0a1f\u0a3e\u0a30\u0a2c\u0a15\u0a38",
          "brand:ur": "\u0627\u0633\u0679\u0627\u0631\u0628\u06a9\u0633",
          "brand:wikidata": "Q37158",
          "brand:wikipedia": "en:Starbucks",
          "cuisine": "coffee_shop",
          "level": "1",
          "name": "Starbucks",
          "name:pa": "\u0a38\u0a1f\u0a3e\u0a30\u0a2c\u0a15\u0a38",
          "name:ur": "\u0627\u0633\u0679\u0627\u0631\u0628\u06a9\u0633",
          "official_name": "Starbucks Coffee",
          "official_name:pa": "\u0a38\u0a1f\u0a3e\u0a30\u0a2c\u0a15\u0a38 \u0a15\u0a4c\u0a2b\u0a40",
          "official_name:ur": "\u0627\u0633\u0679\u0627\u0631\u0628\u06a9\u0633 \u06a9\u0627\u0641\u06cc",
          "takeaway": "yes"
        }
      },
      {
        "type": "node",
        "id": 4657210592,
        "lat": 19.1038245,
        "lon": 72.8697259,
        "tags": {
          "amenity": "restaurant",
          "name:en": "Peshawri"
        }
      },
      {
        "type": "node",
        "id": 5276935422,
        "lat": 19.0964751,
        "lon": 72.8744612,
        "tags": {
          "amenity": "cafe",
          "name": "Irani Cafe"
        }
      },
      {
        "type": "node",
        "id": 7663961482,
        "lat": 19.1002971,
        "lon": 72.8829976,
        "tags": {
          "addr:district": "Mumbai Suburban",
          "addr:full": "Behind Sakinaka Telephone Exchange, Safed Pul, Saki Naka, Mumbai",
          "addr:postcode": "400072",
          "addr:state": "Maharastra",
          "amenity": "hospital",
          "name": "Central Hospital & Child Care Centre",
          "source": "Local Knowledge"
        }
      },
      {
        "type": "node",
        "id": 10771263378,
        "lat": 19.0971989,
        "lon": 72.8833512,
        "tags": {
          "amenity": "restaurant",
          "name": "Vaishali Family Restaurant & Bar"
        }
      },
      {
        "type": "node",
        "id": 10828322350,
        "lat": 19.1000164,
        "lon": 72.8739181,
        "tags": {
          "amenity": "restaurant",
          "check_date": "2023-04-21",
          "level": "3",
          "name": "Shivsagar",
          "name:en": "Shivsagar",
          "name:mr": "\u0936\u093f\u0935\u0938\u093e\u0917\u0930",
          "wheelchair": "yes"
        }
      },
      {
        "type": "node",
        "id": 11207580746,
        "lat": 19.0952705,
        "lon": 72.8764398,
        "tags": {
          "amenity": "cafe",
          "brand": "Costa",
          "brand:wikidata": "Q608845",
          "cuisine": "coffee_shop",
          "name": "Costa",
          "takeaway": "yes"
        }
      },
      {
        "type": "node",
        "id": 11545405999,
        "lat": 19.0989697,
        "lon": 72.8754902,
        "tags": {
          "amenity": "atm",
          "atm": "yes",
          "brand": "IndusInd Bank",
          "brand:wikidata": "Q2040323",
          "name": "Indusind bank ATM",
          "operator": "IndusInd Bank",
          "operator:wikidata": "Q2040323"
        }
      },
      {
        "type": "node",
        "id": 11545406000,
        "lat": 19.1000752,
        "lon": 72.8752069,
        "tags": {
          "amenity": "atm",
          "atm": "yes",
          "brand": "State Bank of India",
          "brand:wikidata": "Q1340361",
          "name": "SBI ATM State Bank of India, Kotak Bank ATM",
          "operator": "State Bank of India",
          "operator:wikidata": "Q1340361",
          "short_name": "SBI"
        }
      },
      {
        "type": "node",
        "id": 11551635212,
        "lat": 19.0955218,
        "lon": 72.8761889,
        "tags": {
          "amenity": "restaurant",
          "name": "The Cram Bar"
        }
      },
      {
        "type": "node",
        "id": 11551636351,
        "lat": 19.0953348,
        "lon": 72.8763247,
        "tags": {
          "alt_name": "Kentucky Fried Chicken",
          "alt_name:en": "Kentucky Fried Chicken",
          "alt_name:hi": "\u0915\u0947\u0902\u091f\u0941\u0915\u0940 \u092b\u094d\u0930\u093e\u0907\u0921 \u091a\u093f\u0915\u0928",
          "alt_name:pa": "\u0a15\u0a48\u0a02\u0a1f\u0a41\u0a15\u0a40 \u0a2b\u0a4d\u0a30\u0a3e\u0a08\u0a21 \u0a1a\u0a3f\u0a15\u0a28",
          "alt_name:pnb": "\u06a9\u06cc\u0646\u0679\u06a9\u06cc \u0641\u0631\u0627\u0626\u06cc\u0688 \u0686\u06a9\u0646",
          "alt_name:ur": "\u06a9\u06cc\u0646\u0679\u06a9\u06cc \u0641\u0631\u0627\u0626\u06cc\u0688 \u0686\u06a9\u0646",
          "amenity": "fast_food",
          "brand": "KFC",
          "brand:en": "KFC",
          "brand:hi": "\u0915\u0947\u090f\u092b\u0938\u0940",
          "brand:pa": "\u0a15\u0a47\u0a10\u0a2b\u0a38\u0a40",
          "brand:pnb": "\u06a9\u06d2 \u0627\u06cc\u0641 \u0633\u06cc",
          "brand:ur": "\u06a9\u06d2 \u0627\u06cc\u0641 \u0633\u06cc",
          "brand:wikidata": "Q524757",
          "cuisine": "chicken",
          "name": "KFC",
          "name:en": "KFC",
          "name:hi": "\u0915\u0947\u090f\u092b\u0938\u0940",
          "name:pa": "\u0a15\u0a47\u0a10\u0a2b\u0a38\u0a40",
          "name:pnb": "\u06a9\u06d2 \u0627\u06cc\u0641 \u0633\u06cc",
          "name:ur": "\u06a9\u06d2 \u0627\u06cc\u0641 \u0633\u06cc",
          "takeaway": "yes"
        }
      },
      {
        "type": "node",
        "id": 12075203455,
        "lat": 19.095253,
        "lon": 72.8731217,
        "tags": {
          "air_conditioning": "yes",
          "amenity": "cafe",
          "brand": "Starbucks",
          "brand:wikidata": "Q37158",
          "cuisine": "coffee_shop",
          "level": "2",
          "name": "Starbucks",
          "official_name": "Starbucks Coffee",
          "outdoor_seating": "no",
          "takeaway": "yes",
          "wheelchair": "no"
        }
      },
      {
        "type": "node",
        "id": 12075203456,
        "lat": 19.0948452,
        "lon": 72.8722677,
        "tags": {
          "amenity": "pharmacy",
          "brand": "Apollo Pharmacy",
          "brand:wikidata": "Q62562612",
          "healthcare": "pharmacy",
          "level": "1",
          "name": "Apollo Pharmacy"
        }
      }
    ]
  },
  "pois_2_5km": {
    "version": 0.6,
    "generator": "Overpass API 0.7.62.8 e802775f",
    "osm3s": {
      "timestamp_osm_base": "2025-09-06T07:36:19Z",
      "copyright": "The data included in this document is from www.openstreetmap.org. The data is made available under ODbL."
    },
    "elements": [
      {
        "type": "node",
        "id": 623883811,
        "lat": 19.1121886,
        "lon": 72.867001,
        "tags": {
          "name": "Chakala - J.B. Nagar",
          "name:mr": "\u091a\u0915\u093e\u0932\u093e - \u091c\u0947. \u092c\u0940. \u0928\u0917\u0930",
          "name:ru": "\u0427\u0430\u043a\u0430\u043b\u0430 (\u0414\u0436\u0430\u043c\u043d\u0430\u043b\u0430\u043b \u0411\u0430\u0434\u0436\u0430\u0434\u0436 \u041d\u0430\u0433\u0430\u0440)",
          "network": "Mumbai Metro",
          "operator": "MMRDA",
          "public_transport": "stop_position",
          "railway": "stop",
          "subway": "yes"
        }
      },
      {
        "type": "node",
        "id": 623884121,
        "lat": 19.1038458,
        "lon": 72.8874199,
        "tags": {
          "name": "Saki Naka",
          "name:mr": "\u0938\u093e\u0915\u0940 \u0928\u093e\u0915\u093e",
          "name:ru": "\u0421\u0430\u043a\u0438 \u041d\u0430\u043a\u0430",
          "network": "Mumbai Metro",
          "operator": "MMRDA",
          "public_transport": "stop_position",
          "railway": "stop",
          "subway": "yes"
        }
      },
      {
        "type": "node",
        "id": 1241793068,
        "lat": 19.09544,
        "lon": 72.8660044,
        "tags": {
          "aeroway": "terminal",
          "ele": "15.747192",
          "name": "Cargo Terminal",
          "source": "GPS",
          "sym": "Civil"
        }
      },
      {
        "type": "node",
        "id": 1345350832,
        "lat": 19.1147257,
        "lon": 72.8596325,
        "tags": {
          "addr:city": "Mumbai",
          "addr:street": "Mathuradas Vasanji Road",
          "amenity": "fuel",
          "brand": "Hindustan Petroleum",
          "brand:wikidata": "Q1619375",
          "brand:wikipedia": "en:Hindustan Petroleum",
          "name": "HP",
          "official_name": "Hindustan Petroleum"
        }
      },
      {
        "type": "node",
        "id": 1348867392,
        "lat": 19.1179082,
        "lon": 72.8657206,
        "tags": {
          "amenity": "bus_station",
          "bus": "yes",
          "name": "Marol Depot",
          "public_transport": "station"
        }
      },
      {
        "type": "node",
        "id": 1648195662,
        "lat": 19.0975373,
        "lon": 72.8652877,
        "tags": {
          "amenity": "bus_station",
          "bus": "yes",
          "name": "Sahar Cargo Complex",
          "public_transport": "station"
        }
      },
      {
        "type": "node",
        "id": 2188851345,
        "lat": 19.1121647,
        "lon": 72.8647228,
        "tags": {
          "amenity": "cinema",
          "name": "Sangam Big Cinema"
        }
      },
      {
        "type": "node",
        "id": 2913182920,
        "lat": 19.0967391,
        "lon": 72.894326,
        "tags": {
          "name": "Asalpha",
          "name:mr": "\u0905\u0938\u0932\u094d\u092b\u093e",
          "name:ru": "\u0410\u0441\u0430\u043b\u044c\u0444\u0430",
          "network": "Mumbai Metro",
          "operator": "MMRDA",
          "public_transport": "stop_position",
          "railway": "stop",
          "subway": "yes"
        }
      },
      {
        "type": "node",
        "id": 3175794769,
        "lat": 19.1099146,
        "lon": 72.8747968,
        "tags": {
          "name": "Airport Road",
          "name:mr": "\u0935\u093f\u092e\u093e\u0928\u0924\u0933 \u0930\u0938\u094d\u0924\u093e",
          "name:ru": "\u042d\u0439\u0440\u043f\u043e\u0440\u0442-\u0420\u043e\u0443\u0434",
          "network": "Mumbai Metro",
          "operator": "MMRDA",
          "public_transport": "stop_position",
          "railway": "stop",
          "subway": "yes"
        }
      },
      {
        "type": "node",
        "id": 3175794770,
        "lat": 19.1103264,
        "lon": 72.8735321,
        "tags": {
          "name": "Airport Road",
          "name:mr": "\u0935\u093f\u092e\u093e\u0928\u0924\u0933 \u0930\u0938\u094d\u0924\u093e",
          "name:ru": "\u042d\u0439\u0440\u043f\u043e\u0440\u0442-\u0420\u043e\u0443\u0434",
          "network": "Mumbai Metro",
          "operator": "MMRDA",
          "public_transport": "stop_position",
          "railway": "stop",
          "subway": "yes"
        }
      },
      {
        "type": "node",
        "id": 3175794775,
        "lat": 19.1079463,
        "lon": 72.8801094,
        "tags": {
          "name": "Marol Naka (Line 1)",
          "name:mr": "\u092e\u0930\u094b\u0933 \u0928\u093e\u0915\u093e",
          "name:ru": "\u041c\u0430\u0440\u043e\u043b \u041d\u0430\u043a\u0430",
          "network": "Mumbai Metro",
          "operator": "MMRDA",
          "public_transport": "stop_position",
          "railway": "stop",
          "subway": "yes"
        }
      },
      {
        "type": "node",
        "id": 3175794776,
        "lat": 19.1083663,
        "lon": 72.8788727,
        "tags": {
          "name": "Marol Naka (Line 1)",
          "name:mr": "\u092e\u0930\u094b\u0933 \u0928\u093e\u0915\u093e",
          "name:ru": "\u041c\u0430\u0440\u043e\u043b \u041d\u0430\u043a\u0430",
          "network": "Mumbai Metro",
          "operator": "MMRDA",
          "public_transport": "stop_position",
          "railway": "stop",
          "subway": "yes"
        }
      },
      {
        "type": "node",
        "id": 3289545561,
        "lat": 19.0780431,
        "lon": 72.8793721,
        "tags": {
          "amenity": "fuel"
        }
      },
      {
        "type": "node",
        "id": 3389210700,
        "lat": 19.1119069,
        "lon": 72.8682423,
        "tags": {
          "name": "Chakala - J.B. Nagar",
          "name:mr": "\u091a\u0915\u093e\u0932\u093e - \u091c\u0947. \u092c\u0940. \u0928\u0917\u0930",
          "name:ru": "\u0427\u0430\u043a\u0430\u043b\u0430 (\u0414\u0436\u0430\u043c\u043d\u0430\u043b\u0430\u043b \u0411\u0430\u0434\u0436\u0430\u0434\u0436 \u041d\u0430\u0433\u0430\u0440)",
          "network": "Mumbai Metro",
          "operator": "MMRDA",
          "public_transport": "stop_position",
          "railway": "stop",
          "subway": "yes"
        }
      },
      {
        "type": "node",
        "id": 3389210701,
        "lat": 19.1032172,
        "lon": 72.8885094,
        "tags": {
          "name": "Saki Naka",
          "name:mr": "\u0938\u093e\u0915\u0940 \u0928\u093e\u0915\u093e",
          "name:ru": "\u0421\u0430\u043a\u0438 \u041d\u0430\u043a\u0430",
          "network": "Mumbai Metro",
          "operator": "MMRDA",
          "public_transport": "stop_position",
          "railway": "stop",
          "subway": "yes"
        }
      },
      {
        "type": "node",
        "id": 3389249957,
        "lat": 19.0960972,
        "lon": 72.895413,
        "tags": {
          "name": "Asalpha",
          "name:mr": "\u0905\u0938\u0932\u094d\u092b\u093e",
          "name:ru": "\u0410\u0441\u0430\u043b\u044c\u0444\u0430",
          "network": "Mumbai Metro",
          "operator": "MMRDA",
          "public_transport": "stop_position",
          "railway": "stop",
          "subway": "yes"
        }
      },
      {
        "type": "node",
        "id": 3518529216,
        "lat": 19.0935612,
        "lon": 72.8837601,
        "tags": {
          "addr:city": "Mumabi",
          "addr:housenumber": "Jari Mari",
          "addr:postcode": "400072",
          "addr:street": "90 Feet Road",
          "amenity": "theatre",
          "name": "Maxus Multiplex"
        }
      },
      {
        "type": "node",
        "id": 4339870699,
        "lat": 19.105142,
        "lon": 72.8876135,
        "tags": {
          "amenity": "fuel",
          "brand": "Hindustan Petroleum",
          "brand:wikidata": "Q1619375",
          "name": "HP",
          "official_name": "Hindustan Petroleum"
        }
      },
      {
        "type": "node",
        "id": 4349254491,
        "lat": 19.1083512,
        "lon": 72.8782543,
        "tags": {
          "amenity": "fuel",
          "brand": "Hindustan Petroleum",
          "brand:wikidata": "Q1619375",
          "name": "HP",
          "official_name": "Hindustan Petroleum"
        }
      },
      {
        "type": "node",
        "id": 5221297132,
        "lat": 19.1023335,
        "lon": 72.8744692,
        "tags": {
          "name": "CSMI Airport International T2",
          "name:mr": "\u091b.\u0936\u093f.\u092e.\u0906\u0902.\u0935\u093f. \u091f-\u0968",
          "network": "Mumbai Metro",
          "operator": "Mumbai Metro Rail Corporation Ltd",
          "public_transport": "station",
          "railway": "station",
          "start_date": "2024-10-05",
          "station": "subway",
          "subway": "yes"
        }
      },
      {
        "type": "node",
        "id": 5787704196,
        "lat": 19.1173537,
        "lon": 72.8735966,
        "tags": {
          "name": "MIDC - Andheri",
          "name:mr": "\u090f\u092e.\u0906\u092f.\u0921\u0940.\u0938\u0940. - \u0905\u0902\u0927\u0947\u0930\u0940",
          "network": "Mumbai Metro",
          "operator": "Mumbai Metro Rail Corporation Ltd",
          "public_transport": "station",
          "railway": "station",
          "start_date": "2024-10-05",
          "station": "subway",
          "subway": "yes"
        }
      },
      {
        "type": "node",
        "id": 5787704197,
        "lat": 19.1085041,
        "lon": 72.878578,
        "tags": {
          "name": "Marol Naka L3",
          "name:mr": "\u092e\u0930\u094b\u0933 \u0928\u093e\u0915\u093e",
          "network": "Mumbai Metro",
          "operator": "Mumbai Metro Rail Corporation Ltd",
          "public_transport": "station",
          "railway": "station",
          "start_date": "2024-10-05",
          "station": "subway",
          "subway": "yes"
        }
      },
      {
        "type": "node",
        "id": 7944328628,
        "lat": 19.1138698,
        "lon": 72.8576914,
        "tags": {
          "amenity": "cinema",
          "name": "Mohan Studio"
        }
      },
      {
        "type": "node",
        "id": 9131712733,
        "lat": 19.1051107,
        "lon": 72.8542316,
        "tags": {
          "construction": "stop",
          "name": "Airport Colony Station",
          "public_transport": "stop_position",
          "public_transport:version": "2",
          "railway": "construction"
        }
      },
      {
        "type": "node",
        "id": 10102658120,
        "lat": 19.1063277,
        "lon": 72.8631392,
        "tags": {
          "addr:street": "Om Nagar Road",
          "aeroway": "terminal",
          "name": "transline air cargo servics pvt ltd unit no 17",
          "name:en": "transline air cargo services pvt ltd unit no 17"
        }
      },
      {
        "type": "node",
        "id": 10261228661,
        "lat": 19.0934529,
        "lon": 72.8557692,
        "tags": {
          "amenity": "bus_station",
          "bus": "yes",
          "name": "Domestic Airport Terminal 1",
          "public_transport": "station"
        }
      },
      {
        "type": "node",
        "id": 10767848891,
        "lat": 19.1049951,
        "lon": 72.8863622,
        "tags": {
          "amenity": "fuel",
          "brand": "Indian Oil",
          "brand:wikidata": "Q1289348",
          "name": "Indian Oil"
        }
      },
      {
        "type": "node",
        "id": 11071531772,
        "lat": 19.0850593,
        "lon": 72.8873264,
        "tags": {
          "bus": "yes",
          "name": "Kamani",
          "name:en": "Kamani",
          "public_transport": "stop_position"
        }
      },
      {
        "type": "node",
        "id": 11445747452,
        "lat": 19.0961043,
        "lon": 72.8837812,
        "tags": {
          "amenity": "fuel",
          "brand": "Hindustan Petroleum",
          "brand:wikidata": "Q1619375",
          "name": "HP",
          "official_name": "Hindustan Petroleum"
        }
      },
      {
        "type": "node",
        "id": 11445797934,
        "lat": 19.1044002,
        "lon": 72.8863288,
        "tags": {
          "amenity": "fuel",
          "brand": "Hindustan Petroleum",
          "brand:wikidata": "Q1619375",
          "name": "HP",
          "official_name": "Hindustan Petroleum"
        }
      },
      {
        "type": "node",
        "id": 11451538384,
        "lat": 19.0961553,
        "lon": 72.8838153,
        "tags": {
          "amenity": "fuel",
          "name": "HP"
        }
      },
      {
        "type": "node",
        "id": 11698425211,
        "lat": 19.1125194,
        "lon": 72.8648858,
        "tags": {
          "amenity": "theatre",
          "name": "Carnival Cinemas"
        }
      },
      {
        "type": "node",
        "id": 12070988878,
        "lat": 19.1079313,
        "lon": 72.8809709,
        "tags": {
          "amenity": "fuel",
          "brand": "Bharat Petroleum",
          "brand:wikidata": "Q854826",
          "name": "Bharat Petroleum"
        }
      },
      {
        "type": "node",
        "id": 12074903227,
        "lat": 19.0942324,
        "lon": 72.8540504,
        "tags": {
          "name": "CSMIA Domestic",
          "name:mr": "\u091b.\u0936\u093f.\u092e.\u0906\u0902.\u0935\u093f. \u091f-\u0967",
          "network": "Mumbai Metro",
          "operator": "Mumbai Metro Rail Corporation Ltd",
          "public_transport": "stop_position",
          "railway": "stop",
          "subway": "yes"
        }
      },
      {
        "type": "node",
        "id": 12074903228,
        "lat": 19.0936196,
        "lon": 72.853081,
        "tags": {
          "name": "CSMIA Domestic",
          "name:mr": "\u091b.\u0936\u093f.\u092e.\u0906\u0902.\u0935\u093f. \u091f-\u0967",
          "network": "Mumbai Metro",
          "operator": "Mumbai Metro Rail Corporation Ltd",
          "public_transport": "stop_position",
          "railway": "stop",
          "subway": "yes"
        }
      },
      {
        "type": "node",
        "id": 12074903229,
        "lat": 19.1022615,
        "lon": 72.8656166,
        "tags": {
          "name": "Sahar Road",
          "name:mr": "\u0938\u0939\u093e\u0930 \u0930\u094b\u0921",
          "network": "Mumbai Metro",
          "operator": "Mumbai Metro Rail Corporation Ltd",
          "public_transport": "stop_position",
          "railway": "stop",
          "subway": "yes"
        }
      },
      {
        "type": "node",
        "id": 12074903230,
        "lat": 19.1020562,
        "lon": 72.8647115,
        "tags": {
          "name": "Sahar Road",
          "name:mr": "\u0938\u0939\u093e\u0930 \u0930\u094b\u0921",
          "network": "Mumbai Metro",
          "operator": "Mumbai Metro Rail Corporation Ltd",
          "public_transport": "stop_position",
          "railway": "stop",
          "subway": "yes"
        }
      },
      {
        "type": "node",
        "id": 12074903231,
        "lat": 19.1024452,
        "lon": 72.8752595,
        "tags": {
          "name": "CSMIA International T2",
          "name:mr": "\u091b.\u0936\u093f.\u092e.\u0906\u0902.\u0935\u093f. \u091f-\u0968",
          "network": "Mumbai Metro",
          "operator": "Mumbai Metro Rail Corporation Ltd",
          "public_transport": "stop_position",
          "railway": "stop",
          "subway": "yes"
        }
      },
      {
        "type": "node",
        "id": 12074903232,
        "lat": 19.1021572,
        "lon": 72.8736657,
        "tags": {
          "name": "CSMIA International T2",
          "name:mr": "\u091b.\u0936\u093f.\u092e.\u0906\u0902.\u0935\u093f. \u091f-\u0968",
          "network": "Mumbai Metro",
          "operator": "Mumbai Metro Rail Corporation Ltd",
          "public_transport": "stop_position",
          "railway": "stop",
          "subway": "yes"
        }
      },
      {
        "type": "node",
        "id": 12074903233,
        "lat": 19.1082762,
        "lon": 72.8786939,
        "tags": {
          "name": "Marol Naka (Line 3)",
          "name:mr": "\u092e\u0930\u094b\u0933 \u0928\u093e\u0915\u093e",
          "network": "Mumbai Metro",
          "operator": "Mumbai Metro Rail Corporation Ltd",
          "public_transport": "stop_position",
          "railway": "stop",
          "subway": "yes"
        }
      },
      {
        "type": "node",
        "id": 12074903234,
        "lat": 19.1092629,
        "lon": 72.8784321,
        "tags": {
          "name": "Marol Naka (Line 3)",
          "name:mr": "\u092e\u0930\u094b\u0933 \u0928\u093e\u0915\u093e",
          "network": "Mumbai Metro",
          "operator": "Mumbai Metro Rail Corporation Ltd",
          "public_transport": "stop_position",
          "railway": "stop",
          "subway": "yes"
        }
      },
      {
        "type": "node",
        "id": 12074903235,
        "lat": 19.1174293,
        "lon": 72.873089,
        "tags": {
          "name": "MIDC - Andheri",
          "name:mr": "\u090f\u092e.\u0906\u092f.\u0921\u0940.\u0938\u0940. - \u0905\u0902\u0927\u0947\u0930\u0940",
          "network": "Mumbai Metro",
          "operator": "Mumbai Metro Rail Corporation Ltd",
          "public_transport": "stop_position",
          "railway": "stop",
          "subway": "yes"
        }
      },
      {
        "type": "node",
        "id": 12074903236,
        "lat": 19.1172867,
        "lon": 72.8742053,
        "tags": {
          "name": "MIDC - Andheri",
          "name:mr": "\u090f\u092e.\u0906\u092f.\u0921\u0940.\u0938\u0940. - \u0905\u0902\u0927\u0947\u0930\u0940",
          "network": "Mumbai Metro",
          "operator": "Mumbai Metro Rail Corporation Ltd",
          "public_transport": "stop_position",
          "railway": "stop",
          "subway": "yes"
        }
      },
      {
        "type": "node",
        "id": 12074909131,
        "lat": 19.093899,
        "lon": 72.8535765,
        "tags": {
          "name": "CSMI Airport Domestic T1",
          "name:mr": "\u091b.\u0936\u093f.\u092e.\u0906\u0902.\u0935\u093f. \u091f-\u0967",
          "network": "Mumbai Metro",
          "operator": "Mumbai Metro Rail Corporation Ltd",
          "public_transport": "station",
          "railway": "station",
          "start_date": "2024-10-05",
          "station": "subway",
          "subway": "yes"
        }
      },
      {
        "type": "node",
        "id": 12074909132,
        "lat": 19.102196,
        "lon": 72.8652361,
        "tags": {
          "name": "Sahar Road",
          "name:mr": "\u0938\u0939\u093e\u0930 \u0930\u094b\u0921",
          "network": "Mumbai Metro",
          "operator": "Mumbai Metro Rail Corporation Ltd",
          "public_transport": "station",
          "railway": "station",
          "start_date": "2024-10-05",
          "station": "subway",
          "subway": "yes"
        }
      }
    ]
  }
}