{
  "pois_1km": {
    "version": 0.6,
    "generator": "Overpass API 0.7.62.8 e802775f",
    "osm3s": {
      "timestamp_osm_base": "2025-09-06T07:34:14Z",
      "copyright": "The data included in this document is from www.openstreetmap.org. The data is made available under ODbL."
    },
    "elements": [
      {
        "type": "node",
        "id": 1855812192,
        "lat": 19.1246531,
        "lon": 72.9172844,
        "tags": {
          "amenity": "hospital",
          "emergency": "no",
          "name": "Powai Dental Clinic"
        }
      },
      {
        "type": "node",
        "id": 1855825021,
        "lat": 19.1204539,
        "lon": 72.9263887,
        "tags": {
          "name": "Home Town",
          "shop": "supermarket"
        }
      },
      {
        "type": "node",
        "id": 4406061290,
        "lat": 19.1211552,
        "lon": 72.9172853,
        "tags": {
          "addr:postcode": "40076",
          "addr:street": "Powai Road",
          "amenity": "pharmacy",
          "name:en": "Jhonson Medical",
          "opening_hours": "Mo-Su 10:00-22:30"
        }
      },
      {
        "type": "node",
        "id": 4484203195,
        "lat": 19.1182272,
        "lon": 72.9286681,
        "tags": {
          "amenity": "bank"
        }
      },
      {
        "type": "node",
        "id": 5580528930,
        "lat": 19.1210015,
        "lon": 72.9266646,
        "tags": {
          "name": "Brand Factory Vikhroli",
          "shop": "mall"
        }
      },
      {
        "type": "node",
        "id": 6799616186,
        "lat": 19.1253133,
        "lon": 72.9178937,
        "tags": {
          "addr:postcode": "400076",
          "addr:street": "Apna bazar",
          "amenity": "bank",
          "brand": "ICICI Bank",
          "brand:wikidata": "Q1653258",
          "name": "ICICI Bank",
          "name:en": "ICICI",
          "short_name": "ICICI"
        }
      },
      {
        "type": "node",
        "id": 6801919190,
        "lat": 19.125721,
        "lon": 72.9188897,
        "tags": {
          "amenity": "fast_food",
          "cuisine": "chicken"
        }
      },
      {
        "type": "node",
        "id": 6801919192,
        "lat": 19.1253722,
        "lon": 72.9190861,
        "tags": {
          "amenity": "hospital",
          "name": "Nihal Nursing Home & Opthalmologist"
        }
      },
      {
        "type": "node",
        "id": 6801919196,
        "lat": 19.1257238,
        "lon": 72.9194583,
        "tags": {
          "amenity": "pharmacy",
          "name": "Sagar Medical store"
        }
      },
      {
        "type": "node",
        "id": 6801919204,
        "lat": 19.1269941,
        "lon": 72.9192913,
        "tags": {
          "name": "Pooja Grain store",
          "shop": "supermarket"
        }
      },
      {
        "type": "node",
        "id": 6804290517,
        "lat": 19.1252572,
        "lon": 72.9193423,
        "tags": {
          "amenity": "atm",
          "brand": "Axis Bank",
          "brand:wikidata": "Q2003549",
          "description": "ATM",
          "name": "Axis Bank",
          "operator": "Axis Bank",
          "operator:wikidata": "Q2003549"
        }
      },
      {
        "type": "node",
        "id": 6807538287,
        "lat": 19.1245711,
        "lon": 72.9212664,
        "tags": {
          "name:en": "New Durga Supermarket",
          "shop": "department_store"
        }
      },
      {
        "type": "node",
        "id": 6924349985,
        "lat": 19.1275141,
        "lon": 72.9198111,
        "tags": {
          "addr:postcode": "400076",
          "addr:street": "Hanuman Rd.",
          "amenity": "clinic",
          "name:en": "Healthcare clinic Dr. F. A. Siddiqui"
        }
      },
      {
        "type": "node",
        "id": 7043397404,
        "lat": 19.1254925,
        "lon": 72.9181845,
        "tags": {
          "addr:district": "Mumbai",
          "addr:full": "1st Floor, Paradise,Jain Mandir Road, I.I.T Market, Powai",
          "addr:postcode": "400076",
          "addr:state": "Maharashtra",
          "amenity": "hospital",
          "name": "Sri Sai Eye Care Centre",
          "source": "OpenGovernmentData"
        }
      },
      {
        "type": "node",
        "id": 7048950247,
        "lat": 19.1154687,
        "lon": 72.9306605,
        "tags": {
          "addr:district": "Mumbai",
          "addr:full": "237/3258, Tagore Nagar, Opp: Muncipal Market, Vikroli - East",
          "addr:postcode": "400083",
          "addr:state": "Maharashtra",
          "amenity": "hospital",
          "name": "Modi General Hospital and Iccu",
          "source": "OpenGovernmentData"
        }
      },
      {
        "type": "node",
        "id": 7050603512,
        "lat": 19.1134362,
        "lon": 72.9315296,
        "tags": {
          "addr:district": "Mumbai",
          "addr:full": "210/3042, Near Sangali Sahakari Bank, Tagore Nagar No.1, Vikhroli(E)",
          "addr:postcode": "400083",
          "addr:state": "Maharashtra",
          "amenity": "hospital",
          "name": "Laxmi Health Care Center and Iccu",
          "source": "OpenGovernmentData"
        }
      },
      {
        "type": "node",
        "id": 7062539947,
        "lat": 19.1161551,
        "lon": 72.9306163,
        "tags": {
          "addr:district": "Mumbai",
          "addr:full": "2/252/3369, Tagore Nagar, Vikhroli",
          "addr:postcode": "400089",
          "addr:state": "Maharashtra",
          "amenity": "hospital",
          "name": "Priya Maternity Home",
          "source": "OpenGovernmentData"
        }
      },
      {
        "type": "node",
        "id": 7063805560,
        "lat": 19.1190712,
        "lon": 72.9344156,
        "tags": {
          "addr:district": "Mumbai",
          "addr:full": "139/2447, Group Vii, Tagore Nagar, Vikhroli (E)",
          "addr:postcode": "400083",
          "addr:state": "Maharashtra",
          "amenity": "hospital",
          "name": "Atul - Lok Hospital",
          "source": "OpenGovernmentData"
        }
      },
      {
        "type": "node",
        "id": 7067113547,
        "lat": 19.1163266,
        "lon": 72.9304688,
        "tags": {
          "addr:district": "Mumbai",
          "addr:full": "254/3383, Tagore Nagar, Ganesh Mandir Road, Vikhroli East",
          "addr:postcode": "400083",
          "addr:state": "Maharashtra",
          "amenity": "clinic",
          "name": "Shakuntala Nursing Home",
          "source": "OpenGovernmentData"
        }
      },
      {
        "type": "node",
        "id": 7663961445,
        "lat": 19.116499,
        "lon": 72.931802,
        "tags": {
          "addr:district": "Mumbai Suburban",
          "addr:full": "Seth Govindram Jolly Marg, Group 2, Sona Intp Colony, Tagore Nagar, Vikhroli, Mumbai",
          "addr:postcode": "400083",
          "addr:state": "Maharastra",
          "amenity": "hospital",
          "name": "Ruby Hospital",
          "source": "Local Knowledge"
        }
      },
      {
        "type": "node",
        "id": 11617192265,
        "lat": 19.1245536,
        "lon": 72.9185448,
        "tags": {
          "leisure": "park",
          "name": "sharma park"
        }
      },
      {
        "type": "node",
        "id": 12119816053,
        "lat": 19.1152244,
        "lon": 72.9324519,
        "tags": {
          "amenity": "clinic",
          "healthcare": "clinic",
          "mobile": "+91 9869150923",
          "name": "Tisekar Clinic",
          "operator": "dr.tisekar"
        }
      },
      {
        "type": "node",
        "id": 12397216406,
        "lat": 19.1252592,
        "lon": 72.9231955,
        "tags": {
          "amenity": "atm",
          "brand": "Canara Bank",
          "brand:en": "Canara Bank",
          "brand:hi": "\u0915\u0947\u0928\u0930\u093e \u092c\u0948\u0902\u0915",
          "brand:kn": "\u0c95\u0cc6\u0ca8\u0cb0\u0cbe \u0cac\u0ccd\u0caf\u0cbe\u0c82\u0c95\u0ccd",
          "brand:pa": "\u0a15\u0a47\u0a28\u0a30\u0a3e \u0a2c\u0a48\u0a02\u0a15",
          "brand:pnb": "\u06a9\u06cc\u0646\u0631\u0627 \u0628\u06cc\u0646\u06a9",
          "brand:ur": "\u06a9\u06cc\u0646\u0631\u0627 \u0628\u06cc\u0646\u06a9",
          "brand:wikidata": "Q2003777",
          "name:en": "Canara Bank",
          "name:hi": "\u0915\u0947\u0928\u0930\u093e \u092c\u0948\u0902\u0915",
          "name:kn": "\u0c95\u0cc6\u0ca8\u0cb0\u0cbe \u0cac\u0ccd\u0caf\u0cbe\u0c82\u0c95\u0ccd",
          "name:pa": "\u0a15\u0a47\u0a28\u0a30\u0a3e \u0a2c\u0a48\u0a02\u0a15",
          "name:pnb": "\u06a9\u06cc\u0646\u0631\u0627 \u0628\u06cc\u0646\u06a9",
          "name:ur": "\u06a9\u06cc\u0646\u0631\u0627 \u0628\u06cc\u0646\u06a9",
          "operator": "Canara Bank",
          "operator:wikidata": "Q2003777"
        }
      },
      {
        "type": "node",
        "id": 12397220201,
        "lat": 19.1246597,
        "lon": 72.9185865,
        "tags": {
          "access": "yes",
          "leisure": "playground",
          "operator": "Municipal Corporation Greater Mumbai"
        }
      }
    ]
  },
  "pois_2_5km": {
    "version": 0.6,
    "generator": "Overpass API 0.7.62.8 e802775f",
    "osm3s": {
      "timestamp_osm_base": "2025-09-06T07:34:14Z",
      "copyright": "The data included in this document is from www.openstreetmap.org. The data is made available under ODbL."
    },
    "elements": [
      {
        "type": "node",
        "id": 619992025,
        "lat": 19.1296868,
        "lon": 72.9283701,
        "tags": {
          "internet_access": "no",
          "name": "Kanjur Marg",
          "name:hi": "\u0915\u093e\u0902\u091c\u0941\u0930 \u092e\u093e\u0930\u094d\u0917",
          "name:ml": "\u0d15\u0d3e\u0d1e\u0d4d\u0d1c\u0d42\u0d7c\u0d2e\u0d3e\u0d7c\u0d17\u0d4d",
          "network": "IR",
          "operator": "CR",
          "public_transport": "station",
          "railway": "station",
          "ref": "KJRD",
          "wikidata": "Q6363526",
          "wikipedia": "en:Kanjurmarg railway station"
        }
      },
      {
        "type": "node",
        "id": 620002682,
        "lat": 19.1117831,
        "lon": 72.9281186,
        "tags": {
          "name": "Vikhroli",
          "public_transport": "stop_position",
          "railway": "stop",
          "train": "yes"
        }
      },
      {
        "type": "node",
        "id": 668494241,
        "lat": 19.1319441,
        "lon": 72.9143666,
        "tags": {
          "amenity": "theatre",
          "name": "Convocation Hall"
        }
      },
      {
        "type": "node",
        "id": 668494246,
        "lat": 19.1322817,
        "lon": 72.9158301,
        "tags": {
          "amenity": "theatre",
          "name": "LT-PCSA",
          "name:en": "PC Saxena Auditorium",
          "toilets:wheelchair": "no",
          "wheelchair": "yes"
        }
      },
      {
        "type": "node",
        "id": 1855825020,
        "lat": 19.1051591,
        "lon": 72.9224003,
        "tags": {
          "amenity": "fuel",
          "name": "Godrej Pump"
        }
      },
      {
        "type": "node",
        "id": 3602161437,
        "lat": 19.1103576,
        "lon": 72.9256263,
        "tags": {
          "amenity": "fuel",
          "name": "HP"
        }
      },
      {
        "type": "node",
        "id": 4010213288,
        "lat": 19.1285976,
        "lon": 72.9282208,
        "tags": {
          "name": "Kanjur Marg",
          "public_transport": "stop_position",
          "railway": "stop",
          "train": "yes"
        }
      },
      {
        "type": "node",
        "id": 4258411009,
        "lat": 19.1117623,
        "lon": 72.9283198,
        "tags": {
          "name": "Vikhroli",
          "public_transport": "stop_position",
          "railway": "stop",
          "train": "yes"
        }
      },
      {
        "type": "node",
        "id": 4258411011,
        "lat": 19.1117773,
        "lon": 72.9281555,
        "tags": {
          "name": "Vikhroli",
          "public_transport": "stop_position",
          "railway": "stop",
          "train": "yes"
        }
      },
      {
        "type": "node",
        "id": 4258411016,
        "lat": 19.1117613,
        "lon": 72.9282893,
        "tags": {
          "name": "Vikhroli",
          "public_transport": "stop_position",
          "railway": "stop",
          "train": "yes"
        }
      },
      {
        "type": "node",
        "id": 4258411017,
        "lat": 19.1117516,
        "lon": 72.9284479,
        "tags": {
          "name": "Vikhroli",
          "public_transport": "stop_position",
          "railway": "stop",
          "train": "yes"
        }
      },
      {
        "type": "node",
        "id": 4258411797,
        "lat": 19.1114795,
        "lon": 72.928021,
        "tags": {
          "internet_access": "no",
          "name": "Vikhroli",
          "name:hi": "\u0935\u093f\u0915\u094d\u0930\u094b\u0932\u0940",
          "name:ml": "\u0d35\u0d3f\u0d15\u0d4d\u0d30\u0d4b\u0d33\u0d3f",
          "network": "IR",
          "operator": "CR",
          "public_transport": "station",
          "railway": "station",
          "ref": "VK",
          "wikidata": "Q7929425",
          "wikipedia": "en:Vikhroli railway station"
        }
      },
      {
        "type": "node",
        "id": 4409168289,
        "lat": 19.1242542,
        "lon": 72.9150736,
        "tags": {
          "amenity": "fuel",
          "brand": "Indian Oil",
          "brand:wikidata": "Q1289348",
          "name": "Indian Oil",
          "name:en": "Indian Oil"
        }
      },
      {
        "type": "node",
        "id": 4625570571,
        "lat": 19.1082752,
        "lon": 72.9240782,
        "tags": {
          "bus": "yes",
          "highway": "bus_stop",
          "name": "Asha & Usha Estates",
          "public_transport": "stop_position"
        }
      },
      {
        "type": "node",
        "id": 4625570579,
        "lat": 19.1143057,
        "lon": 72.9261236,
        "tags": {
          "bus": "yes",
          "highway": "bus_stop",
          "name": "Cipla",
          "public_transport": "stop_position"
        }
      },
      {
        "type": "node",
        "id": 4625570581,
        "lat": 19.1321171,
        "lon": 72.9273332,
        "tags": {
          "bus": "yes",
          "highway": "bus_stop",
          "name": "Dockyard kanjurmarg St",
          "public_transport": "stop_position"
        }
      },
      {
        "type": "node",
        "id": 4625570582,
        "lat": 19.1244467,
        "lon": 72.9252165,
        "tags": {
          "bus": "yes",
          "highway": "bus_stop",
          "name": "Gandhi Nagar Vikhroli",
          "public_transport": "stop_position"
        }
      },
      {
        "type": "node",
        "id": 4625570585,
        "lat": 19.1218513,
        "lon": 72.925423,
        "tags": {
          "bus": "yes",
          "highway": "bus_stop",
          "name": "Hindustan Company",
          "public_transport": "stop_position"
        }
      },
      {
        "type": "node",
        "id": 4625570586,
        "lat": 19.1288065,
        "lon": 72.9255023,
        "tags": {
          "bus": "yes",
          "highway": "bus_stop",
          "name": "Huma Talkies",
          "public_transport": "stop_position"
        }
      },
      {
        "type": "node",
        "id": 4625570689,
        "lat": 19.1389677,
        "lon": 72.9307625,
        "tags": {
          "bus": "yes",
          "highway": "bus_stop",
          "name": "Mangatram Petrol Pump",
          "public_transport": "stop_position"
        }
      },
      {
        "type": "node",
        "id": 4625570693,
        "lat": 19.1177519,
        "lon": 72.9259945,
        "tags": {
          "bus": "yes",
          "highway": "bus_stop",
          "name": "Paper Mill",
          "public_transport": "stop_position"
        }
      },
      {
        "type": "node",
        "id": 4644026868,
        "lat": 19.1222459,
        "lon": 72.925463,
        "tags": {
          "bus": "yes",
          "highway": "bus_stop",
          "name": "Hindustan Company",
          "public_transport": "stop_position"
        }
      },
      {
        "type": "node",
        "id": 4644026872,
        "lat": 19.1177514,
        "lon": 72.9261443,
        "tags": {
          "bus": "yes",
          "highway": "bus_stop",
          "name": "Paper Mill",
          "public_transport": "stop_position"
        }
      },
      {
        "type": "node",
        "id": 4644026875,
        "lat": 19.1143102,
        "lon": 72.9262487,
        "tags": {
          "bus": "yes",
          "highway": "bus_stop",
          "name": "Cipla",
          "public_transport": "stop_position"
        }
      },
      {
        "type": "node",
        "id": 4644026881,
        "lat": 19.1083273,
        "lon": 72.9241964,
        "tags": {
          "bus": "yes",
          "highway": "bus_stop",
          "name": "Asha & Usha Estates",
          "public_transport": "stop_position"
        }
      },
      {
        "type": "node",
        "id": 4644026882,
        "lat": 19.104766,
        "lon": 72.9217791,
        "tags": {
          "bus": "yes",
          "highway": "bus_stop",
          "name": "Godrej Company (W)",
          "public_transport": "stop_position"
        }
      },
      {
        "type": "node",
        "id": 4676916067,
        "lat": 19.1292547,
        "lon": 72.9256798,
        "tags": {
          "bus": "yes",
          "highway": "bus_stop",
          "name": "Huma Talkies",
          "public_transport": "stop_position"
        }
      },
      {
        "type": "node",
        "id": 4676916085,
        "lat": 19.1047986,
        "lon": 72.921684,
        "tags": {
          "bus": "yes",
          "highway": "bus_stop",
          "name": "Godrej Company (W)",
          "public_transport": "stop_position"
        }
      },
      {
        "type": "node",
        "id": 4761368325,
        "lat": 19.1396595,
        "lon": 72.9308196,
        "tags": {
          "amenity": "fuel",
          "brand": "Hindustan Petroleum",
          "brand:wikidata": "Q1619375",
          "name": "HP",
          "name:en": "HP",
          "official_name": "Hindustan Petroleum"
        }
      },
      {
        "type": "node",
        "id": 5219519239,
        "lat": 19.1200084,
        "lon": 72.9059687,
        "tags": {
          "construction": "stop",
          "name": "Powai Lake Station",
          "public_transport": "stop_position",
          "railway": "construction",
          "subway": "yes"
        }
      },
      {
        "type": "node",
        "id": 5219519273,
        "lat": 19.1247293,
        "lon": 72.9364698,
        "tags": {
          "construction": "stop",
          "name": "Vikhroli Station",
          "public_transport": "stop_position",
          "railway": "construction",
          "subway": "yes"
        }
      },
      {
        "type": "node",
        "id": 5225899378,
        "lat": 19.1387423,
        "lon": 72.9307744,
        "tags": {
          "construction": "stop",
          "name": "Bhandup Mahapalika Station",
          "public_transport": "stop_position",
          "railway": "construction"
        }
      },
      {
        "type": "node",
        "id": 5225899381,
        "lat": 19.1328874,
        "lon": 72.9277198,
        "tags": {
          "construction": "stop",
          "name": "Naval Housing Station",
          "public_transport": "stop_position",
          "railway": "construction"
        }
      },
      {
        "type": "node",
        "id": 5225899386,
        "lat": 19.1253912,
        "lon": 72.9252519,
        "tags": {
          "construction": "stop",
          "name": "Kanjurmarg Station",
          "public_transport": "stop_position",
          "railway": "construction",
          "subway": "yes"
        }
      },
      {
        "type": "node",
        "id": 5225899391,
        "lat": 19.1176571,
        "lon": 72.9260842,
        "tags": {
          "construction": "stop",
          "name": "Surya Nagar Station",
          "public_transport": "stop_position",
          "railway": "construction"
        }
      },
      {
        "type": "node",
        "id": 5225899397,
        "lat": 19.1090047,
        "lon": 72.9245769,
        "tags": {
          "construction": "stop",
          "name": "Vikhroli Station",
          "public_transport": "stop_position",
          "railway": "construction"
        }
      },
      {
        "type": "node",
        "id": 5225899401,
        "lat": 19.1029081,
        "lon": 72.9203552,
        "tags": {
          "construction": "stop",
          "name": "Godrej Colony Station",
          "public_transport": "stop_position",
          "railway": "construction"
        }
      },
      {
        "type": "node",
        "id": 7817543286,
        "lat": 19.128639,
        "lon": 72.9280951,
        "tags": {
          "name": "Kanjur Marg",
          "public_transport": "stop_position",
          "railway": "stop",
          "train": "yes"
        }
      },
      {
        "type": "node",
        "id": 9132708012,
        "lat": 19.1242338,
        "lon": 72.9137395,
        "tags": {
          "construction": "stop",
          "name": "IIT Powai Station",
          "public_transport": "stop_position",
          "railway": "construction",
          "subway": "yes"
        }
      },
      {
        "type": "node",
        "id": 10276589079,
        "lat": 19.110694,
        "lon": 72.9276887,
        "tags": {
          "amenity": "bus_station",
          "bus": "yes",
          "name": "Vikhroli Station (W)",
          "public_transport": "station"
        }
      },
      {
        "type": "node",
        "id": 11071531760,
        "lat": 19.0995241,
        "lon": 72.9176855,
        "tags": {
          "bus": "yes",
          "public_transport": "stop_position"
        }
      },
      {
        "type": "node",
        "id": 12219587550,
        "lat": 19.1200529,
        "lon": 72.9059473,
        "tags": {
          "construction": "stop",
          "name": "Powai Lake Station",
          "public_transport": "stop_position",
          "railway": "construction",
          "subway": "yes"
        }
      },
      {
        "type": "node",
        "id": 12219587586,
        "lat": 19.1242806,
        "lon": 72.9137252,
        "tags": {
          "construction": "stop",
          "name": "IIT Powai Station",
          "public_transport": "stop_position",
          "railway": "construction",
          "subway": "yes"
        }
      },
      {
        "type": "node",
        "id": 12219587638,
        "lat": 19.1254396,
        "lon": 72.9252587,
        "tags": {
          "construction": "stop",
          "name": "Kanjurmarg Station",
          "public_transport": "stop_position",
          "railway": "construction",
          "subway": "yes"
        }
      },
      {
        "type": "node",
        "id": 12219587647,
        "lat": 19.1247773,
        "lon": 72.9364791,
        "tags": {
          "construction": "stop",
          "name": "Vikhroli Station",
          "public_transport": "stop_position",
          "railway": "construction",
          "subway": "yes"
        }
      },
      {
        "type": "node",
        "id": 12238602996,
        "lat": 19.1387605,
        "lon": 72.9307295,
        "tags": {
          "construction": "stop",
          "name": "Bhandup Mahapalika Station",
          "public_transport": "stop_position",
          "railway": "construction"
        }
      },
      {
        "type": "node",
        "id": 12238603132,
        "lat": 19.1329084,
        "lon": 72.9276763,
        "tags": {
          "construction": "stop",
          "name": "Naval Housing Station",
          "public_transport": "stop_position",
          "railway": "construction"
        }
      },
      {
        "type": "node",
        "id": 12397216405,
        "lat": 19.1249191,
        "lon": 72.9250203,
        "tags": {
          "amenity": "fuel"
        }
      },
      {
        "type": "node",
        "id": 12397216407,
        "lat": 19.1265213,
        "lon": 72.9211956,
        "tags": {
          "amenity": "fuel",
          "brand": "Shell",
          "brand:wikidata": "Q110716465",
          "name": "Shell"
        }
      }
    ]
  }
}