{
  "pois_1km": {
    "version": 0.6,
    "generator": "Overpass API 0.7.62.8 e802775f",
    "osm3s": {
      "timestamp_osm_base": "2025-09-06T07:57:56Z",
      "copyright": "The data included in this document is from www.openstreetmap.org. The data is made available under ODbL."
    },
    "elements": [
      {
        "type": "node",
        "id": 984287758,
        "lat": 19.1546492,
        "lon": 72.8561961,
        "tags": {
          "amenity": "restaurant",
          "name": "Balaji Rest."
        }
      },
      {
        "type": "node",
        "id": 984287770,
        "lat": 19.1546087,
        "lon": 72.856386,
        "tags": {
          "amenity": "fast_food",
          "brand": "McDonald's",
          "brand:pa": "\u0a2e\u0a48\u0a15\u0a21\u0a4b\u0a28\u0a32\u0a21\u2019\u0a1c\u0a3c",
          "brand:ur": "\u0645\u06a9\u0688\u0648\u0646\u0644\u0688\u0632",
          "brand:wikidata": "Q38076",
          "brand:wikipedia": "en:McDonald's",
          "brand:wikipedia:pa": "\u0a2e\u0a48\u0a15\u0a21\u0a4b\u0a28\u0a32\u0a21\u2019\u0a1c\u0a3c",
          "brand:wikipedia:ur": "\u0645\u06a9\u0688\u0648\u0646\u0644\u0688\u0632",
          "cuisine": "burger",
          "drive_through": "yes",
          "name": "McDonald's",
          "name:pa": "\u0a2e\u0a48\u0a15\u0a21\u0a4b\u0a28\u0a32\u0a21\u2019\u0a1c\u0a3c",
          "name:ur": "\u0645\u06a9\u0688\u0648\u0646\u0644\u0688\u0632",
          "takeaway": "yes"
        }
      },
      {
        "type": "node",
        "id": 984980710,
        "lat": 19.1653161,
        "lon": 72.8505568,
        "tags": {
          "amenity": "bank",
          "atm": "yes",
          "brand": "HDFC Bank",
          "brand:wikidata": "Q631047",
          "brand:wikipedia": "en:HDFC Bank",
          "name": "HDFC Bank",
          "short_name": "HDFC",
          "website": "https://www.hdfcbank.com"
        }
      },
      {
        "type": "node",
        "id": 984980713,
        "lat": 19.1652857,
        "lon": 72.85053,
        "tags": {
          "amenity": "atm",
          "brand": "HDFC Bank",
          "brand:wikidata": "Q631047",
          "name": "HDFC Bank",
          "operator": "HDFC Bank",
          "operator:wikidata": "Q631047",
          "short_name": "HDFC"
        }
      },
      {
        "type": "node",
        "id": 984980715,
        "lat": 19.1648094,
        "lon": 72.8502701,
        "tags": {
          "amenity": "restaurant",
          "name": "Sai Veg World"
        }
      },
      {
        "type": "node",
        "id": 1157166465,
        "lat": 19.1668093,
        "lon": 72.8511593,
        "tags": {
          "amenity": "atm",
          "operator": "The Saraswat Bank"
        }
      },
      {
        "type": "node",
        "id": 1157166467,
        "lat": 19.1668344,
        "lon": 72.8511801,
        "tags": {
          "amenity": "bank",
          "atm": "yes",
          "name": "The Saraswat Bank"
        }
      },
      {
        "type": "node",
        "id": 1157169624,
        "lat": 19.1636394,
        "lon": 72.8527984,
        "tags": {
          "amenity": "bank",
          "atm": "yes",
          "brand": "State Bank of India",
          "brand:wikidata": "Q1340361",
          "brand:wikipedia": "en:State Bank of India",
          "name": "State Bank of India",
          "short_name": "SBI",
          "website": "https://www.sbi.co.in"
        }
      },
      {
        "type": "node",
        "id": 1157169630,
        "lat": 19.1640284,
        "lon": 72.8527627,
        "tags": {
          "amenity": "bank",
          "atm": "yes",
          "brand": "IDBI Bank",
          "brand:wikidata": "Q3633485",
          "brand:wikipedia": "en:IDBI Bank",
          "name": "IDBI Bank",
          "name:en": "IDBI Bank",
          "old_name": "Industrial Development Bank of India",
          "short_name": "IDBI",
          "website": "https://www.idbi.com"
        }
      },
      {
        "type": "node",
        "id": 1160824875,
        "lat": 19.1643022,
        "lon": 72.8534237,
        "tags": {
          "leisure": "playground",
          "name": "Gymkhana"
        }
      },
      {
        "type": "node",
        "id": 1160824876,
        "lat": 19.1644308,
        "lon": 72.8532876,
        "tags": {
          "amenity": "bank",
          "atm": "yes",
          "brand": "Bank of Baroda",
          "brand:wikidata": "Q2003797",
          "brand:wikipedia": "en:Bank of Baroda",
          "name": "Bank of Baroda",
          "name:en": "Bank of Baroda",
          "short_name": "BoB",
          "website": "http://www.bankofbaroda.com"
        }
      },
      {
        "type": "node",
        "id": 1168330200,
        "lat": 19.16602,
        "lon": 72.8519069,
        "tags": {
          "amenity": "restaurant",
          "name": "Heritage"
        }
      },
      {
        "type": "node",
        "id": 1169398226,
        "lat": 19.1632134,
        "lon": 72.8512763,
        "tags": {
          "amenity": "bank",
          "atm": "yes",
          "brand": "Axis Bank",
          "brand:wikidata": "Q2003549",
          "brand:wikipedia": "en:Axis Bank",
          "name": "Axis Bank",
          "name:en": "Axis Bank",
          "website": "https://www.axisbank.com"
        }
      },
      {
        "type": "node",
        "id": 1169481187,
        "lat": 19.1633476,
        "lon": 72.8461207,
        "tags": {
          "amenity": "restaurant",
          "name": "Ratna"
        }
      },
      {
        "type": "node",
        "id": 1184178688,
        "lat": 19.1631866,
        "lon": 72.8461076,
        "tags": {
          "amenity": "fast_food",
          "brand": "Domino's",
          "brand:ks": "\u0688\u0648\u0645\u06cc\u0646\u0648\u0632",
          "brand:pa": "\u0a21\u0a4b\u0a2e\u0a40\u0a28\u0a4b\u0a1c\u0a3c",
          "brand:ur": "\u0688\u0648\u0645\u06cc\u0646\u0648\u0632",
          "brand:wikidata": "Q839466",
          "brand:wikipedia": "en:Domino's Pizza",
          "cuisine": "pizza",
          "name": "Domino's",
          "name:ks": "\u0688\u0648\u0645\u06cc\u0646\u0648\u0632",
          "name:pa": "\u0a21\u0a4b\u0a2e\u0a40\u0a28\u0a4b\u0a1c\u0a3c",
          "name:ur": "\u0688\u0648\u0645\u06cc\u0646\u0648\u0632",
          "takeaway": "yes"
        }
      },
      {
        "type": "node",
        "id": 1360134313,
        "lat": 19.1665882,
        "lon": 72.8468381,
        "tags": {
          "amenity": "bank",
          "atm": "yes",
          "brand": "Bank of Maharashtra",
          "brand:wikidata": "Q2004304",
          "brand:wikipedia": "en:Bank of Maharashtra",
          "name": "Bank of Maharashtra",
          "name:en": "Bank of Maharashtra",
          "website": "https://www.bankofmaharashtra.in/"
        }
      },
      {
        "type": "node",
        "id": 2622695385,
        "lat": 19.1623421,
        "lon": 72.8457567,
        "tags": {
          "name": "City Centre Mall",
          "shop": "mall"
        }
      },
      {
        "type": "node",
        "id": 4713077091,
        "lat": 19.1606673,
        "lon": 72.8507723,
        "tags": {
          "addr:street": "Sonawala Road",
          "amenity": "bank",
          "brand": "Indian Bank",
          "brand:wikidata": "Q2003789",
          "name": "Indian Bank",
          "name:en": "Indian bank"
        }
      },
      {
        "type": "node",
        "id": 7042873526,
        "lat": 19.1642129,
        "lon": 72.8456878,
        "tags": {
          "addr:district": "Mumbai",
          "addr:full": "Unnat Nagar 2, Paras, S.V.Road, Goregaon(W)",
          "addr:postcode": "400065",
          "addr:state": "Maharashtra",
          "amenity": "clinic",
          "name": "Dr Baliga Nursing Home",
          "source": "OpenGovernmentData"
        }
      },
      {
        "type": "node",
        "id": 7042873531,
        "lat": 19.1631084,
        "lon": 72.8434806,
        "tags": {
          "addr:district": "Mumbai",
          "addr:full": "Manali Alankar Soc., M.G.Road, Goregaon(W), Opposite Raga Hotel",
          "addr:postcode": "400062",
          "addr:state": "Maharashtra",
          "amenity": "hospital",
          "name": "Kapadia Multi Speciality Hospital",
          "operator:type": "private",
          "source": "OpenGovernmentData",
          "website": "https://www.kapadiahospital.com/"
        }
      },
      {
        "type": "node",
        "id": 7042873541,
        "lat": 19.1568881,
        "lon": 72.8456332,
        "tags": {
          "addr:district": "Mumbai",
          "addr:full": "101-A,Kumud Nagar,Near Samrat Talkies, S.V.Road, Goregaon (West)",
          "addr:postcode": "400104",
          "addr:state": "Maharashtra",
          "amenity": "clinic",
          "name": "Dr. Bamis Fracture and Hand Clinic - Goregaon",
          "source": "OpenGovernmentData"
        }
      },
      {
        "type": "node",
        "id": 7042873546,
        "lat": 19.155501,
        "lon": 72.845498,
        "tags": {
          "addr:district": "Mumbai",
          "addr:full": "Omyx Bldg,S V Road Next To Bses Office Goregaon - West",
          "addr:postcode": "400104",
          "addr:state": "Maharashtra",
          "amenity": "hospital",
          "name": "Pooja Hospital, Mumbai",
          "source": "OpenGovernmentData"
        }
      },
      {
        "type": "node",
        "id": 7049291708,
        "lat": 19.1660129,
        "lon": 72.8507602,
        "tags": {
          "addr:district": "Mumbai",
          "addr:full": "Arihant Above Bhandari Co-Op Bank,Next To Goregaon",
          "addr:postcode": "400068",
          "addr:state": "Maharashtra",
          "amenity": "hospital",
          "name": "Navjeevan Urology and Stone Care Centre",
          "source": "OpenGovernmentData"
        }
      },
      {
        "type": "node",
        "id": 7073537767,
        "lat": 19.1668553,
        "lon": 72.8518874,
        "tags": {
          "addr:district": "Mumbai",
          "addr:full": "Naikwadi, Opposite Heritage Hotel ,Aarey Road,Goregaon (E)",
          "addr:postcode": "400063",
          "addr:state": "Maharashtra",
          "amenity": "hospital",
          "name": "Vishwa Kripa Hospital",
          "source": "OpenGovernmentData"
        }
      },
      {
        "type": "node",
        "id": 7663833079,
        "lat": 19.163103,
        "lon": 72.846337,
        "tags": {
          "addr:district": "Mumbai Suburban",
          "addr:full": "Ashok Raj Building, SV Road, Above Ratan Hotel, Kakaji Nagar, Jawahar Nagar, Goregaon West, Mumbai",
          "addr:postcode": "400062",
          "addr:state": "Maharastra",
          "amenity": "hospital",
          "name": "Singhi Hospital",
          "source": "Local Knowledge"
        }
      },
      {
        "type": "node",
        "id": 7663833091,
        "lat": 19.165029,
        "lon": 72.8509874,
        "tags": {
          "addr:district": "Mumbai Suburban",
          "addr:full": "Kharade Shopping Centre, Near Anupam Theater, Jay Prakash Nagar, Goregaon, Mumbai",
          "addr:postcode": "400063",
          "addr:state": "Maharastra",
          "amenity": "doctors",
          "name": "Dr. Monappa Moolya",
          "source": "Local Knowledge"
        }
      },
      {
        "type": "node",
        "id": 7663833106,
        "lat": 19.1635656,
        "lon": 72.8528709,
        "tags": {
          "addr:district": "Mumbai Suburban",
          "addr:full": "Chaitanya Residency, Road Number 2, Jay Prakash Nagar, Goregaon, Mumbai",
          "addr:postcode": "400063",
          "addr:state": "Maharastra",
          "amenity": "clinic",
          "name": "Pristine Eye Clinic",
          "source": "Local Knowledge"
        }
      },
      {
        "type": "node",
        "id": 7663833107,
        "lat": 19.1660964,
        "lon": 72.850557,
        "tags": {
          "addr:district": "Mumbai Suburban",
          "addr:full": "Gulmohar Apartment, Goregaon East, Opp. Anupam Cinema, Mumbai",
          "addr:postcode": "400063",
          "addr:state": "Maharastra",
          "amenity": "doctors",
          "name": "Dr. Rajiv S Tungare",
          "source": "Local Knowledge"
        }
      },
      {
        "type": "node",
        "id": 7663833108,
        "lat": 19.1660308,
        "lon": 72.8452083,
        "tags": {
          "addr:district": "Mumbai Suburban",
          "addr:full": "Unnat Nagar Road, Number 2, Next to Filmistan Studio, Unnat Nagar, Goregaon West, Mumbai",
          "addr:postcode": "400104",
          "addr:state": "Maharastra",
          "amenity": "clinic",
          "name": "Soham Clinic",
          "source": "Local Knowledge"
        }
      },
      {
        "type": "node",
        "id": 7663833120,
        "lat": 19.1593443,
        "lon": 72.8558169,
        "tags": {
          "addr:district": "Mumbai Suburban",
          "addr:full": "Wall Bhatt Road, ST Yadav Road, Ganesh Nagar, Cama Industrial Estate, Goregaon, Mumbai",
          "addr:postcode": "400063",
          "addr:state": "Maharastra",
          "amenity": "clinic",
          "name": "Krishna Clinic",
          "source": "Local Knowledge"
        }
      },
      {
        "type": "node",
        "id": 7663833134,
        "lat": 19.1671157,
        "lon": 72.8513635,
        "tags": {
          "addr:district": "Mumbai Suburban",
          "addr:full": "Naikwadi Road, Naik Wadi, Churi Wadi, Goregaon, Mumbai",
          "addr:postcode": "400063",
          "addr:state": "Maharastra",
          "amenity": "hospital",
          "name": "Dr. Sabnis Hospital",
          "source": "Local Knowledge"
        }
      },
      {
        "type": "node",
        "id": 7663833151,
        "lat": 19.160433,
        "lon": 72.856244,
        "tags": {
          "addr:district": "Mumbai Suburban",
          "addr:full": "Sonawala Industry Estate, Goregaon, Mumbai",
          "addr:postcode": "400063",
          "addr:state": "Maharastra",
          "amenity": "hospital",
          "name": "Trauma Hospital",
          "source": "Local Knowledge"
        }
      },
      {
        "type": "node",
        "id": 7663833156,
        "lat": 19.1632392,
        "lon": 72.8453083,
        "tags": {
          "addr:district": "Mumbai Suburban",
          "addr:full": "Hirnen Shopping Centre, Mahatma Gandhi Road, Goregaon West, Mumbai",
          "addr:postcode": "400062",
          "addr:state": "Maharastra",
          "amenity": "hospital",
          "name": "Dr. Bhatt's Hospital",
          "source": "Local Knowledge"
        }
      },
      {
        "type": "node",
        "id": 7663833160,
        "lat": 19.1651645,
        "lon": 72.8506206,
        "tags": {
          "addr:district": "Mumbai Suburban",
          "addr:full": "202, Accord Towers, Near Station, Goregaon E, Goregaon, Mumbai",
          "addr:postcode": "400063",
          "addr:state": "Maharastra",
          "amenity": "clinic",
          "name": "Glint Clinic",
          "source": "Local Knowledge"
        }
      },
      {
        "type": "node",
        "id": 7663961460,
        "lat": 19.1589907,
        "lon": 72.8492265,
        "tags": {
          "addr:district": "Mumbai Suburban",
          "addr:full": "Kamal Charan Building, 180, Road Number 2, Jawahar Nagar, Goregaon West, Mumbai",
          "addr:postcode": "400062",
          "addr:state": "Maharastra",
          "amenity": "hospital",
          "name": "SRV Hospital",
          "source": "Local Knowledge"
        }
      },
      {
        "type": "node",
        "id": 7663961461,
        "lat": 19.1566348,
        "lon": 72.8466609,
        "tags": {
          "addr:district": "Mumbai Suburban",
          "addr:full": "Jawahar Nagar, Goregaon West, Mumbai",
          "addr:postcode": "400104",
          "addr:state": "Maharastra",
          "amenity": "hospital",
          "name": "Suvidha Hospital & PolyClinic",
          "source": "Local Knowledge"
        }
      },
      {
        "type": "node",
        "id": 9510034192,
        "lat": 19.1651808,
        "lon": 72.847179,
        "tags": {
          "addr:city": "Mumbai",
          "addr:housenumber": "1245",
          "addr:postcode": "400104",
          "addr:street": "Station Rd.",
          "leisure": "park",
          "name": "B.R. Ambedkar park",
          "opening_hours": "Mo-Su 09:00-21:00",
          "operator": "BMC",
          "smoking": "no"
        }
      },
      {
        "type": "node",
        "id": 10050183817,
        "lat": 19.1602433,
        "lon": 72.8437829,
        "tags": {
          "amenity": "bank",
          "brand": "Indian Bank",
          "brand:wikidata": "Q2003789",
          "name": "Indian Bank",
          "name:en": "Indian Bank"
        }
      },
      {
        "type": "node",
        "id": 12185919108,
        "lat": 19.1640116,
        "lon": 72.8468512,
        "tags": {
          "amenity": "restaurant"
        }
      },
      {
        "type": "node",
        "id": 12415413124,
        "lat": 19.1640544,
        "lon": 72.8468442,
        "tags": {
          "addr:city": "Mumbai",
          "addr:district": "Mumbai Suburban",
          "addr:postcode": "400062",
          "addr:street": "Swami Vivekanand Road",
          "amenity": "cafe",
          "cuisine": "pizza;chinese",
          "name": "Greens Cafe"
        }
      }
    ]
  },
  "pois_2_5km": {
    "version": 0.6,
    "generator": "Overpass API 0.7.62.8 e802775f",
    "osm3s": {
      "timestamp_osm_base": "2025-09-06T07:57:56Z",
      "copyright": "The data included in this document is from www.openstreetmap.org. The data is made available under ODbL."
    },
    "elements": [
      {
        "type": "node",
        "id": 213030694,
        "lat": 19.1648571,
        "lon": 72.8494067,
        "tags": {
          "name": "Goregaon",
          "public_transport": "stop_position",
          "railway": "stop",
          "ref": "3",
          "train": "yes"
        }
      },
      {
        "type": "node",
        "id": 984287752,
        "lat": 19.1549228,
        "lon": 72.8562728,
        "tags": {
          "amenity": "cinema",
          "name": "Movietime Hub",
          "name:en": "Movietime Hub"
        }
      },
      {
        "type": "node",
        "id": 985121048,
        "lat": 19.1655121,
        "lon": 72.8512018,
        "tags": {
          "amenity": "theatre",
          "construction": "yes",
          "name": "Anupam"
        }
      },
      {
        "type": "node",
        "id": 1169476028,
        "lat": 19.1661306,
        "lon": 72.8458433,
        "tags": {
          "amenity": "fuel",
          "brand": "Bharat Petroleum",
          "brand:wikidata": "Q854826",
          "name": "Bharat Petroleum"
        }
      },
      {
        "type": "node",
        "id": 3347034961,
        "lat": 19.1648688,
        "lon": 72.8495492,
        "tags": {
          "internet_access": "no",
          "name": "Goregaon",
          "name:mr": "\u0917\u094b\u0930\u0947\u0917\u093e\u0935",
          "network": "Mumbai Suburban Railway",
          "network:wikidata": "Q3273422",
          "operator": "WR",
          "public_transport": "station",
          "railway": "station",
          "ref": "GMN",
          "train": "yes",
          "wikidata": "Q5586150",
          "wikipedia": "en:Goregaon railway station"
        }
      },
      {
        "type": "node",
        "id": 5219622339,
        "lat": 19.1731074,
        "lon": 72.836453,
        "tags": {
          "alt_name": "Kasturi Park",
          "name": "Lower Malad",
          "name:mr": "\u0932\u094b\u0905\u0930 \u092e\u093e\u0932\u093e\u0921",
          "name:ru": "\u041b\u043e\u0443\u044d\u0440-\u041c\u0430\u043b\u0430\u0434",
          "public_transport": "stop_position",
          "railway": "stop",
          "subway": "yes"
        }
      },
      {
        "type": "node",
        "id": 5219622868,
        "lat": 19.1460554,
        "lon": 72.8339507,
        "tags": {
          "name": "Oshiwara",
          "name:mr": "\u0913\u0936\u093f\u0935\u093e\u0930\u093e",
          "name:ru": "\u041e\u0448\u0438\u0432\u0430\u0440\u0430",
          "public_transport": "stop_position",
          "railway": "stop",
          "subway": "yes"
        }
      },
      {
        "type": "node",
        "id": 5219622877,
        "lat": 19.1530229,
        "lon": 72.8356937,
        "tags": {
          "name": "Goregaon (West)",
          "name:mr": "\u0917\u094b\u0930\u0947\u0917\u093e\u0935 (\u092a\u0936\u094d\u091a\u093f\u092e)",
          "name:ru": "\u0413\u043e\u0440\u0435\u0433\u0430\u043e\u043d-\u0423\u044d\u0441\u0442",
          "public_transport": "stop_position",
          "railway": "stop",
          "subway": "yes"
        }
      },
      {
        "type": "node",
        "id": 5220954738,
        "lat": 19.1797568,
        "lon": 72.8583213,
        "tags": {
          "name": "Dindoshi",
          "name:mr": "\u0926\u093f\u0902\u0921\u094b\u0936\u0940",
          "name:ru": "\u0414\u0438\u043d\u0434\u043e\u0448\u0438",
          "network": "Mumbai Metro",
          "operator": "MMRDA",
          "public_transport": "stop_position",
          "public_transport:version": "2",
          "railway": "stop",
          "subway": "yes"
        }
      },
      {
        "type": "node",
        "id": 5220954741,
        "lat": 19.1695334,
        "lon": 72.8588365,
        "tags": {
          "name": "Aarey",
          "name:mr": "\u0906\u0930\u0947 \u0930\u094b\u0921 \u091c\u0902\u0915\u094d\u0936\u0928",
          "name:ru": "\u0410\u0430\u0440\u0435\u0439",
          "network": "Mumbai Metro",
          "operator": "MMRDA",
          "public_transport": "stop_position",
          "public_transport:version": "2",
          "railway": "stop",
          "subway": "yes"
        }
      },
      {
        "type": "node",
        "id": 5220954742,
        "lat": 19.1524116,
        "lon": 72.8566221,
        "tags": {
          "name": "Goregaon (East)",
          "name:mr": "\u0917\u094b\u0930\u0947\u0917\u093e\u0935 (\u092a\u0942\u0930\u094d\u0935)",
          "name:ru": "\u0413\u043e\u0440\u0435\u0433\u0430\u043e\u043d-\u0418\u0441\u0442",
          "public_transport": "stop_position",
          "railway": "stop",
          "subway": "yes"
        }
      },
      {
        "type": "node",
        "id": 5220954743,
        "lat": 19.1429335,
        "lon": 72.8552066,
        "tags": {
          "name": "Jogeshwari (East)",
          "name:mr": "\u091c\u094b\u0917\u0947\u0936\u094d\u0935\u0930\u0940 (\u092a\u0942\u0930\u094d\u0935)",
          "name:ru": "\u0414\u0436\u043e\u0433\u0435\u0448\u0432\u0430\u0440\u0438-\u0418\u0441\u0442",
          "public_transport": "stop_position",
          "railway": "stop",
          "subway": "yes"
        }
      },
      {
        "type": "node",
        "id": 5777542631,
        "lat": 19.1460157,
        "lon": 72.8339547,
        "tags": {
          "name": "Oshiwara",
          "name:mr": "\u0913\u0936\u093f\u0935\u093e\u0930\u093e",
          "name:ru": "\u041e\u0448\u0438\u0432\u0430\u0440\u0430",
          "public_transport": "stop_position",
          "railway": "stop",
          "subway": "yes"
        }
      },
      {
        "type": "node",
        "id": 5777542640,
        "lat": 19.1530287,
        "lon": 72.8357355,
        "tags": {
          "name": "Goregaon (West)",
          "name:mr": "\u0917\u094b\u0930\u0947\u0917\u093e\u0935 (\u092a\u0936\u094d\u091a\u093f\u092e)",
          "name:ru": "\u0413\u043e\u0440\u0435\u0433\u0430\u043e\u043d-\u0423\u044d\u0441\u0442",
          "public_transport": "stop_position",
          "railway": "stop",
          "subway": "yes"
        }
      },
      {
        "type": "node",
        "id": 5777542659,
        "lat": 19.1730936,
        "lon": 72.8364927,
        "tags": {
          "alt_name": "Kasturi Park",
          "name": "Lower Malad",
          "name:mr": "\u0932\u094b\u0905\u0930 \u092e\u093e\u0932\u093e\u0921",
          "name:ru": "\u041b\u043e\u0443\u044d\u0440-\u041c\u0430\u043b\u0430\u0434",
          "public_transport": "stop_position",
          "railway": "stop",
          "subway": "yes"
        }
      },
      {
        "type": "node",
        "id": 5909533857,
        "lat": 19.151023,
        "lon": 72.8501467,
        "tags": {
          "internet_access": "no",
          "name": "Ram Mandir",
          "name:hi": "\u0930\u093e\u092e \u092e\u0902\u0926\u093f\u0930",
          "name:mr": "\u0930\u093e\u092e \u092e\u0902\u0926\u093f\u0930",
          "network": "Mumbai Suburban Railway",
          "network:wikidata": "Q3273422",
          "operator": "WR",
          "public_transport": "station",
          "railway": "station",
          "ref": "RMAR",
          "train": "yes",
          "wikidata": "Q18129030",
          "wikipedia": "en:Ram Mandir railway station"
        }
      },
      {
        "type": "node",
        "id": 7817951291,
        "lat": 19.1648661,
        "lon": 72.8496929,
        "tags": {
          "name": "Goregaon",
          "public_transport": "stop_position",
          "railway": "stop",
          "ref": "6",
          "train": "yes"
        }
      },
      {
        "type": "node",
        "id": 7817951292,
        "lat": 19.1648668,
        "lon": 72.8496487,
        "tags": {
          "name": "Goregaon",
          "public_transport": "stop_position",
          "railway": "stop",
          "ref": "5",
          "train": "yes"
        }
      },
      {
        "type": "node",
        "id": 7817951293,
        "lat": 19.1648578,
        "lon": 72.8494518,
        "tags": {
          "name": "Goregaon",
          "public_transport": "stop_position",
          "railway": "stop",
          "ref": "4",
          "train": "yes"
        }
      },
      {
        "type": "node",
        "id": 7817951294,
        "lat": 19.1648617,
        "lon": 72.8492877,
        "tags": {
          "name": "Goregaon",
          "public_transport": "stop_position",
          "railway": "stop",
          "ref": "2",
          "train": "yes"
        }
      },
      {
        "type": "node",
        "id": 7817991345,
        "lat": 19.151382,
        "lon": 72.850086,
        "tags": {
          "name": "Ram Mandir",
          "public_transport": "stop_position",
          "railway": "stop",
          "ref": "3",
          "train": "yes"
        }
      },
      {
        "type": "node",
        "id": 7817991346,
        "lat": 19.1513815,
        "lon": 72.8500404,
        "tags": {
          "name": "Ram Mandir",
          "public_transport": "stop_position",
          "railway": "stop",
          "ref": "2",
          "train": "yes"
        }
      },
      {
        "type": "node",
        "id": 7817991347,
        "lat": 19.151369,
        "lon": 72.8498795,
        "tags": {
          "name": "Ram Mandir",
          "public_transport": "stop_position",
          "railway": "stop",
          "ref": "1",
          "train": "yes"
        }
      },
      {
        "type": "node",
        "id": 7817991348,
        "lat": 19.151392,
        "lon": 72.8502254,
        "tags": {
          "name": "Ram Mandir",
          "public_transport": "stop_position",
          "railway": "stop",
          "ref": "4",
          "train": "yes"
        }
      },
      {
        "type": "node",
        "id": 9120487882,
        "lat": 19.1490275,
        "lon": 72.839974,
        "tags": {
          "amenity": "fuel",
          "brand": "Mahanagar Gas",
          "fuel:cng": "yes",
          "name": "SK CNG Gas Station"
        }
      },
      {
        "type": "node",
        "id": 9132708002,
        "lat": 19.139783,
        "lon": 72.8459649,
        "tags": {
          "construction": "stop",
          "name": "Momin Nagar Station",
          "public_transport": "stop_position",
          "railway": "construction",
          "subway": "yes"
        }
      },
      {
        "type": "node",
        "id": 9132708009,
        "lat": 19.1405068,
        "lon": 72.8540075,
        "tags": {
          "construction": "stop",
          "name": "JVLR Station",
          "public_transport": "stop_position",
          "railway": "construction",
          "subway": "yes"
        }
      },
      {
        "type": "node",
        "id": 9156468960,
        "lat": 19.1648593,
        "lon": 72.8492418,
        "tags": {
          "name": "Goregaon",
          "public_transport": "stop_position",
          "railway": "stop",
          "ref": "1",
          "train": "yes"
        }
      },
      {
        "type": "node",
        "id": 9629564097,
        "lat": 19.1693242,
        "lon": 72.8587918,
        "tags": {
          "name": "Aarey",
          "name:mr": "\u0906\u0930\u0947 \u0930\u094b\u0921 \u091c\u0902\u0915\u094d\u0936\u0928",
          "public_transport": "station",
          "railway": "station",
          "station": "subway",
          "subway": "yes",
          "wheelchair": "limited",
          "wikidata": "Q116271881"
        }
      },
      {
        "type": "node",
        "id": 9629564098,
        "lat": 19.1797579,
        "lon": 72.8582976,
        "tags": {
          "name": "Dindoshi",
          "name:mr": "\u0926\u093f\u0902\u0921\u094b\u0936\u0940",
          "public_transport": "station",
          "railway": "station",
          "station": "subway",
          "subway": "yes"
        }
      },
      {
        "type": "node",
        "id": 9630758744,
        "lat": 19.1797562,
        "lon": 72.8582737,
        "tags": {
          "name": "Dindoshi",
          "name:mr": "\u0926\u093f\u0902\u0921\u094b\u0936\u0940",
          "name:ru": "\u0414\u0438\u043d\u0434\u043e\u0448\u0438",
          "network": "Mumbai Metro",
          "operator": "MMRDA",
          "public_transport": "stop_position",
          "public_transport:version": "2",
          "railway": "stop",
          "subway": "yes"
        }
      },
      {
        "type": "node",
        "id": 9630758755,
        "lat": 19.1695389,
        "lon": 72.8587902,
        "tags": {
          "name": "Aarey",
          "name:mr": "\u0906\u0930\u0947 \u0930\u094b\u0921 \u091c\u0902\u0915\u094d\u0936\u0928",
          "name:ru": "\u0410\u0430\u0440\u0435\u0439",
          "network": "Mumbai Metro",
          "operator": "MMRDA",
          "public_transport": "stop_position",
          "public_transport:version": "2",
          "railway": "stop",
          "subway": "yes"
        }
      },
      {
        "type": "node",
        "id": 10553764693,
        "lat": 19.1597944,
        "lon": 72.858293,
        "tags": {
          "amenity": "charging_station",
          "brand": "Tata power",
          "charge": "\u20b921/kWh + GST",
          "covered": "no",
          "fee": "yes",
          "manufacturer": "Delta",
          "note": "25kW"
        }
      },
      {
        "type": "node",
        "id": 10576622721,
        "lat": 19.1429455,
        "lon": 72.855185,
        "tags": {
          "name": "Jogeshwari (East)",
          "name:mr": "\u091c\u094b\u0917\u0947\u0936\u094d\u0935\u0930\u0940 (\u092a\u0942\u0930\u094d\u0935)",
          "public_transport": "station",
          "railway": "station",
          "station": "subway",
          "subway": "yes"
        }
      },
      {
        "type": "node",
        "id": 10576622722,
        "lat": 19.1524492,
        "lon": 72.8565966,
        "tags": {
          "name": "Goregaon (East)",
          "name:mr": "\u0917\u094b\u0930\u0947\u0917\u093e\u0935 (\u092a\u0942\u0930\u094d\u0935)",
          "public_transport": "station",
          "railway": "station",
          "station": "subway",
          "subway": "yes"
        }
      },
      {
        "type": "node",
        "id": 10576622726,
        "lat": 19.1524194,
        "lon": 72.8565586,
        "tags": {
          "name": "Goregaon (East)",
          "name:mr": "\u0917\u094b\u0930\u0947\u0917\u093e\u0935 (\u092a\u0942\u0930\u094d\u0935)",
          "name:ru": "\u0413\u043e\u0440\u0435\u0433\u0430\u043e\u043d-\u0418\u0441\u0442",
          "public_transport": "stop_position",
          "railway": "stop",
          "subway": "yes"
        }
      },
      {
        "type": "node",
        "id": 10576622731,
        "lat": 19.1429467,
        "lon": 72.8551559,
        "tags": {
          "name": "Jogeshwari (East)",
          "name:mr": "\u091c\u094b\u0917\u0947\u0936\u094d\u0935\u0930\u0940 (\u092a\u0942\u0930\u094d\u0935)",
          "name:ru": "\u0414\u0436\u043e\u0433\u0435\u0448\u0432\u0430\u0440\u0438-\u0418\u0441\u0442",
          "public_transport": "stop_position",
          "railway": "stop",
          "subway": "yes"
        }
      },
      {
        "type": "node",
        "id": 10576726756,
        "lat": 19.1460351,
        "lon": 72.833952,
        "tags": {
          "name": "Oshiwara",
          "name:mr": "\u0913\u0936\u093f\u0935\u093e\u0930\u093e",
          "public_transport": "station",
          "railway": "station",
          "station": "subway",
          "subway": "yes"
        }
      },
      {
        "type": "node",
        "id": 10576726757,
        "lat": 19.1530241,
        "lon": 72.8356664,
        "tags": {
          "name": "Goregaon (West)",
          "name:mr": "\u0917\u094b\u0930\u0947\u0917\u093e\u0935 (\u092a\u0936\u094d\u091a\u093f\u092e)",
          "public_transport": "station",
          "railway": "station",
          "station": "subway",
          "subway": "yes"
        }
      },
      {
        "type": "node",
        "id": 10576726758,
        "lat": 19.162872,
        "lon": 72.8348362,
        "tags": {
          "alt_name": "Pahadi Goregaon",
          "alt_name:mr": "\u092a\u0939\u093e\u0921\u0940 \u0917\u094b\u0930\u0947\u0917\u093e\u0935",
          "name": "Bangur Nagar",
          "name:mr": "\u092c\u093e\u0902\u0917\u0941\u0930 \u0928\u0917\u0930",
          "name:ru": "\u0411\u0430\u043d\u0433\u0443\u0440 \u041d\u0430\u0433\u0430\u0440",
          "public_transport": "stop_position",
          "railway": "stop",
          "subway": "yes"
        }
      },
      {
        "type": "node",
        "id": 10576726761,
        "lat": 19.1730984,
        "lon": 72.8364801,
        "tags": {
          "name": "Lower Malad",
          "name:mr": "\u0932\u094b\u0905\u0930 \u092e\u093e\u0932\u093e\u0921",
          "public_transport": "station",
          "railway": "station",
          "station": "subway",
          "subway": "yes",
          "wikidata": "Q116188743"
        }
      },
      {
        "type": "node",
        "id": 10879528557,
        "lat": 19.1411522,
        "lon": 72.8494398,
        "tags": {
          "name": "Jogeshwari (Harbour Line)",
          "public_transport": "stop_position",
          "railway": "stop",
          "ref": "2",
          "train": "yes"
        }
      },
      {
        "type": "node",
        "id": 10879528558,
        "lat": 19.1411552,
        "lon": 72.8494019,
        "tags": {
          "name": "Jogeshwari (Harbour Line)",
          "public_transport": "stop_position",
          "railway": "stop",
          "ref": "1",
          "train": "yes"
        }
      },
      {
        "type": "node",
        "id": 11915100519,
        "lat": 19.1754346,
        "lon": 72.8662359,
        "tags": {
          "addr:postcode": "400063",
          "amenity": "fuel",
          "brand": "Indian Oil",
          "brand:wikidata": "Q1289348",
          "name": "Indian Oil Petrol Pump",
          "self_service": "no"
        }
      },
      {
        "type": "node",
        "id": 12189351698,
        "lat": 19.1411537,
        "lon": 72.8494209,
        "tags": {
          "name": "Jogeshwari (Harbour Line)",
          "name:mr": "\u091c\u094b\u0917\u0947\u0936\u094d\u200d\u0935\u0930\u0940",
          "network": "Indian Railways",
          "operator": "Western Railway",
          "public_transport": "station",
          "railway": "station",
          "ref": "JOS",
          "train": "yes"
        }
      },
      {
        "type": "node",
        "id": 12196197980,
        "lat": 19.1624723,
        "lon": 72.8348708,
        "tags": {
          "alt_name": "Pahadi Goregaon",
          "alt_name:mr": "\u092a\u0939\u093e\u0921\u0940 \u0917\u094b\u0930\u0947\u0917\u093e\u0935",
          "name": "Bangur Nagar",
          "name:mr": "\u092c\u093e\u0902\u0917\u0941\u0930 \u0928\u0917\u0930",
          "public_transport": "station",
          "railway": "station",
          "station": "subway",
          "subway": "yes"
        }
      },
      {
        "type": "node",
        "id": 12196197981,
        "lat": 19.1617464,
        "lon": 72.8348882,
        "tags": {
          "alt_name": "Pahadi Goregaon",
          "alt_name:mr": "\u092a\u0939\u093e\u0921\u0940 \u0917\u094b\u0930\u0947\u0917\u093e\u0935",
          "name": "Bangur Nagar",
          "name:mr": "\u092c\u093e\u0902\u0917\u0941\u0930 \u0928\u0917\u0930",
          "name:ru": "\u0411\u0430\u043d\u0433\u0443\u0440 \u041d\u0430\u0433\u0430\u0440",
          "public_transport": "stop_position",
          "railway": "stop",
          "subway": "yes"
        }
      },
      {
        "type": "node",
        "id": 12219587411,
        "lat": 19.1398313,
        "lon": 72.8459716,
        "tags": {
          "construction": "stop",
          "name": "Momin Nagar Station",
          "public_transport": "stop_position",
          "railway": "construction",
          "subway": "yes"
        }
      },
      {
        "type": "node",
        "id": 12219587427,
        "lat": 19.1405541,
        "lon": 72.8539952,
        "tags": {
          "construction": "stop",
          "name": "JVLR Station",
          "public_transport": "stop_position",
          "railway": "construction",
          "subway": "yes"
        }
      }
    ]
  }
}