{
  "pois_1km": {
    "version": 0.6,
    "generator": "Overpass API 0.7.62.8 e802775f",
    "osm3s": {
      "timestamp_osm_base": "2025-09-06T07:54:46Z",
      "copyright": "The data included in this document is from www.openstreetmap.org. The data is made available under ODbL."
    },
    "elements": [
      {
        "type": "node",
        "id": 1501518125,
        "lat": 19.0714915,
        "lon": 72.8343432,
        "tags": {
          "amenity": "bank",
          "atm": "yes",
          "brand": "Citibank",
          "brand:wikidata": "Q857063",
          "brand:wikipedia": "en:Citibank",
          "name": "Citibank",
          "short_name": "Citi"
        }
      },
      {
        "type": "node",
        "id": 1501518140,
        "lat": 19.0760494,
        "lon": 72.8344693,
        "tags": {
          "amenity": "atm",
          "brand": "HSBC",
          "brand:wikidata": "Q190464",
          "operator": "HSBC",
          "operator:wikidata": "Q190464"
        }
      },
      {
        "type": "node",
        "id": 1501518150,
        "lat": 19.0758592,
        "lon": 72.8344746,
        "tags": {
          "addr:postcode": "400054",
          "addr:street": "Linking Road",
          "amenity": "bank",
          "atm": "yes",
          "brand": "ICICI Bank",
          "brand:wikidata": "Q1653258",
          "name": "ICICI Bank",
          "name:en": "ICICI Bank",
          "short_name": "ICICI",
          "website": "https://www.icicibank.com"
        }
      },
      {
        "type": "node",
        "id": 1501518157,
        "lat": 19.0752179,
        "lon": 72.8337907,
        "tags": {
          "addr:postcode": "400052",
          "amenity": "bank",
          "atm": "yes",
          "brand": "IDBI Bank",
          "brand:wikidata": "Q3633485",
          "brand:wikipedia": "en:IDBI Bank",
          "name": "IDBI Bank",
          "name:en": "IDBI Bank",
          "old_name": "Industrial Development Bank of India",
          "short_name": "IDBI",
          "website": "https://www.idbi.com"
        }
      },
      {
        "type": "node",
        "id": 2680353849,
        "lat": 19.0708008,
        "lon": 72.8342617,
        "tags": {
          "amenity": "bank",
          "atm": "yes",
          "brand": "Axis Bank",
          "brand:wikidata": "Q2003549",
          "brand:wikipedia": "en:Axis Bank",
          "name": "Axis Bank",
          "name:en": "Axis Bank",
          "website": "https://www.axisbank.com"
        }
      },
      {
        "type": "node",
        "id": 3195574836,
        "lat": 19.0716568,
        "lon": 72.8341148,
        "tags": {
          "amenity": "bank",
          "brand": "Citibank",
          "brand:wikidata": "Q857063",
          "brand:wikipedia": "en:Citibank",
          "name": "Citibank",
          "short_name": "Citi"
        }
      },
      {
        "type": "node",
        "id": 3257870640,
        "lat": 19.0691603,
        "lon": 72.8394827,
        "tags": {
          "amenity": "restaurant",
          "diet:vegetarian": "yes",
          "name": "Vrindavan"
        }
      },
      {
        "type": "node",
        "id": 3606640948,
        "lat": 19.0712279,
        "lon": 72.8338775,
        "tags": {
          "amenity": "restaurant",
          "name": "Me So Happy"
        }
      },
      {
        "type": "node",
        "id": 4286109595,
        "lat": 19.0655802,
        "lon": 72.8337567,
        "tags": {
          "amenity": "restaurant",
          "name": "Bonobo"
        }
      },
      {
        "type": "node",
        "id": 4310383168,
        "lat": 19.065807,
        "lon": 72.8344297,
        "tags": {
          "addr:city": "Mumbai",
          "addr:postcode": "400050",
          "addr:street": "Linking Road",
          "amenity": "fast_food",
          "brand": "McDonald's",
          "brand:pa": "\u0a2e\u0a48\u0a15\u0a21\u0a4b\u0a28\u0a32\u0a21\u2019\u0a1c\u0a3c",
          "brand:ur": "\u0645\u06a9\u0688\u0648\u0646\u0644\u0688\u0632",
          "brand:wikidata": "Q38076",
          "brand:wikipedia": "en:McDonald's",
          "brand:wikipedia:pa": "\u0a2e\u0a48\u0a15\u0a21\u0a4b\u0a28\u0a32\u0a21\u2019\u0a1c\u0a3c",
          "brand:wikipedia:ur": "\u0645\u06a9\u0688\u0648\u0646\u0644\u0688\u0632",
          "cuisine": "burger",
          "drive_through": "no",
          "name": "McDonald's",
          "name:pa": "\u0a2e\u0a48\u0a15\u0a21\u0a4b\u0a28\u0a32\u0a21\u2019\u0a1c\u0a3c",
          "name:ur": "\u0645\u06a9\u0688\u0648\u0646\u0644\u0688\u0632",
          "takeaway": "yes"
        }
      },
      {
        "type": "node",
        "id": 4352387478,
        "lat": 19.0750197,
        "lon": 72.8356392,
        "tags": {
          "addr:city": "Santa Cruz",
          "addr:district": "Mumbai",
          "addr:full": "12Th Road, Khar",
          "addr:postcode": "400052",
          "addr:state": "Maharashtra",
          "addr:street": "South Avenue",
          "amenity": "hospital",
          "check_date": "2025-06-12",
          "healthcare": "hospital",
          "name": "Ramakrishna Mission Hospital, Mumbai",
          "source": "OpenGovernmentData"
        }
      },
      {
        "type": "node",
        "id": 4713460904,
        "lat": 19.0635353,
        "lon": 72.8350079,
        "tags": {
          "addr:city": "Bandra, Mumbai",
          "amenity": "fast_food",
          "brand": "Burger King",
          "brand:pa": "\u0a2c\u0a30\u0a17\u0a30 \u0a15\u0a3f\u0a70\u0a17",
          "brand:ur": "\u0628\u0631\u06af\u0631 \u06a9\u0646\u06af",
          "brand:wikidata": "Q177054",
          "brand:wikipedia": "en:Burger King",
          "brand:wikipedia:pa": "\u0a2c\u0a30\u0a17\u0a30 \u0a15\u0a3f\u0a70\u0a17",
          "brand:wikipedia:ur": "\u0628\u0631\u06af\u0631 \u06a9\u0646\u06af",
          "cuisine": "burger",
          "drive_through": "no",
          "name": "Burger King",
          "name:pa": "\u0a2c\u0a30\u0a17\u0a30 \u0a15\u0a3f\u0a70\u0a17",
          "name:ru": "\u0411\u0443\u0440\u0433\u0435\u0440 \u041a\u0438\u043d\u0433",
          "name:ur": "\u0628\u0631\u06af\u0631 \u06a9\u0646\u06af",
          "opening_hours": "Mo-Su 07:00-04:00",
          "operator": "Burger King",
          "outdoor_seating": "no",
          "smoking": "no",
          "takeaway": "yes"
        }
      },
      {
        "type": "node",
        "id": 5185427021,
        "lat": 19.0681994,
        "lon": 72.8334568,
        "tags": {
          "addr:housenumber": "400050",
          "addr:street": "Maharashtra",
          "amenity": "bank",
          "name:en": "Punjab bank"
        }
      },
      {
        "type": "node",
        "id": 5221726506,
        "lat": 19.0642496,
        "lon": 72.8346675,
        "tags": {
          "amenity": "restaurant",
          "name": "Jai Jawan",
          "name:en": "Jai Jawan",
          "phone": "+91 22 6559 2112",
          "website": "https://jaijawanfoods.com/"
        }
      },
      {
        "type": "node",
        "id": 5291105323,
        "lat": 19.0724588,
        "lon": 72.8372917,
        "tags": {
          "amenity": "bank",
          "name:en": "Deutsche Bank Mumbai"
        }
      },
      {
        "type": "node",
        "id": 6124434685,
        "lat": 19.0723694,
        "lon": 72.8374764,
        "tags": {
          "amenity": "fast_food",
          "cuisine": "sandwich",
          "name:en": "Shankar Bhel Sandwiches"
        }
      },
      {
        "type": "node",
        "id": 7043348148,
        "lat": 19.0797908,
        "lon": 72.8427047,
        "tags": {
          "addr:district": "Mumbai",
          "addr:full": "Shri Sadashiv Chs, 6Th Road, Santacruz(E)",
          "addr:postcode": "400055",
          "addr:state": "Maharashtra",
          "amenity": "hospital",
          "healthcare": "hospital",
          "name": "Nandan Maternity and Surgical Home",
          "source": "OpenGovernmentData"
        }
      },
      {
        "type": "node",
        "id": 7043376493,
        "lat": 19.0784905,
        "lon": 72.8380749,
        "tags": {
          "addr:district": "Mumbai",
          "addr:full": "101, Kirti Manor, S V Road, Phiroz Dastoor & Sons, Santacruz West",
          "addr:postcode": "400054",
          "addr:state": "Maharashtra",
          "amenity": "hospital",
          "healthcare": "hospital",
          "name": "Mumbai Retina Centre",
          "source": "OpenGovernmentData"
        }
      },
      {
        "type": "node",
        "id": 7043693016,
        "lat": 19.0767278,
        "lon": 72.8437643,
        "tags": {
          "addr:district": "Mumbai",
          "addr:full": "Gomes Houseing Co-Opreative Society Ltd., Ground Floor Tps3 4Th Road, Santacruz (East)",
          "addr:postcode": "400055",
          "addr:state": "Maharashtra",
          "amenity": "clinic",
          "name": "Prerana Nursing Home",
          "source": "OpenGovernmentData"
        }
      },
      {
        "type": "node",
        "id": 7045255055,
        "lat": 19.0739299,
        "lon": 72.832831,
        "tags": {
          "addr:district": "Mumbai",
          "addr:full": "Pujya Shri Kanshiram Jain Smarak, Ahimsa Bhavan, Ahimsa Marg, 14th A Road, Khar (West)",
          "addr:postcode": "400052",
          "addr:state": "Maharashtra",
          "amenity": "clinic",
          "contact:phone": "2226040676",
          "email": "info@mmrchospital.com",
          "healthcare": "hospital",
          "name": "Mahavir Medical Research Centre",
          "operator:type": "private",
          "source": "OpenGovernmentData",
          "website": "https://www.mmrchospital.com/"
        }
      },
      {
        "type": "node",
        "id": 7047794702,
        "lat": 19.0704659,
        "lon": 72.8370957,
        "tags": {
          "addr:district": "Mumbai",
          "addr:full": "115 S.V.Road Khar(W)",
          "addr:postcode": "400052",
          "addr:state": "Maharashtra",
          "amenity": "clinic",
          "healthcare": "clinic",
          "name": "Gopi Nursing Home",
          "source": "OpenGovernmentData"
        }
      },
      {
        "type": "node",
        "id": 7049584815,
        "lat": 19.0740757,
        "lon": 72.8329611,
        "tags": {
          "addr:district": "Mumbai",
          "addr:full": "21 - A, Sita Bhavan, 14Th A Road, Ahimsa Marg, Khar (West)",
          "addr:postcode": "400052",
          "addr:state": "Maharashtra",
          "amenity": "hospital",
          "email": "info@rghospital.com",
          "healthcare": "hospital",
          "healthcare:speciality": "urology;clinical_pathology",
          "name": "RG Stone Urology and Laparoscopy Hospital, Khar",
          "operator:type": "private",
          "source": "OpenGovernmentData",
          "website": "https://www.rghospitals.com/"
        }
      },
      {
        "type": "node",
        "id": 7049798530,
        "lat": 19.0800017,
        "lon": 72.8376727,
        "tags": {
          "addr:district": "Mumbai",
          "addr:full": "2 Jain , 1st Floor, Sv Road, Opp Akbarally, Santacruz (W)",
          "addr:postcode": "400054",
          "addr:state": "Maharashtra",
          "amenity": "clinic",
          "healthcare": "clinic",
          "name": "Nagvekar Eye Clinic",
          "source": "OpenGovernmentData"
        }
      },
      {
        "type": "node",
        "id": 7051598695,
        "lat": 19.0747468,
        "lon": 72.8325889,
        "tags": {
          "addr:district": "Mumbai",
          "addr:full": "14-A Road , Khar",
          "addr:postcode": "400052",
          "addr:state": "Maharashtra",
          "amenity": "clinic",
          "healthcare": "clinic",
          "name": "Kumar Clinic, Mumbai",
          "source": "OpenGovernmentData"
        }
      },
      {
        "type": "node",
        "id": 7052185493,
        "lat": 19.0744458,
        "lon": 72.8344122,
        "tags": {
          "addr:district": "Mumbai",
          "addr:full": "1 Milton Tower, 290-291, Linking Road, Khar West",
          "addr:postcode": "400052",
          "addr:state": "Maharashtra",
          "amenity": "hospital",
          "healthcare": "hospital",
          "healthcare:speciality": "pathology",
          "name": "Khar Clinico-Pathology Laboratory",
          "source": "OpenGovernmentData"
        }
      },
      {
        "type": "node",
        "id": 7055441837,
        "lat": 19.07045,
        "lon": 72.8370246,
        "tags": {
          "addr:district": "Mumbai",
          "addr:full": "Naseeb Plot No.115,1st Floor, S.V.Road, Khar (West)",
          "addr:postcode": "400052",
          "addr:state": "Maharashtra",
          "amenity": "hospital",
          "healthcare": "hospital",
          "name": "G.M.Medical Centre - Khar",
          "source": "OpenGovernmentData"
        }
      },
      {
        "type": "node",
        "id": 7055460057,
        "lat": 19.0660316,
        "lon": 72.8319771,
        "tags": {
          "addr:district": "Mumbai",
          "addr:full": "Shyamkripa Bldg,Ground Floor 15Th Road, Khar (W)",
          "addr:postcode": "400052",
          "addr:state": "Maharashtra",
          "amenity": "hospital",
          "healthcare": "hospital",
          "name": "Tulip Womens Healthcare Centre - Khar (W)",
          "source": "OpenGovernmentData"
        }
      },
      {
        "type": "node",
        "id": 7062228611,
        "lat": 19.0713778,
        "lon": 72.8377193,
        "tags": {
          "addr:district": "Mumbai",
          "addr:full": "Mumbai",
          "addr:postcode": "400052",
          "addr:state": "Maharashtra",
          "amenity": "hospital",
          "name": "I Sight Eyecare and Surgery",
          "source": "OpenGovernmentData"
        }
      },
      {
        "type": "node",
        "id": 7064405838,
        "lat": 19.0716358,
        "lon": 72.837663,
        "tags": {
          "addr:district": "Mumbai",
          "addr:full": "No. 81, Swami Vivekanand Road, Above State Bank Of India, Khar West",
          "addr:postcode": "400052",
          "addr:state": "Maharashtra",
          "amenity": "hospital",
          "name": "Dr Gupte Lying-In Surgical Hospital",
          "source": "OpenGovernmentData"
        }
      },
      {
        "type": "node",
        "id": 7064828720,
        "lat": 19.0795473,
        "lon": 72.8352678,
        "tags": {
          "addr:district": "Mumbai",
          "addr:full": "Gopal Bhuvan,Tagore Road, Santacruz (W)",
          "addr:postcode": "400054",
          "addr:state": "Maharashtra",
          "amenity": "clinic",
          "name": "Bhargava Nursing Home",
          "source": "OpenGovernmentData"
        }
      },
      {
        "type": "node",
        "id": 7067925881,
        "lat": 19.0786854,
        "lon": 72.839731,
        "tags": {
          "addr:district": "Mumbai",
          "addr:full": "Ghiya Compound 2nd Hasnabad Lane Santacruz (West)",
          "addr:postcode": "400054",
          "addr:state": "Maharashtra",
          "amenity": "clinic",
          "healthcare": "clinic",
          "name": "Saifee Polyclinic and Diagnostic Centre",
          "source": "OpenGovernmentData"
        }
      },
      {
        "type": "node",
        "id": 7072837154,
        "lat": 19.0679055,
        "lon": 72.8353534,
        "tags": {
          "addr:district": "Mumbai",
          "addr:full": "724, 11Th Road , Khar West-Bhandara",
          "addr:postcode": "400052",
          "addr:state": "Maharashtra",
          "amenity": "hospital",
          "healthcare": "hospital",
          "name": "Hinduja Healthcare",
          "source": "OpenGovernmentData"
        }
      },
      {
        "type": "node",
        "id": 7085742085,
        "lat": 19.0721453,
        "lon": 72.8343692,
        "tags": {
          "addr:district": "Mumbai",
          "addr:full": "No. 7, Rajsarovar Nikethan, No. 315. A Working Road, Above Punjab Sindhi Bank, Khar West",
          "addr:postcode": "400054",
          "addr:state": "Maharashtra",
          "amenity": "hospital",
          "name": "Zen Eye Center",
          "source": "OpenGovernmentData"
        }
      },
      {
        "type": "node",
        "id": 7086092383,
        "lat": 19.078892,
        "lon": 72.8370407,
        "tags": {
          "addr:district": "Mumbai",
          "addr:full": "Ophthalmic Surgeon And Contact Lens Consultant",
          "addr:postcode": "400054",
          "addr:state": "Maharashtra",
          "amenity": "doctors",
          "healthcare": "doctor",
          "name": "Dr. Sandeep S. Nagvekar",
          "source": "OpenGovernmentData"
        }
      },
      {
        "type": "node",
        "id": 7225067183,
        "lat": 19.078779,
        "lon": 72.844864,
        "tags": {
          "addr:district": "Mumbai",
          "addr:full": "11th Road, Golibar, Santacruz East",
          "addr:postcode": "400055",
          "addr:state": "Maharashtra",
          "amenity": "hospital",
          "healthcare": "hospital",
          "name": "V.N. Desai hospital",
          "source": "OpenGovernmentData"
        }
      },
      {
        "type": "node",
        "id": 7320270199,
        "lat": 19.0655751,
        "lon": 72.8332064,
        "tags": {
          "amenity": "cafe",
          "brand": "Starbucks",
          "brand:pa": "\u0a38\u0a1f\u0a3e\u0a30\u0a2c\u0a15\u0a38",
          "brand:ur": "\u0627\u0633\u0679\u0627\u0631\u0628\u06a9\u0633",
          "brand:wikidata": "Q37158",
          "brand:wikipedia": "en:Starbucks",
          "cuisine": "coffee_shop",
          "name": "Starbucks",
          "name:pa": "\u0a38\u0a1f\u0a3e\u0a30\u0a2c\u0a15\u0a38",
          "name:ur": "\u0627\u0633\u0679\u0627\u0631\u0628\u06a9\u0633",
          "official_name": "Starbucks Coffee",
          "official_name:pa": "\u0a38\u0a1f\u0a3e\u0a30\u0a2c\u0a15\u0a38 \u0a15\u0a4c\u0a2b\u0a40",
          "official_name:ur": "\u0627\u0633\u0679\u0627\u0631\u0628\u06a9\u0633 \u06a9\u0627\u0641\u06cc",
          "takeaway": "yes"
        }
      },
      {
        "type": "node",
        "id": 7663961419,
        "lat": 19.064667,
        "lon": 72.835138,
        "tags": {
          "addr:district": "Mumbai Suburban",
          "addr:full": "513, Linking Road, Khar, Pali Village, Khar West, Mumbai",
          "addr:postcode": "400050",
          "addr:state": "Maharastra",
          "amenity": "hospital",
          "healthcare": "hospital",
          "name": "Kohinoor Hospital",
          "source": "Local Knowledge"
        }
      },
      {
        "type": "node",
        "id": 8251738919,
        "lat": 19.0714599,
        "lon": 72.8387514,
        "tags": {
          "addr:postcode": "400052",
          "addr:street": "5th Road, SV raod",
          "name": "Rare Earth",
          "organic": "only",
          "shop": "supermarket"
        }
      },
      {
        "type": "node",
        "id": 9935357958,
        "lat": 19.0685728,
        "lon": 72.8353475,
        "tags": {
          "addr:city": "Mumbai",
          "addr:housenumber": "Vasu Bhavan Building",
          "addr:neighbourhood": "Khar West",
          "addr:postcode": "400052",
          "addr:state": "Maharashtra",
          "addr:street": "11th Road",
          "amenity": "cafe",
          "cuisine": "indian",
          "name": "Greenbox Caffe"
        }
      },
      {
        "type": "node",
        "id": 9935399723,
        "lat": 19.0678704,
        "lon": 72.8378286,
        "tags": {
          "amenity": "clinic",
          "healthcare": "clinic",
          "name": "Bijlani Clinic"
        }
      },
      {
        "type": "node",
        "id": 9935441396,
        "lat": 19.067425,
        "lon": 72.8354219,
        "tags": {
          "amenity": "doctors",
          "healthcare": "doctor",
          "name": "Dr Govind Jadhwani"
        }
      },
      {
        "type": "node",
        "id": 10227697404,
        "lat": 19.0764242,
        "lon": 72.8345363,
        "tags": {
          "name": "Food Square",
          "name:en": "Food Square",
          "shop": "supermarket"
        }
      },
      {
        "type": "node",
        "id": 11298645321,
        "lat": 19.0655856,
        "lon": 72.8327487,
        "tags": {
          "amenity": "restaurant",
          "brand": "Pizza Hut",
          "brand:wikidata": "Q191615",
          "cuisine": "pizza",
          "name": "Pizza Hut"
        }
      },
      {
        "type": "node",
        "id": 11298645389,
        "lat": 19.0678533,
        "lon": 72.8326181,
        "tags": {
          "amenity": "fast_food",
          "brand": "Domino's",
          "brand:wikidata": "Q839466",
          "cuisine": "pizza",
          "name": "Domino's",
          "takeaway": "yes"
        }
      },
      {
        "type": "node",
        "id": 11298645390,
        "lat": 19.0679736,
        "lon": 72.8333777,
        "tags": {
          "amenity": "bank",
          "brand": "ICICI Bank",
          "brand:wikidata": "Q1653258",
          "name": "ICICI Bank",
          "short_name": "ICICI"
        }
      },
      {
        "type": "node",
        "id": 11298645404,
        "lat": 19.0675934,
        "lon": 72.8337555,
        "tags": {
          "amenity": "bank",
          "brand": "Punjab National Bank",
          "brand:wikidata": "Q2743499",
          "name": "Punjab National Bank"
        }
      },
      {
        "type": "node",
        "id": 11298645405,
        "lat": 19.0664847,
        "lon": 72.8333221,
        "tags": {
          "amenity": "restaurant",
          "cuisine": "tex-mex;latin_american",
          "name": "Los Cavos"
        }
      },
      {
        "type": "node",
        "id": 11364283728,
        "lat": 19.0655212,
        "lon": 72.8341507,
        "tags": {
          "addr:city": "Mumbai",
          "addr:postcode": "400050",
          "addr:street": "Linking Road",
          "alt_name": "Kentucky Fried Chicken",
          "alt_name:en": "Kentucky Fried Chicken",
          "alt_name:hi": "\u0915\u0947\u0902\u091f\u0941\u0915\u0940 \u092b\u094d\u0930\u093e\u0907\u0921 \u091a\u093f\u0915\u0928",
          "alt_name:pa": "\u0a15\u0a48\u0a02\u0a1f\u0a41\u0a15\u0a40 \u0a2b\u0a4d\u0a30\u0a3e\u0a08\u0a21 \u0a1a\u0a3f\u0a15\u0a28",
          "alt_name:pnb": "\u06a9\u06cc\u0646\u0679\u06a9\u06cc \u0641\u0631\u0627\u0626\u06cc\u0688 \u0686\u06a9\u0646",
          "alt_name:ur": "\u06a9\u06cc\u0646\u0679\u06a9\u06cc \u0641\u0631\u0627\u0626\u06cc\u0688 \u0686\u06a9\u0646",
          "amenity": "fast_food",
          "brand": "KFC",
          "brand:en": "KFC",
          "brand:hi": "\u0915\u0947\u090f\u092b\u0938\u0940",
          "brand:pa": "\u0a15\u0a47\u0a10\u0a2b\u0a38\u0a40",
          "brand:pnb": "\u06a9\u06d2 \u0627\u06cc\u0641 \u0633\u06cc",
          "brand:ur": "\u06a9\u06d2 \u0627\u06cc\u0641 \u0633\u06cc",
          "brand:wikidata": "Q524757",
          "cuisine": "chicken",
          "drive_through": "no",
          "name": "KFC",
          "name:en": "KFC",
          "name:hi": "\u0915\u0947\u090f\u092b\u0938\u0940",
          "name:pa": "\u0a15\u0a47\u0a10\u0a2b\u0a38\u0a40",
          "name:pnb": "\u06a9\u06d2 \u0627\u06cc\u0641 \u0633\u06cc",
          "name:ur": "\u06a9\u06d2 \u0627\u06cc\u0641 \u0633\u06cc",
          "takeaway": "yes"
        }
      },
      {
        "type": "node",
        "id": 11364283731,
        "lat": 19.0679012,
        "lon": 72.8340037,
        "tags": {
          "amenity": "restaurant",
          "cuisine": "chinese;indian",
          "name": "Sheetal Bukhara",
          "name:en": "Sheetal Bukhara",
          "name:hi": "\u0936\u0940\u0924\u0932 \u092c\u0941\u0916\u093e\u0930\u093e",
          "name:mr": "\u0936\u0940\u0924\u0932 \u092c\u0941\u0916\u093e\u0930\u093e",
          "opening_hours": "Mo-Su 11:30-01:30"
        }
      },
      {
        "type": "node",
        "id": 11384515564,
        "lat": 19.0783784,
        "lon": 72.834574,
        "tags": {
          "amenity": "bank",
          "brand": "Kotak Mahindra Bank",
          "brand:wikidata": "Q2040404",
          "name": "Kotak Mahindra Bank"
        }
      },
      {
        "type": "node",
        "id": 11384515565,
        "lat": 19.0783278,
        "lon": 72.8345773,
        "tags": {
          "amenity": "atm",
          "brand": "Kotak Mahindra Bank",
          "brand:wikidata": "Q2040404",
          "operator": "Kotak Mahindra Bank",
          "operator:wikidata": "Q2040404"
        }
      },
      {
        "type": "node",
        "id": 11901183801,
        "lat": 19.0756716,
        "lon": 72.8317315,
        "tags": {
          "amenity": "cafe",
          "brand": "Starbucks",
          "brand:wikidata": "Q37158",
          "cuisine": "coffee_shop",
          "name": "Starbucks",
          "official_name": "Starbucks Coffee",
          "takeaway": "yes"
        }
      },
      {
        "type": "node",
        "id": 12028951855,
        "lat": 19.0637688,
        "lon": 72.8365002,
        "tags": {
          "addr:city": "Mumbai",
          "addr:district": "Mumbai Suburban",
          "addr:postcode": "400050",
          "addr:street": "Off linking Road, Near National College, Bandra West, Mumbai, Maharashtra 400050",
          "amenity": "restaurant",
          "name": "Zima",
          "opening_hours": "Mo-Su 07:00-24:00",
          "phone": "+919930888880"
        }
      },
      {
        "type": "node",
        "id": 12334116824,
        "lat": 19.0680108,
        "lon": 72.8323909,
        "tags": {
          "amenity": "restaurant",
          "cuisine": "chinese",
          "name": "5 Spice",
          "name:en": "5 Spice"
        }
      },
      {
        "type": "node",
        "id": 12334116825,
        "lat": 19.0680214,
        "lon": 72.8323561,
        "tags": {
          "amenity": "restaurant",
          "cuisine": "indian",
          "name": "Jai Jawan",
          "name:en": "Jai Jawan"
        }
      },
      {
        "type": "node",
        "id": 12334116841,
        "lat": 19.0696756,
        "lon": 72.8339227,
        "tags": {
          "amenity": "bank",
          "name": "Saraswat Bank",
          "name:en": "Saraswat Bank"
        }
      },
      {
        "type": "node",
        "id": 12334116885,
        "lat": 19.0728687,
        "lon": 72.8321001,
        "tags": {
          "amenity": "bank",
          "brand": "HDFC Bank",
          "brand:wikidata": "Q631047",
          "name": "HDFC Bank",
          "short_name": "HDFC"
        }
      },
      {
        "type": "node",
        "id": 12334116886,
        "lat": 19.0729408,
        "lon": 72.8320129,
        "tags": {
          "amenity": "atm",
          "brand": "HDFC Bank",
          "brand:wikidata": "Q631047",
          "name": "HDFC Bank",
          "operator": "HDFC Bank",
          "operator:wikidata": "Q631047",
          "short_name": "HDFC"
        }
      },
      {
        "type": "node",
        "id": 12408808753,
        "lat": 19.0789383,
        "lon": 72.8446344,
        "tags": {
          "addr:city": "Mumbai",
          "addr:district": "Mumbai",
          "addr:housenumber": "Santacruz",
          "addr:postcode": "400055",
          "addr:street": "8th",
          "amenity": "pharmacy",
          "dispensing": "yes",
          "healthcare": "pharmacy",
          "name": "M R Medical",
          "opening_hours": "24/7"
        }
      },
      {
        "type": "node",
        "id": 12413297718,
        "lat": 19.0722491,
        "lon": 72.8450037,
        "tags": {
          "amenity": "hospital",
          "healthcare": "hospital"
        }
      },
      {
        "type": "node",
        "id": 12415386367,
        "lat": 19.0726487,
        "lon": 72.8443905,
        "tags": {
          "addr:city": "mumbai santacruz",
          "addr:housenumber": "2",
          "addr:postcode": "400055",
          "addr:street": "golibar road",
          "amenity": "hospital",
          "healthcare": "hospital",
          "name": "sanjivani hospital",
          "opening_hours": "24/7"
        }
      },
      {
        "type": "node",
        "id": 12415386368,
        "lat": 19.0750493,
        "lon": 72.8421734,
        "tags": {
          "addr:city": "Mumbai",
          "addr:postcode": "400055",
          "addr:street": "golibar road",
          "amenity": "cafe",
          "cuisine": "coffee_shop;irani",
          "name": "Cafe Gulshan",
          "name:en": "Cafe Gulshan",
          "name:mr": "\u0915\u0945\u092b\u0947 \u0917\u0941\u0932\u0936\u0928",
          "opening_hours": "Mo-Su 09:00-20:00"
        }
      },
      {
        "type": "node",
        "id": 12415461271,
        "lat": 19.0748427,
        "lon": 72.8429839,
        "tags": {
          "addr:city": "santacruz mumbai",
          "addr:housenumber": "7th",
          "addr:postcode": "400055",
          "addr:street": "Road No 7",
          "leisure": "park",
          "name": "NSm park",
          "opening_hours": "Mo-Sa 08:00-18:00"
        }
      },
      {
        "type": "node",
        "id": 12536403663,
        "lat": 19.0739809,
        "lon": 72.8431413,
        "tags": {
          "amenity": "cafe",
          "cuisine": "coffee_shop",
          "name": "gulshan cafe",
          "opening_hours": "Mo-Su 10:00-22:00"
        }
      },
      {
        "type": "node",
        "id": 12731973452,
        "lat": 19.065927,
        "lon": 72.8343804,
        "tags": {
          "amenity": "bank",
          "brand": "State Bank of India",
          "brand:wikidata": "Q1340361",
          "name": "State Bank of India",
          "short_name": "SBI"
        }
      },
      {
        "type": "node",
        "id": 12731973467,
        "lat": 19.0699567,
        "lon": 72.8383331,
        "tags": {
          "amenity": "bank",
          "brand": "CSB Bank",
          "brand:wikidata": "Q5053244",
          "name": "CSB Bank",
          "official_name": "Catholic Syrian Bank"
        }
      },
      {
        "type": "node",
        "id": 12805979971,
        "lat": 19.0786108,
        "lon": 72.8342667,
        "tags": {
          "amenity": "bank",
          "name": "DCB Bank",
          "name:en": "DCB Bank"
        }
      },
      {
        "type": "node",
        "id": 12805979972,
        "lat": 19.0786129,
        "lon": 72.8342266,
        "tags": {
          "amenity": "atm",
          "name": "DCB Bank",
          "name:en": "DCB Bank"
        }
      },
      {
        "type": "node",
        "id": 12892604956,
        "lat": 19.0669962,
        "lon": 72.8328138,
        "tags": {
          "amenity": "cafe",
          "name": "Farmers Cafe"
        }
      },
      {
        "type": "node",
        "id": 12920034718,
        "lat": 19.071019,
        "lon": 72.8331048,
        "tags": {
          "amenity": "cafe",
          "name": "August Cafe",
          "name:en": "August Cafe",
          "website": "https://augustcafe.in/home/"
        }
      },
      {
        "type": "node",
        "id": 13089348621,
        "lat": 19.0715458,
        "lon": 72.8338617,
        "tags": {
          "amenity": "restaurant",
          "level": "1",
          "name": "Khao Piyo",
          "name:en": "Khao Piyo"
        }
      },
      {
        "type": "node",
        "id": 13094991451,
        "lat": 19.0685157,
        "lon": 72.8371172,
        "tags": {
          "amenity": "atm",
          "brand": "Yes Bank",
          "brand:wikidata": "Q2040394",
          "operator": "Yes Bank",
          "operator:wikidata": "Q2040394"
        }
      },
      {
        "type": "node",
        "id": 13097872577,
        "lat": 19.0679036,
        "lon": 72.8377151,
        "tags": {
          "amenity": "restaurant",
          "diet:vegetarian": "yes",
          "name": "Shiv Sagar",
          "name:en": "Shiv Sagar",
          "name:mr": "\u0936\u093f\u0935 \u0938\u093e\u0917\u0930"
        }
      },
      {
        "type": "node",
        "id": 13097872578,
        "lat": 19.0679626,
        "lon": 72.8380516,
        "tags": {
          "amenity": "bank",
          "brand": "Union Bank of India",
          "brand:wikidata": "Q2004078",
          "drive_through": "no",
          "name": "Union Bank of India"
        }
      },
      {
        "type": "node",
        "id": 13097872579,
        "lat": 19.0679935,
        "lon": 72.8380235,
        "tags": {
          "amenity": "atm",
          "brand": "Union Bank of India",
          "brand:wikidata": "Q2004078",
          "name": "Union Bank of India",
          "name:en": "Union Bank of India",
          "operator": "Union Bank of India",
          "operator:wikidata": "Q2004078"
        }
      },
      {
        "type": "node",
        "id": 13097872628,
        "lat": 19.0697501,
        "lon": 72.8378884,
        "tags": {
          "amenity": "fast_food",
          "name": "National Milk Centre",
          "name:en": "National Milk Centre",
          "name:mr": "\u0928\u0945\u0936\u0928\u0932 \u092e\u093f\u0932\u094d\u0915 \u0938\u0947\u0902\u091f\u0930"
        }
      }
    ]
  },
  "pois_2_5km": {
    "version": 0.6,
    "generator": "Overpass API 0.7.62.8 e802775f",
    "osm3s": {
      "timestamp_osm_base": "2025-09-06T07:54:46Z",
      "copyright": "The data included in this document is from www.openstreetmap.org. The data is made available under ODbL."
    },
    "elements": [
      {
        "type": "node",
        "id": 213030714,
        "lat": 19.0815223,
        "lon": 72.8417565,
        "tags": {
          "internet_access": "no",
          "name": "Santa Cruz",
          "name:hi": "\u0938\u093e\u0902\u0924\u093e\u0915\u094d\u0930\u0941\u091c\u093c",
          "name:mr": "\u0938\u093e\u0902\u0924\u093e\u0915\u094d\u0930\u0942\u091d",
          "network": "Mumbai Suburban Railway",
          "network:wikidata": "Q3273422",
          "operator": "WR",
          "public_transport": "station",
          "railway": "station",
          "ref": "STC",
          "train": "yes",
          "wikidata": "Q7420001",
          "wikipedia": "en:Santacruz railway station"
        }
      },
      {
        "type": "node",
        "id": 347138797,
        "lat": 19.0682411,
        "lon": 72.8400412,
        "tags": {
          "internet_access": "no",
          "name": "Khar Road",
          "name:en": "Khar Road",
          "name:hi": "\u0916\u093e\u0930 \u0930\u094b\u0921",
          "name:mr": "\u0916\u093e\u0930 \u0930\u094b\u0921",
          "network": "Mumbai Suburban Railway",
          "network:wikidata": "Q3273422",
          "operator": "WR",
          "public_transport": "station",
          "railway": "station",
          "ref": "KHAR",
          "start_date": "1924-07-01",
          "train": "yes",
          "wikidata": "Q372596",
          "wikipedia": "en:Khar Road railway station"
        }
      },
      {
        "type": "node",
        "id": 1233481359,
        "lat": 19.0547734,
        "lon": 72.8407919,
        "tags": {
          "name": "Bandra",
          "name:en": "Bandra",
          "name:mr": "\u0935\u093e\u0902\u0926\u094d\u0930\u0947",
          "public_transport": "stop_position",
          "railway": "stop",
          "ref": "5",
          "train": "yes"
        }
      },
      {
        "type": "node",
        "id": 1233481362,
        "lat": 19.054835,
        "lon": 72.8409588,
        "tags": {
          "name": "Bandra",
          "name:en": "Bandra",
          "name:mr": "\u0935\u093e\u0902\u0926\u094d\u0930\u0947",
          "public_transport": "stop_position",
          "railway": "stop",
          "ref": "7",
          "train": "yes"
        }
      },
      {
        "type": "node",
        "id": 1233481375,
        "lat": 19.0547878,
        "lon": 72.8408402,
        "tags": {
          "name": "Bandra",
          "name:en": "Bandra",
          "name:mr": "\u0935\u093e\u0902\u0926\u094d\u0930\u0947",
          "public_transport": "stop_position",
          "railway": "stop",
          "ref": "6",
          "train": "yes"
        }
      },
      {
        "type": "node",
        "id": 1233481385,
        "lat": 19.0546445,
        "lon": 72.8404627,
        "tags": {
          "name": "Bandra",
          "name:en": "Bandra",
          "name:mr": "\u0935\u093e\u0902\u0926\u094d\u0930\u0947",
          "public_transport": "stop_position",
          "railway": "stop",
          "ref": "1",
          "train": "yes"
        }
      },
      {
        "type": "node",
        "id": 1233481390,
        "lat": 19.0546544,
        "lon": 72.8404879,
        "tags": {
          "name": "Bandra",
          "name:en": "Bandra",
          "name:mr": "\u0935\u093e\u0902\u0926\u094d\u0930\u0947",
          "public_transport": "stop_position",
          "railway": "stop",
          "ref": "2",
          "train": "yes"
        }
      },
      {
        "type": "node",
        "id": 1241793068,
        "lat": 19.09544,
        "lon": 72.8660044,
        "tags": {
          "aeroway": "terminal",
          "ele": "15.747192",
          "name": "Cargo Terminal",
          "source": "GPS",
          "sym": "Civil"
        }
      },
      {
        "type": "node",
        "id": 1392005679,
        "lat": 19.0629493,
        "lon": 72.8415372,
        "tags": {
          "amenity": "bus_station",
          "bus": "yes",
          "name": "Bandra Terminus",
          "public_transport": "station",
          "wheelchair": "yes"
        }
      },
      {
        "type": "node",
        "id": 2630075000,
        "lat": 19.0549792,
        "lon": 72.8402203,
        "tags": {
          "addr:city": "Bandra, Mumbai",
          "internet_access": "wlan",
          "name": "Bandra",
          "name:hi": "\u092c\u093e\u0902\u0926\u094d\u0930\u093e",
          "name:ml": "\u0d2c\u0d3e\u0d28\u0d4d\u0d26\u0d4d\u0d30",
          "name:mr": "\u0935\u093e\u0902\u0926\u094d\u0930\u0947",
          "network": "Mumbai Suburban Railway",
          "network:wikidata": "Q3273422",
          "operator": "WR",
          "public_transport": "station",
          "railway": "station",
          "ref": "BA",
          "ref:suburban": "B",
          "start_date": "1869",
          "train": "yes",
          "wheelchair": "no",
          "wikidata": "Q4854695",
          "wikipedia": "en:Bandra railway station"
        }
      },
      {
        "type": "node",
        "id": 3951527111,
        "lat": 19.0905676,
        "lon": 72.8382833,
        "tags": {
          "amenity": "bus_station",
          "bus": "yes",
          "name": "Santacruz Bus Depot",
          "public_transport": "station"
        }
      },
      {
        "type": "node",
        "id": 3951538082,
        "lat": 19.0860081,
        "lon": 72.8383183,
        "tags": {
          "amenity": "fuel",
          "brand": "Hindustan Petroleum",
          "brand:wikidata": "Q1619375",
          "brand:wikipedia": "en:Hindustan Petroleum",
          "name": "HP",
          "official_name": "Hindustan Petroleum"
        }
      },
      {
        "type": "node",
        "id": 4273389598,
        "lat": 19.0553844,
        "lon": 72.8386116,
        "tags": {
          "amenity": "cinema",
          "name": "Nandi Cinema"
        }
      },
      {
        "type": "node",
        "id": 4309819457,
        "lat": 19.0567446,
        "lon": 72.828704,
        "tags": {
          "addr:city": "Bandra, Mumbai",
          "addr:postcode": "400050",
          "addr:street": "St Dominic Street;7th Road",
          "amenity": "theatre",
          "name": "St. Andrew's Auditorium"
        }
      },
      {
        "type": "node",
        "id": 4345706690,
        "lat": 19.0690106,
        "lon": 72.8403841,
        "tags": {
          "name": "Khar Road",
          "name:en": "Khar Road",
          "name:hi": "\u0916\u093e\u0930 \u0930\u094b\u0921",
          "name:mr": "\u0916\u093e\u0930 \u0930\u094b\u0921",
          "public_transport": "stop_position",
          "railway": "stop",
          "ref": "6",
          "train": "yes"
        }
      },
      {
        "type": "node",
        "id": 4345706693,
        "lat": 19.0690942,
        "lon": 72.8398818,
        "tags": {
          "name": "Khar Road",
          "name:en": "Khar Road",
          "name:hi": "\u0916\u093e\u0930 \u0930\u094b\u0921",
          "name:mr": "\u0916\u093e\u0930 \u0930\u094b\u0921",
          "public_transport": "stop_position",
          "railway": "stop",
          "ref": "1",
          "train": "yes"
        }
      },
      {
        "type": "node",
        "id": 5221297179,
        "lat": 19.0606629,
        "lon": 72.8546797,
        "tags": {
          "name": "Bandra Kurla Complex (BKC)",
          "name:mr": "\u0935\u093e\u0902\u0926\u094d\u0930\u0947 \u0915\u0941\u0930\u094d\u0932\u093e \u0915\u0949\u092e\u094d\u092a\u094d\u0932\u0947\u0915\u094d\u0938 (\u092c\u0940\u0915\u0947\u0938\u0940)",
          "network": "Mumbai Metro",
          "operator": "Mumbai Metro Rail Corporation Ltd",
          "public_transport": "station",
          "railway": "station",
          "start_date": "2024-10-05",
          "station": "subway",
          "subway": "yes",
          "wikidata": "Q130461527"
        }
      },
      {
        "type": "node",
        "id": 5506320960,
        "lat": 19.0646847,
        "lon": 72.8607694,
        "tags": {
          "amenity": "fuel",
          "atm": "ICICI",
          "brand": "Hindustan Petroleum",
          "brand:wikidata": "Q1619375",
          "name": "HP Petrol & Diesel Pump",
          "official_name": "Hindustan Petroleum"
        }
      },
      {
        "type": "node",
        "id": 5926157724,
        "lat": 19.0562025,
        "lon": 72.8338672,
        "tags": {
          "amenity": "cinema",
          "brand": "PVR Cinemas",
          "brand:short": "PVR",
          "brand:wikidata": "Q3359908",
          "name": "PVR La Reve",
          "name:en": "PVR La Reve",
          "old_name": "Globus Cinema"
        }
      },
      {
        "type": "node",
        "id": 5942782562,
        "lat": 19.0896096,
        "lon": 72.8391558,
        "tags": {
          "amenity": "cinema",
          "name": "Gold Cinemas"
        }
      },
      {
        "type": "node",
        "id": 7510862068,
        "lat": 19.054716,
        "lon": 72.8406066,
        "tags": {
          "name": "Bandra",
          "name:en": "Bandra",
          "name:mr": "\u0935\u093e\u0902\u0926\u094d\u0930\u0947",
          "public_transport": "stop_position",
          "railway": "stop",
          "ref": "3",
          "train": "yes"
        }
      },
      {
        "type": "node",
        "id": 7510862069,
        "lat": 19.0547291,
        "lon": 72.8406538,
        "tags": {
          "name": "Bandra",
          "name:en": "Bandra",
          "name:mr": "\u0935\u093e\u0902\u0926\u094d\u0930\u0947",
          "public_transport": "stop_position",
          "railway": "stop",
          "ref": "4",
          "train": "yes"
        }
      },
      {
        "type": "node",
        "id": 7510862080,
        "lat": 19.0839117,
        "lon": 72.8418774,
        "tags": {
          "name": "Santa Cruz (CR)",
          "name:en": "Santa Cruz (CR)",
          "name:mr": "\u0938\u093e\u0902\u0924\u093e\u0915\u094d\u0930\u0942\u091d",
          "public_transport": "stop_position",
          "railway": "stop",
          "ref": "2",
          "train": "yes"
        }
      },
      {
        "type": "node",
        "id": 7510862081,
        "lat": 19.0816085,
        "lon": 72.8418625,
        "tags": {
          "name": "Santa Cruz (WR)",
          "name:en": "Santa Cruz (WR)",
          "name:mr": "\u0938\u093e\u0902\u0924\u093e\u0915\u094d\u0930\u0942\u091d",
          "public_transport": "stop_position",
          "railway": "stop",
          "ref": "6",
          "train": "yes"
        }
      },
      {
        "type": "node",
        "id": 7510862082,
        "lat": 19.0816252,
        "lon": 72.8417226,
        "tags": {
          "name": "Santa Cruz (WR)",
          "name:en": "Santa Cruz (WR)",
          "name:mr": "\u0938\u093e\u0902\u0924\u093e\u0915\u094d\u0930\u0942\u091d",
          "public_transport": "stop_position",
          "railway": "stop",
          "ref": "5",
          "train": "yes"
        }
      },
      {
        "type": "node",
        "id": 7510862083,
        "lat": 19.0816295,
        "lon": 72.8416835,
        "tags": {
          "name": "Santa Cruz (WR)",
          "name:en": "Santa Cruz (WR)",
          "name:mr": "\u0938\u093e\u0902\u0924\u093e\u0915\u094d\u0930\u0942\u091d",
          "public_transport": "stop_position",
          "railway": "stop",
          "ref": "4",
          "train": "yes"
        }
      },
      {
        "type": "node",
        "id": 7510862084,
        "lat": 19.0816184,
        "lon": 72.8415282,
        "tags": {
          "name": "Santa Cruz (WR)",
          "name:en": "Santa Cruz (WR)",
          "name:mr": "\u0938\u093e\u0902\u0924\u093e\u0915\u094d\u0930\u0942\u091d",
          "public_transport": "stop_position",
          "railway": "stop",
          "ref": "3",
          "train": "yes"
        }
      },
      {
        "type": "node",
        "id": 7510862785,
        "lat": 19.0839026,
        "lon": 72.8417442,
        "tags": {
          "name": "Santa Cruz (CR)",
          "name:en": "Santa Cruz (CR)",
          "name:mr": "\u0938\u093e\u0902\u0924\u093e\u0915\u094d\u0930\u0942\u091d",
          "public_transport": "stop_position",
          "railway": "stop",
          "ref": "1",
          "train": "yes"
        }
      },
      {
        "type": "node",
        "id": 7510862786,
        "lat": 19.0690432,
        "lon": 72.8402374,
        "tags": {
          "name": "Khar Road",
          "name:en": "Khar Road",
          "name:hi": "\u0916\u093e\u0930 \u0930\u094b\u0921",
          "name:mr": "\u0916\u093e\u0930 \u0930\u094b\u0921",
          "public_transport": "stop_position",
          "railway": "stop",
          "ref": "5",
          "train": "yes"
        }
      },
      {
        "type": "node",
        "id": 7510862787,
        "lat": 19.0690521,
        "lon": 72.8401907,
        "tags": {
          "name": "Khar Road",
          "name:en": "Khar Road",
          "name:hi": "\u0916\u093e\u0930 \u0930\u094b\u0921",
          "name:mr": "\u0916\u093e\u0930 \u0930\u094b\u0921",
          "public_transport": "stop_position",
          "railway": "stop",
          "ref": "4",
          "train": "yes"
        }
      },
      {
        "type": "node",
        "id": 7510862788,
        "lat": 19.0690693,
        "lon": 72.8400598,
        "tags": {
          "name": "Khar Road",
          "name:en": "Khar Road",
          "name:hi": "\u0916\u093e\u0930 \u0930\u094b\u0921",
          "name:mr": "\u0916\u093e\u0930 \u0930\u094b\u0921",
          "public_transport": "stop_position",
          "railway": "stop",
          "ref": "3",
          "train": "yes"
        }
      },
      {
        "type": "node",
        "id": 7510862789,
        "lat": 19.069074,
        "lon": 72.8400142,
        "tags": {
          "name": "Khar Road",
          "name:en": "Khar Road",
          "name:hi": "\u0916\u093e\u0930 \u0930\u094b\u0921",
          "name:mr": "\u0916\u093e\u0930 \u0930\u094b\u0921",
          "public_transport": "stop_position",
          "railway": "stop",
          "ref": "2",
          "train": "yes"
        }
      },
      {
        "type": "node",
        "id": 7611714585,
        "lat": 19.0615526,
        "lon": 72.8386394,
        "tags": {
          "addr:postcode": "400050",
          "addr:street": "Swami Vivekanand Road",
          "amenity": "cinema",
          "name": "G7 Gaiety Galaxy Multiplex",
          "name:en": "G7 Gaiety Galaxy Multiplex"
        }
      },
      {
        "type": "node",
        "id": 10102658120,
        "lat": 19.1063277,
        "lon": 72.8631392,
        "tags": {
          "addr:street": "Om Nagar Road",
          "aeroway": "terminal",
          "name": "transline air cargo servics pvt ltd unit no 17",
          "name:en": "transline air cargo services pvt ltd unit no 17"
        }
      },
      {
        "type": "node",
        "id": 10779234834,
        "lat": 19.0536503,
        "lon": 72.8511089,
        "tags": {
          "amenity": "cinema",
          "brand": "PVR Cinemas",
          "brand:short": "PVR",
          "brand:wikidata": "Q3359908",
          "name": "Maison PVR",
          "name:en": "Maison PVR"
        }
      },
      {
        "type": "node",
        "id": 11069678663,
        "lat": 19.0740032,
        "lon": 72.8469774,
        "tags": {
          "bus": "yes",
          "name": "Maratha Colony",
          "name:en": "Maratha Colony",
          "public_transport": "stop_position"
        }
      },
      {
        "type": "node",
        "id": 11069702437,
        "lat": 19.0682353,
        "lon": 72.8467465,
        "tags": {
          "bus": "yes",
          "name": "Cardinal Gracias School",
          "name:en": "Cardinal Gracias School",
          "public_transport": "stop_position"
        }
      },
      {
        "type": "node",
        "id": 12074903221,
        "lat": 19.0610779,
        "lon": 72.8543132,
        "tags": {
          "name": "Bandra Kurla Complex (BKC)",
          "name:mr": "\u0935\u093e\u0902\u0926\u094d\u0930\u0947 \u0915\u0941\u0930\u094d\u0932\u093e \u0915\u0949\u092e\u094d\u092a\u094d\u0932\u0947\u0915\u094d\u0938 (\u092c\u0940\u0915\u0947\u0938\u0940)",
          "network": "Mumbai Metro",
          "operator": "Mumbai Metro Rail Corporation Ltd",
          "public_transport": "stop_position",
          "railway": "stop",
          "subway": "yes"
        }
      },
      {
        "type": "node",
        "id": 12074903222,
        "lat": 19.0602338,
        "lon": 72.8549629,
        "tags": {
          "name": "Bandra Kurla Complex (BKC)",
          "name:mr": "\u0935\u093e\u0902\u0926\u094d\u0930\u0947 \u0915\u0941\u0930\u094d\u0932\u093e \u0915\u0949\u092e\u094d\u092a\u094d\u0932\u0947\u0915\u094d\u0938 (\u092c\u0940\u0915\u0947\u0938\u0940)",
          "network": "Mumbai Metro",
          "operator": "Mumbai Metro Rail Corporation Ltd",
          "public_transport": "stop_position",
          "railway": "stop",
          "subway": "yes"
        }
      },
      {
        "type": "node",
        "id": 12074903223,
        "lat": 19.0703093,
        "lon": 72.8490294,
        "tags": {
          "name": "Bandra Colony",
          "network": "Mumbai Metro",
          "operator": "Mumbai Metro Rail Corporation Ltd",
          "public_transport": "stop_position",
          "railway": "stop",
          "subway": "yes"
        }
      },
      {
        "type": "node",
        "id": 12074903224,
        "lat": 19.0693126,
        "lon": 72.8498401,
        "tags": {
          "name": "Bandra Colony",
          "network": "Mumbai Metro",
          "operator": "Mumbai Metro Rail Corporation Ltd",
          "public_transport": "stop_position",
          "railway": "stop",
          "subway": "yes"
        }
      },
      {
        "type": "node",
        "id": 12074903225,
        "lat": 19.0796105,
        "lon": 72.8470573,
        "tags": {
          "name": "Santacruz",
          "name:mr": "\u0938\u093e\u0902\u0924\u093e\u0915\u094d\u0930\u0942\u091d",
          "network": "Mumbai Metro",
          "operator": "Mumbai Metro Rail Corporation Ltd",
          "public_transport": "stop_position",
          "railway": "stop",
          "subway": "yes"
        }
      },
      {
        "type": "node",
        "id": 12074903226,
        "lat": 19.0787375,
        "lon": 72.8471387,
        "tags": {
          "name": "Santacruz",
          "name:mr": "\u0938\u093e\u0902\u0924\u093e\u0915\u094d\u0930\u0942\u091d",
          "network": "Mumbai Metro",
          "operator": "Mumbai Metro Rail Corporation Ltd",
          "public_transport": "stop_position",
          "railway": "stop",
          "subway": "yes"
        }
      },
      {
        "type": "node",
        "id": 12074909129,
        "lat": 19.0699627,
        "lon": 72.8493601,
        "tags": {
          "name": "Bandra Colony",
          "network": "Mumbai Metro",
          "operator": "Mumbai Metro Rail Corporation Ltd",
          "public_transport": "station",
          "railway": "station",
          "start_date": "2024-10-05",
          "station": "subway",
          "subway": "yes"
        }
      },
      {
        "type": "node",
        "id": 12074909130,
        "lat": 19.0792887,
        "lon": 72.8471185,
        "tags": {
          "name": "Santacruz L3",
          "name:mr": "\u0938\u093e\u0902\u0924\u093e\u0915\u094d\u0930\u0942\u091d",
          "network": "Mumbai Metro",
          "operator": "Mumbai Metro Rail Corporation Ltd",
          "public_transport": "station",
          "railway": "station",
          "start_date": "2024-10-05",
          "station": "subway",
          "subway": "yes"
        }
      }
    ]
  }
}