{
  "pois_1km": {
    "version": 0.6,
    "generator": "Overpass API 0.7.62.8 e802775f",
    "osm3s": {
      "timestamp_osm_base": "2025-09-06T07:44:31Z",
      "copyright": "The data included in this document is from www.openstreetmap.org. The data is made available under ODbL."
    },
    "elements": [
      {
        "type": "node",
        "id": 2188840265,
        "lat": 19.1068579,
        "lon": 72.8671624,
        "tags": {
          "amenity": "bank",
          "name": "Jankalyan Sahkari Bank Ltd"
        }
      },
      {
        "type": "node",
        "id": 2188841241,
        "lat": 19.107091,
        "lon": 72.8671007,
        "tags": {
          "amenity": "atm",
          "name": "HDFC Bank ATM"
        }
      },
      {
        "type": "node",
        "id": 2188855052,
        "lat": 19.1067657,
        "lon": 72.8639412,
        "tags": {
          "addr:city": "Mumbai",
          "addr:housenumber": "J B Nagar",
          "addr:postcode": "400099",
          "addr:street": "V M Shah Marg",
          "amenity": "cafe",
          "brand": "Cafe Coffee Day",
          "brand:wikidata": "Q5017235",
          "brand:wikipedia": "en:Caf\u00e9 Coffee Day",
          "cuisine": "coffee_shop",
          "name": "Cafe Coffee Day",
          "opening_hours": "Mo-Su 10:00-23:00",
          "outdoor_seating": "yes",
          "takeaway": "yes"
        }
      },
      {
        "type": "node",
        "id": 4396299490,
        "lat": 19.1072595,
        "lon": 72.8640931,
        "tags": {
          "amenity": "bank",
          "name:en": "Greater Bombay Bank"
        }
      },
      {
        "type": "node",
        "id": 4657210592,
        "lat": 19.1038245,
        "lon": 72.8697259,
        "tags": {
          "amenity": "restaurant",
          "name:en": "Peshawri"
        }
      },
      {
        "type": "node",
        "id": 4672154389,
        "lat": 19.1079583,
        "lon": 72.8634424,
        "tags": {
          "addr:housenumber": "Akal A-1",
          "addr:postcode": "400059",
          "addr:street": "JB Nagar Road",
          "amenity": "restaurant",
          "cuisine": "indian",
          "name:en": "Nagpal Restaurant"
        }
      },
      {
        "type": "node",
        "id": 4683305101,
        "lat": 19.107509,
        "lon": 72.8611948,
        "tags": {
          "amenity": "bank",
          "atm": "yes",
          "name": "Axis Bank ATM"
        }
      },
      {
        "type": "node",
        "id": 4683432441,
        "lat": 19.1072531,
        "lon": 72.8643018,
        "tags": {
          "addr:street": "JB Nagar Road",
          "amenity": "bank",
          "atm": "yes",
          "name": "Bassein Catholic Bank"
        }
      },
      {
        "type": "node",
        "id": 4683432701,
        "lat": 19.1070614,
        "lon": 72.863941,
        "tags": {
          "addr:street": "JB Nagar Road",
          "amenity": "bank",
          "atm": "yes",
          "brand": "Canara Bank",
          "brand:pa": "\u0a15\u0a47\u0a28\u0a30\u0a3e \u0a2c\u0a48\u0a02\u0a15",
          "brand:ur": "\u06a9\u06cc\u0646\u0631\u0627 \u0628\u06cc\u0646\u06a9",
          "brand:wikidata": "Q2003777",
          "brand:wikipedia": "en:Canara Bank",
          "brand:wikipedia:pa": "\u0a15\u0a47\u0a28\u0a30\u0a3e \u0a2c\u0a48\u0a02\u0a15",
          "name": "Canara Bank",
          "name:pa": "\u0a15\u0a47\u0a28\u0a30\u0a3e \u0a2c\u0a48\u0a02\u0a15",
          "name:ur": "\u06a9\u06cc\u0646\u0631\u0627 \u0628\u06cc\u0646\u06a9",
          "website": "https://www.canarabank.com/"
        }
      },
      {
        "type": "node",
        "id": 4683441200,
        "lat": 19.1072757,
        "lon": 72.864003,
        "tags": {
          "addr:street": "JB Nagar Road",
          "amenity": "bank",
          "atm": "yes",
          "name": "Greater Bombay Co-operative Bank"
        }
      },
      {
        "type": "node",
        "id": 4683441296,
        "lat": 19.1074162,
        "lon": 72.8639437,
        "tags": {
          "addr:street": "JB Nagar Road",
          "amenity": "bank",
          "atm": "yes",
          "brand": "Punjab National Bank",
          "brand:wikidata": "Q2743499",
          "brand:wikipedia": "en:Punjab National Bank",
          "name": "Punjab National Bank",
          "name:en": "Punjab National Bank",
          "short_name": "PNB",
          "website": "https://www.pnbindia.in"
        }
      },
      {
        "type": "node",
        "id": 4967349621,
        "lat": 19.1112954,
        "lon": 72.8586434,
        "tags": {
          "addr:street": "Cardinal Gracias Road",
          "amenity": "restaurant",
          "cuisine": "indian",
          "name:en": "NH-1 kitchen & bar"
        }
      },
      {
        "type": "node",
        "id": 5409007621,
        "lat": 19.1016727,
        "lon": 72.8593785,
        "tags": {
          "amenity": "atm",
          "operator": "ok"
        }
      },
      {
        "type": "node",
        "id": 6110577586,
        "lat": 19.1074939,
        "lon": 72.8609553,
        "tags": {
          "addr:postcode": "400099",
          "amenity": "fast_food",
          "cuisine": "indian",
          "name:en": "Aarey Milk and Juice Centre",
          "opening_hours": "Mo-Su 08:00-22:00"
        }
      },
      {
        "type": "node",
        "id": 6220388885,
        "lat": 19.1105604,
        "lon": 72.866266,
        "tags": {
          "name:en": "Bon Bon",
          "shop": "supermarket"
        }
      },
      {
        "type": "node",
        "id": 6865999186,
        "lat": 19.1111181,
        "lon": 72.8629902,
        "tags": {
          "amenity": "restaurant",
          "name:en": "The Punjabi's Kitchen"
        }
      },
      {
        "type": "node",
        "id": 6865999385,
        "lat": 19.1114309,
        "lon": 72.8673102,
        "tags": {
          "amenity": "restaurant",
          "name:en": "Kapital Kitchen Swad Dilli ka"
        }
      },
      {
        "type": "node",
        "id": 7051176229,
        "lat": 19.10681,
        "lon": 72.8655446,
        "tags": {
          "addr:district": "Mumbai",
          "addr:full": "Mistry Complex, Sankalp (Gr. Floor), Near Greater Bank, J.B. Nagar, Andheri (E)",
          "addr:postcode": "400059",
          "addr:state": "Maharashtra",
          "amenity": "hospital",
          "healthcare": "hospital",
          "name": "Kiran Care and Cure Hospital",
          "operator": "Dr. Vaibhav Mistry",
          "source": "OpenGovernmentData"
        }
      },
      {
        "type": "node",
        "id": 7054725462,
        "lat": 19.1070774,
        "lon": 72.8673752,
        "tags": {
          "addr:district": "Mumbai",
          "addr:full": "F/2, 3, Ajit Nagar, J.B.Nagar, Andheri East",
          "addr:postcode": "400059",
          "addr:state": "Maharashtra",
          "amenity": "hospital",
          "healthcare": "hospital",
          "name": "Ameya Surgical and General Nursing Home",
          "source": "OpenGovernmentData"
        }
      },
      {
        "type": "node",
        "id": 7063909920,
        "lat": 19.1081406,
        "lon": 72.8641471,
        "tags": {
          "addr:district": "Mumbai",
          "addr:full": "A-3/4, Monarch Palace, Next To Saidev Hotel, J B Nagar, Andheri East",
          "addr:postcode": "400059",
          "addr:state": "Maharashtra",
          "amenity": "clinic",
          "healthcare": "clinic",
          "name": "Rachana Maternity Paediatric and Surgical Nursing Home",
          "source": "OpenGovernmentData"
        }
      },
      {
        "type": "node",
        "id": 7070050992,
        "lat": 19.11132,
        "lon": 72.8671995,
        "tags": {
          "addr:district": "Mumbai",
          "addr:full": "B-1 Greenland Apt J.B Ngr Andheri(E)",
          "addr:postcode": "400059",
          "addr:state": "Maharashtra",
          "amenity": "hospital",
          "healthcare": "hospital",
          "name": "Spectacles and Contact Lens Clinic",
          "source": "OpenGovernmentData"
        }
      },
      {
        "type": "node",
        "id": 7086532370,
        "lat": 19.1100591,
        "lon": 72.8642115,
        "tags": {
          "addr:district": "Mumbai",
          "addr:full": "Goel Apartments, J B Nagar, Near Kalgidhar High School, Wireless Street, Andheri East",
          "addr:postcode": "400059",
          "addr:state": "Maharashtra",
          "amenity": "hospital",
          "healthcare": "hospital",
          "name": "Goel Hospital",
          "source": "OpenGovernmentData"
        }
      },
      {
        "type": "node",
        "id": 7087002893,
        "lat": 19.1084865,
        "lon": 72.8622367,
        "tags": {
          "addr:district": "Mumbai",
          "addr:full": "59, Harishchandra Apartment, Tarunbharat Society, Chakala, Andheri(E)",
          "addr:postcode": "400099",
          "addr:state": "Maharashtra",
          "amenity": "clinic",
          "healthcare": "clinic",
          "name": "Veena Clinic",
          "source": "OpenGovernmentData"
        }
      },
      {
        "type": "node",
        "id": 8448096886,
        "lat": 19.0962481,
        "lon": 72.8655063,
        "tags": {
          "addr:city": "mumbai",
          "addr:postcode": "400099",
          "amenity": "bank",
          "brand": "State Bank of India",
          "brand:wikidata": "Q1340361",
          "name": "State Bank of India",
          "opening_hours": "Mo-Sa 10:00-04:00",
          "short_name": "SBI"
        }
      },
      {
        "type": "node",
        "id": 9359808172,
        "lat": 19.1070411,
        "lon": 72.86426,
        "tags": {
          "addr:city": "Mumbai",
          "addr:postcode": "400059",
          "addr:street": "V M Shah Marg",
          "amenity": "restaurant",
          "cuisine": "pizza;burger;sandwich;chicken;kebab",
          "diet:meat": "yes",
          "diet:vegetarian": "yes",
          "name": "Amar Fast Food And Juice Center",
          "opening_hours": "Mo-Su 10:00-24:00"
        }
      },
      {
        "type": "node",
        "id": 11176138118,
        "lat": 19.107091,
        "lon": 72.8639396,
        "tags": {
          "leisure": "park",
          "name": "sbi"
        }
      },
      {
        "type": "node",
        "id": 11182699703,
        "lat": 19.1067556,
        "lon": 72.8639564,
        "tags": {
          "addr:city": "Mumbai",
          "addr:district": "Mumbai",
          "addr:postcode": "400059",
          "addr:street": "j b nagar raod",
          "leisure": "park",
          "name": "nana nani park",
          "operator": "altaf",
          "operator:type": "public"
        }
      },
      {
        "type": "node",
        "id": 11182699704,
        "lat": 19.1067492,
        "lon": 72.8635393,
        "tags": {
          "addr:city": "Mumbai",
          "addr:district": "Mumbai",
          "addr:postcode": "400059",
          "addr:street": "j b nagar andheri east",
          "amenity": "restaurant",
          "cuisine": "coffee_shop",
          "diet:vegetarian": "yes",
          "name": "amar juice center",
          "phone": "1234335",
          "website": "www.amarjuice.com"
        }
      },
      {
        "type": "node",
        "id": 11193066689,
        "lat": 19.1071043,
        "lon": 72.8639391,
        "tags": {
          "amenity": "bank",
          "name": "canera bank"
        }
      },
      {
        "type": "node",
        "id": 11193066690,
        "lat": 19.1070967,
        "lon": 72.8642556,
        "tags": {
          "amenity": "restaurant"
        }
      },
      {
        "type": "node",
        "id": 11217394319,
        "lat": 19.108027,
        "lon": 72.8586506,
        "tags": {
          "amenity": "atm"
        }
      },
      {
        "type": "node",
        "id": 11506435036,
        "lat": 19.1085583,
        "lon": 72.8572649,
        "tags": {
          "amenity": "restaurant",
          "name": "Black Bull Cafe (BBC Bar & Restaurant)"
        }
      },
      {
        "type": "node",
        "id": 12317845259,
        "lat": 19.1057662,
        "lon": 72.8587052,
        "tags": {
          "addr:full": "B-11, Nav Sheetal Coop Hsg Ltd, Justice MC Chagla Marg, Bamanwada, Ville Parle (E), Mumbai - 400 099",
          "amenity": "pharmacy",
          "healthcare": "pharmacy",
          "level": "0",
          "name": "Ashirwad Medical",
          "wheelchair": "no"
        }
      },
      {
        "type": "node",
        "id": 12317845292,
        "lat": 19.1111899,
        "lon": 72.8586538,
        "tags": {
          "amenity": "pharmacy",
          "healthcare": "pharmacy",
          "level": "0",
          "name": "United Medical and General Stores"
        }
      },
      {
        "type": "node",
        "id": 13088720350,
        "lat": 19.1100931,
        "lon": 72.8642165,
        "tags": {
          "amenity": "hospital",
          "emergency": "yes",
          "healthcare": "hospital",
          "name": "goel hospital"
        }
      },
      {
        "type": "node",
        "id": 13088720351,
        "lat": 19.1099537,
        "lon": 72.8618616,
        "tags": {
          "leisure": "park",
          "name": "park",
          "opening_hours": "Mo-Su 09:00-21:00"
        }
      }
    ]
  },
  "pois_2_5km": {
    "version": 0.6,
    "generator": "Overpass API 0.7.62.8 e802775f",
    "osm3s": {
      "timestamp_osm_base": "2025-09-06T07:44:31Z",
      "copyright": "The data included in this document is from www.openstreetmap.org. The data is made available under ODbL."
    },
    "elements": [
      {
        "type": "node",
        "id": 621276256,
        "lat": 19.1000028,
        "lon": 72.8439266,
        "tags": {
          "name": "Vile Parle",
          "name:en": "Vile Parle",
          "name:mr": "\u0935\u093f\u0932\u0947 \u092a\u093e\u0930\u094d\u0932\u0947",
          "public_transport": "stop_position",
          "railway": "stop",
          "ref": "3",
          "train": "yes"
        }
      },
      {
        "type": "node",
        "id": 623881644,
        "lat": 19.1209139,
        "lon": 72.8480322,
        "tags": {
          "name": "Andheri",
          "name:mr": "\u0905\u0902\u0927\u0947\u0930\u0940",
          "name:ru": "\u042d\u043d\u0434\u0435\u0440\u0438",
          "network": "Mumbai Metro",
          "operator": "MMRDA",
          "public_transport": "stop_position",
          "railway": "stop",
          "subway": "yes"
        }
      },
      {
        "type": "node",
        "id": 623883811,
        "lat": 19.1121886,
        "lon": 72.867001,
        "tags": {
          "name": "Chakala - J.B. Nagar",
          "name:mr": "\u091a\u0915\u093e\u0932\u093e - \u091c\u0947. \u092c\u0940. \u0928\u0917\u0930",
          "name:ru": "\u0427\u0430\u043a\u0430\u043b\u0430 (\u0414\u0436\u0430\u043c\u043d\u0430\u043b\u0430\u043b \u0411\u0430\u0434\u0436\u0430\u0434\u0436 \u041d\u0430\u0433\u0430\u0440)",
          "network": "Mumbai Metro",
          "operator": "MMRDA",
          "public_transport": "stop_position",
          "railway": "stop",
          "subway": "yes"
        }
      },
      {
        "type": "node",
        "id": 1241793068,
        "lat": 19.09544,
        "lon": 72.8660044,
        "tags": {
          "aeroway": "terminal",
          "ele": "15.747192",
          "name": "Cargo Terminal",
          "source": "GPS",
          "sym": "Civil"
        }
      },
      {
        "type": "node",
        "id": 1345350827,
        "lat": 19.1161423,
        "lon": 72.8563549,
        "tags": {
          "addr:city": "Mumbai",
          "addr:postcode": "400099",
          "addr:street": "Mathuradas Vasanji Road",
          "amenity": "fuel",
          "name": "Guru Nanak Petrol Pump",
          "opening_hours": "24/7",
          "operator": "BPCL"
        }
      },
      {
        "type": "node",
        "id": 1345350832,
        "lat": 19.1147257,
        "lon": 72.8596325,
        "tags": {
          "addr:city": "Mumbai",
          "addr:street": "Mathuradas Vasanji Road",
          "amenity": "fuel",
          "brand": "Hindustan Petroleum",
          "brand:wikidata": "Q1619375",
          "brand:wikipedia": "en:Hindustan Petroleum",
          "name": "HP",
          "official_name": "Hindustan Petroleum"
        }
      },
      {
        "type": "node",
        "id": 1348867392,
        "lat": 19.1179082,
        "lon": 72.8657206,
        "tags": {
          "amenity": "bus_station",
          "bus": "yes",
          "name": "Marol Depot",
          "public_transport": "station"
        }
      },
      {
        "type": "node",
        "id": 1646774124,
        "lat": 19.1189755,
        "lon": 72.847101,
        "tags": {
          "name": "Andheri",
          "name:en": "Andheri",
          "name:mr": "\u0905\u0902\u0927\u0947\u0930\u0940",
          "public_transport": "stop_position",
          "railway": "stop",
          "ref": "9",
          "train": "yes"
        }
      },
      {
        "type": "node",
        "id": 1646774126,
        "lat": 19.1192749,
        "lon": 72.8470336,
        "tags": {
          "name": "Andheri",
          "name:en": "Andheri",
          "name:mr": "\u0905\u0902\u0927\u0947\u0930\u0940",
          "public_transport": "stop_position",
          "railway": "stop",
          "ref": "8",
          "train": "yes"
        }
      },
      {
        "type": "node",
        "id": 1646774128,
        "lat": 19.1192854,
        "lon": 72.8469802,
        "tags": {
          "name": "Andheri",
          "name:en": "Andheri",
          "name:mr": "\u0905\u0902\u0927\u0947\u0930\u0940",
          "public_transport": "stop_position",
          "railway": "stop",
          "ref": "7",
          "train": "yes"
        }
      },
      {
        "type": "node",
        "id": 1646774129,
        "lat": 19.1192914,
        "lon": 72.846845,
        "tags": {
          "name": "Andheri",
          "name:en": "Andheri",
          "name:mr": "\u0905\u0902\u0927\u0947\u0930\u0940",
          "public_transport": "stop_position",
          "railway": "stop",
          "ref": "6",
          "train": "yes"
        }
      },
      {
        "type": "node",
        "id": 1646774130,
        "lat": 19.1192956,
        "lon": 72.8467967,
        "tags": {
          "name": "Andheri",
          "name:en": "Andheri",
          "name:mr": "\u0905\u0902\u0927\u0947\u0930\u0940",
          "public_transport": "stop_position",
          "railway": "stop",
          "ref": "5",
          "train": "yes"
        }
      },
      {
        "type": "node",
        "id": 1646774131,
        "lat": 19.1193178,
        "lon": 72.8466577,
        "tags": {
          "name": "Andheri",
          "name:en": "Andheri",
          "name:mr": "\u0905\u0902\u0927\u0947\u0930\u0940",
          "public_transport": "stop_position",
          "railway": "stop",
          "ref": "4",
          "train": "yes"
        }
      },
      {
        "type": "node",
        "id": 1646774132,
        "lat": 19.1193246,
        "lon": 72.8465965,
        "tags": {
          "name": "Andheri",
          "name:en": "Andheri",
          "name:mr": "\u0905\u0902\u0927\u0947\u0930\u0940",
          "public_transport": "stop_position",
          "railway": "stop",
          "ref": "3",
          "train": "yes"
        }
      },
      {
        "type": "node",
        "id": 1648195662,
        "lat": 19.0975373,
        "lon": 72.8652877,
        "tags": {
          "amenity": "bus_station",
          "bus": "yes",
          "name": "Sahar Cargo Complex",
          "public_transport": "station"
        }
      },
      {
        "type": "node",
        "id": 2188851345,
        "lat": 19.1121647,
        "lon": 72.8647228,
        "tags": {
          "amenity": "cinema",
          "name": "Sangam Big Cinema"
        }
      },
      {
        "type": "node",
        "id": 2630075010,
        "lat": 19.0999098,
        "lon": 72.8440038,
        "tags": {
          "ele": "10",
          "internet_access": "no",
          "name": "Vile Parle",
          "name:hi": "\u0935\u093f\u0932\u0947 \u092a\u093e\u0930\u094d\u0932\u0947",
          "name:mr": "\u0935\u093f\u0932\u0947 \u092a\u093e\u0930\u094d\u0932\u0947",
          "network": "Mumbai Suburban Railway",
          "network:wikidata": "Q3273422",
          "operator": "WR",
          "public_transport": "station",
          "railway": "station",
          "ref": "VLP",
          "train": "yes",
          "wikidata": "Q7930143",
          "wikipedia": "en:Vile Parle railway station"
        }
      },
      {
        "type": "node",
        "id": 3175794769,
        "lat": 19.1099146,
        "lon": 72.8747968,
        "tags": {
          "name": "Airport Road",
          "name:mr": "\u0935\u093f\u092e\u093e\u0928\u0924\u0933 \u0930\u0938\u094d\u0924\u093e",
          "name:ru": "\u042d\u0439\u0440\u043f\u043e\u0440\u0442-\u0420\u043e\u0443\u0434",
          "network": "Mumbai Metro",
          "operator": "MMRDA",
          "public_transport": "stop_position",
          "railway": "stop",
          "subway": "yes"
        }
      },
      {
        "type": "node",
        "id": 3175794770,
        "lat": 19.1103264,
        "lon": 72.8735321,
        "tags": {
          "name": "Airport Road",
          "name:mr": "\u0935\u093f\u092e\u093e\u0928\u0924\u0933 \u0930\u0938\u094d\u0924\u093e",
          "name:ru": "\u042d\u0439\u0440\u043f\u043e\u0440\u0442-\u0420\u043e\u0443\u0434",
          "network": "Mumbai Metro",
          "operator": "MMRDA",
          "public_transport": "stop_position",
          "railway": "stop",
          "subway": "yes"
        }
      },
      {
        "type": "node",
        "id": 3175794775,
        "lat": 19.1079463,
        "lon": 72.8801094,
        "tags": {
          "name": "Marol Naka (Line 1)",
          "name:mr": "\u092e\u0930\u094b\u0933 \u0928\u093e\u0915\u093e",
          "name:ru": "\u041c\u0430\u0440\u043e\u043b \u041d\u0430\u043a\u0430",
          "network": "Mumbai Metro",
          "operator": "MMRDA",
          "public_transport": "stop_position",
          "railway": "stop",
          "subway": "yes"
        }
      },
      {
        "type": "node",
        "id": 3175794776,
        "lat": 19.1083663,
        "lon": 72.8788727,
        "tags": {
          "name": "Marol Naka (Line 1)",
          "name:mr": "\u092e\u0930\u094b\u0933 \u0928\u093e\u0915\u093e",
          "name:ru": "\u041c\u0430\u0440\u043e\u043b \u041d\u0430\u043a\u0430",
          "network": "Mumbai Metro",
          "operator": "MMRDA",
          "public_transport": "stop_position",
          "railway": "stop",
          "subway": "yes"
        }
      },
      {
        "type": "node",
        "id": 3347771408,
        "lat": 19.1000071,
        "lon": 72.8438937,
        "tags": {
          "name": "Vile Parle",
          "name:en": "Vile Parle",
          "name:mr": "\u0935\u093f\u0932\u0947 \u092a\u093e\u0930\u094d\u0932\u0947",
          "public_transport": "stop_position",
          "railway": "stop",
          "ref": "2",
          "train": "yes"
        }
      },
      {
        "type": "node",
        "id": 3389150481,
        "lat": 19.1200415,
        "lon": 72.8494816,
        "tags": {
          "name": "Andheri",
          "name:mr": "\u0905\u0902\u0927\u0947\u0930\u0940",
          "name:ru": "\u042d\u043d\u0434\u0435\u0440\u0438",
          "network": "Mumbai Metro",
          "operator": "MMRDA",
          "public_transport": "stop_position",
          "railway": "stop",
          "subway": "yes"
        }
      },
      {
        "type": "node",
        "id": 3389150483,
        "lat": 19.1155638,
        "lon": 72.8569834,
        "tags": {
          "name": "Western Express Highway (eastbound)",
          "name:mr": "\u092a\u0936\u094d\u091a\u093f\u092e \u0926\u094d\u0930\u0941\u0924\u0917\u0924\u0940 \u092e\u0939\u093e\u092e\u093e\u0930\u094d\u0917",
          "name:ru": "\u0412\u0435\u0441\u0442\u0435\u0440\u043d \u042d\u043a\u0441\u043f\u0440\u0435\u0441\u0441 \u0425\u0430\u0439\u0432\u0435\u0439",
          "network": "Mumbai Metro",
          "operator": "MMRDA",
          "public_transport": "stop_position",
          "railway": "stop",
          "subway": "yes"
        }
      },
      {
        "type": "node",
        "id": 3389150484,
        "lat": 19.1161636,
        "lon": 72.8558686,
        "tags": {
          "name": "Western Express Highway (westbound)",
          "name:mr": "\u092a\u0936\u094d\u091a\u093f\u092e \u0926\u094d\u0930\u0941\u0924\u0917\u0924\u0940 \u092e\u0939\u093e\u092e\u093e\u0930\u094d\u0917",
          "name:ru": "\u0412\u0435\u0441\u0442\u0435\u0440\u043d \u042d\u043a\u0441\u043f\u0440\u0435\u0441\u0441 \u0425\u0430\u0439\u0432\u0435\u0439",
          "network": "Mumbai Metro",
          "operator": "MMRDA",
          "public_transport": "stop_position",
          "railway": "stop",
          "subway": "yes"
        }
      },
      {
        "type": "node",
        "id": 3389210700,
        "lat": 19.1119069,
        "lon": 72.8682423,
        "tags": {
          "name": "Chakala - J.B. Nagar",
          "name:mr": "\u091a\u0915\u093e\u0932\u093e - \u091c\u0947. \u092c\u0940. \u0928\u0917\u0930",
          "name:ru": "\u0427\u0430\u043a\u0430\u043b\u0430 (\u0414\u0436\u0430\u043c\u043d\u0430\u043b\u0430\u043b \u0411\u0430\u0434\u0436\u0430\u0434\u0436 \u041d\u0430\u0433\u0430\u0440)",
          "network": "Mumbai Metro",
          "operator": "MMRDA",
          "public_transport": "stop_position",
          "railway": "stop",
          "subway": "yes"
        }
      },
      {
        "type": "node",
        "id": 3951524190,
        "lat": 19.1010253,
        "lon": 72.8392429,
        "tags": {
          "amenity": "fuel",
          "brand": "Indian Oil",
          "brand:wikidata": "Q1289348",
          "brand:wikipedia": "en:Indian Oil Corporation",
          "name": "Indian Oil"
        }
      },
      {
        "type": "node",
        "id": 4349254491,
        "lat": 19.1083512,
        "lon": 72.8782543,
        "tags": {
          "amenity": "fuel",
          "brand": "Hindustan Petroleum",
          "brand:wikidata": "Q1619375",
          "name": "HP",
          "official_name": "Hindustan Petroleum"
        }
      },
      {
        "type": "node",
        "id": 5220954818,
        "lat": 19.1145088,
        "lon": 72.8551766,
        "tags": {
          "name:mr": "\u0917\u0941\u0902\u0926\u0935\u0932\u0940",
          "name:ru": "\u0413\u0443\u043d\u0434\u0430\u0432\u0430\u043b\u0438",
          "public_transport": "stop_position",
          "railway": "stop",
          "subway": "yes"
        }
      },
      {
        "type": "node",
        "id": 5221297132,
        "lat": 19.1023335,
        "lon": 72.8744692,
        "tags": {
          "name": "CSMI Airport International T2",
          "name:mr": "\u091b.\u0936\u093f.\u092e.\u0906\u0902.\u0935\u093f. \u091f-\u0968",
          "network": "Mumbai Metro",
          "operator": "Mumbai Metro Rail Corporation Ltd",
          "public_transport": "station",
          "railway": "station",
          "start_date": "2024-10-05",
          "station": "subway",
          "subway": "yes"
        }
      },
      {
        "type": "node",
        "id": 5696928866,
        "lat": 19.1196976,
        "lon": 72.8464205,
        "tags": {
          "date:rebuilt": "2015",
          "date:renamed": "1934",
          "historic:name": "Salsette\u2013Trombay",
          "internet_access": "no",
          "name": "Andheri",
          "name:1928-1934": "Salsette\u2013Trombay",
          "name:hi": "\u0905\u0928\u094d\u0927\u0947\u0930\u0940",
          "name:mr": "\u0905\u0902\u0927\u0947\u0930\u0940",
          "network": "Mumbai Suburban Railway",
          "network:wikidata": "Q3273422",
          "operator": "Western Railway",
          "public_transport": "station",
          "railway": "station",
          "ref": "ADH",
          "start_date": "1928",
          "train": "yes",
          "wheelchair": "yes",
          "wikidata": "Q4754334",
          "wikipedia": "en:Andheri railway station"
        }
      },
      {
        "type": "node",
        "id": 5787704196,
        "lat": 19.1173537,
        "lon": 72.8735966,
        "tags": {
          "name": "MIDC - Andheri",
          "name:mr": "\u090f\u092e.\u0906\u092f.\u0921\u0940.\u0938\u0940. - \u0905\u0902\u0927\u0947\u0930\u0940",
          "network": "Mumbai Metro",
          "operator": "Mumbai Metro Rail Corporation Ltd",
          "public_transport": "station",
          "railway": "station",
          "start_date": "2024-10-05",
          "station": "subway",
          "subway": "yes"
        }
      },
      {
        "type": "node",
        "id": 5787704197,
        "lat": 19.1085041,
        "lon": 72.878578,
        "tags": {
          "name": "Marol Naka L3",
          "name:mr": "\u092e\u0930\u094b\u0933 \u0928\u093e\u0915\u093e",
          "network": "Mumbai Metro",
          "operator": "Mumbai Metro Rail Corporation Ltd",
          "public_transport": "station",
          "railway": "station",
          "start_date": "2024-10-05",
          "station": "subway",
          "subway": "yes"
        }
      },
      {
        "type": "node",
        "id": 6020955334,
        "lat": 19.1204624,
        "lon": 72.8487861,
        "tags": {
          "building": "transportation",
          "description": "Andheri Metro Station",
          "name": "Andheri L1",
          "name:mr": "\u0905\u0902\u0927\u0947\u0930\u0940",
          "public_transport": "station",
          "railway": "station",
          "station": "subway",
          "subway": "yes",
          "wikidata": "Q17512034",
          "wikipedia": "en:Andheri metro station"
        }
      },
      {
        "type": "node",
        "id": 6110571686,
        "lat": 19.1053592,
        "lon": 72.8465173,
        "tags": {
          "amenity": "theatre",
          "name:en": "Suncity Theatre",
          "opening_hours": "Mo-Su 10:00-22:00"
        }
      },
      {
        "type": "node",
        "id": 6110577585,
        "lat": 19.1007306,
        "lon": 72.8449115,
        "tags": {
          "amenity": "theatre",
          "name:en": "Dinanath Mangeshkar Natyagruha",
          "opening_hours": "Mo-Su 10:00-20:00"
        }
      },
      {
        "type": "node",
        "id": 7510862070,
        "lat": 19.119344,
        "lon": 72.8464384,
        "tags": {
          "name": "Andheri",
          "name:en": "Andheri",
          "name:mr": "\u0905\u0902\u0927\u0947\u0930\u0940",
          "public_transport": "stop_position",
          "railway": "stop",
          "ref": "1",
          "train": "yes"
        }
      },
      {
        "type": "node",
        "id": 7510862071,
        "lat": 19.1193373,
        "lon": 72.8464956,
        "tags": {
          "name": "Andheri",
          "name:en": "Andheri",
          "name:mr": "\u0905\u0902\u0927\u0947\u0930\u0940",
          "public_transport": "stop_position",
          "railway": "stop",
          "ref": "2",
          "train": "yes"
        }
      },
      {
        "type": "node",
        "id": 7510862076,
        "lat": 19.099961,
        "lon": 72.8442291,
        "tags": {
          "name": "Vile Parle",
          "name:en": "Vile Parle",
          "name:mr": "\u0935\u093f\u0932\u0947 \u092a\u093e\u0930\u094d\u0932\u0947",
          "public_transport": "stop_position",
          "railway": "stop",
          "ref": "6",
          "train": "yes"
        }
      },
      {
        "type": "node",
        "id": 7510862077,
        "lat": 19.0999755,
        "lon": 72.8441316,
        "tags": {
          "name": "Vile Parle",
          "name:en": "Vile Parle",
          "name:mr": "\u0935\u093f\u0932\u0947 \u092a\u093e\u0930\u094d\u0932\u0947",
          "public_transport": "stop_position",
          "railway": "stop",
          "ref": "5",
          "train": "yes"
        }
      },
      {
        "type": "node",
        "id": 7510862078,
        "lat": 19.0999796,
        "lon": 72.8440865,
        "tags": {
          "name": "Vile Parle",
          "name:en": "Vile Parle",
          "name:mr": "\u0935\u093f\u0932\u0947 \u092a\u093e\u0930\u094d\u0932\u0947",
          "public_transport": "stop_position",
          "railway": "stop",
          "ref": "4",
          "train": "yes"
        }
      },
      {
        "type": "node",
        "id": 7510862079,
        "lat": 19.1001265,
        "lon": 72.8437717,
        "tags": {
          "name": "Vile Parle",
          "name:en": "Vile Parle",
          "name:mr": "\u0935\u093f\u0932\u0947 \u092a\u093e\u0930\u094d\u0932\u0947",
          "public_transport": "stop_position",
          "railway": "stop",
          "ref": "1",
          "train": "yes"
        }
      },
      {
        "type": "node",
        "id": 7944314140,
        "lat": 19.1164903,
        "lon": 72.8564764,
        "tags": {
          "air_conditioning": "yes",
          "amenity": "cinema",
          "name": "PVR Andheri",
          "screen": "1"
        }
      },
      {
        "type": "node",
        "id": 7944328628,
        "lat": 19.1138698,
        "lon": 72.8576914,
        "tags": {
          "amenity": "cinema",
          "name": "Mohan Studio"
        }
      },
      {
        "type": "node",
        "id": 9131712733,
        "lat": 19.1051107,
        "lon": 72.8542316,
        "tags": {
          "construction": "stop",
          "name": "Airport Colony Station",
          "public_transport": "stop_position",
          "public_transport:version": "2",
          "railway": "construction"
        }
      },
      {
        "type": "node",
        "id": 10102658120,
        "lat": 19.1063277,
        "lon": 72.8631392,
        "tags": {
          "addr:street": "Om Nagar Road",
          "aeroway": "terminal",
          "name": "transline air cargo servics pvt ltd unit no 17",
          "name:en": "transline air cargo services pvt ltd unit no 17"
        }
      },
      {
        "type": "node",
        "id": 10261228661,
        "lat": 19.0934529,
        "lon": 72.8557692,
        "tags": {
          "amenity": "bus_station",
          "bus": "yes",
          "name": "Domestic Airport Terminal 1",
          "public_transport": "station"
        }
      },
      {
        "type": "node",
        "id": 10267208087,
        "lat": 19.1007285,
        "lon": 72.8445616,
        "tags": {
          "amenity": "bus_station",
          "bus": "yes",
          "name": "Vile Parle Station (E)",
          "public_transport": "station"
        }
      },
      {
        "type": "node",
        "id": 10576622687,
        "lat": 19.1145125,
        "lon": 72.8551556,
        "tags": {
          "name": "Gundavali",
          "name:mr": "\u0917\u0941\u0902\u0926\u0935\u0932\u0940",
          "public_transport": "station",
          "railway": "station",
          "station": "subway",
          "subway": "yes"
        }
      },
      {
        "type": "node",
        "id": 10576622691,
        "lat": 19.1145184,
        "lon": 72.8551326,
        "tags": {
          "name:mr": "\u0917\u0941\u0902\u0926\u0935\u0932\u0940",
          "name:ru": "\u0413\u0443\u043d\u0434\u0430\u0432\u0430\u043b\u0438",
          "public_transport": "stop_position",
          "railway": "stop",
          "subway": "yes"
        }
      },
      {
        "type": "node",
        "id": 11445747452,
        "lat": 19.0961043,
        "lon": 72.8837812,
        "tags": {
          "amenity": "fuel",
          "brand": "Hindustan Petroleum",
          "brand:wikidata": "Q1619375",
          "name": "HP",
          "official_name": "Hindustan Petroleum"
        }
      },
      {
        "type": "node",
        "id": 11451538384,
        "lat": 19.0961553,
        "lon": 72.8838153,
        "tags": {
          "amenity": "fuel",
          "name": "HP"
        }
      },
      {
        "type": "node",
        "id": 11698425211,
        "lat": 19.1125194,
        "lon": 72.8648858,
        "tags": {
          "amenity": "theatre",
          "name": "Carnival Cinemas"
        }
      },
      {
        "type": "node",
        "id": 12070988878,
        "lat": 19.1079313,
        "lon": 72.8809709,
        "tags": {
          "amenity": "fuel",
          "brand": "Bharat Petroleum",
          "brand:wikidata": "Q854826",
          "name": "Bharat Petroleum"
        }
      },
      {
        "type": "node",
        "id": 12074903227,
        "lat": 19.0942324,
        "lon": 72.8540504,
        "tags": {
          "name": "CSMIA Domestic",
          "name:mr": "\u091b.\u0936\u093f.\u092e.\u0906\u0902.\u0935\u093f. \u091f-\u0967",
          "network": "Mumbai Metro",
          "operator": "Mumbai Metro Rail Corporation Ltd",
          "public_transport": "stop_position",
          "railway": "stop",
          "subway": "yes"
        }
      },
      {
        "type": "node",
        "id": 12074903228,
        "lat": 19.0936196,
        "lon": 72.853081,
        "tags": {
          "name": "CSMIA Domestic",
          "name:mr": "\u091b.\u0936\u093f.\u092e.\u0906\u0902.\u0935\u093f. \u091f-\u0967",
          "network": "Mumbai Metro",
          "operator": "Mumbai Metro Rail Corporation Ltd",
          "public_transport": "stop_position",
          "railway": "stop",
          "subway": "yes"
        }
      },
      {
        "type": "node",
        "id": 12074903229,
        "lat": 19.1022615,
        "lon": 72.8656166,
        "tags": {
          "name": "Sahar Road",
          "name:mr": "\u0938\u0939\u093e\u0930 \u0930\u094b\u0921",
          "network": "Mumbai Metro",
          "operator": "Mumbai Metro Rail Corporation Ltd",
          "public_transport": "stop_position",
          "railway": "stop",
          "subway": "yes"
        }
      },
      {
        "type": "node",
        "id": 12074903230,
        "lat": 19.1020562,
        "lon": 72.8647115,
        "tags": {
          "name": "Sahar Road",
          "name:mr": "\u0938\u0939\u093e\u0930 \u0930\u094b\u0921",
          "network": "Mumbai Metro",
          "operator": "Mumbai Metro Rail Corporation Ltd",
          "public_transport": "stop_position",
          "railway": "stop",
          "subway": "yes"
        }
      },
      {
        "type": "node",
        "id": 12074903231,
        "lat": 19.1024452,
        "lon": 72.8752595,
        "tags": {
          "name": "CSMIA International T2",
          "name:mr": "\u091b.\u0936\u093f.\u092e.\u0906\u0902.\u0935\u093f. \u091f-\u0968",
          "network": "Mumbai Metro",
          "operator": "Mumbai Metro Rail Corporation Ltd",
          "public_transport": "stop_position",
          "railway": "stop",
          "subway": "yes"
        }
      },
      {
        "type": "node",
        "id": 12074903232,
        "lat": 19.1021572,
        "lon": 72.8736657,
        "tags": {
          "name": "CSMIA International T2",
          "name:mr": "\u091b.\u0936\u093f.\u092e.\u0906\u0902.\u0935\u093f. \u091f-\u0968",
          "network": "Mumbai Metro",
          "operator": "Mumbai Metro Rail Corporation Ltd",
          "public_transport": "stop_position",
          "railway": "stop",
          "subway": "yes"
        }
      },
      {
        "type": "node",
        "id": 12074903233,
        "lat": 19.1082762,
        "lon": 72.8786939,
        "tags": {
          "name": "Marol Naka (Line 3)",
          "name:mr": "\u092e\u0930\u094b\u0933 \u0928\u093e\u0915\u093e",
          "network": "Mumbai Metro",
          "operator": "Mumbai Metro Rail Corporation Ltd",
          "public_transport": "stop_position",
          "railway": "stop",
          "subway": "yes"
        }
      },
      {
        "type": "node",
        "id": 12074903234,
        "lat": 19.1092629,
        "lon": 72.8784321,
        "tags": {
          "name": "Marol Naka (Line 3)",
          "name:mr": "\u092e\u0930\u094b\u0933 \u0928\u093e\u0915\u093e",
          "network": "Mumbai Metro",
          "operator": "Mumbai Metro Rail Corporation Ltd",
          "public_transport": "stop_position",
          "railway": "stop",
          "subway": "yes"
        }
      },
      {
        "type": "node",
        "id": 12074903235,
        "lat": 19.1174293,
        "lon": 72.873089,
        "tags": {
          "name": "MIDC - Andheri",
          "name:mr": "\u090f\u092e.\u0906\u092f.\u0921\u0940.\u0938\u0940. - \u0905\u0902\u0927\u0947\u0930\u0940",
          "network": "Mumbai Metro",
          "operator": "Mumbai Metro Rail Corporation Ltd",
          "public_transport": "stop_position",
          "railway": "stop",
          "subway": "yes"
        }
      },
      {
        "type": "node",
        "id": 12074903236,
        "lat": 19.1172867,
        "lon": 72.8742053,
        "tags": {
          "name": "MIDC - Andheri",
          "name:mr": "\u090f\u092e.\u0906\u092f.\u0921\u0940.\u0938\u0940. - \u0905\u0902\u0927\u0947\u0930\u0940",
          "network": "Mumbai Metro",
          "operator": "Mumbai Metro Rail Corporation Ltd",
          "public_transport": "stop_position",
          "railway": "stop",
          "subway": "yes"
        }
      },
      {
        "type": "node",
        "id": 12074909131,
        "lat": 19.093899,
        "lon": 72.8535765,
        "tags": {
          "name": "CSMI Airport Domestic T1",
          "name:mr": "\u091b.\u0936\u093f.\u092e.\u0906\u0902.\u0935\u093f. \u091f-\u0967",
          "network": "Mumbai Metro",
          "operator": "Mumbai Metro Rail Corporation Ltd",
          "public_transport": "station",
          "railway": "station",
          "start_date": "2024-10-05",
          "station": "subway",
          "subway": "yes"
        }
      },
      {
        "type": "node",
        "id": 12074909132,
        "lat": 19.102196,
        "lon": 72.8652361,
        "tags": {
          "name": "Sahar Road",
          "name:mr": "\u0938\u0939\u093e\u0930 \u0930\u094b\u0921",
          "network": "Mumbai Metro",
          "operator": "Mumbai Metro Rail Corporation Ltd",
          "public_transport": "station",
          "railway": "station",
          "start_date": "2024-10-05",
          "station": "subway",
          "subway": "yes"
        }
      },
      {
        "type": "node",
        "id": 12959559950,
        "lat": 19.1194235,
        "lon": 72.8460235,
        "tags": {
          "bus": "yes",
          "name": "Andheri",
          "public_transport": "stop_position",
          "route_ref": "252"
        }
      },
      {
        "type": "node",
        "id": 12959559951,
        "lat": 19.1194665,
        "lon": 72.8458654,
        "tags": {
          "bus": "yes",
          "name": "Andheri",
          "public_transport": "stop_position",
          "route_ref": "266"
        }
      }
    ]
  }
}