{
  "pois_1km": {
    "version": 0.6,
    "generator": "Overpass API 0.7.62.8 e802775f",
    "osm3s": {
      "timestamp_osm_base": "2025-09-06T07:44:31Z",
      "copyright": "The data included in this document is from www.openstreetmap.org. The data is made available under ODbL."
    },
    "elements": [
      {
        "type": "node",
        "id": 342120028,
        "lat": 19.140853,
        "lon": 72.8324598,
        "tags": {
          "name": "Crystal Plaza",
          "shop": "mall"
        }
      },
      {
        "type": "node",
        "id": 2071265014,
        "lat": 19.1403763,
        "lon": 72.8312872,
        "tags": {
          "addr:housename": "Raheja Classique",
          "addr:housenumber": "Kotak Mahindra Bank",
          "addr:postcode": "400053",
          "addr:street": "New Link Road, Andheri West",
          "amenity": "bank",
          "atm": "yes",
          "brand": "Kotak Mahindra Bank",
          "brand:wikidata": "Q2040404",
          "brand:wikipedia": "en:Kotak Mahindra Bank",
          "name": "Kotak Mahindra Bank",
          "name:en": "Kotak Mahindra Bank",
          "source": "personal field trip. I work here.",
          "website": "http://www.kotak.com"
        }
      },
      {
        "type": "node",
        "id": 2071265558,
        "lat": 19.140617,
        "lon": 72.8312817,
        "tags": {
          "addr:housename": "Raheja Classique",
          "addr:housenumber": "State bank of India",
          "addr:postcode": "400053",
          "addr:street": "New Link Road, Andheri West",
          "amenity": "bank",
          "atm": "yes",
          "brand": "State Bank of India",
          "brand:wikidata": "Q1340361",
          "brand:wikipedia": "en:State Bank of India",
          "name": "State Bank of India",
          "short_name": "SBI",
          "source": "personal field trip, I work in this building."
        }
      },
      {
        "type": "node",
        "id": 2071267071,
        "lat": 19.1399689,
        "lon": 72.8313705,
        "tags": {
          "addr:housename": "Royal Plaza",
          "addr:housenumber": "red Box",
          "addr:postcode": "400053",
          "addr:street": "New Link Road, Andheri West",
          "amenity": "restaurant",
          "cuisine": "chinese",
          "name": "Red Box",
          "source": "field trip"
        }
      },
      {
        "type": "node",
        "id": 2071267387,
        "lat": 19.13986,
        "lon": 72.8313893,
        "tags": {
          "addr:housename": "Royal Plaza",
          "addr:housenumber": "Caravan Serai",
          "addr:postcode": "400053",
          "addr:street": "New Link Road, Andheri West",
          "amenity": "restaurant",
          "cuisine": "indian",
          "name": "Caravan Serai",
          "source": "field trip"
        }
      },
      {
        "type": "node",
        "id": 2074174740,
        "lat": 19.1395609,
        "lon": 72.8320275,
        "tags": {
          "addr:housename": "Gopi Chambers",
          "addr:housenumber": "1st Floor",
          "addr:postcode": "400053",
          "addr:street": "New Link Road, Andheri West",
          "amenity": "bank",
          "atm": "yes",
          "brand": "IDBI Bank",
          "brand:wikidata": "Q3633485",
          "brand:wikipedia": "en:IDBI Bank",
          "name": "IDBI Bank",
          "name:en": "IDBI Bank",
          "old_name": "Industrial Development Bank of India",
          "short_name": "IDBI",
          "source": "field trip",
          "website": "https://www.idbi.com"
        }
      },
      {
        "type": "node",
        "id": 2125053356,
        "lat": 19.1412504,
        "lon": 72.8310858,
        "tags": {
          "amenity": "restaurant",
          "name": "Infinity Mall Food Court"
        }
      },
      {
        "type": "node",
        "id": 2125146883,
        "lat": 19.1421445,
        "lon": 72.829096,
        "tags": {
          "addr:housename": "Link Palace",
          "amenity": "restaurant",
          "cuisine": "chinese",
          "name": "Delicacy Of China"
        }
      },
      {
        "type": "node",
        "id": 2125146888,
        "lat": 19.1428701,
        "lon": 72.82908,
        "tags": {
          "addr:housename": "Twinkle Apartments",
          "amenity": "pharmacy",
          "healthcare": "pharmacy",
          "name": "Sanu Medical"
        }
      },
      {
        "type": "node",
        "id": 2125146897,
        "lat": 19.1420584,
        "lon": 72.8290879,
        "tags": {
          "addr:housename": "Link Palace",
          "amenity": "fast_food",
          "cuisine": "sandwich",
          "name": "Sandwizzaa"
        }
      },
      {
        "type": "node",
        "id": 2125146906,
        "lat": 19.1420001,
        "lon": 72.8290745,
        "tags": {
          "addr:housename": "Link Palace",
          "addr:postcode": "400053",
          "addr:street": "P Tandon Marg",
          "amenity": "cafe",
          "brand": "Costa",
          "brand:wikidata": "Q608845",
          "cuisine": "coffee_shop",
          "name": "Costa",
          "takeaway": "yes",
          "wifi": "no"
        }
      },
      {
        "type": "node",
        "id": 2125146914,
        "lat": 19.145547,
        "lon": 72.8294141,
        "tags": {
          "amenity": "restaurant"
        }
      },
      {
        "type": "node",
        "id": 2125165395,
        "lat": 19.1466371,
        "lon": 72.8291174,
        "tags": {
          "amenity": "cafe",
          "brand": "Barista",
          "brand:wikidata": "Q644735",
          "cuisine": "coffee_shop",
          "name": "Barista",
          "takeaway": "yes"
        }
      },
      {
        "type": "node",
        "id": 2125166461,
        "lat": 19.1468347,
        "lon": 72.829096,
        "tags": {
          "amenity": "bank",
          "atm": "yes",
          "brand": "Standard Chartered",
          "brand:wikidata": "Q548278",
          "name": "Standard Chartered"
        }
      },
      {
        "type": "node",
        "id": 2125237550,
        "lat": 19.1394357,
        "lon": 72.8253328,
        "tags": {
          "amenity": "bank",
          "atm": "yes",
          "brand": "HDFC Bank",
          "brand:wikidata": "Q631047",
          "brand:wikipedia": "en:HDFC Bank",
          "name": "HDFC Bank",
          "short_name": "HDFC",
          "website": "https://www.hdfcbank.com"
        }
      },
      {
        "type": "node",
        "id": 2125320195,
        "lat": 19.141372,
        "lon": 72.8312307,
        "tags": {
          "addr:housename": "Infinity Mall",
          "addr:postcode": "400053",
          "addr:street": "New Link Road, Andheri West",
          "amenity": "cafe",
          "brand": "Cafe Coffee Day",
          "brand:wikidata": "Q5017235",
          "cuisine": "coffee_shop",
          "name": "Cafe Coffee Day",
          "takeaway": "yes"
        }
      },
      {
        "type": "node",
        "id": 2125320197,
        "lat": 19.141068,
        "lon": 72.8311556,
        "tags": {
          "addr:housename": "Infinity Mall",
          "addr:postcode": "400053",
          "addr:street": "New Link Road, Andheri West",
          "amenity": "fast_food",
          "brand": "Subway",
          "brand:pa": "\u0a38\u0a2c\u0a35\u0a47\u0a05",
          "brand:ur": "\u0633\u0628 \u0648\u06d2",
          "brand:wikidata": "Q244457",
          "brand:wikipedia": "en:Subway (restaurant)",
          "cuisine": "sandwich",
          "name": "Subway",
          "name:pa": "\u0a38\u0a2c\u0a35\u0a47\u0a05",
          "name:ur": "\u0633\u0628 \u0648\u06d2",
          "takeaway": "yes"
        }
      },
      {
        "type": "node",
        "id": 2126250492,
        "lat": 19.1414769,
        "lon": 72.8323049,
        "tags": {
          "addr:housename": "Shalimar Morya Park",
          "addr:housenumber": "Shalimar Morya Park",
          "addr:postcode": "400053",
          "addr:street": "Off New Link Road",
          "amenity": "restaurant",
          "cuisine": "chinese",
          "name": "Mainland China"
        }
      },
      {
        "type": "node",
        "id": 2148660919,
        "lat": 19.1343689,
        "lon": 72.8263899,
        "tags": {
          "addr:housenumber": "4",
          "addr:postcode": "400047",
          "addr:street": "4, Lokhandwala Complex Rd, Shastri Nagar, Andheri West",
          "amenity": "restaurant",
          "cuisine": "indian",
          "name": "Some Like It Hot"
        }
      },
      {
        "type": "node",
        "id": 2148661125,
        "lat": 19.1343765,
        "lon": 72.8253653,
        "tags": {
          "addr:postcode": "400047",
          "addr:street": "SVP Nagar, Lokhandwala Complex Road, 4 Bungalows,Andheri Lokhandwala",
          "amenity": "restaurant",
          "cuisine": "indian",
          "name": "Goa Portuguesa",
          "website": "https://www.goaportuguesa.com/"
        }
      },
      {
        "type": "node",
        "id": 2181459990,
        "lat": 19.1401975,
        "lon": 72.8268395,
        "tags": {
          "amenity": "bank",
          "atm": "yes",
          "brand": "Bank of Baroda",
          "brand:wikidata": "Q2003797",
          "brand:wikipedia": "en:Bank of Baroda",
          "name": "Bank of Baroda",
          "name:en": "Bank of Baroda",
          "short_name": "BoB",
          "website": "http://www.bankofbaroda.com"
        }
      },
      {
        "type": "node",
        "id": 2186668925,
        "lat": 19.1327516,
        "lon": 72.8273474,
        "tags": {
          "amenity": "bank",
          "name": "Shamrao Viththal Cooperative Bank"
        }
      },
      {
        "type": "node",
        "id": 2186668978,
        "lat": 19.132483,
        "lon": 72.8274922,
        "tags": {
          "amenity": "hospital",
          "designation": "Dental Clinic",
          "name": "Dr Manveen Gill"
        }
      },
      {
        "type": "node",
        "id": 2189763326,
        "lat": 19.1315553,
        "lon": 72.837364,
        "tags": {
          "amenity": "restaurant",
          "cuisine": "indian",
          "name": "The Courtyard"
        }
      },
      {
        "type": "node",
        "id": 2363073040,
        "lat": 19.1366491,
        "lon": 72.828144,
        "tags": {
          "addr:city": "Mumbai",
          "addr:housename": "Clifton apartments",
          "addr:housenumber": "9",
          "addr:postcode": "400053",
          "addr:street": "Raviraj Oberoi Complex, Inside SAB TV Lane",
          "amenity": "clinic",
          "healthcare": "clinic",
          "name": "Dr Dharampal Singh",
          "phone": "+912226361219",
          "source": "local_knowledge",
          "wifi": "no"
        }
      },
      {
        "type": "node",
        "id": 2363117996,
        "lat": 19.1366014,
        "lon": 72.8274576,
        "tags": {
          "addr:housename": "Clifton Apartment",
          "addr:postcode": "400053",
          "addr:street": "SAB TV Lane, Off New Link Road, Andheri West",
          "amenity": "restaurant",
          "cuisine": "international",
          "name": "Indigo Deli",
          "website": "http://www.degustibus.com"
        }
      },
      {
        "type": "node",
        "id": 2364363843,
        "lat": 19.1396292,
        "lon": 72.826996,
        "tags": {
          "amenity": "restaurant",
          "cuisine": "indian",
          "name": "Oh Calcutta! Express"
        }
      },
      {
        "type": "node",
        "id": 2364369003,
        "lat": 19.1392441,
        "lon": 72.8258668,
        "tags": {
          "amenity": "atm",
          "brand": "State Bank of India",
          "brand:wikidata": "Q1340361",
          "operator": "State Bank of India",
          "operator:wikidata": "Q1340361",
          "short_name": "SBI"
        }
      },
      {
        "type": "node",
        "id": 2364385923,
        "lat": 19.1373689,
        "lon": 72.8294395,
        "tags": {
          "amenity": "cafe",
          "name": "Astro Cafe"
        }
      },
      {
        "type": "node",
        "id": 2364401398,
        "lat": 19.1367912,
        "lon": 72.831537,
        "tags": {
          "amenity": "atm",
          "brand": "Bank of Maharashtra",
          "brand:wikidata": "Q2004304",
          "operator": "Bank of Maharashtra",
          "operator:wikidata": "Q2004304"
        }
      },
      {
        "type": "node",
        "id": 2365365543,
        "lat": 19.1393928,
        "lon": 72.8314734,
        "tags": {
          "alt_name": "San Churro",
          "amenity": "fast_food",
          "name": "Chocolateria San Churro",
          "type": "chocolaterie"
        }
      },
      {
        "type": "node",
        "id": 2365365562,
        "lat": 19.1394688,
        "lon": 72.8314681,
        "tags": {
          "addr:city": "Mumbai",
          "addr:housename": "Royal Classic",
          "addr:postcode": "400053",
          "addr:street": "New Link Road, Andheri West",
          "alt_name": "Alfredo's",
          "amenity": "restaurant",
          "cuisine": "italian",
          "name": "Alfredo's Bar And Diner",
          "wifi": "no"
        }
      },
      {
        "type": "node",
        "id": 2365365573,
        "lat": 19.1395722,
        "lon": 72.8314527,
        "tags": {
          "addr:city": "Mumbai",
          "addr:housename": "Royal Classic",
          "addr:postcode": "400053",
          "addr:street": "New Link Road, Andheri West",
          "amenity": "fast_food",
          "cuisine": "mediterranean",
          "internet_access": "wlan",
          "internet_access:fee": "no",
          "name": "Carter's Blue"
        }
      },
      {
        "type": "node",
        "id": 2365365585,
        "lat": 19.1393377,
        "lon": 72.8314766,
        "tags": {
          "addr:city": "Mumbai",
          "addr:housename": "Royal Classic",
          "addr:postcode": "400053",
          "addr:street": "New Link Road, Andheri West",
          "amenity": "fast_food",
          "name": "The Chocolate Room",
          "type": "chocolaterie"
        }
      },
      {
        "type": "node",
        "id": 2365365592,
        "lat": 19.1396452,
        "lon": 72.8314506,
        "tags": {
          "addr:city": "Mumbai",
          "addr:housename": "Royal Classic",
          "addr:postcode": "400053",
          "addr:street": "New Link Road, Andheri West",
          "alt_name": "Debonair's",
          "amenity": "fast_food",
          "cuisine": "pizza",
          "name": "Debonair Pizza",
          "wifi": "no"
        }
      },
      {
        "type": "node",
        "id": 2365370916,
        "lat": 19.1396186,
        "lon": 72.831187,
        "tags": {
          "addr:city": "Mumbai",
          "addr:housename": "Royal Classic",
          "addr:housenumber": "B 103",
          "addr:postcode": "400053",
          "addr:street": "New Link Road, Andheri West",
          "alt_name": "Vital",
          "amenity": "clinic",
          "healthcare": "clinic",
          "name": "Vital Imaging Centre",
          "note": "it's an imaging centre for medicals",
          "phone": "+912226301184"
        }
      },
      {
        "type": "node",
        "id": 2366784005,
        "lat": 19.145159,
        "lon": 72.8294735,
        "tags": {
          "amenity": "restaurant",
          "cuisine": "indian",
          "name": "Almond Flower"
        }
      },
      {
        "type": "node",
        "id": 2370526133,
        "lat": 19.1374036,
        "lon": 72.8271916,
        "tags": {
          "alt_name": "CCD",
          "amenity": "cafe",
          "brand": "Cafe Coffee Day",
          "brand:wikidata": "Q5017235",
          "cuisine": "coffee_shop",
          "name": "Cafe Coffee Day",
          "takeaway": "yes"
        }
      },
      {
        "type": "node",
        "id": 3008644986,
        "lat": 19.1319124,
        "lon": 72.832721,
        "tags": {
          "amenity": "cafe",
          "brand": "Cafe Coffee Day",
          "brand:wikidata": "Q5017235",
          "cuisine": "coffee_shop",
          "name": "Cafe Coffee Day",
          "takeaway": "yes"
        }
      },
      {
        "type": "node",
        "id": 3221689756,
        "lat": 19.1406806,
        "lon": 72.8319318,
        "tags": {
          "amenity": "restaurant",
          "cuisine": "indian",
          "name": "Pebbles"
        }
      },
      {
        "type": "node",
        "id": 3221694302,
        "lat": 19.140888,
        "lon": 72.831892,
        "tags": {
          "addr:city": "Mumbai",
          "addr:housename": "Crystal Plaza",
          "addr:postcode": "400053",
          "addr:street": "New Link Road, Andheri West",
          "amenity": "restaurant",
          "cuisine": "indian",
          "name": "Kailash Parbat",
          "smoking": "no"
        }
      },
      {
        "type": "node",
        "id": 3226547544,
        "lat": 19.136433,
        "lon": 72.8288475,
        "tags": {
          "amenity": "fast_food",
          "name": "Pishu's"
        }
      },
      {
        "type": "node",
        "id": 3293516345,
        "lat": 19.1404836,
        "lon": 72.8318195,
        "tags": {
          "amenity": "bank",
          "brand": "Yes Bank",
          "brand:wikidata": "Q2040394",
          "brand:wikipedia": "en:Yes Bank",
          "name": "Yes Bank",
          "name:en": "YES Bank",
          "website": "https://www.yesbank.in"
        }
      },
      {
        "type": "node",
        "id": 3293516346,
        "lat": 19.1413314,
        "lon": 72.8310882,
        "tags": {
          "amenity": "fast_food",
          "brand": "Burger King",
          "brand:pa": "\u0a2c\u0a30\u0a17\u0a30 \u0a15\u0a3f\u0a70\u0a17",
          "brand:ur": "\u0628\u0631\u06af\u0631 \u06a9\u0646\u06af",
          "brand:wikidata": "Q177054",
          "brand:wikipedia": "en:Burger King",
          "brand:wikipedia:pa": "\u0a2c\u0a30\u0a17\u0a30 \u0a15\u0a3f\u0a70\u0a17",
          "brand:wikipedia:ur": "\u0628\u0631\u06af\u0631 \u06a9\u0646\u06af",
          "cuisine": "burger",
          "name": "Burger King",
          "name:pa": "\u0a2c\u0a30\u0a17\u0a30 \u0a15\u0a3f\u0a70\u0a17",
          "name:ru": "\u0411\u0443\u0440\u0433\u0435\u0440 \u041a\u0438\u043d\u0433",
          "name:ur": "\u0628\u0631\u06af\u0631 \u06a9\u0646\u06af",
          "takeaway": "yes"
        }
      },
      {
        "type": "node",
        "id": 3293516347,
        "lat": 19.141731,
        "lon": 72.8309285,
        "tags": {
          "amenity": "cafe",
          "brand": "Starbucks",
          "brand:pa": "\u0a38\u0a1f\u0a3e\u0a30\u0a2c\u0a15\u0a38",
          "brand:ur": "\u0627\u0633\u0679\u0627\u0631\u0628\u06a9\u0633",
          "brand:wikidata": "Q37158",
          "brand:wikipedia": "en:Starbucks",
          "cuisine": "coffee_shop",
          "name": "Starbucks",
          "name:pa": "\u0a38\u0a1f\u0a3e\u0a30\u0a2c\u0a15\u0a38",
          "name:ur": "\u0627\u0633\u0679\u0627\u0631\u0628\u06a9\u0633",
          "official_name": "Starbucks Coffee",
          "official_name:pa": "\u0a38\u0a1f\u0a3e\u0a30\u0a2c\u0a15\u0a38 \u0a15\u0a4c\u0a2b\u0a40",
          "official_name:ur": "\u0627\u0633\u0679\u0627\u0631\u0628\u06a9\u0633 \u06a9\u0627\u0641\u06cc",
          "takeaway": "yes"
        }
      },
      {
        "type": "node",
        "id": 3305729037,
        "lat": 19.1407938,
        "lon": 72.8319183,
        "tags": {
          "amenity": "bank",
          "atm": "yes",
          "name": "New India Co-Operative Bank Ltd"
        }
      },
      {
        "type": "node",
        "id": 3771463609,
        "lat": 19.1406213,
        "lon": 72.8339783,
        "tags": {
          "amenity": "restaurant",
          "name": "Mamagoto"
        }
      },
      {
        "type": "node",
        "id": 4789205121,
        "lat": 19.1447073,
        "lon": 72.8271657,
        "tags": {
          "leisure": "playground"
        }
      },
      {
        "type": "node",
        "id": 4924405451,
        "lat": 19.1404949,
        "lon": 72.8333182,
        "tags": {
          "amenity": "restaurant",
          "cuisine": "italian",
          "name": "Off The Grid"
        }
      },
      {
        "type": "node",
        "id": 4951965621,
        "lat": 19.1360221,
        "lon": 72.8355486,
        "tags": {
          "amenity": "restaurant",
          "brand": "Hard Rock Cafe",
          "brand:wikidata": "Q918151",
          "cuisine": "american",
          "internet_access": "wlan",
          "name": "Hard Rock Cafe",
          "name:en": "Hard Rock Cafe"
        }
      },
      {
        "type": "node",
        "id": 5201099224,
        "lat": 19.1372375,
        "lon": 72.8366102,
        "tags": {
          "addr:street": "Hanuman Mandir road",
          "amenity": "hospital",
          "healthcare": "hospital",
          "name:en": "R G Stone"
        }
      },
      {
        "type": "node",
        "id": 6565133285,
        "lat": 19.1438494,
        "lon": 72.8291669,
        "tags": {
          "addr:city": "Mumbai",
          "addr:postcode": "400053",
          "addr:street": "Kavi Ram Basakhetre Road",
          "air_conditioning": "yes",
          "amenity": "restaurant",
          "bar": "yes",
          "cuisine": "indian;mexican;italian;asian;lebanese;middle_eastern;thai",
          "name:en": "Bennies by Flags",
          "opening_hours": "Mo-Su 12:00-00:00",
          "phone": "097694 73171",
          "website": "http://www.flagshospitality.com"
        }
      },
      {
        "type": "node",
        "id": 7044466724,
        "lat": 19.1395666,
        "lon": 72.8265029,
        "tags": {
          "addr:city": "Mumbai",
          "addr:district": "Mumbai",
          "addr:full": "105/106, Garden View Shastri Nagar Off J P Road, Before Lokhandwala Complex Andheri (W)",
          "addr:postcode": "400053",
          "addr:state": "Maharashtra",
          "addr:street": "Shastri Nagar Lane 1",
          "amenity": "clinic",
          "healthcare": "clinic",
          "name": "Gandhi Nursing Home, Mumbai",
          "source": "OpenGovernmentData"
        }
      },
      {
        "type": "node",
        "id": 7048690783,
        "lat": 19.1374368,
        "lon": 72.8261159,
        "tags": {
          "addr:district": "Mumbai",
          "addr:full": "A-1, Kanwal Apartments, 145, Four Bunglow Road, P.O. Azadnagar, Andheri(W)",
          "addr:postcode": "400053",
          "addr:state": "Maharashtra",
          "amenity": "clinic",
          "healthcare": "clinic",
          "name": "Dr. Jk Shah's Eye Clinic and Laser Centre",
          "source": "OpenGovernmentData"
        }
      },
      {
        "type": "node",
        "id": 7048911653,
        "lat": 19.1468937,
        "lon": 72.8311546,
        "tags": {
          "addr:district": "Mumbai",
          "addr:full": "A-1 Ground Floor Building No 20, Manish Nagar 4. Bunglows Andheri (W)",
          "addr:postcode": "400053",
          "addr:state": "Maharashtra",
          "amenity": "hospital",
          "healthcare": "hospital",
          "name": "Vital Care Centre",
          "source": "OpenGovernmentData"
        }
      },
      {
        "type": "node",
        "id": 7051908286,
        "lat": 19.1317902,
        "lon": 72.8324622,
        "tags": {
          "addr:district": "Mumbai",
          "addr:full": "Sejal 1st Floor Link Extension Road Off. Veera Desai Road Andheri (West)",
          "addr:postcode": "400092",
          "addr:state": "Maharashtra",
          "amenity": "clinic",
          "healthcare": "clinic",
          "name": "Belle-Vue General Nursing Home",
          "source": "OpenGovernmentData"
        }
      },
      {
        "type": "node",
        "id": 7055330884,
        "lat": 19.1386865,
        "lon": 72.8321403,
        "tags": {
          "addr:district": "Mumbai",
          "addr:full": "Spenta Mansion, S.V.Road, Andheri(W)",
          "addr:postcode": "400058",
          "addr:state": "Maharashtra",
          "amenity": "hospital",
          "healthcare": "hospital",
          "name": "Dr Eye Institute Pvt Ltd",
          "source": "OpenGovernmentData"
        }
      },
      {
        "type": "node",
        "id": 7067961276,
        "lat": 19.1455128,
        "lon": 72.8291899,
        "tags": {
          "addr:district": "Mumbai",
          "addr:full": "Bldg.No.15, Flat No.102,Mhada Complex,New Link Road,Near Oshiwara Police Station, Andheri (West)",
          "addr:postcode": "400053",
          "addr:state": "Maharashtra",
          "amenity": "hospital",
          "healthcare": "hospital",
          "name": "Dr. M.I.Doongerwala - andheri",
          "source": "OpenGovernmentData"
        }
      },
      {
        "type": "node",
        "id": 7068194948,
        "lat": 19.1432526,
        "lon": 72.8369147,
        "tags": {
          "addr:district": "Mumbai",
          "addr:full": "Link Road, Behram Baug, OppositeM.G.High School, Jogeshwari(W)",
          "addr:postcode": "400102",
          "addr:state": "Maharashtra",
          "amenity": "clinic",
          "healthcare": "clinic",
          "name": "Linkway Nursing Home and Polyclinic",
          "source": "OpenGovernmentData"
        }
      },
      {
        "type": "node",
        "id": 7073651578,
        "lat": 19.1366428,
        "lon": 72.8364225,
        "tags": {
          "addr:district": "Mumbai",
          "addr:full": "C Wing, Dhananjay Apt Behind Balaji Studio, Opp Veera Desai Road Andheri",
          "addr:postcode": "400059",
          "addr:state": "Maharashtra",
          "amenity": "hospital",
          "healthcare": "hospital",
          "name": "Rg Stone Urology and Laparoscopy Hospital, Mumbai",
          "source": "OpenGovernmentData"
        }
      },
      {
        "type": "node",
        "id": 7082518991,
        "lat": 19.1352453,
        "lon": 72.8381807,
        "tags": {
          "addr:district": "Mumbai",
          "addr:full": "Andheri",
          "addr:postcode": "400102",
          "addr:state": "Maharashtra",
          "amenity": "hospital",
          "healthcare": "hospital",
          "name": "Society Of The Helpers Of Mary Shraddha Vihar Hospital",
          "source": "OpenGovernmentData"
        }
      },
      {
        "type": "node",
        "id": 7158055668,
        "lat": 19.1347798,
        "lon": 72.8250871,
        "tags": {
          "amenity": "pharmacy",
          "healthcare": "pharmacy",
          "name": "MG365",
          "opening_hours": "24/7",
          "shop": "supermarket",
          "wheelchair": "no"
        }
      },
      {
        "type": "node",
        "id": 7158055669,
        "lat": 19.1347426,
        "lon": 72.8251642,
        "tags": {
          "amenity": "bank",
          "branch": "Four Bungalow, Andheri (W)",
          "brand": "Oriental Bank of Commerce"
        }
      },
      {
        "type": "node",
        "id": 7160197819,
        "lat": 19.1344047,
        "lon": 72.8261679,
        "tags": {
          "amenity": "restaurant",
          "cuisine": "north_indian",
          "level": "1",
          "name": "Urban Tadka"
        }
      },
      {
        "type": "node",
        "id": 7162138709,
        "lat": 19.1365431,
        "lon": 72.8288816,
        "tags": {
          "amenity": "cafe",
          "name": "Silver Beach Cafe"
        }
      },
      {
        "type": "node",
        "id": 7162138710,
        "lat": 19.1367205,
        "lon": 72.8287521,
        "tags": {
          "amenity": "cafe",
          "cuisine": "tea",
          "level": "0",
          "name": "Chai Pe Charcha",
          "outdoor_seating": "yes",
          "seats": "28",
          "smoking": "outside",
          "tables": "8",
          "wheelchair": "no"
        }
      },
      {
        "type": "node",
        "id": 7425718016,
        "lat": 19.1410589,
        "lon": 72.8255789,
        "tags": {
          "amenity": "fast_food",
          "brand": "McDonald's",
          "brand:pa": "\u0a2e\u0a48\u0a15\u0a21\u0a4b\u0a28\u0a32\u0a21\u2019\u0a1c\u0a3c",
          "brand:ur": "\u0645\u06a9\u0688\u0648\u0646\u0644\u0688\u0632",
          "brand:wikidata": "Q38076",
          "brand:wikipedia": "en:McDonald's",
          "brand:wikipedia:pa": "\u0a2e\u0a48\u0a15\u0a21\u0a4b\u0a28\u0a32\u0a21\u2019\u0a1c\u0a3c",
          "brand:wikipedia:ur": "\u0645\u06a9\u0688\u0648\u0646\u0644\u0688\u0632",
          "cuisine": "burger",
          "name": "McDonald's",
          "name:pa": "\u0a2e\u0a48\u0a15\u0a21\u0a4b\u0a28\u0a32\u0a21\u2019\u0a1c\u0a3c",
          "name:ur": "\u0645\u06a9\u0688\u0648\u0646\u0644\u0688\u0632",
          "takeaway": "yes"
        }
      },
      {
        "type": "node",
        "id": 7425718017,
        "lat": 19.1403389,
        "lon": 72.8262041,
        "tags": {
          "amenity": "bank",
          "branch": "Lokhandwala Market",
          "brand": "ICICI Bank",
          "brand:wikidata": "Q1653258",
          "brand:wikipedia": "en:ICICI Bank",
          "level": "0",
          "name": "ICICI Bank",
          "short_name": "ICICI",
          "wheelchair": "no"
        }
      },
      {
        "type": "node",
        "id": 7425718019,
        "lat": 19.1413671,
        "lon": 72.8254005,
        "tags": {
          "amenity": "restaurant",
          "name": "Food Inn"
        }
      },
      {
        "type": "node",
        "id": 7426184232,
        "lat": 19.1411463,
        "lon": 72.8248928,
        "tags": {
          "amenity": "restaurant",
          "cuisine": "lebanese",
          "name": "Lebanese Point"
        }
      },
      {
        "type": "node",
        "id": 7426184248,
        "lat": 19.1454282,
        "lon": 72.8292549,
        "tags": {
          "addr:city": "Mumbai",
          "addr:postcode": "400053",
          "addr:street": "Kavi Ram Basakhetre Road",
          "amenity": "ice_cream",
          "brand": "Nature's Basket",
          "brand:wikidata": "Q28174237",
          "name": "Nature's Basket",
          "organic": "yes",
          "shop": "supermarket"
        }
      },
      {
        "type": "node",
        "id": 7426184252,
        "lat": 19.1367233,
        "lon": 72.8289402,
        "tags": {
          "amenity": "cafe",
          "name": "Bistro 1"
        }
      },
      {
        "type": "node",
        "id": 7663961453,
        "lat": 19.1465838,
        "lon": 72.8286499,
        "tags": {
          "addr:district": "Mumbai Suburban",
          "addr:full": "Tarapore Gardens, Mhada Colony, Andheri West, Mumbai",
          "addr:postcode": "400047",
          "addr:state": "Maharastra",
          "amenity": "clinic",
          "healthcare": "clinic",
          "name": "Looks Clinic",
          "source": "Local Knowledge"
        }
      },
      {
        "type": "node",
        "id": 7944524405,
        "lat": 19.1403349,
        "lon": 72.837543,
        "tags": {
          "name": "Aksar grocery shop",
          "shop": "supermarket"
        }
      },
      {
        "type": "node",
        "id": 8797130860,
        "lat": 19.1401815,
        "lon": 72.842786,
        "tags": {
          "addr:district": "Mumbai",
          "addr:full": "Shastri Nagar, Jogeshwari West, Mumbai",
          "addr:postcode": "400062",
          "addr:state": "Maharashtra",
          "amenity": "hospital",
          "healthcare": "hospital",
          "name": "Millat Dialysis Center",
          "source": "Local Knowledge"
        }
      },
      {
        "type": "node",
        "id": 9080857996,
        "lat": 19.14119,
        "lon": 72.8273496,
        "tags": {
          "addr:city": "Mumbai",
          "addr:housenumber": "Ground Floor, Clanfield Society",
          "addr:postcode": "400053",
          "addr:street": "Ashok Academy Lane",
          "air_conditioning": "yes",
          "amenity": "cafe",
          "bar": "no",
          "capacity": "60",
          "cuisine": "coffee_shop;international",
          "delivery": "yes",
          "description": "Great place to bring your furry friends",
          "internet_access": "wlan",
          "internet_access:fee": "customers",
          "name": "Cafe Pefe",
          "opening_hours": "Mo-Su 11:00-23:00",
          "opening_hours:covid19": "restricted",
          "outdoor_seating": "yes",
          "phone": "+912226303322",
          "website": "https://cafepefe.com/"
        }
      },
      {
        "type": "node",
        "id": 9080857999,
        "lat": 19.1410653,
        "lon": 72.8273217,
        "tags": {
          "addr:city": "Mumbai",
          "addr:housenumber": "Ground Floor, Clanfield Society",
          "addr:postcode": "400053",
          "addr:street": "Ashok Academy Lane",
          "amenity": "pharmacy",
          "brand": "Noble Plus Medical Store Chain",
          "dispensing": "no",
          "drive_through": "no",
          "healthcare": "pharmacy",
          "name": "Noble Plus Medicals Store",
          "opening_hours": "24/7",
          "phone": "+912226324253",
          "website": "https://nobleplus.in/"
        }
      },
      {
        "type": "node",
        "id": 9125877270,
        "lat": 19.1376115,
        "lon": 72.8254735,
        "tags": {
          "amenity": "bank",
          "brand": "Union Bank of India",
          "brand:wikidata": "Q2004078",
          "name": "Union Bank of India"
        }
      },
      {
        "type": "node",
        "id": 9125877272,
        "lat": 19.1376954,
        "lon": 72.8254745,
        "tags": {
          "amenity": "bank",
          "brand": "Kotak Mahindra Bank",
          "brand:wikidata": "Q2040404",
          "name": "Kotak Mahindra Bank"
        }
      },
      {
        "type": "node",
        "id": 9125877274,
        "lat": 19.1373751,
        "lon": 72.8254797,
        "tags": {
          "amenity": "bank",
          "branch": "Lokhandwala Complex",
          "brand": "Bank of Baroda",
          "brand:wikidata": "Q2003797",
          "name": "Bank of Baroda"
        }
      },
      {
        "type": "node",
        "id": 9130241611,
        "lat": 19.1393769,
        "lon": 72.8320582,
        "tags": {
          "amenity": "restaurant",
          "name": "The Flying Saucer"
        }
      },
      {
        "type": "node",
        "id": 9130241612,
        "lat": 19.1394098,
        "lon": 72.8320096,
        "tags": {
          "amenity": "atm",
          "brand": "IndusInd Bank",
          "brand:wikidata": "Q2040323",
          "opening_hours": "24/7",
          "operator": "IndusInd Bank",
          "operator:wikidata": "Q2040323"
        }
      },
      {
        "type": "node",
        "id": 9132742307,
        "lat": 19.1439765,
        "lon": 72.8315222,
        "tags": {
          "amenity": "cafe",
          "name": "Nagori Irani Chai"
        }
      },
      {
        "type": "node",
        "id": 9132742310,
        "lat": 19.1440644,
        "lon": 72.8315177,
        "tags": {
          "amenity": "restaurant",
          "cuisine": "indian",
          "diet:vegetarian": "only",
          "name": "Baba Ka Dhaba"
        }
      },
      {
        "type": "node",
        "id": 9132758779,
        "lat": 19.1432285,
        "lon": 72.8315366,
        "tags": {
          "amenity": "fast_food",
          "contact:phone": "+91-77770-54428;+91-77770-54429",
          "delivery": "yes",
          "name": "Chinese Express",
          "takeaway": "yes"
        }
      },
      {
        "type": "node",
        "id": 9132764340,
        "lat": 19.1429429,
        "lon": 72.831573,
        "tags": {
          "amenity": "cafe",
          "name": "M Town Cafe"
        }
      },
      {
        "type": "node",
        "id": 9132764341,
        "lat": 19.1430376,
        "lon": 72.8315439,
        "tags": {
          "amenity": "pharmacy",
          "healthcare": "pharmacy",
          "name": "Shri Balaji Medical and General Store"
        }
      },
      {
        "type": "node",
        "id": 9134855262,
        "lat": 19.1317228,
        "lon": 72.8350702,
        "tags": {
          "amenity": "atm",
          "brand": "State Bank of India",
          "brand:wikidata": "Q1340361",
          "operator": "State Bank of India",
          "operator:wikidata": "Q1340361",
          "short_name": "SBI",
          "wheelchair": "no"
        }
      },
      {
        "type": "node",
        "id": 9134855264,
        "lat": 19.13171,
        "lon": 72.835117,
        "tags": {
          "amenity": "bank",
          "branch": "Veera Desai Road",
          "brand": "State Bank of India",
          "brand:wikidata": "Q1340361",
          "name": "State Bank of India",
          "short_name": "SBI",
          "wheelchair": "no"
        }
      },
      {
        "type": "node",
        "id": 9134871901,
        "lat": 19.1320723,
        "lon": 72.8347455,
        "tags": {
          "amenity": "restaurant",
          "brand": "PizzaExpress",
          "brand:wikidata": "Q662845",
          "cuisine": "pizza",
          "name": "PizzaExpress",
          "wheelchair": "no"
        }
      },
      {
        "type": "node",
        "id": 9215424189,
        "lat": 19.1362893,
        "lon": 72.8273781,
        "tags": {
          "addr:district": "Mumbai",
          "addr:full": "Suresh Nagar, Andheri West, Mumbai",
          "addr:postcode": "400047",
          "addr:state": "Maharashtra",
          "amenity": "hospital",
          "description": "Private Hospital",
          "healthcare": "hospital",
          "name": "Axis Orthopaedic Hospital",
          "source": "Local Knowledge"
        }
      },
      {
        "type": "node",
        "id": 9828587930,
        "lat": 19.136663,
        "lon": 72.8282452,
        "tags": {
          "amenity": "restaurant",
          "cuisine": "Mughlai",
          "diet:halal": "yes",
          "name": "Karim\u2019s"
        }
      },
      {
        "type": "node",
        "id": 10925550784,
        "lat": 19.141462,
        "lon": 72.8336248,
        "tags": {
          "amenity": "restaurant",
          "name": "Pop Tate's"
        }
      },
      {
        "type": "node",
        "id": 11057110863,
        "lat": 19.1453374,
        "lon": 72.8295085,
        "tags": {
          "addr:city": "Andheri (W), Mumbai",
          "addr:housenumber": "501/502",
          "addr:postcode": "400102",
          "addr:street": "Off Link Road, Adarsh Nagar",
          "name": "Nuts N More",
          "shop": "supermarket"
        }
      },
      {
        "type": "node",
        "id": 11430476639,
        "lat": 19.1340372,
        "lon": 72.8261182,
        "tags": {
          "access": "yes",
          "addr:city": "mumbai",
          "addr:district": "Mumbai",
          "addr:housenumber": "123",
          "addr:postcode": "400047",
          "addr:street": "Achutrao Patwardhan Marg",
          "leisure": "park",
          "name": "svp garden",
          "opening_hours": "Mo-Su 09:00-21:00",
          "operator": "bmc",
          "operator:type": "government"
        }
      },
      {
        "type": "node",
        "id": 12395671885,
        "lat": 19.1348644,
        "lon": 72.8327535,
        "tags": {
          "air_conditioning": "yes",
          "amenity": "restaurant",
          "bar": "yes",
          "level": "1",
          "name": "Shot Stories"
        }
      },
      {
        "type": "node",
        "id": 12395684148,
        "lat": 19.1349474,
        "lon": 72.8330032,
        "tags": {
          "air_conditioning": "yes",
          "amenity": "fast_food",
          "brand": "McDonald's",
          "brand:wikidata": "Q38076",
          "cuisine": "burger",
          "level": "1",
          "name": "McDonald's",
          "takeaway": "yes"
        }
      },
      {
        "type": "node",
        "id": 12395684150,
        "lat": 19.1348178,
        "lon": 72.8327917,
        "tags": {
          "air_conditioning": "yes",
          "amenity": "restaurant",
          "contact:facebook": "creamcentreindia",
          "contact:instagram": "creamcentreindia",
          "contact:website": "creamcentre.com",
          "cuisine": "chinese;north_indian;italian;mexican",
          "diet:lacto_vegetarian": "yes",
          "level": "1",
          "name": "Cream Centre"
        }
      },
      {
        "type": "node",
        "id": 12395684160,
        "lat": 19.135472,
        "lon": 72.8333852,
        "tags": {
          "air_conditioning": "yes",
          "amenity": "cafe",
          "brand": "Starbucks",
          "brand:wikidata": "Q37158",
          "cuisine": "coffee_shop",
          "indoor_seating": "yes",
          "level": "0",
          "name": "Starbucks",
          "official_name": "Starbucks Coffee",
          "outdoor_seating": "yes",
          "takeaway": "yes",
          "wheelchair": "no"
        }
      },
      {
        "type": "node",
        "id": 12395684166,
        "lat": 19.1362869,
        "lon": 72.8333984,
        "tags": {
          "amenity": "restaurant",
          "level": "0",
          "name": "Era",
          "wheelchair": "no"
        }
      },
      {
        "type": "node",
        "id": 12395684205,
        "lat": 19.1348075,
        "lon": 72.8329394,
        "tags": {
          "air_conditioning": "yes",
          "amenity": "restaurant",
          "cuisine": "pizza",
          "level": "1",
          "name": "Si Nonna's"
        }
      },
      {
        "type": "node",
        "id": 12651939165,
        "lat": 19.1405141,
        "lon": 72.826116,
        "tags": {
          "amenity": "fast_food",
          "diet:vegan": "yes",
          "diet:vegetarian": "yes",
          "name": "Punjab Sweet House",
          "name:hi": "\u092a\u0902\u091c\u093e\u092c \u0938\u094d\u0935\u0940\u091f \u0939\u093e\u0909\u0938"
        }
      },
      {
        "type": "node",
        "id": 12946834537,
        "lat": 19.1407208,
        "lon": 72.8257633,
        "tags": {
          "air_conditioning": "yes",
          "amenity": "fast_food",
          "contact:email": "care@madeofmilk.in",
          "contact:facebook": "madeofmilk_india",
          "contact:instagram": "madeofmilk_india",
          "contact:mobile": "+91-73817-77000",
          "contact:website": "https://madeofmilk.in",
          "indoor_seating": "yes",
          "level": "0",
          "name": "Made Of Milk",
          "name:en": "Made Of Milk",
          "name:hi": "\u092e\u0947\u0921 \u0911\u092b\u093c \u092e\u093f\u0932\u094d\u0915",
          "name:ma": "\u092e\u0947\u0921 \u0911\u092b \u092e\u093f\u0932\u094d\u0915",
          "shop": "confectionery",
          "toilets:wheelchair": "limited",
          "wheelchair": "no"
        }
      },
      {
        "type": "node",
        "id": 12946834538,
        "lat": 19.1403155,
        "lon": 72.8259581,
        "tags": {
          "air_conditioning": "yes",
          "amenity": "fast_food",
          "diet:vegan": "yes",
          "indoor_seating": "no",
          "level": "0",
          "name": "Punjab Sweet House",
          "name:hi": "\u092a\u0902\u091c\u093e\u092c \u0938\u094d\u0935\u0940\u091f \u0939\u093e\u090a\u0938",
          "wheelchair": "no"
        }
      }
    ]
  },
  "pois_2_5km": {
    "version": 0.6,
    "generator": "Overpass API 0.7.62.8 e802775f",
    "osm3s": {
      "timestamp_osm_base": "2025-09-06T07:45:36Z",
      "copyright": "The data included in this document is from www.openstreetmap.org. The data is made available under ODbL."
    },
    "elements": [
      {
        "type": "node",
        "id": 623881914,
        "lat": 19.1281782,
        "lon": 72.8308125,
        "tags": {
          "name": "D. N. Nagar",
          "name:mr": "\u0921\u0940. \u090f\u0928. \u0928\u0917\u0930",
          "name:ru": "\u0414\u0430\u0434\u0430\u0431\u0445\u0430\u0439 \u041d\u0430\u043e\u0440\u043e\u0434\u0436\u0438 \u041d\u0430\u0433\u0430\u0440",
          "network": "Mumbai Metro",
          "operator": "MMRDA",
          "public_transport": "stop_position",
          "railway": "stop",
          "subway": "yes"
        }
      },
      {
        "type": "node",
        "id": 623881991,
        "lat": 19.1302777,
        "lon": 72.8213871,
        "tags": {
          "name": "Versova",
          "name:mr": "\u0935\u0930\u094d\u0938\u094b\u0935\u093e",
          "name:ru": "\u0412\u0435\u0440\u0441\u043e\u0432\u0430",
          "network": "Mumbai Metro",
          "operator": "MMRDA",
          "public_transport": "stop_position",
          "railway": "stop",
          "subway": "yes"
        }
      },
      {
        "type": "node",
        "id": 1646850368,
        "lat": 19.1235899,
        "lon": 72.8426582,
        "tags": {
          "amenity": "cinema",
          "name": "Navrang Talkies"
        }
      },
      {
        "type": "node",
        "id": 2074153516,
        "lat": 19.1310871,
        "lon": 72.8199601,
        "tags": {
          "addr:housename": "7 Bungalows Bus Depot",
          "addr:postcode": "400061",
          "amenity": "bus_station",
          "building": "yes",
          "bus": "yes",
          "name": "7 Bungalows Bus Depot",
          "public_transport": "station"
        }
      },
      {
        "type": "node",
        "id": 2125320198,
        "lat": 19.1414227,
        "lon": 72.8310054,
        "tags": {
          "amenity": "cinema",
          "name": "Cinemax Versova",
          "wheelchair": "no"
        }
      },
      {
        "type": "node",
        "id": 2125322944,
        "lat": 19.1385954,
        "lon": 72.8314565,
        "tags": {
          "amenity": "cinema",
          "brand": "PVR Cinemas",
          "brand:wikidata": "Q3359908",
          "name": "PVR ECX",
          "short_name": "PVR"
        }
      },
      {
        "type": "node",
        "id": 2909184659,
        "lat": 19.1284058,
        "lon": 72.8295743,
        "tags": {
          "name": "D. N. Nagar",
          "name:mr": "\u0921\u0940. \u090f\u0928. \u0928\u0917\u0930",
          "name:ru": "\u0414\u0430\u0434\u0430\u0431\u0445\u0430\u0439 \u041d\u0430\u043e\u0440\u043e\u0434\u0436\u0438 \u041d\u0430\u0433\u0430\u0440",
          "network": "Mumbai Metro",
          "operator": "MMRDA",
          "public_transport": "stop_position",
          "railway": "stop",
          "subway": "yes"
        }
      },
      {
        "type": "node",
        "id": 2909186525,
        "lat": 19.1302339,
        "lon": 72.8213762,
        "tags": {
          "name": "Versova",
          "name:mr": "\u0935\u0930\u094d\u0938\u094b\u0935\u093e",
          "name:ru": "\u0412\u0435\u0440\u0441\u043e\u0432\u0430",
          "network": "Mumbai Metro",
          "operator": "MMRDA",
          "public_transport": "stop_position",
          "railway": "stop",
          "subway": "yes"
        }
      },
      {
        "type": "node",
        "id": 2913172821,
        "lat": 19.1270227,
        "lon": 72.8370213,
        "tags": {
          "name": "Azad Nagar",
          "name:mr": "\u0906\u091d\u093e\u0926 \u0928\u0917\u0930",
          "name:ru": "\u0410\u0437\u0430\u0434 \u041d\u0430\u0433\u0430\u0440",
          "network": "Mumbai Metro",
          "operator": "MMRDA",
          "public_transport": "stop_position",
          "railway": "stop",
          "subway": "yes"
        }
      },
      {
        "type": "node",
        "id": 3389150482,
        "lat": 19.1268055,
        "lon": 72.8382668,
        "tags": {
          "name": "Azad Nagar",
          "name:mr": "\u0906\u091d\u093e\u0926 \u0928\u0917\u0930",
          "name:ru": "\u0410\u0437\u0430\u0434 \u041d\u0430\u0433\u0430\u0440",
          "network": "Mumbai Metro",
          "operator": "MMRDA",
          "public_transport": "stop_position",
          "railway": "stop",
          "subway": "yes"
        }
      },
      {
        "type": "node",
        "id": 3979243498,
        "lat": 19.1246421,
        "lon": 72.8233968,
        "tags": {
          "amenity": "fuel",
          "brand": "Bharat Petroleum",
          "brand:wikidata": "Q854826",
          "compressed_air": "yes",
          "name": "Bharat Petroleum",
          "opening_hours": "Mo-Su,PH 00:00-00:00"
        }
      },
      {
        "type": "node",
        "id": 4413539589,
        "lat": 19.1368511,
        "lon": 72.8325849,
        "tags": {
          "addr:housenumber": "311-314",
          "addr:postcode": "400053",
          "addr:street": "Kamalakarpant L Walawalkar Mg",
          "amenity": "cinema",
          "name:en": "Custard Apple Pictures",
          "opening_hours": "Mo-Fr 10:00-18:00",
          "website": "http://www.icustardapple.com"
        }
      },
      {
        "type": "node",
        "id": 5219518738,
        "lat": 19.1436605,
        "lon": 72.8197117,
        "tags": {
          "construction": "stop",
          "name": "Swami Samarth Nagar Station",
          "public_transport": "stop_position",
          "railway": "construction",
          "subway": "yes"
        }
      },
      {
        "type": "node",
        "id": 5219518747,
        "lat": 19.1406596,
        "lon": 72.8272155,
        "tags": {
          "construction": "stop",
          "name": "Lokhandwala Station",
          "public_transport": "stop_position",
          "railway": "construction",
          "subway": "yes"
        }
      },
      {
        "type": "node",
        "id": 5219518752,
        "lat": 19.1417935,
        "lon": 72.8336078,
        "tags": {
          "construction": "stop",
          "name": "Adarsh Nagar Station",
          "public_transport": "stop_position",
          "railway": "construction",
          "subway": "yes"
        }
      },
      {
        "type": "node",
        "id": 5219622852,
        "lat": 19.12918,
        "lon": 72.8314255,
        "tags": {
          "name": "Andheri (West)",
          "name:mr": "\u0905\u0902\u0927\u0947\u0930\u0940 (\u092a\u0936\u094d\u091a\u093f\u092e)",
          "name:ru": "\u0410\u043d\u0434\u0445\u0435\u0440\u0438-\u0423\u044d\u0441\u0442",
          "public_transport": "stop_position",
          "railway": "stop",
          "subway": "yes"
        }
      },
      {
        "type": "node",
        "id": 5219622868,
        "lat": 19.1460554,
        "lon": 72.8339507,
        "tags": {
          "name": "Oshiwara",
          "name:mr": "\u0913\u0936\u093f\u0935\u093e\u0930\u093e",
          "name:ru": "\u041e\u0448\u0438\u0432\u0430\u0440\u0430",
          "public_transport": "stop_position",
          "railway": "stop",
          "subway": "yes"
        }
      },
      {
        "type": "node",
        "id": 5219622877,
        "lat": 19.1530229,
        "lon": 72.8356937,
        "tags": {
          "name": "Goregaon (West)",
          "name:mr": "\u0917\u094b\u0930\u0947\u0917\u093e\u0935 (\u092a\u0936\u094d\u091a\u093f\u092e)",
          "name:ru": "\u0413\u043e\u0440\u0435\u0433\u0430\u043e\u043d-\u0423\u044d\u0441\u0442",
          "public_transport": "stop_position",
          "railway": "stop",
          "subway": "yes"
        }
      },
      {
        "type": "node",
        "id": 5220954743,
        "lat": 19.1429335,
        "lon": 72.8552066,
        "tags": {
          "name": "Jogeshwari (East)",
          "name:mr": "\u091c\u094b\u0917\u0947\u0936\u094d\u0935\u0930\u0940 (\u092a\u0942\u0930\u094d\u0935)",
          "name:ru": "\u0414\u0436\u043e\u0433\u0435\u0448\u0432\u0430\u0440\u0438-\u0418\u0441\u0442",
          "public_transport": "stop_position",
          "railway": "stop",
          "subway": "yes"
        }
      },
      {
        "type": "node",
        "id": 5777542614,
        "lat": 19.1291714,
        "lon": 72.8314667,
        "tags": {
          "name": "Andheri (West)",
          "name:mr": "\u0905\u0902\u0927\u0947\u0930\u0940 (\u092a\u0936\u094d\u091a\u093f\u092e)",
          "name:ru": "\u0410\u043d\u0434\u0445\u0435\u0440\u0438-\u0423\u044d\u0441\u0442",
          "public_transport": "stop_position",
          "railway": "stop",
          "subway": "yes"
        }
      },
      {
        "type": "node",
        "id": 5777542631,
        "lat": 19.1460157,
        "lon": 72.8339547,
        "tags": {
          "name": "Oshiwara",
          "name:mr": "\u0913\u0936\u093f\u0935\u093e\u0930\u093e",
          "name:ru": "\u041e\u0448\u0438\u0432\u0430\u0440\u0430",
          "public_transport": "stop_position",
          "railway": "stop",
          "subway": "yes"
        }
      },
      {
        "type": "node",
        "id": 5777542640,
        "lat": 19.1530287,
        "lon": 72.8357355,
        "tags": {
          "name": "Goregaon (West)",
          "name:mr": "\u0917\u094b\u0930\u0947\u0917\u093e\u0935 (\u092a\u0936\u094d\u091a\u093f\u092e)",
          "name:ru": "\u0413\u043e\u0440\u0435\u0433\u0430\u043e\u043d-\u0423\u044d\u0441\u0442",
          "public_transport": "stop_position",
          "railway": "stop",
          "subway": "yes"
        }
      },
      {
        "type": "node",
        "id": 5909533857,
        "lat": 19.151023,
        "lon": 72.8501467,
        "tags": {
          "internet_access": "no",
          "name": "Ram Mandir",
          "name:hi": "\u0930\u093e\u092e \u092e\u0902\u0926\u093f\u0930",
          "name:mr": "\u0930\u093e\u092e \u092e\u0902\u0926\u093f\u0930",
          "network": "Mumbai Suburban Railway",
          "network:wikidata": "Q3273422",
          "operator": "WR",
          "public_transport": "station",
          "railway": "station",
          "ref": "RMAR",
          "train": "yes",
          "wikidata": "Q18129030",
          "wikipedia": "en:Ram Mandir railway station"
        }
      },
      {
        "type": "node",
        "id": 7817967700,
        "lat": 19.1360983,
        "lon": 72.8490857,
        "tags": {
          "name": "Jogeshwari (Western Line)",
          "name:mr": "\u091c\u094b\u0917\u0947\u0936\u094d\u200d\u0935\u0930\u0940",
          "public_transport": "stop_position",
          "railway": "stop",
          "ref": "6",
          "train": "yes"
        }
      },
      {
        "type": "node",
        "id": 7817967701,
        "lat": 19.1361128,
        "lon": 72.8489563,
        "tags": {
          "name": "Jogeshwari (Western Line)",
          "name:mr": "\u091c\u094b\u0917\u0947\u0936\u094d\u200d\u0935\u0930\u0940",
          "public_transport": "stop_position",
          "railway": "stop",
          "ref": "5",
          "train": "yes"
        }
      },
      {
        "type": "node",
        "id": 7817967702,
        "lat": 19.136116,
        "lon": 72.8489156,
        "tags": {
          "name": "Jogeshwari (Western Line)",
          "name:mr": "\u091c\u094b\u0917\u0947\u0936\u094d\u200d\u0935\u0930\u0940",
          "public_transport": "stop_position",
          "railway": "stop",
          "ref": "4",
          "train": "yes"
        }
      },
      {
        "type": "node",
        "id": 7817967703,
        "lat": 19.136124,
        "lon": 72.8487896,
        "tags": {
          "name": "Jogeshwari (Western Line)",
          "name:mr": "\u091c\u094b\u0917\u0947\u0936\u094d\u200d\u0935\u0930\u0940",
          "public_transport": "stop_position",
          "railway": "stop",
          "ref": "3",
          "train": "yes"
        }
      },
      {
        "type": "node",
        "id": 7817991345,
        "lat": 19.151382,
        "lon": 72.850086,
        "tags": {
          "name": "Ram Mandir",
          "public_transport": "stop_position",
          "railway": "stop",
          "ref": "3",
          "train": "yes"
        }
      },
      {
        "type": "node",
        "id": 7817991346,
        "lat": 19.1513815,
        "lon": 72.8500404,
        "tags": {
          "name": "Ram Mandir",
          "public_transport": "stop_position",
          "railway": "stop",
          "ref": "2",
          "train": "yes"
        }
      },
      {
        "type": "node",
        "id": 7817991347,
        "lat": 19.151369,
        "lon": 72.8498795,
        "tags": {
          "name": "Ram Mandir",
          "public_transport": "stop_position",
          "railway": "stop",
          "ref": "1",
          "train": "yes"
        }
      },
      {
        "type": "node",
        "id": 7817991348,
        "lat": 19.151392,
        "lon": 72.8502254,
        "tags": {
          "name": "Ram Mandir",
          "public_transport": "stop_position",
          "railway": "stop",
          "ref": "4",
          "train": "yes"
        }
      },
      {
        "type": "node",
        "id": 9120487882,
        "lat": 19.1490275,
        "lon": 72.839974,
        "tags": {
          "amenity": "fuel",
          "brand": "Mahanagar Gas",
          "fuel:cng": "yes",
          "name": "SK CNG Gas Station"
        }
      },
      {
        "type": "node",
        "id": 9132708002,
        "lat": 19.139783,
        "lon": 72.8459649,
        "tags": {
          "construction": "stop",
          "name": "Momin Nagar Station",
          "public_transport": "stop_position",
          "railway": "construction",
          "subway": "yes"
        }
      },
      {
        "type": "node",
        "id": 9132708009,
        "lat": 19.1405068,
        "lon": 72.8540075,
        "tags": {
          "construction": "stop",
          "name": "JVLR Station",
          "public_transport": "stop_position",
          "railway": "construction",
          "subway": "yes"
        }
      },
      {
        "type": "node",
        "id": 9132742306,
        "lat": 19.143531,
        "lon": 72.8311026,
        "tags": {
          "amenity": "fuel",
          "brand": "Indian Oil",
          "brand:wikidata": "Q1289348",
          "compressed_air": "yes",
          "name": "Indian Oil"
        }
      },
      {
        "type": "node",
        "id": 9132850193,
        "lat": 19.1280502,
        "lon": 72.8322034,
        "tags": {
          "amenity": "fuel",
          "brand": "Hindustan Petroleum",
          "brand:wikidata": "Q1619375",
          "compressed_air": "yes",
          "fuel:cng": "yes",
          "fuel:diesel": "yes",
          "name": "HP",
          "official_name": "Hindustan Petroleum"
        }
      },
      {
        "type": "node",
        "id": 9140907864,
        "lat": 19.1413993,
        "lon": 72.8194927,
        "tags": {
          "bus": "yes",
          "name": "Sardar Vallabhbhai Patel Nagar",
          "name:hi": "\u0938\u0930\u0926\u093e\u0930 \u0935\u0932\u094d\u0932\u092d\u092d\u093e\u0908 \u092a\u091f\u0947\u0932 \u0928\u0917\u0930",
          "public_transport": "stop_position"
        }
      },
      {
        "type": "node",
        "id": 10102658120,
        "lat": 19.1063277,
        "lon": 72.8631392,
        "tags": {
          "addr:street": "Om Nagar Road",
          "aeroway": "terminal",
          "name": "transline air cargo servics pvt ltd unit no 17",
          "name:en": "transline air cargo services pvt ltd unit no 17"
        }
      },
      {
        "type": "node",
        "id": 10576622721,
        "lat": 19.1429455,
        "lon": 72.855185,
        "tags": {
          "name": "Jogeshwari (East)",
          "name:mr": "\u091c\u094b\u0917\u0947\u0936\u094d\u0935\u0930\u0940 (\u092a\u0942\u0930\u094d\u0935)",
          "public_transport": "station",
          "railway": "station",
          "station": "subway",
          "subway": "yes"
        }
      },
      {
        "type": "node",
        "id": 10576622731,
        "lat": 19.1429467,
        "lon": 72.8551559,
        "tags": {
          "name": "Jogeshwari (East)",
          "name:mr": "\u091c\u094b\u0917\u0947\u0936\u094d\u0935\u0930\u0940 (\u092a\u0942\u0930\u094d\u0935)",
          "name:ru": "\u0414\u0436\u043e\u0433\u0435\u0448\u0432\u0430\u0440\u0438-\u0418\u0441\u0442",
          "public_transport": "stop_position",
          "railway": "stop",
          "subway": "yes"
        }
      },
      {
        "type": "node",
        "id": 10576726748,
        "lat": 19.1291337,
        "lon": 72.8314307,
        "tags": {
          "name": "Andheri (West)",
          "name:mr": "\u0905\u0902\u0927\u0947\u0930\u0940 (\u092a\u0936\u094d\u091a\u093f\u092e)",
          "public_transport": "station",
          "railway": "station",
          "station": "subway",
          "subway": "yes",
          "wheelchair": "limited"
        }
      },
      {
        "type": "node",
        "id": 10576726749,
        "lat": 19.1407214,
        "lon": 72.8316872,
        "tags": {
          "name": "Lower Oshiwara",
          "name:mr": "\u0932\u094b\u0905\u0930 \u0913\u0936\u093f\u0935\u0930\u093e",
          "name:ru": "\u041b\u043e\u0443\u044d\u0440-\u041e\u0448\u0438\u0432\u0430\u0440\u0430",
          "public_transport": "stop_position",
          "railway": "stop",
          "subway": "yes"
        }
      },
      {
        "type": "node",
        "id": 10576726750,
        "lat": 19.1407248,
        "lon": 72.8317293,
        "tags": {
          "name": "Lower Oshiwara",
          "name:mr": "\u0932\u094b\u0905\u0930 \u0913\u0936\u093f\u0935\u0930\u093e",
          "name:ru": "\u041b\u043e\u0443\u044d\u0440-\u041e\u0448\u0438\u0432\u0430\u0440\u0430",
          "public_transport": "stop_position",
          "railway": "stop",
          "subway": "yes"
        }
      },
      {
        "type": "node",
        "id": 10576726751,
        "lat": 19.1406979,
        "lon": 72.8317139,
        "tags": {
          "name": "Lower Oshiwara",
          "name:mr": "\u0932\u094b\u0905\u0930 \u0913\u0936\u093f\u0935\u0930\u093e",
          "public_transport": "station",
          "railway": "station",
          "station": "subway",
          "subway": "yes",
          "wheelchair": "yes"
        }
      },
      {
        "type": "node",
        "id": 10576726756,
        "lat": 19.1460351,
        "lon": 72.833952,
        "tags": {
          "name": "Oshiwara",
          "name:mr": "\u0913\u0936\u093f\u0935\u093e\u0930\u093e",
          "public_transport": "station",
          "railway": "station",
          "station": "subway",
          "subway": "yes"
        }
      },
      {
        "type": "node",
        "id": 10576726757,
        "lat": 19.1530241,
        "lon": 72.8356664,
        "tags": {
          "name": "Goregaon (West)",
          "name:mr": "\u0917\u094b\u0930\u0947\u0917\u093e\u0935 (\u092a\u0936\u094d\u091a\u093f\u092e)",
          "public_transport": "station",
          "railway": "station",
          "station": "subway",
          "subway": "yes"
        }
      },
      {
        "type": "node",
        "id": 10879528557,
        "lat": 19.1411522,
        "lon": 72.8494398,
        "tags": {
          "name": "Jogeshwari (Harbour Line)",
          "public_transport": "stop_position",
          "railway": "stop",
          "ref": "2",
          "train": "yes"
        }
      },
      {
        "type": "node",
        "id": 10879528558,
        "lat": 19.1411552,
        "lon": 72.8494019,
        "tags": {
          "name": "Jogeshwari (Harbour Line)",
          "public_transport": "stop_position",
          "railway": "stop",
          "ref": "1",
          "train": "yes"
        }
      },
      {
        "type": "node",
        "id": 12189351698,
        "lat": 19.1411537,
        "lon": 72.8494209,
        "tags": {
          "name": "Jogeshwari (Harbour Line)",
          "name:mr": "\u091c\u094b\u0917\u0947\u0936\u094d\u200d\u0935\u0930\u0940",
          "network": "Indian Railways",
          "operator": "Western Railway",
          "public_transport": "station",
          "railway": "station",
          "ref": "JOS",
          "train": "yes"
        }
      },
      {
        "type": "node",
        "id": 12189363305,
        "lat": 19.1361144,
        "lon": 72.848936,
        "tags": {
          "name": "Jogeshwari (Western Line)",
          "name:mr": "\u091c\u094b\u0917\u0947\u0936\u094d\u200d\u0935\u0930\u0940",
          "network": "Mumbai Suburban Railway",
          "network:wikidata": "Q3273422",
          "operator": "Western Railway",
          "public_transport": "station",
          "railway": "station",
          "ref": "JOS",
          "train": "yes"
        }
      },
      {
        "type": "node",
        "id": 12219566476,
        "lat": 19.1406986,
        "lon": 72.8271846,
        "tags": {
          "construction": "stop",
          "name": "Lokhandwala Station",
          "public_transport": "stop_position",
          "railway": "construction",
          "subway": "yes"
        }
      },
      {
        "type": "node",
        "id": 12219566486,
        "lat": 19.141842,
        "lon": 72.8336123,
        "tags": {
          "construction": "stop",
          "name": "Adarsh Nagar Station",
          "public_transport": "stop_position",
          "railway": "construction",
          "subway": "yes"
        }
      },
      {
        "type": "node",
        "id": 12219587411,
        "lat": 19.1398313,
        "lon": 72.8459716,
        "tags": {
          "construction": "stop",
          "name": "Momin Nagar Station",
          "public_transport": "stop_position",
          "railway": "construction",
          "subway": "yes"
        }
      },
      {
        "type": "node",
        "id": 12219587427,
        "lat": 19.1405541,
        "lon": 72.8539952,
        "tags": {
          "construction": "stop",
          "name": "JVLR Station",
          "public_transport": "stop_position",
          "railway": "construction",
          "subway": "yes"
        }
      },
      {
        "type": "node",
        "id": 12219587659,
        "lat": 19.1436925,
        "lon": 72.8197506,
        "tags": {
          "construction": "stop",
          "name": "Swami Samarth Nagar Station",
          "public_transport": "stop_position",
          "railway": "construction",
          "subway": "yes"
        }
      },
      {
        "type": "node",
        "id": 12607214617,
        "lat": 19.1338892,
        "lon": 72.8116698,
        "tags": {
          "addr:city": "Mumbai",
          "addr:housenumber": "31",
          "addr:postcode": "400061",
          "addr:street": "Aramnagar Part 2",
          "amenity": "theatre",
          "name": "Ambrosia Theatre"
        }
      },
      {
        "type": "node",
        "id": 12620682456,
        "lat": 19.1341847,
        "lon": 72.812504,
        "tags": {
          "addr:city": "Mumbai",
          "addr:housenumber": "44",
          "addr:postcode": "400061",
          "addr:street": "Aramnagar Part 2, Versova",
          "amenity": "theatre",
          "name": "TPW Casting"
        }
      }
    ]
  }
}