{
  "pois_1km": {
    "version": 0.6,
    "generator": "Overpass API 0.7.62.8 e802775f",
    "osm3s": {
      "timestamp_osm_base": "2025-09-06T07:49:44Z",
      "copyright": "The data included in this document is from www.openstreetmap.org. The data is made available under ODbL."
    },
    "elements": [
      {
        "type": "node",
        "id": 621556463,
        "lat": 19.1003169,
        "lon": 72.8407161,
        "tags": {
          "addr:street": "D Joshi Marg",
          "amenity": "fast_food",
          "brand": "McDonald's",
          "brand:pa": "\u0a2e\u0a48\u0a15\u0a21\u0a4b\u0a28\u0a32\u0a21\u2019\u0a1c\u0a3c",
          "brand:ur": "\u0645\u06a9\u0688\u0648\u0646\u0644\u0688\u0632",
          "brand:wikidata": "Q38076",
          "brand:wikipedia": "en:McDonald's",
          "brand:wikipedia:pa": "\u0a2e\u0a48\u0a15\u0a21\u0a4b\u0a28\u0a32\u0a21\u2019\u0a1c\u0a3c",
          "brand:wikipedia:ur": "\u0645\u06a9\u0688\u0648\u0646\u0644\u0688\u0632",
          "cuisine": "burger",
          "name": "McDonald's",
          "name:pa": "\u0a2e\u0a48\u0a15\u0a21\u0a4b\u0a28\u0a32\u0a21\u2019\u0a1c\u0a3c",
          "name:ur": "\u0645\u06a9\u0688\u0648\u0646\u0644\u0688\u0632",
          "takeaway": "yes"
        }
      },
      {
        "type": "node",
        "id": 1573917606,
        "lat": 19.1031465,
        "lon": 72.8467877,
        "tags": {
          "addr:housename": "Pardhi House",
          "addr:postcode": "400057",
          "addr:street": "Hanuman Road,M.g. Road",
          "amenity": "bank",
          "atm": "yes",
          "brand": "Bank of India",
          "brand:wikidata": "Q2004439",
          "brand:wikipedia": "en:Bank of India",
          "name": "Bank of India",
          "name:en": "Bank of India",
          "short_name": "BoI",
          "website": "https://www.bankofindia.co.in/"
        }
      },
      {
        "type": "node",
        "id": 1575092121,
        "lat": 19.1030147,
        "lon": 72.8453313,
        "tags": {
          "addr:housename": "Vireshwar Jyot",
          "addr:postcode": "400057",
          "addr:street": "Hanuman Road",
          "amenity": "pharmacy",
          "healthcare": "pharmacy",
          "name": "Superdoc Medical"
        }
      },
      {
        "type": "node",
        "id": 1575245771,
        "lat": 19.1029971,
        "lon": 72.8465194,
        "tags": {
          "addr:housename": "Waman Co.Op.Soc.",
          "addr:postcode": "400057",
          "addr:street": "Hanuman Road",
          "amenity": "cafe",
          "diet:vegetarian": "only",
          "name": "Wagh Bakari Tea"
        }
      },
      {
        "type": "node",
        "id": 1575306449,
        "lat": 19.1030478,
        "lon": 72.8473563,
        "tags": {
          "addr:housename": "Saraswati Niwas",
          "addr:postcode": "400057",
          "addr:street": "Hanuman Road",
          "amenity": "bank",
          "atm": "yes",
          "name": "Cosmos Bank"
        }
      },
      {
        "type": "node",
        "id": 1575368240,
        "lat": 19.1030604,
        "lon": 72.8477452,
        "tags": {
          "addr:housename": "Siddhachal",
          "addr:postcode": "400057",
          "addr:street": "Hanuman Road",
          "amenity": "restaurant",
          "diet:vegetarian": "only",
          "name": "Same Place"
        }
      },
      {
        "type": "node",
        "id": 1576633589,
        "lat": 19.103182,
        "lon": 72.8484426,
        "tags": {
          "addr:housename": "Prabhat Apt.",
          "addr:postcode": "400057",
          "addr:street": "Hanuman Road",
          "amenity": "bank",
          "name": "Pen Urban Bank"
        }
      },
      {
        "type": "node",
        "id": 1577704949,
        "lat": 19.1034694,
        "lon": 72.8485851,
        "tags": {
          "addr:housename": "Gloddiola",
          "addr:postcode": "400057",
          "addr:street": "Hanuman Road",
          "amenity": "bank",
          "name": "ING Vaisya"
        }
      },
      {
        "type": "node",
        "id": 1577946978,
        "lat": 19.1036259,
        "lon": 72.8498185,
        "tags": {
          "addr:housename": "Shree Kunj Premises",
          "addr:postcode": "400057",
          "addr:street": "Hanuman Road",
          "amenity": "bank",
          "atm": "yes",
          "name": "Janata Sahakari Bank"
        }
      },
      {
        "type": "node",
        "id": 1577992597,
        "lat": 19.1036737,
        "lon": 72.8503066,
        "tags": {
          "addr:housename": "Deshastha Hrigvedi Brahman Sangh",
          "addr:postcode": "400057",
          "addr:street": "Hanuman Road",
          "amenity": "bank",
          "brand": "Punjab National Bank",
          "brand:wikidata": "Q2743499",
          "brand:wikipedia": "en:Punjab National Bank",
          "name": "Punjab National Bank",
          "name:en": "Punjab National Bank",
          "short_name": "PNB",
          "website": "https://www.pnbindia.in"
        }
      },
      {
        "type": "node",
        "id": 1579171646,
        "lat": 19.1035624,
        "lon": 72.8508736,
        "tags": {
          "addr:housename": "Suvas",
          "addr:postcode": "400057",
          "addr:street": "Hanuman Road",
          "amenity": "pharmacy",
          "healthcare": "pharmacy",
          "name": "Atul Aurvedic"
        }
      },
      {
        "type": "node",
        "id": 1579205132,
        "lat": 19.1035319,
        "lon": 72.8510229,
        "tags": {
          "addr:housename": "Pandurang Sadan",
          "addr:postcode": "400057",
          "addr:street": "Hanuman Road",
          "amenity": "pharmacy",
          "healthcare": "pharmacy",
          "name": "Parle Provision"
        }
      },
      {
        "type": "node",
        "id": 1579238378,
        "lat": 19.1036357,
        "lon": 72.8518597,
        "tags": {
          "addr:housename": "Samadhan Sadan",
          "addr:postcode": "400057",
          "addr:street": "Hanuman Road",
          "amenity": "pharmacy",
          "healthcare": "pharmacy",
          "name": "Suman"
        }
      },
      {
        "type": "node",
        "id": 1579242356,
        "lat": 19.1038462,
        "lon": 72.8514734,
        "tags": {
          "addr:housename": "Kadamgiri Complex Co.Op.HSG.Soc.",
          "addr:postcode": "400057",
          "addr:street": "Hanuman Road",
          "amenity": "bank",
          "atm": "yes",
          "brand": "ICICI Bank",
          "brand:wikidata": "Q1653258",
          "brand:wikipedia": "en:ICICI Bank",
          "name": "ICICI Bank",
          "name:en": "ICICI Bank",
          "short_name": "ICICI",
          "website": "https://www.icicibank.com"
        }
      },
      {
        "type": "node",
        "id": 1579243130,
        "lat": 19.1038461,
        "lon": 72.8515807,
        "tags": {
          "addr:housename": "Kadamgiri Complex Co.Op.HSG.Soc.",
          "addr:postcode": "400057",
          "addr:street": "Hanuman Road",
          "amenity": "restaurant",
          "name": "Gajali"
        }
      },
      {
        "type": "node",
        "id": 1579243979,
        "lat": 19.1038664,
        "lon": 72.8517658,
        "tags": {
          "addr:housename": "Kadamgiri Complex Co.Op.HSG.Soc.",
          "addr:postcode": "400057",
          "addr:street": "Hanuman Road",
          "amenity": "bank",
          "atm": "yes",
          "brand": "Corporation Bank",
          "brand:wikidata": "Q2003387",
          "brand:wikipedia": "en:Corporation Bank",
          "name": "Corporation Bank",
          "name:en": "Corporation Bank",
          "website": "https://corpbank.com/"
        }
      },
      {
        "type": "node",
        "id": 1579246326,
        "lat": 19.1038384,
        "lon": 72.8513421,
        "tags": {
          "addr:housename": "Kadamgiri Complex Co.Op.HSG.Soc.",
          "addr:postcode": "400057",
          "addr:street": "Hanuman Road",
          "amenity": "bank",
          "atm": "yes",
          "brand": "Karnataka Bank",
          "brand:wikidata": "Q2042632",
          "brand:wikipedia": "en:Karnataka Bank",
          "name": "Karnataka Bank"
        }
      },
      {
        "type": "node",
        "id": 1579252116,
        "lat": 19.1038511,
        "lon": 72.8518624,
        "tags": {
          "addr:housename": "Kadamgiri Complex Co.Op.HSG.Soc.",
          "addr:postcode": "400057",
          "addr:street": "Hanuman Road",
          "amenity": "fast_food",
          "diet:vegetarian": "only",
          "name": "Panshikar"
        }
      },
      {
        "type": "node",
        "id": 1579253699,
        "lat": 19.1038512,
        "lon": 72.8518061,
        "tags": {
          "addr:housename": "Kadamgiri Complex Co.Op.HSG.Soc.",
          "addr:postcode": "400057",
          "addr:street": "Hanuman Road",
          "amenity": "fast_food",
          "diet:vegetarian": "only",
          "name": "Aaswad"
        }
      },
      {
        "type": "node",
        "id": 1579287602,
        "lat": 19.1038364,
        "lon": 72.8522498,
        "tags": {
          "addr:housename": "Moreshwar",
          "addr:postcode": "400057",
          "addr:street": "Hanuman Road",
          "amenity": "bank",
          "brand": "Kotak Mahindra Bank",
          "brand:wikidata": "Q2040404",
          "brand:wikipedia": "en:Kotak Mahindra Bank",
          "name": "Kotak Mahindra Bank",
          "name:en": "Kotak Mahindra Bank",
          "website": "http://www.kotak.com"
        }
      },
      {
        "type": "node",
        "id": 1579291348,
        "lat": 19.1036662,
        "lon": 72.8521762,
        "tags": {
          "addr:housename": "Pitale Wadi",
          "addr:postcode": "400057",
          "addr:street": "Hanuman Road",
          "alt_name": "CCD",
          "amenity": "cafe",
          "brand": "Cafe Coffee Day",
          "brand:wikidata": "Q5017235",
          "brand:wikipedia": "en:Caf\u00e9 Coffee Day",
          "cuisine": "coffee_shop",
          "internet_access": "wlan",
          "name": "Cafe Coffee Day",
          "opening_hours": "Mo-Su,PH 08:00-22:00",
          "takeaway": "yes"
        }
      },
      {
        "type": "node",
        "id": 1579294216,
        "lat": 19.1036637,
        "lon": 72.8523076,
        "tags": {
          "addr:housename": "Pitale Wadi",
          "addr:postcode": "400057",
          "addr:street": "Hanuman Road",
          "amenity": "restaurant",
          "diet:vegetarian": "only",
          "name": "Daffodils",
          "opening_hours": "Mo-Su 08:00-23:00"
        }
      },
      {
        "type": "node",
        "id": 1579324991,
        "lat": 19.1036532,
        "lon": 72.8528496,
        "tags": {
          "addr:postcode": "400057",
          "addr:street": "Hanuman Road",
          "amenity": "restaurant",
          "cuisine": "indian",
          "name": "Hotel Shree Ganesh"
        }
      },
      {
        "type": "node",
        "id": 1803672128,
        "lat": 19.1080126,
        "lon": 72.8497841,
        "tags": {
          "addr:housename": "Union Bank of India",
          "addr:postcode": "400057",
          "addr:street": "Tejpal Scheme Road 3",
          "amenity": "bank",
          "atm": "yes",
          "brand": "Union Bank of India",
          "brand:wikidata": "Q2004078",
          "brand:wikipedia": "en:Union Bank of India",
          "name": "Union Bank of India",
          "name:en": "Union Bank of India",
          "short_name": "UBI",
          "source": "Swati Sanghavi",
          "website": "https://www.unionbankofindia.co.in/"
        }
      },
      {
        "type": "node",
        "id": 3403264488,
        "lat": 19.1068191,
        "lon": 72.8507443,
        "tags": {
          "addr:city": "Mumbai",
          "addr:housenumber": "krishna alankar",
          "addr:postcode": "400057",
          "addr:street": "Tejpal Scheme Road 5",
          "amenity": "hospital",
          "emergency": "yes",
          "healthcare": "hospital",
          "name": "gr8 smile dental clinic",
          "note": "Dentist",
          "operator": "dr. jitha marakarkandy",
          "phone": "+91 22 2684 2451"
        }
      },
      {
        "type": "node",
        "id": 3504257979,
        "lat": 19.1006543,
        "lon": 72.8432872,
        "tags": {
          "addr:city": "Mumbai",
          "addr:housenumber": "Shop no. 3, Nisarg Apartments",
          "addr:postcode": "400056",
          "addr:street": "Besant Road, Vile Parle West",
          "amenity": "clinic",
          "healthcare": "clinic",
          "name": "Pushpak Diagnostics"
        }
      },
      {
        "type": "node",
        "id": 3951524189,
        "lat": 19.1013189,
        "lon": 72.8395752,
        "tags": {
          "amenity": "bank",
          "atm": "yes",
          "brand": "Bank of India",
          "brand:wikidata": "Q2004439",
          "brand:wikipedia": "en:Bank of India",
          "name": "Bank of India",
          "name:en": "Bank of India",
          "short_name": "BoI",
          "website": "https://www.bankofindia.co.in/"
        }
      },
      {
        "type": "node",
        "id": 3951526714,
        "lat": 19.0959684,
        "lon": 72.8400115,
        "tags": {
          "addr:district": "Mumbai",
          "addr:full": "S V Road , Vile Parle",
          "addr:postcode": "400056",
          "addr:state": "Maharashtra",
          "addr:street": "Swami Vivekanand Road",
          "amenity": "hospital",
          "contact:phone": "2226267500",
          "email": "info@nanavatihospital.org",
          "healthcare": "hospital",
          "name": "Nanavati Hospital, Mumbai",
          "opening_hours": "24/7",
          "operator:type": "government",
          "source": "OpenGovernmentData",
          "website": "https://www.nanavatihospital.org/",
          "wikidata": "Q6962443",
          "wikipedia": "en:Nanavati hospital"
        }
      },
      {
        "type": "node",
        "id": 4102508704,
        "lat": 19.1002954,
        "lon": 72.8400363,
        "tags": {
          "addr:street": "D Joshi Marg",
          "amenity": "cafe",
          "brand": "Cafe Coffee Day",
          "brand:wikidata": "Q5017235",
          "brand:wikipedia": "en:Caf\u00e9 Coffee Day",
          "cuisine": "coffee_shop",
          "internet_access": "wlan",
          "name": "Cafe Coffee Day",
          "outdoor_seating": "no",
          "takeaway": "yes"
        }
      },
      {
        "type": "node",
        "id": 4208309895,
        "lat": 19.1032614,
        "lon": 72.8467331,
        "tags": {
          "amenity": "cafe",
          "cuisine": "american;asian;bagel;breakfast;burger;coffee_shop;indian;international;italian;italian_pizza;mexican;mediterranean;pancake;pizza;pasta;sandwich;tea",
          "diet:vegetarian": "yes",
          "name": "Tea Villa"
        }
      },
      {
        "type": "node",
        "id": 4759553023,
        "lat": 19.0981963,
        "lon": 72.8461004,
        "tags": {
          "amenity": "restaurant",
          "name": "Shiv Sagar Hotel",
          "name:en": "Shiu Sagar"
        }
      },
      {
        "type": "node",
        "id": 5627110021,
        "lat": 19.102098,
        "lon": 72.8465352,
        "tags": {
          "addr:postcode": "400057",
          "addr:street": "Shraddhanand Road",
          "amenity": "doctors",
          "healthcare": "doctor",
          "name:en": "Dr Barve Homeopathy Clinic",
          "opening_hours": "Mo-Sa 09:00-22:00",
          "phone": "+912226171138"
        }
      },
      {
        "type": "node",
        "id": 5627146821,
        "lat": 19.1026134,
        "lon": 72.8464811,
        "tags": {
          "addr:postcode": "400057",
          "addr:street": "Shraddhanand Road",
          "amenity": "restaurant",
          "cuisine": "indian;breakfast",
          "diet:vegetarian": "yes",
          "name:en": "Mi Marathi",
          "opening_hours": "Mo-Su 10:00-22:00"
        }
      },
      {
        "type": "node",
        "id": 6110268585,
        "lat": 19.1023126,
        "lon": 72.8504761,
        "tags": {
          "amenity": "atm",
          "opening_hours": "24/7",
          "operator": "HDFC Bank ATM"
        }
      },
      {
        "type": "node",
        "id": 6110268586,
        "lat": 19.1038486,
        "lon": 72.851968,
        "tags": {
          "amenity": "atm",
          "opening_hours": "24/7",
          "operator": "State Bank Of India ATM"
        }
      },
      {
        "type": "node",
        "id": 6110271886,
        "lat": 19.100335,
        "lon": 72.84713,
        "tags": {
          "addr:postcode": "400057",
          "addr:street": "Ram Mandir Road",
          "amenity": "fast_food",
          "cuisine": "indian",
          "name:en": "Vidharbh Vada Pav",
          "opening_hours": "Mo-Su 08:00-22:30"
        }
      },
      {
        "type": "node",
        "id": 6110577685,
        "lat": 19.0984111,
        "lon": 72.8446038,
        "tags": {
          "amenity": "fast_food",
          "cuisine": "indian",
          "name:en": "Mohan Farsan",
          "opening_hours": "Tu-Su 09:00-21:00"
        }
      },
      {
        "type": "node",
        "id": 6110577885,
        "lat": 19.0968807,
        "lon": 72.8519931,
        "tags": {
          "amenity": "atm",
          "opening_hours": "24/7",
          "operator": "State Bank Of India ATM"
        }
      },
      {
        "type": "node",
        "id": 6112630387,
        "lat": 19.1036425,
        "lon": 72.8522206,
        "tags": {
          "addr:street": "Hanuman Mandir Road",
          "amenity": "fast_food",
          "cuisine": "breakfast",
          "name:en": "Simply South",
          "opening_hours": "Mo-Su 08:00-23:00"
        }
      },
      {
        "type": "node",
        "id": 6721812590,
        "lat": 19.1048126,
        "lon": 72.8522763,
        "tags": {
          "addr:city": "Mumbai",
          "addr:postcode": "400057",
          "addr:street": "Paranjpe B Scheme Road No 1",
          "amenity": "cafe",
          "cuisine": "italian;juice;cafe;burger;sandwich;salad;soup",
          "diet:vegan": "yes",
          "diet:vegetarian": "yes",
          "name": "Garde Manger Cafe",
          "opening_hours": "Mo-Su 10:30-22:30",
          "outdoor_seating": "yes",
          "phone": "+91 70450 04488;+91 82918 16108"
        }
      },
      {
        "type": "node",
        "id": 7043778826,
        "lat": 19.1013222,
        "lon": 72.8484596,
        "tags": {
          "addr:city": "mumbai",
          "addr:district": "Mumbai",
          "addr:full": "# 102/6, Purshottam Niwas,1st Floor, Park Road, Vile Parle (E)",
          "addr:postcode": "400057",
          "addr:state": "Maharashtra",
          "addr:street": "Prarthana Samaj Road",
          "amenity": "hospital",
          "healthcare": "hospital",
          "healthcare:speciality": "ophthalmology",
          "name": "Parle Eye Hospital",
          "opening_hours": "24/7",
          "source": "OpenGovernmentData"
        }
      },
      {
        "type": "node",
        "id": 7045507621,
        "lat": 19.1056454,
        "lon": 72.8500903,
        "tags": {
          "addr:district": "Mumbai",
          "addr:full": "Pushpa Apartments, Tejpal Scheme Main Road, Vile Parle (East)",
          "addr:postcode": "400057",
          "addr:state": "Maharashtra",
          "amenity": "clinic",
          "healthcare": "clinic",
          "name": "Dr. Kirits Nursing Home-Vile Parle",
          "source": "OpenGovernmentData"
        }
      },
      {
        "type": "node",
        "id": 7046326222,
        "lat": 19.0972827,
        "lon": 72.8493802,
        "tags": {
          "addr:district": "Mumbai",
          "addr:full": "Vimal Apartment, Nehru Road, No.9, 10, 11, Near Municipal Office, Vile Parle East",
          "addr:postcode": "400057",
          "addr:state": "Maharashtra",
          "amenity": "hospital",
          "name": "Navjivan Maternity and Surgical Nursing Home",
          "source": "OpenGovernmentData"
        }
      },
      {
        "type": "node",
        "id": 7048433638,
        "lat": 19.0987192,
        "lon": 72.8457445,
        "tags": {
          "addr:district": "Mumbai",
          "addr:full": "104,Sagar Complex Bldg., Ram Mandir Road Corner, Besides Market Ram Mandir, Vile-Parle (E)",
          "addr:postcode": "400057",
          "addr:state": "Maharashtra",
          "amenity": "clinic",
          "healthcare": "clinic",
          "name": "Vasudev Eye Clinic",
          "source": "OpenGovernmentData"
        }
      },
      {
        "type": "node",
        "id": 7048889798,
        "lat": 19.1066174,
        "lon": 72.8404176,
        "tags": {
          "addr:district": "Mumbai",
          "addr:full": "A-4/5/6 Majithia Apts. S.V. Road,Irla, Vile Parle (West)",
          "addr:postcode": "400056",
          "addr:state": "Maharashtra",
          "amenity": "clinic",
          "healthcare": "clinic",
          "name": "Dr. Sadiwalas Clinic and Nursing Home",
          "source": "OpenGovernmentData"
        }
      },
      {
        "type": "node",
        "id": 7053189597,
        "lat": 19.1035152,
        "lon": 72.8514978,
        "tags": {
          "addr:district": "Mumbai",
          "addr:full": "Shop No - 1,Dunhill Castle,Opp 9 To 9 Super Market,Hanuman Road,Vileparle (East)",
          "addr:postcode": "400057",
          "addr:state": "Maharashtra",
          "amenity": "hospital",
          "healthcare": "hospital",
          "name": "Dr.Satish G.Desai",
          "source": "OpenGovernmentData"
        }
      },
      {
        "type": "node",
        "id": 7062712062,
        "lat": 19.099527,
        "lon": 72.8493437,
        "tags": {
          "addr:district": "Mumbai",
          "addr:full": "261 Sumat Bhavan, Malvia Road, Above Jain Sthanak, Vile Parle East",
          "addr:postcode": "400057",
          "addr:state": "Maharashtra",
          "amenity": "hospital",
          "healthcare": "hospital",
          "name": "Smt. Laxmiben Dharamsi Karsan Gala Eye Hospital",
          "source": "OpenGovernmentData"
        }
      },
      {
        "type": "node",
        "id": 7063805576,
        "lat": 19.1066712,
        "lon": 72.8404411,
        "tags": {
          "addr:district": "Mumbai",
          "addr:full": "189, Majithia Appt. Icici Bank S.V. Road, Irla,Vile Parle (W)",
          "addr:postcode": "400056",
          "addr:state": "Maharashtra",
          "amenity": "clinic",
          "healthcare": "clinic",
          "name": "Irla Nursing Home and Polyclinic",
          "source": "OpenGovernmentData"
        }
      },
      {
        "type": "node",
        "id": 7064656036,
        "lat": 19.1033175,
        "lon": 72.8393072,
        "tags": {
          "addr:district": "Mumbai",
          "addr:full": "Shrinath Darshan, Near Golden Tobacco, S.V.Road, Vile Parle (W)",
          "addr:postcode": "400056",
          "addr:state": "Maharashtra",
          "amenity": "clinic",
          "name": "Shruti Clinic",
          "source": "OpenGovernmentData"
        }
      },
      {
        "type": "node",
        "id": 7067050981,
        "lat": 19.1022549,
        "lon": 72.8486849,
        "tags": {
          "addr:district": "Mumbai",
          "addr:full": "Silver Apartment 29, Mahant Road, Vile Parle East",
          "addr:postcode": "400057",
          "addr:state": "Maharashtra",
          "amenity": "hospital",
          "healthcare": "hospital",
          "name": "Vivek Pathology Laboratory",
          "source": "OpenGovernmentData"
        }
      },
      {
        "type": "node",
        "id": 7067930269,
        "lat": 19.0971864,
        "lon": 72.8407958,
        "tags": {
          "addr:district": "Mumbai",
          "addr:full": "Anil Villa,Vallabhabhai Road,Opp Nanavati Womens College,Vileparle West",
          "addr:postcode": "400056",
          "addr:state": "Maharashtra",
          "amenity": "clinic",
          "name": "Eclat Polyclinic",
          "source": "OpenGovernmentData"
        }
      },
      {
        "type": "node",
        "id": 7070859091,
        "lat": 19.1074601,
        "lon": 72.8484213,
        "tags": {
          "addr:district": "Mumbai",
          "addr:full": "A - 103, 104, Saurabh Apartment, Shahaji Raje Marg Next To Bhuta High School",
          "addr:postcode": "400057",
          "addr:state": "Maharashtra",
          "amenity": "hospital",
          "healthcare": "hospital",
          "name": "Nityanand Iccu and Nursing Home",
          "source": "OpenGovernmentData"
        }
      },
      {
        "type": "node",
        "id": 7070859097,
        "lat": 19.1031325,
        "lon": 72.8392227,
        "tags": {
          "addr:district": "Mumbai",
          "addr:full": "D-31, Navmangal Chs, 1st Floor,Above Venilal Saree Shop, S. V. Road",
          "addr:postcode": "400056",
          "addr:state": "Maharashtra",
          "amenity": "hospital",
          "name": "Khandwala Eye Hospital and Polyclinic",
          "source": "OpenGovernmentData"
        }
      },
      {
        "type": "node",
        "id": 7079392099,
        "lat": 19.0942526,
        "lon": 72.849741,
        "tags": {
          "addr:district": "Mumbai",
          "addr:full": "Nanda Patkar Road, Vileparle East",
          "addr:postcode": "400057",
          "addr:state": "Maharashtra",
          "amenity": "hospital",
          "name": "Dr. Rane hospital maternity & surgical",
          "source": "OpenGovernmentData"
        }
      },
      {
        "type": "node",
        "id": 7080269989,
        "lat": 19.0970597,
        "lon": 72.847386,
        "tags": {
          "addr:district": "Mumbai",
          "addr:full": "199, Dixit Cross Road, Near Chetan School, Vile Parle (East)",
          "addr:postcode": "400057",
          "addr:state": "Maharashtra",
          "amenity": "hospital",
          "healthcare": "hospital",
          "name": "Ashish Maternity and Nursing Home - Vile Parle (E)",
          "source": "OpenGovernmentData"
        }
      },
      {
        "type": "node",
        "id": 7225067197,
        "lat": 19.1054569,
        "lon": 72.8518587,
        "tags": {
          "addr:district": "Mumbai",
          "addr:full": "Dr. V.N.Shirodkar Municipal Maternity Home, Vileparle (E)",
          "addr:postcode": "400057",
          "addr:state": "Maharashtra",
          "amenity": "hospital",
          "healthcare": "hospital",
          "name": "V N Shirodkar Hospital",
          "source": "OpenGovernmentData"
        }
      },
      {
        "type": "node",
        "id": 7663961406,
        "lat": 19.1054972,
        "lon": 72.8481238,
        "tags": {
          "addr:district": "Mumbai Suburban",
          "addr:full": "G B Indulkar Road, Vishnu Prasad Society, Navpada, Vile Parle East, Mumbai",
          "addr:postcode": "400057",
          "addr:state": "Maharastra",
          "amenity": "hospital",
          "healthcare": "hospital",
          "name": "Dr. Sanjanwala Hospital",
          "source": "Local Knowledge"
        }
      },
      {
        "type": "node",
        "id": 7663961448,
        "lat": 19.102788,
        "lon": 72.849605,
        "tags": {
          "addr:district": "Mumbai Suburban",
          "addr:full": "Ganga Kesav Building, Hanuman Cross Road, 1 Near Shiv Leela Restaurant, Vile Parle East, Mumbai",
          "addr:postcode": "400057",
          "addr:state": "Maharastra",
          "amenity": "clinic",
          "healthcare": "clinic",
          "name": "Vatsalya Clinic",
          "source": "Local Knowledge"
        }
      },
      {
        "type": "node",
        "id": 7663961462,
        "lat": 19.101669,
        "lon": 72.848999,
        "tags": {
          "addr:district": "Mumbai Suburban",
          "addr:full": "Chittaranjan Road, Satsang CHSL, Navpada, Park Road, Vile Parle, Mumbai",
          "addr:postcode": "400057",
          "addr:state": "Maharastra",
          "amenity": "hospital",
          "healthcare": "hospital",
          "name": "Dr. Wagh Maternity Hospital",
          "source": "Local Knowledge"
        }
      },
      {
        "type": "node",
        "id": 8418502060,
        "lat": 19.1030229,
        "lon": 72.8369401,
        "tags": {
          "amenity": "cafe",
          "opening_hours": "Mo-Su 10:00-22:00",
          "opening_hours:covid19": "closedj",
          "outdoor_seating": "yes"
        }
      },
      {
        "type": "node",
        "id": 8418511682,
        "lat": 19.1031899,
        "lon": 72.836811,
        "tags": {
          "amenity": "fast_food",
          "cuisine": "regional",
          "name": "anand dosa center",
          "opening_hours": "Mo-Su 10:00-22:00"
        }
      },
      {
        "type": "node",
        "id": 8801598781,
        "lat": 19.0997223,
        "lon": 72.8463493,
        "tags": {
          "addr:district": "Mumbai",
          "addr:full": "Plot No. 77, Vile Parle, Mumbai",
          "addr:postcode": "400057",
          "addr:state": "Maharashtra",
          "amenity": "hospital",
          "name": "Babasaheb Gawde Hospital",
          "source": "Local Knowledge"
        }
      },
      {
        "type": "node",
        "id": 9339522266,
        "lat": 19.1028313,
        "lon": 72.8363561,
        "tags": {
          "addr:city": "Mumbai",
          "addr:postcode": "400056",
          "addr:street": "Vaikunthlal Mehta Road",
          "amenity": "fast_food",
          "name": "NMIMS canteen",
          "operator": "NMIMS"
        }
      },
      {
        "type": "node",
        "id": 9509595437,
        "lat": 19.1031255,
        "lon": 72.8495896,
        "tags": {
          "addr:city": "mumbai",
          "addr:postcode": "400057",
          "addr:street": "Hanuman Cross Road 2",
          "amenity": "cafe",
          "cuisine": "coffee_shop",
          "internet_access": "yes",
          "name": "The Dream Cafe",
          "opening_hours": "Mo-Sa 09:00-20:00",
          "outdoor_seating": "yes",
          "website": "the dream cafe.com"
        }
      },
      {
        "type": "node",
        "id": 10576000695,
        "lat": 19.1030515,
        "lon": 72.8368546,
        "tags": {
          "addr:city": "Mumbai",
          "addr:housenumber": "chaibucks",
          "addr:postcode": "400056",
          "addr:street": "Gulmohar Road",
          "amenity": "restaurant",
          "cuisine": "coffee_shop;burger",
          "diet:vegetarian": "yes",
          "name": "chaibucks",
          "opening_hours": "Mo-Su 10:00-22:00"
        }
      },
      {
        "type": "node",
        "id": 10682394705,
        "lat": 19.098961,
        "lon": 72.8445365,
        "tags": {
          "amenity": "restaurant",
          "cuisine": "indian",
          "name:en": "Ram Krishna"
        }
      },
      {
        "type": "node",
        "id": 11076987025,
        "lat": 19.0981694,
        "lon": 72.847672,
        "tags": {
          "amenity": "fast_food",
          "changing_table": "no",
          "cuisine": "indian",
          "internet_access": "no",
          "level": "0",
          "name": "Saurashtra",
          "payment:cash": "yes",
          "payment:google_pay": "yes",
          "takeaway": "yes",
          "toilets:access": "permissive",
          "toilets:wheelchair": "no",
          "wheelchair": "no"
        }
      },
      {
        "type": "node",
        "id": 11348917628,
        "lat": 19.104092,
        "lon": 72.8525816,
        "tags": {
          "addr:city": "Mumbai",
          "addr:district": "Mumbai",
          "addr:housenumber": "Ground Floor",
          "addr:postcode": "400057",
          "addr:street": "Parvati Niwas, Paranjape B Scheme, Road 2, Besides Datta Mandir, Vile Parle East",
          "amenity": "restaurant",
          "cuisine": "pasta;pizza;sandwich;soup",
          "delivery": "only",
          "diet:vegan": "yes",
          "name": "The Bodhi Cafe",
          "opening_hours": "Mo-Su 09:15 1:30",
          "phone": "09550286477",
          "website": "https://thrivenow.in/the-bodhi-cafe/browse-menu/delivery"
        }
      },
      {
        "type": "node",
        "id": 11426731276,
        "lat": 19.1079187,
        "lon": 72.8408635,
        "tags": {
          "amenity": "hospital",
          "name": "KLS Memorial Hospital"
        }
      },
      {
        "type": "node",
        "id": 11426734334,
        "lat": 19.1059473,
        "lon": 72.8409279,
        "tags": {
          "amenity": "doctors",
          "name": "Dr Surbhi Trivedi"
        }
      },
      {
        "type": "node",
        "id": 11443121476,
        "lat": 19.1033607,
        "lon": 72.8368087,
        "tags": {
          "amenity": "fast_food",
          "drive_through": "no",
          "name": "NM frankie"
        }
      },
      {
        "type": "node",
        "id": 11443123555,
        "lat": 19.1002495,
        "lon": 72.8435773,
        "tags": {
          "amenity": "fast_food",
          "brand": "Jumbo King",
          "brand:wikidata": "Q6310895",
          "cuisine": "burger",
          "name": "Jumbo King",
          "takeaway": "yes"
        }
      },
      {
        "type": "node",
        "id": 11443424195,
        "lat": 19.0988875,
        "lon": 72.841077,
        "tags": {
          "addr:city": "Vile Parle (West)",
          "addr:district": "Mumbai",
          "addr:housenumber": "D/3, Ground Flr, Mewawala Apartmets",
          "addr:postcode": "400056",
          "addr:street": "Sarojani Path",
          "air_conditioning": "yes",
          "amenity": "clinic",
          "branch": "Head Clinic",
          "brand": "Anuvansh",
          "contact:facebook": "https://www.facebook.com/AnuvanshClinic/",
          "description": "Anuvansh pioneers diverse approaches to fertility treatment, leveraging integrative medicine's power. Discover our holistic solutions for fertility challenges and embark on a unique path to parenthood with Anuvansh Clinic.",
          "healthcare": "clinic",
          "healthcare:speciality": "fertility;gynaecology;paediatrics",
          "image": "https://www.anuvansh.com/assets/images/anuvansh-symbol.webp",
          "name": "Anuvansh Clinic",
          "name:gu": "\u0a85\u0aa8\u0ac1\u0ab5\u0a82\u0ab6",
          "name:hi": "\u0905\u0928\u0941\u0935\u0902\u0936",
          "opening_hours": "Mo-Sa 09:00-20:30",
          "operator": "Anuvansh Clinic",
          "operator:type": "private",
          "payment:cash": "yes",
          "payment:credit_cards": "yes",
          "payment:debit_cards": "yes",
          "payment:gpay": "yes",
          "payment:paytm": "yes",
          "payment:phonepe": "yes",
          "payment:upi": "yes",
          "payment:upi_qr": "yes",
          "start_date": "2016-08-19",
          "website": "https://www.anuvansh.com/"
        }
      },
      {
        "type": "node",
        "id": 11591072336,
        "lat": 19.0995522,
        "lon": 72.8457581,
        "tags": {
          "name": "HEERSON",
          "opening_hours": "Mo-Su 09:00-22:05",
          "payment:american_express": "yes",
          "payment:app": "yes",
          "payment:cash": "yes",
          "payment:credit_cards": "yes",
          "payment:diners_club": "yes",
          "shop": "supermarket"
        }
      },
      {
        "type": "node",
        "id": 12114223501,
        "lat": 19.1082248,
        "lon": 72.8399202,
        "tags": {
          "addr:postcode": "400056",
          "addr:street": "R G Gadkari Marg",
          "amenity": "fast_food",
          "brand": "McDonald's",
          "brand:wikidata": "Q38076",
          "cuisine": "burger",
          "name": "McDonald's",
          "takeaway": "yes"
        }
      },
      {
        "type": "node",
        "id": 12389405268,
        "lat": 19.0988823,
        "lon": 72.8411008,
        "tags": {
          "addr:city": "Vile Parle West",
          "addr:district": "Mumbai",
          "addr:housenumber": "D/3, Ground Floor",
          "addr:postcode": "400056",
          "addr:street": "Sarojani Path",
          "air_conditioning": "yes",
          "alt_name": "24 by Me",
          "alt_name:gu": "\u0ae8\u0aea \u0aac\u0abe\u0aaf \u0aae\u0ac0",
          "alt_name:hi": "\u0968\u096a \u092c\u093e\u092f \u092e\u0940",
          "alt_name:mr": "\u0968\u096a \u092c\u093e\u092f \u092e\u0940",
          "amenity": "clinic",
          "branch": "Vile Parle West",
          "brand": "24byMe",
          "check_date": "2024-12-02",
          "contact:facebook": "https://www.facebook.com/24byMe/",
          "description": "We are a Diabetes Treatment and Lifestyle Clinic located in juhu Vile Parle West, Mumbai. At 24byMe Center, we specialize in treating diabetes, weight loss, PCOD, and PCOS with personalized care plans tailored to each individual\u2019s needs.",
          "email": "hi@24byme.com",
          "healthcare": "clinic",
          "healthcare:speciality": "diabetology;integrative_medicine",
          "image": "https://lh3.googleusercontent.com/p/AF1QipNI4cNQkCLaye6tuAaDowLZlPayAx6ZZX2gmZ3U=s1360-w1360-h1020",
          "level": "0",
          "loc_name": "\u0968\u096a \u092c\u093e\u0907 \u092e\u0940",
          "name": "24byMe Diabetes Treatment Clinic",
          "nat_name": "24byMe",
          "official_name": "24byMe Self Health",
          "opening_hours": "Mo-Sa 09:00-20:00",
          "operator": "Anuvansh Clinic",
          "operator:type": "private",
          "payment:cash": "yes",
          "payment:google_pay": "yes",
          "payment:paytm": "yes",
          "payment:upi": "yes",
          "payment:upi_qr": "yes",
          "short_name": "24byMe",
          "start_date": "2018-10-14",
          "website": "https://www.24byme.com",
          "wheelchair": "yes"
        }
      },
      {
        "type": "node",
        "id": 12688155437,
        "lat": 19.1059731,
        "lon": 72.8414741,
        "tags": {
          "addr:city": "Mumbai",
          "addr:country": "IN",
          "addr:district": "Mumbai",
          "addr:housenumber": "201, Sapphire Plaza",
          "addr:postcode": "400053",
          "addr:street": "Dadabhai Road",
          "amenity": "hospital",
          "description": "Centre for Dermatology & Lasers",
          "emergency": "no",
          "healthcare": "hospital",
          "healthcare:speciality": "dermatology;dermatovenereology",
          "level": "2",
          "mobile": "+91-9136095925",
          "name": "Auro Skin Clinic",
          "opening_hours": "Mo-Sa 10:00-18:00",
          "operator": "Dr Avina Jain",
          "operator:type": "business",
          "payment:american_express": "yes",
          "payment:cash": "yes",
          "payment:contactless": "yes",
          "payment:credit_cards": "yes",
          "payment:debit_cards": "yes",
          "payment:google_pay": "yes",
          "payment:mastercard": "yes",
          "payment:visa": "yes",
          "website": "https://www.auroskin.in"
        }
      },
      {
        "type": "node",
        "id": 12843057594,
        "lat": 19.1045989,
        "lon": 72.8366387,
        "tags": {
          "amenity": "cafe",
          "brand": "Starbucks",
          "brand:wikidata": "Q37158",
          "cuisine": "coffee_shop",
          "name": "Starbucks",
          "official_name": "Starbucks Coffee",
          "takeaway": "yes"
        }
      },
      {
        "type": "node",
        "id": 12936465970,
        "lat": 19.1007247,
        "lon": 72.8396455,
        "tags": {
          "amenity": "fast_food",
          "level": "0",
          "name": "Maruti Pav Bhaji"
        }
      },
      {
        "type": "node",
        "id": 13031079601,
        "lat": 19.1026415,
        "lon": 72.8461922,
        "tags": {
          "addr:housenumber": "1",
          "addr:postcode": "400057",
          "addr:street": "Parleshwar Marg",
          "amenity": "restaurant",
          "cuisine": "indian;seafood",
          "level": "0",
          "name": "Nav Kayastha Pangat"
        }
      }
    ]
  },
  "pois_2_5km": {
    "version": 0.6,
    "generator": "Overpass API 0.7.62.8 e802775f",
    "osm3s": {
      "timestamp_osm_base": "2025-09-06T07:49:44Z",
      "copyright": "The data included in this document is from www.openstreetmap.org. The data is made available under ODbL."
    },
    "elements": [
      {
        "type": "node",
        "id": 213030714,
        "lat": 19.0815223,
        "lon": 72.8417565,
        "tags": {
          "internet_access": "no",
          "name": "Santa Cruz",
          "name:hi": "\u0938\u093e\u0902\u0924\u093e\u0915\u094d\u0930\u0941\u091c\u093c",
          "name:mr": "\u0938\u093e\u0902\u0924\u093e\u0915\u094d\u0930\u0942\u091d",
          "network": "Mumbai Suburban Railway",
          "network:wikidata": "Q3273422",
          "operator": "WR",
          "public_transport": "station",
          "railway": "station",
          "ref": "STC",
          "train": "yes",
          "wikidata": "Q7420001",
          "wikipedia": "en:Santacruz railway station"
        }
      },
      {
        "type": "node",
        "id": 621276256,
        "lat": 19.1000028,
        "lon": 72.8439266,
        "tags": {
          "name": "Vile Parle",
          "name:en": "Vile Parle",
          "name:mr": "\u0935\u093f\u0932\u0947 \u092a\u093e\u0930\u094d\u0932\u0947",
          "public_transport": "stop_position",
          "railway": "stop",
          "ref": "3",
          "train": "yes"
        }
      },
      {
        "type": "node",
        "id": 623881644,
        "lat": 19.1209139,
        "lon": 72.8480322,
        "tags": {
          "name": "Andheri",
          "name:mr": "\u0905\u0902\u0927\u0947\u0930\u0940",
          "name:ru": "\u042d\u043d\u0434\u0435\u0440\u0438",
          "network": "Mumbai Metro",
          "operator": "MMRDA",
          "public_transport": "stop_position",
          "railway": "stop",
          "subway": "yes"
        }
      },
      {
        "type": "node",
        "id": 1241793068,
        "lat": 19.09544,
        "lon": 72.8660044,
        "tags": {
          "aeroway": "terminal",
          "ele": "15.747192",
          "name": "Cargo Terminal",
          "source": "GPS",
          "sym": "Civil"
        }
      },
      {
        "type": "node",
        "id": 1345350827,
        "lat": 19.1161423,
        "lon": 72.8563549,
        "tags": {
          "addr:city": "Mumbai",
          "addr:postcode": "400099",
          "addr:street": "Mathuradas Vasanji Road",
          "amenity": "fuel",
          "name": "Guru Nanak Petrol Pump",
          "opening_hours": "24/7",
          "operator": "BPCL"
        }
      },
      {
        "type": "node",
        "id": 1345350832,
        "lat": 19.1147257,
        "lon": 72.8596325,
        "tags": {
          "addr:city": "Mumbai",
          "addr:street": "Mathuradas Vasanji Road",
          "amenity": "fuel",
          "brand": "Hindustan Petroleum",
          "brand:wikidata": "Q1619375",
          "brand:wikipedia": "en:Hindustan Petroleum",
          "name": "HP",
          "official_name": "Hindustan Petroleum"
        }
      },
      {
        "type": "node",
        "id": 1646774124,
        "lat": 19.1189755,
        "lon": 72.847101,
        "tags": {
          "name": "Andheri",
          "name:en": "Andheri",
          "name:mr": "\u0905\u0902\u0927\u0947\u0930\u0940",
          "public_transport": "stop_position",
          "railway": "stop",
          "ref": "9",
          "train": "yes"
        }
      },
      {
        "type": "node",
        "id": 1646774126,
        "lat": 19.1192749,
        "lon": 72.8470336,
        "tags": {
          "name": "Andheri",
          "name:en": "Andheri",
          "name:mr": "\u0905\u0902\u0927\u0947\u0930\u0940",
          "public_transport": "stop_position",
          "railway": "stop",
          "ref": "8",
          "train": "yes"
        }
      },
      {
        "type": "node",
        "id": 1646774128,
        "lat": 19.1192854,
        "lon": 72.8469802,
        "tags": {
          "name": "Andheri",
          "name:en": "Andheri",
          "name:mr": "\u0905\u0902\u0927\u0947\u0930\u0940",
          "public_transport": "stop_position",
          "railway": "stop",
          "ref": "7",
          "train": "yes"
        }
      },
      {
        "type": "node",
        "id": 1646774129,
        "lat": 19.1192914,
        "lon": 72.846845,
        "tags": {
          "name": "Andheri",
          "name:en": "Andheri",
          "name:mr": "\u0905\u0902\u0927\u0947\u0930\u0940",
          "public_transport": "stop_position",
          "railway": "stop",
          "ref": "6",
          "train": "yes"
        }
      },
      {
        "type": "node",
        "id": 1646774130,
        "lat": 19.1192956,
        "lon": 72.8467967,
        "tags": {
          "name": "Andheri",
          "name:en": "Andheri",
          "name:mr": "\u0905\u0902\u0927\u0947\u0930\u0940",
          "public_transport": "stop_position",
          "railway": "stop",
          "ref": "5",
          "train": "yes"
        }
      },
      {
        "type": "node",
        "id": 1646774131,
        "lat": 19.1193178,
        "lon": 72.8466577,
        "tags": {
          "name": "Andheri",
          "name:en": "Andheri",
          "name:mr": "\u0905\u0902\u0927\u0947\u0930\u0940",
          "public_transport": "stop_position",
          "railway": "stop",
          "ref": "4",
          "train": "yes"
        }
      },
      {
        "type": "node",
        "id": 1646774132,
        "lat": 19.1193246,
        "lon": 72.8465965,
        "tags": {
          "name": "Andheri",
          "name:en": "Andheri",
          "name:mr": "\u0905\u0902\u0927\u0947\u0930\u0940",
          "public_transport": "stop_position",
          "railway": "stop",
          "ref": "3",
          "train": "yes"
        }
      },
      {
        "type": "node",
        "id": 1648195662,
        "lat": 19.0975373,
        "lon": 72.8652877,
        "tags": {
          "amenity": "bus_station",
          "bus": "yes",
          "name": "Sahar Cargo Complex",
          "public_transport": "station"
        }
      },
      {
        "type": "node",
        "id": 1697438559,
        "lat": 19.1148228,
        "lon": 72.8275031,
        "tags": {
          "addr:street": "Parulekar Road",
          "amenity": "cinema",
          "brand": "PVR Cinemas",
          "brand:wikidata": "Q3359908",
          "name": "PVR Juhu",
          "short_name": "PVR"
        }
      },
      {
        "type": "node",
        "id": 2188851345,
        "lat": 19.1121647,
        "lon": 72.8647228,
        "tags": {
          "amenity": "cinema",
          "name": "Sangam Big Cinema"
        }
      },
      {
        "type": "node",
        "id": 2630075010,
        "lat": 19.0999098,
        "lon": 72.8440038,
        "tags": {
          "ele": "10",
          "internet_access": "no",
          "name": "Vile Parle",
          "name:hi": "\u0935\u093f\u0932\u0947 \u092a\u093e\u0930\u094d\u0932\u0947",
          "name:mr": "\u0935\u093f\u0932\u0947 \u092a\u093e\u0930\u094d\u0932\u0947",
          "network": "Mumbai Suburban Railway",
          "network:wikidata": "Q3273422",
          "operator": "WR",
          "public_transport": "station",
          "railway": "station",
          "ref": "VLP",
          "train": "yes",
          "wikidata": "Q7930143",
          "wikipedia": "en:Vile Parle railway station"
        }
      },
      {
        "type": "node",
        "id": 3347771408,
        "lat": 19.1000071,
        "lon": 72.8438937,
        "tags": {
          "name": "Vile Parle",
          "name:en": "Vile Parle",
          "name:mr": "\u0935\u093f\u0932\u0947 \u092a\u093e\u0930\u094d\u0932\u0947",
          "public_transport": "stop_position",
          "railway": "stop",
          "ref": "2",
          "train": "yes"
        }
      },
      {
        "type": "node",
        "id": 3389150481,
        "lat": 19.1200415,
        "lon": 72.8494816,
        "tags": {
          "name": "Andheri",
          "name:mr": "\u0905\u0902\u0927\u0947\u0930\u0940",
          "name:ru": "\u042d\u043d\u0434\u0435\u0440\u0438",
          "network": "Mumbai Metro",
          "operator": "MMRDA",
          "public_transport": "stop_position",
          "railway": "stop",
          "subway": "yes"
        }
      },
      {
        "type": "node",
        "id": 3389150483,
        "lat": 19.1155638,
        "lon": 72.8569834,
        "tags": {
          "name": "Western Express Highway (eastbound)",
          "name:mr": "\u092a\u0936\u094d\u091a\u093f\u092e \u0926\u094d\u0930\u0941\u0924\u0917\u0924\u0940 \u092e\u0939\u093e\u092e\u093e\u0930\u094d\u0917",
          "name:ru": "\u0412\u0435\u0441\u0442\u0435\u0440\u043d \u042d\u043a\u0441\u043f\u0440\u0435\u0441\u0441 \u0425\u0430\u0439\u0432\u0435\u0439",
          "network": "Mumbai Metro",
          "operator": "MMRDA",
          "public_transport": "stop_position",
          "railway": "stop",
          "subway": "yes"
        }
      },
      {
        "type": "node",
        "id": 3389150484,
        "lat": 19.1161636,
        "lon": 72.8558686,
        "tags": {
          "name": "Western Express Highway (westbound)",
          "name:mr": "\u092a\u0936\u094d\u091a\u093f\u092e \u0926\u094d\u0930\u0941\u0924\u0917\u0924\u0940 \u092e\u0939\u093e\u092e\u093e\u0930\u094d\u0917",
          "name:ru": "\u0412\u0435\u0441\u0442\u0435\u0440\u043d \u042d\u043a\u0441\u043f\u0440\u0435\u0441\u0441 \u0425\u0430\u0439\u0432\u0435\u0439",
          "network": "Mumbai Metro",
          "operator": "MMRDA",
          "public_transport": "stop_position",
          "railway": "stop",
          "subway": "yes"
        }
      },
      {
        "type": "node",
        "id": 3951524190,
        "lat": 19.1010253,
        "lon": 72.8392429,
        "tags": {
          "amenity": "fuel",
          "brand": "Indian Oil",
          "brand:wikidata": "Q1289348",
          "brand:wikipedia": "en:Indian Oil Corporation",
          "name": "Indian Oil"
        }
      },
      {
        "type": "node",
        "id": 3951524927,
        "lat": 19.0967848,
        "lon": 72.8393963,
        "tags": {
          "addr:street": "Swami Vivekanand Road",
          "amenity": "fuel",
          "brand": "Indian Oil",
          "brand:wikidata": "Q1289348",
          "brand:wikipedia": "en:Indian Oil Corporation",
          "name": "Indian Oil"
        }
      },
      {
        "type": "node",
        "id": 3951527111,
        "lat": 19.0905676,
        "lon": 72.8382833,
        "tags": {
          "amenity": "bus_station",
          "bus": "yes",
          "name": "Santacruz Bus Depot",
          "public_transport": "station"
        }
      },
      {
        "type": "node",
        "id": 3951538082,
        "lat": 19.0860081,
        "lon": 72.8383183,
        "tags": {
          "amenity": "fuel",
          "brand": "Hindustan Petroleum",
          "brand:wikidata": "Q1619375",
          "brand:wikipedia": "en:Hindustan Petroleum",
          "name": "HP",
          "official_name": "Hindustan Petroleum"
        }
      },
      {
        "type": "node",
        "id": 5220954818,
        "lat": 19.1145088,
        "lon": 72.8551766,
        "tags": {
          "name:mr": "\u0917\u0941\u0902\u0926\u0935\u0932\u0940",
          "name:ru": "\u0413\u0443\u043d\u0434\u0430\u0432\u0430\u043b\u0438",
          "public_transport": "stop_position",
          "railway": "stop",
          "subway": "yes"
        }
      },
      {
        "type": "node",
        "id": 5696928866,
        "lat": 19.1196976,
        "lon": 72.8464205,
        "tags": {
          "date:rebuilt": "2015",
          "date:renamed": "1934",
          "historic:name": "Salsette\u2013Trombay",
          "internet_access": "no",
          "name": "Andheri",
          "name:1928-1934": "Salsette\u2013Trombay",
          "name:hi": "\u0905\u0928\u094d\u0927\u0947\u0930\u0940",
          "name:mr": "\u0905\u0902\u0927\u0947\u0930\u0940",
          "network": "Mumbai Suburban Railway",
          "network:wikidata": "Q3273422",
          "operator": "Western Railway",
          "public_transport": "station",
          "railway": "station",
          "ref": "ADH",
          "start_date": "1928",
          "train": "yes",
          "wheelchair": "yes",
          "wikidata": "Q4754334",
          "wikipedia": "en:Andheri railway station"
        }
      },
      {
        "type": "node",
        "id": 5942782562,
        "lat": 19.0896096,
        "lon": 72.8391558,
        "tags": {
          "amenity": "cinema",
          "name": "Gold Cinemas"
        }
      },
      {
        "type": "node",
        "id": 6020955334,
        "lat": 19.1204624,
        "lon": 72.8487861,
        "tags": {
          "building": "transportation",
          "description": "Andheri Metro Station",
          "name": "Andheri L1",
          "name:mr": "\u0905\u0902\u0927\u0947\u0930\u0940",
          "public_transport": "station",
          "railway": "station",
          "station": "subway",
          "subway": "yes",
          "wikidata": "Q17512034",
          "wikipedia": "en:Andheri metro station"
        }
      },
      {
        "type": "node",
        "id": 6110571686,
        "lat": 19.1053592,
        "lon": 72.8465173,
        "tags": {
          "amenity": "theatre",
          "name:en": "Suncity Theatre",
          "opening_hours": "Mo-Su 10:00-22:00"
        }
      },
      {
        "type": "node",
        "id": 6110577585,
        "lat": 19.1007306,
        "lon": 72.8449115,
        "tags": {
          "amenity": "theatre",
          "name:en": "Dinanath Mangeshkar Natyagruha",
          "opening_hours": "Mo-Su 10:00-20:00"
        }
      },
      {
        "type": "node",
        "id": 7510862070,
        "lat": 19.119344,
        "lon": 72.8464384,
        "tags": {
          "name": "Andheri",
          "name:en": "Andheri",
          "name:mr": "\u0905\u0902\u0927\u0947\u0930\u0940",
          "public_transport": "stop_position",
          "railway": "stop",
          "ref": "1",
          "train": "yes"
        }
      },
      {
        "type": "node",
        "id": 7510862071,
        "lat": 19.1193373,
        "lon": 72.8464956,
        "tags": {
          "name": "Andheri",
          "name:en": "Andheri",
          "name:mr": "\u0905\u0902\u0927\u0947\u0930\u0940",
          "public_transport": "stop_position",
          "railway": "stop",
          "ref": "2",
          "train": "yes"
        }
      },
      {
        "type": "node",
        "id": 7510862076,
        "lat": 19.099961,
        "lon": 72.8442291,
        "tags": {
          "name": "Vile Parle",
          "name:en": "Vile Parle",
          "name:mr": "\u0935\u093f\u0932\u0947 \u092a\u093e\u0930\u094d\u0932\u0947",
          "public_transport": "stop_position",
          "railway": "stop",
          "ref": "6",
          "train": "yes"
        }
      },
      {
        "type": "node",
        "id": 7510862077,
        "lat": 19.0999755,
        "lon": 72.8441316,
        "tags": {
          "name": "Vile Parle",
          "name:en": "Vile Parle",
          "name:mr": "\u0935\u093f\u0932\u0947 \u092a\u093e\u0930\u094d\u0932\u0947",
          "public_transport": "stop_position",
          "railway": "stop",
          "ref": "5",
          "train": "yes"
        }
      },
      {
        "type": "node",
        "id": 7510862078,
        "lat": 19.0999796,
        "lon": 72.8440865,
        "tags": {
          "name": "Vile Parle",
          "name:en": "Vile Parle",
          "name:mr": "\u0935\u093f\u0932\u0947 \u092a\u093e\u0930\u094d\u0932\u0947",
          "public_transport": "stop_position",
          "railway": "stop",
          "ref": "4",
          "train": "yes"
        }
      },
      {
        "type": "node",
        "id": 7510862079,
        "lat": 19.1001265,
        "lon": 72.8437717,
        "tags": {
          "name": "Vile Parle",
          "name:en": "Vile Parle",
          "name:mr": "\u0935\u093f\u0932\u0947 \u092a\u093e\u0930\u094d\u0932\u0947",
          "public_transport": "stop_position",
          "railway": "stop",
          "ref": "1",
          "train": "yes"
        }
      },
      {
        "type": "node",
        "id": 7510862080,
        "lat": 19.0839117,
        "lon": 72.8418774,
        "tags": {
          "name": "Santa Cruz (CR)",
          "name:en": "Santa Cruz (CR)",
          "name:mr": "\u0938\u093e\u0902\u0924\u093e\u0915\u094d\u0930\u0942\u091d",
          "public_transport": "stop_position",
          "railway": "stop",
          "ref": "2",
          "train": "yes"
        }
      },
      {
        "type": "node",
        "id": 7510862081,
        "lat": 19.0816085,
        "lon": 72.8418625,
        "tags": {
          "name": "Santa Cruz (WR)",
          "name:en": "Santa Cruz (WR)",
          "name:mr": "\u0938\u093e\u0902\u0924\u093e\u0915\u094d\u0930\u0942\u091d",
          "public_transport": "stop_position",
          "railway": "stop",
          "ref": "6",
          "train": "yes"
        }
      },
      {
        "type": "node",
        "id": 7510862082,
        "lat": 19.0816252,
        "lon": 72.8417226,
        "tags": {
          "name": "Santa Cruz (WR)",
          "name:en": "Santa Cruz (WR)",
          "name:mr": "\u0938\u093e\u0902\u0924\u093e\u0915\u094d\u0930\u0942\u091d",
          "public_transport": "stop_position",
          "railway": "stop",
          "ref": "5",
          "train": "yes"
        }
      },
      {
        "type": "node",
        "id": 7510862083,
        "lat": 19.0816295,
        "lon": 72.8416835,
        "tags": {
          "name": "Santa Cruz (WR)",
          "name:en": "Santa Cruz (WR)",
          "name:mr": "\u0938\u093e\u0902\u0924\u093e\u0915\u094d\u0930\u0942\u091d",
          "public_transport": "stop_position",
          "railway": "stop",
          "ref": "4",
          "train": "yes"
        }
      },
      {
        "type": "node",
        "id": 7510862084,
        "lat": 19.0816184,
        "lon": 72.8415282,
        "tags": {
          "name": "Santa Cruz (WR)",
          "name:en": "Santa Cruz (WR)",
          "name:mr": "\u0938\u093e\u0902\u0924\u093e\u0915\u094d\u0930\u0942\u091d",
          "public_transport": "stop_position",
          "railway": "stop",
          "ref": "3",
          "train": "yes"
        }
      },
      {
        "type": "node",
        "id": 7510862785,
        "lat": 19.0839026,
        "lon": 72.8417442,
        "tags": {
          "name": "Santa Cruz (CR)",
          "name:en": "Santa Cruz (CR)",
          "name:mr": "\u0938\u093e\u0902\u0924\u093e\u0915\u094d\u0930\u0942\u091d",
          "public_transport": "stop_position",
          "railway": "stop",
          "ref": "1",
          "train": "yes"
        }
      },
      {
        "type": "node",
        "id": 7944314140,
        "lat": 19.1164903,
        "lon": 72.8564764,
        "tags": {
          "air_conditioning": "yes",
          "amenity": "cinema",
          "name": "PVR Andheri",
          "screen": "1"
        }
      },
      {
        "type": "node",
        "id": 7944328628,
        "lat": 19.1138698,
        "lon": 72.8576914,
        "tags": {
          "amenity": "cinema",
          "name": "Mohan Studio"
        }
      },
      {
        "type": "node",
        "id": 9131712733,
        "lat": 19.1051107,
        "lon": 72.8542316,
        "tags": {
          "construction": "stop",
          "name": "Airport Colony Station",
          "public_transport": "stop_position",
          "public_transport:version": "2",
          "railway": "construction"
        }
      },
      {
        "type": "node",
        "id": 10102658120,
        "lat": 19.1063277,
        "lon": 72.8631392,
        "tags": {
          "addr:street": "Om Nagar Road",
          "aeroway": "terminal",
          "name": "transline air cargo servics pvt ltd unit no 17",
          "name:en": "transline air cargo services pvt ltd unit no 17"
        }
      },
      {
        "type": "node",
        "id": 10261228661,
        "lat": 19.0934529,
        "lon": 72.8557692,
        "tags": {
          "amenity": "bus_station",
          "bus": "yes",
          "name": "Domestic Airport Terminal 1",
          "public_transport": "station"
        }
      },
      {
        "type": "node",
        "id": 10267208087,
        "lat": 19.1007285,
        "lon": 72.8445616,
        "tags": {
          "amenity": "bus_station",
          "bus": "yes",
          "name": "Vile Parle Station (E)",
          "public_transport": "station"
        }
      },
      {
        "type": "node",
        "id": 10576622687,
        "lat": 19.1145125,
        "lon": 72.8551556,
        "tags": {
          "name": "Gundavali",
          "name:mr": "\u0917\u0941\u0902\u0926\u0935\u0932\u0940",
          "public_transport": "station",
          "railway": "station",
          "station": "subway",
          "subway": "yes"
        }
      },
      {
        "type": "node",
        "id": 10576622691,
        "lat": 19.1145184,
        "lon": 72.8551326,
        "tags": {
          "name:mr": "\u0917\u0941\u0902\u0926\u0935\u0932\u0940",
          "name:ru": "\u0413\u0443\u043d\u0434\u0430\u0432\u0430\u043b\u0438",
          "public_transport": "stop_position",
          "railway": "stop",
          "subway": "yes"
        }
      },
      {
        "type": "node",
        "id": 11698425211,
        "lat": 19.1125194,
        "lon": 72.8648858,
        "tags": {
          "amenity": "theatre",
          "name": "Carnival Cinemas"
        }
      },
      {
        "type": "node",
        "id": 12074903225,
        "lat": 19.0796105,
        "lon": 72.8470573,
        "tags": {
          "name": "Santacruz",
          "name:mr": "\u0938\u093e\u0902\u0924\u093e\u0915\u094d\u0930\u0942\u091d",
          "network": "Mumbai Metro",
          "operator": "Mumbai Metro Rail Corporation Ltd",
          "public_transport": "stop_position",
          "railway": "stop",
          "subway": "yes"
        }
      },
      {
        "type": "node",
        "id": 12074903226,
        "lat": 19.0787375,
        "lon": 72.8471387,
        "tags": {
          "name": "Santacruz",
          "name:mr": "\u0938\u093e\u0902\u0924\u093e\u0915\u094d\u0930\u0942\u091d",
          "network": "Mumbai Metro",
          "operator": "Mumbai Metro Rail Corporation Ltd",
          "public_transport": "stop_position",
          "railway": "stop",
          "subway": "yes"
        }
      },
      {
        "type": "node",
        "id": 12074903227,
        "lat": 19.0942324,
        "lon": 72.8540504,
        "tags": {
          "name": "CSMIA Domestic",
          "name:mr": "\u091b.\u0936\u093f.\u092e.\u0906\u0902.\u0935\u093f. \u091f-\u0967",
          "network": "Mumbai Metro",
          "operator": "Mumbai Metro Rail Corporation Ltd",
          "public_transport": "stop_position",
          "railway": "stop",
          "subway": "yes"
        }
      },
      {
        "type": "node",
        "id": 12074903228,
        "lat": 19.0936196,
        "lon": 72.853081,
        "tags": {
          "name": "CSMIA Domestic",
          "name:mr": "\u091b.\u0936\u093f.\u092e.\u0906\u0902.\u0935\u093f. \u091f-\u0967",
          "network": "Mumbai Metro",
          "operator": "Mumbai Metro Rail Corporation Ltd",
          "public_transport": "stop_position",
          "railway": "stop",
          "subway": "yes"
        }
      },
      {
        "type": "node",
        "id": 12074903229,
        "lat": 19.1022615,
        "lon": 72.8656166,
        "tags": {
          "name": "Sahar Road",
          "name:mr": "\u0938\u0939\u093e\u0930 \u0930\u094b\u0921",
          "network": "Mumbai Metro",
          "operator": "Mumbai Metro Rail Corporation Ltd",
          "public_transport": "stop_position",
          "railway": "stop",
          "subway": "yes"
        }
      },
      {
        "type": "node",
        "id": 12074903230,
        "lat": 19.1020562,
        "lon": 72.8647115,
        "tags": {
          "name": "Sahar Road",
          "name:mr": "\u0938\u0939\u093e\u0930 \u0930\u094b\u0921",
          "network": "Mumbai Metro",
          "operator": "Mumbai Metro Rail Corporation Ltd",
          "public_transport": "stop_position",
          "railway": "stop",
          "subway": "yes"
        }
      },
      {
        "type": "node",
        "id": 12074909130,
        "lat": 19.0792887,
        "lon": 72.8471185,
        "tags": {
          "name": "Santacruz L3",
          "name:mr": "\u0938\u093e\u0902\u0924\u093e\u0915\u094d\u0930\u0942\u091d",
          "network": "Mumbai Metro",
          "operator": "Mumbai Metro Rail Corporation Ltd",
          "public_transport": "station",
          "railway": "station",
          "start_date": "2024-10-05",
          "station": "subway",
          "subway": "yes"
        }
      },
      {
        "type": "node",
        "id": 12074909131,
        "lat": 19.093899,
        "lon": 72.8535765,
        "tags": {
          "name": "CSMI Airport Domestic T1",
          "name:mr": "\u091b.\u0936\u093f.\u092e.\u0906\u0902.\u0935\u093f. \u091f-\u0967",
          "network": "Mumbai Metro",
          "operator": "Mumbai Metro Rail Corporation Ltd",
          "public_transport": "station",
          "railway": "station",
          "start_date": "2024-10-05",
          "station": "subway",
          "subway": "yes"
        }
      },
      {
        "type": "node",
        "id": 12074909132,
        "lat": 19.102196,
        "lon": 72.8652361,
        "tags": {
          "name": "Sahar Road",
          "name:mr": "\u0938\u0939\u093e\u0930 \u0930\u094b\u0921",
          "network": "Mumbai Metro",
          "operator": "Mumbai Metro Rail Corporation Ltd",
          "public_transport": "station",
          "railway": "station",
          "start_date": "2024-10-05",
          "station": "subway",
          "subway": "yes"
        }
      },
      {
        "type": "node",
        "id": 12959559950,
        "lat": 19.1194235,
        "lon": 72.8460235,
        "tags": {
          "bus": "yes",
          "name": "Andheri",
          "public_transport": "stop_position",
          "route_ref": "252"
        }
      },
      {
        "type": "node",
        "id": 12959559951,
        "lat": 19.1194665,
        "lon": 72.8458654,
        "tags": {
          "bus": "yes",
          "name": "Andheri",
          "public_transport": "stop_position",
          "route_ref": "266"
        }
      }
    ]
  }
}