{
  "pois_1km": {
    "version": 0.6,
    "generator": "Overpass API 0.7.62.8 e802775f",
    "osm3s": {
      "timestamp_osm_base": "2025-09-06T07:48:42Z",
      "copyright": "The data included in this document is from www.openstreetmap.org. The data is made available under ODbL."
    },
    "elements": [
      {
        "type": "node",
        "id": 496816401,
        "lat": 18.9166662,
        "lon": 72.8176892,
        "tags": {
          "amenity": "cafe",
          "brand": "Cafe Coffee Day",
          "brand:wikidata": "Q5017235",
          "cuisine": "coffee_shop",
          "name": "Cafe Coffee Day",
          "takeaway": "yes"
        }
      },
      {
        "type": "node",
        "id": 623344544,
        "lat": 18.9186212,
        "lon": 72.8295185,
        "tags": {
          "amenity": "restaurant",
          "name": "New Martin Hotel"
        }
      },
      {
        "type": "node",
        "id": 669266696,
        "lat": 18.917358,
        "lon": 72.824523,
        "tags": {
          "addr:city": "Mumbai",
          "addr:housename": "Minoo Manor",
          "addr:postcode": "400005",
          "addr:street": "Captain Prakash Pethe Marg",
          "amenity": "restaurant",
          "cuisine": "lebanese",
          "name": "Moshe's",
          "opening_hours": "08:00-01:00",
          "smoking": "outside"
        }
      },
      {
        "type": "node",
        "id": 670270299,
        "lat": 18.9215278,
        "lon": 72.8312063,
        "tags": {
          "amenity": "restaurant",
          "name": "Kamat Restaurant"
        }
      },
      {
        "type": "node",
        "id": 1973521830,
        "lat": 18.9186498,
        "lon": 72.8284971,
        "tags": {
          "addr:street": "1st Pasta Lane",
          "amenity": "restaurant",
          "diet:vegetarian": "only",
          "name": "Kailash Parbat",
          "source": "local_knowledge"
        }
      },
      {
        "type": "node",
        "id": 3290997483,
        "lat": 18.9189746,
        "lon": 72.8320493,
        "tags": {
          "amenity": "cafe",
          "name": "Marina"
        }
      },
      {
        "type": "node",
        "id": 4044345927,
        "lat": 18.915807,
        "lon": 72.8199071,
        "tags": {
          "alt_name": "SBI ATM",
          "amenity": "atm",
          "brand": "State Bank of India",
          "brand:wikidata": "Q1340361",
          "drive_through": "no",
          "name": "State Bank of India",
          "operator": "State Bank of India",
          "operator:wikidata": "Q1340361",
          "short_name": "SBI"
        }
      },
      {
        "type": "node",
        "id": 4044345928,
        "lat": 18.9157448,
        "lon": 72.8199822,
        "tags": {
          "addr:city": "Mumbai",
          "addr:postcode": "400005",
          "addr:street": "GD Somani Road",
          "amenity": "bank",
          "atm": "yes",
          "brand": "Axis Bank",
          "brand:wikidata": "Q2003549",
          "brand:wikipedia": "en:Axis Bank",
          "drive_through": "no",
          "name": "Axis Bank",
          "name:en": "Axis Bank",
          "operator": "Axis Bank",
          "website": "https://www.axisbank.com"
        }
      },
      {
        "type": "node",
        "id": 4044345934,
        "lat": 18.9161396,
        "lon": 72.8194113,
        "tags": {
          "addr:city": "Mumbai",
          "addr:housenumber": "625",
          "addr:postcode": "400005",
          "addr:street": "GD Somani Road",
          "amenity": "bank",
          "atm": "yes",
          "brand": "Kotak Mahindra Bank",
          "brand:wikidata": "Q2040404",
          "drive_through": "no",
          "name": "Kotak Mahindra Bank",
          "operator": "Kotak Mahindra Bank"
        }
      },
      {
        "type": "node",
        "id": 4047369646,
        "lat": 18.9166992,
        "lon": 72.8177173,
        "tags": {
          "addr:city": "Mumbai",
          "addr:housename": "Maker Arcade",
          "addr:postcode": "400005",
          "addr:street": "GD Somani Road",
          "amenity": "restaurant",
          "cuisine": "indian",
          "delivery": "yes",
          "name": "Santoor",
          "takeaway": "yes"
        }
      },
      {
        "type": "node",
        "id": 4048759190,
        "lat": 18.914704,
        "lon": 72.8181018,
        "tags": {
          "addr:city": "Mumbai",
          "addr:postcode": "400005",
          "addr:street": "TL Wasvani Road",
          "amenity": "ice_cream",
          "name": "Nature's Basket",
          "operator": "Godrej",
          "organic": "yes",
          "shop": "supermarket",
          "website": "https://www.naturesbasket.co.in/"
        }
      },
      {
        "type": "node",
        "id": 4048759441,
        "lat": 18.9139072,
        "lon": 72.8182842,
        "tags": {
          "addr:city": "Mumbai",
          "addr:postcode": "400005",
          "addr:street": "TL Wasvani Road",
          "amenity": "restaurant",
          "cuisine": "italian",
          "name": "Flamboyant\u00e9",
          "smoking": "isolated",
          "takeaway": "no"
        }
      },
      {
        "type": "node",
        "id": 4048759442,
        "lat": 18.9144908,
        "lon": 72.8182091,
        "tags": {
          "addr:city": "Mumbai",
          "addr:postcode": "400005",
          "addr:street": "TL Wasvani Road",
          "amenity": "restaurant",
          "cuisine": "indian",
          "name": "The Village",
          "smoking": "outside",
          "takeaway": "no"
        }
      },
      {
        "type": "node",
        "id": 4243982133,
        "lat": 18.9165129,
        "lon": 72.8175703,
        "tags": {
          "addr:city": "Mumbai",
          "addr:postcode": "400005",
          "addr:street": "GD Somani Road",
          "amenity": "restaurant",
          "cuisine": "South_Indian",
          "delivery": "yes",
          "diet:vegetarian": "yes",
          "name": "Kamats",
          "smoking": "no",
          "takeaway": "yes"
        }
      },
      {
        "type": "node",
        "id": 4574503391,
        "lat": 18.9206952,
        "lon": 72.8264532,
        "tags": {
          "amenity": "bank",
          "name:en": "State bank of Patalai"
        }
      },
      {
        "type": "node",
        "id": 4605376504,
        "lat": 18.918775,
        "lon": 72.829293,
        "tags": {
          "amenity": "pharmacy",
          "healthcare": "pharmacy"
        }
      },
      {
        "type": "node",
        "id": 4839324926,
        "lat": 18.9206019,
        "lon": 72.8314591,
        "tags": {
          "amenity": "bank",
          "brand": "Western Union",
          "brand:wikidata": "Q861042",
          "name": "Western Union",
          "name:en": "Western Union"
        }
      },
      {
        "type": "node",
        "id": 4839324928,
        "lat": 18.9184536,
        "lon": 72.8312752,
        "tags": {
          "amenity": "pharmacy",
          "healthcare": "pharmacy",
          "name:en": "Darbar"
        }
      },
      {
        "type": "node",
        "id": 4841690924,
        "lat": 18.9187299,
        "lon": 72.8304224,
        "tags": {
          "amenity": "cafe",
          "name:en": "Cafe basilico"
        }
      },
      {
        "type": "node",
        "id": 4841690925,
        "lat": 18.9188451,
        "lon": 72.8295077,
        "tags": {
          "amenity": "pharmacy",
          "name:en": "Gen medical 24hrs"
        }
      },
      {
        "type": "node",
        "id": 4841695622,
        "lat": 18.9185279,
        "lon": 72.830327,
        "tags": {
          "amenity": "cafe",
          "brand": "Cafe Coffee Day",
          "brand:wikidata": "Q5017235",
          "cuisine": "coffee_shop",
          "name": "Cafe Coffee Day",
          "takeaway": "yes"
        }
      },
      {
        "type": "node",
        "id": 4841695627,
        "lat": 18.9184241,
        "lon": 72.8309379,
        "tags": {
          "amenity": "restaurant",
          "name": "Mezban",
          "payment:credit_cards": "yes",
          "payment:debit_cards": "yes"
        }
      },
      {
        "type": "node",
        "id": 4841716121,
        "lat": 18.9186785,
        "lon": 72.8296476,
        "tags": {
          "amenity": "restaurant",
          "name:en": "Food plaza"
        }
      },
      {
        "type": "node",
        "id": 4841716623,
        "lat": 18.9184628,
        "lon": 72.8307994,
        "tags": {
          "amenity": "restaurant",
          "name:en": "Mezban"
        }
      },
      {
        "type": "node",
        "id": 5437335622,
        "lat": 18.9183846,
        "lon": 72.8284883,
        "tags": {
          "amenity": "restaurant",
          "cuisine": "indian",
          "name:en": "Madras Caffee",
          "opening_hours": "Mo-Su 09:00-23:00"
        }
      },
      {
        "type": "node",
        "id": 6428467286,
        "lat": 18.9175909,
        "lon": 72.8292105,
        "tags": {
          "amenity": "atm",
          "brand": "Central Bank of India",
          "brand:wikidata": "Q2007090",
          "operator": "Central Bank of India",
          "operator:wikidata": "Q2007090"
        }
      },
      {
        "type": "node",
        "id": 6428468685,
        "lat": 18.9181719,
        "lon": 72.829326,
        "tags": {
          "amenity": "fast_food",
          "brand": "Domino's",
          "brand:wikidata": "Q839466",
          "cuisine": "pizza",
          "name": "Domino's",
          "name:en": "Domino's Pizza",
          "takeaway": "yes"
        }
      },
      {
        "type": "node",
        "id": 6428491685,
        "lat": 18.9177853,
        "lon": 72.8292742,
        "tags": {
          "amenity": "restaurant",
          "name:en": "Shubh Sagar"
        }
      },
      {
        "type": "node",
        "id": 7043574603,
        "lat": 18.9230941,
        "lon": 72.8276074,
        "tags": {
          "addr:district": "Mumbai",
          "addr:full": "9th Floor, Room No-91, Lady Ratan Tata Medical & Research Centre 31, Maharshi Karve Road, Cooperage",
          "addr:postcode": "400021",
          "addr:state": "Maharashtra",
          "amenity": "hospital",
          "name": "Vinod Sharma Memorial Medical Centre",
          "source": "OpenGovernmentData"
        }
      },
      {
        "type": "node",
        "id": 7065561513,
        "lat": 18.9157892,
        "lon": 72.8243244,
        "tags": {
          "addr:district": "Mumbai",
          "addr:full": "58 Royal Terrace Wode House Road Colaba",
          "addr:postcode": "400005",
          "addr:state": "Maharashtra",
          "amenity": "clinic",
          "name": "Indu Clinic",
          "source": "OpenGovernmentData"
        }
      },
      {
        "type": "node",
        "id": 7068194983,
        "lat": 18.923141,
        "lon": 72.8275739,
        "tags": {
          "addr:district": "Mumbai",
          "addr:full": "81-84 Lady R.T.Med.&Reserch Cntre",
          "addr:postcode": "400049",
          "addr:state": "Maharashtra",
          "amenity": "hospital",
          "name": "Spectrum Health Care",
          "source": "OpenGovernmentData"
        }
      },
      {
        "type": "node",
        "id": 7073949831,
        "lat": 18.9190084,
        "lon": 72.8295433,
        "tags": {
          "addr:district": "Mumbai",
          "addr:full": "103,Kartar Bhavan,Colaba M",
          "addr:postcode": "400006",
          "addr:state": "Maharashtra",
          "amenity": "clinic",
          "healthcare": "clinic",
          "name": "Kataria Eye Clinic",
          "source": "OpenGovernmentData"
        }
      },
      {
        "type": "node",
        "id": 7082720985,
        "lat": 18.9190437,
        "lon": 72.8305233,
        "tags": {
          "amenity": "cafe",
          "cuisine": "indian",
          "internet_access": "wlan",
          "name:en": "Cloud 9"
        }
      },
      {
        "type": "node",
        "id": 7083190122,
        "lat": 18.9230674,
        "lon": 72.8275497,
        "tags": {
          "addr:district": "Mumbai",
          "addr:full": "74/78/Lady Ratan Tata M R C Karve Road, Cooperage",
          "addr:postcode": "400021",
          "addr:state": "Maharashtra",
          "amenity": "hospital",
          "name": "Abhishek Day Care Institute and Medical Research Centre",
          "source": "OpenGovernmentData"
        }
      },
      {
        "type": "node",
        "id": 7664032198,
        "lat": 18.912124,
        "lon": 72.822367,
        "tags": {
          "addr:district": "Mumbai City",
          "addr:full": "Jamuna Sagar, Azad Nagar, Colaba, Mumbai",
          "addr:postcode": "400005",
          "addr:state": "Maharastra",
          "amenity": "clinic",
          "name": "Malpani Infertility Clinic",
          "source": "Local Knowledge"
        }
      },
      {
        "type": "node",
        "id": 9915112218,
        "lat": 18.9179234,
        "lon": 72.8292664,
        "tags": {
          "amenity": "restaurant",
          "name:en": "SHUBH SAGAR PURE VEG"
        }
      },
      {
        "type": "node",
        "id": 11270821396,
        "lat": 18.9184098,
        "lon": 72.8308924,
        "tags": {
          "amenity": "cafe",
          "name": "Kuckeliku Breakfast House",
          "payment:credit_cards": "yes",
          "payment:debit_cards": "yes"
        }
      },
      {
        "type": "node",
        "id": 12573856473,
        "lat": 18.9231434,
        "lon": 72.8274992,
        "tags": {
          "addr:city": "Mumbai",
          "addr:postcode": "400021",
          "addr:street": "Maharshi Karve Rd, Nariman Point",
          "amenity": "hospital",
          "healthcare": "hospital",
          "name": "Indian Cancer Society"
        }
      },
      {
        "type": "node",
        "id": 13099965213,
        "lat": 18.9183644,
        "lon": 72.8277234,
        "tags": {
          "amenity": "cafe",
          "name": "Cacao mill"
        }
      }
    ]
  },
  "pois_2_5km": {
    "version": 0.6,
    "generator": "Overpass API 0.7.62.8 e802775f",
    "osm3s": {
      "timestamp_osm_base": "2025-09-06T07:48:42Z",
      "copyright": "The data included in this document is from www.openstreetmap.org. The data is made available under ODbL."
    },
    "elements": [
      {
        "type": "node",
        "id": 621948374,
        "lat": 18.9343947,
        "lon": 72.8272055,
        "tags": {
          "local_ref": "1",
          "name": "Churchgate",
          "name:hi": "\u091a\u0930\u094d\u091a\u0917\u0947\u091f",
          "public_transport": "stop_position",
          "railway": "stop",
          "ref": "CCG",
          "train": "yes"
        }
      },
      {
        "type": "node",
        "id": 623431009,
        "lat": 18.9111715,
        "lon": 72.826847,
        "tags": {
          "amenity": "ferry_terminal",
          "ferry": "yes",
          "public_transport": "station"
        }
      },
      {
        "type": "node",
        "id": 669259757,
        "lat": 18.9245934,
        "lon": 72.8325192,
        "tags": {
          "amenity": "cinema",
          "name": "Regal Cinema"
        }
      },
      {
        "type": "node",
        "id": 870449150,
        "lat": 18.9229191,
        "lon": 72.8345228,
        "tags": {
          "amenity": "ferry_terminal",
          "ferry": "yes",
          "name": "Gateway of India - Mandwa Rewas Ferry Terminal",
          "public_transport": "station"
        }
      },
      {
        "type": "node",
        "id": 870449764,
        "lat": 18.9217835,
        "lon": 72.8347226,
        "tags": {
          "amenity": "ferry_terminal",
          "ferry": "yes",
          "name": "Gateway of India - Elephanta Island ferry service",
          "name:ar": "\u0628\u0648\u0627\u0628\u0629 \u0627\u0644\u0647\u0646\u062f",
          "name:zh": "\u5370\u5ea6\u95e8 - \u8c61\u5c9b\u6e21\u8f6e\u7ad9",
          "public_transport": "station"
        }
      },
      {
        "type": "node",
        "id": 1236334975,
        "lat": 18.9344455,
        "lon": 72.8275534,
        "tags": {
          "local_ref": "4",
          "name": "Churchgate",
          "name:hi": "\u091a\u0930\u094d\u091a\u0917\u0947\u091f",
          "public_transport": "stop_position",
          "railway": "stop",
          "ref": "CCG",
          "train": "yes"
        }
      },
      {
        "type": "node",
        "id": 1236335031,
        "lat": 18.9344286,
        "lon": 72.8274374,
        "tags": {
          "local_ref": "3",
          "name": "Churchgate",
          "name:hi": "\u091a\u0930\u094d\u091a\u0917\u0947\u091f",
          "public_transport": "stop_position",
          "railway": "stop",
          "ref": "CCG",
          "train": "yes"
        }
      },
      {
        "type": "node",
        "id": 1236335056,
        "lat": 18.9344117,
        "lon": 72.8273215,
        "tags": {
          "local_ref": "2",
          "name": "Churchgate",
          "name:hi": "\u091a\u0930\u094d\u091a\u0917\u0947\u091f",
          "public_transport": "stop_position",
          "railway": "stop",
          "ref": "CCG",
          "train": "yes"
        }
      },
      {
        "type": "node",
        "id": 1332570741,
        "lat": 18.9322385,
        "lon": 72.8279388,
        "tags": {
          "amenity": "cinema",
          "name": "Eros Cinema"
        }
      },
      {
        "type": "node",
        "id": 1541857832,
        "lat": 18.9267067,
        "lon": 72.8273901,
        "tags": {
          "amenity": "fuel",
          "brand": "Hindustan Petroleum",
          "brand:wikidata": "Q1619375",
          "name": "HP",
          "official_name": "Hindustan Petroleum",
          "operator": "Bharat Petroleum"
        }
      },
      {
        "type": "node",
        "id": 2166865878,
        "lat": 18.9341053,
        "lon": 72.8324982,
        "tags": {
          "name": "Hutatma Chowk/Siddharth College",
          "public_transport": "station",
          "ref": "01091"
        }
      },
      {
        "type": "node",
        "id": 2166865879,
        "lat": 18.9342003,
        "lon": 72.8325717,
        "tags": {
          "name": "Hutatma Chowk/Siddharth College",
          "public_transport": "station",
          "ref": "01090"
        }
      },
      {
        "type": "node",
        "id": 2629682524,
        "lat": 18.9331079,
        "lon": 72.8285954,
        "tags": {
          "amenity": "bus_station",
          "bus": "yes",
          "name": "Churchgate",
          "public_transport": "station"
        }
      },
      {
        "type": "node",
        "id": 3306535083,
        "lat": 18.9243367,
        "lon": 72.8328758,
        "tags": {
          "amenity": "fuel",
          "brand": "Bharat Petroleum",
          "brand:wikidata": "Q854826",
          "compressed_air": "yes",
          "name": "Bharat Petroleum"
        }
      },
      {
        "type": "node",
        "id": 4260136290,
        "lat": 18.9354797,
        "lon": 72.8271741,
        "tags": {
          "IR:zone": "WR:CCG",
          "internet_access": "wlan",
          "name": "Churchgate",
          "name:hi": "\u091a\u0930\u094d\u091a\u0917\u0947\u091f",
          "name:ml": "\u0d1a\u0d7c\u0d1a\u0d4d\u0d1a\u0d4d\u0d17\u0d47\u0d31\u0d4d\u0d31\u0d4d",
          "name:mr": "\u091a\u0930\u094d\u091a\u0917\u0947\u091f",
          "name:zh": "\u6559\u5802\u95e8\u603b\u7ad9",
          "network": "Mumbai Suburban Railway",
          "network:wikidata": "Q3273422",
          "old_ref": "C",
          "operator": "WR",
          "public_transport": "station",
          "railway": "station",
          "ref": "CCG",
          "start_date": "1867-04-12",
          "train": "yes",
          "wikidata": "Q5118143",
          "wikipedia": "en:Churchgate railway station"
        }
      },
      {
        "type": "node",
        "id": 4362556096,
        "lat": 18.9253281,
        "lon": 72.8204171,
        "tags": {
          "amenity": "theatre",
          "name": "Little Theatre"
        }
      },
      {
        "type": "node",
        "id": 4583581092,
        "lat": 18.8997863,
        "lon": 72.813697,
        "tags": {
          "addr:street": "Nanabhai Moos Road",
          "alt_name:en": "R.C. Church",
          "amenity": "bus_station",
          "bus": "yes",
          "name:en": "R.C. Church",
          "operator": "BEST",
          "public_transport": "station",
          "website": "https://bestundertaking.com/"
        }
      },
      {
        "type": "node",
        "id": 10257874073,
        "lat": 18.9209635,
        "lon": 72.8305483,
        "tags": {
          "amenity": "bus_station",
          "bus": "yes",
          "name": "Colaba Bus Depot",
          "public_transport": "station"
        }
      },
      {
        "type": "node",
        "id": 12299107686,
        "lat": 18.926054,
        "lon": 72.8331427,
        "tags": {
          "amenity": "theatre",
          "name": "Childrens Museum Amphitheathre"
        }
      }
    ]
  }
}