{
  "pois_1km": {
    "version": 0.6,
    "generator": "Overpass API 0.7.62.8 e802775f",
    "osm3s": {
      "timestamp_osm_base": "2025-09-06T07:52:46Z",
      "copyright": "The data included in this document is from www.openstreetmap.org. The data is made available under ODbL."
    },
    "elements": [
      {
        "type": "node",
        "id": 662459670,
        "lat": 18.9340269,
        "lon": 72.8336071,
        "tags": {
          "amenity": "restaurant",
          "name": "Mahesh Lunch Home"
        }
      },
      {
        "type": "node",
        "id": 662459710,
        "lat": 18.9341607,
        "lon": 72.8337661,
        "tags": {
          "amenity": "restaurant",
          "name": "Mocambo Cafe"
        }
      },
      {
        "type": "node",
        "id": 662488867,
        "lat": 18.9348609,
        "lon": 72.8337017,
        "tags": {
          "amenity": "restaurant",
          "name": "On Toes Restobar",
          "source": "GPS"
        }
      },
      {
        "type": "node",
        "id": 662488869,
        "lat": 18.9349624,
        "lon": 72.8342167,
        "tags": {
          "amenity": "restaurant",
          "name": "Ideal Corner"
        }
      },
      {
        "type": "node",
        "id": 662488870,
        "lat": 18.9352567,
        "lon": 72.8373924,
        "tags": {
          "amenity": "restaurant",
          "name": "Excellency Restaurant"
        }
      },
      {
        "type": "node",
        "id": 669266128,
        "lat": 18.9321174,
        "lon": 72.8326369,
        "tags": {
          "name": "Akbarallys",
          "shop": "supermarket"
        }
      },
      {
        "type": "node",
        "id": 683777920,
        "lat": 18.9306421,
        "lon": 72.8323368,
        "tags": {
          "amenity": "restaurant",
          "name": "Ankur",
          "phone": "+91 22 2265 4194 / 2263 0393"
        }
      },
      {
        "type": "node",
        "id": 858938542,
        "lat": 18.9286576,
        "lon": 72.8323932,
        "tags": {
          "amenity": "restaurant",
          "cuisine": "seafood",
          "name": "Trishna"
        }
      },
      {
        "type": "node",
        "id": 1234802651,
        "lat": 18.9387735,
        "lon": 72.8344385,
        "tags": {
          "amenity": "fast_food",
          "brand": "McDonald's",
          "brand:pa": "\u0a2e\u0a48\u0a15\u0a21\u0a4b\u0a28\u0a32\u0a21\u2019\u0a1c\u0a3c",
          "brand:ur": "\u0645\u06a9\u0688\u0648\u0646\u0644\u0688\u0632",
          "brand:wikidata": "Q38076",
          "brand:wikipedia": "en:McDonald's",
          "brand:wikipedia:pa": "\u0a2e\u0a48\u0a15\u0a21\u0a4b\u0a28\u0a32\u0a21\u2019\u0a1c\u0a3c",
          "brand:wikipedia:ur": "\u0645\u06a9\u0688\u0648\u0646\u0644\u0688\u0632",
          "cuisine": "burger",
          "name": "McDonald's",
          "name:pa": "\u0a2e\u0a48\u0a15\u0a21\u0a4b\u0a28\u0a32\u0a21\u2019\u0a1c\u0a3c",
          "name:ur": "\u0645\u06a9\u0688\u0648\u0646\u0644\u0688\u0632",
          "source": "AND",
          "takeaway": "yes"
        }
      },
      {
        "type": "node",
        "id": 1286193467,
        "lat": 18.9348835,
        "lon": 72.8333857,
        "tags": {
          "amenity": "restaurant",
          "cuisine": "indian",
          "name": "Lalit"
        }
      },
      {
        "type": "node",
        "id": 1704905149,
        "lat": 18.9308083,
        "lon": 72.8350511,
        "tags": {
          "amenity": "restaurant",
          "name": "Jimmy Boy"
        }
      },
      {
        "type": "node",
        "id": 1973424904,
        "lat": 18.9323318,
        "lon": 72.8398242,
        "tags": {
          "addr:housename": "Wakefield House",
          "addr:postcode": "400038",
          "addr:street": "16 Sprott Road",
          "amenity": "restaurant",
          "name": "Britannia Cafe",
          "source": "local_knowledge"
        }
      },
      {
        "type": "node",
        "id": 2166760742,
        "lat": 18.93526,
        "lon": 72.83113,
        "tags": {
          "amenity": "fast_food",
          "name": "bhelwala"
        }
      },
      {
        "type": "node",
        "id": 2166796344,
        "lat": 18.9383276,
        "lon": 72.8327115,
        "tags": {
          "amenity": "bank",
          "brand": "Deutsche Bank",
          "brand:wikidata": "Q66048",
          "brand:wikipedia": "en:Deutsche Bank",
          "name": "Deutsche Bank"
        }
      },
      {
        "type": "node",
        "id": 2166796346,
        "lat": 18.9377203,
        "lon": 72.8331562,
        "tags": {
          "amenity": "bank",
          "brand": "Vijaya Bank",
          "brand:wikidata": "Q2003171",
          "brand:wikipedia": "en:Vijaya Bank",
          "name": "Vijaya Bank"
        }
      },
      {
        "type": "node",
        "id": 2166856493,
        "lat": 18.9323293,
        "lon": 72.8336634,
        "tags": {
          "amenity": "bank",
          "brand": "ABN AMRO",
          "brand:wikidata": "Q287471",
          "brand:wikipedia": "en:ABN AMRO",
          "name": "ABN AMRO"
        }
      },
      {
        "type": "node",
        "id": 2166856494,
        "lat": 18.9328251,
        "lon": 72.8349373,
        "tags": {
          "amenity": "bank",
          "brand:wikidata": "Q3595747",
          "brand:wikipedia": "en:Dena Bank",
          "name": "Dena Bank",
          "name:en": "Dena Bank",
          "website": "http://www.denabank.com"
        }
      },
      {
        "type": "node",
        "id": 2166856495,
        "lat": 18.9323128,
        "lon": 72.8334299,
        "tags": {
          "addr:city": "Mumbai",
          "addr:street": "Veer Nariman Road",
          "amenity": "bank",
          "atm": "yes",
          "brand": "HSBC",
          "brand:wikidata": "Q190464",
          "name": "HSBC"
        }
      },
      {
        "type": "node",
        "id": 2166856496,
        "lat": 18.9323112,
        "lon": 72.8342104,
        "tags": {
          "amenity": "bank",
          "brand": "Indian Overseas Bank",
          "brand:wikidata": "Q2003611",
          "brand:wikipedia": "en:Indian Overseas Bank",
          "name": "Indian Overseas Bank",
          "name:en": "Indian Overseas Bank",
          "short_name": "IOB",
          "website": "https://www.iob.in"
        }
      },
      {
        "type": "node",
        "id": 2166856499,
        "lat": 18.9323575,
        "lon": 72.8339437,
        "tags": {
          "amenity": "bank",
          "brand": "Punjab National Bank",
          "brand:wikidata": "Q2743499",
          "name": "Punjab National Bank",
          "name:en": "Punjab National Bank",
          "short_name": "PNB",
          "website": "https://www.pnbindia.in",
          "wikimedia_commons": "Category:Punjab National Bank"
        }
      },
      {
        "type": "node",
        "id": 2166856503,
        "lat": 18.9347594,
        "lon": 72.8356936,
        "tags": {
          "amenity": "bank",
          "name": "Zorastrian Bank"
        }
      },
      {
        "type": "node",
        "id": 2166872171,
        "lat": 18.9390156,
        "lon": 72.8342644,
        "tags": {
          "amenity": "cafe",
          "brand": "Cafe Coffee Day",
          "brand:wikidata": "Q5017235",
          "brand:wikipedia": "en:Caf\u00e9 Coffee Day",
          "cuisine": "coffee_shop",
          "name": "Cafe Coffee Day",
          "takeaway": "yes"
        }
      },
      {
        "type": "node",
        "id": 2166872172,
        "lat": 18.9392087,
        "lon": 72.8343769,
        "tags": {
          "amenity": "restaurant",
          "name": "New Majestic"
        }
      },
      {
        "type": "node",
        "id": 2167547603,
        "lat": 18.9334797,
        "lon": 72.835429,
        "tags": {
          "amenity": "bank",
          "name": "Bank National de Paris"
        }
      },
      {
        "type": "node",
        "id": 2167547604,
        "lat": 18.9337367,
        "lon": 72.8348465,
        "tags": {
          "amenity": "bank",
          "name": "Bank of Tokyo"
        }
      },
      {
        "type": "node",
        "id": 2167547605,
        "lat": 18.92813,
        "lon": 72.8343471,
        "tags": {
          "amenity": "bank",
          "brand": "Canara Bank",
          "brand:en": "Canara Bank",
          "brand:hi": "\u0915\u0947\u0928\u0930\u093e \u092c\u0948\u0902\u0915",
          "brand:kn": "\u0c95\u0cc6\u0ca8\u0cb0\u0cbe \u0cac\u0ccd\u0caf\u0cbe\u0c82\u0c95\u0ccd",
          "brand:pa": "\u0a15\u0a47\u0a28\u0a30\u0a3e \u0a2c\u0a48\u0a02\u0a15",
          "brand:pnb": "\u06a9\u06cc\u0646\u0631\u0627 \u0628\u06cc\u0646\u06a9",
          "brand:ur": "\u06a9\u06cc\u0646\u0631\u0627 \u0628\u06cc\u0646\u06a9",
          "brand:wikidata": "Q2003777",
          "brand:wikipedia": "en:Canara Bank",
          "brand:wikipedia:pa": "\u0a15\u0a47\u0a28\u0a30\u0a3e \u0a2c\u0a48\u0a02\u0a15",
          "name": "Canara Bank",
          "name:en": "Canara Bank",
          "name:hi": "\u0915\u0947\u0928\u0930\u093e \u092c\u0948\u0902\u0915",
          "name:kn": "\u0c95\u0cc6\u0ca8\u0cb0\u0cbe \u0cac\u0ccd\u0caf\u0cbe\u0c82\u0c95\u0ccd",
          "name:pa": "\u0a15\u0a47\u0a28\u0a30\u0a3e \u0a2c\u0a48\u0a02\u0a15",
          "name:pnb": "\u06a9\u06cc\u0646\u0631\u0627 \u0628\u06cc\u0646\u06a9",
          "name:ur": "\u06a9\u06cc\u0646\u0631\u0627 \u0628\u06cc\u0646\u06a9",
          "website": "https://www.canarabank.com/"
        }
      },
      {
        "type": "node",
        "id": 2168552195,
        "lat": 18.9325713,
        "lon": 72.8321546,
        "tags": {
          "amenity": "bank",
          "brand": "Standard Chartered",
          "brand:wikidata": "Q548278",
          "name": "Standard Chartered"
        }
      },
      {
        "type": "node",
        "id": 2168597659,
        "lat": 18.9312413,
        "lon": 72.8354289,
        "tags": {
          "amenity": "bank",
          "brand": "Allahabad Bank",
          "brand:wikidata": "Q2018840",
          "brand:wikipedia": "en:Allahabad Bank",
          "name": "Allahabad Bank",
          "name:en": "Allahabad Bank",
          "website": "https://www.allahabadbank.in"
        }
      },
      {
        "type": "node",
        "id": 2168597681,
        "lat": 18.9305587,
        "lon": 72.8341517,
        "tags": {
          "amenity": "bank",
          "brand": "Bank of Maharashtra",
          "brand:wikidata": "Q2004304",
          "brand:wikipedia": "en:Bank of Maharashtra",
          "name": "Bank of Maharashtra",
          "name:en": "Bank of Maharashtra",
          "website": "https://www.bankofmaharashtra.in/"
        }
      },
      {
        "type": "node",
        "id": 2168597685,
        "lat": 18.9327876,
        "lon": 72.8369772,
        "tags": {
          "amenity": "bank",
          "name": "Reserve Bank of India",
          "wikidata": "Q944085",
          "wikipedia": "en:Reserve Bank of India"
        }
      },
      {
        "type": "node",
        "id": 2168597692,
        "lat": 18.9310454,
        "lon": 72.8346779,
        "tags": {
          "amenity": "bank",
          "brand": "State Bank of India",
          "brand:wikidata": "Q1340361",
          "brand:wikipedia": "en:State Bank of India",
          "name": "State Bank of India",
          "short_name": "SBI"
        }
      },
      {
        "type": "node",
        "id": 2168597698,
        "lat": 18.9310858,
        "lon": 72.834342,
        "tags": {
          "amenity": "bank",
          "brand": "State Bank of India",
          "brand:wikidata": "Q1340361",
          "brand:wikipedia": "en:State Bank of India",
          "name": "State Bank of India",
          "short_name": "SBI"
        }
      },
      {
        "type": "node",
        "id": 2168654399,
        "lat": 18.9332287,
        "lon": 72.8351006,
        "tags": {
          "amenity": "bank",
          "brand": "Syndicate Bank",
          "brand:wikidata": "Q2004088",
          "name": "Syndicate Bank",
          "name:en": "Syndicate Bank",
          "website": "https://www.syndicatebank.in",
          "wikimedia_commons": "Category:Syndicate Bank"
        }
      },
      {
        "type": "node",
        "id": 2168853713,
        "lat": 18.9336784,
        "lon": 72.8328438,
        "tags": {
          "amenity": "bank",
          "name": "Bank of Rajasthan"
        }
      },
      {
        "type": "node",
        "id": 2169130410,
        "lat": 18.9333406,
        "lon": 72.8315526,
        "tags": {
          "amenity": "bank",
          "name": "American Express Bank"
        }
      },
      {
        "type": "node",
        "id": 2189176387,
        "lat": 18.9365589,
        "lon": 72.833753,
        "tags": {
          "amenity": "bank",
          "atm": "yes",
          "brand": "Deutsche Bank",
          "brand:wikidata": "Q66048",
          "brand:wikipedia": "en:Deutsche Bank",
          "name": "Deutsche Bank"
        }
      },
      {
        "type": "node",
        "id": 2189176388,
        "lat": 18.9358085,
        "lon": 72.8334156,
        "tags": {
          "amenity": "bank",
          "atm": "yes",
          "brand": "ICICI Bank",
          "brand:wikidata": "Q1653258",
          "name": "ICICI Bank",
          "short_name": "ICICI"
        }
      },
      {
        "type": "node",
        "id": 2189176390,
        "lat": 18.9374417,
        "lon": 72.8340638,
        "tags": {
          "amenity": "restaurant",
          "name": "Suvidha"
        }
      },
      {
        "type": "node",
        "id": 2601474357,
        "lat": 18.9322713,
        "lon": 72.833932,
        "tags": {
          "amenity": "cafe",
          "brand": "Starbucks",
          "brand:pa": "\u0a38\u0a1f\u0a3e\u0a30\u0a2c\u0a15\u0a38",
          "brand:ur": "\u0627\u0633\u0679\u0627\u0631\u0628\u06a9\u0633",
          "brand:wikidata": "Q37158",
          "brand:wikipedia": "en:Starbucks",
          "cuisine": "coffee_shop",
          "name": "Starbucks",
          "name:pa": "\u0a38\u0a1f\u0a3e\u0a30\u0a2c\u0a15\u0a38",
          "name:ur": "\u0627\u0633\u0679\u0627\u0631\u0628\u06a9\u0633",
          "official_name": "Starbucks Coffee",
          "official_name:pa": "\u0a38\u0a1f\u0a3e\u0a30\u0a2c\u0a15\u0a38 \u0a15\u0a4c\u0a2b\u0a40",
          "official_name:ur": "\u0627\u0633\u0679\u0627\u0631\u0628\u06a9\u0633 \u06a9\u0627\u0641\u06cc",
          "takeaway": "yes"
        }
      },
      {
        "type": "node",
        "id": 3229085249,
        "lat": 18.9303365,
        "lon": 72.833002,
        "tags": {
          "amenity": "cafe"
        }
      },
      {
        "type": "node",
        "id": 3366405792,
        "lat": 18.9285235,
        "lon": 72.8324143,
        "tags": {
          "amenity": "restaurant",
          "cuisine": "italian",
          "name": "La Folie"
        }
      },
      {
        "type": "node",
        "id": 3366415293,
        "lat": 18.928798,
        "lon": 72.8323316,
        "tags": {
          "amenity": "restaurant",
          "cuisine": "asian",
          "name": "Mamagoto"
        }
      },
      {
        "type": "node",
        "id": 3366416121,
        "lat": 18.9289343,
        "lon": 72.8338049,
        "tags": {
          "amenity": "bank",
          "atm": "no",
          "brand": "Corporation Bank",
          "brand:wikidata": "Q2003387",
          "brand:wikipedia": "en:Corporation Bank",
          "name": "Corporation Bank",
          "name:en": "Corporation Bank",
          "website": "https://corpbank.com/"
        }
      },
      {
        "type": "node",
        "id": 3366416123,
        "lat": 18.9287859,
        "lon": 72.8339813,
        "tags": {
          "amenity": "restaurant",
          "name": "Nico Bombay"
        }
      },
      {
        "type": "node",
        "id": 3366416124,
        "lat": 18.9290532,
        "lon": 72.8337851,
        "tags": {
          "amenity": "bank",
          "atm": "yes",
          "brand": "Canara Bank",
          "brand:en": "Canara Bank",
          "brand:hi": "\u0915\u0947\u0928\u0930\u093e \u092c\u0948\u0902\u0915",
          "brand:kn": "\u0c95\u0cc6\u0ca8\u0cb0\u0cbe \u0cac\u0ccd\u0caf\u0cbe\u0c82\u0c95\u0ccd",
          "brand:pa": "\u0a15\u0a47\u0a28\u0a30\u0a3e \u0a2c\u0a48\u0a02\u0a15",
          "brand:pnb": "\u06a9\u06cc\u0646\u0631\u0627 \u0628\u06cc\u0646\u06a9",
          "brand:ur": "\u06a9\u06cc\u0646\u0631\u0627 \u0628\u06cc\u0646\u06a9",
          "brand:wikidata": "Q2003777",
          "brand:wikipedia": "en:Canara Bank",
          "brand:wikipedia:pa": "\u0a15\u0a47\u0a28\u0a30\u0a3e \u0a2c\u0a48\u0a02\u0a15",
          "name": "Canara Bank",
          "name:en": "Canara Bank",
          "name:hi": "\u0915\u0947\u0928\u0930\u093e \u092c\u0948\u0902\u0915",
          "name:kn": "\u0c95\u0cc6\u0ca8\u0cb0\u0cbe \u0cac\u0ccd\u0caf\u0cbe\u0c82\u0c95\u0ccd",
          "name:pa": "\u0a15\u0a47\u0a28\u0a30\u0a3e \u0a2c\u0a48\u0a02\u0a15",
          "name:pnb": "\u06a9\u06cc\u0646\u0631\u0627 \u0628\u06cc\u0646\u06a9",
          "name:ur": "\u06a9\u06cc\u0646\u0631\u0627 \u0628\u06cc\u0646\u06a9",
          "website": "https://www.canarabank.com/"
        }
      },
      {
        "type": "node",
        "id": 3366422124,
        "lat": 18.9282162,
        "lon": 72.8328878,
        "tags": {
          "amenity": "restaurant",
          "cuisine": "indian",
          "name": "Ayub's"
        }
      },
      {
        "type": "node",
        "id": 3366422125,
        "lat": 18.9282794,
        "lon": 72.8333622,
        "tags": {
          "amenity": "restaurant",
          "name": "Carter's Blue"
        }
      },
      {
        "type": "node",
        "id": 3366427603,
        "lat": 18.9283524,
        "lon": 72.8336264,
        "tags": {
          "amenity": "restaurant",
          "name": "Nutcracker"
        }
      },
      {
        "type": "node",
        "id": 3366427604,
        "lat": 18.9285401,
        "lon": 72.8337873,
        "tags": {
          "addr:city": "Mumbai",
          "addr:housename": "Bharat House",
          "addr:postcode": "400023",
          "addr:street": "Mumbai Samachar Marg",
          "amenity": "bank",
          "brand:wikidata": "Q6479935",
          "brand:wikipedia": "en:Lakshmi Vilas Bank",
          "name": "Lakshmi Vilas Bank",
          "name:en": "Lakshmi Vilas Bank",
          "website": "https://www.lvbank.com"
        }
      },
      {
        "type": "node",
        "id": 3790273562,
        "lat": 18.9331984,
        "lon": 72.8344022,
        "tags": {
          "amenity": "restaurant",
          "cuisine": "seafood",
          "delivery": "yes",
          "name": "Apoorva",
          "takeaway": "yes"
        }
      },
      {
        "type": "node",
        "id": 4032404597,
        "lat": 18.9329149,
        "lon": 72.8352706,
        "tags": {
          "amenity": "restaurant",
          "name": "Cafe Universal"
        }
      },
      {
        "type": "node",
        "id": 4133873660,
        "lat": 18.9352275,
        "lon": 72.8340853,
        "tags": {
          "amenity": "restaurant"
        }
      },
      {
        "type": "node",
        "id": 4133877123,
        "lat": 18.9373663,
        "lon": 72.8370359,
        "tags": {
          "amenity": "fast_food",
          "name:en": "Jai Ganesh pizza corner",
          "opening_hours": "Mo-Su 08:00-21:00"
        }
      },
      {
        "type": "node",
        "id": 4225072291,
        "lat": 18.9374108,
        "lon": 72.8331683,
        "tags": {
          "addr:street": "Wallace Street",
          "amenity": "cafe",
          "cuisine": "coffee_shop",
          "name": "Creeda Board Game Cafe",
          "opening_hours": "Mo-Su 12:00-22:00",
          "website": "https://www.creeda.in/"
        }
      },
      {
        "type": "node",
        "id": 4294810192,
        "lat": 18.9344727,
        "lon": 72.8403579,
        "tags": {
          "addr:city": "Mumbai",
          "addr:housenumber": "11",
          "addr:postcode": "400038",
          "addr:street": "Sprott Road",
          "alt_name": "Britania & Co. Restaurant",
          "amenity": "restaurant",
          "name": "Britannia & Co. Restaurant",
          "opening_hours": "Mo-Sa 11:30-04:00",
          "phone": "022 2261 5264"
        }
      },
      {
        "type": "node",
        "id": 4416529689,
        "lat": 18.9348271,
        "lon": 72.8356775,
        "tags": {
          "addr:housenumber": "240",
          "addr:postcode": "400001",
          "addr:street": "Perin Nariman Street",
          "amenity": "bank",
          "name:en": "Abduyuay Co Op Bank"
        }
      },
      {
        "type": "node",
        "id": 4510126689,
        "lat": 18.9362175,
        "lon": 72.8339308,
        "tags": {
          "amenity": "atm",
          "operator": "DBS"
        }
      },
      {
        "type": "node",
        "id": 4510126690,
        "lat": 18.9360532,
        "lon": 72.8339959,
        "tags": {
          "amenity": "atm",
          "brand": "Bank of India",
          "brand:wikidata": "Q2004439",
          "operator": "Bank of India",
          "operator:wikidata": "Q2004439"
        }
      },
      {
        "type": "node",
        "id": 4550908991,
        "lat": 18.9381757,
        "lon": 72.8380283,
        "tags": {
          "amenity": "restaurant",
          "check_date": "2023-12-29",
          "name:ru": "Sher-E-Punjab"
        }
      },
      {
        "type": "node",
        "id": 4563605917,
        "lat": 18.9362021,
        "lon": 72.8372964,
        "tags": {
          "amenity": "atm"
        }
      },
      {
        "type": "node",
        "id": 4563662791,
        "lat": 18.9362116,
        "lon": 72.8375833,
        "tags": {
          "amenity": "atm"
        }
      },
      {
        "type": "node",
        "id": 4593013889,
        "lat": 18.9382784,
        "lon": 72.8332041,
        "tags": {
          "amenity": "restaurant",
          "cuisine": "grill;coffee_shop;asian;noodles;fish_and_chips;diner;chicken;italian_pizza;indian;curry;fish;french;friture;chinese;barbecue",
          "name:en": "The Goose and Gridiron"
        }
      },
      {
        "type": "node",
        "id": 4663402302,
        "lat": 18.9291288,
        "lon": 72.8343712,
        "tags": {
          "amenity": "fast_food",
          "name:en": "1441 Pizzeria"
        }
      },
      {
        "type": "node",
        "id": 4663402394,
        "lat": 18.9330785,
        "lon": 72.8335542,
        "tags": {
          "addr:street": "Cawasji Patel Street",
          "amenity": "restaurant",
          "cuisine": "persian",
          "name:en": "Yazdani Restaurant & Bakery"
        }
      },
      {
        "type": "node",
        "id": 4695132801,
        "lat": 18.9381795,
        "lon": 72.834279,
        "tags": {
          "amenity": "fast_food",
          "brand": "Burger King",
          "brand:wikidata": "Q177054",
          "cuisine": "burger",
          "name": "Burger King",
          "name:de": "Burger King",
          "name:en": "Burger King",
          "operator": "Burger King",
          "takeaway": "yes"
        }
      },
      {
        "type": "node",
        "id": 4712811391,
        "lat": 18.9344658,
        "lon": 72.8358494,
        "tags": {
          "amenity": "cafe",
          "name:en": "Pure veg cafe"
        }
      },
      {
        "type": "node",
        "id": 4797704421,
        "lat": 18.9335852,
        "lon": 72.8338447,
        "tags": {
          "amenity": "restaurant",
          "name:en": "Lalit Veg"
        }
      },
      {
        "type": "node",
        "id": 4801871623,
        "lat": 18.9337793,
        "lon": 72.8350256,
        "tags": {
          "amenity": "cafe",
          "name:en": "philips"
        }
      },
      {
        "type": "node",
        "id": 4801932927,
        "lat": 18.9382881,
        "lon": 72.838063,
        "tags": {
          "amenity": "restaurant",
          "check_date": "2023-12-29",
          "internet_access": "wlan",
          "name": "Farhang Restaurant",
          "name:en": "farhang restaurant"
        }
      },
      {
        "type": "node",
        "id": 4803494925,
        "lat": 18.9342708,
        "lon": 72.8360075,
        "tags": {
          "addr:city": "Mumbai",
          "addr:housenumber": "61",
          "addr:postcode": "400001",
          "addr:street": "Sir Pheroze Shah Mehta Road",
          "name": "Apna Bazar Co-operative",
          "operator": "Mumbai Kamgar Madhyawarti Grahak Sahakari Sanstha Maryadit",
          "organic": "yes",
          "shop": "supermarket",
          "website": "https://www.apnabazarstores.com/"
        }
      },
      {
        "type": "node",
        "id": 5263811023,
        "lat": 18.9380026,
        "lon": 72.8377046,
        "tags": {
          "amenity": "restaurant",
          "check_date": "2023-12-29",
          "cuisine": "indian",
          "name:en": "Sher-e-Punjab"
        }
      },
      {
        "type": "node",
        "id": 5263970421,
        "lat": 18.9331887,
        "lon": 72.8335744,
        "tags": {
          "amenity": "fast_food",
          "name:en": "Yazdani Restaurant & bakery"
        }
      },
      {
        "type": "node",
        "id": 5284580931,
        "lat": 18.9327854,
        "lon": 72.8357411,
        "tags": {
          "addr:housenumber": "308",
          "addr:postcode": "400001",
          "addr:street": "Perin Nariman Street (Bazar Gate Street)",
          "amenity": "cafe",
          "cuisine": "burger;sandwich;italian_pizza;pizza;coffee_shop;ice_cream",
          "name:en": "Caf\u00e9 Choco Craze  (Town Hall Restaurant)"
        }
      },
      {
        "type": "node",
        "id": 5304605321,
        "lat": 18.9381338,
        "lon": 72.8289414,
        "tags": {
          "amenity": "fast_food",
          "name:en": "Khau galli"
        }
      },
      {
        "type": "node",
        "id": 5331030022,
        "lat": 18.9310618,
        "lon": 72.8319436,
        "tags": {
          "amenity": "restaurant",
          "cuisine": "indian",
          "diet:vegetarian": "only",
          "name:en": "Welcome Restaurant - Pure veg"
        }
      },
      {
        "type": "node",
        "id": 5331030222,
        "lat": 18.9308151,
        "lon": 72.8330445,
        "tags": {
          "amenity": "restaurant",
          "cuisine": "indian",
          "diet:vegetarian": "only",
          "name:en": "Blossom - Pure veg"
        }
      },
      {
        "type": "node",
        "id": 5451047523,
        "lat": 18.9385871,
        "lon": 72.8328817,
        "tags": {
          "amenity": "restaurant",
          "cuisine": "chinese",
          "name:en": "Royal China"
        }
      },
      {
        "type": "node",
        "id": 5455875270,
        "lat": 18.9336991,
        "lon": 72.8325516,
        "tags": {
          "amenity": "restaurant",
          "name:en": "Taste of Malabar"
        }
      },
      {
        "type": "node",
        "id": 6155507386,
        "lat": 18.938269,
        "lon": 72.8356327,
        "tags": {
          "amenity": "cafe",
          "name:en": "Pancham Puriwala"
        }
      },
      {
        "type": "node",
        "id": 6283843988,
        "lat": 18.9339638,
        "lon": 72.8330447,
        "tags": {
          "amenity": "restaurant",
          "name:en": "Taste of Kerala"
        }
      },
      {
        "type": "node",
        "id": 6369776385,
        "lat": 18.9288942,
        "lon": 72.8321102,
        "tags": {
          "amenity": "cafe",
          "name:en": "Pantry Caf\u00e9"
        }
      },
      {
        "type": "node",
        "id": 6369776585,
        "lat": 18.9302963,
        "lon": 72.8314545,
        "tags": {
          "amenity": "restaurant",
          "name:en": "Kandeel"
        }
      },
      {
        "type": "node",
        "id": 6451269285,
        "lat": 18.9379302,
        "lon": 72.8369057,
        "tags": {
          "amenity": "restaurant",
          "name:en": "Anand Bhavan"
        }
      },
      {
        "type": "node",
        "id": 7047557038,
        "lat": 18.9358357,
        "lon": 72.8332373,
        "tags": {
          "addr:district": "Mumbai",
          "addr:full": "Navsari Bldg.240,Dr. D.N. Road",
          "addr:postcode": "400001",
          "addr:state": "Maharashtra",
          "amenity": "hospital",
          "healthcare": "hospital",
          "name": "Banaji Eyesurgery and Laser Center",
          "source": "OpenGovernmentData"
        }
      },
      {
        "type": "node",
        "id": 7249314185,
        "lat": 18.9285172,
        "lon": 72.832754,
        "tags": {
          "amenity": "cafe",
          "cuisine": "pancake",
          "name:en": "99 Pancakes"
        }
      },
      {
        "type": "node",
        "id": 7293746571,
        "lat": 18.9311988,
        "lon": 72.8316669,
        "tags": {
          "addr:city": "Mumbai",
          "addr:housenumber": "57 Fort, opp. HSBC Bank",
          "addr:postcode": "400023",
          "addr:street": "Mahatma Gandhi Road",
          "air_conditioning": "yes",
          "amenity": "restaurant",
          "cuisine": "italian;thai;chinese;seafood;salad;salads;soup;sandwich;dessert;tea;coffee",
          "delivery": "yes",
          "diet:gluten_free": "yes",
          "diet:meat": "yes",
          "diet:vegan": "yes",
          "diet:vegetarian": "yes",
          "name": "Fountain Sizzlers",
          "opening_hours": "Mo-Su 12:00-23:30",
          "outdoor_seating": "no",
          "phone": "+91 22 40647777",
          "smoking": "no"
        }
      },
      {
        "type": "node",
        "id": 7664032228,
        "lat": 18.9369719,
        "lon": 72.8379477,
        "tags": {
          "addr:district": "Mumbai City",
          "addr:full": "Vaju Kotak Marg, Ballard Estate, Fort, Mumbai",
          "addr:postcode": "400001",
          "addr:state": "Maharastra",
          "amenity": "clinic",
          "name": "Sun Clinic",
          "source": "Local Knowledge"
        }
      },
      {
        "type": "node",
        "id": 7664032233,
        "lat": 18.9368113,
        "lon": 72.8403416,
        "tags": {
          "addr:district": "Mumbai City",
          "addr:full": "5, Walchand Hirachand Marg, Ballard Estate, Fort, Mumbai",
          "addr:postcode": "400001",
          "addr:state": "Maharastra",
          "amenity": "hospital",
          "name": "Reliance Health Ventures Limited Hospital",
          "source": "Local Knowledge"
        }
      },
      {
        "type": "node",
        "id": 8084252878,
        "lat": 18.9282899,
        "lon": 72.832771,
        "tags": {
          "addr:postcode": "400001",
          "addr:street": "Dr V B Gandhi Road (Forbes Street)",
          "amenity": "cafe",
          "food": "health food, organic, vegan, vegetarian",
          "name": "Sequel"
        }
      },
      {
        "type": "node",
        "id": 9574721718,
        "lat": 18.9307521,
        "lon": 72.8320601,
        "tags": {
          "amenity": "restaurant",
          "name": "Cafe Military"
        }
      },
      {
        "type": "node",
        "id": 9574735835,
        "lat": 18.9375389,
        "lon": 72.8336457,
        "tags": {
          "amenity": "restaurant",
          "name": "Cafe Excelsior"
        }
      },
      {
        "type": "node",
        "id": 10689842805,
        "lat": 18.9321391,
        "lon": 72.8332851,
        "tags": {
          "amenity": "restaurant",
          "name:en": "Amazing sandwiches"
        }
      },
      {
        "type": "node",
        "id": 10797139905,
        "lat": 18.9318159,
        "lon": 72.8315526,
        "tags": {
          "addr:housenumber": "145",
          "addr:postcode": "400001",
          "addr:street": "Mahatma Gandhi Road",
          "amenity": "restaurant",
          "name:en": "Khyber",
          "website": "https://khyberrestaurant.com/"
        }
      },
      {
        "type": "node",
        "id": 11465204243,
        "lat": 18.9387195,
        "lon": 72.8382479,
        "tags": {
          "amenity": "cafe",
          "check_date": "2023-12-29",
          "name": "We Wake Cafe"
        }
      },
      {
        "type": "node",
        "id": 11465204244,
        "lat": 18.9386488,
        "lon": 72.8382257,
        "tags": {
          "amenity": "bank",
          "brand": "State Bank of India",
          "brand:wikidata": "Q1340361",
          "check_date": "2023-12-29",
          "name": "State Bank of India Fort Market",
          "short_name": "SBI"
        }
      },
      {
        "type": "node",
        "id": 11542372406,
        "lat": 18.9290226,
        "lon": 72.8343431,
        "tags": {
          "addr:housenumber": "5",
          "amenity": "restaurant",
          "name": "Gateway Taproom",
          "website": "https://gatewaytaprooms.com/kalaghoda.html"
        }
      },
      {
        "type": "node",
        "id": 11609857374,
        "lat": 18.9317938,
        "lon": 72.8330496,
        "tags": {
          "amenity": "restaurant",
          "name": "anna idli"
        }
      },
      {
        "type": "node",
        "id": 12299747088,
        "lat": 18.9282444,
        "lon": 72.8339658,
        "tags": {
          "amenity": "bank",
          "brand": "Bank of Maharashtra",
          "brand:wikidata": "Q2004304",
          "name": "Bank of Maharashtra"
        }
      },
      {
        "type": "node",
        "id": 12451248603,
        "lat": 18.935257,
        "lon": 72.8382231,
        "tags": {
          "addr:housenumber": "13-15",
          "addr:postcode": "400001",
          "addr:street": "Calicut Street",
          "amenity": "restaurant",
          "cuisine": "american",
          "name": "The Clearing House",
          "opening_hours": "Tu-Su 12:00-15:30, 19:00-23:30",
          "phone": "091375 17707",
          "self_service": "no"
        }
      },
      {
        "type": "node",
        "id": 12633513702,
        "lat": 18.9341323,
        "lon": 72.8356824,
        "tags": {
          "addr:postcode": "400001",
          "addr:street": "Sir Pherozeshah Mehta Road",
          "amenity": "bank",
          "brand": "Punjab National Bank",
          "brand:wikidata": "Q2743499",
          "name": "Punjab National Bank"
        }
      },
      {
        "type": "node",
        "id": 12633513801,
        "lat": 18.9325964,
        "lon": 72.8345832,
        "tags": {
          "addr:postcode": "400001",
          "addr:street": "Horniman Circle",
          "amenity": "bank",
          "brand": "Bank of Baroda",
          "brand:wikidata": "Q2003797",
          "name": "Bank of Baroda"
        }
      },
      {
        "type": "node",
        "id": 12848348712,
        "lat": 18.9317064,
        "lon": 72.8319248,
        "tags": {
          "amenity": "cafe",
          "cuisine": "coffee_shop",
          "name": "Nandan Coffee"
        }
      }
    ]
  },
  "pois_2_5km": {
    "version": 0.6,
    "generator": "Overpass API 0.7.62.8 e802775f",
    "osm3s": {
      "timestamp_osm_base": "2025-09-06T07:52:46Z",
      "copyright": "The data included in this document is from www.openstreetmap.org. The data is made available under ODbL."
    },
    "elements": [
      {
        "type": "node",
        "id": 316306549,
        "lat": 18.9406037,
        "lon": 72.8350795,
        "tags": {
          "level": "0",
          "name": "Mumbai CSMT (Suburban)",
          "official_name": "Mumbai Chhatrapati Shivaji Maharaj Terminus (Suburban)",
          "public_transport": "stop_position",
          "railway": "stop",
          "ref": "1",
          "source": "Esri World imagery (2024-09-14)",
          "tactile_paving": "yes",
          "train": "yes"
        }
      },
      {
        "type": "node",
        "id": 528115484,
        "lat": 18.9465849,
        "lon": 72.8230857,
        "tags": {
          "local_ref": "2",
          "name": "Marine Lines",
          "name:hi": "\u092e\u0930\u0940\u0928 \u0932\u093e\u0907\u0928\u094d\u0938",
          "network": "WR",
          "operator": "IR",
          "public_transport": "stop_position",
          "railway": "stop",
          "train": "yes"
        }
      },
      {
        "type": "node",
        "id": 528115491,
        "lat": 18.9465688,
        "lon": 72.8230534,
        "tags": {
          "local_ref": "1",
          "name": "Marine Lines",
          "name:hi": "\u092e\u0930\u0940\u0928 \u0932\u093e\u0907\u0928\u094d\u0938",
          "network": "WR",
          "operator": "IR",
          "public_transport": "stop_position",
          "railway": "stop",
          "train": "yes"
        }
      },
      {
        "type": "node",
        "id": 619293646,
        "lat": 18.9406335,
        "lon": 72.8353869,
        "tags": {
          "level": "0",
          "name": "Mumbai CSMT (Suburban)",
          "official_name": "Mumbai Chhatrapati Shivaji Maharaj Terminus (Suburban)",
          "public_transport": "stop_position",
          "railway": "stop",
          "ref": "4",
          "source": "Esri World imagery (2024-09-14)",
          "tactile_paving": "yes",
          "train": "yes"
        }
      },
      {
        "type": "node",
        "id": 619293660,
        "lat": 18.9527822,
        "lon": 72.8381832,
        "tags": {
          "name": "Masjid",
          "public_transport": "stop_position",
          "railway": "stop",
          "ref": "3",
          "train": "yes"
        }
      },
      {
        "type": "node",
        "id": 621906366,
        "lat": 18.9527837,
        "lon": 72.8380527,
        "tags": {
          "name": "Masjid",
          "public_transport": "stop_position",
          "railway": "stop",
          "ref": "1",
          "train": "yes"
        }
      },
      {
        "type": "node",
        "id": 621948374,
        "lat": 18.9343947,
        "lon": 72.8272055,
        "tags": {
          "local_ref": "1",
          "name": "Churchgate",
          "name:hi": "\u091a\u0930\u094d\u091a\u0917\u0947\u091f",
          "public_transport": "stop_position",
          "railway": "stop",
          "ref": "CCG",
          "train": "yes"
        }
      },
      {
        "type": "node",
        "id": 666064621,
        "lat": 18.9367891,
        "lon": 72.8396991,
        "tags": {
          "amenity": "fuel",
          "brand": "Bharat Petroleum",
          "brand:wikidata": "Q854826",
          "name": "Bharat Petroleum",
          "operator": "Bharat Petroleum",
          "source": "GPS"
        }
      },
      {
        "type": "node",
        "id": 669259757,
        "lat": 18.9245934,
        "lon": 72.8325192,
        "tags": {
          "amenity": "cinema",
          "name": "Regal Cinema"
        }
      },
      {
        "type": "node",
        "id": 870449150,
        "lat": 18.9229191,
        "lon": 72.8345228,
        "tags": {
          "amenity": "ferry_terminal",
          "ferry": "yes",
          "name": "Gateway of India - Mandwa Rewas Ferry Terminal",
          "public_transport": "station"
        }
      },
      {
        "type": "node",
        "id": 870449764,
        "lat": 18.9217835,
        "lon": 72.8347226,
        "tags": {
          "amenity": "ferry_terminal",
          "ferry": "yes",
          "name": "Gateway of India - Elephanta Island ferry service",
          "name:ar": "\u0628\u0648\u0627\u0628\u0629 \u0627\u0644\u0647\u0646\u062f",
          "name:zh": "\u5370\u5ea6\u95e8 - \u8c61\u5c9b\u6e21\u8f6e\u7ad9",
          "public_transport": "station"
        }
      },
      {
        "type": "node",
        "id": 1234805938,
        "lat": 18.9408204,
        "lon": 72.836017,
        "tags": {
          "level": "0",
          "name": "Mumbai CSMT (Suburban)",
          "official_name": "Mumbai Chhatrapati Shivaji Maharaj Terminus (Suburban)",
          "public_transport": "stop_position",
          "railway": "stop",
          "ref": "9",
          "source": "Esri World imagery (2024-09-14)",
          "tactile_paving": "yes",
          "train": "yes"
        }
      },
      {
        "type": "node",
        "id": 1234805948,
        "lat": 18.94081,
        "lon": 72.8359068,
        "tags": {
          "level": "0",
          "name": "Mumbai CSMT (Suburban)",
          "official_name": "Mumbai Chhatrapati Shivaji Maharaj Terminus (Suburban)",
          "public_transport": "stop_position",
          "railway": "stop",
          "ref": "8",
          "source": "Esri World imagery (2024-09-14)",
          "tactile_paving": "yes",
          "train": "yes"
        }
      },
      {
        "type": "node",
        "id": 1234815591,
        "lat": 18.9408811,
        "lon": 72.8362973,
        "tags": {
          "name": "CSMT",
          "public_transport": "stop_position",
          "railway": "stop",
          "ref": "CSTM:11",
          "train": "yes"
        }
      },
      {
        "type": "node",
        "id": 1234815595,
        "lat": 18.9417555,
        "lon": 72.8367595,
        "tags": {
          "name": "CSMT",
          "public_transport": "stop_position",
          "railway": "stop",
          "ref": "CSTM:15",
          "train": "yes"
        }
      },
      {
        "type": "node",
        "id": 1234815598,
        "lat": 18.9408763,
        "lon": 72.8361599,
        "tags": {
          "name": "CSMT",
          "public_transport": "stop_position",
          "railway": "stop",
          "ref": "CSTM:10",
          "train": "yes"
        }
      },
      {
        "type": "node",
        "id": 1234815616,
        "lat": 18.9452282,
        "lon": 72.8376755,
        "tags": {
          "name": "CSMT",
          "public_transport": "stop_position",
          "railway": "stop",
          "ref": "16",
          "train": "yes"
        }
      },
      {
        "type": "node",
        "id": 1234823928,
        "lat": 18.9406221,
        "lon": 72.8352693,
        "tags": {
          "level": "0",
          "name": "Mumbai CSMT (Suburban)",
          "official_name": "Mumbai Chhatrapati Shivaji Maharaj Terminus (Suburban)",
          "public_transport": "stop_position",
          "railway": "stop",
          "ref": "3",
          "source": "Esri World imagery (2024-09-14)",
          "tactile_paving": "yes",
          "train": "yes"
        }
      },
      {
        "type": "node",
        "id": 1236334975,
        "lat": 18.9344455,
        "lon": 72.8275534,
        "tags": {
          "local_ref": "4",
          "name": "Churchgate",
          "name:hi": "\u091a\u0930\u094d\u091a\u0917\u0947\u091f",
          "public_transport": "stop_position",
          "railway": "stop",
          "ref": "CCG",
          "train": "yes"
        }
      },
      {
        "type": "node",
        "id": 1236335031,
        "lat": 18.9344286,
        "lon": 72.8274374,
        "tags": {
          "local_ref": "3",
          "name": "Churchgate",
          "name:hi": "\u091a\u0930\u094d\u091a\u0917\u0947\u091f",
          "public_transport": "stop_position",
          "railway": "stop",
          "ref": "CCG",
          "train": "yes"
        }
      },
      {
        "type": "node",
        "id": 1236335056,
        "lat": 18.9344117,
        "lon": 72.8273215,
        "tags": {
          "local_ref": "2",
          "name": "Churchgate",
          "name:hi": "\u091a\u0930\u094d\u091a\u0917\u0947\u091f",
          "public_transport": "stop_position",
          "railway": "stop",
          "ref": "CCG",
          "train": "yes"
        }
      },
      {
        "type": "node",
        "id": 1236410131,
        "lat": 18.9466312,
        "lon": 72.8231784,
        "tags": {
          "local_ref": "3",
          "name": "Marine Lines",
          "name:hi": "\u092e\u0930\u0940\u0928 \u0932\u093e\u0907\u0928\u094d\u0938",
          "network": "WR",
          "operator": "IR",
          "public_transport": "stop_position",
          "railway": "stop",
          "train": "yes"
        }
      },
      {
        "type": "node",
        "id": 1236410240,
        "lat": 18.9466502,
        "lon": 72.8232164,
        "tags": {
          "local_ref": "4",
          "name": "Marine Lines",
          "name:hi": "\u092e\u0930\u0940\u0928 \u0932\u093e\u0907\u0928\u094d\u0938",
          "network": "WR",
          "operator": "IR",
          "public_transport": "stop_position",
          "railway": "stop",
          "train": "yes"
        }
      },
      {
        "type": "node",
        "id": 1236589832,
        "lat": 18.935965,
        "lon": 72.8406767,
        "tags": {
          "amenity": "fuel",
          "cmt": "14-FEB-10 15:55:59",
          "description": "14-FEB-10 15:55:59",
          "ele": "18.150513",
          "name": "Fuel",
          "source": "GPS",
          "sym": "Gas Station"
        }
      },
      {
        "type": "node",
        "id": 1332570741,
        "lat": 18.9322385,
        "lon": 72.8279388,
        "tags": {
          "amenity": "cinema",
          "name": "Eros Cinema"
        }
      },
      {
        "type": "node",
        "id": 1541857832,
        "lat": 18.9267067,
        "lon": 72.8273901,
        "tags": {
          "amenity": "fuel",
          "brand": "Hindustan Petroleum",
          "brand:wikidata": "Q1619375",
          "name": "HP",
          "official_name": "Hindustan Petroleum",
          "operator": "Bharat Petroleum"
        }
      },
      {
        "type": "node",
        "id": 2166796345,
        "lat": 18.9376728,
        "lon": 72.8332185,
        "tags": {
          "addr:postcode": "400001",
          "addr:street": "Amit Keshav Nayak Marg",
          "amenity": "cinema",
          "name": "New Excelsior Cinema",
          "name:de": "New Excelsior Cinema",
          "name:en": "New Excelsior Cinema",
          "phone": "022 2207 3830"
        }
      },
      {
        "type": "node",
        "id": 2166817451,
        "lat": 18.9406445,
        "lon": 72.8355003,
        "tags": {
          "level": "0",
          "name": "Mumbai CSMT (Suburban)",
          "official_name": "Mumbai Chhatrapati Shivaji Maharaj Terminus (Suburban)",
          "public_transport": "stop_position",
          "railway": "stop",
          "ref": "5",
          "source": "Esri World imagery (2024-09-14)",
          "tactile_paving": "yes",
          "train": "yes"
        }
      },
      {
        "type": "node",
        "id": 2166817452,
        "lat": 18.9406128,
        "lon": 72.8351737,
        "tags": {
          "level": "0",
          "name": "Mumbai CSMT (Suburban)",
          "official_name": "Mumbai Chhatrapati Shivaji Maharaj Terminus (Suburban)",
          "public_transport": "stop_position",
          "railway": "stop",
          "ref": "2",
          "source": "Esri World imagery (2024-09-14)",
          "tactile_paving": "yes",
          "train": "yes"
        }
      },
      {
        "type": "node",
        "id": 2166817453,
        "lat": 18.9406523,
        "lon": 72.8355803,
        "tags": {
          "level": "0",
          "name": "Mumbai CSMT (Suburban)",
          "official_name": "Mumbai Chhatrapati Shivaji Maharaj Terminus (Suburban)",
          "public_transport": "stop_position",
          "railway": "stop",
          "ref": "6",
          "source": "Esri World imagery (2024-09-14)",
          "tactile_paving": "yes",
          "train": "yes"
        }
      },
      {
        "type": "node",
        "id": 2166865878,
        "lat": 18.9341053,
        "lon": 72.8324982,
        "tags": {
          "name": "Hutatma Chowk/Siddharth College",
          "public_transport": "station",
          "ref": "01091"
        }
      },
      {
        "type": "node",
        "id": 2166865879,
        "lat": 18.9342003,
        "lon": 72.8325717,
        "tags": {
          "name": "Hutatma Chowk/Siddharth College",
          "public_transport": "station",
          "ref": "01090"
        }
      },
      {
        "type": "node",
        "id": 2175658375,
        "lat": 18.9408662,
        "lon": 72.8364907,
        "tags": {
          "name": "CSMT",
          "public_transport": "stop_position",
          "railway": "stop",
          "ref": "CSTM:13",
          "train": "yes"
        }
      },
      {
        "type": "node",
        "id": 2175658376,
        "lat": 18.9408787,
        "lon": 72.8363407,
        "tags": {
          "name": "CSMT",
          "public_transport": "stop_position",
          "railway": "stop",
          "ref": "CSTM:12",
          "train": "yes"
        }
      },
      {
        "type": "node",
        "id": 2175658385,
        "lat": 18.9417671,
        "lon": 72.8366107,
        "tags": {
          "name": "CSMT",
          "public_transport": "stop_position",
          "railway": "stop",
          "ref": "CSTM:14",
          "train": "yes"
        }
      },
      {
        "type": "node",
        "id": 2175658439,
        "lat": 18.9451809,
        "lon": 72.837865,
        "tags": {
          "name": "CSMT",
          "public_transport": "stop_position",
          "railway": "stop",
          "ref": "18",
          "train": "yes"
        }
      },
      {
        "type": "node",
        "id": 2175658440,
        "lat": 18.9451945,
        "lon": 72.8378123,
        "tags": {
          "name": "CSMT",
          "public_transport": "stop_position",
          "railway": "stop",
          "ref": "17",
          "train": "yes"
        }
      },
      {
        "type": "node",
        "id": 2175658444,
        "lat": 18.9452855,
        "lon": 72.8374542,
        "tags": {
          "name": "CSMT",
          "public_transport": "stop_position",
          "railway": "stop",
          "ref": "15",
          "train": "yes"
        }
      },
      {
        "type": "node",
        "id": 2175658446,
        "lat": 18.9453265,
        "lon": 72.837319,
        "tags": {
          "name": "CSMT",
          "public_transport": "stop_position",
          "railway": "stop",
          "ref": "14",
          "train": "yes"
        }
      },
      {
        "type": "node",
        "id": 2176850501,
        "lat": 18.9527822,
        "lon": 72.8381561,
        "tags": {
          "name": "Masjid",
          "public_transport": "stop_position",
          "railway": "stop",
          "ref": "2",
          "train": "yes"
        }
      },
      {
        "type": "node",
        "id": 2177554643,
        "lat": 18.9376489,
        "lon": 72.8343146,
        "tags": {
          "name": "Khadi Bhandar",
          "public_transport": "station",
          "ref": "01114"
        }
      },
      {
        "type": "node",
        "id": 2629682524,
        "lat": 18.9331079,
        "lon": 72.8285954,
        "tags": {
          "amenity": "bus_station",
          "bus": "yes",
          "name": "Churchgate",
          "public_transport": "station"
        }
      },
      {
        "type": "node",
        "id": 2630075006,
        "lat": 18.945764,
        "lon": 72.8237193,
        "tags": {
          "IR:zone": "WR:CCG",
          "ele": "7",
          "internet_access": "no",
          "name": "Marine Lines",
          "name:hi": "\u092e\u0930\u0940\u0928 \u0932\u093e\u0907\u0928\u094d\u0938",
          "name:ml": "\u0d2e\u0d31\u0d48\u0d7b \u0d32\u0d48\u0d7b\u0d38\u0d4d",
          "name:mr": "\u092e\u0930\u0940\u0928 \u0932\u093e\u0907\u0928\u094d\u0938",
          "network": "Mumbai Suburban Railway",
          "network:wikidata": "Q3273422",
          "operator": "WR",
          "public_transport": "station",
          "railway": "station",
          "ref": "MEL",
          "start_date": "1867",
          "train": "yes",
          "wikidata": "Q6764160",
          "wikipedia": "en:Marine Lines railway station"
        }
      },
      {
        "type": "node",
        "id": 3306535083,
        "lat": 18.9243367,
        "lon": 72.8328758,
        "tags": {
          "amenity": "fuel",
          "brand": "Bharat Petroleum",
          "brand:wikidata": "Q854826",
          "compressed_air": "yes",
          "name": "Bharat Petroleum"
        }
      },
      {
        "type": "node",
        "id": 3501418269,
        "lat": 18.9527773,
        "lon": 72.8382858,
        "tags": {
          "name": "Masjid",
          "public_transport": "stop_position",
          "railway": "stop",
          "ref": "4",
          "train": "yes"
        }
      },
      {
        "type": "node",
        "id": 4260136290,
        "lat": 18.9354797,
        "lon": 72.8271741,
        "tags": {
          "IR:zone": "WR:CCG",
          "internet_access": "wlan",
          "name": "Churchgate",
          "name:hi": "\u091a\u0930\u094d\u091a\u0917\u0947\u091f",
          "name:ml": "\u0d1a\u0d7c\u0d1a\u0d4d\u0d1a\u0d4d\u0d17\u0d47\u0d31\u0d4d\u0d31\u0d4d",
          "name:mr": "\u091a\u0930\u094d\u091a\u0917\u0947\u091f",
          "name:zh": "\u6559\u5802\u95e8\u603b\u7ad9",
          "network": "Mumbai Suburban Railway",
          "network:wikidata": "Q3273422",
          "old_ref": "C",
          "operator": "WR",
          "public_transport": "station",
          "railway": "station",
          "ref": "CCG",
          "start_date": "1867-04-12",
          "train": "yes",
          "wikidata": "Q5118143",
          "wikipedia": "en:Churchgate railway station"
        }
      },
      {
        "type": "node",
        "id": 4362556096,
        "lat": 18.9253281,
        "lon": 72.8204171,
        "tags": {
          "amenity": "theatre",
          "name": "Little Theatre"
        }
      },
      {
        "type": "node",
        "id": 4695310999,
        "lat": 18.9384231,
        "lon": 72.8329457,
        "tags": {
          "amenity": "cinema",
          "name:de": "Sterling",
          "name:en": "Sterling Theatre",
          "wikidata": "Q7611381",
          "wikipedia": "en:Sterling Cineplex"
        }
      },
      {
        "type": "node",
        "id": 4844675131,
        "lat": 18.9558692,
        "lon": 72.8325809,
        "tags": {
          "amenity": "fuel",
          "brand": "Indian Oil",
          "brand:wikidata": "Q1289348",
          "name": "Indian Oil",
          "name:en": "Indian oil"
        }
      },
      {
        "type": "node",
        "id": 5174623523,
        "lat": 18.9536132,
        "lon": 72.8370396,
        "tags": {
          "amenity": "bus_station",
          "bus": "yes",
          "public_transport": "station"
        }
      },
      {
        "type": "node",
        "id": 5174656421,
        "lat": 18.9536931,
        "lon": 72.8370631,
        "tags": {
          "amenity": "bus_station",
          "bus": "yes",
          "public_transport": "station"
        }
      },
      {
        "type": "node",
        "id": 8360488234,
        "lat": 18.953769,
        "lon": 72.8464559,
        "tags": {
          "amenity": "ferry_terminal",
          "ferry": "yes",
          "name": "Angriya Water Terminal",
          "public_transport": "station"
        }
      },
      {
        "type": "node",
        "id": 10257874073,
        "lat": 18.9209635,
        "lon": 72.8305483,
        "tags": {
          "amenity": "bus_station",
          "bus": "yes",
          "name": "Colaba Bus Depot",
          "public_transport": "station"
        }
      },
      {
        "type": "node",
        "id": 11456230010,
        "lat": 18.9378435,
        "lon": 72.8274982,
        "tags": {
          "amenity": "fuel",
          "brand": "Bharat Petroleum",
          "brand:wikidata": "Q854826",
          "name": "Bharat Petroleum"
        }
      },
      {
        "type": "node",
        "id": 12171122260,
        "lat": 18.9522949,
        "lon": 72.8381771,
        "tags": {
          "internet_access": "no",
          "name": "Masjid",
          "name:hi": "\u092e\u0938\u094d\u091c\u093f\u0926",
          "name:ml": "\u0d2e\u0d38\u0d4d\u0d1c\u0d3f\u0d26\u0d4d",
          "name:mr": "\u092e\u0938\u094d\u091c\u093f\u0926",
          "name:ur": "\u0645\u0633\u062c\u062f",
          "network": "IR",
          "operator": "CR",
          "public_transport": "station",
          "railway": "station",
          "ref": "MSD",
          "train": "yes",
          "wikidata": "Q12445809",
          "wikipedia": "en:Masjid railway station"
        }
      },
      {
        "type": "node",
        "id": 12176277888,
        "lat": 18.9404925,
        "lon": 72.8357856,
        "tags": {
          "addr:city": "Mumbai",
          "addr:postcode": "400001",
          "addr:street": "Dr Dadabhai Naoroji Road",
          "internet_access": "wlan",
          "internet_access:ssid": "RailWire Wi-Fi",
          "name": "Mumbai CSMT",
          "name:hi": "\u092e\u0941\u0902\u092c\u0908 \u0938\u0940\u090f\u0938\u090f\u092e\u091f\u0940",
          "name:ur": "\u0645\u0645\u0628\u0626\u06cc \u0633\u06cc \u0627\u06cc\u0633 \u0627\u06cc\u0645 \u0679\u06cc \u0679\u0631\u0645\u06cc\u0646\u0644",
          "network": "CR",
          "operator": "Central Railway",
          "public_transport": "station",
          "railway": "station",
          "ref": "CSMT",
          "train": "yes",
          "wheelchair": "yes",
          "wikidata": "Q235884",
          "wikipedia": "en:Chhatrapati Shivaji Terminus railway station"
        }
      },
      {
        "type": "node",
        "id": 12176277892,
        "lat": 18.9408905,
        "lon": 72.8357077,
        "tags": {
          "level": "0",
          "name": "Mumbai CSMT (Suburban)",
          "official_name": "Mumbai Chhatrapati Shivaji Maharaj Terminus (Suburban)",
          "public_transport": "stop_position",
          "railway": "stop",
          "ref": "7",
          "source": "Esri World imagery (2024-09-14)",
          "tactile_paving": "yes",
          "train": "yes"
        }
      },
      {
        "type": "node",
        "id": 12298890606,
        "lat": 18.9526009,
        "lon": 72.8416795,
        "tags": {
          "amenity": "fuel",
          "brand": "Hindustan Petroleum",
          "brand:wikidata": "Q1619375",
          "name": "HP",
          "official_name": "Hindustan Petroleum"
        }
      },
      {
        "type": "node",
        "id": 12298890614,
        "lat": 18.9529035,
        "lon": 72.8417477,
        "tags": {
          "amenity": "fuel",
          "brand": "Bharat Petroleum",
          "brand:wikidata": "Q854826",
          "name": "Bharat Petroleum"
        }
      },
      {
        "type": "node",
        "id": 12299107686,
        "lat": 18.926054,
        "lon": 72.8331427,
        "tags": {
          "amenity": "theatre",
          "name": "Childrens Museum Amphitheathre"
        }
      },
      {
        "type": "node",
        "id": 12299732770,
        "lat": 18.9573158,
        "lon": 72.842872,
        "tags": {
          "amenity": "fuel",
          "brand": "Indian Oil",
          "brand:wikidata": "Q1289348",
          "name": "Indian Oil"
        }
      },
      {
        "type": "node",
        "id": 13039612521,
        "lat": 18.944006,
        "lon": 72.8232477,
        "tags": {
          "amenity": "fuel",
          "name": "IndianOil",
          "name:en": "IndianOil",
          "name:mr": "\u092a\u0947\u091f\u094d\u0930\u094b\u0932 \u092a\u0902\u092a"
        }
      }
    ]
  }
}