{
  "pois_1km": {
    "version": 0.6,
    "generator": "Overpass API 0.7.62.8 e802775f",
    "osm3s": {
      "timestamp_osm_base": "2025-09-06T07:52:46Z",
      "copyright": "The data included in this document is from www.openstreetmap.org. The data is made available under ODbL."
    },
    "elements": [
      {
        "type": "node",
        "id": 4426326390,
        "lat": 18.9801621,
        "lon": 72.8408053,
        "tags": {
          "amenity": "restaurant",
          "name:en": "Bharat Bhuvan"
        }
      },
      {
        "type": "node",
        "id": 7047933154,
        "lat": 18.9898598,
        "lon": 72.8412236,
        "tags": {
          "addr:district": "Mumbai",
          "addr:full": "Royal Garden Next To Girnar Tower Ambawadi Kalachowki",
          "addr:postcode": "400033",
          "addr:state": "Maharashtra",
          "amenity": "hospital",
          "name": "Aryan Hospital and Icu",
          "source": "OpenGovernmentData"
        }
      },
      {
        "type": "node",
        "id": 7073895608,
        "lat": 18.9869495,
        "lon": 72.8354555,
        "tags": {
          "addr:district": "Mumbai",
          "addr:full": "Jain Sthanak Chawl, Dr Baba Saheb Ambedkar Rd, Chinchpokali (East)",
          "addr:postcode": "400012",
          "addr:state": "Maharashtra",
          "amenity": "clinic",
          "name": "N S Optical Contact Lens Clinic Ghatkopar",
          "source": "OpenGovernmentData"
        }
      },
      {
        "type": "node",
        "id": 7225067147,
        "lat": 18.9909227,
        "lon": 72.8462289,
        "tags": {
          "addr:district": "Mumbai",
          "addr:full": "13, Abhyudaya Nagar Rd, Jijamata Nagar, Dock Labour Colony, Abhyudaya Nagar",
          "addr:postcode": "400033",
          "addr:state": "Maharashtra",
          "amenity": "clinic",
          "description": "dispensaries",
          "health_facility:type": "dispensary",
          "healthcare": "centre",
          "name": "Abhyudaya Nagar Dispensary",
          "source": "OpenGovernmentData"
        }
      },
      {
        "type": "node",
        "id": 7664032218,
        "lat": 18.9881485,
        "lon": 72.8376926,
        "tags": {
          "addr:district": "Mumbai City",
          "addr:full": "Digvijay Mill Building, Dattaram Lad Marg, Ghodapdeo, Byculla East, Mumbai",
          "addr:postcode": "400033",
          "addr:state": "Maharastra",
          "amenity": "hospital",
          "name": "Astha Nursing Home",
          "source": "Local Knowledge"
        }
      },
      {
        "type": "node",
        "id": 7869383739,
        "lat": 18.9865353,
        "lon": 72.834865,
        "tags": {
          "addr:city": "Mumbai",
          "addr:housenumber": "1, Parsi building, ground floor, Bawlawadi,opp. voltas house",
          "addr:postcode": "400012",
          "addr:street": "Dr Babasaheb Ambedkar Marg",
          "amenity": "clinic",
          "healthcare": "clinic",
          "healthcare:speciality": "general;gynaecology;ophthalmology;paediatrics;dentist;physiotherapy;community;clinic;dermatology;cardiology;optometry;surgery;urology;acupuncture",
          "name": "Om Shanti Churchgate J.D.F Mumbai Medical Centre Trust",
          "opening_hours": "Mo-Sa 08:00-19:00",
          "phone": "+912223778175 +912223635780"
        }
      },
      {
        "type": "node",
        "id": 8633083017,
        "lat": 18.9883932,
        "lon": 72.8373606,
        "tags": {
          "addr:city": "Mumbai",
          "addr:postcode": "400033",
          "addr:street": "Dattaram Lad Marg (Kala Chowky Road)",
          "amenity": "clinic",
          "healthcare": "clinic",
          "name": "Samadhan Diagnostic Centre",
          "opening_hours": "Mo-Sa 08:30-21:00; Su 09:00-12:00",
          "phone": "+912224701238"
        }
      },
      {
        "type": "node",
        "id": 12603333590,
        "lat": 18.9899194,
        "lon": 72.8414756,
        "tags": {
          "addr:city": "Mumbai",
          "addr:district": "Mumbai",
          "addr:housenumber": "36/2515 Abhyudayanagar Sagar Chs",
          "addr:postcode": "400033",
          "addr:street": "G D Ambedkar Marg (Parel Tank Road)",
          "amenity": "hospital",
          "email": "sattvapediatric@gmail.com",
          "healthcare": "hospital",
          "healthcare:speciality": "paediatrics;vaccination;neonatology;child_psychiatry",
          "image": "https://lh3.googleusercontent.com/p/AF1QipNqWO4N20NhKCfqGCxIpUpdiu8KE_mlghX88Cle=s1360-w1360-h1020",
          "level": "0",
          "mobile": "+918655285545",
          "name": "Sattva Pediatric - Dr. Rishabh K. Shah",
          "operator": "Dr. Rishabh K. Shah",
          "operator:type": "private",
          "payment:cards": "yes",
          "payment:cash": "yes",
          "payment:credit_cards": "yes",
          "payment:debit_cards": "yes",
          "payment:upi": "yes",
          "website": "https://www.google.com/search?gs_ssp=eJzj4tVP1zc0LE_LMTbILso1YLRSNagwTko1T04zNLO0MDAxNk0ytTKoMDExSzY3Tk42TkkyTDJMM_cSKE4sKSlLVChITclMLCnKTAYA7LAV0Q&q=sattva+pediatric&oq=sattva+pediat&gs_lcrp=EgZjaHJvbWUqDQgBEC4YrwEYxwEYgAQyCggAEAAY4wIYgAQyDQgBEC4YrwEYxwE"
        }
      }
    ]
  },
  "pois_2_5km": {
    "version": 0.6,
    "generator": "Overpass API 0.7.62.8 e802775f",
    "osm3s": {
      "timestamp_osm_base": "2025-09-06T07:52:46Z",
      "copyright": "The data included in this document is from www.openstreetmap.org. The data is made available under ODbL."
    },
    "elements": [
      {
        "type": "node",
        "id": 245658476,
        "lat": 18.9859,
        "lon": 72.8427,
        "tags": {
          "amenity": "fuel"
        }
      },
      {
        "type": "node",
        "id": 619290284,
        "lat": 18.9987319,
        "lon": 72.854563,
        "tags": {
          "name": "Sewri",
          "name:hi": "\u0936\u093f\u0935\u0921\u093c\u0940",
          "public_transport": "stop_position",
          "railway": "stop",
          "ref": "2",
          "train": "yes"
        }
      },
      {
        "type": "node",
        "id": 619290482,
        "lat": 18.9664287,
        "lon": 72.8442814,
        "tags": {
          "name": "Dockyard Road",
          "public_transport": "stop_position",
          "railway": "stop",
          "ref": "2",
          "train": "yes"
        }
      },
      {
        "type": "node",
        "id": 619293686,
        "lat": 18.9874068,
        "lon": 72.8327477,
        "tags": {
          "level": "-1",
          "name": "Chinchpokli",
          "public_transport": "stop_position",
          "railway": "stop",
          "train": "yes"
        }
      },
      {
        "type": "node",
        "id": 621911847,
        "lat": 18.99568,
        "lon": 72.8302756,
        "tags": {
          "ele": "5",
          "internet_access": "no",
          "name": "Lower Parel",
          "name:hi": "\u0932\u094b\u0905\u0930 \u092a\u0930\u0947\u0932",
          "name:ml": "\u0d32\u0d4b\u0d35\u0d7c \u0d2a\u0d30\u0d7e",
          "name:mr": "\u0932\u094b\u0905\u0930 \u092a\u0930\u0933",
          "network": "Mumbai Suburban Railway",
          "network:wikidata": "Q3273422",
          "operator": "WR",
          "public_transport": "station",
          "railway": "station",
          "ref": "PL",
          "start_date": "1867",
          "train": "yes",
          "wikidata": "Q6693696",
          "wikipedia": "en:Lower Parel railway station"
        }
      },
      {
        "type": "node",
        "id": 631547822,
        "lat": 19.0073669,
        "lon": 72.8357556,
        "tags": {
          "IR:zone": "WR:CCG",
          "local_ref": "1",
          "name": "Prabhadevi",
          "name:hi": "\u092a\u094d\u0930\u092d\u093e\u0926\u0947\u0935\u0940",
          "name:mr": "\u092a\u094d\u0930\u092d\u093e\u0926\u0947\u0935\u0940",
          "network": "WR",
          "operator": "IR",
          "public_transport": "stop_position",
          "railway": "stop",
          "ref": "PBHD",
          "train": "yes"
        }
      },
      {
        "type": "node",
        "id": 700774352,
        "lat": 18.9761344,
        "lon": 72.8467663,
        "tags": {
          "amenity": "fuel"
        }
      },
      {
        "type": "node",
        "id": 700886180,
        "lat": 18.9987796,
        "lon": 72.8544218,
        "tags": {
          "internet_access": "no",
          "name": "Sewri",
          "name:hi": "\u0936\u093f\u0935\u0921\u093c\u0940",
          "network": "IR",
          "operator": "CR",
          "public_transport": "station",
          "railway": "station",
          "ref": "SVE",
          "train": "yes",
          "wikidata": "Q7458298",
          "wikipedia": "en:Sewri railway station"
        }
      },
      {
        "type": "node",
        "id": 700886403,
        "lat": 18.9871866,
        "lon": 72.8438965,
        "tags": {
          "name": "Cotton Green",
          "name:hi": "\u0915\u0949\u091f\u0928 \u0917\u094d\u0930\u0940\u0928",
          "network": "IR",
          "operator": "CR",
          "public_transport": "station",
          "railway": "station",
          "ref": "CTGN",
          "wikidata": "Q5175691",
          "wikipedia": "en:Cotton Green railway station"
        }
      },
      {
        "type": "node",
        "id": 2178254482,
        "lat": 18.9765515,
        "lon": 72.8326776,
        "tags": {
          "name": "Byculla",
          "public_transport": "stop_position",
          "railway": "stop",
          "train": "yes"
        }
      },
      {
        "type": "node",
        "id": 2178254483,
        "lat": 18.9765534,
        "lon": 72.8328591,
        "tags": {
          "name": "Byculla",
          "public_transport": "stop_position",
          "railway": "stop",
          "train": "yes"
        }
      },
      {
        "type": "node",
        "id": 2443092123,
        "lat": 18.9674767,
        "lon": 72.8445477,
        "tags": {
          "internet_access": "no",
          "name": "Dockyard Road",
          "name:hi": "\u0921\u0949\u0915\u092f\u093e\u0930\u094d\u0921 \u0930\u094b\u0921",
          "network": "IR",
          "operator": "CR",
          "public_transport": "station",
          "railway": "station",
          "ref": "DKRD",
          "wikidata": "Q5121871",
          "wikipedia": "en:Dockyard Road railway station"
        }
      },
      {
        "type": "node",
        "id": 2443096202,
        "lat": 18.9775506,
        "lon": 72.8441011,
        "tags": {
          "internet_access": "no",
          "name": "Reay Road",
          "name:hi": "\u0930\u0947 \u0930\u094b\u0921",
          "network": "IR",
          "operator": "CR",
          "public_transport": "station",
          "railway": "station",
          "ref": "RRD",
          "wikidata": "Q5121780",
          "wikipedia": "en:Reay Road railway station"
        }
      },
      {
        "type": "node",
        "id": 2444001671,
        "lat": 18.9945514,
        "lon": 72.8328707,
        "tags": {
          "internet_access": "no",
          "name": "Currey Road",
          "name:ml": "\u0d15\u0d31\u0d3f \u0d31\u0d4b\u0d21\u0d4d",
          "name:mr": "\u0915\u0930\u0940 \u0930\u094b\u0921",
          "network": "IR",
          "operator": "WR",
          "public_transport": "station",
          "railway": "station",
          "ref": "CRD",
          "wikidata": "Q5121321",
          "wikipedia": "en:Currey Road railway station"
        }
      },
      {
        "type": "node",
        "id": 2622213367,
        "lat": 19.0072999,
        "lon": 72.8358523,
        "tags": {
          "IR:zone": "WR:CCG",
          "local_ref": "2",
          "name": "Prabhadevi",
          "name:hi": "\u092a\u094d\u0930\u092d\u093e\u0926\u0947\u0935\u0940",
          "name:mr": "\u092a\u094d\u0930\u092d\u093e\u0926\u0947\u0935\u0940",
          "network": "WR",
          "operator": "IR",
          "public_transport": "stop_position",
          "railway": "stop",
          "ref": "PBHD",
          "train": "yes"
        }
      },
      {
        "type": "node",
        "id": 2630075001,
        "lat": 18.9766219,
        "lon": 72.8327936,
        "tags": {
          "internet_access": "no",
          "name": "Byculla",
          "name:hi": "\u092d\u093e\u092f\u0916\u0932\u093e",
          "name:ml": "\u0d2c\u0d48\u0d15\u0d41\u0d32\u0d4d\u0d32",
          "network": "IR",
          "operator": "CR",
          "public_transport": "station",
          "railway": "station",
          "ref": "BY",
          "wikidata": "Q5003980",
          "wikipedia": "en:Byculla railway station"
        }
      },
      {
        "type": "node",
        "id": 3462327239,
        "lat": 19.0074717,
        "lon": 72.8358965,
        "tags": {
          "IR:zone": "WR:CCG",
          "historic:ref": "EPR",
          "internet_access": "no",
          "name": "Prabhadevi",
          "name:hi": "\u092a\u094d\u0930\u092d\u093e\u0926\u0947\u0935\u0940",
          "name:ml": "\u0d2a\u0d4d\u0d30\u0d2d\u0d3e\u0d26\u0d47\u0d35\u0d3f",
          "name:mr": "\u092a\u094d\u0930\u092d\u093e\u0926\u0947\u0935\u0940",
          "name:mr:--2018-07-19": "\u090f\u0932\u092b\u093f\u0928\u094d\u0938\u091f\u0928 \u0930\u094b\u0921",
          "network": "Mumbai Suburban Railway",
          "network:wikidata": "Q3273422",
          "official_name": "Prabhadevi",
          "old_name": "Elphinstone Road",
          "operator": "WR",
          "public_transport": "station",
          "railway": "station",
          "ref": "PBHD",
          "start_date": "1867",
          "train": "yes",
          "wikidata": "Q5367292",
          "wikipedia": "en:Parel-Prabhadevi railway station"
        }
      },
      {
        "type": "node",
        "id": 3501418211,
        "lat": 18.9871984,
        "lon": 72.8326716,
        "tags": {
          "internet_access": "no",
          "name": "Chinchpokli",
          "name:hi": "\u091a\u093f\u0902\u091a\u092a\u094b\u0915\u0932\u0940",
          "name:ml": "\u0d1a\u0d3f\u0d1e\u0d4d\u0d1a\u0d4d\u0d2a\u0d4a\u0d15\u0d4d\u0d32\u0d3f",
          "network": "IR",
          "operator": "CR",
          "public_transport": "station",
          "railway": "station",
          "ref": "CHG",
          "wikidata": "Q5100314",
          "wikipedia": "en:Chinchpokli railway station"
        }
      },
      {
        "type": "node",
        "id": 3501419615,
        "lat": 18.9765536,
        "lon": 72.8328865,
        "tags": {
          "name": "Byculla",
          "public_transport": "stop_position",
          "railway": "stop",
          "train": "yes"
        }
      },
      {
        "type": "node",
        "id": 3501419617,
        "lat": 18.9765511,
        "lon": 72.8327203,
        "tags": {
          "name": "Byculla",
          "public_transport": "stop_position",
          "railway": "stop",
          "train": "yes"
        }
      },
      {
        "type": "node",
        "id": 3501419652,
        "lat": 18.987134,
        "lon": 72.8328365,
        "tags": {
          "level": "-1",
          "name": "Chinchpokli",
          "public_transport": "stop_position",
          "railway": "stop",
          "train": "yes"
        }
      },
      {
        "type": "node",
        "id": 3806743188,
        "lat": 19.0015921,
        "lon": 72.8442272,
        "tags": {
          "monorail": "yes",
          "name": "Ambedkar Nagar",
          "public_transport": "platform",
          "railway": "station",
          "station": "monorail",
          "wikidata": "Q23926706"
        }
      },
      {
        "type": "node",
        "id": 3806743194,
        "lat": 18.9830921,
        "lon": 72.8285867,
        "tags": {
          "alt_name": "Jacob Circle",
          "monorail": "yes",
          "name": "Sant Gadge Maharaj Chowk",
          "public_transport": "platform",
          "railway": "station",
          "station": "monorail"
        }
      },
      {
        "type": "node",
        "id": 3806743195,
        "lat": 18.9945142,
        "lon": 72.8433086,
        "tags": {
          "monorail": "yes",
          "name": "Mint Colony",
          "public_transport": "platform",
          "railway": "station",
          "station": "monorail"
        }
      },
      {
        "type": "node",
        "id": 4264478427,
        "lat": 18.9825203,
        "lon": 72.8242196,
        "tags": {
          "IR:zone": "WR:CCG",
          "alt_name": "Mahalakshmi Railway Station",
          "internet_access": "no",
          "name": "Mahalaxmi",
          "name:hi": "\u092e\u0939\u093e\u0932\u0915\u094d\u0937\u094d\u092e\u0940",
          "name:ml": "\u0d2e\u0d39\u0d3e\u0d32\u0d15\u0d4d\u0d37\u0d4d\u0d2e\u0d3f",
          "name:mr": "\u092e\u0939\u093e\u0932\u0915\u094d\u0937\u094d\u092e\u0940",
          "network": "Mumbai Suburban Railway",
          "network:wikidata": "Q3273422",
          "operator": "WR",
          "public_transport": "station",
          "railway": "station",
          "ref": "MX",
          "start_date": "1867",
          "train": "yes",
          "wikidata": "Q6732924",
          "wikipedia": "en:Mahalaxmi railway station"
        }
      },
      {
        "type": "node",
        "id": 4264980597,
        "lat": 18.986503,
        "lon": 72.8432532,
        "tags": {
          "name": "Cotton Green",
          "public_transport": "stop_position",
          "railway": "stop",
          "ref": "2",
          "train": "yes"
        }
      },
      {
        "type": "node",
        "id": 5389227951,
        "lat": 18.9987462,
        "lon": 72.8545246,
        "tags": {
          "name": "Sewri",
          "name:hi": "\u0936\u093f\u0935\u0921\u093c\u0940",
          "public_transport": "stop_position",
          "railway": "stop",
          "ref": "1",
          "train": "yes"
        }
      },
      {
        "type": "node",
        "id": 5389227965,
        "lat": 18.9865041,
        "lon": 72.843223,
        "tags": {
          "name": "Cotton Green",
          "public_transport": "stop_position",
          "railway": "stop",
          "ref": "1",
          "train": "yes"
        }
      },
      {
        "type": "node",
        "id": 5389227991,
        "lat": 18.9664494,
        "lon": 72.8442516,
        "tags": {
          "name": "Dockyard Road",
          "public_transport": "stop_position",
          "railway": "stop",
          "ref": "1",
          "train": "yes"
        }
      },
      {
        "type": "node",
        "id": 5448396122,
        "lat": 18.9979515,
        "lon": 72.8372765,
        "tags": {
          "amenity": "fuel",
          "brand": "Hindustan Petroleum",
          "brand:wikidata": "Q1619375",
          "name": "HP",
          "name:en": "HP",
          "official_name": "Hindustan Petroleum"
        }
      },
      {
        "type": "node",
        "id": 6498408219,
        "lat": 18.9931201,
        "lon": 72.8314698,
        "tags": {
          "monorail": "yes",
          "name": "Lower Parel",
          "public_transport": "platform",
          "railway": "station",
          "station": "monorail"
        }
      },
      {
        "type": "node",
        "id": 7510862062,
        "lat": 18.9774327,
        "lon": 72.8442643,
        "tags": {
          "name": "Reay Road",
          "public_transport": "stop_position",
          "railway": "stop",
          "ref": "2",
          "train": "yes"
        }
      },
      {
        "type": "node",
        "id": 7510862063,
        "lat": 18.9774257,
        "lon": 72.8442202,
        "tags": {
          "name": "Reay Road",
          "public_transport": "stop_position",
          "railway": "stop",
          "ref": "1",
          "train": "yes"
        }
      },
      {
        "type": "node",
        "id": 7511298719,
        "lat": 18.9821386,
        "lon": 72.8240475,
        "tags": {
          "IR:zone": "WR:CCG",
          "local_ref": "2",
          "name": "Mahalaxmi",
          "name:hi": "\u092e\u0939\u093e\u0932\u0915\u094d\u0937\u094d\u092e\u0940",
          "network": "WR",
          "operator": "IR",
          "public_transport": "stop_position",
          "railway": "stop",
          "train": "yes"
        }
      },
      {
        "type": "node",
        "id": 7511298720,
        "lat": 18.982232,
        "lon": 72.8239368,
        "tags": {
          "IR:zone": "WR:CCG",
          "local_ref": "1",
          "name": "Mahalaxmi",
          "name:hi": "\u092e\u0939\u093e\u0932\u0915\u094d\u0937\u094d\u092e\u0940",
          "network": "WR",
          "operator": "IR",
          "public_transport": "stop_position",
          "railway": "stop",
          "train": "yes"
        }
      },
      {
        "type": "node",
        "id": 7817952879,
        "lat": 18.9955353,
        "lon": 72.8300633,
        "tags": {
          "IR:zone": "WR:CCG",
          "local_ref": "1",
          "name": "Lower Parel",
          "name:hi": "\u0932\u094b\u0905\u0930 \u092a\u0930\u0947\u0932",
          "name:mr": "\u0932\u094b\u0905\u0930 \u092a\u0930\u0933",
          "network": "WR",
          "operator": "IR",
          "public_transport": "stop_position",
          "railway": "stop",
          "train": "yes"
        }
      },
      {
        "type": "node",
        "id": 7817952880,
        "lat": 18.9955157,
        "lon": 72.8301006,
        "tags": {
          "IR:zone": "WR:CCG",
          "local_ref": "2",
          "name": "Lower Parel",
          "name:hi": "\u0932\u094b\u0905\u0930 \u092a\u0930\u0947\u0932",
          "name:mr": "\u0932\u094b\u0905\u0930 \u092a\u0930\u0933",
          "network": "WR",
          "operator": "IR",
          "public_transport": "stop_position",
          "railway": "stop",
          "train": "yes"
        }
      },
      {
        "type": "node",
        "id": 9135966843,
        "lat": 18.9936274,
        "lon": 72.8329074,
        "tags": {
          "name": "Currey Road",
          "name:mr": "\u0915\u0930\u0940 \u0930\u094b\u0921",
          "network": "CR",
          "operator": "IR",
          "public_transport": "stop_position",
          "railway": "stop",
          "ref": "CRD",
          "train": "yes"
        }
      },
      {
        "type": "node",
        "id": 9140706757,
        "lat": 18.9936375,
        "lon": 72.8327955,
        "tags": {
          "name": "Currey Road",
          "name:mr": "\u0915\u0930\u0940 \u0930\u094b\u0921",
          "network": "CR",
          "operator": "IR",
          "public_transport": "stop_position",
          "railway": "stop",
          "ref": "CRD",
          "train": "yes"
        }
      },
      {
        "type": "node",
        "id": 11375281416,
        "lat": 18.9951198,
        "lon": 72.8239441,
        "tags": {
          "amenity": "cinema",
          "brand": "PVR Cinemas",
          "brand:short": "PVR",
          "brand:wikidata": "Q3359908",
          "name": "PVR Cinemas",
          "short_name": "PVR"
        }
      },
      {
        "type": "node",
        "id": 11456249853,
        "lat": 18.9777892,
        "lon": 72.8239971,
        "tags": {
          "amenity": "fuel",
          "brand": "Hindustan Petroleum",
          "brand:wikidata": "Q1619375",
          "name": "HP",
          "official_name": "Hindustan Petroleum"
        }
      }
    ]
  }
}