{
  "pois_1km": {
    "version": 0.6,
    "generator": "Overpass API 0.7.62.8 e802775f",
    "osm3s": {
      "timestamp_osm_base": "2025-09-06T07:47:37Z",
      "copyright": "The data included in this document is from www.openstreetmap.org. The data is made available under ODbL."
    },
    "elements": [
      {
        "type": "node",
        "id": 5279599224,
        "lat": 19.1308933,
        "lon": 72.8707409,
        "tags": {
          "amenity": "restaurant",
          "name:en": "HOTEL NITYANAND"
        }
      },
      {
        "type": "node",
        "id": 7049800769,
        "lat": 19.1244488,
        "lon": 72.8611457,
        "tags": {
          "addr:district": "Mumbai",
          "addr:full": "Manas, Plot No.19, Sher-E-Punjab Society, Mahakali Caves Road, Andheri East",
          "addr:postcode": "400093",
          "addr:state": "Maharashtra",
          "amenity": "hospital",
          "name": "Dr.Sakhalkar's Maternity and Nursing Home",
          "source": "OpenGovernmentData"
        }
      },
      {
        "type": "node",
        "id": 7055749046,
        "lat": 19.1339758,
        "lon": 72.8654212,
        "tags": {
          "addr:district": "Mumbai",
          "addr:full": "Aareshwar Bldg., Opp Dhiraj Darshan, Kokan Nagar, Jogeshwari East",
          "addr:postcode": "400060",
          "addr:state": "Maharashtra",
          "amenity": "hospital",
          "healthcare": "hospital",
          "name": "Kokan Hospital",
          "source": "OpenGovernmentData"
        }
      },
      {
        "type": "node",
        "id": 7063077062,
        "lat": 19.1292206,
        "lon": 72.8601158,
        "tags": {
          "addr:district": "Mumbai",
          "addr:full": "A-Nirman Vihar, Rajmata Jijabai Road, Near Pump House, Andheri (E)",
          "addr:postcode": "400093",
          "addr:state": "Maharashtra",
          "amenity": "hospital",
          "name": "Sunita Hospital, Mumbai",
          "source": "OpenGovernmentData"
        }
      },
      {
        "type": "node",
        "id": 7064716703,
        "lat": 19.1277787,
        "lon": 72.8625767,
        "tags": {
          "addr:district": "Mumbai",
          "addr:full": "182 Shere Punjab Colony Mahakali Caves Road Andheri (East)",
          "addr:postcode": "400069",
          "addr:state": "Maharashtra",
          "amenity": "hospital",
          "name": "Shakuntala Memorial Surgical Childerns and General Hospital",
          "source": "OpenGovernmentData"
        }
      },
      {
        "type": "node",
        "id": 7068194959,
        "lat": 19.127861,
        "lon": 72.8624144,
        "tags": {
          "addr:district": "Mumbai",
          "addr:full": "183,Kalpana, Sher-E-Punjab Society, Mahakali Road,Andheri (E)",
          "addr:postcode": "400093",
          "addr:state": "Maharashtra",
          "amenity": "hospital",
          "name": "Indu Maternity and Surgical Nursing Home",
          "source": "OpenGovernmentData"
        }
      },
      {
        "type": "node",
        "id": 7083324261,
        "lat": 19.1297337,
        "lon": 72.8702196,
        "tags": {
          "addr:district": "Mumbai",
          "addr:full": "B6/7,Bilquis Apt. - Iii,Mayrose Chs,Mahakali Caves Road,Andheri (East)",
          "addr:postcode": "400093",
          "addr:state": "Maharashtra",
          "amenity": "hospital",
          "name": "Uma Maternity Nursing Home",
          "source": "OpenGovernmentData"
        }
      },
      {
        "type": "node",
        "id": 7086283489,
        "lat": 19.1325757,
        "lon": 72.8697047,
        "tags": {
          "addr:district": "Mumbai",
          "addr:full": "9-B, Vallabhai Patel Rd, New Mhada Colony, Indira Nagar, Jogeshwari East",
          "addr:postcode": "400093",
          "addr:state": "Maharashtra",
          "amenity": "hospital",
          "healthcare": "hospital",
          "name": "Dr Phadkes Maternity and Surgical Hospital",
          "source": "OpenGovernmentData"
        }
      },
      {
        "type": "node",
        "id": 7180504286,
        "lat": 19.1263256,
        "lon": 72.8671598,
        "tags": {
          "amenity": "restaurant",
          "name:en": "caf\u00e9 coffee day",
          "name:nl": "caf\u00e9 coffee day"
        }
      },
      {
        "type": "node",
        "id": 7663961407,
        "lat": 19.1337539,
        "lon": 72.8640958,
        "tags": {
          "addr:district": "Mumbai Suburban",
          "addr:full": "Indira Nagar Road, Indira Nagar, Jogeshwari East, Mumbai",
          "addr:postcode": "400093",
          "addr:state": "Maharastra",
          "amenity": "clinic",
          "healthcare": "clinic",
          "name": "Revati Clinic",
          "source": "Local Knowledge"
        }
      },
      {
        "type": "node",
        "id": 7663961418,
        "lat": 19.1321432,
        "lon": 72.8756312,
        "tags": {
          "addr:district": "Mumbai Suburban",
          "addr:full": "Jogeshwari - Vikhroli Link Road, Sariput Nagar, Andheri East, Mumbai",
          "addr:postcode": "400093",
          "addr:state": "Maharastra",
          "amenity": "clinic",
          "name": "Shukh Aayu Clinic",
          "source": "Local Knowledge"
        }
      },
      {
        "type": "node",
        "id": 7663961422,
        "lat": 19.1319549,
        "lon": 72.8754025,
        "tags": {
          "addr:district": "Mumbai Suburban",
          "addr:full": "Sariput Nagar, Jogeshwari Vikroli Link Road, Seepz, Andheri East, Mumbai",
          "addr:postcode": "400093",
          "addr:state": "Maharastra",
          "amenity": "clinic",
          "name": "Matrichhaya Clinic",
          "source": "Local Knowledge"
        }
      },
      {
        "type": "node",
        "id": 7663961424,
        "lat": 19.1276403,
        "lon": 72.8679085,
        "tags": {
          "addr:district": "Mumbai Suburban",
          "addr:full": "Gold Cornet Building, Opp. Holy Spirit Hospital, Mahakali Caves Road, Andheri East, Mumbai",
          "addr:postcode": "400093",
          "addr:state": "Maharastra",
          "amenity": "clinic",
          "name": "Diabetes and Wellness Clinic",
          "source": "Local Knowledge"
        }
      },
      {
        "type": "node",
        "id": 7663961429,
        "lat": 19.134903,
        "lon": 72.868099,
        "tags": {
          "addr:district": "Mumbai Suburban",
          "addr:full": "Building-R-1, Ashirwad CHS, New MMrdA Colony, Near PMGP, Poonam Nagar, Andheri (E), Mumbai",
          "addr:postcode": "400093",
          "addr:state": "Maharastra",
          "amenity": "clinic",
          "healthcare": "clinic",
          "name": "Usha Healthcare Clinic",
          "source": "Local Knowledge"
        }
      },
      {
        "type": "node",
        "id": 7663961437,
        "lat": 19.1341287,
        "lon": 72.8652305,
        "tags": {
          "addr:district": "Mumbai Suburban",
          "addr:full": "Shivneri Vasahat Road, MHB Colony, Kokan Nagar, Shyam Nagar, Jogeshwari East, Mumbai",
          "addr:postcode": "400093",
          "addr:state": "Maharastra",
          "amenity": "clinic",
          "healthcare": "clinic",
          "name": "Shree Clinic",
          "source": "Local Knowledge"
        }
      },
      {
        "type": "node",
        "id": 7663961439,
        "lat": 19.1346377,
        "lon": 72.8698935,
        "tags": {
          "addr:district": "Mumbai Suburban",
          "addr:full": "Dheeraj Garden, Vallabhai Patel Road, MMA Colony, Poonam Vihar, Poonam Nagar, Andheri East, Mumbai",
          "addr:postcode": "400093",
          "addr:state": "Maharastra",
          "amenity": "clinic",
          "healthcare": "clinic",
          "name": "Dr. Alpa Jain Clinic",
          "source": "Local Knowledge"
        }
      },
      {
        "type": "node",
        "id": 7663961452,
        "lat": 19.1338984,
        "lon": 72.8662493,
        "tags": {
          "addr:district": "Mumbai Suburban",
          "addr:full": "Mayuresh Cooperation Society, Vallabhai Patel Road, Kokan Nagar, New Mhada Colony, Jogeshwari East, Mumbai",
          "addr:postcode": "400093",
          "addr:state": "Maharastra",
          "amenity": "clinic",
          "healthcare": "clinic",
          "name": "Dr. Pragati Ghosalkar Clinic",
          "source": "Local Knowledge"
        }
      },
      {
        "type": "node",
        "id": 8797904410,
        "lat": 19.1304842,
        "lon": 72.8720801,
        "tags": {
          "addr:district": "Mumbai",
          "addr:full": "Sunder Nagar, Jogeshwari East",
          "addr:postcode": "400093",
          "addr:state": "Maharashtra",
          "amenity": "hospital",
          "healthcare": "hospital",
          "name": "BMC arogya Kendra",
          "source": "Local Knowledge"
        }
      },
      {
        "type": "node",
        "id": 9546552610,
        "lat": 19.1347866,
        "lon": 72.8653141,
        "tags": {
          "addr:city": "Mumbai",
          "addr:housenumber": "4/12",
          "addr:postcode": "400093",
          "addr:street": "Sant Gadge Maharaj Marg",
          "amenity": "cafe",
          "cuisine": "pizza;coffee_shop;sandwich",
          "internet_access": "yes",
          "internet_access:fee": "customers",
          "name": "Cafe Aloha",
          "opening_hours": "Mo-Su 09:00-21:00",
          "outdoor_seating": "yes",
          "website": "www.cafealoha.in"
        }
      },
      {
        "type": "node",
        "id": 9548741506,
        "lat": 19.1344965,
        "lon": 72.8655232,
        "tags": {
          "addr:housenumber": "12/4",
          "addr:street": "MHB Colony Rd",
          "amenity": "cafe",
          "brand": "Cafe Coffee Day",
          "brand:wikidata": "Q5017235",
          "cuisine": "coffee_shop",
          "internet_access": "yes",
          "internet_access:fee": "customers",
          "name": "Cafe Coffee Day",
          "opening_hours": "Mo-Su 09:00-21:00",
          "outdoor_seating": "yes",
          "phone": "93657482838",
          "takeaway": "yes"
        }
      },
      {
        "type": "node",
        "id": 10576014985,
        "lat": 19.1248188,
        "lon": 72.8684932,
        "tags": {
          "addr:city": "Mumbai",
          "addr:housenumber": "Subhashnagar",
          "addr:postcode": "400093",
          "addr:street": "Mahakali Caves Road",
          "amenity": "restaurant",
          "cuisine": "indian",
          "description": "good place, best vada pav in the world",
          "diet:vegetarian": "yes",
          "name": "Shiv vada pav",
          "opening_hours": "Mo-Su 09:00-21:00"
        }
      },
      {
        "type": "node",
        "id": 10633836758,
        "lat": 19.1285008,
        "lon": 72.8684849,
        "tags": {
          "amenity": "bank"
        }
      }
    ]
  },
  "pois_2_5km": {
    "version": 0.6,
    "generator": "Overpass API 0.7.62.8 e802775f",
    "osm3s": {
      "timestamp_osm_base": "2025-09-06T07:47:37Z",
      "copyright": "The data included in this document is from www.openstreetmap.org. The data is made available under ODbL."
    },
    "elements": [
      {
        "type": "node",
        "id": 623881644,
        "lat": 19.1209139,
        "lon": 72.8480322,
        "tags": {
          "name": "Andheri",
          "name:mr": "\u0905\u0902\u0927\u0947\u0930\u0940",
          "name:ru": "\u042d\u043d\u0434\u0435\u0440\u0438",
          "network": "Mumbai Metro",
          "operator": "MMRDA",
          "public_transport": "stop_position",
          "railway": "stop",
          "subway": "yes"
        }
      },
      {
        "type": "node",
        "id": 623883811,
        "lat": 19.1121886,
        "lon": 72.867001,
        "tags": {
          "name": "Chakala - J.B. Nagar",
          "name:mr": "\u091a\u0915\u093e\u0932\u093e - \u091c\u0947. \u092c\u0940. \u0928\u0917\u0930",
          "name:ru": "\u0427\u0430\u043a\u0430\u043b\u0430 (\u0414\u0436\u0430\u043c\u043d\u0430\u043b\u0430\u043b \u0411\u0430\u0434\u0436\u0430\u0434\u0436 \u041d\u0430\u0433\u0430\u0440)",
          "network": "Mumbai Metro",
          "operator": "MMRDA",
          "public_transport": "stop_position",
          "railway": "stop",
          "subway": "yes"
        }
      },
      {
        "type": "node",
        "id": 1241793068,
        "lat": 19.09544,
        "lon": 72.8660044,
        "tags": {
          "aeroway": "terminal",
          "ele": "15.747192",
          "name": "Cargo Terminal",
          "source": "GPS",
          "sym": "Civil"
        }
      },
      {
        "type": "node",
        "id": 1345350827,
        "lat": 19.1161423,
        "lon": 72.8563549,
        "tags": {
          "addr:city": "Mumbai",
          "addr:postcode": "400099",
          "addr:street": "Mathuradas Vasanji Road",
          "amenity": "fuel",
          "name": "Guru Nanak Petrol Pump",
          "opening_hours": "24/7",
          "operator": "BPCL"
        }
      },
      {
        "type": "node",
        "id": 1345350832,
        "lat": 19.1147257,
        "lon": 72.8596325,
        "tags": {
          "addr:city": "Mumbai",
          "addr:street": "Mathuradas Vasanji Road",
          "amenity": "fuel",
          "brand": "Hindustan Petroleum",
          "brand:wikidata": "Q1619375",
          "brand:wikipedia": "en:Hindustan Petroleum",
          "name": "HP",
          "official_name": "Hindustan Petroleum"
        }
      },
      {
        "type": "node",
        "id": 1348867392,
        "lat": 19.1179082,
        "lon": 72.8657206,
        "tags": {
          "amenity": "bus_station",
          "bus": "yes",
          "name": "Marol Depot",
          "public_transport": "station"
        }
      },
      {
        "type": "node",
        "id": 1577876072,
        "lat": 19.1346724,
        "lon": 72.8745426,
        "tags": {
          "amenity": "fuel",
          "name": "Bharat Petroleum"
        }
      },
      {
        "type": "node",
        "id": 1651801044,
        "lat": 19.1389362,
        "lon": 72.8647596,
        "tags": {
          "amenity": "bus_station",
          "bus": "yes",
          "name": "Majas Depot",
          "public_transport": "station"
        }
      },
      {
        "type": "node",
        "id": 2188851345,
        "lat": 19.1121647,
        "lon": 72.8647228,
        "tags": {
          "amenity": "cinema",
          "name": "Sangam Big Cinema"
        }
      },
      {
        "type": "node",
        "id": 3175794769,
        "lat": 19.1099146,
        "lon": 72.8747968,
        "tags": {
          "name": "Airport Road",
          "name:mr": "\u0935\u093f\u092e\u093e\u0928\u0924\u0933 \u0930\u0938\u094d\u0924\u093e",
          "name:ru": "\u042d\u0439\u0440\u043f\u043e\u0440\u0442-\u0420\u043e\u0443\u0434",
          "network": "Mumbai Metro",
          "operator": "MMRDA",
          "public_transport": "stop_position",
          "railway": "stop",
          "subway": "yes"
        }
      },
      {
        "type": "node",
        "id": 3175794770,
        "lat": 19.1103264,
        "lon": 72.8735321,
        "tags": {
          "name": "Airport Road",
          "name:mr": "\u0935\u093f\u092e\u093e\u0928\u0924\u0933 \u0930\u0938\u094d\u0924\u093e",
          "name:ru": "\u042d\u0439\u0440\u043f\u043e\u0440\u0442-\u0420\u043e\u0443\u0434",
          "network": "Mumbai Metro",
          "operator": "MMRDA",
          "public_transport": "stop_position",
          "railway": "stop",
          "subway": "yes"
        }
      },
      {
        "type": "node",
        "id": 3175794776,
        "lat": 19.1083663,
        "lon": 72.8788727,
        "tags": {
          "name": "Marol Naka (Line 1)",
          "name:mr": "\u092e\u0930\u094b\u0933 \u0928\u093e\u0915\u093e",
          "name:ru": "\u041c\u0430\u0440\u043e\u043b \u041d\u0430\u043a\u0430",
          "network": "Mumbai Metro",
          "operator": "MMRDA",
          "public_transport": "stop_position",
          "railway": "stop",
          "subway": "yes"
        }
      },
      {
        "type": "node",
        "id": 3389150481,
        "lat": 19.1200415,
        "lon": 72.8494816,
        "tags": {
          "name": "Andheri",
          "name:mr": "\u0905\u0902\u0927\u0947\u0930\u0940",
          "name:ru": "\u042d\u043d\u0434\u0435\u0440\u0438",
          "network": "Mumbai Metro",
          "operator": "MMRDA",
          "public_transport": "stop_position",
          "railway": "stop",
          "subway": "yes"
        }
      },
      {
        "type": "node",
        "id": 3389150483,
        "lat": 19.1155638,
        "lon": 72.8569834,
        "tags": {
          "name": "Western Express Highway (eastbound)",
          "name:mr": "\u092a\u0936\u094d\u091a\u093f\u092e \u0926\u094d\u0930\u0941\u0924\u0917\u0924\u0940 \u092e\u0939\u093e\u092e\u093e\u0930\u094d\u0917",
          "name:ru": "\u0412\u0435\u0441\u0442\u0435\u0440\u043d \u042d\u043a\u0441\u043f\u0440\u0435\u0441\u0441 \u0425\u0430\u0439\u0432\u0435\u0439",
          "network": "Mumbai Metro",
          "operator": "MMRDA",
          "public_transport": "stop_position",
          "railway": "stop",
          "subway": "yes"
        }
      },
      {
        "type": "node",
        "id": 3389150484,
        "lat": 19.1161636,
        "lon": 72.8558686,
        "tags": {
          "name": "Western Express Highway (westbound)",
          "name:mr": "\u092a\u0936\u094d\u091a\u093f\u092e \u0926\u094d\u0930\u0941\u0924\u0917\u0924\u0940 \u092e\u0939\u093e\u092e\u093e\u0930\u094d\u0917",
          "name:ru": "\u0412\u0435\u0441\u0442\u0435\u0440\u043d \u042d\u043a\u0441\u043f\u0440\u0435\u0441\u0441 \u0425\u0430\u0439\u0432\u0435\u0439",
          "network": "Mumbai Metro",
          "operator": "MMRDA",
          "public_transport": "stop_position",
          "railway": "stop",
          "subway": "yes"
        }
      },
      {
        "type": "node",
        "id": 3389210700,
        "lat": 19.1119069,
        "lon": 72.8682423,
        "tags": {
          "name": "Chakala - J.B. Nagar",
          "name:mr": "\u091a\u0915\u093e\u0932\u093e - \u091c\u0947. \u092c\u0940. \u0928\u0917\u0930",
          "name:ru": "\u0427\u0430\u043a\u0430\u043b\u0430 (\u0414\u0436\u0430\u043c\u043d\u0430\u043b\u0430\u043b \u0411\u0430\u0434\u0436\u0430\u0434\u0436 \u041d\u0430\u0433\u0430\u0440)",
          "network": "Mumbai Metro",
          "operator": "MMRDA",
          "public_transport": "stop_position",
          "railway": "stop",
          "subway": "yes"
        }
      },
      {
        "type": "node",
        "id": 4349254491,
        "lat": 19.1083512,
        "lon": 72.8782543,
        "tags": {
          "amenity": "fuel",
          "brand": "Hindustan Petroleum",
          "brand:wikidata": "Q1619375",
          "name": "HP",
          "official_name": "Hindustan Petroleum"
        }
      },
      {
        "type": "node",
        "id": 5219518799,
        "lat": 19.1334914,
        "lon": 72.8746782,
        "tags": {
          "construction": "stop",
          "name": "Mahakali Caves Station",
          "public_transport": "stop_position",
          "railway": "construction",
          "subway": "yes"
        }
      },
      {
        "type": "node",
        "id": 5219518806,
        "lat": 19.1293634,
        "lon": 72.8826453,
        "tags": {
          "construction": "stop",
          "name": "SEEPZ Station",
          "public_transport": "stop_position",
          "railway": "construction",
          "subway": "yes"
        }
      },
      {
        "type": "node",
        "id": 5219518819,
        "lat": 19.1262047,
        "lon": 72.8905142,
        "tags": {
          "construction": "stop",
          "name": "Saki Vihar Road Station",
          "public_transport": "stop_position",
          "railway": "construction",
          "subway": "yes"
        }
      },
      {
        "type": "node",
        "id": 5220954743,
        "lat": 19.1429335,
        "lon": 72.8552066,
        "tags": {
          "name": "Jogeshwari (East)",
          "name:mr": "\u091c\u094b\u0917\u0947\u0936\u094d\u0935\u0930\u0940 (\u092a\u0942\u0930\u094d\u0935)",
          "name:ru": "\u0414\u0436\u043e\u0433\u0435\u0448\u0432\u0430\u0440\u0438-\u0418\u0441\u0442",
          "public_transport": "stop_position",
          "railway": "stop",
          "subway": "yes"
        }
      },
      {
        "type": "node",
        "id": 5220954744,
        "lat": 19.1284481,
        "lon": 72.8554647,
        "tags": {
          "name": "Mogra",
          "name:mr": "\u092e\u094b\u0917\u0930\u093e",
          "name:ru": "\u041c\u043e\u0433\u0440\u0430",
          "public_transport": "stop_position",
          "railway": "stop",
          "subway": "yes"
        }
      },
      {
        "type": "node",
        "id": 5220954818,
        "lat": 19.1145088,
        "lon": 72.8551766,
        "tags": {
          "name:mr": "\u0917\u0941\u0902\u0926\u0935\u0932\u0940",
          "name:ru": "\u0413\u0443\u043d\u0434\u0430\u0432\u0430\u043b\u0438",
          "public_transport": "stop_position",
          "railway": "stop",
          "subway": "yes"
        }
      },
      {
        "type": "node",
        "id": 5787704195,
        "lat": 19.1259985,
        "lon": 72.8737266,
        "tags": {
          "name": "SEEPZ",
          "name:mr": "\u0938\u0940\u092a\u094d\u091d",
          "network": "Mumbai Metro",
          "operator": "Mumbai Metro Rail Corporation Ltd",
          "public_transport": "station",
          "railway": "station",
          "start_date": "2024-10-05",
          "station": "subway",
          "subway": "yes"
        }
      },
      {
        "type": "node",
        "id": 5787704196,
        "lat": 19.1173537,
        "lon": 72.8735966,
        "tags": {
          "name": "MIDC - Andheri",
          "name:mr": "\u090f\u092e.\u0906\u092f.\u0921\u0940.\u0938\u0940. - \u0905\u0902\u0927\u0947\u0930\u0940",
          "network": "Mumbai Metro",
          "operator": "Mumbai Metro Rail Corporation Ltd",
          "public_transport": "station",
          "railway": "station",
          "start_date": "2024-10-05",
          "station": "subway",
          "subway": "yes"
        }
      },
      {
        "type": "node",
        "id": 5787704197,
        "lat": 19.1085041,
        "lon": 72.878578,
        "tags": {
          "name": "Marol Naka L3",
          "name:mr": "\u092e\u0930\u094b\u0933 \u0928\u093e\u0915\u093e",
          "network": "Mumbai Metro",
          "operator": "Mumbai Metro Rail Corporation Ltd",
          "public_transport": "station",
          "railway": "station",
          "start_date": "2024-10-05",
          "station": "subway",
          "subway": "yes"
        }
      },
      {
        "type": "node",
        "id": 6020955334,
        "lat": 19.1204624,
        "lon": 72.8487861,
        "tags": {
          "building": "transportation",
          "description": "Andheri Metro Station",
          "name": "Andheri L1",
          "name:mr": "\u0905\u0902\u0927\u0947\u0930\u0940",
          "public_transport": "station",
          "railway": "station",
          "station": "subway",
          "subway": "yes",
          "wikidata": "Q17512034",
          "wikipedia": "en:Andheri metro station"
        }
      },
      {
        "type": "node",
        "id": 7817967700,
        "lat": 19.1360983,
        "lon": 72.8490857,
        "tags": {
          "name": "Jogeshwari (Western Line)",
          "name:mr": "\u091c\u094b\u0917\u0947\u0936\u094d\u200d\u0935\u0930\u0940",
          "public_transport": "stop_position",
          "railway": "stop",
          "ref": "6",
          "train": "yes"
        }
      },
      {
        "type": "node",
        "id": 7817967701,
        "lat": 19.1361128,
        "lon": 72.8489563,
        "tags": {
          "name": "Jogeshwari (Western Line)",
          "name:mr": "\u091c\u094b\u0917\u0947\u0936\u094d\u200d\u0935\u0930\u0940",
          "public_transport": "stop_position",
          "railway": "stop",
          "ref": "5",
          "train": "yes"
        }
      },
      {
        "type": "node",
        "id": 7817967702,
        "lat": 19.136116,
        "lon": 72.8489156,
        "tags": {
          "name": "Jogeshwari (Western Line)",
          "name:mr": "\u091c\u094b\u0917\u0947\u0936\u094d\u200d\u0935\u0930\u0940",
          "public_transport": "stop_position",
          "railway": "stop",
          "ref": "4",
          "train": "yes"
        }
      },
      {
        "type": "node",
        "id": 7817967703,
        "lat": 19.136124,
        "lon": 72.8487896,
        "tags": {
          "name": "Jogeshwari (Western Line)",
          "name:mr": "\u091c\u094b\u0917\u0947\u0936\u094d\u200d\u0935\u0930\u0940",
          "public_transport": "stop_position",
          "railway": "stop",
          "ref": "3",
          "train": "yes"
        }
      },
      {
        "type": "node",
        "id": 7944314140,
        "lat": 19.1164903,
        "lon": 72.8564764,
        "tags": {
          "air_conditioning": "yes",
          "amenity": "cinema",
          "name": "PVR Andheri",
          "screen": "1"
        }
      },
      {
        "type": "node",
        "id": 7944328628,
        "lat": 19.1138698,
        "lon": 72.8576914,
        "tags": {
          "amenity": "cinema",
          "name": "Mohan Studio"
        }
      },
      {
        "type": "node",
        "id": 9132708009,
        "lat": 19.1405068,
        "lon": 72.8540075,
        "tags": {
          "construction": "stop",
          "name": "JVLR Station",
          "public_transport": "stop_position",
          "railway": "construction",
          "subway": "yes"
        }
      },
      {
        "type": "node",
        "id": 9132708010,
        "lat": 19.1392202,
        "lon": 72.8618974,
        "tags": {
          "construction": "stop",
          "name": "Majas Depot Station",
          "public_transport": "stop_position",
          "railway": "construction",
          "subway": "yes"
        }
      },
      {
        "type": "node",
        "id": 10102658120,
        "lat": 19.1063277,
        "lon": 72.8631392,
        "tags": {
          "addr:street": "Om Nagar Road",
          "aeroway": "terminal",
          "name": "transline air cargo servics pvt ltd unit no 17",
          "name:en": "transline air cargo services pvt ltd unit no 17"
        }
      },
      {
        "type": "node",
        "id": 10576622687,
        "lat": 19.1145125,
        "lon": 72.8551556,
        "tags": {
          "name": "Gundavali",
          "name:mr": "\u0917\u0941\u0902\u0926\u0935\u0932\u0940",
          "public_transport": "station",
          "railway": "station",
          "station": "subway",
          "subway": "yes"
        }
      },
      {
        "type": "node",
        "id": 10576622691,
        "lat": 19.1145184,
        "lon": 72.8551326,
        "tags": {
          "name:mr": "\u0917\u0941\u0902\u0926\u0935\u0932\u0940",
          "name:ru": "\u0413\u0443\u043d\u0434\u0430\u0432\u0430\u043b\u0438",
          "public_transport": "stop_position",
          "railway": "stop",
          "subway": "yes"
        }
      },
      {
        "type": "node",
        "id": 10576622712,
        "lat": 19.1284364,
        "lon": 72.8554558,
        "tags": {
          "name": "Mogra",
          "name:mr": "\u092e\u094b\u0917\u0930\u093e",
          "public_transport": "station",
          "railway": "station",
          "station": "subway",
          "subway": "yes"
        }
      },
      {
        "type": "node",
        "id": 10576622721,
        "lat": 19.1429455,
        "lon": 72.855185,
        "tags": {
          "name": "Jogeshwari (East)",
          "name:mr": "\u091c\u094b\u0917\u0947\u0936\u094d\u0935\u0930\u0940 (\u092a\u0942\u0930\u094d\u0935)",
          "public_transport": "station",
          "railway": "station",
          "station": "subway",
          "subway": "yes"
        }
      },
      {
        "type": "node",
        "id": 10576622731,
        "lat": 19.1429467,
        "lon": 72.8551559,
        "tags": {
          "name": "Jogeshwari (East)",
          "name:mr": "\u091c\u094b\u0917\u0947\u0936\u094d\u0935\u0930\u0940 (\u092a\u0942\u0930\u094d\u0935)",
          "name:ru": "\u0414\u0436\u043e\u0433\u0435\u0448\u0432\u0430\u0440\u0438-\u0418\u0441\u0442",
          "public_transport": "stop_position",
          "railway": "stop",
          "subway": "yes"
        }
      },
      {
        "type": "node",
        "id": 10576622733,
        "lat": 19.1284504,
        "lon": 72.8554211,
        "tags": {
          "name": "Mogra",
          "name:mr": "\u092e\u094b\u0917\u0930\u093e",
          "name:ru": "\u041c\u043e\u0433\u0440\u0430",
          "public_transport": "stop_position",
          "railway": "stop",
          "subway": "yes"
        }
      },
      {
        "type": "node",
        "id": 10879528557,
        "lat": 19.1411522,
        "lon": 72.8494398,
        "tags": {
          "name": "Jogeshwari (Harbour Line)",
          "public_transport": "stop_position",
          "railway": "stop",
          "ref": "2",
          "train": "yes"
        }
      },
      {
        "type": "node",
        "id": 10879528558,
        "lat": 19.1411552,
        "lon": 72.8494019,
        "tags": {
          "name": "Jogeshwari (Harbour Line)",
          "public_transport": "stop_position",
          "railway": "stop",
          "ref": "1",
          "train": "yes"
        }
      },
      {
        "type": "node",
        "id": 11698425211,
        "lat": 19.1125194,
        "lon": 72.8648858,
        "tags": {
          "amenity": "theatre",
          "name": "Carnival Cinemas"
        }
      },
      {
        "type": "node",
        "id": 12074903233,
        "lat": 19.1082762,
        "lon": 72.8786939,
        "tags": {
          "name": "Marol Naka (Line 3)",
          "name:mr": "\u092e\u0930\u094b\u0933 \u0928\u093e\u0915\u093e",
          "network": "Mumbai Metro",
          "operator": "Mumbai Metro Rail Corporation Ltd",
          "public_transport": "stop_position",
          "railway": "stop",
          "subway": "yes"
        }
      },
      {
        "type": "node",
        "id": 12074903234,
        "lat": 19.1092629,
        "lon": 72.8784321,
        "tags": {
          "name": "Marol Naka (Line 3)",
          "name:mr": "\u092e\u0930\u094b\u0933 \u0928\u093e\u0915\u093e",
          "network": "Mumbai Metro",
          "operator": "Mumbai Metro Rail Corporation Ltd",
          "public_transport": "stop_position",
          "railway": "stop",
          "subway": "yes"
        }
      },
      {
        "type": "node",
        "id": 12074903235,
        "lat": 19.1174293,
        "lon": 72.873089,
        "tags": {
          "name": "MIDC - Andheri",
          "name:mr": "\u090f\u092e.\u0906\u092f.\u0921\u0940.\u0938\u0940. - \u0905\u0902\u0927\u0947\u0930\u0940",
          "network": "Mumbai Metro",
          "operator": "Mumbai Metro Rail Corporation Ltd",
          "public_transport": "stop_position",
          "railway": "stop",
          "subway": "yes"
        }
      },
      {
        "type": "node",
        "id": 12074903236,
        "lat": 19.1172867,
        "lon": 72.8742053,
        "tags": {
          "name": "MIDC - Andheri",
          "name:mr": "\u090f\u092e.\u0906\u092f.\u0921\u0940.\u0938\u0940. - \u0905\u0902\u0927\u0947\u0930\u0940",
          "network": "Mumbai Metro",
          "operator": "Mumbai Metro Rail Corporation Ltd",
          "public_transport": "stop_position",
          "railway": "stop",
          "subway": "yes"
        }
      },
      {
        "type": "node",
        "id": 12074903237,
        "lat": 19.1262254,
        "lon": 72.8737791,
        "tags": {
          "name": "SEEPZ",
          "name:mr": "\u0938\u0940\u092a\u094d\u091d",
          "network": "Mumbai Metro",
          "operator": "Mumbai Metro Rail Corporation Ltd",
          "public_transport": "stop_position",
          "railway": "stop",
          "subway": "yes"
        }
      },
      {
        "type": "node",
        "id": 12074903238,
        "lat": 19.1252898,
        "lon": 72.8732698,
        "tags": {
          "name": "SEEPZ",
          "name:mr": "\u0938\u0940\u092a\u094d\u091d",
          "network": "Mumbai Metro",
          "operator": "Mumbai Metro Rail Corporation Ltd",
          "public_transport": "stop_position",
          "railway": "stop",
          "subway": "yes"
        }
      },
      {
        "type": "node",
        "id": 12074903239,
        "lat": 19.1310462,
        "lon": 72.8841973,
        "tags": {
          "name": "Aarey JVLR",
          "name:mr": "\u0906\u0930\u0947 \u0915\u0949\u0932\u0928\u0940",
          "network": "Mumbai Metro",
          "operator": "Mumbai Metro Rail Corporation Ltd",
          "public_transport": "stop_position",
          "railway": "stop",
          "subway": "yes"
        }
      },
      {
        "type": "node",
        "id": 12074903240,
        "lat": 19.1310808,
        "lon": 72.8842091,
        "tags": {
          "name": "Aarey JVLR",
          "name:mr": "\u0906\u0930\u0947 \u0915\u0949\u0932\u0928\u0940",
          "network": "Mumbai Metro",
          "operator": "Mumbai Metro Rail Corporation Ltd",
          "public_transport": "stop_position",
          "railway": "stop",
          "subway": "yes"
        }
      },
      {
        "type": "node",
        "id": 12189351698,
        "lat": 19.1411537,
        "lon": 72.8494209,
        "tags": {
          "name": "Jogeshwari (Harbour Line)",
          "name:mr": "\u091c\u094b\u0917\u0947\u0936\u094d\u200d\u0935\u0930\u0940",
          "network": "Indian Railways",
          "operator": "Western Railway",
          "public_transport": "station",
          "railway": "station",
          "ref": "JOS",
          "train": "yes"
        }
      },
      {
        "type": "node",
        "id": 12189363305,
        "lat": 19.1361144,
        "lon": 72.848936,
        "tags": {
          "name": "Jogeshwari (Western Line)",
          "name:mr": "\u091c\u094b\u0917\u0947\u0936\u094d\u200d\u0935\u0930\u0940",
          "network": "Mumbai Suburban Railway",
          "network:wikidata": "Q3273422",
          "operator": "Western Railway",
          "public_transport": "station",
          "railway": "station",
          "ref": "JOS",
          "train": "yes"
        }
      },
      {
        "type": "node",
        "id": 12219587427,
        "lat": 19.1405541,
        "lon": 72.8539952,
        "tags": {
          "construction": "stop",
          "name": "JVLR Station",
          "public_transport": "stop_position",
          "railway": "construction",
          "subway": "yes"
        }
      },
      {
        "type": "node",
        "id": 12219587441,
        "lat": 19.1392678,
        "lon": 72.861908,
        "tags": {
          "construction": "stop",
          "name": "Majas Depot Station",
          "public_transport": "stop_position",
          "railway": "construction",
          "subway": "yes"
        }
      },
      {
        "type": "node",
        "id": 12219587475,
        "lat": 19.1334972,
        "lon": 72.8747294,
        "tags": {
          "construction": "stop",
          "name": "Mahakali Caves Station",
          "public_transport": "stop_position",
          "railway": "construction",
          "subway": "yes"
        }
      },
      {
        "type": "node",
        "id": 12219587493,
        "lat": 19.129412,
        "lon": 72.8826469,
        "tags": {
          "construction": "stop",
          "name": "SEEPZ Station",
          "public_transport": "stop_position",
          "railway": "construction",
          "subway": "yes"
        }
      },
      {
        "type": "node",
        "id": 12219587511,
        "lat": 19.1262483,
        "lon": 72.8905372,
        "tags": {
          "construction": "stop",
          "name": "Saki Vihar Road Station",
          "public_transport": "stop_position",
          "railway": "construction",
          "subway": "yes"
        }
      }
    ]
  }
}