{
  "pois_1km": {
    "version": 0.6,
    "generator": "Overpass API 0.7.62.8 e802775f",
    "osm3s": {
      "timestamp_osm_base": "2025-09-06T07:35:15Z",
      "copyright": "The data included in this document is from www.openstreetmap.org. The data is made available under ODbL."
    },
    "elements": [
      {
        "type": "node",
        "id": 605222666,
        "lat": 18.9413574,
        "lon": 72.8279067,
        "tags": {
          "amenity": "pharmacy",
          "healthcare": "pharmacy"
        }
      },
      {
        "type": "node",
        "id": 605222671,
        "lat": 18.9413117,
        "lon": 72.82766,
        "tags": {
          "amenity": "pharmacy",
          "healthcare": "pharmacy"
        }
      },
      {
        "type": "node",
        "id": 605222672,
        "lat": 18.9413633,
        "lon": 72.8275945,
        "tags": {
          "addr:city": "Mumbai",
          "addr:housename": "Kakkad Arcade",
          "addr:housenumber": "50, 51",
          "addr:postcode": "400020",
          "addr:street": "New Marine Lines",
          "amenity": "pharmacy",
          "healthcare": "pharmacy",
          "name": "Real Chemist"
        }
      },
      {
        "type": "node",
        "id": 662459670,
        "lat": 18.9340269,
        "lon": 72.8336071,
        "tags": {
          "amenity": "restaurant",
          "name": "Mahesh Lunch Home"
        }
      },
      {
        "type": "node",
        "id": 662459710,
        "lat": 18.9341607,
        "lon": 72.8337661,
        "tags": {
          "amenity": "restaurant",
          "name": "Mocambo Cafe"
        }
      },
      {
        "type": "node",
        "id": 662488867,
        "lat": 18.9348609,
        "lon": 72.8337017,
        "tags": {
          "amenity": "restaurant",
          "name": "On Toes Restobar",
          "source": "GPS"
        }
      },
      {
        "type": "node",
        "id": 669266128,
        "lat": 18.9321174,
        "lon": 72.8326369,
        "tags": {
          "name": "Akbarallys",
          "shop": "supermarket"
        }
      },
      {
        "type": "node",
        "id": 683777920,
        "lat": 18.9306421,
        "lon": 72.8323368,
        "tags": {
          "amenity": "restaurant",
          "name": "Ankur",
          "phone": "+91 22 2265 4194 / 2263 0393"
        }
      },
      {
        "type": "node",
        "id": 1056702147,
        "lat": 18.9339181,
        "lon": 72.8270274,
        "tags": {
          "amenity": "restaurant",
          "diet:vegetarian": "only",
          "microbrewery": "no",
          "name": "Samrat"
        }
      },
      {
        "type": "node",
        "id": 1286193467,
        "lat": 18.9348835,
        "lon": 72.8333857,
        "tags": {
          "amenity": "restaurant",
          "cuisine": "indian",
          "name": "Lalit"
        }
      },
      {
        "type": "node",
        "id": 1332567346,
        "lat": 18.9304651,
        "lon": 72.8264743,
        "tags": {
          "amenity": "cafe",
          "name": "210 C",
          "outdoor_seating": "yes"
        }
      },
      {
        "type": "node",
        "id": 1332567646,
        "lat": 18.9304448,
        "lon": 72.8265816,
        "tags": {
          "amenity": "restaurant",
          "name": "Samrat"
        }
      },
      {
        "type": "node",
        "id": 1332568045,
        "lat": 18.93036,
        "lon": 72.8265145,
        "tags": {
          "amenity": "restaurant",
          "name": "Relish"
        }
      },
      {
        "type": "node",
        "id": 1332576516,
        "lat": 18.9300109,
        "lon": 72.8265307,
        "tags": {
          "amenity": "atm",
          "brand": "HDFC Bank",
          "brand:wikidata": "Q631047",
          "operator": "HDFC Bank",
          "operator:wikidata": "Q631047",
          "short_name": "HDFC"
        }
      },
      {
        "type": "node",
        "id": 1332577679,
        "lat": 18.9300997,
        "lon": 72.8260774,
        "tags": {
          "amenity": "atm",
          "brand": "Bank of Baroda",
          "brand:wikidata": "Q2003797",
          "designation": "Bank of Baroda",
          "fee": "Bank of Baroda",
          "operator": "Bank of Baroda",
          "operator:wikidata": "Q2003797"
        }
      },
      {
        "type": "node",
        "id": 1973436454,
        "lat": 18.9345879,
        "lon": 72.8241026,
        "tags": {
          "addr:housename": "Jyoti Sadan",
          "addr:street": "Marine Drive",
          "amenity": "fast_food",
          "cuisine": "ice_cream",
          "name": "Natural Ice Cream",
          "source": "local_knowledge",
          "website": "https://naturalicecreams.in/"
        }
      },
      {
        "type": "node",
        "id": 2166760742,
        "lat": 18.93526,
        "lon": 72.83113,
        "tags": {
          "amenity": "fast_food",
          "name": "bhelwala"
        }
      },
      {
        "type": "node",
        "id": 2166796344,
        "lat": 18.9383276,
        "lon": 72.8327115,
        "tags": {
          "amenity": "bank",
          "brand": "Deutsche Bank",
          "brand:wikidata": "Q66048",
          "brand:wikipedia": "en:Deutsche Bank",
          "name": "Deutsche Bank"
        }
      },
      {
        "type": "node",
        "id": 2166796346,
        "lat": 18.9377203,
        "lon": 72.8331562,
        "tags": {
          "amenity": "bank",
          "brand": "Vijaya Bank",
          "brand:wikidata": "Q2003171",
          "brand:wikipedia": "en:Vijaya Bank",
          "name": "Vijaya Bank"
        }
      },
      {
        "type": "node",
        "id": 2166856495,
        "lat": 18.9323128,
        "lon": 72.8334299,
        "tags": {
          "addr:city": "Mumbai",
          "addr:street": "Veer Nariman Road",
          "amenity": "bank",
          "atm": "yes",
          "brand": "HSBC",
          "brand:wikidata": "Q190464",
          "name": "HSBC"
        }
      },
      {
        "type": "node",
        "id": 2168552195,
        "lat": 18.9325713,
        "lon": 72.8321546,
        "tags": {
          "amenity": "bank",
          "brand": "Standard Chartered",
          "brand:wikidata": "Q548278",
          "name": "Standard Chartered"
        }
      },
      {
        "type": "node",
        "id": 2168853713,
        "lat": 18.9336784,
        "lon": 72.8328438,
        "tags": {
          "amenity": "bank",
          "name": "Bank of Rajasthan"
        }
      },
      {
        "type": "node",
        "id": 2169130410,
        "lat": 18.9333406,
        "lon": 72.8315526,
        "tags": {
          "amenity": "bank",
          "name": "American Express Bank"
        }
      },
      {
        "type": "node",
        "id": 2189176387,
        "lat": 18.9365589,
        "lon": 72.833753,
        "tags": {
          "amenity": "bank",
          "atm": "yes",
          "brand": "Deutsche Bank",
          "brand:wikidata": "Q66048",
          "brand:wikipedia": "en:Deutsche Bank",
          "name": "Deutsche Bank"
        }
      },
      {
        "type": "node",
        "id": 2189176388,
        "lat": 18.9358085,
        "lon": 72.8334156,
        "tags": {
          "amenity": "bank",
          "atm": "yes",
          "brand": "ICICI Bank",
          "brand:wikidata": "Q1653258",
          "name": "ICICI Bank",
          "short_name": "ICICI"
        }
      },
      {
        "type": "node",
        "id": 3313013691,
        "lat": 18.9416893,
        "lon": 72.8281217,
        "tags": {
          "amenity": "restaurant",
          "cuisine": "pizza",
          "name": "Domminos"
        }
      },
      {
        "type": "node",
        "id": 3366103245,
        "lat": 18.9415002,
        "lon": 72.8275431,
        "tags": {
          "amenity": "restaurant",
          "name": "Liberty"
        }
      },
      {
        "type": "node",
        "id": 3366103247,
        "lat": 18.9414618,
        "lon": 72.827575,
        "tags": {
          "amenity": "restaurant",
          "name": "Shreeji Sagar"
        }
      },
      {
        "type": "node",
        "id": 4225072291,
        "lat": 18.9374108,
        "lon": 72.8331683,
        "tags": {
          "addr:street": "Wallace Street",
          "amenity": "cafe",
          "cuisine": "coffee_shop",
          "name": "Creeda Board Game Cafe",
          "opening_hours": "Mo-Su 12:00-22:00",
          "website": "https://www.creeda.in/"
        }
      },
      {
        "type": "node",
        "id": 4243911794,
        "lat": 18.9283144,
        "lon": 72.822326,
        "tags": {
          "addr:city": "Mumbai",
          "addr:postcode": "400021",
          "addr:street": "Vidhan Bhavan Road",
          "amenity": "restaurant",
          "cuisine": "international",
          "delivery": "yes",
          "name": "The Sassy Spoon",
          "smoking": "no",
          "takeaway": "no"
        }
      },
      {
        "type": "node",
        "id": 4454435389,
        "lat": 18.9425503,
        "lon": 72.8238866,
        "tags": {
          "amenity": "bank",
          "brand": "Axis Bank",
          "brand:wikidata": "Q2003549",
          "brand:wikipedia": "en:Axis Bank",
          "name": "Axis Bank",
          "name:en": "Axis Bank",
          "website": "https://www.axisbank.com"
        }
      },
      {
        "type": "node",
        "id": 4593013889,
        "lat": 18.9382784,
        "lon": 72.8332041,
        "tags": {
          "amenity": "restaurant",
          "cuisine": "grill;coffee_shop;asian;noodles;fish_and_chips;diner;chicken;italian_pizza;indian;curry;fish;french;friture;chinese;barbecue",
          "name:en": "The Goose and Gridiron"
        }
      },
      {
        "type": "node",
        "id": 4631640422,
        "lat": 18.9265768,
        "lon": 72.8227542,
        "tags": {
          "amenity": "restaurant",
          "name": "Ristorante Prego",
          "note": "source is an OSM note"
        }
      },
      {
        "type": "node",
        "id": 4663402394,
        "lat": 18.9330785,
        "lon": 72.8335542,
        "tags": {
          "addr:street": "Cawasji Patel Street",
          "amenity": "restaurant",
          "cuisine": "persian",
          "name:en": "Yazdani Restaurant & Bakery"
        }
      },
      {
        "type": "node",
        "id": 4678083190,
        "lat": 18.9332945,
        "lon": 72.8238813,
        "tags": {
          "addr:city": "Mumbai",
          "addr:housenumber": "143 Soona Mahal",
          "addr:postcode": "400020",
          "addr:street": "Veer Nariman Road",
          "air_conditioning": "yes",
          "amenity": "restaurant",
          "bar": "yes",
          "contact:facebook": "https://www.facebook.com/PizzaByTheBay/",
          "contact:instagram": "https://www.instagram.com/pbtbmumbai/",
          "contact:phone": "+91 22 2285 6115;+91 22 22843646;+91 22 22851876",
          "contact:tripadvisor": "https://www.tripadvisor.in/Restaurant_Review-g304554-d3206574-Reviews-Pizza_By_The_Bay-Mumbai_Maharashtra.html",
          "contact:twitter": "https://twitter.com/PBTBMumbai",
          "contact:website": "https://pizzabythebay.in/",
          "cuisine": "pizza;pasta;sandwich",
          "delivery": "yes",
          "diet:meat": "yes",
          "diet:vegetarian": "yes",
          "name": "Pizza By The Bay",
          "opening_hours": "Mo-Su 07:00-00:30",
          "smoking": "no",
          "takeaway": "yes"
        }
      },
      {
        "type": "node",
        "id": 5263970421,
        "lat": 18.9331887,
        "lon": 72.8335744,
        "tags": {
          "amenity": "fast_food",
          "name:en": "Yazdani Restaurant & bakery"
        }
      },
      {
        "type": "node",
        "id": 5304605321,
        "lat": 18.9381338,
        "lon": 72.8289414,
        "tags": {
          "amenity": "fast_food",
          "name:en": "Khau galli"
        }
      },
      {
        "type": "node",
        "id": 5331030022,
        "lat": 18.9310618,
        "lon": 72.8319436,
        "tags": {
          "amenity": "restaurant",
          "cuisine": "indian",
          "diet:vegetarian": "only",
          "name:en": "Welcome Restaurant - Pure veg"
        }
      },
      {
        "type": "node",
        "id": 5451047523,
        "lat": 18.9385871,
        "lon": 72.8328817,
        "tags": {
          "amenity": "restaurant",
          "cuisine": "chinese",
          "name:en": "Royal China"
        }
      },
      {
        "type": "node",
        "id": 5455875270,
        "lat": 18.9336991,
        "lon": 72.8325516,
        "tags": {
          "amenity": "restaurant",
          "name:en": "Taste of Malabar"
        }
      },
      {
        "type": "node",
        "id": 5776168799,
        "lat": 18.9306581,
        "lon": 72.8258945,
        "tags": {
          "amenity": "cafe",
          "cuisine": "tea",
          "name": "Tea Villa"
        }
      },
      {
        "type": "node",
        "id": 6283843988,
        "lat": 18.9339638,
        "lon": 72.8330447,
        "tags": {
          "amenity": "restaurant",
          "name:en": "Taste of Kerala"
        }
      },
      {
        "type": "node",
        "id": 6369776585,
        "lat": 18.9302963,
        "lon": 72.8314545,
        "tags": {
          "amenity": "restaurant",
          "name:en": "Kandeel"
        }
      },
      {
        "type": "node",
        "id": 7045277900,
        "lat": 18.9424725,
        "lon": 72.8239059,
        "tags": {
          "addr:district": "Mumbai",
          "addr:full": "Gobind Mahal ,1st Floor ,86-B , Subhash Road, Marine Drive",
          "addr:postcode": "400002",
          "addr:state": "Maharashtra",
          "amenity": "clinic",
          "healthcare": "clinic",
          "name": "Shroff Eye Clinic",
          "source": "OpenGovernmentData"
        }
      },
      {
        "type": "node",
        "id": 7047557038,
        "lat": 18.9358357,
        "lon": 72.8332373,
        "tags": {
          "addr:district": "Mumbai",
          "addr:full": "Navsari Bldg.240,Dr. D.N. Road",
          "addr:postcode": "400001",
          "addr:state": "Maharashtra",
          "amenity": "hospital",
          "healthcare": "hospital",
          "name": "Banaji Eyesurgery and Laser Center",
          "source": "OpenGovernmentData"
        }
      },
      {
        "type": "node",
        "id": 7072544657,
        "lat": 18.9353764,
        "lon": 72.8281197,
        "tags": {
          "addr:district": "Mumbai",
          "addr:full": "CGO Building, Maharshi Karve Road",
          "addr:postcode": "400020",
          "addr:state": "Maharashtra",
          "amenity": "clinic",
          "health_facility:type": "dispensary",
          "healthcare": "centre",
          "name": "CGHS Dispensary No.1, C.G.O.",
          "operator:type": "government",
          "source": "OpenGovernmentData",
          "website": "http://nb.bsf.gov.in/CGHS%20DIspenseries.pdf"
        }
      },
      {
        "type": "node",
        "id": 7072544668,
        "lat": 18.9415002,
        "lon": 72.8278414,
        "tags": {
          "addr:district": "Mumbai",
          "addr:full": "3-D, Kakad House, 11, 3rd Floor, Opposite Liberty Cinema, Vithaldas Thackersey Marg, New Marine Lines",
          "addr:postcode": "400020",
          "addr:state": "Maharashtra",
          "amenity": "hospital",
          "healthcare": "hospital",
          "name": "Zain Eye Care",
          "source": "OpenGovernmentData",
          "website": "http://zaineyecare.net/"
        }
      },
      {
        "type": "node",
        "id": 7213603557,
        "lat": 18.9434146,
        "lon": 72.8249106,
        "tags": {
          "amenity": "restaurant",
          "cuisine": "indian",
          "name": "Gughan Veg"
        }
      },
      {
        "type": "node",
        "id": 7226426885,
        "lat": 18.9326943,
        "lon": 72.8274808,
        "tags": {
          "amenity": "cafe",
          "name:en": "Markiv's"
        }
      },
      {
        "type": "node",
        "id": 7278871285,
        "lat": 18.9428088,
        "lon": 72.8270686,
        "tags": {
          "addr:housenumber": "88/94",
          "addr:street": "Anandilal Podar Marg",
          "amenity": "fast_food",
          "cuisine": "pizza;burger;pasta;kebab;sandwich",
          "name:en": "Savera Fast Food"
        }
      },
      {
        "type": "node",
        "id": 7279928198,
        "lat": 18.9265268,
        "lon": 72.8226361,
        "tags": {
          "addr:city": "Mumbai",
          "addr:housenumber": "CR2 Mall",
          "addr:postcode": "400021",
          "addr:street": "Barrister Rajni Patel Marg",
          "amenity": "food_court",
          "diet:meat": "yes",
          "diet:vegetarian": "yes",
          "internet_access": "yes",
          "internet_access:fee": "no",
          "name": "Eleven Kitchens",
          "opening_hours": "Mo-Su 11:00-22:00",
          "outdoor_seating": "no",
          "smoking": "no"
        }
      },
      {
        "type": "node",
        "id": 7279928199,
        "lat": 18.9265167,
        "lon": 72.8226603,
        "tags": {
          "addr:city": "Mumbai",
          "addr:housenumber": "CR2 Mall",
          "addr:postcode": "400021",
          "addr:street": "Barrister Rajni Patel Marg",
          "air_conditioning": "yes",
          "amenity": "restaurant",
          "bar": "yes",
          "cuisine": "pizza;salad;salads;dessert;pasta;italian;italian_pizza",
          "name": "Jamie's Pizzeria",
          "opening_hours": "Mo-Su 10:30-23:00",
          "outdoor_seating": "no",
          "phone": "+91 22 6666 8971",
          "smoking": "no"
        }
      },
      {
        "type": "node",
        "id": 7293746571,
        "lat": 18.9311988,
        "lon": 72.8316669,
        "tags": {
          "addr:city": "Mumbai",
          "addr:housenumber": "57 Fort, opp. HSBC Bank",
          "addr:postcode": "400023",
          "addr:street": "Mahatma Gandhi Road",
          "air_conditioning": "yes",
          "amenity": "restaurant",
          "cuisine": "italian;thai;chinese;seafood;salad;salads;soup;sandwich;dessert;tea;coffee",
          "delivery": "yes",
          "diet:gluten_free": "yes",
          "diet:meat": "yes",
          "diet:vegan": "yes",
          "diet:vegetarian": "yes",
          "name": "Fountain Sizzlers",
          "opening_hours": "Mo-Su 12:00-23:30",
          "outdoor_seating": "no",
          "phone": "+91 22 40647777",
          "smoking": "no"
        }
      },
      {
        "type": "node",
        "id": 7944300038,
        "lat": 18.9401785,
        "lon": 72.8283196,
        "tags": {
          "amenity": "cafe",
          "brand": "Cafe Coffee Day",
          "brand:wikidata": "Q5017235",
          "brand:wikipedia": "en:Caf\u00e9 Coffee Day",
          "cuisine": "coffee_shop",
          "name": "Cafe Coffee Day",
          "takeaway": "yes"
        }
      },
      {
        "type": "node",
        "id": 9574698658,
        "lat": 18.9427789,
        "lon": 72.8269322,
        "tags": {
          "amenity": "restaurant",
          "name": "Sassanian"
        }
      },
      {
        "type": "node",
        "id": 9574721718,
        "lat": 18.9307521,
        "lon": 72.8320601,
        "tags": {
          "amenity": "restaurant",
          "name": "Cafe Military"
        }
      },
      {
        "type": "node",
        "id": 9660370773,
        "lat": 18.9263944,
        "lon": 72.8227893,
        "tags": {
          "addr:city": "Mumbai",
          "addr:housenumber": "18 CR2 Mall",
          "addr:postcode": "400021",
          "addr:street": "Barrister Rajni Patel Marg",
          "air_conditioning": "yes",
          "amenity": "cafe",
          "cuisine": "coffee_shop",
          "indoor_seating": "yes",
          "internet_access": "yes",
          "internet_access:fee": "yes",
          "name": "Blue Tokai Coffee | Nariman Point",
          "opening_hours": "Mo-Su 07:30-2030",
          "phone": "+9193249 54178",
          "website": "https://bluetokaicoffee.com/"
        }
      },
      {
        "type": "node",
        "id": 9918827615,
        "lat": 18.9296368,
        "lon": 72.827438,
        "tags": {
          "addr:city": "Mumbai",
          "addr:housenumber": "123",
          "addr:postcode": "400020",
          "addr:street": "Dinshaw Wachha Road",
          "amenity": "bank",
          "brand": "Bank of Baroda",
          "brand:wikidata": "Q2003797",
          "name": "Bank of Baroda",
          "opening_hours": "Mo-Fr 10:00-17:00"
        }
      },
      {
        "type": "node",
        "id": 9918837074,
        "lat": 18.929549,
        "lon": 72.8274022,
        "tags": {
          "addr:city": "Mumbai",
          "addr:housenumber": "123",
          "addr:postcode": "400020",
          "addr:street": "Dinshaw Wachha Road",
          "amenity": "bank",
          "atm": "yes",
          "brand": "Bank of Baroda",
          "brand:wikidata": "Q2003797",
          "drive_through": "no",
          "name": "Bank of Baroda",
          "opening_hours": "Mo-Fr 10:00-17:00; Sa-Su off",
          "phone": "18002584455",
          "website": "www.bankofbaroda.in"
        }
      },
      {
        "type": "node",
        "id": 9918846975,
        "lat": 18.9295514,
        "lon": 72.8274013,
        "tags": {
          "addr:city": "Mumbai",
          "addr:housenumber": "123",
          "addr:postcode": "400020",
          "addr:street": "Dinshaw Wachha Road",
          "amenity": "bank",
          "atm": "yes",
          "brand": "Bank of Baroda",
          "brand:wikidata": "Q2003797",
          "name": "Bank of Baroda",
          "opening_hours": "Mo-Su 10:00-17:00"
        }
      },
      {
        "type": "node",
        "id": 10220801717,
        "lat": 18.9329648,
        "lon": 72.8260903,
        "tags": {
          "addr:housenumber": "80",
          "addr:postcode": "400020",
          "addr:street": "Veer Nariman Road",
          "amenity": "restaurant",
          "name": "Gaylord",
          "name:en": "Gaylord"
        }
      },
      {
        "type": "node",
        "id": 10223815018,
        "lat": 18.9439618,
        "lon": 72.8254403,
        "tags": {
          "addr:housenumber": "318",
          "addr:postcode": "400002",
          "addr:street": "Dr Cawasji Hormusji Street",
          "amenity": "fast_food",
          "cuisine": "burger",
          "name:en": "Good Flipping\u2018 Burgers"
        }
      },
      {
        "type": "node",
        "id": 10538686290,
        "lat": 18.929437,
        "lon": 72.8247288,
        "tags": {
          "leisure": "park",
          "name": "sk park"
        }
      },
      {
        "type": "node",
        "id": 10538700178,
        "lat": 18.9291169,
        "lon": 72.826709,
        "tags": {
          "amenity": "fast_food",
          "name": "Raju Rolls"
        }
      },
      {
        "type": "node",
        "id": 10689842805,
        "lat": 18.9321391,
        "lon": 72.8332851,
        "tags": {
          "amenity": "restaurant",
          "name:en": "Amazing sandwiches"
        }
      },
      {
        "type": "node",
        "id": 10695142870,
        "lat": 18.9334992,
        "lon": 72.8259734,
        "tags": {
          "amenity": "restaurant",
          "cuisine": "indian",
          "name": "Shiv Sagar"
        }
      },
      {
        "type": "node",
        "id": 10797139905,
        "lat": 18.9318159,
        "lon": 72.8315526,
        "tags": {
          "addr:housenumber": "145",
          "addr:postcode": "400001",
          "addr:street": "Mahatma Gandhi Road",
          "amenity": "restaurant",
          "name:en": "Khyber",
          "website": "https://khyberrestaurant.com/"
        }
      },
      {
        "type": "node",
        "id": 11142925399,
        "lat": 18.9301808,
        "lon": 72.8272259,
        "tags": {
          "amenity": "atm",
          "brand": "Axis Bank",
          "brand:wikidata": "Q2003549",
          "currency:INR": "yes",
          "operator": "Axis Bank",
          "operator:wikidata": "Q2003549"
        }
      },
      {
        "type": "node",
        "id": 11142934544,
        "lat": 18.9301607,
        "lon": 72.8270943,
        "tags": {
          "air_conditioning": "yes",
          "amenity": "bank",
          "atm": "yes",
          "brand": "Axis Bank",
          "brand:wikidata": "Q2003549",
          "drive_through": "no",
          "name": "Axis Bank",
          "opening_hours": "Mo-Fr 09:00-18:00;Mo-Sa 08:00-18:00"
        }
      },
      {
        "type": "node",
        "id": 11142981415,
        "lat": 18.9300623,
        "lon": 72.8261892,
        "tags": {
          "amenity": "cafe",
          "brand": "Starbucks",
          "brand:wikidata": "Q37158",
          "cuisine": "coffee_shop",
          "name": "Starbucks",
          "official_name": "Starbucks Coffee",
          "takeaway": "yes"
        }
      },
      {
        "type": "node",
        "id": 11145671977,
        "lat": 18.9294782,
        "lon": 72.827528,
        "tags": {
          "air_conditioning": "yes",
          "name": "Nature Basket",
          "shop": "supermarket"
        }
      },
      {
        "type": "node",
        "id": 11456147262,
        "lat": 18.9328119,
        "lon": 72.8268738,
        "tags": {
          "amenity": "restaurant",
          "name": "Nksha"
        }
      },
      {
        "type": "node",
        "id": 11456248703,
        "lat": 18.9321506,
        "lon": 72.8280275,
        "tags": {
          "amenity": "cafe",
          "name": "The Beer Cafe"
        }
      },
      {
        "type": "node",
        "id": 11609857374,
        "lat": 18.9317938,
        "lon": 72.8330496,
        "tags": {
          "amenity": "restaurant",
          "name": "anna idli"
        }
      },
      {
        "type": "node",
        "id": 12551327203,
        "lat": 18.9339344,
        "lon": 72.8269804,
        "tags": {
          "addr:postcode": "400020",
          "addr:street": "Scarsdale Street",
          "amenity": "fast_food",
          "brand": "Burger King",
          "brand:wikidata": "Q177054",
          "cuisine": "burger",
          "drive_through": "no",
          "name": "Burger King",
          "takeaway": "yes"
        }
      },
      {
        "type": "node",
        "id": 12848348712,
        "lat": 18.9317064,
        "lon": 72.8319248,
        "tags": {
          "amenity": "cafe",
          "cuisine": "coffee_shop",
          "name": "Nandan Coffee"
        }
      }
    ]
  },
  "pois_2_5km": {
    "version": 0.6,
    "generator": "Overpass API 0.7.62.8 e802775f",
    "osm3s": {
      "timestamp_osm_base": "2025-09-06T07:35:15Z",
      "copyright": "The data included in this document is from www.openstreetmap.org. The data is made available under ODbL."
    },
    "elements": [
      {
        "type": "node",
        "id": 316306549,
        "lat": 18.9406037,
        "lon": 72.8350795,
        "tags": {
          "level": "0",
          "name": "Mumbai CSMT (Suburban)",
          "official_name": "Mumbai Chhatrapati Shivaji Maharaj Terminus (Suburban)",
          "public_transport": "stop_position",
          "railway": "stop",
          "ref": "1",
          "source": "Esri World imagery (2024-09-14)",
          "tactile_paving": "yes",
          "train": "yes"
        }
      },
      {
        "type": "node",
        "id": 527987828,
        "lat": 18.9520361,
        "lon": 72.8179252,
        "tags": {
          "name": "Charni Road",
          "name:hi": "\u091a\u0930\u094d\u0928\u0940 \u0930\u094b\u0921",
          "network": "WR",
          "operator": "IR",
          "public_transport": "stop_position",
          "railway": "stop",
          "train": "yes"
        }
      },
      {
        "type": "node",
        "id": 528079150,
        "lat": 18.9527932,
        "lon": 72.8168508,
        "tags": {
          "name": "Charni Road",
          "name:hi": "\u091a\u0930\u094d\u0928\u0940 \u0930\u094b\u0921",
          "network": "WR",
          "operator": "IR",
          "public_transport": "stop_position",
          "railway": "stop",
          "train": "yes"
        }
      },
      {
        "type": "node",
        "id": 528082473,
        "lat": 18.9521256,
        "lon": 72.818007,
        "tags": {
          "name": "Charni Road",
          "name:hi": "\u091a\u0930\u094d\u0928\u0940 \u0930\u094b\u0921",
          "network": "WR",
          "operator": "IR",
          "public_transport": "stop_position",
          "railway": "stop",
          "train": "yes"
        }
      },
      {
        "type": "node",
        "id": 528082558,
        "lat": 18.9520922,
        "lon": 72.8179808,
        "tags": {
          "name": "Charni Road",
          "name:hi": "\u091a\u0930\u094d\u0928\u0940 \u0930\u094b\u0921",
          "network": "WR",
          "operator": "IR",
          "public_transport": "stop_position",
          "railway": "stop",
          "train": "yes"
        }
      },
      {
        "type": "node",
        "id": 528115484,
        "lat": 18.9465849,
        "lon": 72.8230857,
        "tags": {
          "local_ref": "2",
          "name": "Marine Lines",
          "name:hi": "\u092e\u0930\u0940\u0928 \u0932\u093e\u0907\u0928\u094d\u0938",
          "network": "WR",
          "operator": "IR",
          "public_transport": "stop_position",
          "railway": "stop",
          "train": "yes"
        }
      },
      {
        "type": "node",
        "id": 528115491,
        "lat": 18.9465688,
        "lon": 72.8230534,
        "tags": {
          "local_ref": "1",
          "name": "Marine Lines",
          "name:hi": "\u092e\u0930\u0940\u0928 \u0932\u093e\u0907\u0928\u094d\u0938",
          "network": "WR",
          "operator": "IR",
          "public_transport": "stop_position",
          "railway": "stop",
          "train": "yes"
        }
      },
      {
        "type": "node",
        "id": 619293646,
        "lat": 18.9406335,
        "lon": 72.8353869,
        "tags": {
          "level": "0",
          "name": "Mumbai CSMT (Suburban)",
          "official_name": "Mumbai Chhatrapati Shivaji Maharaj Terminus (Suburban)",
          "public_transport": "stop_position",
          "railway": "stop",
          "ref": "4",
          "source": "Esri World imagery (2024-09-14)",
          "tactile_paving": "yes",
          "train": "yes"
        }
      },
      {
        "type": "node",
        "id": 619293660,
        "lat": 18.9527822,
        "lon": 72.8381832,
        "tags": {
          "name": "Masjid",
          "public_transport": "stop_position",
          "railway": "stop",
          "ref": "3",
          "train": "yes"
        }
      },
      {
        "type": "node",
        "id": 621906366,
        "lat": 18.9527837,
        "lon": 72.8380527,
        "tags": {
          "name": "Masjid",
          "public_transport": "stop_position",
          "railway": "stop",
          "ref": "1",
          "train": "yes"
        }
      },
      {
        "type": "node",
        "id": 621948374,
        "lat": 18.9343947,
        "lon": 72.8272055,
        "tags": {
          "local_ref": "1",
          "name": "Churchgate",
          "name:hi": "\u091a\u0930\u094d\u091a\u0917\u0947\u091f",
          "public_transport": "stop_position",
          "railway": "stop",
          "ref": "CCG",
          "train": "yes"
        }
      },
      {
        "type": "node",
        "id": 666064621,
        "lat": 18.9367891,
        "lon": 72.8396991,
        "tags": {
          "amenity": "fuel",
          "brand": "Bharat Petroleum",
          "brand:wikidata": "Q854826",
          "name": "Bharat Petroleum",
          "operator": "Bharat Petroleum",
          "source": "GPS"
        }
      },
      {
        "type": "node",
        "id": 669259757,
        "lat": 18.9245934,
        "lon": 72.8325192,
        "tags": {
          "amenity": "cinema",
          "name": "Regal Cinema"
        }
      },
      {
        "type": "node",
        "id": 870449150,
        "lat": 18.9229191,
        "lon": 72.8345228,
        "tags": {
          "amenity": "ferry_terminal",
          "ferry": "yes",
          "name": "Gateway of India - Mandwa Rewas Ferry Terminal",
          "public_transport": "station"
        }
      },
      {
        "type": "node",
        "id": 870449764,
        "lat": 18.9217835,
        "lon": 72.8347226,
        "tags": {
          "amenity": "ferry_terminal",
          "ferry": "yes",
          "name": "Gateway of India - Elephanta Island ferry service",
          "name:ar": "\u0628\u0648\u0627\u0628\u0629 \u0627\u0644\u0647\u0646\u062f",
          "name:zh": "\u5370\u5ea6\u95e8 - \u8c61\u5c9b\u6e21\u8f6e\u7ad9",
          "public_transport": "station"
        }
      },
      {
        "type": "node",
        "id": 1234805938,
        "lat": 18.9408204,
        "lon": 72.836017,
        "tags": {
          "level": "0",
          "name": "Mumbai CSMT (Suburban)",
          "official_name": "Mumbai Chhatrapati Shivaji Maharaj Terminus (Suburban)",
          "public_transport": "stop_position",
          "railway": "stop",
          "ref": "9",
          "source": "Esri World imagery (2024-09-14)",
          "tactile_paving": "yes",
          "train": "yes"
        }
      },
      {
        "type": "node",
        "id": 1234805948,
        "lat": 18.94081,
        "lon": 72.8359068,
        "tags": {
          "level": "0",
          "name": "Mumbai CSMT (Suburban)",
          "official_name": "Mumbai Chhatrapati Shivaji Maharaj Terminus (Suburban)",
          "public_transport": "stop_position",
          "railway": "stop",
          "ref": "8",
          "source": "Esri World imagery (2024-09-14)",
          "tactile_paving": "yes",
          "train": "yes"
        }
      },
      {
        "type": "node",
        "id": 1234815591,
        "lat": 18.9408811,
        "lon": 72.8362973,
        "tags": {
          "name": "CSMT",
          "public_transport": "stop_position",
          "railway": "stop",
          "ref": "CSTM:11",
          "train": "yes"
        }
      },
      {
        "type": "node",
        "id": 1234815595,
        "lat": 18.9417555,
        "lon": 72.8367595,
        "tags": {
          "name": "CSMT",
          "public_transport": "stop_position",
          "railway": "stop",
          "ref": "CSTM:15",
          "train": "yes"
        }
      },
      {
        "type": "node",
        "id": 1234815598,
        "lat": 18.9408763,
        "lon": 72.8361599,
        "tags": {
          "name": "CSMT",
          "public_transport": "stop_position",
          "railway": "stop",
          "ref": "CSTM:10",
          "train": "yes"
        }
      },
      {
        "type": "node",
        "id": 1234815616,
        "lat": 18.9452282,
        "lon": 72.8376755,
        "tags": {
          "name": "CSMT",
          "public_transport": "stop_position",
          "railway": "stop",
          "ref": "16",
          "train": "yes"
        }
      },
      {
        "type": "node",
        "id": 1234823928,
        "lat": 18.9406221,
        "lon": 72.8352693,
        "tags": {
          "level": "0",
          "name": "Mumbai CSMT (Suburban)",
          "official_name": "Mumbai Chhatrapati Shivaji Maharaj Terminus (Suburban)",
          "public_transport": "stop_position",
          "railway": "stop",
          "ref": "3",
          "source": "Esri World imagery (2024-09-14)",
          "tactile_paving": "yes",
          "train": "yes"
        }
      },
      {
        "type": "node",
        "id": 1236334975,
        "lat": 18.9344455,
        "lon": 72.8275534,
        "tags": {
          "local_ref": "4",
          "name": "Churchgate",
          "name:hi": "\u091a\u0930\u094d\u091a\u0917\u0947\u091f",
          "public_transport": "stop_position",
          "railway": "stop",
          "ref": "CCG",
          "train": "yes"
        }
      },
      {
        "type": "node",
        "id": 1236335031,
        "lat": 18.9344286,
        "lon": 72.8274374,
        "tags": {
          "local_ref": "3",
          "name": "Churchgate",
          "name:hi": "\u091a\u0930\u094d\u091a\u0917\u0947\u091f",
          "public_transport": "stop_position",
          "railway": "stop",
          "ref": "CCG",
          "train": "yes"
        }
      },
      {
        "type": "node",
        "id": 1236335056,
        "lat": 18.9344117,
        "lon": 72.8273215,
        "tags": {
          "local_ref": "2",
          "name": "Churchgate",
          "name:hi": "\u091a\u0930\u094d\u091a\u0917\u0947\u091f",
          "public_transport": "stop_position",
          "railway": "stop",
          "ref": "CCG",
          "train": "yes"
        }
      },
      {
        "type": "node",
        "id": 1236410131,
        "lat": 18.9466312,
        "lon": 72.8231784,
        "tags": {
          "local_ref": "3",
          "name": "Marine Lines",
          "name:hi": "\u092e\u0930\u0940\u0928 \u0932\u093e\u0907\u0928\u094d\u0938",
          "network": "WR",
          "operator": "IR",
          "public_transport": "stop_position",
          "railway": "stop",
          "train": "yes"
        }
      },
      {
        "type": "node",
        "id": 1236410240,
        "lat": 18.9466502,
        "lon": 72.8232164,
        "tags": {
          "local_ref": "4",
          "name": "Marine Lines",
          "name:hi": "\u092e\u0930\u0940\u0928 \u0932\u093e\u0907\u0928\u094d\u0938",
          "network": "WR",
          "operator": "IR",
          "public_transport": "stop_position",
          "railway": "stop",
          "train": "yes"
        }
      },
      {
        "type": "node",
        "id": 1236589832,
        "lat": 18.935965,
        "lon": 72.8406767,
        "tags": {
          "amenity": "fuel",
          "cmt": "14-FEB-10 15:55:59",
          "description": "14-FEB-10 15:55:59",
          "ele": "18.150513",
          "name": "Fuel",
          "source": "GPS",
          "sym": "Gas Station"
        }
      },
      {
        "type": "node",
        "id": 1332570741,
        "lat": 18.9322385,
        "lon": 72.8279388,
        "tags": {
          "amenity": "cinema",
          "name": "Eros Cinema"
        }
      },
      {
        "type": "node",
        "id": 1541857832,
        "lat": 18.9267067,
        "lon": 72.8273901,
        "tags": {
          "amenity": "fuel",
          "brand": "Hindustan Petroleum",
          "brand:wikidata": "Q1619375",
          "name": "HP",
          "official_name": "Hindustan Petroleum",
          "operator": "Bharat Petroleum"
        }
      },
      {
        "type": "node",
        "id": 2166796345,
        "lat": 18.9376728,
        "lon": 72.8332185,
        "tags": {
          "addr:postcode": "400001",
          "addr:street": "Amit Keshav Nayak Marg",
          "amenity": "cinema",
          "name": "New Excelsior Cinema",
          "name:de": "New Excelsior Cinema",
          "name:en": "New Excelsior Cinema",
          "phone": "022 2207 3830"
        }
      },
      {
        "type": "node",
        "id": 2166817451,
        "lat": 18.9406445,
        "lon": 72.8355003,
        "tags": {
          "level": "0",
          "name": "Mumbai CSMT (Suburban)",
          "official_name": "Mumbai Chhatrapati Shivaji Maharaj Terminus (Suburban)",
          "public_transport": "stop_position",
          "railway": "stop",
          "ref": "5",
          "source": "Esri World imagery (2024-09-14)",
          "tactile_paving": "yes",
          "train": "yes"
        }
      },
      {
        "type": "node",
        "id": 2166817452,
        "lat": 18.9406128,
        "lon": 72.8351737,
        "tags": {
          "level": "0",
          "name": "Mumbai CSMT (Suburban)",
          "official_name": "Mumbai Chhatrapati Shivaji Maharaj Terminus (Suburban)",
          "public_transport": "stop_position",
          "railway": "stop",
          "ref": "2",
          "source": "Esri World imagery (2024-09-14)",
          "tactile_paving": "yes",
          "train": "yes"
        }
      },
      {
        "type": "node",
        "id": 2166817453,
        "lat": 18.9406523,
        "lon": 72.8355803,
        "tags": {
          "level": "0",
          "name": "Mumbai CSMT (Suburban)",
          "official_name": "Mumbai Chhatrapati Shivaji Maharaj Terminus (Suburban)",
          "public_transport": "stop_position",
          "railway": "stop",
          "ref": "6",
          "source": "Esri World imagery (2024-09-14)",
          "tactile_paving": "yes",
          "train": "yes"
        }
      },
      {
        "type": "node",
        "id": 2166865878,
        "lat": 18.9341053,
        "lon": 72.8324982,
        "tags": {
          "name": "Hutatma Chowk/Siddharth College",
          "public_transport": "station",
          "ref": "01091"
        }
      },
      {
        "type": "node",
        "id": 2166865879,
        "lat": 18.9342003,
        "lon": 72.8325717,
        "tags": {
          "name": "Hutatma Chowk/Siddharth College",
          "public_transport": "station",
          "ref": "01090"
        }
      },
      {
        "type": "node",
        "id": 2175658375,
        "lat": 18.9408662,
        "lon": 72.8364907,
        "tags": {
          "name": "CSMT",
          "public_transport": "stop_position",
          "railway": "stop",
          "ref": "CSTM:13",
          "train": "yes"
        }
      },
      {
        "type": "node",
        "id": 2175658376,
        "lat": 18.9408787,
        "lon": 72.8363407,
        "tags": {
          "name": "CSMT",
          "public_transport": "stop_position",
          "railway": "stop",
          "ref": "CSTM:12",
          "train": "yes"
        }
      },
      {
        "type": "node",
        "id": 2175658385,
        "lat": 18.9417671,
        "lon": 72.8366107,
        "tags": {
          "name": "CSMT",
          "public_transport": "stop_position",
          "railway": "stop",
          "ref": "CSTM:14",
          "train": "yes"
        }
      },
      {
        "type": "node",
        "id": 2175658439,
        "lat": 18.9451809,
        "lon": 72.837865,
        "tags": {
          "name": "CSMT",
          "public_transport": "stop_position",
          "railway": "stop",
          "ref": "18",
          "train": "yes"
        }
      },
      {
        "type": "node",
        "id": 2175658440,
        "lat": 18.9451945,
        "lon": 72.8378123,
        "tags": {
          "name": "CSMT",
          "public_transport": "stop_position",
          "railway": "stop",
          "ref": "17",
          "train": "yes"
        }
      },
      {
        "type": "node",
        "id": 2175658444,
        "lat": 18.9452855,
        "lon": 72.8374542,
        "tags": {
          "name": "CSMT",
          "public_transport": "stop_position",
          "railway": "stop",
          "ref": "15",
          "train": "yes"
        }
      },
      {
        "type": "node",
        "id": 2175658446,
        "lat": 18.9453265,
        "lon": 72.837319,
        "tags": {
          "name": "CSMT",
          "public_transport": "stop_position",
          "railway": "stop",
          "ref": "14",
          "train": "yes"
        }
      },
      {
        "type": "node",
        "id": 2176850501,
        "lat": 18.9527822,
        "lon": 72.8381561,
        "tags": {
          "name": "Masjid",
          "public_transport": "stop_position",
          "railway": "stop",
          "ref": "2",
          "train": "yes"
        }
      },
      {
        "type": "node",
        "id": 2177554643,
        "lat": 18.9376489,
        "lon": 72.8343146,
        "tags": {
          "name": "Khadi Bhandar",
          "public_transport": "station",
          "ref": "01114"
        }
      },
      {
        "type": "node",
        "id": 2629682524,
        "lat": 18.9331079,
        "lon": 72.8285954,
        "tags": {
          "amenity": "bus_station",
          "bus": "yes",
          "name": "Churchgate",
          "public_transport": "station"
        }
      },
      {
        "type": "node",
        "id": 2630075002,
        "lat": 18.9518437,
        "lon": 72.8182401,
        "tags": {
          "IR:zone": "WR:CCG",
          "ele": "9",
          "internet_access": "no",
          "name": "Charni Road",
          "name:hi": "\u091a\u0930\u094d\u0928\u0940 \u0930\u094b\u0921",
          "name:ml": "\u0d1a\u0d7c\u0d23\u0d3f \u0d31\u0d4b\u0d21\u0d4d",
          "name:mr": "\u091a\u0930\u094d\u0928\u0940 \u0930\u094b\u0921",
          "network": "Mumbai Suburban Railway",
          "network:wikidata": "Q3273422",
          "operator": "WR",
          "public_transport": "station",
          "railway": "station",
          "ref": "CYR",
          "start_date": "1867",
          "train": "yes",
          "wikidata": "Q5121186",
          "wikipedia": "en:Charni Road railway station"
        }
      },
      {
        "type": "node",
        "id": 2630075006,
        "lat": 18.945764,
        "lon": 72.8237193,
        "tags": {
          "IR:zone": "WR:CCG",
          "ele": "7",
          "internet_access": "no",
          "name": "Marine Lines",
          "name:hi": "\u092e\u0930\u0940\u0928 \u0932\u093e\u0907\u0928\u094d\u0938",
          "name:ml": "\u0d2e\u0d31\u0d48\u0d7b \u0d32\u0d48\u0d7b\u0d38\u0d4d",
          "name:mr": "\u092e\u0930\u0940\u0928 \u0932\u093e\u0907\u0928\u094d\u0938",
          "network": "Mumbai Suburban Railway",
          "network:wikidata": "Q3273422",
          "operator": "WR",
          "public_transport": "station",
          "railway": "station",
          "ref": "MEL",
          "start_date": "1867",
          "train": "yes",
          "wikidata": "Q6764160",
          "wikipedia": "en:Marine Lines railway station"
        }
      },
      {
        "type": "node",
        "id": 3306535083,
        "lat": 18.9243367,
        "lon": 72.8328758,
        "tags": {
          "amenity": "fuel",
          "brand": "Bharat Petroleum",
          "brand:wikidata": "Q854826",
          "compressed_air": "yes",
          "name": "Bharat Petroleum"
        }
      },
      {
        "type": "node",
        "id": 3306535086,
        "lat": 18.9543825,
        "lon": 72.8149815,
        "tags": {
          "bus": "yes",
          "public_transport": "stop_position"
        }
      },
      {
        "type": "node",
        "id": 3501418269,
        "lat": 18.9527773,
        "lon": 72.8382858,
        "tags": {
          "name": "Masjid",
          "public_transport": "stop_position",
          "railway": "stop",
          "ref": "4",
          "train": "yes"
        }
      },
      {
        "type": "node",
        "id": 4260136290,
        "lat": 18.9354797,
        "lon": 72.8271741,
        "tags": {
          "IR:zone": "WR:CCG",
          "internet_access": "wlan",
          "name": "Churchgate",
          "name:hi": "\u091a\u0930\u094d\u091a\u0917\u0947\u091f",
          "name:ml": "\u0d1a\u0d7c\u0d1a\u0d4d\u0d1a\u0d4d\u0d17\u0d47\u0d31\u0d4d\u0d31\u0d4d",
          "name:mr": "\u091a\u0930\u094d\u091a\u0917\u0947\u091f",
          "name:zh": "\u6559\u5802\u95e8\u603b\u7ad9",
          "network": "Mumbai Suburban Railway",
          "network:wikidata": "Q3273422",
          "old_ref": "C",
          "operator": "WR",
          "public_transport": "station",
          "railway": "station",
          "ref": "CCG",
          "start_date": "1867-04-12",
          "train": "yes",
          "wikidata": "Q5118143",
          "wikipedia": "en:Churchgate railway station"
        }
      },
      {
        "type": "node",
        "id": 4362556096,
        "lat": 18.9253281,
        "lon": 72.8204171,
        "tags": {
          "amenity": "theatre",
          "name": "Little Theatre"
        }
      },
      {
        "type": "node",
        "id": 4695310999,
        "lat": 18.9384231,
        "lon": 72.8329457,
        "tags": {
          "amenity": "cinema",
          "name:de": "Sterling",
          "name:en": "Sterling Theatre",
          "wikidata": "Q7611381",
          "wikipedia": "en:Sterling Cineplex"
        }
      },
      {
        "type": "node",
        "id": 4844675131,
        "lat": 18.9558692,
        "lon": 72.8325809,
        "tags": {
          "amenity": "fuel",
          "brand": "Indian Oil",
          "brand:wikidata": "Q1289348",
          "name": "Indian Oil",
          "name:en": "Indian oil"
        }
      },
      {
        "type": "node",
        "id": 5091222622,
        "lat": 18.953846,
        "lon": 72.8163006,
        "tags": {
          "amenity": "fuel",
          "brand": "Bharat Petroleum",
          "brand:wikidata": "Q854826",
          "name": "Bharat Petroleum"
        }
      },
      {
        "type": "node",
        "id": 5174623523,
        "lat": 18.9536132,
        "lon": 72.8370396,
        "tags": {
          "amenity": "bus_station",
          "bus": "yes",
          "public_transport": "station"
        }
      },
      {
        "type": "node",
        "id": 5174656421,
        "lat": 18.9536931,
        "lon": 72.8370631,
        "tags": {
          "amenity": "bus_station",
          "bus": "yes",
          "public_transport": "station"
        }
      },
      {
        "type": "node",
        "id": 10257874073,
        "lat": 18.9209635,
        "lon": 72.8305483,
        "tags": {
          "amenity": "bus_station",
          "bus": "yes",
          "name": "Colaba Bus Depot",
          "public_transport": "station"
        }
      },
      {
        "type": "node",
        "id": 11456230010,
        "lat": 18.9378435,
        "lon": 72.8274982,
        "tags": {
          "amenity": "fuel",
          "brand": "Bharat Petroleum",
          "brand:wikidata": "Q854826",
          "name": "Bharat Petroleum"
        }
      },
      {
        "type": "node",
        "id": 12171122260,
        "lat": 18.9522949,
        "lon": 72.8381771,
        "tags": {
          "internet_access": "no",
          "name": "Masjid",
          "name:hi": "\u092e\u0938\u094d\u091c\u093f\u0926",
          "name:ml": "\u0d2e\u0d38\u0d4d\u0d1c\u0d3f\u0d26\u0d4d",
          "name:mr": "\u092e\u0938\u094d\u091c\u093f\u0926",
          "name:ur": "\u0645\u0633\u062c\u062f",
          "network": "IR",
          "operator": "CR",
          "public_transport": "station",
          "railway": "station",
          "ref": "MSD",
          "train": "yes",
          "wikidata": "Q12445809",
          "wikipedia": "en:Masjid railway station"
        }
      },
      {
        "type": "node",
        "id": 12176277888,
        "lat": 18.9404925,
        "lon": 72.8357856,
        "tags": {
          "addr:city": "Mumbai",
          "addr:postcode": "400001",
          "addr:street": "Dr Dadabhai Naoroji Road",
          "internet_access": "wlan",
          "internet_access:ssid": "RailWire Wi-Fi",
          "name": "Mumbai CSMT",
          "name:hi": "\u092e\u0941\u0902\u092c\u0908 \u0938\u0940\u090f\u0938\u090f\u092e\u091f\u0940",
          "name:ur": "\u0645\u0645\u0628\u0626\u06cc \u0633\u06cc \u0627\u06cc\u0633 \u0627\u06cc\u0645 \u0679\u06cc \u0679\u0631\u0645\u06cc\u0646\u0644",
          "network": "CR",
          "operator": "Central Railway",
          "public_transport": "station",
          "railway": "station",
          "ref": "CSMT",
          "train": "yes",
          "wheelchair": "yes",
          "wikidata": "Q235884",
          "wikipedia": "en:Chhatrapati Shivaji Terminus railway station"
        }
      },
      {
        "type": "node",
        "id": 12176277892,
        "lat": 18.9408905,
        "lon": 72.8357077,
        "tags": {
          "level": "0",
          "name": "Mumbai CSMT (Suburban)",
          "official_name": "Mumbai Chhatrapati Shivaji Maharaj Terminus (Suburban)",
          "public_transport": "stop_position",
          "railway": "stop",
          "ref": "7",
          "source": "Esri World imagery (2024-09-14)",
          "tactile_paving": "yes",
          "train": "yes"
        }
      },
      {
        "type": "node",
        "id": 12299107686,
        "lat": 18.926054,
        "lon": 72.8331427,
        "tags": {
          "amenity": "theatre",
          "name": "Childrens Museum Amphitheathre"
        }
      },
      {
        "type": "node",
        "id": 13039612521,
        "lat": 18.944006,
        "lon": 72.8232477,
        "tags": {
          "amenity": "fuel",
          "name": "IndianOil",
          "name:en": "IndianOil",
          "name:mr": "\u092a\u0947\u091f\u094d\u0930\u094b\u0932 \u092a\u0902\u092a"
        }
      },
      {
        "type": "node",
        "id": 13112030001,
        "lat": 18.9552767,
        "lon": 72.816446,
        "tags": {
          "addr:housenumber": "5th",
          "addr:postcode": "400004",
          "addr:street": "Tata Road 2",
          "amenity": "theatre",
          "level": "0",
          "name": "Roxy Cinemas",
          "phone": "093241 28520",
          "website": "http://www.muktaa2cinemas.com"
        }
      }
    ]
  }
}