{
  "pois_1km": {
    "version": 0.6,
    "generator": "Overpass API 0.7.62.8 e802775f",
    "osm3s": {
      "timestamp_osm_base": "2025-09-06T07:31:15Z",
      "copyright": "The data included in this document is from www.openstreetmap.org. The data is made available under ODbL."
    },
    "elements": [
      {
        "type": "node",
        "id": 1437244163,
        "lat": 19.1036656,
        "lon": 72.826663,
        "tags": {
          "addr:housename": "Kings Apt",
          "addr:postcode": "400049",
          "addr:street": "Juhu Tara Road",
          "amenity": "restaurant",
          "contact:instagram": "maheshlunchhome_mumbai",
          "cuisine": "seafood",
          "name": "Mahesh Lunch Home",
          "name:en": "Mahesh Lunch Home"
        }
      },
      {
        "type": "node",
        "id": 1697439343,
        "lat": 19.1145973,
        "lon": 72.8275004,
        "tags": {
          "brand": "Shoppers Stop",
          "brand:wikidata": "Q7501155",
          "name": "Shoppers Stop",
          "shop": "department_store"
        }
      },
      {
        "type": "node",
        "id": 1803648461,
        "lat": 19.1057759,
        "lon": 72.826406,
        "tags": {
          "amenity": "cafe",
          "name": "Poetry",
          "name:en": "Poetry"
        }
      },
      {
        "type": "node",
        "id": 1803653587,
        "lat": 19.1055629,
        "lon": 72.8263957,
        "tags": {
          "amenity": "cafe",
          "cuisine": "sandwich",
          "name": "Kitchen Garden",
          "name:en": "Kitchen Garden"
        }
      },
      {
        "type": "node",
        "id": 1803681421,
        "lat": 19.1069056,
        "lon": 72.826255,
        "tags": {
          "amenity": "restaurant",
          "cuisine": "italian",
          "name": "Alfredo's",
          "wifi": "no"
        }
      },
      {
        "type": "node",
        "id": 2025969633,
        "lat": 19.1035347,
        "lon": 72.8316244,
        "tags": {
          "name": "Sahakari Bhandar",
          "shop": "supermarket"
        }
      },
      {
        "type": "node",
        "id": 2131147318,
        "lat": 19.1156681,
        "lon": 72.8302638,
        "tags": {
          "amenity": "atm",
          "brand": "Standard Chartered",
          "brand:wikidata": "Q548278",
          "operator": "Standard Chartered",
          "operator:wikidata": "Q548278"
        }
      },
      {
        "type": "node",
        "id": 2368204850,
        "lat": 19.1123097,
        "lon": 72.829182,
        "tags": {
          "amenity": "bank",
          "brand": "ICICI",
          "brand:wikidata": "Q1653258",
          "name": "ICICI Bank",
          "name:en": "ICICI Bank",
          "short_name": "ICICI",
          "website": "https://www.icicibank.com",
          "wikidata": "Q1653258",
          "wikipedia": "en:ICICI Bank"
        }
      },
      {
        "type": "node",
        "id": 2391804809,
        "lat": 19.1062054,
        "lon": 72.825633,
        "tags": {
          "addr:housename": "Prithvi Theatre",
          "addr:housenumber": "20",
          "addr:postcode": "400049",
          "addr:street": "Janki Kutir Juhu Church Road, Mumbai",
          "amenity": "cafe",
          "name": "Prithvi Cafe",
          "website": "www.prithvitheatre.org"
        }
      },
      {
        "type": "node",
        "id": 2633884923,
        "lat": 19.1101036,
        "lon": 72.8273819,
        "tags": {
          "amenity": "restaurant",
          "cuisine": "chinese",
          "name": "Facing East",
          "name:en": "Facing East"
        }
      },
      {
        "type": "node",
        "id": 2718678717,
        "lat": 19.1006024,
        "lon": 72.8275259,
        "tags": {
          "addr:city": "Mumbai",
          "addr:street": "Juhu Tara road",
          "amenity": "cafe",
          "brand": "Starbucks",
          "brand:pa": "\u0a38\u0a1f\u0a3e\u0a30\u0a2c\u0a15\u0a38",
          "brand:ur": "\u0627\u0633\u0679\u0627\u0631\u0628\u06a9\u0633",
          "brand:wikidata": "Q37158",
          "brand:wikipedia": "en:Starbucks",
          "cuisine": "coffee_shop",
          "internet_access": "wlan",
          "name": "Starbucks",
          "name:pa": "\u0a38\u0a1f\u0a3e\u0a30\u0a2c\u0a15\u0a38",
          "name:ur": "\u0627\u0633\u0679\u0627\u0631\u0628\u06a9\u0633",
          "official_name": "Starbucks Coffee",
          "official_name:pa": "\u0a38\u0a1f\u0a3e\u0a30\u0a2c\u0a15\u0a38 \u0a15\u0a4c\u0a2b\u0a40",
          "official_name:ur": "\u0627\u0633\u0679\u0627\u0631\u0628\u06a9\u0633 \u06a9\u0627\u0641\u06cc",
          "opening_hours": "Mo-Su 07:00-01:00",
          "smoking": "no",
          "takeaway": "yes",
          "website": "https://www.starbucks.in/"
        }
      },
      {
        "type": "node",
        "id": 3021741492,
        "lat": 19.1129321,
        "lon": 72.8256368,
        "tags": {
          "addr:street": "Gandhi Gram Rd",
          "amenity": "restaurant",
          "cuisine": "indian",
          "name": "Dakshinayan",
          "opening_hours": "Mo-Fr 11:00-23:00; Sa, Su 08:00-23:00",
          "phone": "+91-26208812",
          "wifi": "no"
        }
      },
      {
        "type": "node",
        "id": 3190127198,
        "lat": 19.1146924,
        "lon": 72.8312422,
        "tags": {
          "amenity": "restaurant",
          "name": "Goa Bhavan"
        }
      },
      {
        "type": "node",
        "id": 3195592887,
        "lat": 19.1111725,
        "lon": 72.8297487,
        "tags": {
          "amenity": "bank",
          "brand": "Union Bank of India",
          "brand:wikidata": "Q2004078",
          "brand:wikipedia": "en:Union Bank of India",
          "name": "Union Bank of India",
          "name:en": "Union Bank of India",
          "short_name": "UBI",
          "website": "https://www.unionbankofindia.co.in/"
        }
      },
      {
        "type": "node",
        "id": 3201090477,
        "lat": 19.1143522,
        "lon": 72.8306408,
        "tags": {
          "amenity": "bank",
          "atm": "yes",
          "brand:wikidata": "Q2003387",
          "brand:wikipedia": "en:Corporation Bank",
          "name": "Corporation Bank",
          "name:en": "Corporation Bank",
          "website": "https://corpbank.com/"
        }
      },
      {
        "type": "node",
        "id": 4998848423,
        "lat": 19.1117839,
        "lon": 72.8283425,
        "tags": {
          "addr:district": "Mumbai",
          "addr:full": "N. S. Road No. 13, Juhu Scheme, Vile Parle (W), Nxt To Utpal Sanghvi School",
          "addr:postcode": "400049",
          "addr:state": "Maharashtra",
          "addr:street": "N S Road No. 13",
          "amenity": "hospital",
          "healthcare": "hospital",
          "name": "Bharatiya Arogya Nidhi Sheth Kantilal C. Parikh General Hospital",
          "name:en": "Bharatiya Arogya Nidhi Sheth Kantilal C. Parikh General Hospital",
          "opening_hours": "24/7",
          "phone": "02226206021",
          "source": "OpenGovernmentData"
        }
      },
      {
        "type": "node",
        "id": 7043071384,
        "lat": 19.1065285,
        "lon": 72.8297109,
        "tags": {
          "addr:district": "Mumbai",
          "addr:full": "101,Hiralaya,N.S.Road No.10,Laxmikant Chowk,Jvpd Scheme,Vile Parle(W)",
          "addr:postcode": "400049",
          "addr:state": "Maharashtra",
          "amenity": "doctors",
          "healthcare": "doctor",
          "healthcare:speciality": "ophthalmology",
          "name": "The Vission Eye Center",
          "name:en": "The Vission Eye Center",
          "source": "OpenGovernmentData"
        }
      },
      {
        "type": "node",
        "id": 7045692380,
        "lat": 19.1051056,
        "lon": 72.8292194,
        "tags": {
          "addr:district": "Mumbai",
          "addr:full": "2, Ashok Nagar Society, North South Road No-11, Juhu-Scheme",
          "addr:postcode": "400049",
          "addr:state": "Maharashtra",
          "amenity": "clinic",
          "healthcare": "clinic",
          "name": "Dr.Daftarys Total Care Clinic",
          "source": "OpenGovernmentData"
        }
      },
      {
        "type": "node",
        "id": 7320270232,
        "lat": 19.1008959,
        "lon": 72.8278252,
        "tags": {
          "addr:city": "Mumbai",
          "addr:postcode": "400049",
          "addr:street": "Khwaja Ahman Abbas Marg",
          "brand": "Nature's Basket",
          "brand:wikidata": "Q28174237",
          "brand:wikipedia": "en:Nature's Basket",
          "name": "Nature's Basket",
          "opening_hours": "Mo-Su 08:00-22:00",
          "organic": "yes",
          "shop": "supermarket",
          "website": "https://www.naturesbasket.co.in/"
        }
      },
      {
        "type": "node",
        "id": 7663961397,
        "lat": 19.10982,
        "lon": 72.82763,
        "tags": {
          "addr:district": "Mumbai Suburban",
          "addr:full": "Bus Terminus, North South Road, Opp Juhu, Vithal Nagar, Juhu, Mumbai",
          "addr:postcode": "400049",
          "addr:state": "Maharastra",
          "amenity": "hospital",
          "name": "Lotus Eye Hospital",
          "source": "Local Knowledge"
        }
      },
      {
        "type": "node",
        "id": 11372185940,
        "lat": 19.1009916,
        "lon": 72.8274055,
        "tags": {
          "amenity": "restaurant",
          "cuisine": "indian",
          "name": "Copper Chimney",
          "name:en": "Copper Chimney",
          "website": "https://www.copperchimney.in/"
        }
      },
      {
        "type": "node",
        "id": 11372185953,
        "lat": 19.1009998,
        "lon": 72.8271228,
        "tags": {
          "amenity": "bank",
          "brand": "HSBC",
          "brand:wikidata": "Q190464",
          "name": "HSBC"
        }
      },
      {
        "type": "node",
        "id": 11372185966,
        "lat": 19.1026933,
        "lon": 72.8270756,
        "tags": {
          "amenity": "restaurant",
          "cuisine": "indian",
          "diet:vegetarian": "yes",
          "name": "The Class Thali"
        }
      },
      {
        "type": "node",
        "id": 11372229080,
        "lat": 19.1032478,
        "lon": 72.8270016,
        "tags": {
          "amenity": "restaurant",
          "cuisine": "lebanese",
          "name": "Hit n Run",
          "name:en": "Hit n Run"
        }
      },
      {
        "type": "node",
        "id": 11372229081,
        "lat": 19.103975,
        "lon": 72.8269819,
        "tags": {
          "amenity": "atm",
          "brand": "State Bank of India",
          "brand:wikidata": "Q1340361",
          "name": "State Bank of India",
          "operator": "State Bank of India",
          "operator:wikidata": "Q1340361",
          "short_name": "SBI"
        }
      },
      {
        "type": "node",
        "id": 11383288463,
        "lat": 19.116209,
        "lon": 72.8292168,
        "tags": {
          "amenity": "restaurant",
          "cuisine": "indian",
          "name": "Orange City Saoji",
          "name:en": "Orange City Saoji"
        }
      },
      {
        "type": "node",
        "id": 11383288464,
        "lat": 19.1144966,
        "lon": 72.8273784,
        "tags": {
          "amenity": "cafe",
          "brand": "Cafe Coffee Day",
          "brand:wikidata": "Q5017235",
          "cuisine": "coffee_shop",
          "name": "Cafe Coffee Day",
          "takeaway": "yes"
        }
      },
      {
        "type": "node",
        "id": 11383288492,
        "lat": 19.1092531,
        "lon": 72.825488,
        "tags": {
          "amenity": "restaurant",
          "name": "Tanatan"
        }
      },
      {
        "type": "node",
        "id": 11383288499,
        "lat": 19.1105073,
        "lon": 72.8267161,
        "tags": {
          "addr:city": "Mumbai",
          "addr:postcode": "400049",
          "addr:street": "Juhu Church Road",
          "amenity": "pharmacy",
          "healthcare": "pharmacy",
          "name": "Bafna Medical and General Stores",
          "name:en": "Bafna Medical and General Stores"
        }
      },
      {
        "type": "node",
        "id": 11383288502,
        "lat": 19.1104653,
        "lon": 72.8267123,
        "tags": {
          "addr:city": "Mumbai",
          "addr:postcode": "400049",
          "addr:street": "Juhu Church Road",
          "amenity": "pharmacy",
          "healthcare": "pharmacy",
          "name": "Welcome Medical & General Stores",
          "name:en": "Welcome Medical & General Stores"
        }
      },
      {
        "type": "node",
        "id": 11426725354,
        "lat": 19.1112723,
        "lon": 72.8267434,
        "tags": {
          "amenity": "cafe",
          "name": "Love and Latte"
        }
      },
      {
        "type": "node",
        "id": 11426734333,
        "lat": 19.1113189,
        "lon": 72.8267365,
        "tags": {
          "amenity": "restaurant",
          "name": "Punjab da Chulah"
        }
      },
      {
        "type": "node",
        "id": 11426738528,
        "lat": 19.1092999,
        "lon": 72.8254856,
        "tags": {
          "amenity": "restaurant",
          "name": "Yeda Republic"
        }
      },
      {
        "type": "node",
        "id": 11426738573,
        "lat": 19.1090188,
        "lon": 72.825643,
        "tags": {
          "amenity": "restaurant",
          "name": "R-Adda"
        }
      },
      {
        "type": "node",
        "id": 11609368066,
        "lat": 19.1059439,
        "lon": 72.8260163,
        "tags": {
          "addr:housenumber": "27",
          "addr:street": "Juhu Church Rd",
          "amenity": "cafe",
          "name": "Third Wave Coffee",
          "phone": "+91-9620951522",
          "smoking": "no",
          "website": "https://www.thirdwavecoffeeroasters.com/"
        }
      },
      {
        "type": "node",
        "id": 11893277046,
        "lat": 19.1050473,
        "lon": 72.8272483,
        "tags": {
          "amenity": "atm",
          "brand": "State Bank of India",
          "brand:wikidata": "Q1340361",
          "name": "State Bank of India",
          "operator": "State Bank of India",
          "operator:wikidata": "Q1340361",
          "short_name": "SBI"
        }
      },
      {
        "type": "node",
        "id": 11893277047,
        "lat": 19.1050357,
        "lon": 72.8273119,
        "tags": {
          "amenity": "bank",
          "brand": "State Bank of India",
          "brand:wikidata": "Q1340361",
          "name": "State Bank of India",
          "short_name": "SBI"
        }
      },
      {
        "type": "node",
        "id": 11901164005,
        "lat": 19.1044476,
        "lon": 72.8275487,
        "tags": {
          "amenity": "bank",
          "brand": "Standard Chartered",
          "brand:wikidata": "Q548278",
          "name": "Standard Chartered"
        }
      },
      {
        "type": "node",
        "id": 12840112469,
        "lat": 19.1048979,
        "lon": 72.825748,
        "tags": {
          "amenity": "cafe",
          "check_date": "2025-05-15",
          "name": "Ananda Cafe",
          "name:en": "Ananda Cafe",
          "name:mr": "\u0906\u0928\u0902\u0926\u093e \u0915\u0945\u092b\u0947"
        }
      },
      {
        "type": "node",
        "id": 12842089420,
        "lat": 19.1051583,
        "lon": 72.8297145,
        "tags": {
          "amenity": "bank",
          "brand": "IndusInd Bank",
          "brand:wikidata": "Q2040323",
          "name": "IndusInd Bank"
        }
      },
      {
        "type": "node",
        "id": 12842089421,
        "lat": 19.105206,
        "lon": 72.8297155,
        "tags": {
          "amenity": "atm",
          "brand": "IndusInd Bank",
          "brand:wikidata": "Q2040323",
          "name": "IndusInd Bank",
          "opening_hours": "24/7",
          "operator": "IndusInd Bank",
          "operator:wikidata": "Q2040323"
        }
      },
      {
        "type": "node",
        "id": 12842089450,
        "lat": 19.1090668,
        "lon": 72.8266355,
        "tags": {
          "amenity": "fast_food",
          "brand": "Smokin' Joe's",
          "brand:wikidata": "Q7546011",
          "cuisine": "pizza",
          "drive_through": "no",
          "name": "Smokin' Joe's",
          "phone": "+91 74000 96763;+91 74000 96764",
          "takeaway": "yes"
        }
      },
      {
        "type": "node",
        "id": 12848913116,
        "lat": 19.1056028,
        "lon": 72.8264423,
        "tags": {
          "amenity": "cafe",
          "brand": "Starbucks",
          "brand:wikidata": "Q37158",
          "cuisine": "coffee_shop",
          "internet_access": "wlan",
          "name": "Starbucks",
          "official_name": "Starbucks Coffee",
          "opening_hours": "Mo-Su 07:00-01:00",
          "outdoor_seating": "no",
          "smoking": "no",
          "takeaway": "yes"
        }
      },
      {
        "type": "node",
        "id": 12848913147,
        "lat": 19.1059803,
        "lon": 72.8263775,
        "tags": {
          "level": "0",
          "name": "Intop",
          "name:en": "Intop",
          "name:hi": "\u0907\u0928\u091f\u0949\u092a",
          "name:mr": "\u0907\u0928\u091f\u0949\u092a",
          "shop": "supermarket"
        }
      },
      {
        "type": "node",
        "id": 12848913148,
        "lat": 19.1062253,
        "lon": 72.8263444,
        "tags": {
          "amenity": "cafe",
          "name": "Earth Cafe",
          "name:en": "Earth Cafe"
        }
      },
      {
        "type": "node",
        "id": 12848913150,
        "lat": 19.1063637,
        "lon": 72.8262954,
        "tags": {
          "amenity": "cafe",
          "email": "bayleafcafejuhu@gmail.com",
          "name": "Bayleaf Cafe",
          "name:en": "Bayleaf Cafe",
          "name:mr": "\u092c\u0947\u0932\u0940\u092b \u0915\u0945\u092b\u0947",
          "website": "https://bayleafcafe.in/"
        }
      },
      {
        "type": "node",
        "id": 12848913176,
        "lat": 19.1066701,
        "lon": 72.8263295,
        "tags": {
          "amenity": "pharmacy",
          "healthcare": "pharmacy",
          "name": "Noble Plus",
          "name:en": "Noble Plus"
        }
      },
      {
        "type": "node",
        "id": 12848913181,
        "lat": 19.1068421,
        "lon": 72.826219,
        "tags": {
          "amenity": "restaurant",
          "name": "Thyme & Whisk",
          "name:en": "Thyme & Whisk"
        }
      },
      {
        "type": "node",
        "id": 12848913190,
        "lat": 19.1075053,
        "lon": 72.8262957,
        "tags": {
          "amenity": "cafe",
          "cuisine": "bubble_tea",
          "name": "Easy Boba",
          "name:en": "Easy Boba",
          "name:mr": "\u0907\u091c\u0940 \u092c\u094b\u092c\u093e"
        }
      },
      {
        "type": "node",
        "id": 12848913195,
        "lat": 19.1077436,
        "lon": 72.8266224,
        "tags": {
          "amenity": "fast_food",
          "name": "BEST Canteen",
          "name:en": "BEST Canteen",
          "name:mr": "\u092c\u0947\u0938\u094d\u091f \u0915\u0945\u0902\u091f\u0940\u0928"
        }
      },
      {
        "type": "node",
        "id": 12848913220,
        "lat": 19.1070288,
        "lon": 72.8268071,
        "tags": {
          "amenity": "pharmacy",
          "healthcare": "pharmacy",
          "name": "Vidya Chemist",
          "name:en": "Vidya Chemist",
          "name:hi": "\u0935\u093f\u0926\u094d\u092f\u093e \u0915\u0947\u092e\u093f\u0938\u094d\u091f",
          "name:mr": "\u0935\u093f\u0926\u094d\u092f\u093e \u0915\u0947\u092e\u093f\u0938\u094d\u091f"
        }
      },
      {
        "type": "node",
        "id": 12849292008,
        "lat": 19.1021456,
        "lon": 72.8263265,
        "tags": {
          "amenity": "atm",
          "brand": "Kotak Mahindra Bank",
          "brand:wikidata": "Q2040404",
          "drive_through": "no",
          "level": "0",
          "name": "Kotak Mahindra Bank",
          "operator": "Kotak Mahindra Bank",
          "operator:wikidata": "Q2040404"
        }
      },
      {
        "type": "node",
        "id": 12849292009,
        "lat": 19.1020902,
        "lon": 72.8262901,
        "tags": {
          "amenity": "restaurant",
          "cuisine": "indian",
          "level": "-1",
          "name": "Saffron",
          "name:en": "Saffron"
        }
      },
      {
        "type": "node",
        "id": 12849292011,
        "lat": 19.1021465,
        "lon": 72.8260475,
        "tags": {
          "amenity": "restaurant",
          "level": "0",
          "name": "Mezzo Mezzo",
          "name:en": "Mezzo Mezzo",
          "name:mr": "\u092e\u0947\u091d\u094d\u091d\u094b \u092e\u0947\u091d\u094d\u091d\u094b"
        }
      },
      {
        "type": "node",
        "id": 12849292012,
        "lat": 19.1019078,
        "lon": 72.8263912,
        "tags": {
          "air_conditioning": "yes",
          "amenity": "cafe",
          "level": "-1",
          "name": "Lotus Cafe",
          "name:en": "Lotus Cafe",
          "outdoor_seating": "no"
        }
      },
      {
        "type": "node",
        "id": 13082483660,
        "lat": 19.1106859,
        "lon": 72.8297957,
        "tags": {
          "amenity": "bank",
          "brand": "Indian Bank",
          "brand:wikidata": "Q2003789",
          "name": "Indian Bank"
        }
      },
      {
        "type": "node",
        "id": 13082483661,
        "lat": 19.1105845,
        "lon": 72.8297978,
        "tags": {
          "amenity": "atm",
          "brand": "Indian Bank",
          "brand:wikidata": "Q2003789",
          "operator": "Indian Bank",
          "operator:wikidata": "Q2003789"
        }
      },
      {
        "type": "node",
        "id": 13083940725,
        "lat": 19.1161914,
        "lon": 72.827983,
        "tags": {
          "amenity": "restaurant",
          "name": "The Nines",
          "name:en": "The Nines",
          "name:mr": "\u0926 \u0928\u093e\u0908\u0928\u094d\u0938"
        }
      }
    ]
  },
  "pois_2_5km": {
    "version": 0.6,
    "generator": "Overpass API 0.7.62.8 e802775f",
    "osm3s": {
      "timestamp_osm_base": "2025-09-06T07:31:15Z",
      "copyright": "The data included in this document is from www.openstreetmap.org. The data is made available under ODbL."
    },
    "elements": [
      {
        "type": "node",
        "id": 621276256,
        "lat": 19.1000028,
        "lon": 72.8439266,
        "tags": {
          "name": "Vile Parle",
          "name:en": "Vile Parle",
          "name:mr": "\u0935\u093f\u0932\u0947 \u092a\u093e\u0930\u094d\u0932\u0947",
          "public_transport": "stop_position",
          "railway": "stop",
          "ref": "3",
          "train": "yes"
        }
      },
      {
        "type": "node",
        "id": 623881914,
        "lat": 19.1281782,
        "lon": 72.8308125,
        "tags": {
          "name": "D. N. Nagar",
          "name:mr": "\u0921\u0940. \u090f\u0928. \u0928\u0917\u0930",
          "name:ru": "\u0414\u0430\u0434\u0430\u0431\u0445\u0430\u0439 \u041d\u0430\u043e\u0440\u043e\u0434\u0436\u0438 \u041d\u0430\u0433\u0430\u0440",
          "network": "Mumbai Metro",
          "operator": "MMRDA",
          "public_transport": "stop_position",
          "railway": "stop",
          "subway": "yes"
        }
      },
      {
        "type": "node",
        "id": 623881991,
        "lat": 19.1302777,
        "lon": 72.8213871,
        "tags": {
          "name": "Versova",
          "name:mr": "\u0935\u0930\u094d\u0938\u094b\u0935\u093e",
          "name:ru": "\u0412\u0435\u0440\u0441\u043e\u0432\u0430",
          "network": "Mumbai Metro",
          "operator": "MMRDA",
          "public_transport": "stop_position",
          "railway": "stop",
          "subway": "yes"
        }
      },
      {
        "type": "node",
        "id": 1241793068,
        "lat": 19.09544,
        "lon": 72.8660044,
        "tags": {
          "aeroway": "terminal",
          "ele": "15.747192",
          "name": "Cargo Terminal",
          "source": "GPS",
          "sym": "Civil"
        }
      },
      {
        "type": "node",
        "id": 1697438559,
        "lat": 19.1148228,
        "lon": 72.8275031,
        "tags": {
          "addr:street": "Parulekar Road",
          "amenity": "cinema",
          "brand": "PVR Cinemas",
          "brand:wikidata": "Q3359908",
          "name": "PVR Juhu",
          "short_name": "PVR"
        }
      },
      {
        "type": "node",
        "id": 2630075010,
        "lat": 19.0999098,
        "lon": 72.8440038,
        "tags": {
          "ele": "10",
          "internet_access": "no",
          "name": "Vile Parle",
          "name:hi": "\u0935\u093f\u0932\u0947 \u092a\u093e\u0930\u094d\u0932\u0947",
          "name:mr": "\u0935\u093f\u0932\u0947 \u092a\u093e\u0930\u094d\u0932\u0947",
          "network": "Mumbai Suburban Railway",
          "network:wikidata": "Q3273422",
          "operator": "WR",
          "public_transport": "station",
          "railway": "station",
          "ref": "VLP",
          "train": "yes",
          "wikidata": "Q7930143",
          "wikipedia": "en:Vile Parle railway station"
        }
      },
      {
        "type": "node",
        "id": 2909184659,
        "lat": 19.1284058,
        "lon": 72.8295743,
        "tags": {
          "name": "D. N. Nagar",
          "name:mr": "\u0921\u0940. \u090f\u0928. \u0928\u0917\u0930",
          "name:ru": "\u0414\u0430\u0434\u0430\u0431\u0445\u0430\u0439 \u041d\u0430\u043e\u0440\u043e\u0434\u0436\u0438 \u041d\u0430\u0433\u0430\u0440",
          "network": "Mumbai Metro",
          "operator": "MMRDA",
          "public_transport": "stop_position",
          "railway": "stop",
          "subway": "yes"
        }
      },
      {
        "type": "node",
        "id": 2909186525,
        "lat": 19.1302339,
        "lon": 72.8213762,
        "tags": {
          "name": "Versova",
          "name:mr": "\u0935\u0930\u094d\u0938\u094b\u0935\u093e",
          "name:ru": "\u0412\u0435\u0440\u0441\u043e\u0432\u0430",
          "network": "Mumbai Metro",
          "operator": "MMRDA",
          "public_transport": "stop_position",
          "railway": "stop",
          "subway": "yes"
        }
      },
      {
        "type": "node",
        "id": 2913172821,
        "lat": 19.1270227,
        "lon": 72.8370213,
        "tags": {
          "name": "Azad Nagar",
          "name:mr": "\u0906\u091d\u093e\u0926 \u0928\u0917\u0930",
          "name:ru": "\u0410\u0437\u0430\u0434 \u041d\u0430\u0433\u0430\u0440",
          "network": "Mumbai Metro",
          "operator": "MMRDA",
          "public_transport": "stop_position",
          "railway": "stop",
          "subway": "yes"
        }
      },
      {
        "type": "node",
        "id": 3347771408,
        "lat": 19.1000071,
        "lon": 72.8438937,
        "tags": {
          "name": "Vile Parle",
          "name:en": "Vile Parle",
          "name:mr": "\u0935\u093f\u0932\u0947 \u092a\u093e\u0930\u094d\u0932\u0947",
          "public_transport": "stop_position",
          "railway": "stop",
          "ref": "2",
          "train": "yes"
        }
      },
      {
        "type": "node",
        "id": 3389150482,
        "lat": 19.1268055,
        "lon": 72.8382668,
        "tags": {
          "name": "Azad Nagar",
          "name:mr": "\u0906\u091d\u093e\u0926 \u0928\u0917\u0930",
          "name:ru": "\u0410\u0437\u0430\u0434 \u041d\u0430\u0433\u0430\u0440",
          "network": "Mumbai Metro",
          "operator": "MMRDA",
          "public_transport": "stop_position",
          "railway": "stop",
          "subway": "yes"
        }
      },
      {
        "type": "node",
        "id": 3951524190,
        "lat": 19.1010253,
        "lon": 72.8392429,
        "tags": {
          "amenity": "fuel",
          "brand": "Indian Oil",
          "brand:wikidata": "Q1289348",
          "brand:wikipedia": "en:Indian Oil Corporation",
          "name": "Indian Oil"
        }
      },
      {
        "type": "node",
        "id": 3951524927,
        "lat": 19.0967848,
        "lon": 72.8393963,
        "tags": {
          "addr:street": "Swami Vivekanand Road",
          "amenity": "fuel",
          "brand": "Indian Oil",
          "brand:wikidata": "Q1289348",
          "brand:wikipedia": "en:Indian Oil Corporation",
          "name": "Indian Oil"
        }
      },
      {
        "type": "node",
        "id": 3951527111,
        "lat": 19.0905676,
        "lon": 72.8382833,
        "tags": {
          "amenity": "bus_station",
          "bus": "yes",
          "name": "Santacruz Bus Depot",
          "public_transport": "station"
        }
      },
      {
        "type": "node",
        "id": 3979243498,
        "lat": 19.1246421,
        "lon": 72.8233968,
        "tags": {
          "amenity": "fuel",
          "brand": "Bharat Petroleum",
          "brand:wikidata": "Q854826",
          "compressed_air": "yes",
          "name": "Bharat Petroleum",
          "opening_hours": "Mo-Su,PH 00:00-00:00"
        }
      },
      {
        "type": "node",
        "id": 5219622852,
        "lat": 19.12918,
        "lon": 72.8314255,
        "tags": {
          "name": "Andheri (West)",
          "name:mr": "\u0905\u0902\u0927\u0947\u0930\u0940 (\u092a\u0936\u094d\u091a\u093f\u092e)",
          "name:ru": "\u0410\u043d\u0434\u0445\u0435\u0440\u0438-\u0423\u044d\u0441\u0442",
          "public_transport": "stop_position",
          "railway": "stop",
          "subway": "yes"
        }
      },
      {
        "type": "node",
        "id": 5777542614,
        "lat": 19.1291714,
        "lon": 72.8314667,
        "tags": {
          "name": "Andheri (West)",
          "name:mr": "\u0905\u0902\u0927\u0947\u0930\u0940 (\u092a\u0936\u094d\u091a\u093f\u092e)",
          "name:ru": "\u0410\u043d\u0434\u0445\u0435\u0440\u0438-\u0423\u044d\u0441\u0442",
          "public_transport": "stop_position",
          "railway": "stop",
          "subway": "yes"
        }
      },
      {
        "type": "node",
        "id": 6110571686,
        "lat": 19.1053592,
        "lon": 72.8465173,
        "tags": {
          "amenity": "theatre",
          "name:en": "Suncity Theatre",
          "opening_hours": "Mo-Su 10:00-22:00"
        }
      },
      {
        "type": "node",
        "id": 6110577585,
        "lat": 19.1007306,
        "lon": 72.8449115,
        "tags": {
          "amenity": "theatre",
          "name:en": "Dinanath Mangeshkar Natyagruha",
          "opening_hours": "Mo-Su 10:00-20:00"
        }
      },
      {
        "type": "node",
        "id": 7510862076,
        "lat": 19.099961,
        "lon": 72.8442291,
        "tags": {
          "name": "Vile Parle",
          "name:en": "Vile Parle",
          "name:mr": "\u0935\u093f\u0932\u0947 \u092a\u093e\u0930\u094d\u0932\u0947",
          "public_transport": "stop_position",
          "railway": "stop",
          "ref": "6",
          "train": "yes"
        }
      },
      {
        "type": "node",
        "id": 7510862077,
        "lat": 19.0999755,
        "lon": 72.8441316,
        "tags": {
          "name": "Vile Parle",
          "name:en": "Vile Parle",
          "name:mr": "\u0935\u093f\u0932\u0947 \u092a\u093e\u0930\u094d\u0932\u0947",
          "public_transport": "stop_position",
          "railway": "stop",
          "ref": "5",
          "train": "yes"
        }
      },
      {
        "type": "node",
        "id": 7510862078,
        "lat": 19.0999796,
        "lon": 72.8440865,
        "tags": {
          "name": "Vile Parle",
          "name:en": "Vile Parle",
          "name:mr": "\u0935\u093f\u0932\u0947 \u092a\u093e\u0930\u094d\u0932\u0947",
          "public_transport": "stop_position",
          "railway": "stop",
          "ref": "4",
          "train": "yes"
        }
      },
      {
        "type": "node",
        "id": 7510862079,
        "lat": 19.1001265,
        "lon": 72.8437717,
        "tags": {
          "name": "Vile Parle",
          "name:en": "Vile Parle",
          "name:mr": "\u0935\u093f\u0932\u0947 \u092a\u093e\u0930\u094d\u0932\u0947",
          "public_transport": "stop_position",
          "railway": "stop",
          "ref": "1",
          "train": "yes"
        }
      },
      {
        "type": "node",
        "id": 9132850193,
        "lat": 19.1280502,
        "lon": 72.8322034,
        "tags": {
          "amenity": "fuel",
          "brand": "Hindustan Petroleum",
          "brand:wikidata": "Q1619375",
          "compressed_air": "yes",
          "fuel:cng": "yes",
          "fuel:diesel": "yes",
          "name": "HP",
          "official_name": "Hindustan Petroleum"
        }
      },
      {
        "type": "node",
        "id": 10102658120,
        "lat": 19.1063277,
        "lon": 72.8631392,
        "tags": {
          "addr:street": "Om Nagar Road",
          "aeroway": "terminal",
          "name": "transline air cargo servics pvt ltd unit no 17",
          "name:en": "transline air cargo services pvt ltd unit no 17"
        }
      },
      {
        "type": "node",
        "id": 10267208087,
        "lat": 19.1007285,
        "lon": 72.8445616,
        "tags": {
          "amenity": "bus_station",
          "bus": "yes",
          "name": "Vile Parle Station (E)",
          "public_transport": "station"
        }
      },
      {
        "type": "node",
        "id": 10576726748,
        "lat": 19.1291337,
        "lon": 72.8314307,
        "tags": {
          "name": "Andheri (West)",
          "name:mr": "\u0905\u0902\u0927\u0947\u0930\u0940 (\u092a\u0936\u094d\u091a\u093f\u092e)",
          "public_transport": "station",
          "railway": "station",
          "station": "subway",
          "subway": "yes",
          "wheelchair": "limited"
        }
      }
    ]
  }
}