{
  "pois_1km": {
    "version": 0.6,
    "generator": "Overpass API 0.7.62.8 e802775f",
    "osm3s": {
      "timestamp_osm_base": "2025-09-06T07:38:25Z",
      "copyright": "The data included in this document is from www.openstreetmap.org. The data is made available under ODbL."
    },
    "elements": [
      {
        "type": "node",
        "id": 3289519861,
        "lat": 19.0813056,
        "lon": 72.8829461,
        "tags": {
          "addr:postcode": "400070",
          "amenity": "pharmacy",
          "healthcare": "pharmacy",
          "name": "Ritesh Medical",
          "opening_hours": "09:00-22:00"
        }
      },
      {
        "type": "node",
        "id": 3289526261,
        "lat": 19.0811499,
        "lon": 72.881926,
        "tags": {
          "addr:city": "Mumbai",
          "addr:postcode": "400070",
          "addr:street": "father peter periera road",
          "amenity": "pharmacy",
          "name": "City Medical Centre",
          "opening_hours": "24/7",
          "operator": "City hospital"
        }
      },
      {
        "type": "node",
        "id": 3289533443,
        "lat": 19.0796355,
        "lon": 72.8799871,
        "tags": {
          "amenity": "restaurant",
          "capacity": "50",
          "cuisine": "regional",
          "name": "Sahara",
          "smoking": "no"
        }
      },
      {
        "type": "node",
        "id": 3289533448,
        "lat": 19.0805957,
        "lon": 72.8812014,
        "tags": {
          "amenity": "restaurant",
          "capacity": "50",
          "cuisine": "regional",
          "name": "Skyway",
          "smoking": "no"
        }
      },
      {
        "type": "node",
        "id": 3289545269,
        "lat": 19.0775346,
        "lon": 72.8789658,
        "tags": {
          "amenity": "atm"
        }
      },
      {
        "type": "node",
        "id": 3289562513,
        "lat": 19.0772902,
        "lon": 72.8833834,
        "tags": {
          "amenity": "pharmacy",
          "opening_hours": "09:00-22:00"
        }
      },
      {
        "type": "node",
        "id": 4996322798,
        "lat": 19.0815079,
        "lon": 72.8831157,
        "tags": {
          "addr:city": "Mumbai",
          "addr:postcode": "400070",
          "addr:street": "father peter periera road",
          "amenity": "hospital",
          "name": "Kurla Municipal Hospital",
          "operator": "MCGM",
          "website": "https://www.mcgm.gov.in"
        }
      },
      {
        "type": "node",
        "id": 7044829632,
        "lat": 19.0829325,
        "lon": 72.8819436,
        "tags": {
          "addr:district": "Mumbai",
          "addr:full": "Pratap Nagar, Housing Society, A-Wing, 1st Floor, L.B.S. Marg, Kurla West",
          "addr:postcode": "400070",
          "addr:state": "Maharashtra",
          "amenity": "hospital",
          "healthcare": "hospital",
          "name": "Sushila Hospital-Icu and Maternity",
          "source": "OpenGovernmentData"
        }
      },
      {
        "type": "node",
        "id": 7051070836,
        "lat": 19.0812912,
        "lon": 72.8802846,
        "tags": {
          "addr:district": "Mumbai",
          "addr:full": "110, Magan Nathuram Road, Opposite Sonapurlane Police, Chowky, Sonapurlane, Kurla",
          "addr:postcode": "400070",
          "addr:state": "Maharashtra",
          "amenity": "clinic",
          "name": "Sharada Nursing Home.",
          "source": "OpenGovernmentData"
        }
      },
      {
        "type": "node",
        "id": 7055228102,
        "lat": 19.0825092,
        "lon": 72.8846566,
        "tags": {
          "addr:district": "Mumbai",
          "addr:full": "Kurla West",
          "addr:postcode": "400070",
          "addr:state": "Maharashtra",
          "amenity": "clinic",
          "healthcare": "clinic",
          "name": "Dr Shehnaz Shaikh Clinic",
          "operator": "Dr. Shenaz shaikh",
          "operator:type": "private",
          "source": "OpenGovernmentData"
        }
      },
      {
        "type": "node",
        "id": 7086762794,
        "lat": 19.0844262,
        "lon": 72.883626,
        "tags": {
          "addr:district": "Mumbai",
          "addr:full": "Nitingale Co-Op Hsg Society, 1st Floor, L.B.S. Marg , Near State Bank Of India, Kamani , Kurla (W)",
          "addr:postcode": "400070",
          "addr:state": "Maharashtra",
          "amenity": "clinic",
          "name": "Suraj Clinic, Mumbai",
          "source": "OpenGovernmentData"
        }
      },
      {
        "type": "node",
        "id": 7663961415,
        "lat": 19.0826988,
        "lon": 72.8816976,
        "tags": {
          "addr:district": "Mumbai Suburban",
          "addr:full": "LBS Road, Bail Bajar, Saki Naka, Mumbai",
          "addr:postcode": "400070",
          "addr:state": "Maharastra",
          "amenity": "hospital",
          "name": "Subhash Hospital",
          "source": "Local Knowledge"
        }
      },
      {
        "type": "node",
        "id": 7663961417,
        "lat": 19.0797861,
        "lon": 72.8827185,
        "tags": {
          "addr:district": "Mumbai Suburban",
          "addr:full": "88, New Hall Road, Jai Ambika Nagar, Christian Gaon, Kurla West, Mumbai",
          "addr:postcode": "400070",
          "addr:state": "Maharastra",
          "amenity": "hospital",
          "name": "Buddh Colony BMC Hospital",
          "source": "Local Knowledge"
        }
      },
      {
        "type": "node",
        "id": 7663961436,
        "lat": 19.078367,
        "lon": 72.880408,
        "tags": {
          "addr:district": "Mumbai Suburban",
          "addr:full": "Opposite Quality Bakery, Near Shalimar Hotel, Swadeshi Mills Road, Kurla West, Kurla, Mumbai",
          "addr:postcode": "400070",
          "addr:state": "Maharastra",
          "amenity": "hospital",
          "name": "Muskaan Hospital",
          "source": "Local Knowledge"
        }
      },
      {
        "type": "node",
        "id": 7663961443,
        "lat": 19.078247,
        "lon": 72.880101,
        "tags": {
          "addr:district": "Mumbai Suburban",
          "addr:full": "AH Wadia Marg, Old Agra Road, Off, LBS Road, Opp. Shalimar Hotel, Kurla West, Mumbai",
          "addr:postcode": "400070",
          "addr:state": "Maharastra",
          "amenity": "hospital",
          "healthcare": "hospital",
          "name": "Habib Hospital",
          "source": "Local Knowledge"
        }
      },
      {
        "type": "node",
        "id": 7663961467,
        "lat": 19.0818439,
        "lon": 72.8821058,
        "tags": {
          "addr:district": "Mumbai Suburban",
          "addr:full": "New Dwarkapuri Building, LBS Road, Next To Subiksha, Christian Gaon, Kurla, Mumbai",
          "addr:postcode": "400070",
          "addr:state": "Maharastra",
          "amenity": "hospital",
          "name": "Masoom Child Hospital",
          "source": "Local Knowledge"
        }
      },
      {
        "type": "node",
        "id": 8797139771,
        "lat": 19.0846423,
        "lon": 72.8836535,
        "tags": {
          "addr:district": "Mumbai",
          "addr:full": "A Wing, Ghatkopar, Mumbai",
          "addr:postcode": "400086",
          "addr:state": "Maharashtra",
          "amenity": "hospital",
          "name": "Sapna Health Care Centre Pvt Ltd",
          "source": "Local Knowledge"
        }
      },
      {
        "type": "node",
        "id": 10694582246,
        "lat": 19.0842814,
        "lon": 72.8845683,
        "tags": {
          "amenity": "atm",
          "brand": "IndusInd Bank",
          "brand:wikidata": "Q2040323",
          "check_date": "2023-02-26",
          "name": "IndusInd Bank",
          "operator": "IndusInd Bank",
          "operator:wikidata": "Q2040323"
        }
      },
      {
        "type": "node",
        "id": 11278792816,
        "lat": 19.0821332,
        "lon": 72.8856732,
        "tags": {
          "amenity": "bank",
          "branch": "RACPC",
          "brand": "State Bank of India",
          "brand:wikidata": "Q1340361",
          "name": "State Bank of India",
          "short_name": "SBI"
        }
      },
      {
        "type": "node",
        "id": 11400865995,
        "lat": 19.081222,
        "lon": 72.8923176,
        "tags": {
          "brand": "DMart",
          "brand:wikidata": "Q5203271",
          "name": "DMart",
          "shop": "supermarket"
        }
      },
      {
        "type": "node",
        "id": 11432071328,
        "lat": 19.0805224,
        "lon": 72.8897014,
        "tags": {
          "amenity": "restaurant",
          "check_date": "2023-12-27",
          "internet_access": "no",
          "name": "Nityanand Family Restaurant",
          "wheelchair": "limited"
        }
      },
      {
        "type": "node",
        "id": 11432077437,
        "lat": 19.0804748,
        "lon": 72.8894691,
        "tags": {
          "amenity": "fast_food",
          "name": "Tiffins"
        }
      },
      {
        "type": "node",
        "id": 11445793376,
        "lat": 19.0845689,
        "lon": 72.8902802,
        "tags": {
          "amenity": "fast_food",
          "name": "Divesh Vada Pav Center"
        }
      },
      {
        "type": "node",
        "id": 11445805534,
        "lat": 19.080614,
        "lon": 72.8888784,
        "tags": {
          "amenity": "bank",
          "name": "Unity Small Finance Bank"
        }
      },
      {
        "type": "node",
        "id": 11449446312,
        "lat": 19.0845316,
        "lon": 72.8893744,
        "tags": {
          "amenity": "pharmacy",
          "name": "Grand Medical"
        }
      },
      {
        "type": "node",
        "id": 11451543495,
        "lat": 19.0831187,
        "lon": 72.8851007,
        "tags": {
          "amenity": "restaurant",
          "name": "Hotel Sitaram"
        }
      },
      {
        "type": "node",
        "id": 11451948925,
        "lat": 19.0790685,
        "lon": 72.8799913,
        "tags": {
          "amenity": "restaurant",
          "name": "Istanbul Darbar"
        }
      },
      {
        "type": "node",
        "id": 11451995918,
        "lat": 19.0842678,
        "lon": 72.8848036,
        "tags": {
          "addr:district": "Mumbai",
          "addr:postcode": "400070",
          "addr:suburb": "Mumbai suburb",
          "brand": "7-Eleven",
          "name": "7-Eleven",
          "opening_hours": "Mo-Su 7:00-23:00",
          "shop": "supermarket"
        }
      },
      {
        "type": "node",
        "id": 11452008048,
        "lat": 19.0824643,
        "lon": 72.8822461,
        "tags": {
          "amenity": "restaurant",
          "name": "SHAHI Dessert and Fast Food Juice"
        }
      },
      {
        "type": "node",
        "id": 11452009154,
        "lat": 19.0853217,
        "lon": 72.8876582,
        "tags": {
          "amenity": "cafe",
          "brand": "Costa",
          "brand:wikidata": "Q608845",
          "cuisine": "coffee_shop",
          "name": "Costa",
          "shop": "coffee",
          "takeaway": "yes"
        }
      },
      {
        "type": "node",
        "id": 11452014432,
        "lat": 19.0770406,
        "lon": 72.8780007,
        "tags": {
          "amenity": "restaurant",
          "name": "Karizma Dhaba"
        }
      },
      {
        "type": "node",
        "id": 11452014929,
        "lat": 19.0845282,
        "lon": 72.8855689,
        "tags": {
          "amenity": "bank",
          "brand": "ICICI Bank",
          "brand:wikidata": "Q1653258",
          "name": "ICICI Bank",
          "short_name": "ICICI"
        }
      },
      {
        "type": "node",
        "id": 11452017570,
        "lat": 19.0816717,
        "lon": 72.8817638,
        "tags": {
          "amenity": "restaurant",
          "name": "Sunlight Restaurant"
        }
      },
      {
        "type": "node",
        "id": 11458866392,
        "lat": 19.0806664,
        "lon": 72.8887589,
        "tags": {
          "amenity": "bank",
          "brand": "Kotak Mahindra Bank",
          "brand:wikidata": "Q2040404",
          "check_date": "2023-12-27",
          "name": "Kotak Mahindra Bank"
        }
      },
      {
        "type": "node",
        "id": 11962654785,
        "lat": 19.0765454,
        "lon": 72.8802586,
        "tags": {
          "addr:city": "Mumbai",
          "addr:district": "Mumbai Suburban",
          "addr:housenumber": "250",
          "addr:postcode": "400070",
          "addr:street": "MEHBOOB E SUBHANI MASJID, 250 BHALEKAR WADI, New Mill Rd, beside MADINA HOTEL, Kurla West,",
          "name": "Kohinoor Enterprises",
          "opening_hours": "Mo-Su 07:00-22:00",
          "operator": "Kohinoor Enterprises",
          "payment:cash": "yes",
          "payment:credit_cards": "yes",
          "payment:debit_cards": "yes",
          "payment:mastercard": "yes",
          "payment:visa": "yes",
          "phone": "07860404303",
          "shop": "supermarket"
        }
      }
    ]
  },
  "pois_2_5km": {
    "version": 0.6,
    "generator": "Overpass API 0.7.62.8 e802775f",
    "osm3s": {
      "timestamp_osm_base": "2025-09-06T07:38:25Z",
      "copyright": "The data included in this document is from www.openstreetmap.org. The data is made available under ODbL."
    },
    "elements": [
      {
        "type": "node",
        "id": 339078717,
        "lat": 19.0650734,
        "lon": 72.8790797,
        "tags": {
          "name": "Kurla Junction",
          "public_transport": "stop_position",
          "railway": "stop",
          "ref": "4",
          "train": "yes"
        }
      },
      {
        "type": "node",
        "id": 620013256,
        "lat": 19.0795422,
        "lon": 72.8971169,
        "tags": {
          "addr:city": "mumbai",
          "addr:postcode": "400086",
          "addr:street": "Station Road",
          "internet_access": "no",
          "name": "Vidyavihar",
          "network": "IR",
          "operator": "CR",
          "public_transport": "station",
          "railway": "station",
          "ref": "VVH",
          "wikidata": "Q7928232",
          "wikipedia": "en:Vidyavihar railway station"
        }
      },
      {
        "type": "node",
        "id": 620015554,
        "lat": 19.0653324,
        "lon": 72.8788976,
        "tags": {
          "name": "Kurla Junction",
          "public_transport": "stop_position",
          "railway": "stop",
          "ref": "1",
          "train": "yes"
        }
      },
      {
        "type": "node",
        "id": 1241793068,
        "lat": 19.09544,
        "lon": 72.8660044,
        "tags": {
          "aeroway": "terminal",
          "ele": "15.747192",
          "name": "Cargo Terminal",
          "source": "GPS",
          "sym": "Civil"
        }
      },
      {
        "type": "node",
        "id": 1366008911,
        "lat": 19.0645019,
        "lon": 72.8803229,
        "tags": {
          "amenity": "bus_station",
          "bus": "yes",
          "name": "Kurla East",
          "operator": "BEST",
          "public_transport": "station"
        }
      },
      {
        "type": "node",
        "id": 1366054340,
        "lat": 19.0794239,
        "lon": 72.8973128,
        "tags": {
          "name": "Vidyavihar",
          "public_transport": "stop_position",
          "railway": "stop",
          "train": "yes"
        }
      },
      {
        "type": "node",
        "id": 1367093210,
        "lat": 19.0648111,
        "lon": 72.8793034,
        "tags": {
          "name": "Kurla Junction",
          "public_transport": "stop_position",
          "railway": "stop",
          "ref": "8",
          "train": "yes"
        }
      },
      {
        "type": "node",
        "id": 1367093212,
        "lat": 19.0649266,
        "lon": 72.8792339,
        "tags": {
          "name": "Kurla Junction",
          "public_transport": "stop_position",
          "railway": "stop",
          "ref": "7",
          "train": "yes"
        }
      },
      {
        "type": "node",
        "id": 1367093215,
        "lat": 19.0649607,
        "lon": 72.8791914,
        "tags": {
          "name": "Kurla Junction",
          "public_transport": "stop_position",
          "railway": "stop",
          "ref": "6",
          "train": "yes"
        }
      },
      {
        "type": "node",
        "id": 1367093217,
        "lat": 19.065041,
        "lon": 72.8791094,
        "tags": {
          "name": "Kurla Junction",
          "public_transport": "stop_position",
          "railway": "stop",
          "ref": "5",
          "train": "yes"
        }
      },
      {
        "type": "node",
        "id": 1367093225,
        "lat": 19.0652016,
        "lon": 72.8790144,
        "tags": {
          "name": "Kurla Junction",
          "public_transport": "stop_position",
          "railway": "stop",
          "ref": "3",
          "train": "yes"
        }
      },
      {
        "type": "node",
        "id": 1367093228,
        "lat": 19.0652271,
        "lon": 72.878982,
        "tags": {
          "name": "Kurla Junction",
          "public_transport": "stop_position",
          "railway": "stop",
          "ref": "2",
          "train": "yes"
        }
      },
      {
        "type": "node",
        "id": 1644086506,
        "lat": 19.0875403,
        "lon": 72.9081633,
        "tags": {
          "amenity": "bus_station",
          "bus": "yes",
          "name": "Ghatkopar Station (W)",
          "public_transport": "station"
        }
      },
      {
        "type": "node",
        "id": 2242268589,
        "lat": 19.0677432,
        "lon": 72.9003277,
        "tags": {
          "amenity": "fuel",
          "brand": "Hindustan Petroleum",
          "brand:ur": "\u06c1\u0646\u062f\u0648\u0633\u062a\u0627\u0646 \u067e\u0679\u0631\u0648\u0644\u06cc\u0645",
          "brand:wikidata": "Q1619375",
          "compressed_air": "yes",
          "fuel:biodiesel": "no",
          "fuel:biogas": "no",
          "fuel:cng": "yes",
          "fuel:diesel": "yes",
          "fuel:octane_91": "yes",
          "fuel:octane_95": "yes",
          "fuel:octane_98": "yes",
          "name": "National Highway Trucking Centre",
          "name:ur": "\u0646\u06cc\u0634\u0646\u0644 \u06c1\u0627\u0626\u06cc \u0648\u06d2 \u0679\u0631\u06a9\u0646\u06af \u0633\u0646\u0679\u0631",
          "official_name": "Hindustan Petroleum",
          "official_name:ur": "\u06c1\u0646\u062f\u0648\u0633\u062a\u0627\u0646 \u067e\u0679\u0631\u0648\u0644\u06cc\u0645",
          "operator:type": "private"
        }
      },
      {
        "type": "node",
        "id": 2663447640,
        "lat": 19.0652797,
        "lon": 72.8793805,
        "tags": {
          "internet_access": "wlan",
          "name": "Kurla Junction",
          "name:hi": "\u0915\u0941\u0930\u094d\u0932\u093e",
          "name:ml": "\u0d15\u0d41\u0d7c\u0d33",
          "network": "IR",
          "office": "coworking",
          "operator": "CR",
          "public_transport": "station",
          "ref": "CLA",
          "wikidata": "Q6446148",
          "wikipedia": "en:Kurla railway station"
        }
      },
      {
        "type": "node",
        "id": 2913182920,
        "lat": 19.0967391,
        "lon": 72.894326,
        "tags": {
          "name": "Asalpha",
          "name:mr": "\u0905\u0938\u0932\u094d\u092b\u093e",
          "name:ru": "\u0410\u0441\u0430\u043b\u044c\u0444\u0430",
          "network": "Mumbai Metro",
          "operator": "MMRDA",
          "public_transport": "stop_position",
          "railway": "stop",
          "subway": "yes"
        }
      },
      {
        "type": "node",
        "id": 2932902979,
        "lat": 19.0624802,
        "lon": 72.8992072,
        "tags": {
          "amenity": "cinema",
          "name": "NATRAJ CINEMA",
          "source": "Chembur"
        }
      },
      {
        "type": "node",
        "id": 3175794771,
        "lat": 19.0862832,
        "lon": 72.9079859,
        "tags": {
          "level": "2",
          "name": "Ghatkopar",
          "name:mr": "\u0918\u093e\u091f\u0915\u094b\u092a\u0930",
          "name:ru": "\u0413\u0430\u0442\u043a\u043e\u043f\u0430\u0440",
          "network": "Mumbai Metro",
          "operator": "MMRDA",
          "public_transport": "stop_position",
          "railway": "stop",
          "subway": "yes"
        }
      },
      {
        "type": "node",
        "id": 3175794772,
        "lat": 19.086286,
        "lon": 72.9081226,
        "tags": {
          "level": "2",
          "name": "Ghatkopar",
          "name:mr": "\u0918\u093e\u091f\u0915\u094b\u092a\u0930",
          "name:ru": "\u0413\u0430\u0442\u043a\u043e\u043f\u0430\u0440",
          "network": "Mumbai Metro",
          "operator": "MMRDA",
          "public_transport": "stop_position",
          "railway": "stop",
          "subway": "yes"
        }
      },
      {
        "type": "node",
        "id": 3175794773,
        "lat": 19.0921714,
        "lon": 72.9025996,
        "tags": {
          "name": "Jagruti Nagar",
          "name:mr": "\u091c\u093e\u0917\u0943\u0924\u0940 \u0928\u0917\u0930",
          "name:ru": "\u0414\u0436\u0430\u0433\u0440\u0443\u0442\u0438 \u041d\u0430\u0433\u0430\u0440",
          "network": "Mumbai Metro",
          "operator": "MMRDA",
          "public_transport": "stop_position",
          "railway": "stop",
          "subway": "yes"
        }
      },
      {
        "type": "node",
        "id": 3175794774,
        "lat": 19.0928803,
        "lon": 72.9012758,
        "tags": {
          "name": "Jagruti Nagar",
          "name:mr": "\u091c\u093e\u0917\u0943\u0924\u0940 \u0928\u0917\u0930",
          "name:ru": "\u0414\u0436\u0430\u0433\u0440\u0443\u0442\u0438 \u041d\u0430\u0433\u0430\u0440",
          "network": "Mumbai Metro",
          "operator": "MMRDA",
          "public_transport": "stop_position",
          "railway": "stop",
          "subway": "yes"
        }
      },
      {
        "type": "node",
        "id": 3289545012,
        "lat": 19.0763832,
        "lon": 72.8773575,
        "tags": {
          "amenity": "fuel",
          "name": "Petrol Pump",
          "operator": "HP"
        }
      },
      {
        "type": "node",
        "id": 3289545561,
        "lat": 19.0780431,
        "lon": 72.8793721,
        "tags": {
          "amenity": "fuel"
        }
      },
      {
        "type": "node",
        "id": 3289551913,
        "lat": 19.0757177,
        "lon": 72.8792856,
        "tags": {
          "amenity": "cinema",
          "name": "King",
          "name:ur": "\u06a9\u0646\u06af\u0633\u0679\u0646"
        }
      },
      {
        "type": "node",
        "id": 3289553161,
        "lat": 19.0765873,
        "lon": 72.8772337,
        "tags": {
          "amenity": "fuel",
          "name": "CNG",
          "operator": "HP"
        }
      },
      {
        "type": "node",
        "id": 3389249957,
        "lat": 19.0960972,
        "lon": 72.895413,
        "tags": {
          "name": "Asalpha",
          "name:mr": "\u0905\u0938\u0932\u094d\u092b\u093e",
          "name:ru": "\u0410\u0441\u0430\u043b\u044c\u0444\u0430",
          "network": "Mumbai Metro",
          "operator": "MMRDA",
          "public_transport": "stop_position",
          "railway": "stop",
          "subway": "yes"
        }
      },
      {
        "type": "node",
        "id": 3518529216,
        "lat": 19.0935612,
        "lon": 72.8837601,
        "tags": {
          "addr:city": "Mumabi",
          "addr:housenumber": "Jari Mari",
          "addr:postcode": "400072",
          "addr:street": "90 Feet Road",
          "amenity": "theatre",
          "name": "Maxus Multiplex"
        }
      },
      {
        "type": "node",
        "id": 3530903066,
        "lat": 19.0657855,
        "lon": 72.8904702,
        "tags": {
          "IR:zone": "CR",
          "internet_access": "no",
          "is_in": "Mumbai",
          "name": "Tilak Nagar",
          "name:hi": "\u0924\u093f\u0932\u0915 \u0928\u0917\u0930",
          "name:mr": "\u091f\u093f\u0933\u0915 \u0928\u0917\u0930",
          "network": "IR",
          "operator": "CR",
          "public_transport": "station",
          "railway": "station",
          "ref": "TKNG",
          "wikidata": "Q7802036",
          "wikipedia": "en:Tilak Nagar railway station"
        }
      },
      {
        "type": "node",
        "id": 3878597746,
        "lat": 19.0745661,
        "lon": 72.876058,
        "tags": {
          "amenity": "bus_station",
          "bus": "yes",
          "name": "Kurla Depot",
          "public_transport": "station"
        }
      },
      {
        "type": "node",
        "id": 4264539430,
        "lat": 19.0856928,
        "lon": 72.9083668,
        "tags": {
          "internet_access": "wlan",
          "name": "Ghatkopar",
          "name:hi": "\u0918\u093e\u091f\u0915\u094b\u092a\u0930",
          "name:ml": "\u0d18\u0d3e\u0d1f\u0d4d\u0d15\u0d4b\u0d2a\u0d4d\u0d2a\u0d7c",
          "network": "IR",
          "operator": "CR",
          "public_transport": "station",
          "railway": "station",
          "ref": "GC",
          "wikidata": "Q5555923",
          "wikipedia": "en:Ghatkopar railway station"
        }
      },
      {
        "type": "node",
        "id": 4294829799,
        "lat": 19.0681569,
        "lon": 72.8997225,
        "tags": {
          "addr:postcode": "400089",
          "addr:street": "Tilak Nagar, Chembur",
          "amenity": "cinema",
          "name": "Shahakar Plaza"
        }
      },
      {
        "type": "node",
        "id": 5471970523,
        "lat": 19.0872615,
        "lon": 72.9021502,
        "tags": {
          "amenity": "fuel"
        }
      },
      {
        "type": "node",
        "id": 6171366460,
        "lat": 19.0657601,
        "lon": 72.8901084,
        "tags": {
          "name": "Tilak Nagar",
          "public_transport": "stop_position",
          "railway": "stop",
          "ref": "2",
          "train": "yes"
        }
      },
      {
        "type": "node",
        "id": 6175360982,
        "lat": 19.0795234,
        "lon": 72.8972161,
        "tags": {
          "name": "Vidyavihar",
          "public_transport": "stop_position",
          "railway": "stop",
          "train": "yes"
        }
      },
      {
        "type": "node",
        "id": 6175360983,
        "lat": 19.0694658,
        "lon": 72.8919779,
        "tags": {
          "internet_access": "wlan",
          "name": "Lokmanya Tilak Terminus",
          "name:hi": "\u0932\u094b\u0915\u092e\u093e\u0928\u094d\u092f \u0924\u093f\u0932\u0915 \u091f\u0930\u094d\u092e\u093f\u0928\u0938",
          "name:ml": "\u0d32\u0d4b\u0d15\u0d2e\u0d3e\u0d28\u0d4d\u0d2f \u0d24\u0d3f\u0d32\u0d15\u0d4d \u0d1f\u0d46\u0d7c\u0d2e\u0d3f\u0d28\u0d38\u0d4d",
          "network": "IR",
          "operator": "CR",
          "public_transport": "station",
          "railway": "station",
          "ref": "LTT",
          "train": "yes",
          "wikidata": "Q4520739",
          "wikipedia": "en:Lokmanya Tilak Terminus"
        }
      },
      {
        "type": "node",
        "id": 7622320900,
        "lat": 19.0683695,
        "lon": 72.8895448,
        "tags": {
          "name": "Lokmanya Tilak Terminus",
          "public_transport": "stop_position",
          "railway": "stop",
          "ref": "LTT:5",
          "train": "yes"
        }
      },
      {
        "type": "node",
        "id": 7622320901,
        "lat": 19.0682525,
        "lon": 72.889651,
        "tags": {
          "name": "Lokmanya Tilak Terminus",
          "public_transport": "stop_position",
          "railway": "stop",
          "ref": "LTT:4",
          "train": "yes"
        }
      },
      {
        "type": "node",
        "id": 7622320902,
        "lat": 19.0682043,
        "lon": 72.889693,
        "tags": {
          "name": "Lokmanya Tilak Terminus",
          "public_transport": "stop_position",
          "railway": "stop",
          "ref": "LTT:3",
          "train": "yes"
        }
      },
      {
        "type": "node",
        "id": 7622320903,
        "lat": 19.0686058,
        "lon": 72.8904064,
        "tags": {
          "name": "Lokmanya Tilak Terminus",
          "public_transport": "stop_position",
          "railway": "stop",
          "ref": "LTT:2",
          "train": "yes"
        }
      },
      {
        "type": "node",
        "id": 7622320904,
        "lat": 19.0685754,
        "lon": 72.8904287,
        "tags": {
          "name": "Lokmanya Tilak Terminus",
          "public_transport": "stop_position",
          "railway": "stop",
          "ref": "LTT:1",
          "train": "yes"
        }
      },
      {
        "type": "node",
        "id": 7817668009,
        "lat": 19.0857175,
        "lon": 72.9079722,
        "tags": {
          "name": "Ghatkopar",
          "public_transport": "stop_position",
          "railway": "stop",
          "train": "yes"
        }
      },
      {
        "type": "node",
        "id": 7817668010,
        "lat": 19.0856782,
        "lon": 72.9079856,
        "tags": {
          "name": "Ghatkopar",
          "public_transport": "stop_position",
          "railway": "stop",
          "train": "yes"
        }
      },
      {
        "type": "node",
        "id": 7817668011,
        "lat": 19.0855813,
        "lon": 72.9080613,
        "tags": {
          "name": "Ghatkopar",
          "public_transport": "stop_position",
          "railway": "stop",
          "train": "yes"
        }
      },
      {
        "type": "node",
        "id": 7817668012,
        "lat": 19.085542,
        "lon": 72.9080779,
        "tags": {
          "name": "Ghatkopar",
          "public_transport": "stop_position",
          "railway": "stop",
          "train": "yes"
        }
      },
      {
        "type": "node",
        "id": 7818024713,
        "lat": 19.0657151,
        "lon": 72.8904873,
        "tags": {
          "name": "Tilak Nagar",
          "public_transport": "stop_position",
          "railway": "stop",
          "ref": "1",
          "train": "yes"
        }
      },
      {
        "type": "node",
        "id": 9132436363,
        "lat": 19.0725747,
        "lon": 72.9023182,
        "tags": {
          "construction": "stop",
          "name": "Garodia Nagar Station",
          "public_transport": "stop_position",
          "railway": "construction"
        }
      },
      {
        "type": "node",
        "id": 9132436365,
        "lat": 19.067405,
        "lon": 72.8999983,
        "tags": {
          "construction": "stop",
          "name": "Amar Mahal Junction Station",
          "public_transport": "stop_position",
          "railway": "construction"
        }
      },
      {
        "type": "node",
        "id": 10102658120,
        "lat": 19.1063277,
        "lon": 72.8631392,
        "tags": {
          "addr:street": "Om Nagar Road",
          "aeroway": "terminal",
          "name": "transline air cargo servics pvt ltd unit no 17",
          "name:en": "transline air cargo services pvt ltd unit no 17"
        }
      },
      {
        "type": "node",
        "id": 11071531762,
        "lat": 19.0875772,
        "lon": 72.903035,
        "tags": {
          "bus": "yes",
          "public_transport": "stop_position"
        }
      },
      {
        "type": "node",
        "id": 11071531772,
        "lat": 19.0850593,
        "lon": 72.8873264,
        "tags": {
          "bus": "yes",
          "name": "Kamani",
          "name:en": "Kamani",
          "public_transport": "stop_position"
        }
      },
      {
        "type": "node",
        "id": 11445747452,
        "lat": 19.0961043,
        "lon": 72.8837812,
        "tags": {
          "amenity": "fuel",
          "brand": "Hindustan Petroleum",
          "brand:wikidata": "Q1619375",
          "name": "HP",
          "official_name": "Hindustan Petroleum"
        }
      },
      {
        "type": "node",
        "id": 11451538384,
        "lat": 19.0961553,
        "lon": 72.8838153,
        "tags": {
          "amenity": "fuel",
          "name": "HP"
        }
      },
      {
        "type": "node",
        "id": 12238603355,
        "lat": 19.0674207,
        "lon": 72.8999524,
        "tags": {
          "construction": "stop",
          "name": "Amar Mahal Junction Station",
          "public_transport": "stop_position",
          "railway": "construction"
        }
      }
    ]
  }
}