{
  "pois_1km": {
    "version": 0.6,
    "generator": "Overpass API 0.7.62.8 e802775f",
    "osm3s": {
      "timestamp_osm_base": "2025-09-06T07:51:45Z",
      "copyright": "The data included in this document is from www.openstreetmap.org. The data is made available under ODbL."
    },
    "elements": [
      {
        "type": "node",
        "id": 610270325,
        "lat": 18.9598264,
        "lon": 72.81716,
        "tags": {
          "amenity": "restaurant",
          "name": "Ever Green"
        }
      },
      {
        "type": "node",
        "id": 610271821,
        "lat": 18.959522,
        "lon": 72.8172244,
        "tags": {
          "amenity": "restaurant",
          "name": "Shriram"
        }
      },
      {
        "type": "node",
        "id": 705149077,
        "lat": 18.9544525,
        "lon": 72.8184244,
        "tags": {
          "amenity": "restaurant",
          "name": "Little Italy"
        }
      },
      {
        "type": "node",
        "id": 2457605418,
        "lat": 18.9581972,
        "lon": 72.8172841,
        "tags": {
          "amenity": "bank",
          "atm": "yes",
          "name": "North Kanara Bank"
        }
      },
      {
        "type": "node",
        "id": 2457605419,
        "lat": 18.9587228,
        "lon": 72.8169969,
        "tags": {
          "amenity": "atm",
          "brand": "Yes Bank",
          "brand:wikidata": "Q2040394",
          "name": "Yes Bank",
          "operator": "Yes Bank",
          "operator:wikidata": "Q2040394"
        }
      },
      {
        "type": "node",
        "id": 2457605420,
        "lat": 18.9587891,
        "lon": 72.8170226,
        "tags": {
          "amenity": "bank",
          "atm": "yes",
          "brand": "ICICI Bank",
          "brand:wikidata": "Q1653258",
          "name": "ICICI Bank",
          "short_name": "ICICI"
        }
      },
      {
        "type": "node",
        "id": 2930714471,
        "lat": 18.9520672,
        "lon": 72.8280392,
        "tags": {
          "addr:city": "mumbai",
          "addr:postcode": "400089",
          "addr:street": "A Merchant Road",
          "amenity": "cafe",
          "cuisine": "pizza",
          "name": "khans cafe",
          "smoking": "outside"
        }
      },
      {
        "type": "node",
        "id": 2930722460,
        "lat": 18.9530814,
        "lon": 72.8257347,
        "tags": {
          "addr:city": "mumbai",
          "addr:postcode": "400089",
          "addr:street": "Jagannath Shankarsheth Marg",
          "amenity": "bank",
          "atm": "yes",
          "brand": "State Bank of India",
          "brand:wikidata": "Q1340361",
          "brand:wikipedia": "en:State Bank of India",
          "name": "State Bank of India",
          "short_name": "SBI"
        }
      },
      {
        "type": "node",
        "id": 2930723087,
        "lat": 18.9515065,
        "lon": 72.82947,
        "tags": {
          "addr:city": "mumbai",
          "addr:postcode": "400089",
          "addr:street": "Mumba Devi Road",
          "amenity": "restaurant",
          "cuisine": "chicken_,fish,cafe",
          "name": "shahil restaurant"
        }
      },
      {
        "type": "node",
        "id": 3202767480,
        "lat": 18.9563402,
        "lon": 72.8302774,
        "tags": {
          "addr:city": "mumbai",
          "addr:housenumber": "400043",
          "addr:street": "govandi",
          "amenity": "bank",
          "atm": "yes",
          "name": "badhoda bank"
        }
      },
      {
        "type": "node",
        "id": 3306535080,
        "lat": 18.9546257,
        "lon": 72.8147495,
        "tags": {
          "amenity": "cafe",
          "cuisine": "ice_cream",
          "name": "Ice Cream Works"
        }
      },
      {
        "type": "node",
        "id": 4232929346,
        "lat": 18.9613711,
        "lon": 72.8232846,
        "tags": {
          "addr:housenumber": "186/188",
          "addr:postcode": "400004",
          "addr:street": "Patthe Bapurao Marg (Falkland Road)",
          "amenity": "restaurant",
          "name": "king Falcon"
        }
      },
      {
        "type": "node",
        "id": 4361366461,
        "lat": 18.9602659,
        "lon": 72.8243346,
        "tags": {
          "addr:postcode": "400004",
          "addr:street": "Patthe Bapurao Marg (Falkland Road)",
          "amenity": "doctors",
          "name": "Dr. M.A KHAN"
        }
      },
      {
        "type": "node",
        "id": 4658636589,
        "lat": 18.9511364,
        "lon": 72.8282483,
        "tags": {
          "amenity": "restaurant",
          "cuisine": "gujarati",
          "name": "Shree Thaker Bhojanalay",
          "name:gu": "\u0ab6\u0acd\u0ab0\u0ac0 \u0aa0\u0abe\u0a95\u0ab0 \u0aad\u0acb\u0a9c\u0aa8\u0abe\u0ab2\u0aaf",
          "phone": "+912222069916"
        }
      },
      {
        "type": "node",
        "id": 4844675138,
        "lat": 18.9530787,
        "lon": 72.8174011,
        "tags": {
          "amenity": "restaurant",
          "name:en": "Thali"
        }
      },
      {
        "type": "node",
        "id": 4844675139,
        "lat": 18.9543399,
        "lon": 72.8152093,
        "tags": {
          "amenity": "restaurant",
          "name:en": "Paramount"
        }
      },
      {
        "type": "node",
        "id": 4844675326,
        "lat": 18.9532406,
        "lon": 72.8169665,
        "tags": {
          "amenity": "fast_food",
          "brand": "Domino's",
          "brand:wikidata": "Q839466",
          "cuisine": "pizza",
          "name": "Domino's",
          "name:en": "Domino's",
          "takeaway": "yes"
        }
      },
      {
        "type": "node",
        "id": 4844717533,
        "lat": 18.9551442,
        "lon": 72.8209059,
        "tags": {
          "amenity": "atm"
        }
      },
      {
        "type": "node",
        "id": 4844717534,
        "lat": 18.9552415,
        "lon": 72.8209545,
        "tags": {
          "amenity": "bank"
        }
      },
      {
        "type": "node",
        "id": 4844717535,
        "lat": 18.9543948,
        "lon": 72.8209834,
        "tags": {
          "amenity": "pharmacy",
          "healthcare": "pharmacy"
        }
      },
      {
        "type": "node",
        "id": 4844717539,
        "lat": 18.953486,
        "lon": 72.8167374,
        "tags": {
          "amenity": "bank",
          "name:en": "Punjab"
        }
      },
      {
        "type": "node",
        "id": 5085177523,
        "lat": 18.9569492,
        "lon": 72.8157222,
        "tags": {
          "amenity": "restaurant",
          "cuisine": "south_Indian",
          "name:en": "Vanakkam Vihar"
        }
      },
      {
        "type": "node",
        "id": 5085177621,
        "lat": 18.9559804,
        "lon": 72.8151134,
        "tags": {
          "addr:city": "Mumbai",
          "addr:housenumber": "3 Kala Bhavan",
          "addr:postcode": "400010",
          "addr:street": "Mathew Road",
          "addr:unit": "14",
          "amenity": "clinic",
          "description": "Eye and Dental Clinic\nEmergency Appointments available",
          "email": "areteclinics@gmail.com",
          "healthcare": "clinic",
          "name": "Arete Clinics- Eye and Dental",
          "name:en": "Arete Clinics- Eye and Dental",
          "opening_hours": "Mo-Sa 10:00-19:00",
          "phone": "+912223645350",
          "website": "http://www.areteclinics.in",
          "wheelchair": "limited"
        }
      },
      {
        "type": "node",
        "id": 5090943810,
        "lat": 18.9564555,
        "lon": 72.8159459,
        "tags": {
          "addr:city": "Mumbai",
          "addr:district": "Mumbai",
          "addr:postcode": "400004",
          "addr:street": "Mama Paramanand Marg",
          "amenity": "restaurant",
          "cuisine": "indian",
          "email": "hello@tewaris.com",
          "name": "Tewari Brothers Mithaiwala",
          "opening_hours": "Mo-Su 08:00-21:30",
          "phone": "+91-7666235386"
        }
      },
      {
        "type": "node",
        "id": 5091220114,
        "lat": 18.9569144,
        "lon": 72.8153932,
        "tags": {
          "amenity": "pharmacy",
          "healthcare": "pharmacy",
          "name": "Rainbow Chemist"
        }
      },
      {
        "type": "node",
        "id": 5283982922,
        "lat": 18.9554204,
        "lon": 72.8137657,
        "tags": {
          "amenity": "cafe",
          "name": "Third Wave Coffee"
        }
      },
      {
        "type": "node",
        "id": 6292840586,
        "lat": 18.9617036,
        "lon": 72.8195439,
        "tags": {
          "amenity": "clinic",
          "healthcare": "clinic",
          "name": "Nicholson Eye Clinic"
        }
      },
      {
        "type": "node",
        "id": 6356585085,
        "lat": 18.9597133,
        "lon": 72.8197009,
        "tags": {
          "addr:postcode": "400004",
          "addr:street": "Grant Road",
          "amenity": "restaurant",
          "cuisine": "chicken;indian",
          "diet:vegetarian": "yes",
          "name:en": "Mughlai Fusion",
          "phone": "+91 22 2382 2402"
        }
      },
      {
        "type": "node",
        "id": 6965624162,
        "lat": 18.9573572,
        "lon": 72.8132718,
        "tags": {
          "addr:city": "Mumbai",
          "addr:housenumber": "2, Parmanand Building",
          "addr:postcode": "400007",
          "addr:street": "A R Rangnekar Marg",
          "air_conditioning": "no",
          "amenity": "restaurant",
          "cuisine": "indian",
          "name": "Narayan Dosa",
          "opening_hours": "Mo-Su 12:00-23:00",
          "phone": "+919819057490 +919920793287"
        }
      },
      {
        "type": "node",
        "id": 6965624171,
        "lat": 18.9573588,
        "lon": 72.8132296,
        "tags": {
          "addr:city": "Mumbai",
          "addr:housenumber": "1 & 2 Parmanand Building",
          "addr:postcode": "400007",
          "addr:street": "A R Rangnekar Marg",
          "air_conditioning": "no",
          "amenity": "fast_food",
          "cuisine": "pizza;chinese;italian;burger;sandwich;salads;soup",
          "delivery": "yes",
          "drive_through": "no",
          "name": "Mama Mia!",
          "opening_hours": "Mo-Su 11:00-23:00",
          "phone": "+91226520 7659 +917304480113 +917304480112"
        }
      },
      {
        "type": "node",
        "id": 7044466685,
        "lat": 18.9576821,
        "lon": 72.821319,
        "tags": {
          "addr:district": "Mumbai",
          "addr:full": "E -1st Floor, Bhaveshwar Vihar Svp Road, Prathna Samaj,Opposite Hurkiondas Hospital, Girgaum",
          "addr:postcode": "400004",
          "addr:state": "Maharashtra",
          "amenity": "hospital",
          "healthcare": "hospital",
          "name": "Dr. Yash Shah Total Eye Care",
          "source": "OpenGovernmentData"
        }
      },
      {
        "type": "node",
        "id": 7045065720,
        "lat": 18.9529564,
        "lon": 72.8177213,
        "tags": {
          "addr:district": "Mumbai",
          "addr:full": "Hospital Address: Krishna Nivas, Junction Of Karve Road , & R R Roy Road, Girgaon",
          "addr:postcode": "400004",
          "addr:state": "Maharashtra",
          "amenity": "clinic",
          "healthcare": "clinic",
          "name": "Ursekar Laser and Microssurgery Eye Clinic",
          "source": "OpenGovernmentData"
        }
      },
      {
        "type": "node",
        "id": 7048433639,
        "lat": 18.956311,
        "lon": 72.8133863,
        "tags": {
          "addr:district": "Mumbai",
          "addr:full": "105 A&C & 405 A Sukh Sagar, N.S. Patkar Marg, Opera House",
          "addr:postcode": "400007",
          "addr:state": "Maharashtra",
          "amenity": "hospital",
          "healthcare": "hospital",
          "name": "Foresight Eye Center",
          "source": "OpenGovernmentData"
        }
      },
      {
        "type": "node",
        "id": 7049617511,
        "lat": 18.9534457,
        "lon": 72.817065,
        "tags": {
          "addr:district": "Mumbai",
          "addr:full": "Bach By View, 2nd Floor, 3-A,Mama Parmanand Marg, Near Charni Road Station",
          "addr:postcode": "400004",
          "addr:state": "Maharashtra",
          "amenity": "clinic",
          "healthcare": "clinic",
          "name": "Bay View Clinic",
          "source": "OpenGovernmentData"
        }
      },
      {
        "type": "node",
        "id": 7052365607,
        "lat": 18.9568031,
        "lon": 72.8190404,
        "tags": {
          "addr:district": "Mumbai",
          "addr:full": "9,Dr, D.D. Sathe Marg",
          "addr:postcode": "400004",
          "addr:state": "Maharashtra",
          "amenity": "hospital",
          "healthcare": "hospital",
          "healthcare:speciality": "general;gynaecology",
          "name": "Brahman Sabha, Mhaskar Gruh and General Nursing Home",
          "phone": "+91 22 23871999",
          "source": "OpenGovernmentData"
        }
      },
      {
        "type": "node",
        "id": 7055428168,
        "lat": 18.957344,
        "lon": 72.8248367,
        "tags": {
          "addr:district": "Mumbai",
          "addr:full": "Mahaprabhu Krupa, 1st Floor, Room No.5, Near Alankar Cinema, Girgaum -Charni Road",
          "addr:postcode": "400004",
          "addr:state": "Maharashtra",
          "amenity": "hospital",
          "name": "Yogeshwar Surgical Clinic and Nursing Home - Mumbai",
          "source": "OpenGovernmentData"
        }
      },
      {
        "type": "node",
        "id": 7055432245,
        "lat": 18.9565951,
        "lon": 72.8142688,
        "tags": {
          "addr:district": "Mumbai",
          "addr:full": "534, Bombay Mutual Terrace, 4Th Floor, Opera House",
          "addr:postcode": "400007",
          "addr:state": "Maharashtra",
          "amenity": "clinic",
          "healthcare": "clinic",
          "name": "Palshetkar Patil Nursing Home",
          "source": "OpenGovernmentData"
        }
      },
      {
        "type": "node",
        "id": 7066505804,
        "lat": 18.9547128,
        "lon": 72.8182693,
        "tags": {
          "addr:district": "Mumbai",
          "addr:full": "266 , Patel Bldg Opposite Central Cinema Girgaum",
          "addr:postcode": "400004",
          "addr:state": "Maharashtra",
          "amenity": "hospital",
          "healthcare": "hospital",
          "name": "Beramjis Hospital",
          "source": "OpenGovernmentData"
        }
      },
      {
        "type": "node",
        "id": 7068194935,
        "lat": 18.9565215,
        "lon": 72.8141896,
        "tags": {
          "addr:district": "Mumbai",
          "addr:full": "Goola Mansion, Jam-E-Jamshed Road, Near Five Gardens",
          "addr:postcode": "400019",
          "addr:state": "Maharashtra",
          "amenity": "clinic",
          "healthcare": "clinic",
          "name": "Narvekar Clinics",
          "source": "OpenGovernmentData"
        }
      },
      {
        "type": "node",
        "id": 7073672865,
        "lat": 18.9571912,
        "lon": 72.8229122,
        "tags": {
          "addr:district": "Mumbai",
          "addr:full": "V.P.Road",
          "addr:postcode": "400004",
          "addr:state": "Maharashtra",
          "amenity": "hospital",
          "name": "Dr.Pai Dhungat Maternity and Nursing Home",
          "source": "OpenGovernmentData"
        }
      },
      {
        "type": "node",
        "id": 7073944671,
        "lat": 18.9498421,
        "lon": 72.8201012,
        "tags": {
          "addr:district": "Mumbai",
          "addr:full": "Netaji Subash Road",
          "addr:postcode": "400002",
          "addr:state": "Maharashtra",
          "amenity": "hospital",
          "healthcare": "hospital",
          "name": "Smt. Kamladevi Gauridutt Mittal Ayurvedic Hospital",
          "source": "OpenGovernmentData"
        }
      },
      {
        "type": "node",
        "id": 7073949849,
        "lat": 18.9563909,
        "lon": 72.8133488,
        "tags": {
          "addr:district": "Mumbai",
          "addr:full": "202-A, Sukh Sagar,2nd Floor, N S Patkar Marg",
          "addr:postcode": "400007",
          "addr:state": "Maharashtra",
          "amenity": "hospital",
          "healthcare": "hospital",
          "name": "Samyak Drishti Eye Centre",
          "source": "OpenGovernmentData"
        }
      },
      {
        "type": "node",
        "id": 7118934813,
        "lat": 18.9572494,
        "lon": 72.8195089,
        "tags": {
          "addr:city": "Mumbai",
          "addr:housenumber": "273, Prathana Samaj Corner",
          "addr:postcode": "400004",
          "addr:street": "Vithalbhai Patel Marg",
          "amenity": "restaurant",
          "cuisine": "indian;chinese;pizza;sandwich;juice",
          "delivery": "yes",
          "diet:vegetarian": "yes",
          "name": "Nityanand Fast Food",
          "opening_hours": "Mo-Su 10:00-00:30",
          "phone": "+91 22 2380 9614;+91 22 6635 7182"
        }
      },
      {
        "type": "node",
        "id": 7279287985,
        "lat": 18.9506405,
        "lon": 72.8287617,
        "tags": {
          "amenity": "atm",
          "operator": "State Bank of India (SBI)"
        }
      },
      {
        "type": "node",
        "id": 7607557871,
        "lat": 18.961983,
        "lon": 72.8265104,
        "tags": {
          "addr:district": "Mumbai",
          "addr:full": "MS Ali Road, Siddharth Nagar, Kamathipura, Mumbai",
          "addr:postcode": "400008",
          "addr:state": "Maharashtra",
          "amenity": "hospital",
          "healthcare": "hospital",
          "name": "BMC Eye Hospital ,Kamathipura",
          "source": "Local Knowledge"
        }
      },
      {
        "type": "node",
        "id": 7664032187,
        "lat": 18.959185,
        "lon": 72.823862,
        "tags": {
          "addr:district": "Mumbai City",
          "addr:full": "Khemraj Srikrishna Das Marg, Grant Road, Khetwadi, Girgaon, Mumbai",
          "addr:postcode": "400004",
          "addr:state": "Maharastra",
          "amenity": "hospital",
          "healthcare": "hospital",
          "name": "Dr. Sanjay Shah Hospital",
          "source": "Local Knowledge"
        }
      },
      {
        "type": "node",
        "id": 7664032188,
        "lat": 18.9513853,
        "lon": 72.8236501,
        "tags": {
          "addr:district": "Mumbai City",
          "addr:full": "Zaobawadi Road, Marine Lines East, Thakurdwar, Kalbadevi, Mumbai",
          "addr:postcode": "400002",
          "addr:state": "Maharastra",
          "amenity": "hospital",
          "healthcare": "hospital",
          "name": "Suryakant Wagal Maternity Hospital",
          "source": "Local Knowledge"
        }
      },
      {
        "type": "node",
        "id": 7664032200,
        "lat": 18.9570962,
        "lon": 72.8115973,
        "tags": {
          "addr:district": "Mumbai City",
          "addr:full": "KM Munshi Road, Gamdevi, Mumbai",
          "addr:postcode": "400007",
          "addr:state": "Maharastra",
          "amenity": "hospital",
          "name": "Dolby Hospital",
          "source": "Local Knowledge"
        }
      },
      {
        "type": "node",
        "id": 7664032207,
        "lat": 18.9586366,
        "lon": 72.8136684,
        "tags": {
          "addr:district": "Mumbai City",
          "addr:full": "Ground Floor, Shiv Tapi Building, H.Goregaonkar Road, Gamdevi, Mumbai",
          "addr:postcode": "400007",
          "addr:state": "Maharastra",
          "amenity": "clinic",
          "healthcare": "clinic",
          "name": "Cods Clinic",
          "source": "Local Knowledge"
        }
      },
      {
        "type": "node",
        "id": 8839016426,
        "lat": 18.957899,
        "lon": 72.8227002,
        "tags": {
          "amenity": "bank",
          "atm": "yes",
          "brand": "Bank of Baroda",
          "brand:wikidata": "Q2003797",
          "brand:wikipedia": "en:Bank of Baroda",
          "name": "Bank of Baroda"
        }
      },
      {
        "type": "node",
        "id": 8839016427,
        "lat": 18.959596,
        "lon": 72.8196746,
        "tags": {
          "amenity": "pharmacy",
          "dispensing": "yes",
          "healthcare": "pharmacy",
          "name": "Noble Chemist"
        }
      },
      {
        "type": "node",
        "id": 8839119222,
        "lat": 18.9585769,
        "lon": 72.8219474,
        "tags": {
          "addr:city": "Mumbai",
          "addr:postcode": "400004",
          "addr:street": "A B Kolhatkar Marg",
          "amenity": "clinic",
          "healthcare": "clinic",
          "name": "Mumbai Clinic"
        }
      },
      {
        "type": "node",
        "id": 9918840782,
        "lat": 18.9555852,
        "lon": 72.8272697,
        "tags": {
          "leisure": "park"
        }
      },
      {
        "type": "node",
        "id": 11159452449,
        "lat": 18.9561284,
        "lon": 72.8131928,
        "tags": {
          "amenity": "cafe",
          "name": "Belgian Waffle"
        }
      },
      {
        "type": "node",
        "id": 11159468367,
        "lat": 18.95647,
        "lon": 72.8140224,
        "tags": {
          "amenity": "restaurant",
          "name": "Canto Cafe & Bar"
        }
      },
      {
        "type": "node",
        "id": 11159473009,
        "lat": 18.9589107,
        "lon": 72.8173066,
        "tags": {
          "amenity": "cafe",
          "name": "Vasant Bhuvan"
        }
      },
      {
        "type": "node",
        "id": 11341062473,
        "lat": 18.9536335,
        "lon": 72.8196898,
        "tags": {
          "addr:city": "Mumbai",
          "addr:district": "Mumbai",
          "addr:housenumber": "180-B-5 Gaiwadi Girgaon Charni Road",
          "addr:postcode": "400004",
          "addr:street": "Jagannath Shankarsheth Marg",
          "amenity": "clinic",
          "healthcare": "clinic",
          "healthcare:speciality": "ayurveda",
          "name": "Dr Pandit's Ayurveda and Panchakarma Clinic",
          "opening_hours": "mo-sa 11.30-6.30",
          "operator": "Dr Mohit Pandit",
          "operator:type": "private"
        }
      },
      {
        "type": "node",
        "id": 11443658469,
        "lat": 18.955594,
        "lon": 72.8133136,
        "tags": {
          "addr:postcode": "400007",
          "addr:street": "Marine Drive",
          "amenity": "restaurant",
          "cuisine": "indian;mexican",
          "name:en": "Cream Centre"
        }
      },
      {
        "type": "node",
        "id": 11443658569,
        "lat": 18.9556326,
        "lon": 72.8132334,
        "tags": {
          "addr:postcode": "400007",
          "addr:street": "Marine Drive",
          "amenity": "restaurant",
          "cuisine": "indian;mexican",
          "name:en": "New Yorker"
        }
      },
      {
        "type": "node",
        "id": 11456147261,
        "lat": 18.959466,
        "lon": 72.8173294,
        "tags": {
          "amenity": "bank",
          "brand": "Kotak Mahindra Bank",
          "brand:wikidata": "Q2040404",
          "name": "Kotak Mahindra Bank"
        }
      },
      {
        "type": "node",
        "id": 11456249200,
        "lat": 18.9578805,
        "lon": 72.8166755,
        "tags": {
          "amenity": "bank",
          "brand": "ICICI Bank",
          "brand:wikidata": "Q1653258",
          "name": "ICICI Bank",
          "short_name": "ICICI"
        }
      },
      {
        "type": "node",
        "id": 11542402054,
        "lat": 18.9546757,
        "lon": 72.8148499,
        "tags": {
          "addr:housenumber": "39B",
          "addr:street": "Chowpatty Seaface",
          "amenity": "restaurant",
          "name": "Revival"
        }
      },
      {
        "type": "node",
        "id": 11637734870,
        "lat": 18.9560118,
        "lon": 72.8127956,
        "tags": {
          "amenity": "cafe",
          "internet_access": "wlan",
          "name:en": "Belgian waffles and ice cream",
          "name:ru": "\u0412\u0430\u0444\u043b\u0438 \u0438 \u043c\u043e\u0440\u043e\u0436\u0435\u043d\u043e\u0435"
        }
      },
      {
        "type": "node",
        "id": 11962469384,
        "lat": 18.9571447,
        "lon": 72.8172193,
        "tags": {
          "addr:district": "Mumbai",
          "addr:housenumber": "Shop No. 4,",
          "addr:street": "487, Murad Mansion, Sardar Vallabhbhai Patel Road",
          "amenity": "restaurant",
          "name": "7th Heaven Girgaon"
        }
      },
      {
        "type": "node",
        "id": 12529723939,
        "lat": 18.956454,
        "lon": 72.8119758,
        "tags": {
          "amenity": "cafe",
          "brand": "Starbucks",
          "brand:wikidata": "Q37158",
          "cuisine": "coffee_shop",
          "internet_access": "yes",
          "internet_access:fee": "no",
          "name": "Starbucks",
          "official_name": "Starbucks Coffee",
          "opening_hours": "Mo-Su 09:00-21:00",
          "outdoor_seating": "yes",
          "takeaway": "yes"
        }
      },
      {
        "type": "node",
        "id": 12843656848,
        "lat": 18.9563946,
        "lon": 72.81902,
        "tags": {
          "addr:city": "Mumbai",
          "addr:district": "Mumbai",
          "addr:housenumber": "210",
          "addr:postcode": "400004",
          "addr:street": "Raja Ram Mohan Roy Road (Charni Road)",
          "amenity": "clinic",
          "email": "shreechandraprabhmedical@gmail.com",
          "healthcare": "clinic",
          "healthcare:speciality": "general;ophthalmology;gynaecology;paediatrics;dentist;dermatology;psychiatry;otolaryngology;radiology;physiotherapy;urology;blood_check;child_psychiatry;pathology",
          "name": "Shree Chandraprabh Jain Medical Centre",
          "opening_hours": "Mo-Sa 09:00-20:00",
          "phone": "+91-9324292935, +91-22-23804129"
        }
      },
      {
        "type": "node",
        "id": 12960706001,
        "lat": 18.9559591,
        "lon": 72.8162091,
        "tags": {
          "addr:city": "Mumbai",
          "addr:district": "Mumbai",
          "addr:housenumber": "463",
          "addr:postcode": "400004",
          "addr:street": "Dr Dadasaheb Bhadkamkar Marg",
          "amenity": "restaurant",
          "cuisine": "indian;juice;fast_food;pizza;pasta;sandwich;asian;ice_cream;dessert",
          "diet:vegetarian": "yes",
          "name": "Juice Time",
          "opening_hours": "Mo-Su 13:00-02:00",
          "phone": "+91-7045111122"
        }
      },
      {
        "type": "node",
        "id": 12960706002,
        "lat": 18.9563929,
        "lon": 72.8155788,
        "tags": {
          "addr:city": "Mumbai",
          "addr:district": "Mumbai",
          "addr:postcode": "400004",
          "addr:street": "Mama Paramanand Marg",
          "amenity": "restaurant",
          "cuisine": "salad;soup;juice;pizza;burger;breakfast;dessert;coffee_shop;tea;european;mediterranean;asian;indian;thai;lebanese",
          "diet:gluten_free": "yes",
          "diet:healthy": "yes",
          "diet:vegan": "yes",
          "diet:vegetarian": "yes",
          "name": "Sante Spa Cuisine",
          "opening_hours": "Mo-Su 12:00-00:00",
          "phone": "+91-9011223344,+91-8767862222, +91-9820297879"
        }
      }
    ]
  },
  "pois_2_5km": {
    "version": 0.6,
    "generator": "Overpass API 0.7.62.8 e802775f",
    "osm3s": {
      "timestamp_osm_base": "2025-09-06T07:52:46Z",
      "copyright": "The data included in this document is from www.openstreetmap.org. The data is made available under ODbL."
    },
    "elements": [
      {
        "type": "node",
        "id": 316306549,
        "lat": 18.9406037,
        "lon": 72.8350795,
        "tags": {
          "level": "0",
          "name": "Mumbai CSMT (Suburban)",
          "official_name": "Mumbai Chhatrapati Shivaji Maharaj Terminus (Suburban)",
          "public_transport": "stop_position",
          "railway": "stop",
          "ref": "1",
          "source": "Esri World imagery (2024-09-14)",
          "tactile_paving": "yes",
          "train": "yes"
        }
      },
      {
        "type": "node",
        "id": 342120224,
        "lat": 18.9624027,
        "lon": 72.8091494,
        "tags": {
          "amenity": "theatre",
          "name": "Tejpal Hall"
        }
      },
      {
        "type": "node",
        "id": 456203872,
        "lat": 18.9652526,
        "lon": 72.8040921,
        "tags": {
          "amenity": "fuel"
        }
      },
      {
        "type": "node",
        "id": 462270914,
        "lat": 18.9605094,
        "lon": 72.8012499,
        "tags": {
          "amenity": "fuel"
        }
      },
      {
        "type": "node",
        "id": 527987797,
        "lat": 18.9632656,
        "lon": 72.8159839,
        "tags": {
          "loc_ref": "2",
          "name": "Grant Road",
          "public_transport": "stop_position",
          "train": "yes"
        }
      },
      {
        "type": "node",
        "id": 527987828,
        "lat": 18.9520361,
        "lon": 72.8179252,
        "tags": {
          "name": "Charni Road",
          "name:hi": "\u091a\u0930\u094d\u0928\u0940 \u0930\u094b\u0921",
          "network": "WR",
          "operator": "IR",
          "public_transport": "stop_position",
          "railway": "stop",
          "train": "yes"
        }
      },
      {
        "type": "node",
        "id": 528074073,
        "lat": 18.962847,
        "lon": 72.8159021,
        "tags": {
          "loc_ref": "3",
          "name": "Grant Road",
          "public_transport": "stop_position",
          "train": "yes"
        }
      },
      {
        "type": "node",
        "id": 528074116,
        "lat": 18.9626624,
        "lon": 72.815886,
        "tags": {
          "loc_ref": "4",
          "name": "Grant Road",
          "public_transport": "stop_position",
          "train": "yes"
        }
      },
      {
        "type": "node",
        "id": 528079150,
        "lat": 18.9527932,
        "lon": 72.8168508,
        "tags": {
          "name": "Charni Road",
          "name:hi": "\u091a\u0930\u094d\u0928\u0940 \u0930\u094b\u0921",
          "network": "WR",
          "operator": "IR",
          "public_transport": "stop_position",
          "railway": "stop",
          "train": "yes"
        }
      },
      {
        "type": "node",
        "id": 528082473,
        "lat": 18.9521256,
        "lon": 72.818007,
        "tags": {
          "name": "Charni Road",
          "name:hi": "\u091a\u0930\u094d\u0928\u0940 \u0930\u094b\u0921",
          "network": "WR",
          "operator": "IR",
          "public_transport": "stop_position",
          "railway": "stop",
          "train": "yes"
        }
      },
      {
        "type": "node",
        "id": 528082558,
        "lat": 18.9520922,
        "lon": 72.8179808,
        "tags": {
          "name": "Charni Road",
          "name:hi": "\u091a\u0930\u094d\u0928\u0940 \u0930\u094b\u0921",
          "network": "WR",
          "operator": "IR",
          "public_transport": "stop_position",
          "railway": "stop",
          "train": "yes"
        }
      },
      {
        "type": "node",
        "id": 528115484,
        "lat": 18.9465849,
        "lon": 72.8230857,
        "tags": {
          "local_ref": "2",
          "name": "Marine Lines",
          "name:hi": "\u092e\u0930\u0940\u0928 \u0932\u093e\u0907\u0928\u094d\u0938",
          "network": "WR",
          "operator": "IR",
          "public_transport": "stop_position",
          "railway": "stop",
          "train": "yes"
        }
      },
      {
        "type": "node",
        "id": 528115491,
        "lat": 18.9465688,
        "lon": 72.8230534,
        "tags": {
          "local_ref": "1",
          "name": "Marine Lines",
          "name:hi": "\u092e\u0930\u0940\u0928 \u0932\u093e\u0907\u0928\u094d\u0938",
          "network": "WR",
          "operator": "IR",
          "public_transport": "stop_position",
          "railway": "stop",
          "train": "yes"
        }
      },
      {
        "type": "node",
        "id": 528216004,
        "lat": 18.9707096,
        "lon": 72.8188347,
        "tags": {
          "IR:zone": "WR:CCG",
          "local_ref": "2",
          "name": "Mumbai Central (local)",
          "name:hi": "\u092e\u0941\u092e\u094d\u092c\u0908 \u0938\u0947\u0928\u094d\u091f\u094d\u0930\u0932",
          "name:mr": "\u092e\u0941\u0902\u092c\u0908 \u0938\u0947\u0902\u091f\u094d\u0930\u0932",
          "network": "WR",
          "old_name": "Bellasis Road",
          "operator": "IR",
          "public_transport": "stop_position",
          "railway": "stop",
          "ref": "MMCT",
          "train": "yes"
        }
      },
      {
        "type": "node",
        "id": 619293646,
        "lat": 18.9406335,
        "lon": 72.8353869,
        "tags": {
          "level": "0",
          "name": "Mumbai CSMT (Suburban)",
          "official_name": "Mumbai Chhatrapati Shivaji Maharaj Terminus (Suburban)",
          "public_transport": "stop_position",
          "railway": "stop",
          "ref": "4",
          "source": "Esri World imagery (2024-09-14)",
          "tactile_paving": "yes",
          "train": "yes"
        }
      },
      {
        "type": "node",
        "id": 619293660,
        "lat": 18.9527822,
        "lon": 72.8381832,
        "tags": {
          "name": "Masjid",
          "public_transport": "stop_position",
          "railway": "stop",
          "ref": "3",
          "train": "yes"
        }
      },
      {
        "type": "node",
        "id": 619293667,
        "lat": 18.9618375,
        "lon": 72.8393604,
        "tags": {
          "loc_ref": "1",
          "name": "Sandhurst Road",
          "public_transport": "stop_position",
          "railway": "stop",
          "ref": "SNRD:1",
          "train": "yes"
        }
      },
      {
        "type": "node",
        "id": 619344379,
        "lat": 18.9620981,
        "lon": 72.8186387,
        "tags": {
          "amenity": "cinema",
          "name": "Goodwill Theatre"
        }
      },
      {
        "type": "node",
        "id": 619377230,
        "lat": 18.9612251,
        "lon": 72.8234361,
        "tags": {
          "amenity": "cinema",
          "name": "New Roshan Talkies"
        }
      },
      {
        "type": "node",
        "id": 619377234,
        "lat": 18.9615152,
        "lon": 72.8231708,
        "tags": {
          "amenity": "cinema",
          "name": "Alfred Talkies"
        }
      },
      {
        "type": "node",
        "id": 619377620,
        "lat": 18.9618801,
        "lon": 72.821185,
        "tags": {
          "amenity": "cinema",
          "name": "Super Plaza Cinema"
        }
      },
      {
        "type": "node",
        "id": 621906366,
        "lat": 18.9527837,
        "lon": 72.8380527,
        "tags": {
          "name": "Masjid",
          "public_transport": "stop_position",
          "railway": "stop",
          "ref": "1",
          "train": "yes"
        }
      },
      {
        "type": "node",
        "id": 621948374,
        "lat": 18.9343947,
        "lon": 72.8272055,
        "tags": {
          "local_ref": "1",
          "name": "Churchgate",
          "name:hi": "\u091a\u0930\u094d\u091a\u0917\u0947\u091f",
          "public_transport": "stop_position",
          "railway": "stop",
          "ref": "CCG",
          "train": "yes"
        }
      },
      {
        "type": "node",
        "id": 631579580,
        "lat": 18.9633549,
        "lon": 72.8158261,
        "tags": {
          "internet_access": "no",
          "name": "Grant Road",
          "name:hi": "\u0917\u094d\u0930\u093e\u0902\u091f \u0930\u094b\u0921",
          "name:ml": "\u0d17\u0d4d\u0d30\u0d3e\u0d28\u0d4d\u0d31\u0d4d \u0d31\u0d4b\u0d21\u0d4d",
          "name:mr": "\u0917\u094d\u0930\u0901\u091f \u0930\u094b\u0921",
          "network": "Mumbai Suburban Railway",
          "network:wikidata": "Q3273422",
          "operator": "WR",
          "public_transport": "station",
          "railway": "station",
          "ref": "GTR",
          "train": "yes",
          "wikidata": "Q5226483",
          "wikipedia": "en:Grant Road railway station"
        }
      },
      {
        "type": "node",
        "id": 1234805938,
        "lat": 18.9408204,
        "lon": 72.836017,
        "tags": {
          "level": "0",
          "name": "Mumbai CSMT (Suburban)",
          "official_name": "Mumbai Chhatrapati Shivaji Maharaj Terminus (Suburban)",
          "public_transport": "stop_position",
          "railway": "stop",
          "ref": "9",
          "source": "Esri World imagery (2024-09-14)",
          "tactile_paving": "yes",
          "train": "yes"
        }
      },
      {
        "type": "node",
        "id": 1234805948,
        "lat": 18.94081,
        "lon": 72.8359068,
        "tags": {
          "level": "0",
          "name": "Mumbai CSMT (Suburban)",
          "official_name": "Mumbai Chhatrapati Shivaji Maharaj Terminus (Suburban)",
          "public_transport": "stop_position",
          "railway": "stop",
          "ref": "8",
          "source": "Esri World imagery (2024-09-14)",
          "tactile_paving": "yes",
          "train": "yes"
        }
      },
      {
        "type": "node",
        "id": 1234815591,
        "lat": 18.9408811,
        "lon": 72.8362973,
        "tags": {
          "name": "CSMT",
          "public_transport": "stop_position",
          "railway": "stop",
          "ref": "CSTM:11",
          "train": "yes"
        }
      },
      {
        "type": "node",
        "id": 1234815595,
        "lat": 18.9417555,
        "lon": 72.8367595,
        "tags": {
          "name": "CSMT",
          "public_transport": "stop_position",
          "railway": "stop",
          "ref": "CSTM:15",
          "train": "yes"
        }
      },
      {
        "type": "node",
        "id": 1234815598,
        "lat": 18.9408763,
        "lon": 72.8361599,
        "tags": {
          "name": "CSMT",
          "public_transport": "stop_position",
          "railway": "stop",
          "ref": "CSTM:10",
          "train": "yes"
        }
      },
      {
        "type": "node",
        "id": 1234815616,
        "lat": 18.9452282,
        "lon": 72.8376755,
        "tags": {
          "name": "CSMT",
          "public_transport": "stop_position",
          "railway": "stop",
          "ref": "16",
          "train": "yes"
        }
      },
      {
        "type": "node",
        "id": 1234823928,
        "lat": 18.9406221,
        "lon": 72.8352693,
        "tags": {
          "level": "0",
          "name": "Mumbai CSMT (Suburban)",
          "official_name": "Mumbai Chhatrapati Shivaji Maharaj Terminus (Suburban)",
          "public_transport": "stop_position",
          "railway": "stop",
          "ref": "3",
          "source": "Esri World imagery (2024-09-14)",
          "tactile_paving": "yes",
          "train": "yes"
        }
      },
      {
        "type": "node",
        "id": 1236334975,
        "lat": 18.9344455,
        "lon": 72.8275534,
        "tags": {
          "local_ref": "4",
          "name": "Churchgate",
          "name:hi": "\u091a\u0930\u094d\u091a\u0917\u0947\u091f",
          "public_transport": "stop_position",
          "railway": "stop",
          "ref": "CCG",
          "train": "yes"
        }
      },
      {
        "type": "node",
        "id": 1236335031,
        "lat": 18.9344286,
        "lon": 72.8274374,
        "tags": {
          "local_ref": "3",
          "name": "Churchgate",
          "name:hi": "\u091a\u0930\u094d\u091a\u0917\u0947\u091f",
          "public_transport": "stop_position",
          "railway": "stop",
          "ref": "CCG",
          "train": "yes"
        }
      },
      {
        "type": "node",
        "id": 1236335056,
        "lat": 18.9344117,
        "lon": 72.8273215,
        "tags": {
          "local_ref": "2",
          "name": "Churchgate",
          "name:hi": "\u091a\u0930\u094d\u091a\u0917\u0947\u091f",
          "public_transport": "stop_position",
          "railway": "stop",
          "ref": "CCG",
          "train": "yes"
        }
      },
      {
        "type": "node",
        "id": 1236410131,
        "lat": 18.9466312,
        "lon": 72.8231784,
        "tags": {
          "local_ref": "3",
          "name": "Marine Lines",
          "name:hi": "\u092e\u0930\u0940\u0928 \u0932\u093e\u0907\u0928\u094d\u0938",
          "network": "WR",
          "operator": "IR",
          "public_transport": "stop_position",
          "railway": "stop",
          "train": "yes"
        }
      },
      {
        "type": "node",
        "id": 1236410240,
        "lat": 18.9466502,
        "lon": 72.8232164,
        "tags": {
          "local_ref": "4",
          "name": "Marine Lines",
          "name:hi": "\u092e\u0930\u0940\u0928 \u0932\u093e\u0907\u0928\u094d\u0938",
          "network": "WR",
          "operator": "IR",
          "public_transport": "stop_position",
          "railway": "stop",
          "train": "yes"
        }
      },
      {
        "type": "node",
        "id": 1236589819,
        "lat": 18.9688493,
        "lon": 72.808826,
        "tags": {
          "amenity": "fuel",
          "cmt": "30-JAN-10 10:32:53",
          "description": "30-JAN-10 10:32:53",
          "ele": "48.672119",
          "name": "Fuel",
          "source": "GPS",
          "sym": "Gas Station"
        }
      },
      {
        "type": "node",
        "id": 2166796345,
        "lat": 18.9376728,
        "lon": 72.8332185,
        "tags": {
          "addr:postcode": "400001",
          "addr:street": "Amit Keshav Nayak Marg",
          "amenity": "cinema",
          "name": "New Excelsior Cinema",
          "name:de": "New Excelsior Cinema",
          "name:en": "New Excelsior Cinema",
          "phone": "022 2207 3830"
        }
      },
      {
        "type": "node",
        "id": 2166817451,
        "lat": 18.9406445,
        "lon": 72.8355003,
        "tags": {
          "level": "0",
          "name": "Mumbai CSMT (Suburban)",
          "official_name": "Mumbai Chhatrapati Shivaji Maharaj Terminus (Suburban)",
          "public_transport": "stop_position",
          "railway": "stop",
          "ref": "5",
          "source": "Esri World imagery (2024-09-14)",
          "tactile_paving": "yes",
          "train": "yes"
        }
      },
      {
        "type": "node",
        "id": 2166817452,
        "lat": 18.9406128,
        "lon": 72.8351737,
        "tags": {
          "level": "0",
          "name": "Mumbai CSMT (Suburban)",
          "official_name": "Mumbai Chhatrapati Shivaji Maharaj Terminus (Suburban)",
          "public_transport": "stop_position",
          "railway": "stop",
          "ref": "2",
          "source": "Esri World imagery (2024-09-14)",
          "tactile_paving": "yes",
          "train": "yes"
        }
      },
      {
        "type": "node",
        "id": 2166817453,
        "lat": 18.9406523,
        "lon": 72.8355803,
        "tags": {
          "level": "0",
          "name": "Mumbai CSMT (Suburban)",
          "official_name": "Mumbai Chhatrapati Shivaji Maharaj Terminus (Suburban)",
          "public_transport": "stop_position",
          "railway": "stop",
          "ref": "6",
          "source": "Esri World imagery (2024-09-14)",
          "tactile_paving": "yes",
          "train": "yes"
        }
      },
      {
        "type": "node",
        "id": 2175658375,
        "lat": 18.9408662,
        "lon": 72.8364907,
        "tags": {
          "name": "CSMT",
          "public_transport": "stop_position",
          "railway": "stop",
          "ref": "CSTM:13",
          "train": "yes"
        }
      },
      {
        "type": "node",
        "id": 2175658376,
        "lat": 18.9408787,
        "lon": 72.8363407,
        "tags": {
          "name": "CSMT",
          "public_transport": "stop_position",
          "railway": "stop",
          "ref": "CSTM:12",
          "train": "yes"
        }
      },
      {
        "type": "node",
        "id": 2175658385,
        "lat": 18.9417671,
        "lon": 72.8366107,
        "tags": {
          "name": "CSMT",
          "public_transport": "stop_position",
          "railway": "stop",
          "ref": "CSTM:14",
          "train": "yes"
        }
      },
      {
        "type": "node",
        "id": 2175658439,
        "lat": 18.9451809,
        "lon": 72.837865,
        "tags": {
          "name": "CSMT",
          "public_transport": "stop_position",
          "railway": "stop",
          "ref": "18",
          "train": "yes"
        }
      },
      {
        "type": "node",
        "id": 2175658440,
        "lat": 18.9451945,
        "lon": 72.8378123,
        "tags": {
          "name": "CSMT",
          "public_transport": "stop_position",
          "railway": "stop",
          "ref": "17",
          "train": "yes"
        }
      },
      {
        "type": "node",
        "id": 2175658444,
        "lat": 18.9452855,
        "lon": 72.8374542,
        "tags": {
          "name": "CSMT",
          "public_transport": "stop_position",
          "railway": "stop",
          "ref": "15",
          "train": "yes"
        }
      },
      {
        "type": "node",
        "id": 2175658446,
        "lat": 18.9453265,
        "lon": 72.837319,
        "tags": {
          "name": "CSMT",
          "public_transport": "stop_position",
          "railway": "stop",
          "ref": "14",
          "train": "yes"
        }
      },
      {
        "type": "node",
        "id": 2176850501,
        "lat": 18.9527822,
        "lon": 72.8381561,
        "tags": {
          "name": "Masjid",
          "public_transport": "stop_position",
          "railway": "stop",
          "ref": "2",
          "train": "yes"
        }
      },
      {
        "type": "node",
        "id": 2177554643,
        "lat": 18.9376489,
        "lon": 72.8343146,
        "tags": {
          "name": "Khadi Bhandar",
          "public_transport": "station",
          "ref": "01114"
        }
      },
      {
        "type": "node",
        "id": 2178025599,
        "lat": 18.9700757,
        "lon": 72.8195845,
        "tags": {
          "IR:zone": "WR:CCG",
          "local_ref": "5",
          "name": "Mumbai Central",
          "name:hi": "\u092e\u0941\u092e\u094d\u092c\u0908 \u0938\u0947\u0928\u094d\u091f\u094d\u0930\u0932",
          "name:mr": "\u092e\u0941\u0902\u092c\u0908 \u0938\u0947\u0902\u091f\u094d\u0930\u0932",
          "network": "WR",
          "operator": "IR",
          "public_transport": "stop_position",
          "railway": "stop",
          "ref": "MMCT",
          "train": "yes"
        }
      },
      {
        "type": "node",
        "id": 2178025600,
        "lat": 18.9700768,
        "lon": 72.8195436,
        "tags": {
          "IR:zone": "WR:CCG",
          "local_ref": "4",
          "name": "Mumbai Central",
          "name:hi": "\u092e\u0941\u092e\u094d\u092c\u0908 \u0938\u0947\u0928\u094d\u091f\u094d\u0930\u0932",
          "name:mr": "\u092e\u0941\u0902\u092c\u0908 \u0938\u0947\u0902\u091f\u094d\u0930\u0932",
          "network": "WR",
          "operator": "IR",
          "public_transport": "stop_position",
          "railway": "stop",
          "ref": "MMCT",
          "train": "yes"
        }
      },
      {
        "type": "node",
        "id": 2178025601,
        "lat": 18.9700908,
        "lon": 72.8193557,
        "tags": {
          "IR:zone": "WR:CCG",
          "local_ref": "3",
          "name": "Mumbai Central",
          "name:hi": "\u092e\u0941\u092e\u094d\u092c\u0908 \u0938\u0947\u0928\u094d\u091f\u094d\u0930\u0932",
          "name:mr": "\u092e\u0941\u0902\u092c\u0908 \u0938\u0947\u0902\u091f\u094d\u0930\u0932",
          "network": "WR",
          "operator": "IR",
          "public_transport": "stop_position",
          "railway": "stop",
          "ref": "MMCT",
          "train": "yes"
        }
      },
      {
        "type": "node",
        "id": 2178025602,
        "lat": 18.970091,
        "lon": 72.8193067,
        "tags": {
          "IR:zone": "WR:CCG",
          "local_ref": "2",
          "name": "Mumbai Central",
          "name:hi": "\u092e\u0941\u092e\u094d\u092c\u0908 \u0938\u0947\u0928\u094d\u091f\u094d\u0930\u0932",
          "name:mr": "\u092e\u0941\u0902\u092c\u0908 \u0938\u0947\u0902\u091f\u094d\u0930\u0932",
          "network": "WR",
          "operator": "IR",
          "public_transport": "stop_position",
          "railway": "stop",
          "ref": "MMCT",
          "train": "yes"
        }
      },
      {
        "type": "node",
        "id": 2178163576,
        "lat": 18.9609243,
        "lon": 72.8393719,
        "tags": {
          "internet_access": "no",
          "name": "Sandhurst Road",
          "name:hi": "\u0938\u0901\u0921\u0939\u0930\u094d\u0938\u094d\u091f \u0930\u094b\u0921",
          "name:ml": "\u0d38\u0d3e\u0d7b\u0d21\u0d4d\u0d39\u0d7c\u0d38\u0d4d\u0d31\u0d4d\u0d31\u0d4d \u0d31\u0d4b\u0d21\u0d4d",
          "network": "IR",
          "operator": "CR",
          "public_transport": "station",
          "railway": "station",
          "ref": "SNRD",
          "wikidata": "Q5226365",
          "wikipedia": "en:Sandhurst Road"
        }
      },
      {
        "type": "node",
        "id": 2178163625,
        "lat": 18.9608485,
        "lon": 72.8395868,
        "tags": {
          "name": "Sandhurst Road",
          "public_transport": "stop_position",
          "railway": "stop",
          "ref": "4",
          "train": "yes"
        }
      },
      {
        "type": "node",
        "id": 2178163626,
        "lat": 18.9608688,
        "lon": 72.8395412,
        "tags": {
          "name": "Sandhurst Road",
          "public_transport": "stop_position",
          "railway": "stop",
          "ref": "3",
          "train": "yes"
        }
      },
      {
        "type": "node",
        "id": 2178269313,
        "lat": 18.9706926,
        "lon": 72.8190255,
        "tags": {
          "IR:zone": "WR:CCG",
          "local_ref": "4",
          "name": "Mumbai Central (local)",
          "name:hi": "\u092e\u0941\u092e\u094d\u092c\u0908 \u0938\u0947\u0928\u094d\u091f\u094d\u0930\u0932",
          "name:mr": "\u092e\u0941\u0902\u092c\u0908 \u0938\u0947\u0902\u091f\u094d\u0930\u0932",
          "network": "WR",
          "old_name": "Bellasis Road",
          "operator": "IR",
          "public_transport": "stop_position",
          "railway": "stop",
          "ref": "MMCT",
          "train": "yes"
        }
      },
      {
        "type": "node",
        "id": 2178269316,
        "lat": 18.9707063,
        "lon": 72.8188911,
        "tags": {
          "IR:zone": "WR:CCG",
          "local_ref": "3",
          "name": "Mumbai Central (local)",
          "name:hi": "\u092e\u0941\u092e\u094d\u092c\u0908 \u0938\u0947\u0928\u094d\u091f\u094d\u0930\u0932",
          "name:mr": "\u092e\u0941\u0902\u092c\u0908 \u0938\u0947\u0902\u091f\u094d\u0930\u0932",
          "network": "WR",
          "old_name": "Bellasis Road",
          "operator": "IR",
          "public_transport": "stop_position",
          "railway": "stop",
          "ref": "MMCT",
          "train": "yes"
        }
      },
      {
        "type": "node",
        "id": 2630075002,
        "lat": 18.9518437,
        "lon": 72.8182401,
        "tags": {
          "IR:zone": "WR:CCG",
          "ele": "9",
          "internet_access": "no",
          "name": "Charni Road",
          "name:hi": "\u091a\u0930\u094d\u0928\u0940 \u0930\u094b\u0921",
          "name:ml": "\u0d1a\u0d7c\u0d23\u0d3f \u0d31\u0d4b\u0d21\u0d4d",
          "name:mr": "\u091a\u0930\u094d\u0928\u0940 \u0930\u094b\u0921",
          "network": "Mumbai Suburban Railway",
          "network:wikidata": "Q3273422",
          "operator": "WR",
          "public_transport": "station",
          "railway": "station",
          "ref": "CYR",
          "start_date": "1867",
          "train": "yes",
          "wikidata": "Q5121186",
          "wikipedia": "en:Charni Road railway station"
        }
      },
      {
        "type": "node",
        "id": 2630075006,
        "lat": 18.945764,
        "lon": 72.8237193,
        "tags": {
          "IR:zone": "WR:CCG",
          "ele": "7",
          "internet_access": "no",
          "name": "Marine Lines",
          "name:hi": "\u092e\u0930\u0940\u0928 \u0932\u093e\u0907\u0928\u094d\u0938",
          "name:ml": "\u0d2e\u0d31\u0d48\u0d7b \u0d32\u0d48\u0d7b\u0d38\u0d4d",
          "name:mr": "\u092e\u0930\u0940\u0928 \u0932\u093e\u0907\u0928\u094d\u0938",
          "network": "Mumbai Suburban Railway",
          "network:wikidata": "Q3273422",
          "operator": "WR",
          "public_transport": "station",
          "railway": "station",
          "ref": "MEL",
          "start_date": "1867",
          "train": "yes",
          "wikidata": "Q6764160",
          "wikipedia": "en:Marine Lines railway station"
        }
      },
      {
        "type": "node",
        "id": 2630075008,
        "lat": 18.9695855,
        "lon": 72.8193152,
        "tags": {
          "IR:zone": "WR:CCG",
          "ele": "6.62",
          "historic:name": "Bombay Central Terminal",
          "historic:ref": "BCT",
          "internet_access": "yes",
          "name": "Mumbai Central",
          "name:hi": "\u092e\u0941\u092e\u094d\u092c\u0908 \u0938\u0947\u0928\u094d\u091f\u094d\u0930\u0932",
          "name:ml": "\u0d2e\u0d41\u0d02\u0d2c\u0d48 \u0d38\u0d46\u0d7b\u0d1f\u0d4d\u0d30\u0d7d",
          "name:mr": "\u092e\u0941\u0902\u092c\u0908 \u0938\u0947\u0902\u091f\u094d\u0930\u0932",
          "network": "IR",
          "old_name": "Bellasis Road",
          "old_ref": "BCT",
          "operator": "WR",
          "public_transport": "station",
          "railway": "station",
          "ref": "MMCT",
          "start_date": "1930-12-18",
          "station": "terminal",
          "train": "yes",
          "wikidata": "Q3539796",
          "wikipedia": "en:Mumbai Central railway station"
        }
      },
      {
        "type": "node",
        "id": 3306535086,
        "lat": 18.9543825,
        "lon": 72.8149815,
        "tags": {
          "bus": "yes",
          "public_transport": "stop_position"
        }
      },
      {
        "type": "node",
        "id": 3306535087,
        "lat": 18.9550813,
        "lon": 72.8045683,
        "tags": {
          "bus": "yes",
          "public_transport": "stop_position"
        }
      },
      {
        "type": "node",
        "id": 3306535088,
        "lat": 18.9553543,
        "lon": 72.8047381,
        "tags": {
          "bus": "yes",
          "public_transport": "stop_position"
        }
      },
      {
        "type": "node",
        "id": 3306535090,
        "lat": 18.9557422,
        "lon": 72.8089986,
        "tags": {
          "bus": "yes",
          "public_transport": "stop_position"
        }
      },
      {
        "type": "node",
        "id": 3501418269,
        "lat": 18.9527773,
        "lon": 72.8382858,
        "tags": {
          "name": "Masjid",
          "public_transport": "stop_position",
          "railway": "stop",
          "ref": "4",
          "train": "yes"
        }
      },
      {
        "type": "node",
        "id": 3501419203,
        "lat": 18.9618507,
        "lon": 72.8394605,
        "tags": {
          "name": "Sandhurst Road",
          "public_transport": "stop_position",
          "railway": "stop",
          "ref": "2",
          "train": "yes"
        }
      },
      {
        "type": "node",
        "id": 4260136290,
        "lat": 18.9354797,
        "lon": 72.8271741,
        "tags": {
          "IR:zone": "WR:CCG",
          "internet_access": "wlan",
          "name": "Churchgate",
          "name:hi": "\u091a\u0930\u094d\u091a\u0917\u0947\u091f",
          "name:ml": "\u0d1a\u0d7c\u0d1a\u0d4d\u0d1a\u0d4d\u0d17\u0d47\u0d31\u0d4d\u0d31\u0d4d",
          "name:mr": "\u091a\u0930\u094d\u091a\u0917\u0947\u091f",
          "name:zh": "\u6559\u5802\u95e8\u603b\u7ad9",
          "network": "Mumbai Suburban Railway",
          "network:wikidata": "Q3273422",
          "old_ref": "C",
          "operator": "WR",
          "public_transport": "station",
          "railway": "station",
          "ref": "CCG",
          "start_date": "1867-04-12",
          "train": "yes",
          "wikidata": "Q5118143",
          "wikipedia": "en:Churchgate railway station"
        }
      },
      {
        "type": "node",
        "id": 4695310999,
        "lat": 18.9384231,
        "lon": 72.8329457,
        "tags": {
          "amenity": "cinema",
          "name:de": "Sterling",
          "name:en": "Sterling Theatre",
          "wikidata": "Q7611381",
          "wikipedia": "en:Sterling Cineplex"
        }
      },
      {
        "type": "node",
        "id": 4844675131,
        "lat": 18.9558692,
        "lon": 72.8325809,
        "tags": {
          "amenity": "fuel",
          "brand": "Indian Oil",
          "brand:wikidata": "Q1289348",
          "name": "Indian Oil",
          "name:en": "Indian oil"
        }
      },
      {
        "type": "node",
        "id": 4844717526,
        "lat": 18.95806,
        "lon": 72.8252896,
        "tags": {
          "amenity": "fuel",
          "name:en": "Bharat"
        }
      },
      {
        "type": "node",
        "id": 4844717822,
        "lat": 18.9580205,
        "lon": 72.8254129,
        "tags": {
          "amenity": "cinema",
          "name:en": "Alankar"
        }
      },
      {
        "type": "node",
        "id": 5085177522,
        "lat": 18.9560477,
        "lon": 72.8155711,
        "tags": {
          "addr:street": "Mama Paramanand Marg",
          "amenity": "theatre",
          "name:en": "Royal Opera House",
          "phone": "+912223690511",
          "wikidata": "Q3210038",
          "wikimedia_commons": "Category:Royal Opera House (Mumbai)",
          "wikipedia": "en:Royal Opera House (Mumbai)"
        }
      },
      {
        "type": "node",
        "id": 5091222622,
        "lat": 18.953846,
        "lon": 72.8163006,
        "tags": {
          "amenity": "fuel",
          "brand": "Bharat Petroleum",
          "brand:wikidata": "Q854826",
          "name": "Bharat Petroleum"
        }
      },
      {
        "type": "node",
        "id": 5174623523,
        "lat": 18.9536132,
        "lon": 72.8370396,
        "tags": {
          "amenity": "bus_station",
          "bus": "yes",
          "public_transport": "station"
        }
      },
      {
        "type": "node",
        "id": 5174656421,
        "lat": 18.9536931,
        "lon": 72.8370631,
        "tags": {
          "amenity": "bus_station",
          "bus": "yes",
          "public_transport": "station"
        }
      },
      {
        "type": "node",
        "id": 6166727726,
        "lat": 18.970701,
        "lon": 72.8186917,
        "tags": {
          "IR:zone": "WR:CCG",
          "local_ref": "1",
          "name": "Mumbai Central (local)",
          "name:hi": "\u092e\u0941\u092e\u094d\u092c\u0908 \u0938\u0947\u0928\u094d\u091f\u094d\u0930\u0932",
          "name:mr": "\u092e\u0941\u0902\u092c\u0908 \u0938\u0947\u0902\u091f\u094d\u0930\u0932",
          "network": "WR",
          "old_name": "Bellasis Road",
          "operator": "IR",
          "public_transport": "stop_position",
          "railway": "stop",
          "ref": "MMCT",
          "train": "yes"
        }
      },
      {
        "type": "node",
        "id": 6661895499,
        "lat": 18.9632818,
        "lon": 72.8159514,
        "tags": {
          "loc_ref": "1",
          "name": "Grant Road",
          "public_transport": "stop_position",
          "train": "yes"
        }
      },
      {
        "type": "node",
        "id": 7553582481,
        "lat": 18.9701022,
        "lon": 72.8191416,
        "tags": {
          "IR:zone": "WR:CCG",
          "local_ref": "1",
          "name": "Mumbai Central",
          "name:hi": "\u092e\u0941\u092e\u094d\u092c\u0908 \u0938\u0947\u0928\u094d\u091f\u094d\u0930\u0932",
          "name:mr": "\u092e\u0941\u0902\u092c\u0908 \u0938\u0947\u0902\u091f\u094d\u0930\u0932",
          "network": "WR",
          "operator": "IR",
          "public_transport": "stop_position",
          "railway": "stop",
          "ref": "MMCT",
          "train": "yes"
        }
      },
      {
        "type": "node",
        "id": 11456230010,
        "lat": 18.9378435,
        "lon": 72.8274982,
        "tags": {
          "amenity": "fuel",
          "brand": "Bharat Petroleum",
          "brand:wikidata": "Q854826",
          "name": "Bharat Petroleum"
        }
      },
      {
        "type": "node",
        "id": 11456250689,
        "lat": 18.9645936,
        "lon": 72.8198705,
        "tags": {
          "amenity": "fuel",
          "brand": "Bharat Petroleum",
          "brand:wikidata": "Q854826",
          "name": "Bharat Petroleum"
        }
      },
      {
        "type": "node",
        "id": 12171122260,
        "lat": 18.9522949,
        "lon": 72.8381771,
        "tags": {
          "internet_access": "no",
          "name": "Masjid",
          "name:hi": "\u092e\u0938\u094d\u091c\u093f\u0926",
          "name:ml": "\u0d2e\u0d38\u0d4d\u0d1c\u0d3f\u0d26\u0d4d",
          "name:mr": "\u092e\u0938\u094d\u091c\u093f\u0926",
          "name:ur": "\u0645\u0633\u062c\u062f",
          "network": "IR",
          "operator": "CR",
          "public_transport": "station",
          "railway": "station",
          "ref": "MSD",
          "train": "yes",
          "wikidata": "Q12445809",
          "wikipedia": "en:Masjid railway station"
        }
      },
      {
        "type": "node",
        "id": 12176277888,
        "lat": 18.9404925,
        "lon": 72.8357856,
        "tags": {
          "addr:city": "Mumbai",
          "addr:postcode": "400001",
          "addr:street": "Dr Dadabhai Naoroji Road",
          "internet_access": "wlan",
          "internet_access:ssid": "RailWire Wi-Fi",
          "name": "Mumbai CSMT",
          "name:hi": "\u092e\u0941\u0902\u092c\u0908 \u0938\u0940\u090f\u0938\u090f\u092e\u091f\u0940",
          "name:ur": "\u0645\u0645\u0628\u0626\u06cc \u0633\u06cc \u0627\u06cc\u0633 \u0627\u06cc\u0645 \u0679\u06cc \u0679\u0631\u0645\u06cc\u0646\u0644",
          "network": "CR",
          "operator": "Central Railway",
          "public_transport": "station",
          "railway": "station",
          "ref": "CSMT",
          "train": "yes",
          "wheelchair": "yes",
          "wikidata": "Q235884",
          "wikipedia": "en:Chhatrapati Shivaji Terminus railway station"
        }
      },
      {
        "type": "node",
        "id": 12176277892,
        "lat": 18.9408905,
        "lon": 72.8357077,
        "tags": {
          "level": "0",
          "name": "Mumbai CSMT (Suburban)",
          "official_name": "Mumbai Chhatrapati Shivaji Maharaj Terminus (Suburban)",
          "public_transport": "stop_position",
          "railway": "stop",
          "ref": "7",
          "source": "Esri World imagery (2024-09-14)",
          "tactile_paving": "yes",
          "train": "yes"
        }
      },
      {
        "type": "node",
        "id": 12298890606,
        "lat": 18.9526009,
        "lon": 72.8416795,
        "tags": {
          "amenity": "fuel",
          "brand": "Hindustan Petroleum",
          "brand:wikidata": "Q1619375",
          "name": "HP",
          "official_name": "Hindustan Petroleum"
        }
      },
      {
        "type": "node",
        "id": 12298890614,
        "lat": 18.9529035,
        "lon": 72.8417477,
        "tags": {
          "amenity": "fuel",
          "brand": "Bharat Petroleum",
          "brand:wikidata": "Q854826",
          "name": "Bharat Petroleum"
        }
      },
      {
        "type": "node",
        "id": 12299732770,
        "lat": 18.9573158,
        "lon": 72.842872,
        "tags": {
          "amenity": "fuel",
          "brand": "Indian Oil",
          "brand:wikidata": "Q1289348",
          "name": "Indian Oil"
        }
      },
      {
        "type": "node",
        "id": 13039612521,
        "lat": 18.944006,
        "lon": 72.8232477,
        "tags": {
          "amenity": "fuel",
          "name": "IndianOil",
          "name:en": "IndianOil",
          "name:mr": "\u092a\u0947\u091f\u094d\u0930\u094b\u0932 \u092a\u0902\u092a"
        }
      },
      {
        "type": "node",
        "id": 13112030001,
        "lat": 18.9552767,
        "lon": 72.816446,
        "tags": {
          "addr:housenumber": "5th",
          "addr:postcode": "400004",
          "addr:street": "Tata Road 2",
          "amenity": "theatre",
          "level": "0",
          "name": "Roxy Cinemas",
          "phone": "093241 28520",
          "website": "http://www.muktaa2cinemas.com"
        }
      }
    ]
  }
}