{
  "pois_1km": {
    "version": 0.6,
    "generator": "Overpass API 0.7.62.8 e802775f",
    "osm3s": {
      "timestamp_osm_base": "2025-09-06T09:18:02Z",
      "copyright": "The data included in this document is from www.openstreetmap.org. The data is made available under ODbL."
    },
    "elements": [
      {
        "type": "node",
        "id": 1751208048,
        "lat": 12.9841726,
        "lon": 80.2182307,
        "tags": {
          "amenity": "restaurant",
          "diet:vegetarian": "only",
          "name": "Flamingo"
        }
      },
      {
        "type": "node",
        "id": 1751210935,
        "lat": 12.9847606,
        "lon": 80.2177291,
        "tags": {
          "amenity": "restaurant",
          "diet:vegetarian": "only",
          "name": "Mast Kalandar"
        }
      },
      {
        "type": "node",
        "id": 2146414135,
        "lat": 12.988058,
        "lon": 80.2230137,
        "tags": {
          "amenity": "restaurant",
          "name": "Nandini Bakery and Restaurant"
        }
      },
      {
        "type": "node",
        "id": 2623046185,
        "lat": 12.989057,
        "lon": 80.2183478,
        "tags": {
          "amenity": "restaurant",
          "name": "Kailash Parbat"
        }
      },
      {
        "type": "node",
        "id": 2623046197,
        "lat": 12.9905101,
        "lon": 80.2188199,
        "tags": {
          "name": "Buy Bazaar",
          "shop": "supermarket"
        }
      },
      {
        "type": "node",
        "id": 2623046199,
        "lat": 12.9905467,
        "lon": 80.2187073,
        "tags": {
          "amenity": "restaurant",
          "name": "Veg Haven"
        }
      },
      {
        "type": "node",
        "id": 3493034087,
        "lat": 12.9867053,
        "lon": 80.2243017,
        "tags": {
          "amenity": "pharmacy",
          "healthcare": "pharmacy",
          "shop": "medical_supply"
        }
      },
      {
        "type": "node",
        "id": 3919826308,
        "lat": 12.985733,
        "lon": 80.2182467,
        "tags": {
          "amenity": "pharmacy",
          "name": "Specialist Pharmacy"
        }
      },
      {
        "type": "node",
        "id": 4358666332,
        "lat": 12.9859913,
        "lon": 80.2182482,
        "tags": {
          "amenity": "restaurant",
          "comment": "Buffett Food",
          "cuisine": "indian;kebab;seafood",
          "diet:vegetarian": "yes",
          "layer": "2",
          "name": "Coal BarbeQ",
          "smoking": "no"
        }
      },
      {
        "type": "node",
        "id": 4411798691,
        "lat": 12.9839879,
        "lon": 80.2181179,
        "tags": {
          "name:en": "pazhamuthir sollai",
          "shop": "supermarket"
        }
      },
      {
        "type": "node",
        "id": 6915201226,
        "lat": 12.9855882,
        "lon": 80.2189144,
        "tags": {
          "addr:district": "Chennai",
          "addr:full": "No.39, Rajalakhsmi Nagar",
          "addr:postcode": "600042",
          "addr:state": "Tamil Nadu",
          "amenity": "hospital",
          "healthcare": "hospital",
          "name": "Helios Hospital Pvt Ltd",
          "source": "OpenGovernmentData"
        }
      },
      {
        "type": "node",
        "id": 6928936148,
        "lat": 12.9832366,
        "lon": 80.217509,
        "tags": {
          "addr:district": "Chennai",
          "addr:full": "27, 100 Feet Road, Taramani Link Road, Velacherry",
          "addr:postcode": "600042",
          "addr:state": "Tamil Nadu",
          "amenity": "hospital",
          "healthcare": "hospital",
          "name": "Dr.Agarwals Eye Hospital - Velacherry",
          "operator": "Dr. Agarwal's Eye Hospital",
          "operator:type": "private",
          "operator:wikidata": "Q17052044",
          "source": "OpenGovernmentData"
        }
      },
      {
        "type": "node",
        "id": 6936695177,
        "lat": 12.9833895,
        "lon": 80.2181782,
        "tags": {
          "addr:district": "Chennai",
          "addr:full": "7/14, 7Th Cross Street, Rajalakshmi Nagar, Velachery",
          "addr:postcode": "600042",
          "addr:state": "Tamil Nadu",
          "amenity": "hospital",
          "healthcare": "hospital",
          "name": "Xcellent Care Superspeciality Hospital",
          "source": "OpenGovernmentData"
        }
      },
      {
        "type": "node",
        "id": 7652723881,
        "lat": 12.9887853,
        "lon": 80.2183072,
        "tags": {
          "amenity": "restaurant",
          "cuisine": "indian",
          "name": "Salem RR biryani Unavagam AC"
        }
      },
      {
        "type": "node",
        "id": 9554147385,
        "lat": 12.9875298,
        "lon": 80.2182192,
        "tags": {
          "amenity": "restaurant",
          "name": "Sree Gupta Bhavan",
          "phone": "+91 44 2255 0175"
        }
      },
      {
        "type": "node",
        "id": 10269012160,
        "lat": 12.9922698,
        "lon": 80.2170766,
        "tags": {
          "amenity": "cafe",
          "name": "Chi Cafe"
        }
      },
      {
        "type": "node",
        "id": 10269012161,
        "lat": 12.9920432,
        "lon": 80.2169286,
        "tags": {
          "amenity": "fast_food",
          "brand": "Krispy Kreme",
          "brand:wikidata": "Q1192805",
          "cuisine": "donut",
          "name": "Krispy Kreme",
          "takeaway": "yes"
        }
      },
      {
        "type": "node",
        "id": 10269012180,
        "lat": 12.9919466,
        "lon": 80.2166021,
        "tags": {
          "amenity": "restaurant",
          "cuisine": "japanese",
          "name": "Jonah's goes to Japan"
        }
      },
      {
        "type": "node",
        "id": 10269012181,
        "lat": 12.9919024,
        "lon": 80.2165543,
        "tags": {
          "amenity": "cafe",
          "name": "Cha Republic"
        }
      },
      {
        "type": "node",
        "id": 10269012184,
        "lat": 12.9911157,
        "lon": 80.216663,
        "tags": {
          "brand": "Big Bazaar",
          "brand:wikidata": "Q3631008",
          "name": "Big Bazaar",
          "shop": "supermarket"
        }
      },
      {
        "type": "node",
        "id": 10558960210,
        "lat": 12.9911925,
        "lon": 80.2166268,
        "tags": {
          "brand": "Marks & Spencer",
          "brand:short": "M&S",
          "brand:wikidata": "Q714491",
          "name": "M&S Outlet",
          "shop": "department_store"
        }
      },
      {
        "type": "node",
        "id": 10558960213,
        "lat": 12.9913342,
        "lon": 80.2169537,
        "tags": {
          "amenity": "restaurant",
          "brand": "Punjab Grill",
          "brand:wikidata": "Q124374761",
          "cuisine": "north_indian",
          "delivery": "yes",
          "name": "Punjab Grill",
          "takeaway": "yes"
        }
      },
      {
        "type": "node",
        "id": 10558960223,
        "lat": 12.9917017,
        "lon": 80.2170139,
        "tags": {
          "amenity": "cafe",
          "brand": "Starbucks",
          "brand:wikidata": "Q37158",
          "cuisine": "coffee_shop",
          "name": "Starbucks",
          "official_name": "Starbucks Coffee",
          "takeaway": "yes"
        }
      },
      {
        "type": "node",
        "id": 10558960229,
        "lat": 12.9918725,
        "lon": 80.2170556,
        "tags": {
          "amenity": "restaurant",
          "cuisine": "indian",
          "name": "Pappa Roti"
        }
      },
      {
        "type": "node",
        "id": 10558996763,
        "lat": 12.9925288,
        "lon": 80.2171551,
        "tags": {
          "indoor": "yes",
          "leisure": "playground",
          "name": "Funky Monkeys"
        }
      },
      {
        "type": "node",
        "id": 10558996779,
        "lat": 12.9911631,
        "lon": 80.2170363,
        "tags": {
          "amenity": "restaurant",
          "cuisine": "chinese",
          "name": "Mainland China"
        }
      },
      {
        "type": "node",
        "id": 10558996780,
        "lat": 12.9912251,
        "lon": 80.2170117,
        "tags": {
          "amenity": "cafe",
          "brand": "The Coffee Bean & Tea Leaf",
          "brand:wikidata": "Q1141384",
          "cuisine": "coffee_shop",
          "name": "The Coffee Bean & Tea Leaf",
          "takeaway": "yes"
        }
      },
      {
        "type": "node",
        "id": 10558996783,
        "lat": 12.9914076,
        "lon": 80.216939,
        "tags": {
          "amenity": "restaurant",
          "name": "Kobe Sizzlers"
        }
      },
      {
        "type": "node",
        "id": 10558996793,
        "lat": 12.9911032,
        "lon": 80.2170766,
        "tags": {
          "amenity": "restaurant",
          "cuisine": "indian",
          "name": "Khandani Rajdhani"
        }
      },
      {
        "type": "node",
        "id": 10559049577,
        "lat": 12.9912272,
        "lon": 80.217063,
        "tags": {
          "amenity": "restaurant",
          "name": "Vasanta Bhavan"
        }
      },
      {
        "type": "node",
        "id": 10559049579,
        "lat": 12.991546,
        "lon": 80.2170141,
        "tags": {
          "amenity": "fast_food",
          "brand": "Burger King",
          "brand:wikidata": "Q177054",
          "cuisine": "burger",
          "name": "Burger King",
          "takeaway": "yes"
        }
      },
      {
        "type": "node",
        "id": 10559072541,
        "lat": 12.9910516,
        "lon": 80.2165728,
        "tags": {
          "indoor": "yes",
          "leisure": "playground",
          "name": "FunCity"
        }
      },
      {
        "type": "node",
        "id": 10559072542,
        "lat": 12.9911318,
        "lon": 80.2171192,
        "tags": {
          "amenity": "fast_food",
          "brand": "Wow! Momo",
          "brand:wikidata": "Q8037446",
          "cuisine": "momo",
          "name": "Wow! Momo",
          "takeaway": "yes"
        }
      },
      {
        "type": "node",
        "id": 10559072543,
        "lat": 12.9913743,
        "lon": 80.2170186,
        "tags": {
          "amenity": "restaurant",
          "name": "Arabian Hut"
        }
      },
      {
        "type": "node",
        "id": 10559072544,
        "lat": 12.9914529,
        "lon": 80.2170008,
        "tags": {
          "amenity": "fast_food",
          "brand": "Domino's",
          "brand:wikidata": "Q839466",
          "cuisine": "pizza",
          "name": "Domino's",
          "takeaway": "yes"
        }
      },
      {
        "type": "node",
        "id": 10559072545,
        "lat": 12.991497,
        "lon": 80.2169976,
        "tags": {
          "alt_name": "Kentucky Fried Chicken",
          "alt_name:en": "Kentucky Fried Chicken",
          "alt_name:hi": "\u0915\u0947\u0902\u091f\u0941\u0915\u0940 \u092b\u094d\u0930\u093e\u0907\u0921 \u091a\u093f\u0915\u0928",
          "alt_name:pa": "\u0a15\u0a48\u0a02\u0a1f\u0a41\u0a15\u0a40 \u0a2b\u0a4d\u0a30\u0a3e\u0a08\u0a21 \u0a1a\u0a3f\u0a15\u0a28",
          "alt_name:pnb": "\u06a9\u06cc\u0646\u0679\u06a9\u06cc \u0641\u0631\u0627\u0626\u06cc\u0688 \u0686\u06a9\u0646",
          "alt_name:ur": "\u06a9\u06cc\u0646\u0679\u06a9\u06cc \u0641\u0631\u0627\u0626\u06cc\u0688 \u0686\u06a9\u0646",
          "amenity": "fast_food",
          "brand": "KFC",
          "brand:en": "KFC",
          "brand:hi": "\u0915\u0947\u090f\u092b\u0938\u0940",
          "brand:pa": "\u0a15\u0a47\u0a10\u0a2b\u0a38\u0a40",
          "brand:pnb": "\u06a9\u06d2 \u0627\u06cc\u0641 \u0633\u06cc",
          "brand:ur": "\u06a9\u06d2 \u0627\u06cc\u0641 \u0633\u06cc",
          "brand:wikidata": "Q524757",
          "cuisine": "chicken",
          "name": "KFC",
          "name:en": "KFC",
          "name:hi": "\u0915\u0947\u090f\u092b\u0938\u0940",
          "name:pa": "\u0a15\u0a47\u0a10\u0a2b\u0a38\u0a40",
          "name:pnb": "\u06a9\u06d2 \u0627\u06cc\u0641 \u0633\u06cc",
          "name:ur": "\u06a9\u06d2 \u0627\u06cc\u0641 \u0633\u06cc",
          "takeaway": "yes"
        }
      },
      {
        "type": "node",
        "id": 12557371743,
        "lat": 12.9876495,
        "lon": 80.2180839,
        "tags": {
          "amenity": "restaurant",
          "name": "Sree Gupta Bhavan"
        }
      },
      {
        "type": "node",
        "id": 12557371744,
        "lat": 12.9884101,
        "lon": 80.2182575,
        "tags": {
          "amenity": "restaurant",
          "diet:vegetarian": "yes",
          "name": "Geetham"
        }
      },
      {
        "type": "node",
        "id": 12557371745,
        "lat": 12.9899176,
        "lon": 80.2186763,
        "tags": {
          "amenity": "restaurant",
          "diet:vegetarian": "yes",
          "name": "Rasavid",
          "name:ta": "\u0bb0\u0b9a\u0bb5\u0bbf\u0ba4\u0bcd \u0b89\u0ba3\u0bb5\u0b95\u0bae\u0bcd"
        }
      },
      {
        "type": "node",
        "id": 12557371754,
        "lat": 12.990245,
        "lon": 80.2187592,
        "tags": {
          "amenity": "restaurant",
          "diet:vegetarian": "yes",
          "name": "Haven Sampoorna"
        }
      },
      {
        "type": "node",
        "id": 12571366102,
        "lat": 12.990467,
        "lon": 80.2101864,
        "tags": {
          "addr:city": "chennai",
          "addr:district": "Chennai",
          "addr:housenumber": "1629,LIG 2",
          "addr:postcode": "600042",
          "addr:street": "TNHB Main Road",
          "amenity": "pharmacy",
          "amenity_1": "pharmacy",
          "branch": "Velachery",
          "brand": "Star Pharmacy",
          "contact:facebook": "https://www.facebook.com/starpharmacyTNHB/",
          "description": "Trusted pharmacy with friendly staff, hassle-free service, and home delivery. We arrange rare medicines and offer OTC items like cosmetics, energy drinks, skincare, hospital equipment, and personal care essentials for your healthcare needs.",
          "dispensing": "yes",
          "drive_through": "yes",
          "healthcare": "pharmacy",
          "level": "0",
          "mobile": "+9196292 23336",
          "name": "Star Pharmacy",
          "opening_hours": "Mo-Su 09:00-23:30",
          "operator": "Star Pharmacy",
          "payment:american_express": "yes",
          "payment:bank_transfer": "yes",
          "payment:cards": "yes",
          "payment:cash": "yes",
          "payment:contactless": "yes",
          "payment:credit_cards": "yes",
          "payment:cryptocurrencies": "yes",
          "payment:debit_cards": "yes",
          "payment:diners_club": "yes",
          "payment:discover_card": "yes",
          "payment:google_pay": "yes",
          "payment:jcb": "yes",
          "payment:mastercard": "yes",
          "payment:upi": "yes",
          "payment:upi_qr": "yes",
          "payment:visa": "yes",
          "payment:visa_debit": "yes",
          "shop": "chemist",
          "short_name": "Star Medical",
          "start_date": "2021-04-01"
        }
      }
    ]
  },
  "pois_2_5km": {
    "version": 0.6,
    "generator": "Overpass API 0.7.62.8 e802775f",
    "osm3s": {
      "timestamp_osm_base": "2025-09-06T09:18:02Z",
      "copyright": "The data included in this document is from www.openstreetmap.org. The data is made available under ODbL."
    },
    "elements": [
      {
        "type": "node",
        "id": 243041731,
        "lat": 12.9758476,
        "lon": 80.2320097,
        "tags": {
          "name": "Perungudi",
          "name:ta": "\u0baa\u0bc6\u0bb0\u0bc1\u0b99\u0bcd\u0b95\u0bc1\u0b9f\u0bbf",
          "public_transport": "stop_position",
          "railway": "stop",
          "train": "yes"
        }
      },
      {
        "type": "node",
        "id": 252171269,
        "lat": 12.9949254,
        "lon": 80.1993669,
        "tags": {
          "public_transport": "stop_position",
          "ref": "STM"
        }
      },
      {
        "type": "node",
        "id": 256039818,
        "lat": 13.0080754,
        "lon": 80.2093905,
        "tags": {
          "bus": "yes",
          "highway": "bus_stop",
          "name": "Guindy",
          "name:ta": "\u0b95\u0bbf\u0ba3\u0bcd\u0b9f\u0bbf",
          "public_transport": "stop_position"
        }
      },
      {
        "type": "node",
        "id": 299882966,
        "lat": 12.9810098,
        "lon": 80.2066688,
        "tags": {
          "bus": "yes",
          "name": "Andal Nagar",
          "public_transport": "stop_position"
        }
      },
      {
        "type": "node",
        "id": 300134382,
        "lat": 12.988501,
        "lon": 80.197819,
        "tags": {
          "bus": "yes",
          "public_transport": "stop_position"
        }
      },
      {
        "type": "node",
        "id": 305933220,
        "lat": 12.9796614,
        "lon": 80.218483,
        "tags": {
          "amenity": "fuel",
          "brand": "Hindustan Petroleum",
          "brand:wikidata": "Q1619375",
          "brand:wikipedia": "en:Hindustan Petroleum",
          "name": "HP",
          "official_name": "Hindustan Petroleum"
        }
      },
      {
        "type": "node",
        "id": 309812160,
        "lat": 13.0076778,
        "lon": 80.2099257,
        "tags": {
          "bus": "yes",
          "name": "Guindy",
          "public_transport": "stop_position"
        }
      },
      {
        "type": "node",
        "id": 365544723,
        "lat": 13.0116259,
        "lon": 80.2185178,
        "tags": {
          "amenity": "fuel",
          "compressed_air": "yes",
          "created_by": "Potlatch 0.10f",
          "name": "BP"
        }
      },
      {
        "type": "node",
        "id": 365983863,
        "lat": 13.0120221,
        "lon": 80.2197653,
        "tags": {
          "amenity": "fuel",
          "created_by": "Potlatch 0.10f"
        }
      },
      {
        "type": "node",
        "id": 366083028,
        "lat": 13.0088683,
        "lon": 80.2112087,
        "tags": {
          "bus": "yes",
          "name": "Guindy",
          "public_transport": "stop_position"
        }
      },
      {
        "type": "node",
        "id": 368158463,
        "lat": 13.0127799,
        "lon": 80.2222772,
        "tags": {
          "amenity": "fuel",
          "brand": "BP",
          "fuel:diesel": "yes",
          "fuel:lpg": "yes",
          "fuel:octane_80": "yes",
          "name": "BP"
        }
      },
      {
        "type": "node",
        "id": 368158965,
        "lat": 13.0112743,
        "lon": 80.2229232,
        "tags": {
          "amenity": "fuel",
          "brand": "Bharat Petroleum",
          "fuel:diesel": "yes",
          "fuel:petrol": "yes",
          "name": "BP"
        }
      },
      {
        "type": "node",
        "id": 978180615,
        "lat": 13.0073497,
        "lon": 80.2002828,
        "tags": {
          "amenity": "fuel",
          "brand": "Bharat Petroleum",
          "brand:wikidata": "Q854826",
          "name": "Bharat Petroleum"
        }
      },
      {
        "type": "node",
        "id": 1008034321,
        "lat": 12.9951306,
        "lon": 80.1992885,
        "tags": {
          "public_transport": "stop_position",
          "ref": "STM"
        }
      },
      {
        "type": "node",
        "id": 1008034345,
        "lat": 12.9947038,
        "lon": 80.1994765,
        "tags": {
          "public_transport": "stop_position",
          "ref": "STM"
        }
      },
      {
        "type": "node",
        "id": 1197445418,
        "lat": 12.9948463,
        "lon": 80.1994107,
        "tags": {
          "public_transport": "stop_position",
          "ref": "STM"
        }
      },
      {
        "type": "node",
        "id": 2157590801,
        "lat": 12.997438,
        "lon": 80.2162638,
        "tags": {
          "bus": "yes",
          "highway": "bus_stop",
          "name": "Five Furlong Road",
          "operator": "MTC",
          "public_transport": "stop_position"
        }
      },
      {
        "type": "node",
        "id": 2158620128,
        "lat": 12.9974054,
        "lon": 80.2165418,
        "tags": {
          "bus": "yes",
          "highway": "bus_stop",
          "name": "Velachery Check Post",
          "operator": "MTC",
          "public_transport": "stop_position"
        }
      },
      {
        "type": "node",
        "id": 2158620129,
        "lat": 12.9974127,
        "lon": 80.2164502,
        "tags": {
          "bus": "yes",
          "highway": "bus_stop",
          "name": "Velachery Check Post",
          "operator": "MTC",
          "public_transport": "stop_position"
        }
      },
      {
        "type": "node",
        "id": 2438975982,
        "lat": 12.9949578,
        "lon": 80.1993542,
        "tags": {
          "public_transport": "stop_position",
          "ref": "STM"
        }
      },
      {
        "type": "node",
        "id": 3264712327,
        "lat": 13.0086685,
        "lon": 80.2126063,
        "tags": {
          "internet_access": "no",
          "name": "Guindy",
          "name:en": "Guindy",
          "name:hi": "\u0917\u093f\u0902\u0921\u0940",
          "name:ml": "\u0d17\u0d3f\u0d23\u0d4d\u0d1f\u0d3f",
          "name:ta": "\u0b95\u0bbf\u0ba3\u0bcd\u0b9f\u0bbf",
          "network": "IR",
          "operator": "SR",
          "public_transport": "station",
          "railway": "station",
          "ref": "GDY",
          "wikidata": "Q5616431",
          "wikipedia": "en:Guindy railway station"
        }
      },
      {
        "type": "node",
        "id": 4056703681,
        "lat": 12.9823866,
        "lon": 80.2180571,
        "tags": {
          "amenity": "fuel",
          "brand": "Bharat Petroleum",
          "brand:wikidata": "Q854826",
          "brand:wikipedia": "en:Bharat Petroleum",
          "fuel:1_25": "yes",
          "fuel:diesel": "yes",
          "fuel:e10": "no",
          "fuel:octane_80": "yes",
          "name": "Bharat Petroleum"
        }
      },
      {
        "type": "node",
        "id": 4172727623,
        "lat": 12.9785526,
        "lon": 80.2253586,
        "tags": {
          "bus": "yes",
          "name": "Tansi Nagar",
          "public_transport": "stop_position"
        }
      },
      {
        "type": "node",
        "id": 4221752111,
        "lat": 12.9947654,
        "lon": 80.1993715,
        "tags": {
          "internet_access": "no",
          "name": "St. Thomas Mount",
          "name:ml": "\u0d38\u0d46\u0d28\u0d4d\u0d31\u0d4d \u0d24\u0d4b\u0d2e\u0d38\u0d4d \u0d2e\u0d57\u0d23\u0d4d\u0d1f\u0d4d",
          "name:ta": "\u0baa\u0bb0\u0b99\u0bcd\u0b95\u0bbf\u0bae\u0bb2\u0bc8",
          "network": "IR",
          "operator": "SR",
          "public_transport": "station",
          "railway": "station",
          "ref": "STM",
          "wikidata": "Q7591984",
          "wikipedia": "en:St. Thomas Mount railway station"
        }
      },
      {
        "type": "node",
        "id": 4358666333,
        "lat": 12.981636,
        "lon": 80.2334748,
        "tags": {
          "bus": "yes",
          "highway": "bus_stop",
          "name": "Bharathi Nagar",
          "operator": "MTC",
          "public_transport": "stop_position"
        }
      },
      {
        "type": "node",
        "id": 4358676514,
        "lat": 12.9877973,
        "lon": 80.2230746,
        "tags": {
          "bus": "yes",
          "name": "-IITM Velachery Gate",
          "operator": "MTC",
          "public_transport": "stop_position"
        }
      },
      {
        "type": "node",
        "id": 5308690568,
        "lat": 13.0042558,
        "lon": 80.2014525,
        "tags": {
          "addr:city": "Chennai",
          "layer": "1",
          "level": "1",
          "name": "\u0b86\u0bb2\u0ba8\u0bcd\u0ba4\u0bc2\u0bb0\u0bcd",
          "name:en": "Alandur",
          "name:ml": "\u0d06\u0d32\u0d28\u0d4d\u0d24\u0d42\u0d7c",
          "name:ta": "\u0b86\u0bb2\u0ba8\u0bcd\u0ba4\u0bc2\u0bb0\u0bcd",
          "network": "Chennai Metro",
          "note": "Contributors are requested to not edit the \"network\" and the \"operator\" tags. (2023/11/08)",
          "operator": "Chennai Metro Rail Limited",
          "public_transport": "station",
          "railway": "station",
          "railway:ref": "SAL",
          "ref": "SAL",
          "station": "subway",
          "subway": "yes",
          "wheelchair": "yes",
          "wikidata": "Q4708199",
          "wikipedia": "en:Alandur metro station"
        }
      },
      {
        "type": "node",
        "id": 5310193401,
        "lat": 12.9758902,
        "lon": 80.231976,
        "tags": {
          "name": "Perungudi",
          "name:ta": "\u0baa\u0bc6\u0bb0\u0bc1\u0b99\u0bcd\u0b95\u0bc1\u0b9f\u0bbf",
          "public_transport": "stop_position",
          "railway": "stop",
          "train": "yes"
        }
      },
      {
        "type": "node",
        "id": 5311755241,
        "lat": 12.9760584,
        "lon": 80.2321916,
        "tags": {
          "name": "Perungudi",
          "name:ta": "\u0baa\u0bc6\u0bb0\u0bc1\u0b99\u0bcd\u0b95\u0bc1\u0b9f\u0bbf",
          "network": "IR",
          "operator": "SR",
          "public_transport": "station",
          "railway": "station",
          "ref": "PRGD",
          "train": "yes",
          "wikidata": "Q7171100",
          "wikipedia": "en:Perungudi railway station"
        }
      },
      {
        "type": "node",
        "id": 5311755243,
        "lat": 12.9774891,
        "lon": 80.2050018,
        "tags": {
          "construction:railway": "station",
          "internet_access": "no",
          "name": "Puzhudivakkam",
          "network": "MRTS",
          "operator": "MRTS",
          "public_transport": "station",
          "railway": "station",
          "train": "yes",
          "wikidata": "Q7262676",
          "wikipedia": "en:Puzhuthivakkam railway station"
        }
      },
      {
        "type": "node",
        "id": 5311755244,
        "lat": 12.9823811,
        "lon": 80.1968882,
        "tags": {
          "construction:railway": "station",
          "name": "Adambakkam",
          "network": "MRTS",
          "operator": "MRTS",
          "public_transport": "station",
          "railway": "station",
          "train": "yes",
          "wikidata": "Q4680126",
          "wikipedia": "en:Adambakkam railway station"
        }
      },
      {
        "type": "node",
        "id": 5319202812,
        "lat": 12.995,
        "lon": 80.198582,
        "tags": {
          "name": "\u0baa\u0bb0\u0b99\u0bcd\u0b95\u0bbf\u0bae\u0bb2\u0bc8",
          "name:en": "St. Thomas Mount",
          "name:ml": "\u0d38\u0d46\u0d28\u0d4d\u0d31\u0d4d \u0d24\u0d4b\u0d2e\u0d38\u0d4d \u0d2e\u0d57\u0d23\u0d4d\u0d1f\u0d4d",
          "name:ta": "\u0baa\u0bb0\u0b99\u0bcd\u0b95\u0bbf\u0bae\u0bb2\u0bc8",
          "network": "Chennai Metro",
          "network:wikidata": "Q1639576",
          "note": "Contributors are requested to not edit the \"network\" and the \"operator\" tags. (2023/11/08)",
          "operator": "Chennai Metro Rail Limited",
          "public_transport": "station",
          "railway": "station",
          "railway:ref": "SMM",
          "ref": "SMM",
          "station": "subway",
          "subway": "yes",
          "wikidata": "Q7591984",
          "wikipedia": "en:St. Thomas Mount railway station"
        }
      },
      {
        "type": "node",
        "id": 5321248425,
        "lat": 13.0092314,
        "lon": 80.2130951,
        "tags": {
          "name": "\u0b95\u0bbf\u0ba3\u0bcd\u0b9f\u0bbf",
          "name:en": "Guindy",
          "name:ta": "\u0b95\u0bbf\u0ba3\u0bcd\u0b9f\u0bbf",
          "network": "Chennai Metro",
          "note": "Contributors are requested to not edit the \"network\" and the \"operator\" tags. (2023/11/08)",
          "operator": "Chennai Metro Rail Limited",
          "public_transport": "stop_position",
          "railway": "stop",
          "station": "subway",
          "subway": "yes"
        }
      },
      {
        "type": "node",
        "id": 5423870707,
        "lat": 13.0042124,
        "lon": 80.2015605,
        "tags": {
          "name": "\u0b86\u0bb2\u0ba8\u0bcd\u0ba4\u0bc2\u0bb0\u0bcd",
          "name:en": "Alandur",
          "name:ta": "\u0b86\u0bb2\u0ba8\u0bcd\u0ba4\u0bc2\u0bb0\u0bcd",
          "network": "Chennai Metro",
          "note": "Contributors are requested to not edit the \"network\" and the \"operator\" tags. (2023/11/08)",
          "operator": "Chennai Metro Rail Limited",
          "public_transport": "stop_position",
          "railway": "stop",
          "subway": "yes"
        }
      },
      {
        "type": "node",
        "id": 5423870708,
        "lat": 13.0042231,
        "lon": 80.201533,
        "tags": {
          "name": "\u0b86\u0bb2\u0ba8\u0bcd\u0ba4\u0bc2\u0bb0\u0bcd",
          "name:en": "Alandur",
          "name:ta": "\u0b86\u0bb2\u0ba8\u0bcd\u0ba4\u0bc2\u0bb0\u0bcd",
          "network": "Chennai Metro",
          "note": "Contributors are requested to not edit the \"network\" and the \"operator\" tags. (2023/11/08)",
          "operator": "Chennai Metro Rail Limited",
          "public_transport": "stop_position",
          "railway": "stop",
          "subway": "yes"
        }
      },
      {
        "type": "node",
        "id": 5423870709,
        "lat": 13.0042275,
        "lon": 80.2015164,
        "tags": {
          "name": "\u0b86\u0bb2\u0ba8\u0bcd\u0ba4\u0bc2\u0bb0\u0bcd",
          "name:en": "Alandur",
          "name:ta": "\u0b86\u0bb2\u0ba8\u0bcd\u0ba4\u0bc2\u0bb0\u0bcd",
          "network": "Chennai Metro",
          "note": "Contributors are requested to not edit the \"network\" and the \"operator\" tags. (2023/11/08)",
          "operator": "Chennai Metro Rail Limited",
          "public_transport": "stop_position",
          "railway": "stop",
          "subway": "yes"
        }
      },
      {
        "type": "node",
        "id": 6285857247,
        "lat": 13.0092951,
        "lon": 80.2130723,
        "tags": {
          "name": "\u0b95\u0bbf\u0ba3\u0bcd\u0b9f\u0bbf",
          "name:en": "Guindy",
          "name:ta": "\u0b95\u0bbf\u0ba3\u0bcd\u0b9f\u0bbf",
          "network": "Chennai Metro",
          "note": "Contributors are requested to not edit the \"network\" and the \"operator\" tags. (2023/11/08)",
          "operator": "Chennai Metro Rail Limited",
          "public_transport": "stop_position",
          "railway": "stop",
          "station": "subway",
          "subway": "yes"
        }
      },
      {
        "type": "node",
        "id": 6285857248,
        "lat": 13.0092746,
        "lon": 80.2130846,
        "tags": {
          "name": "\u0b95\u0bbf\u0ba3\u0bcd\u0b9f\u0bbf",
          "name:en": "Guindy",
          "name:ml": "\u0d17\u0d3f\u0d23\u0d4d\u0d1f\u0d3f",
          "name:ta": "\u0b95\u0bbf\u0ba3\u0bcd\u0b9f\u0bbf",
          "network": "Chennai Metro",
          "note": "Contributors are requested to not edit the \"network\" and the \"operator\" tags. (2023/11/08)",
          "operator": "Chennai Metro Rail Limited",
          "public_transport": "station",
          "railway": "station",
          "railway:ref": "SGU",
          "ref": "SGU",
          "station": "subway",
          "subway": "yes",
          "wikidata": "Q18357501",
          "wikipedia": "en:Guindy metro station"
        }
      },
      {
        "type": "node",
        "id": 6286383211,
        "lat": 13.0042165,
        "lon": 80.2015496,
        "tags": {
          "name": "\u0b86\u0bb2\u0ba8\u0bcd\u0ba4\u0bc2\u0bb0\u0bcd",
          "name:en": "Alandur",
          "name:ta": "\u0b86\u0bb2\u0ba8\u0bcd\u0ba4\u0bc2\u0bb0\u0bcd",
          "network": "Chennai Metro",
          "note": "Contributors are requested to not edit the \"network\" and the \"operator\" tags. (2023/11/08)",
          "operator": "Chennai Metro Rail Limited",
          "public_transport": "stop_position",
          "railway": "stop",
          "subway": "yes"
        }
      },
      {
        "type": "node",
        "id": 7433365963,
        "lat": 13.011873,
        "lon": 80.2219855,
        "tags": {
          "bus": "yes",
          "name": "SPIC / Chellammal College",
          "public_transport": "stop_position"
        }
      },
      {
        "type": "node",
        "id": 8601096136,
        "lat": 12.9719083,
        "lon": 80.2207302,
        "tags": {
          "amenity": "cinema",
          "brand": "PVR Cinemas",
          "brand:wikidata": "Q3359908",
          "brand:wikipedia": "en:PVR Cinemas",
          "name": "PVR Cinemas",
          "short_name": "PVR"
        }
      },
      {
        "type": "node",
        "id": 8601096138,
        "lat": 12.9712759,
        "lon": 80.219131,
        "tags": {
          "bus": "yes",
          "name": "Velachery Railway Station",
          "network": "MTC",
          "operator": "MTC",
          "public_transport": "stop_position"
        }
      },
      {
        "type": "node",
        "id": 9368672356,
        "lat": 12.9909955,
        "lon": 80.2200242,
        "tags": {
          "bus": "yes",
          "name": "Guru Nanak College",
          "public_transport": "stop_position"
        }
      },
      {
        "type": "node",
        "id": 9399662897,
        "lat": 12.9806111,
        "lon": 80.228782,
        "tags": {
          "bus": "yes",
          "name": "Baby Nagar",
          "network": "MTC",
          "operator": "MTC",
          "public_transport": "stop_position"
        }
      },
      {
        "type": "node",
        "id": 9399662898,
        "lat": 12.99071,
        "lon": 80.2201775,
        "tags": {
          "bus": "yes",
          "name": "Guru Nanak College",
          "public_transport": "stop_position"
        }
      },
      {
        "type": "node",
        "id": 9400398385,
        "lat": 12.9713022,
        "lon": 80.2190042,
        "tags": {
          "bus": "yes",
          "name": "Velachery Railway Station",
          "public_transport": "stop_position"
        }
      },
      {
        "type": "node",
        "id": 9412787731,
        "lat": 12.9864666,
        "lon": 80.2229705,
        "tags": {
          "bus": "yes",
          "name": "Gandhi Road",
          "public_transport": "stop_position"
        }
      },
      {
        "type": "node",
        "id": 9412787732,
        "lat": 13.0048514,
        "lon": 80.2202225,
        "tags": {
          "bus": "yes",
          "name": "Kannigapuram",
          "public_transport": "stop_position"
        }
      },
      {
        "type": "node",
        "id": 9417619433,
        "lat": 12.9946272,
        "lon": 80.200283,
        "tags": {
          "bus": "yes",
          "name": "\u0baa\u0bb0\u0b99\u0bcd\u0b95\u0bbf\u0bae\u0bb2\u0bc8 \u0bb0\u0baf\u0bbf\u0bb2\u0bcd \u0ba8\u0bbf\u0bb2\u0bc8\u0baf\u0bae\u0bcd",
          "name:en": "St. Thomas Mount Railway Station",
          "name:ta": "\u0baa\u0bb0\u0b99\u0bcd\u0b95\u0bbf\u0bae\u0bb2\u0bc8 \u0bb0\u0baf\u0bbf\u0bb2\u0bcd \u0ba8\u0bbf\u0bb2\u0bc8\u0baf\u0bae\u0bcd",
          "public_transport": "stop_position"
        }
      },
      {
        "type": "node",
        "id": 9417619444,
        "lat": 12.994701,
        "lon": 80.206559,
        "tags": {
          "bus": "yes",
          "name": "NGO Colony",
          "network": "Metropolitan Transport Corporation (Chennai) Ltd.",
          "operator": "Government of Tamil Nadu",
          "public_transport": "stop_position"
        }
      },
      {
        "type": "node",
        "id": 9417619445,
        "lat": 12.9947979,
        "lon": 80.2067982,
        "tags": {
          "bus": "yes",
          "name": "NGO Colony Bus Terminus",
          "public_transport": "stop_position"
        }
      },
      {
        "type": "node",
        "id": 9500680214,
        "lat": 12.9784111,
        "lon": 80.2253294,
        "tags": {
          "bus": "yes",
          "name": "Tansi Nagar",
          "public_transport": "stop_position"
        }
      },
      {
        "type": "node",
        "id": 9500680215,
        "lat": 12.9804402,
        "lon": 80.2286896,
        "tags": {
          "bus": "yes",
          "name": "Baby Nagar",
          "public_transport": "stop_position"
        }
      },
      {
        "type": "node",
        "id": 9500730217,
        "lat": 12.9815365,
        "lon": 80.2334379,
        "tags": {
          "bus": "yes",
          "name": "Bharathi Nagar",
          "public_transport": "stop_position"
        }
      },
      {
        "type": "node",
        "id": 9500730227,
        "lat": 12.9762478,
        "lon": 80.2215821,
        "tags": {
          "bus": "yes",
          "name": "Velachery Vijaya Nagar",
          "public_transport": "stop_position"
        }
      },
      {
        "type": "node",
        "id": 9592492217,
        "lat": 12.9950171,
        "lon": 80.1983815,
        "tags": {
          "name": "\u0baa\u0bb0\u0b99\u0bcd\u0b95\u0bbf\u0bae\u0bb2\u0bc8",
          "name:en": "St. Thomas Mount",
          "name:ta": "\u0baa\u0bb0\u0b99\u0bcd\u0b95\u0bbf\u0bae\u0bb2\u0bc8",
          "network": "Chennai Metro",
          "note": "Contributors are requested to not edit the \"network\" and the \"operator\" tags. (2023/11/08)",
          "operator": "Chennai Metro Rail Limited",
          "public_transport": "stop_position",
          "railway": "stop",
          "subway": "yes"
        }
      },
      {
        "type": "node",
        "id": 9592492218,
        "lat": 12.9950609,
        "lon": 80.1983631,
        "tags": {
          "name": "\u0baa\u0bb0\u0b99\u0bcd\u0b95\u0bbf\u0bae\u0bb2\u0bc8",
          "name:en": "St. Thomas Mount",
          "name:ta": "\u0baa\u0bb0\u0b99\u0bcd\u0b95\u0bbf\u0bae\u0bb2\u0bc8",
          "network": "Chennai Metro",
          "note": "Contributors are requested to not edit the \"network\" and the \"operator\" tags. (2023/11/08)",
          "operator": "Chennai Metro Rail Limited",
          "public_transport": "stop_position",
          "railway": "stop",
          "subway": "yes"
        }
      },
      {
        "type": "node",
        "id": 10120161717,
        "lat": 12.975928,
        "lon": 80.2211155,
        "tags": {
          "bus": "yes",
          "name": "Velachery Vijaya Nagar Bus Terminus",
          "public_transport": "stop_position"
        }
      },
      {
        "type": "node",
        "id": 10120161757,
        "lat": 12.9752026,
        "lon": 80.2207427,
        "tags": {
          "bus": "yes",
          "name": "Velachery Vijaya Nagar",
          "public_transport": "stop_position"
        }
      },
      {
        "type": "node",
        "id": 10559049569,
        "lat": 12.9911536,
        "lon": 80.2164418,
        "tags": {
          "amenity": "cinema",
          "name": "Jazz Cinemas LUXE"
        }
      },
      {
        "type": "node",
        "id": 10593328485,
        "lat": 12.9971505,
        "lon": 80.2163258,
        "tags": {
          "amenity": "fuel",
          "name": "Kousalya Fuels Velachery"
        }
      },
      {
        "type": "node",
        "id": 11949359786,
        "lat": 12.9919179,
        "lon": 80.2058126,
        "tags": {
          "bus": "yes",
          "name": "Church",
          "public_transport": "stop_position"
        }
      },
      {
        "type": "node",
        "id": 11949365488,
        "lat": 12.9844281,
        "lon": 80.2049489,
        "tags": {
          "bus": "yes",
          "name": "Brindavanam Koil",
          "public_transport": "stop_position"
        }
      },
      {
        "type": "node",
        "id": 11949365490,
        "lat": 12.9871331,
        "lon": 80.2053644,
        "tags": {
          "bus": "yes",
          "name": "Brindavan Nagar",
          "public_transport": "stop_position"
        }
      },
      {
        "type": "node",
        "id": 11949365493,
        "lat": 12.9891277,
        "lon": 80.2048999,
        "tags": {
          "bus": "yes",
          "name": "Kakkan Bridge stop",
          "public_transport": "stop_position"
        }
      },
      {
        "type": "node",
        "id": 11949388470,
        "lat": 12.9832652,
        "lon": 80.2070307,
        "tags": {
          "bus": "yes",
          "name": "Annai Store",
          "public_transport": "stop_position"
        }
      },
      {
        "type": "node",
        "id": 11959583813,
        "lat": 12.9829338,
        "lon": 80.2219894,
        "tags": {
          "bus": "yes",
          "name": "Dhandeeswaram",
          "network": "MTC",
          "public_transport": "stop_position"
        }
      },
      {
        "type": "node",
        "id": 11959599076,
        "lat": 12.9977277,
        "lon": 80.2160004,
        "tags": {
          "bus": "yes",
          "name": "Five Furlong Road",
          "public_transport": "stop_position"
        }
      }
    ]
  }
}