{
  "pois_1km": {
    "version": 0.6,
    "generator": "Overpass API 0.7.62.8 e802775f",
    "osm3s": {
      "timestamp_osm_base": "2025-09-06T09:18:02Z",
      "copyright": "The data included in this document is from www.openstreetmap.org. The data is made available under ODbL."
    },
    "elements": [
      {
        "type": "node",
        "id": 366849074,
        "lat": 13.0662305,
        "lon": 80.2600797,
        "tags": {
          "amenity": "bank",
          "brand": "Central Bank of India",
          "brand:wikidata": "Q2007090",
          "brand:wikipedia": "en:Central Bank of India",
          "name": "Central Bank of India",
          "name:en": "Central Bank of India",
          "website": "https://www.centralbankofindia.co.in"
        }
      },
      {
        "type": "node",
        "id": 366849874,
        "lat": 13.0650516,
        "lon": 80.2589124,
        "tags": {
          "amenity": "restaurant",
          "created_by": "Potlatch 0.10f",
          "name": "Asli Punjabi Rasoi Ghar"
        }
      },
      {
        "type": "node",
        "id": 378691598,
        "lat": 13.0630743,
        "lon": 80.2612723,
        "tags": {
          "amenity": "restaurant",
          "created_by": "Potlatch 0.10f",
          "name": "Hip Asia"
        }
      },
      {
        "type": "node",
        "id": 471988623,
        "lat": 13.060307,
        "lon": 80.2546115,
        "tags": {
          "amenity": "fast_food",
          "name": "Fruit Shop on Greams Road"
        }
      },
      {
        "type": "node",
        "id": 471988656,
        "lat": 13.0603857,
        "lon": 80.254815,
        "tags": {
          "amenity": "fast_food",
          "name": "Hajiali Juice Centre"
        }
      },
      {
        "type": "node",
        "id": 471989141,
        "lat": 13.0574642,
        "lon": 80.2551093,
        "tags": {
          "amenity": "fast_food",
          "name": "Sea Shell"
        }
      },
      {
        "type": "node",
        "id": 1190124248,
        "lat": 13.0635727,
        "lon": 80.2656063,
        "tags": {
          "amenity": "restaurant"
        }
      },
      {
        "type": "node",
        "id": 1728641528,
        "lat": 13.0651778,
        "lon": 80.2589417,
        "tags": {
          "amenity": "restaurant",
          "diet:vegetarian": "only",
          "name": "Curries and Chutneys"
        }
      },
      {
        "type": "node",
        "id": 1875969687,
        "lat": 13.057334,
        "lon": 80.259754,
        "tags": {
          "addr:housename": "Amethyst",
          "amenity": "restaurant",
          "name": "Amethyst",
          "shop": "florist"
        }
      },
      {
        "type": "node",
        "id": 3379346350,
        "lat": 13.0659239,
        "lon": 80.2681364,
        "tags": {
          "addr:street": "Mount Road",
          "amenity": "restaurant",
          "name": "Jeyasri Pure Veg",
          "phone": "044 28522186"
        }
      },
      {
        "type": "node",
        "id": 4441636240,
        "lat": 13.0551653,
        "lon": 80.2577916,
        "tags": {
          "amenity": "atm",
          "brand": "Kotak Mahindra Bank",
          "brand:wikidata": "Q2040404",
          "brand:wikipedia": "en:Kotak Mahindra Bank",
          "name": "Kotak Mahindra Bank",
          "operator": "Kotak Mahindra Bank",
          "operator:wikidata": "Q2040404",
          "operator:wikipedia": "en:Kotak Mahindra Bank"
        }
      },
      {
        "type": "node",
        "id": 4441636653,
        "lat": 13.0551257,
        "lon": 80.2577775,
        "tags": {
          "amenity": "atm",
          "brand": "Union Bank of India",
          "brand:wikidata": "Q2004078",
          "brand:wikipedia": "en:Union Bank of India",
          "name": "Union Bank of India",
          "operator": "Union Bank of India",
          "operator:wikidata": "Q2004078",
          "operator:wikipedia": "en:Union Bank of India"
        }
      },
      {
        "type": "node",
        "id": 4718285889,
        "lat": 13.0554515,
        "lon": 80.2580421,
        "tags": {
          "amenity": "restaurant",
          "name:en": "iD"
        }
      },
      {
        "type": "node",
        "id": 4841099727,
        "lat": 13.0658134,
        "lon": 80.260739,
        "tags": {
          "leisure": "playground",
          "opening_hours": "Mo-Su 09:00-18:00"
        }
      },
      {
        "type": "node",
        "id": 5380688822,
        "lat": 13.052885,
        "lon": 80.2695057,
        "tags": {
          "amenity": "atm",
          "brand": "Axis Bank",
          "brand:wikidata": "Q2003549",
          "brand:wikipedia": "en:Axis Bank",
          "name": "Axis Bank",
          "opening_hours": "24/7",
          "operator": "Axis Bank",
          "operator:wikidata": "Q2003549",
          "operator:wikipedia": "en:Axis Bank"
        }
      },
      {
        "type": "node",
        "id": 6928752799,
        "lat": 13.0541946,
        "lon": 80.257671,
        "tags": {
          "addr:district": "Chennai",
          "addr:full": "6B, Conran Smith Road, Gopalapuram",
          "addr:postcode": "600086",
          "addr:state": "Tamil Nadu",
          "amenity": "hospital",
          "healthcare": "hospital",
          "healthcare:speciality": "multi speciality",
          "name": "Dr. Mohans Mv Diabetes Specialities Centre - Chennai",
          "source": "OpenGovernmentData"
        }
      },
      {
        "type": "node",
        "id": 6933833923,
        "lat": 13.0535505,
        "lon": 80.2576911,
        "tags": {
          "addr:block": "Chennai Zone Ix",
          "addr:district": "Chennai",
          "addr:full": "32/12, Next To Gopalapuram Boys High School Play Ground, Gopalapuram, Conran Smith Road",
          "addr:postcode": "600086",
          "addr:state": "Tamil Nadu",
          "amenity": "hospital",
          "healthcare": "hospital",
          "name": "Life Medhospital",
          "source": "OpenGovernmentData"
        }
      },
      {
        "type": "node",
        "id": 7054906485,
        "lat": 13.0573094,
        "lon": 80.2592721,
        "tags": {
          "amenity": "restaurant",
          "name:en": "The Star Club"
        }
      },
      {
        "type": "node",
        "id": 7080292285,
        "lat": 13.0616605,
        "lon": 80.2632742,
        "tags": {
          "amenity": "restaurant",
          "cuisine": "indian",
          "diet:vegan": "yes",
          "diet:vegetarian": "only",
          "name:en": "Veg Food Factory",
          "tourism": "hotel",
          "website": "http://www.hotelsennthur.com"
        }
      },
      {
        "type": "node",
        "id": 7192792885,
        "lat": 13.0638307,
        "lon": 80.2657136,
        "tags": {
          "amenity": "bank",
          "brand": "State Bank of India",
          "brand:wikidata": "Q1340361",
          "name": "State Bank of India",
          "opening_hours": "Mo-Sa 10:00-16:00",
          "short_name": "SBI"
        }
      },
      {
        "type": "node",
        "id": 7192792886,
        "lat": 13.0635654,
        "lon": 80.2654083,
        "tags": {
          "amenity": "bank",
          "brand": "Dhanlaxmi Bank",
          "brand:wikidata": "Q2040440",
          "brand:wikipedia": "en:Dhanlaxmi Bank",
          "name": "Dhanlaxmi Bank",
          "name:en": "Dhanlaxmi Bank"
        }
      },
      {
        "type": "node",
        "id": 7192792887,
        "lat": 13.064487,
        "lon": 80.2675924,
        "tags": {
          "amenity": "cafe",
          "cuisine": "tea;coffee_shop",
          "name:en": "Lamcy Cafe"
        }
      },
      {
        "type": "node",
        "id": 7192792985,
        "lat": 13.0647232,
        "lon": 80.2657743,
        "tags": {
          "amenity": "bank",
          "brand": "Indian Overseas Bank",
          "brand:wikidata": "Q2003611",
          "brand:wikipedia": "en:Indian Overseas Bank",
          "name": "Indian Overseas Bank",
          "name:en": "Indian Overseas Bank"
        }
      },
      {
        "type": "node",
        "id": 7192793085,
        "lat": 13.0645138,
        "lon": 80.265586,
        "tags": {
          "amenity": "bank",
          "name:en": "digibank by DBS"
        }
      },
      {
        "type": "node",
        "id": 7192793185,
        "lat": 13.0649153,
        "lon": 80.2676982,
        "tags": {
          "amenity": "bank",
          "brand": "Kotak Mahindra Bank",
          "brand:wikidata": "Q2040404",
          "brand:wikipedia": "en:Kotak Mahindra Bank",
          "name": "Kotak Mahindra Bank",
          "name:en": "Kotak Mahindra Bank"
        }
      },
      {
        "type": "node",
        "id": 7192793186,
        "lat": 13.0645924,
        "lon": 80.2677508,
        "tags": {
          "amenity": "bank",
          "brand": "Punjab National Bank",
          "brand:wikidata": "Q2743499",
          "brand:wikipedia": "en:Punjab National Bank",
          "name": "Punjab National Bank",
          "name:en": "Punjab National Bank"
        }
      },
      {
        "type": "node",
        "id": 10156072872,
        "lat": 13.0646953,
        "lon": 80.2666103,
        "tags": {
          "amenity": "bank",
          "brand": "AU Small Finance Bank",
          "brand:wikidata": "Q48729722",
          "name": "AU Small Finance Bank"
        }
      },
      {
        "type": "node",
        "id": 10316066385,
        "lat": 13.0639909,
        "lon": 80.2649164,
        "tags": {
          "amenity": "bank",
          "brand": "Central Bank of India",
          "brand:wikidata": "Q2007090",
          "name": "Central Bank of India"
        }
      },
      {
        "type": "node",
        "id": 10316946203,
        "lat": 13.0577863,
        "lon": 80.2574861,
        "tags": {
          "amenity": "cafe",
          "cuisine": "coffee_shop",
          "name": "Chai Kings"
        }
      },
      {
        "type": "node",
        "id": 10316946210,
        "lat": 13.0581073,
        "lon": 80.2573104,
        "tags": {
          "amenity": "bank",
          "brand": "City Union Bank",
          "brand:en": "City Union Bank",
          "brand:hi": "\u0938\u093f\u091f\u0940 \u092f\u0942\u0928\u093f\u092f\u0928 \u092c\u0948\u0902\u0915",
          "brand:ta": "\u0b9a\u0bbf\u0b9f\u0bcd\u0b9f\u0bbf \u0baf\u0bc2\u0ba9\u0bbf\u0baf\u0ba9\u0bcd \u0bb5\u0b99\u0bcd\u0b95\u0bbf",
          "brand:wikidata": "Q2040264",
          "name": "City Union Bank",
          "name:en": "City Union Bank",
          "name:hi": "\u0938\u093f\u091f\u0940 \u092f\u0942\u0928\u093f\u092f\u0928 \u092c\u0948\u0902\u0915",
          "name:ta": "\u0b9a\u0bbf\u0b9f\u0bcd\u0b9f\u0bbf \u0baf\u0bc2\u0ba9\u0bbf\u0baf\u0ba9\u0bcd \u0bb5\u0b99\u0bcd\u0b95\u0bbf",
          "short_name": "CUB"
        }
      },
      {
        "type": "node",
        "id": 10316946221,
        "lat": 13.0575953,
        "lon": 80.2572934,
        "tags": {
          "amenity": "bank",
          "brand": "ICICI Bank",
          "brand:wikidata": "Q1653258",
          "name": "ICICI Bank",
          "short_name": "ICICI"
        }
      },
      {
        "type": "node",
        "id": 10320115182,
        "lat": 13.0617099,
        "lon": 80.2619449,
        "tags": {
          "amenity": "fast_food",
          "brand": "McDonald's",
          "brand:wikidata": "Q38076",
          "cuisine": "burger",
          "name": "McDonald's",
          "takeaway": "yes"
        }
      },
      {
        "type": "node",
        "id": 10320115183,
        "lat": 13.0616426,
        "lon": 80.2617916,
        "tags": {
          "amenity": "fast_food",
          "brand": "Domino's",
          "brand:wikidata": "Q839466",
          "cuisine": "pizza",
          "name": "Domino's",
          "takeaway": "yes"
        }
      },
      {
        "type": "node",
        "id": 10320115205,
        "lat": 13.0602416,
        "lon": 80.2602547,
        "tags": {
          "amenity": "atm",
          "brand": "Indian Overseas Bank",
          "brand:wikidata": "Q2003611",
          "cash_in": "yes",
          "check_date": "2025-06-05",
          "operator": "Indian Overseas Bank",
          "operator:wikidata": "Q2003611"
        }
      },
      {
        "type": "node",
        "id": 11299210270,
        "lat": 13.0543059,
        "lon": 80.2610245,
        "tags": {
          "amenity": "cafe",
          "name:fr": "Brownie Heaven"
        }
      },
      {
        "type": "node",
        "id": 11612949469,
        "lat": 13.0572977,
        "lon": 80.2593262,
        "tags": {
          "amenity": "restaurant",
          "name:en": "Wild Garden Caf\u00e9 \u2013 Am\u00e9thyste"
        }
      },
      {
        "type": "node",
        "id": 11617872869,
        "lat": 13.0541598,
        "lon": 80.2573955,
        "tags": {
          "amenity": "cafe",
          "name:en": "Writer's cafe (coffee , french pastries, restaurant)"
        }
      },
      {
        "type": "node",
        "id": 12188493383,
        "lat": 13.0601673,
        "lon": 80.2546158,
        "tags": {
          "amenity": "fast_food",
          "diet:vegetarian": "yes",
          "name": "KABAB CORNER",
          "payment:credit_cards": "yes",
          "payment:debit_cards": "yes"
        }
      }
    ]
  },
  "pois_2_5km": {
    "version": 0.6,
    "generator": "Overpass API 0.7.62.8 e802775f",
    "osm3s": {
      "timestamp_osm_base": "2025-09-06T09:18:02Z",
      "copyright": "The data included in this document is from www.openstreetmap.org. The data is made available under ODbL."
    },
    "elements": [
      {
        "type": "node",
        "id": 186741980,
        "lat": 13.0578527,
        "lon": 80.2428163,
        "tags": {
          "bus": "yes",
          "name": "Nungambakkam Police Station",
          "network": "MTC",
          "operator": "Metropolitan Transport Corporation (Chennai) Ltd.",
          "public_transport": "stop_position"
        }
      },
      {
        "type": "node",
        "id": 243041584,
        "lat": 13.0730718,
        "lon": 80.273991,
        "tags": {
          "name": "Chintadaripet",
          "public_transport": "stop_position",
          "railway": "stop",
          "train": "yes"
        }
      },
      {
        "type": "node",
        "id": 243041609,
        "lat": 13.0620417,
        "lon": 80.2806464,
        "tags": {
          "name": "Chepauk",
          "public_transport": "stop_position",
          "railway": "stop",
          "train": "yes"
        }
      },
      {
        "type": "node",
        "id": 243041613,
        "lat": 13.0543596,
        "lon": 80.2806267,
        "tags": {
          "name": "Thiruvallikeni",
          "public_transport": "stop_position",
          "railway": "stop",
          "train": "yes"
        }
      },
      {
        "type": "node",
        "id": 243041642,
        "lat": 13.0401367,
        "lon": 80.2697176,
        "tags": {
          "name": "Mundakakanni Amman Koil",
          "name:en": "Mundakakanni Amman Koil",
          "public_transport": "stop_position",
          "railway": "stop",
          "train": "yes"
        }
      },
      {
        "type": "node",
        "id": 243049436,
        "lat": 13.0634424,
        "lon": 80.2434914,
        "tags": {
          "bus": "yes",
          "name": "Sterling Road",
          "network": "MTC",
          "operator": "Metropolitan Transport Corporation (Chennai) Ltd.",
          "public_transport": "stop_position"
        }
      },
      {
        "type": "node",
        "id": 243064594,
        "lat": 13.0608709,
        "lon": 80.2652174,
        "tags": {
          "bus": "yes",
          "name": "Express avenue",
          "network": "MTC",
          "public_transport": "stop_position"
        }
      },
      {
        "type": "node",
        "id": 247691544,
        "lat": 13.0512112,
        "lon": 80.2778386,
        "tags": {
          "amenity": "bus_station",
          "bus": "yes",
          "name": "V House Bus Terminus",
          "public_transport": "station"
        }
      },
      {
        "type": "node",
        "id": 248343893,
        "lat": 13.037841,
        "lon": 80.2562967,
        "tags": {
          "amenity": "fuel",
          "created_by": "Potlatch 0.10f",
          "name": "IOC"
        }
      },
      {
        "type": "node",
        "id": 248344281,
        "lat": 13.0378885,
        "lon": 80.2569506,
        "tags": {
          "amenity": "fuel",
          "brand": "BP",
          "brand:wikidata": "Q152057",
          "brand:wikipedia": "en:BP",
          "name": "BP"
        }
      },
      {
        "type": "node",
        "id": 259662367,
        "lat": 13.0524541,
        "lon": 80.26382,
        "tags": {
          "bus": "yes",
          "name": "Royapettah Police Station",
          "public_transport": "stop_position"
        }
      },
      {
        "type": "node",
        "id": 262666364,
        "lat": 13.0505637,
        "lon": 80.2796983,
        "tags": {
          "bus": "yes",
          "highway": "bus_stop",
          "public_transport": "stop_position"
        }
      },
      {
        "type": "node",
        "id": 301736165,
        "lat": 13.0387535,
        "lon": 80.2588492,
        "tags": {
          "bus": "yes",
          "highway": "bus_stop",
          "name": "\u0b86\u0bb4\u0bcd\u0bb5\u0bbe\u0bb0\u0bcd \u0baa\u0bc7\u0b9f\u0bcd\u0b9f\u0bc8",
          "name:en": "Alwarpet",
          "name:ta": "\u0b86\u0bb4\u0bcd\u0bb5\u0bbe\u0bb0\u0bcd \u0baa\u0bc7\u0b9f\u0bcd\u0b9f\u0bc8",
          "public_transport": "stop_position",
          "shelter": "yes"
        }
      },
      {
        "type": "node",
        "id": 301738571,
        "lat": 13.0391669,
        "lon": 80.2573351,
        "tags": {
          "amenity": "fuel",
          "brand": "Hindustan Petroleum",
          "brand:wikidata": "Q1619375",
          "brand:wikipedia": "en:Hindustan Petroleum",
          "name": "HP",
          "official_name": "Hindustan Petroleum"
        }
      },
      {
        "type": "node",
        "id": 301947513,
        "lat": 13.0493343,
        "lon": 80.25305,
        "tags": {
          "amenity": "fuel"
        }
      },
      {
        "type": "node",
        "id": 308301823,
        "lat": 13.0490493,
        "lon": 80.2483265,
        "tags": {
          "amenity": "theatre",
          "name": "Kamaraj Arangam",
          "name:etymology:wikidata": "Q522048"
        }
      },
      {
        "type": "node",
        "id": 308303592,
        "lat": 13.0417163,
        "lon": 80.2494482,
        "tags": {
          "amenity": "theatre",
          "created_by": "Potlatch 0.10f",
          "name": "Anna Arivalayam",
          "name:etymology:wikidata": "Q138765"
        }
      },
      {
        "type": "node",
        "id": 308467150,
        "lat": 13.0459529,
        "lon": 80.2562406,
        "tags": {
          "amenity": "fuel"
        }
      },
      {
        "type": "node",
        "id": 310729808,
        "lat": 13.0445134,
        "lon": 80.2685481,
        "tags": {
          "bus": "yes",
          "highway": "bus_stop",
          "name": "Yellow Pages",
          "public_transport": "stop_position",
          "ref": "mtcstop#0626",
          "shelter": "yes"
        }
      },
      {
        "type": "node",
        "id": 313135840,
        "lat": 13.0534169,
        "lon": 80.252032,
        "tags": {
          "amenity": "fuel",
          "brand": "Hindustan Petroleum",
          "brand:wikidata": "Q1619375",
          "brand:wikipedia": "en:Hindustan Petroleum",
          "name": "HP",
          "name:en": "HP",
          "official_name": "Hindustan Petroleum"
        }
      },
      {
        "type": "node",
        "id": 313135912,
        "lat": 13.0540764,
        "lon": 80.2530457,
        "tags": {
          "amenity": "fuel",
          "created_by": "Potlatch 0.10d"
        }
      },
      {
        "type": "node",
        "id": 314688253,
        "lat": 13.0427775,
        "lon": 80.2677547,
        "tags": {
          "amenity": "fuel",
          "brand": "Hindustan Petroleum",
          "brand:wikidata": "Q1619375",
          "brand:wikipedia": "en:Hindustan Petroleum",
          "name": "HP",
          "official_name": "Hindustan Petroleum"
        }
      },
      {
        "type": "node",
        "id": 315897595,
        "lat": 13.0593418,
        "lon": 80.2657932,
        "tags": {
          "amenity": "cinema",
          "created_by": "Potlatch 0.10f",
          "name": "Melody"
        }
      },
      {
        "type": "node",
        "id": 319038955,
        "lat": 13.0421221,
        "lon": 80.2684202,
        "tags": {
          "amenity": "fuel",
          "brand": "Indian Oil",
          "brand:wikidata": "Q1289348",
          "brand:wikipedia": "en:Indian Oil Corporation",
          "check_date": "2024-05-22",
          "fuel:diesel": "yes",
          "fuel:octane_80": "yes",
          "internet_access": "no",
          "name": "Indian Oil",
          "name:en": "Indian Oil",
          "operator": "Indian Oil Corporation Ltd",
          "payment:cash": "yes",
          "payment:credit_cards": "yes",
          "payment:debit_cards": "yes",
          "payment:upi": "yes",
          "self_service": "no",
          "wheelchair": "yes"
        }
      },
      {
        "type": "node",
        "id": 343721497,
        "lat": 13.0386195,
        "lon": 80.2588399,
        "tags": {
          "bus": "yes",
          "highway": "bus_stop",
          "name": "\u0b86\u0bb4\u0bcd\u0bb5\u0bbe\u0bb0\u0bcd \u0baa\u0bc7\u0b9f\u0bcd\u0b9f\u0bc8",
          "name:en": "Alwarpet",
          "name:ta": "\u0b86\u0bb4\u0bcd\u0bb5\u0bbe\u0bb0\u0bcd \u0baa\u0bc7\u0b9f\u0bcd\u0b9f\u0bc8",
          "public_transport": "stop_position",
          "shelter": "yes"
        }
      },
      {
        "type": "node",
        "id": 344405871,
        "lat": 13.0674553,
        "lon": 80.2524458,
        "tags": {
          "amenity": "fuel"
        }
      },
      {
        "type": "node",
        "id": 365281356,
        "lat": 13.0373045,
        "lon": 80.258891,
        "tags": {
          "amenity": "theatre",
          "name": "Sivagami Petachi Auditorium"
        }
      },
      {
        "type": "node",
        "id": 370317596,
        "lat": 13.0669309,
        "lon": 80.2457303,
        "tags": {
          "addr:housenumber": "24",
          "addr:postcode": "600034",
          "addr:street": "College Road",
          "amenity": "theatre",
          "created_by": "Potlatch 0.10f",
          "name": "Alliance Francais",
          "name:en": "Alliance Fran\u00e7aise",
          "phone": "+91 44 2827 9803",
          "website": "https://madras.afindia.org/"
        }
      },
      {
        "type": "node",
        "id": 378021346,
        "lat": 13.044528,
        "lon": 80.2634018,
        "tags": {
          "amenity": "fuel",
          "brand": "Indian Oil",
          "brand:wikidata": "Q1289348",
          "brand:wikipedia": "en:Indian Oil Corporation",
          "name": "Indian Oil",
          "operator": "Indian Oil"
        }
      },
      {
        "type": "node",
        "id": 386890399,
        "lat": 13.0553594,
        "lon": 80.2580847,
        "tags": {
          "amenity": "theatre",
          "name": "Sathyam Cinema"
        }
      },
      {
        "type": "node",
        "id": 416413322,
        "lat": 13.0378036,
        "lon": 80.2665431,
        "tags": {
          "amenity": "cinema",
          "check_date": "2024-05-22",
          "name": "Kamadhenu",
          "name:en": "Kamadhenu"
        }
      },
      {
        "type": "node",
        "id": 603015278,
        "lat": 13.0697128,
        "lon": 80.2730041,
        "tags": {
          "name": "\u0b85\u0bb0\u0b9a\u0bbf\u0ba9\u0bb0\u0bcd \u0ba4\u0bcb\u0b9f\u0bcd\u0b9f\u0bae\u0bcd",
          "name:en": "Government Estate",
          "name:ta": "\u0b85\u0bb0\u0b9a\u0bbf\u0ba9\u0bb0\u0bcd \u0ba4\u0bcb\u0b9f\u0bcd\u0b9f\u0bae\u0bcd",
          "network": "Chennai Metro",
          "note": "Contributors are requested to not edit the \"network\" and the \"operator\" tags. (2023/11/08)",
          "operator": "Chennai Metro Rail Limited",
          "public_transport": "stop_position",
          "railway": "stop",
          "station": "subway",
          "subway": "yes"
        }
      },
      {
        "type": "node",
        "id": 652426199,
        "lat": 13.0802886,
        "lon": 80.2630538,
        "tags": {
          "name": "Egmore Metro",
          "name:ta": "\u0b8e\u0bb4\u0bc1\u0bae\u0bcd\u0baa\u0bc2\u0bb0\u0bcd",
          "network": "Chennai Metro",
          "note": "Contributors are requested to not edit the \"network\" and the \"operator\" tags. (2023/11/08)",
          "operator": "Chennai Metro Rail Limited",
          "public_transport": "stop_position",
          "railway": "stop",
          "subway": "yes"
        }
      },
      {
        "type": "node",
        "id": 1280328281,
        "lat": 13.0715858,
        "lon": 80.2646192,
        "tags": {
          "bus": "yes",
          "name": "Egmore Court",
          "network": "MTC",
          "operator": "Metropolitan Transport Corporation (Chennai) Ltd.",
          "public_transport": "stop_position",
          "route_ref": "27D"
        }
      },
      {
        "type": "node",
        "id": 1885029649,
        "lat": 13.0421141,
        "lon": 80.259281,
        "tags": {
          "amenity": "fuel",
          "brand": "BP",
          "brand:wikidata": "Q152057",
          "brand:wikipedia": "en:BP",
          "name": "BP",
          "operator": "Thevar automobiles"
        }
      },
      {
        "type": "node",
        "id": 1975496434,
        "lat": 13.0566614,
        "lon": 80.2426317,
        "tags": {
          "bus": "yes",
          "name": "Independence Day Park",
          "network": "MTC",
          "operator": "Metropolitan Transport Corporation (Chennai) Ltd.",
          "public_transport": "stop_position"
        }
      },
      {
        "type": "node",
        "id": 2197496797,
        "lat": 13.0539962,
        "lon": 80.2422574,
        "tags": {
          "bus": "yes",
          "name": "Valluvar Kottam",
          "network": "MTC",
          "operator": "Metropolitan Transport Corporation (Chennai) Ltd.",
          "public_transport": "stop_position"
        }
      },
      {
        "type": "node",
        "id": 2440033626,
        "lat": 13.0620574,
        "lon": 80.2805626,
        "tags": {
          "name": "Chepauk",
          "public_transport": "stop_position",
          "railway": "stop",
          "train": "yes"
        }
      },
      {
        "type": "node",
        "id": 2440049207,
        "lat": 13.0411205,
        "lon": 80.2703694,
        "tags": {
          "name": "Mundakakanni Amman Koil",
          "name:en": "Mundakakanni Amman Koil",
          "public_transport": "stop_position",
          "railway": "stop",
          "train": "yes"
        }
      },
      {
        "type": "node",
        "id": 2481259036,
        "lat": 13.0776606,
        "lon": 80.2600514,
        "tags": {
          "public_transport": "stop_position",
          "railway": "stop",
          "train": "yes"
        }
      },
      {
        "type": "node",
        "id": 2481259037,
        "lat": 13.0776988,
        "lon": 80.2600443,
        "tags": {
          "public_transport": "stop_position",
          "railway": "stop",
          "train": "yes"
        }
      },
      {
        "type": "node",
        "id": 2481259038,
        "lat": 13.0780514,
        "lon": 80.2615176,
        "tags": {
          "public_transport": "stop_position",
          "railway": "stop",
          "train": "yes"
        }
      },
      {
        "type": "node",
        "id": 2481259039,
        "lat": 13.0781047,
        "lon": 80.2615048,
        "tags": {
          "public_transport": "stop_position",
          "railway": "stop",
          "train": "yes"
        }
      },
      {
        "type": "node",
        "id": 2481259040,
        "lat": 13.0782233,
        "lon": 80.2614998,
        "tags": {
          "public_transport": "stop_position",
          "railway": "stop",
          "train": "yes"
        }
      },
      {
        "type": "node",
        "id": 2481259041,
        "lat": 13.0783611,
        "lon": 80.26146,
        "tags": {
          "public_transport": "stop_position",
          "railway": "stop",
          "train": "yes"
        }
      },
      {
        "type": "node",
        "id": 2481259042,
        "lat": 13.0784164,
        "lon": 80.2614501,
        "tags": {
          "public_transport": "stop_position",
          "railway": "stop",
          "train": "yes"
        }
      },
      {
        "type": "node",
        "id": 2481259043,
        "lat": 13.0785478,
        "lon": 80.2614302,
        "tags": {
          "public_transport": "stop_position",
          "railway": "stop",
          "train": "yes"
        }
      },
      {
        "type": "node",
        "id": 2481259044,
        "lat": 13.0785891,
        "lon": 80.2614185,
        "tags": {
          "public_transport": "stop_position",
          "railway": "stop",
          "train": "yes"
        }
      },
      {
        "type": "node",
        "id": 2481259045,
        "lat": 13.0787267,
        "lon": 80.2614163,
        "tags": {
          "public_transport": "stop_position",
          "railway": "stop",
          "train": "yes"
        }
      },
      {
        "type": "node",
        "id": 2482238496,
        "lat": 13.0643044,
        "lon": 80.2586227,
        "tags": {
          "amenity": "theatre"
        }
      },
      {
        "type": "node",
        "id": 2485384468,
        "lat": 13.045805,
        "lon": 80.2693631,
        "tags": {
          "amenity": "theatre",
          "name": "L. Balasubramaniam Hall Aiobeu Swastika"
        }
      },
      {
        "type": "node",
        "id": 2486239287,
        "lat": 13.0619312,
        "lon": 80.280596,
        "tags": {
          "internet_access": "no",
          "name": "Chepauk",
          "name:ta": "\u0b9a\u0bc7\u0baa\u0bcd\u0baa\u0bbe\u0b95\u0bcd\u0b95\u0bae\u0bcd",
          "network": "IR",
          "operator": "SR",
          "public_transport": "station",
          "railway": "station",
          "ref": "MCPK",
          "train": "yes",
          "wikidata": "Q5091698",
          "wikipedia": "en:Chepauk railway station"
        }
      },
      {
        "type": "node",
        "id": 2486239288,
        "lat": 13.0559352,
        "lon": 80.2806044,
        "tags": {
          "internet_access": "no",
          "name": "Thiruvallikeni",
          "network": "IR",
          "operator": "SR",
          "public_transport": "station",
          "railway": "station",
          "ref": "MTCN",
          "train": "yes",
          "wikidata": "Q7785486",
          "wikipedia": "en:Thiruvallikeni railway station"
        }
      },
      {
        "type": "node",
        "id": 3693619427,
        "lat": 13.0587298,
        "lon": 80.263784,
        "tags": {
          "amenity": "cinema",
          "name": "Escape Cinemas"
        }
      },
      {
        "type": "node",
        "id": 4308320193,
        "lat": 13.072324,
        "lon": 80.2602653,
        "tags": {
          "addr:postcode": "600008",
          "addr:street": "Pantheon Road",
          "amenity": "fuel",
          "brand": "Bharat Petroleum",
          "brand:wikidata": "Q854826",
          "name": "Bharat Petroleum Bunk"
        }
      },
      {
        "type": "node",
        "id": 4359466591,
        "lat": 13.0649955,
        "lon": 80.2432915,
        "tags": {
          "addr:street": "Valluvar Kottam High Road",
          "amenity": "fuel",
          "brand": "Bharat Petroleum",
          "brand:wikidata": "Q854826",
          "brand:wikipedia": "en:Bharat Petroleum",
          "name": "Bharat Petroleum",
          "name:en": "Bharat Petroleum",
          "operator": "Bharat Petroleum"
        }
      },
      {
        "type": "node",
        "id": 5275790188,
        "lat": 13.0777493,
        "lon": 80.2612572,
        "tags": {
          "internet_access": "wlan",
          "name": "Chennai Egmore",
          "name:ml": "\u0d1a\u0d46\u0d28\u0d4d\u0d28\u0d48 \u0d0e\u0d34\u0d41\u0d2e\u0d4d\u0d2a\u0d42\u0d7c",
          "name:ta": "\u0b9a\u0bc6\u0ba9\u0bcd\u0ba9\u0bc8 \u0b8e\u0bb4\u0bc1\u0bae\u0bcd\u0baa\u0bc2\u0bb0\u0bcd",
          "network": "IR",
          "operator": "SR",
          "public_transport": "station",
          "railway": "station",
          "ref": "MS",
          "survey:date": "2021-04-11",
          "wheelchair": "yes",
          "wikidata": "Q3536643",
          "wikipedia": "en:Chennai Egmore railway station"
        }
      },
      {
        "type": "node",
        "id": 5310193402,
        "lat": 13.0744209,
        "lon": 80.2737533,
        "tags": {
          "name": "Chintadaripet",
          "public_transport": "stop_position",
          "railway": "stop",
          "train": "yes"
        }
      },
      {
        "type": "node",
        "id": 5311755231,
        "lat": 13.0737952,
        "lon": 80.2738611,
        "tags": {
          "internet_access": "no",
          "name": "Chintadaripet",
          "name:ml": "\u0d1a\u0d3f\u0d28\u0d4d\u0d24\u0d3e\u0d26\u0d4d\u0d30\u0d3f\u0d2a\u0d47\u0d1f\u0d4d\u0d1f",
          "name:ta": "\u0b9a\u0bbf\u0ba8\u0bcd\u0ba4\u0bbe\u0ba4\u0bbf\u0bb0\u0bbf\u0baa\u0bcd\u0baa\u0bc7\u0b9f\u0bcd\u0b9f\u0bc8",
          "network": "IR",
          "operator": "SR",
          "public_transport": "station",
          "railway": "station",
          "ref": "MCPT",
          "train": "yes",
          "wikidata": "Q5101294",
          "wikipedia": "en:Chintadripet railway station"
        }
      },
      {
        "type": "node",
        "id": 5311755232,
        "lat": 13.0455374,
        "lon": 80.2769885,
        "tags": {
          "internet_access": "no",
          "name": "Light House",
          "name:ta": "\u0b95\u0bb2\u0b99\u0bcd\u0b95\u0bb0\u0bc8 \u0bb5\u0bbf\u0bb3\u0b95\u0bcd\u0b95\u0bae\u0bcd",
          "network": "IR",
          "operator": "SR",
          "public_transport": "station",
          "railway": "station",
          "ref": "MLHS",
          "train": "yes",
          "wikidata": "Q6546029",
          "wikipedia": "en:Light House railway station"
        }
      },
      {
        "type": "node",
        "id": 5311755233,
        "lat": 13.0406508,
        "lon": 80.2698818,
        "tags": {
          "internet_access": "no",
          "name": "Mundakakanni Amman Koil",
          "name:en": "Mundakakanni Amman Koil",
          "network": "IR",
          "operator": "SR",
          "public_transport": "station",
          "railway": "station",
          "ref": "MKAK",
          "train": "yes",
          "wikidata": "Q6935719",
          "wikipedia": "en:Mundagakanniamman Koil railway station"
        }
      },
      {
        "type": "node",
        "id": 5328279403,
        "lat": 13.0802705,
        "lon": 80.2630584,
        "tags": {
          "name": "Egmore Metro",
          "name:ta": "\u0b8e\u0bb4\u0bc1\u0bae\u0bcd\u0baa\u0bc2\u0bb0\u0bcd",
          "network": "Chennai Metro",
          "note": "Contributors are requested to not edit the \"network\" and the \"operator\" tags. (2023/11/08)",
          "operator": "Chennai Metro Rail Limited",
          "public_transport": "stop_position",
          "railway": "stop",
          "subway": "yes"
        }
      },
      {
        "type": "node",
        "id": 5329907499,
        "lat": 13.0802807,
        "lon": 80.2630546,
        "tags": {
          "name": "Egmore Metro",
          "name:ml": "\u0d0e\u0d34\u0d41\u0d2e\u0d4d\u0d2a\u0d42\u0d7c",
          "name:ta": "\u0b8e\u0bb4\u0bc1\u0bae\u0bcd\u0baa\u0bc2\u0bb0\u0bcd",
          "network": "Chennai Metro",
          "network:wikidata": "Q1639576",
          "note": "Contributors are requested to not edit the \"network\" and the \"operator\" tags. (2023/11/08)",
          "operator": "Chennai Metro Rail Limited",
          "public_transport": "station",
          "railway": "station",
          "railway:ref": "SEG",
          "ref": "SEG",
          "station": "subway",
          "subway": "yes",
          "wikidata": "Q30638926",
          "wikipedia": "en:Egmore metro station"
        }
      },
      {
        "type": "node",
        "id": 5337407346,
        "lat": 13.0585155,
        "lon": 80.2587833,
        "tags": {
          "name": "\u0b86\u0baf\u0bbf\u0bb0\u0bae\u0bcd \u0bb5\u0bbf\u0bb3\u0b95\u0bcd\u0b95\u0bc1",
          "name:en": "Thousand Lights",
          "name:ml": "\u0d06\u0d2f\u0d3f\u0d30\u0d02 \u0d35\u0d3f\u0d33\u0d15\u0d4d\u0d15\u0d4d",
          "name:ta": "\u0b86\u0baf\u0bbf\u0bb0\u0bae\u0bcd \u0bb5\u0bbf\u0bb3\u0b95\u0bcd\u0b95\u0bc1",
          "network": "Chennai Metro",
          "network:wikidata": "Q1639576",
          "note": "Contributors are requested to not edit the \"network\" and the \"operator\" tags. (2023/11/08)",
          "operator": "Chennai Metro Rail Limited",
          "public_transport": "station",
          "railway": "station",
          "railway:ref": "STL",
          "ref": "STL",
          "station": "subway",
          "subway": "yes",
          "wikidata": "Q62005544",
          "wikipedia": "en:Thousand Lights metro station"
        }
      },
      {
        "type": "node",
        "id": 5337407347,
        "lat": 13.0458615,
        "lon": 80.2483032,
        "tags": {
          "name": "\u0b8f \u0b9c\u0bbf \u0b9f\u0bbf.\u0b8e\u0bae\u0bcd.\u0b8e\u0bb8\u0bcd",
          "name:en": "AG-DMS",
          "name:ta": "\u0b8f \u0b9c\u0bbf \u0b9f\u0bbf.\u0b8e\u0bae\u0bcd.\u0b8e\u0bb8\u0bcd",
          "network": "Chennai Metro",
          "note": "Contributors are requested to not edit the \"network\" and the \"operator\" tags. (2023/11/08)",
          "operator": "Chennai Metro Rail Limited",
          "public_transport": "stop_position",
          "railway": "stop",
          "station": "subway",
          "subway": "yes"
        }
      },
      {
        "type": "node",
        "id": 5337407350,
        "lat": 13.0643716,
        "lon": 80.2658465,
        "tags": {
          "name": "\u0b8e\u0bb2\u0bcd \u0b90 \u0b9a\u0bbf",
          "name:en": "LIC",
          "name:ml": "\u0d0e\u0d7d\u0d10\u0d38\u0d3f",
          "name:ta": "\u0b8e\u0bb2\u0bcd \u0b90 \u0b9a\u0bbf",
          "network": "Chennai Metro",
          "network:wikidata": "Q1639576",
          "note": "Contributors are requested to not edit the \"network\" and the \"operator\" tags. (2023/11/08)",
          "operator": "Chennai Metro Rail Limited",
          "public_transport": "station",
          "railway": "station",
          "railway:ref": "SLI",
          "ref": "SLI",
          "station": "subway",
          "subway": "yes",
          "wikidata": "Q62005418",
          "wikipedia": "en:LIC metro station"
        }
      },
      {
        "type": "node",
        "id": 5337407354,
        "lat": 13.0696345,
        "lon": 80.2730362,
        "tags": {
          "name": "\u0b85\u0bb0\u0b9a\u0bbf\u0ba9\u0bb0\u0bcd \u0ba4\u0bcb\u0b9f\u0bcd\u0b9f\u0bae\u0bcd",
          "name:en": "Government Estate",
          "name:ml": "\u0d38\u0d7c\u0d15\u0d4d\u0d15\u0d3e\u0d7c \u0d0e\u0d38\u0d4d\u0d31\u0d4d\u0d31\u0d47\u0d31\u0d4d\u0d31\u0d4d",
          "name:ta": "\u0b85\u0bb0\u0b9a\u0bbf\u0ba9\u0bb0\u0bcd \u0ba4\u0bcb\u0b9f\u0bcd\u0b9f\u0bae\u0bcd",
          "network": "Chennai Metro",
          "network:wikidata": "Q1639576",
          "note": "Contributors are requested to not edit the \"network\" and the \"operator\" tags. (2023/11/08)",
          "operator": "Chennai Metro Rail Limited",
          "public_transport": "station",
          "railway": "station",
          "railway:ref": "SGE",
          "ref": "SGE",
          "station": "subway",
          "subway": "yes",
          "wikidata": "Q62005539",
          "wikipedia": "en:Government Estate metro station"
        }
      },
      {
        "type": "node",
        "id": 5460685950,
        "lat": 13.0653877,
        "lon": 80.2676197,
        "tags": {
          "bus": "yes",
          "name": "LIC",
          "operator": "MTC",
          "public_transport": "stop_position"
        }
      },
      {
        "type": "node",
        "id": 5744866566,
        "lat": 13.07198,
        "lon": 80.2598553,
        "tags": {
          "amenity": "fuel",
          "brand": "Hindustan Petroleum",
          "brand:wikidata": "Q1619375",
          "brand:wikipedia": "en:Hindustan Petroleum",
          "name": "HP",
          "official_name": "Hindustan Petroleum",
          "operator": "HP"
        }
      },
      {
        "type": "node",
        "id": 5760196458,
        "lat": 13.0458703,
        "lon": 80.2482567,
        "tags": {
          "name": "\u0b8f \u0b9c\u0bbf \u0b9f\u0bbf.\u0b8e\u0bae\u0bcd.\u0b8e\u0bb8\u0bcd",
          "name:en": "AG-DMS",
          "name:ta": "\u0b8f \u0b9c\u0bbf \u0b9f\u0bbf.\u0b8e\u0bae\u0bcd.\u0b8e\u0bb8\u0bcd",
          "network": "Chennai Metro",
          "note": "Contributors are requested to not edit the \"network\" and the \"operator\" tags. (2023/11/08)",
          "operator": "Chennai Metro Rail Limited",
          "public_transport": "stop_position",
          "railway": "stop",
          "station": "subway",
          "subway": "yes"
        }
      },
      {
        "type": "node",
        "id": 6285857249,
        "lat": 13.0458852,
        "lon": 80.2482846,
        "tags": {
          "alt_name": "Gemini",
          "alt_name:ta": "\u0b9c\u0bc6\u0bae\u0bbf\u0ba9\u0bbf",
          "local_ref": "Gemini",
          "name": "\u0b8f \u0b9c\u0bbf \u0b9f\u0bbf.\u0b8e\u0bae\u0bcd.\u0b8e\u0bb8\u0bcd",
          "name:en": "AG-DMS",
          "name:ml": "\u0d0e\u0d1c\u0d3f - \u0d21\u0d3f\u0d0e\u0d02\u0d0e\u0d38\u0d4d",
          "name:ta": "\u0b8f \u0b9c\u0bbf \u0b9f\u0bbf.\u0b8e\u0bae\u0bcd.\u0b8e\u0bb8\u0bcd",
          "network": "Chennai Metro",
          "note": "Contributors are requested to not edit the \"network\" and the \"operator\" tags. (2023/11/08)",
          "operator": "Chennai Metro Rail Limited",
          "public_transport": "station",
          "railway": "station",
          "railway:ref": "SGM",
          "ref": "SGM",
          "station": "subway",
          "subway": "yes",
          "wikidata": "Q55602937",
          "wikipedia": "en:AG-DMS metro station"
        }
      },
      {
        "type": "node",
        "id": 6297571205,
        "lat": 13.0474821,
        "lon": 80.2450469,
        "tags": {
          "addr:street": "T Nagar, Chennai",
          "amenity": "cinema",
          "name": "AGS Cinemas (T Nagar)"
        }
      },
      {
        "type": "node",
        "id": 6397600719,
        "lat": 13.0696147,
        "lon": 80.2731105,
        "tags": {
          "name": "\u0b85\u0bb0\u0b9a\u0bbf\u0ba9\u0bb0\u0bcd \u0ba4\u0bcb\u0b9f\u0bcd\u0b9f\u0bae\u0bcd",
          "name:en": "Government Estate",
          "name:ta": "\u0b85\u0bb0\u0b9a\u0bbf\u0ba9\u0bb0\u0bcd \u0ba4\u0bcb\u0b9f\u0bcd\u0b9f\u0bae\u0bcd",
          "network": "Chennai Metro",
          "note": "Contributors are requested to not edit the \"network\" and the \"operator\" tags. (2023/11/08)",
          "operator": "Chennai Metro Rail Limited",
          "public_transport": "stop_position",
          "railway": "stop",
          "station": "subway",
          "subway": "yes"
        }
      },
      {
        "type": "node",
        "id": 6397600720,
        "lat": 13.0643478,
        "lon": 80.265862,
        "tags": {
          "name": "\u0b8e\u0bb2\u0bcd \u0b90 \u0b9a\u0bbf",
          "name:en": "LIC",
          "name:ta": "\u0b8e\u0bb2\u0bcd \u0b90 \u0b9a\u0bbf",
          "network": "Chennai Metro",
          "note": "Contributors are requested to not edit the \"network\" and the \"operator\" tags. (2023/11/08)",
          "operator": "Chennai Metro Rail Limited",
          "public_transport": "stop_position",
          "railway": "stop",
          "station": "subway",
          "subway": "yes"
        }
      },
      {
        "type": "node",
        "id": 6397600721,
        "lat": 13.0643999,
        "lon": 80.26583,
        "tags": {
          "name": "\u0b8e\u0bb2\u0bcd \u0b90 \u0b9a\u0bbf",
          "name:en": "LIC",
          "name:ta": "\u0b8e\u0bb2\u0bcd \u0b90 \u0b9a\u0bbf",
          "network": "Chennai Metro",
          "note": "Contributors are requested to not edit the \"network\" and the \"operator\" tags. (2023/11/08)",
          "operator": "Chennai Metro Rail Limited",
          "public_transport": "stop_position",
          "railway": "stop",
          "station": "subway",
          "subway": "yes"
        }
      },
      {
        "type": "node",
        "id": 6397600722,
        "lat": 13.0586219,
        "lon": 80.2587519,
        "tags": {
          "name": "\u0b86\u0baf\u0bbf\u0bb0\u0bae\u0bcd \u0bb5\u0bbf\u0bb3\u0b95\u0bcd\u0b95\u0bc1",
          "name:en": "Thousand Lights",
          "name:ta": "\u0b86\u0baf\u0bbf\u0bb0\u0bae\u0bcd \u0bb5\u0bbf\u0bb3\u0b95\u0bcd\u0b95\u0bc1",
          "network": "Chennai Metro",
          "note": "Contributors are requested to not edit the \"network\" and the \"operator\" tags. (2023/11/08)",
          "operator": "Chennai Metro Rail Limited",
          "public_transport": "stop_position",
          "railway": "stop",
          "station": "subway",
          "subway": "yes"
        }
      },
      {
        "type": "node",
        "id": 6397600723,
        "lat": 13.0585796,
        "lon": 80.258773,
        "tags": {
          "name": "\u0b86\u0baf\u0bbf\u0bb0\u0bae\u0bcd \u0bb5\u0bbf\u0bb3\u0b95\u0bcd\u0b95\u0bc1",
          "name:en": "Thousand Lights",
          "name:ta": "\u0b86\u0baf\u0bbf\u0bb0\u0bae\u0bcd \u0bb5\u0bbf\u0bb3\u0b95\u0bcd\u0b95\u0bc1",
          "network": "Chennai Metro",
          "note": "Contributors are requested to not edit the \"network\" and the \"operator\" tags. (2023/11/08)",
          "operator": "Chennai Metro Rail Limited",
          "public_transport": "stop_position",
          "railway": "stop",
          "station": "subway",
          "subway": "yes"
        }
      },
      {
        "type": "node",
        "id": 6812229988,
        "lat": 13.0427698,
        "lon": 80.2600474,
        "tags": {
          "addr:street": "CIT Colony 2nd Main Road",
          "amenity": "theatre",
          "name": "Kavikko Convention Centre",
          "name:ta": "\u0b95\u0bb5\u0bbf\u0b95\u0bcd\u0b95\u0bcb \u0b85\u0bb0\u0b99\u0bcd\u0b95\u0bae\u0bcd"
        }
      },
      {
        "type": "node",
        "id": 7057699185,
        "lat": 13.0722894,
        "lon": 80.2517008,
        "tags": {
          "amenity": "fuel",
          "brand": "Indian Oil",
          "brand:wikidata": "Q1289348",
          "name": "Indian Oil",
          "name:en": "Indian Oil"
        }
      },
      {
        "type": "node",
        "id": 7136010485,
        "lat": 13.0504559,
        "lon": 80.2564197,
        "tags": {
          "amenity": "fuel",
          "brand": "Bharat Petroleum",
          "brand:wikidata": "Q854826",
          "brand:wikipedia": "en:Bharat Petroleum",
          "name": "Bharat Petroleum Petrol Station",
          "name:en": "Bharat Petroleum Petrol Station"
        }
      },
      {
        "type": "node",
        "id": 7155445050,
        "lat": 13.0592866,
        "lon": 80.2595105,
        "tags": {
          "bus": "yes",
          "name": "TVS",
          "network": "MTC",
          "operator": "Metropolitan Transport Corporation (Chennai) Ltd.",
          "public_transport": "stop_position"
        }
      },
      {
        "type": "node",
        "id": 7252470680,
        "lat": 13.0584278,
        "lon": 80.2425658,
        "tags": {
          "amenity": "fuel"
        }
      },
      {
        "type": "node",
        "id": 7255733766,
        "lat": 13.0558552,
        "lon": 80.2487664,
        "tags": {
          "amenity": "fuel",
          "brand": "Indian Oil",
          "brand:wikidata": "Q1289348",
          "brand:wikipedia": "en:Indian Oil Corporation",
          "name": "IndianOil"
        }
      },
      {
        "type": "node",
        "id": 7272343104,
        "lat": 13.052993,
        "lon": 80.2513143,
        "tags": {
          "amenity": "theatre",
          "name": "Rani Seethai Hall"
        }
      },
      {
        "type": "node",
        "id": 7412932327,
        "lat": 13.0390729,
        "lon": 80.2575264,
        "tags": {
          "bus": "yes",
          "name": "CIT colony",
          "operator": "MTC",
          "public_transport": "stop_position"
        }
      },
      {
        "type": "node",
        "id": 7653024582,
        "lat": 13.0430874,
        "lon": 80.2737331,
        "tags": {
          "amenity": "cinema",
          "brand": "INOX Leisure",
          "brand:wikidata": "Q5972349",
          "brand:wikipedia": "en:INOX Leisure Limited",
          "name": "Inox",
          "payment:cash": "yes",
          "payment:credit_cards": "yes",
          "payment:debit_cards": "yes",
          "screen": "4",
          "short_name": "INOX"
        }
      },
      {
        "type": "node",
        "id": 9404253945,
        "lat": 13.04582,
        "lon": 80.2769914,
        "tags": {
          "name": "Light House",
          "public_transport": "stop_position",
          "railway": "stop",
          "train": "yes"
        }
      },
      {
        "type": "node",
        "id": 9404253946,
        "lat": 13.0443521,
        "lon": 80.2765589,
        "tags": {
          "name": "Light House",
          "public_transport": "stop_position",
          "railway": "stop",
          "train": "yes"
        }
      },
      {
        "type": "node",
        "id": 9404253947,
        "lat": 13.0559321,
        "lon": 80.2805277,
        "tags": {
          "name": "Thiruvallikeni",
          "public_transport": "stop_position",
          "railway": "stop",
          "train": "yes"
        }
      },
      {
        "type": "node",
        "id": 9504474769,
        "lat": 13.0546591,
        "lon": 80.2643733,
        "tags": {
          "bus": "yes",
          "name": "Royapettah Hospital",
          "public_transport": "stop_position"
        }
      },
      {
        "type": "node",
        "id": 9504474770,
        "lat": 13.057129,
        "lon": 80.2648726,
        "tags": {
          "bus": "yes",
          "name": "Woodlands Theatre / Wesley school",
          "public_transport": "stop_position"
        }
      },
      {
        "type": "node",
        "id": 9504474773,
        "lat": 13.0703667,
        "lon": 80.2737145,
        "tags": {
          "bus": "yes",
          "name": "Simson",
          "public_transport": "stop_position"
        }
      },
      {
        "type": "node",
        "id": 9504474774,
        "lat": 13.0763679,
        "lon": 80.2763591,
        "tags": {
          "bus": "yes",
          "name": "Pallavan Salai",
          "public_transport": "stop_position"
        }
      },
      {
        "type": "node",
        "id": 9886468232,
        "lat": 13.0446919,
        "lon": 80.2630242,
        "tags": {
          "bus": "yes",
          "name": "New Woodlands",
          "public_transport": "stop_position"
        }
      },
      {
        "type": "node",
        "id": 9921938875,
        "lat": 13.0376257,
        "lon": 80.2676931,
        "tags": {
          "bus": "yes",
          "name": "Luz Corner",
          "name:en": "Luz Corner",
          "public_transport": "stop_position"
        }
      },
      {
        "type": "node",
        "id": 9921938876,
        "lat": 13.0417805,
        "lon": 80.2682611,
        "tags": {
          "bus": "yes",
          "name": "Valluvar Statue",
          "name:en": "Valluvar Statue",
          "public_transport": "stop_position"
        }
      },
      {
        "type": "node",
        "id": 9921938877,
        "lat": 13.0446682,
        "lon": 80.2653247,
        "tags": {
          "bus": "yes",
          "name": "AVM Rajeshwari Thirumana Mandapam",
          "public_transport": "stop_position"
        }
      },
      {
        "type": "node",
        "id": 9921938878,
        "lat": 13.0447817,
        "lon": 80.2631832,
        "tags": {
          "bus": "yes",
          "name": "New Woodlands",
          "public_transport": "stop_position"
        }
      },
      {
        "type": "node",
        "id": 9921938879,
        "lat": 13.0461759,
        "lon": 80.2565485,
        "tags": {
          "bus": "yes",
          "name": "Chola Sheraton",
          "public_transport": "stop_position"
        }
      },
      {
        "type": "node",
        "id": 9921938880,
        "lat": 13.0480058,
        "lon": 80.2540431,
        "tags": {
          "bus": "yes",
          "name": "Stella Maris College",
          "public_transport": "stop_position"
        }
      },
      {
        "type": "node",
        "id": 9921938881,
        "lat": 13.050467,
        "lon": 80.2526125,
        "tags": {
          "bus": "yes",
          "name": "Semozhi Poonga",
          "public_transport": "stop_position"
        }
      },
      {
        "type": "node",
        "id": 9921938882,
        "lat": 13.0514535,
        "lon": 80.2518364,
        "tags": {
          "bus": "yes",
          "name": "Woodlands",
          "public_transport": "stop_position"
        }
      },
      {
        "type": "node",
        "id": 9921938883,
        "lat": 13.0549423,
        "lon": 80.2496076,
        "tags": {
          "bus": "yes",
          "name": "Gemini",
          "public_transport": "stop_position"
        }
      },
      {
        "type": "node",
        "id": 9921938884,
        "lat": 13.0573111,
        "lon": 80.2486595,
        "tags": {
          "bus": "yes",
          "name": "Income Tax Offrice",
          "public_transport": "stop_position"
        }
      },
      {
        "type": "node",
        "id": 9921938885,
        "lat": 13.0594268,
        "lon": 80.2479477,
        "tags": {
          "bus": "yes",
          "name": "Taj Hotel",
          "public_transport": "stop_position"
        }
      },
      {
        "type": "node",
        "id": 9921938886,
        "lat": 13.060609,
        "lon": 80.2474532,
        "tags": {
          "bus": "yes",
          "fixme": "Check name",
          "name": "Sterling",
          "public_transport": "stop_position"
        }
      },
      {
        "type": "node",
        "id": 9921938887,
        "lat": 13.0666679,
        "lon": 80.247881,
        "tags": {
          "bus": "yes",
          "name": "Haddows Road",
          "public_transport": "stop_position"
        }
      },
      {
        "type": "node",
        "id": 9921938888,
        "lat": 13.0671202,
        "lon": 80.2479099,
        "tags": {
          "bus": "yes",
          "name": "College Road",
          "public_transport": "stop_position"
        }
      },
      {
        "type": "node",
        "id": 9921938889,
        "lat": 13.0677731,
        "lon": 80.2465395,
        "tags": {
          "bus": "yes",
          "name": "College Road",
          "public_transport": "stop_position"
        }
      },
      {
        "type": "node",
        "id": 10137228451,
        "lat": 13.0689227,
        "lon": 80.2624415,
        "tags": {
          "amenity": "fuel",
          "brand": "Indian Oil",
          "brand:wikidata": "Q1289348",
          "name": "Indian Oil"
        }
      },
      {
        "type": "node",
        "id": 10139529277,
        "lat": 13.0759096,
        "lon": 80.2640838,
        "tags": {
          "amenity": "fuel",
          "brand": "Indian Oil",
          "brand:wikidata": "Q1289348",
          "name": "Indian Oil"
        }
      },
      {
        "type": "node",
        "id": 10316739373,
        "lat": 13.0543034,
        "lon": 80.2496574,
        "tags": {
          "amenity": "fuel",
          "brand": "Bharat Petroleum",
          "brand:wikidata": "Q854826",
          "name": "Bharat Petroleum"
        }
      },
      {
        "type": "node",
        "id": 10536613506,
        "lat": 13.069942,
        "lon": 80.2725116,
        "tags": {
          "amenity": "fuel",
          "brand": "Bharat Petroleum",
          "brand:wikidata": "Q854826",
          "name": "Bharat Petroleum"
        }
      },
      {
        "type": "node",
        "id": 10931210107,
        "lat": 13.0687954,
        "lon": 80.2558494,
        "tags": {
          "amenity": "fuel",
          "brand": "Bharat Petroleum",
          "brand:wikidata": "Q854826",
          "name": "Bharat Petroleum"
        }
      },
      {
        "type": "node",
        "id": 11495909640,
        "lat": 13.0566431,
        "lon": 80.2644059,
        "tags": {
          "amenity": "fuel",
          "brand": "Indian Oil",
          "brand:wikidata": "Q1289348",
          "name": "Indian Oil"
        }
      },
      {
        "type": "node",
        "id": 11703420865,
        "lat": 13.0579367,
        "lon": 80.2581872,
        "tags": {
          "addr:city": "Chennai",
          "addr:district": "Chennai",
          "addr:housenumber": "189",
          "addr:postcode": "600002",
          "addr:street": "Mount Rd, Anna Salai, Express Estate, Triplicane",
          "name": "Thousand Lights Metro Rail Station - \u0ba4\u0bcc\u0b9a\u0ba9\u0bcd\u0b9f\u0bcd \u0bb2\u0bc8\u0b9f\u0bcd\u0bb8\u0bcd \u0bae\u0bc6\u0b9f\u0bcd\u0bb0\u0bcb \u0bb0\u0baf\u0bbf\u0bb2\u0bcd \u0bb8\u0bcd\u0b9f\u0bc7\u0bb7\u0ba9\u0bcd",
          "public_transport": "station",
          "railway": "station",
          "station": "subway",
          "subway": "yes"
        }
      },
      {
        "type": "node",
        "id": 11924536821,
        "lat": 13.0369443,
        "lon": 80.2670478,
        "tags": {
          "bus": "yes",
          "name": "Luz Corner",
          "name:en": "Luz Corner",
          "public_transport": "stop_position"
        }
      },
      {
        "type": "node",
        "id": 12460941246,
        "lat": 13.0805405,
        "lon": 80.2665835,
        "tags": {
          "amenity": "fuel",
          "brand": "Bharat Petroleum",
          "brand:wikidata": "Q854826",
          "check_date": "2024-12-29",
          "name": "Bharat Petroleum"
        }
      },
      {
        "type": "node",
        "id": 12624560446,
        "lat": 13.0791255,
        "lon": 80.261572,
        "tags": {
          "amenity": "charging_station",
          "authentication:app": "yes",
          "brand": "eesl",
          "capacity": "60",
          "covered": "yes",
          "fee": "no",
          "level": "0",
          "motorcar": "yes",
          "motorcycle": "yes",
          "opening_hours": "24/7",
          "socket:type2:output": "22",
          "socket:type2_cable:output": "22",
          "socket:type2_combo": "3",
          "socket:type2_combo:output": "60"
        }
      }
    ]
  }
}