{
  "pois_1km": {
    "version": 0.6,
    "generator": "Overpass API 0.7.62.8 e802775f",
    "osm3s": {
      "timestamp_osm_base": "2025-09-06T09:10:59Z",
      "copyright": "The data included in this document is from www.openstreetmap.org. The data is made available under ODbL."
    },
    "elements": [
      {
        "type": "node",
        "id": 366076252,
        "lat": 13.0703937,
        "lon": 80.2155995,
        "tags": {
          "created_by": "Potlatch 0.10f",
          "name": "Spencers",
          "shop": "department_store"
        }
      },
      {
        "type": "node",
        "id": 472595228,
        "lat": 13.070585,
        "lon": 80.219622,
        "tags": {
          "name": "Fresh @ Aminjikarai",
          "shop": "supermarket"
        }
      },
      {
        "type": "node",
        "id": 941471945,
        "lat": 13.0750445,
        "lon": 80.2151198,
        "tags": {
          "amenity": "hospital",
          "healthcare": "hospital",
          "name": "Appasamy Hospital",
          "operator": "Appasamy Hospital"
        }
      },
      {
        "type": "node",
        "id": 941574497,
        "lat": 13.0738558,
        "lon": 80.2216203,
        "tags": {
          "alt_name": "Kentucky Fried Chicken",
          "alt_name:en": "Kentucky Fried Chicken",
          "alt_name:hi": "\u0915\u0947\u0902\u091f\u0941\u0915\u0940 \u092b\u094d\u0930\u093e\u0907\u0921 \u091a\u093f\u0915\u0928",
          "alt_name:pa": "\u0a15\u0a48\u0a02\u0a1f\u0a41\u0a15\u0a40 \u0a2b\u0a4d\u0a30\u0a3e\u0a08\u0a21 \u0a1a\u0a3f\u0a15\u0a28",
          "alt_name:pnb": "\u06a9\u06cc\u0646\u0679\u06a9\u06cc \u0641\u0631\u0627\u0626\u06cc\u0688 \u0686\u06a9\u0646",
          "alt_name:ur": "\u06a9\u06cc\u0646\u0679\u06a9\u06cc \u0641\u0631\u0627\u0626\u06cc\u0688 \u0686\u06a9\u0646",
          "amenity": "fast_food",
          "brand": "KFC",
          "brand:en": "KFC",
          "brand:hi": "\u0915\u0947\u090f\u092b\u0938\u0940",
          "brand:pa": "\u0a15\u0a47\u0a10\u0a2b\u0a38\u0a40",
          "brand:pnb": "\u06a9\u06d2 \u0627\u06cc\u0641 \u0633\u06cc",
          "brand:ur": "\u06a9\u06d2 \u0627\u06cc\u0641 \u0633\u06cc",
          "brand:wikidata": "Q524757",
          "brand:wikipedia": "en:KFC",
          "brand:wikipedia:pa": "\u0a15\u0a47\u0a10\u0a2b\u0a38\u0a40",
          "brand:wikipedia:ur": "\u06a9\u06cc\u0646\u0679\u06a9\u06cc \u0641\u0631\u0627\u0626\u06cc\u0688 \u0686\u06a9\u0646",
          "cuisine": "chicken",
          "name": "KFC",
          "name:en": "KFC",
          "name:hi": "\u0915\u0947\u090f\u092b\u0938\u0940",
          "name:pa": "\u0a15\u0a47\u0a10\u0a2b\u0a38\u0a40",
          "name:pnb": "\u06a9\u06d2 \u0627\u06cc\u0641 \u0633\u06cc",
          "name:ur": "\u06a9\u06d2 \u0627\u06cc\u0641 \u0633\u06cc",
          "takeaway": "yes"
        }
      },
      {
        "type": "node",
        "id": 941579777,
        "lat": 13.0738688,
        "lon": 80.2214298,
        "tags": {
          "amenity": "fast_food",
          "brand": "McDonald's",
          "brand:pa": "\u0a2e\u0a48\u0a15\u0a21\u0a4b\u0a28\u0a32\u0a21\u2019\u0a1c\u0a3c",
          "brand:ur": "\u0645\u06a9\u0688\u0648\u0646\u0644\u0688\u0632",
          "brand:wikidata": "Q38076",
          "brand:wikipedia": "en:McDonald's",
          "brand:wikipedia:pa": "\u0a2e\u0a48\u0a15\u0a21\u0a4b\u0a28\u0a32\u0a21\u2019\u0a1c\u0a3c",
          "brand:wikipedia:ur": "\u0645\u06a9\u0688\u0648\u0646\u0644\u0688\u0632",
          "cuisine": "burger",
          "name": "McDonald's",
          "name:pa": "\u0a2e\u0a48\u0a15\u0a21\u0a4b\u0a28\u0a32\u0a21\u2019\u0a1c\u0a3c",
          "name:ur": "\u0645\u06a9\u0688\u0648\u0646\u0644\u0688\u0632",
          "takeaway": "yes"
        }
      },
      {
        "type": "node",
        "id": 941581387,
        "lat": 13.0734564,
        "lon": 80.2213633,
        "tags": {
          "addr:city": "Chennai",
          "addr:postcode": "600029",
          "addr:street": "Nelson Manickam Road",
          "brand": "Star Bazaar",
          "brand:wikidata": "Q124175958",
          "name": "Star Bazaar",
          "operator": "Start Supermarket",
          "organic": "yes",
          "shop": "supermarket",
          "website": "https://starbazaarindia.com/"
        }
      },
      {
        "type": "node",
        "id": 941611681,
        "lat": 13.073239,
        "lon": 80.2148826,
        "tags": {
          "amenity": "hospital",
          "healthcare": "hospital",
          "name": "Appasamy Hospital"
        }
      },
      {
        "type": "node",
        "id": 4140037193,
        "lat": 13.0695175,
        "lon": 80.2240568,
        "tags": {
          "addr:housenumber": "1",
          "addr:street": "Railway Colony 1st Street",
          "amenity": "bank",
          "brand": "State Bank of India",
          "brand:wikidata": "Q1340361",
          "brand:wikipedia": "en:State Bank of India",
          "name": "State Bank of India",
          "short_name": "SBI"
        }
      },
      {
        "type": "node",
        "id": 4140037194,
        "lat": 13.0693582,
        "lon": 80.2240501,
        "tags": {
          "amenity": "atm"
        }
      },
      {
        "type": "node",
        "id": 4270297092,
        "lat": 13.0701906,
        "lon": 80.2246466,
        "tags": {
          "addr:postcode": "600094",
          "addr:street": "Nelson Manickam Road",
          "amenity": "restaurant",
          "cuisine": "indian",
          "name": "Hotel Sangeetha",
          "opening_hours": "Mo-Su 07:00-22:00"
        }
      },
      {
        "type": "node",
        "id": 4270329892,
        "lat": 13.0686453,
        "lon": 80.2246263,
        "tags": {
          "addr:postcode": "600094",
          "addr:street": "Nelson Manickam Road",
          "name": "Kovai Pazhamudir Nilayam",
          "shop": "supermarket"
        }
      },
      {
        "type": "node",
        "id": 4270351990,
        "lat": 13.0698579,
        "lon": 80.2248039,
        "tags": {
          "addr:postcode": "600094",
          "addr:street": "Nelson Manickam Road",
          "brand": "Nilgiri's",
          "brand:wikidata": "Q17079567",
          "name": "Nilgiri's",
          "shop": "supermarket"
        }
      },
      {
        "type": "node",
        "id": 4380717491,
        "lat": 13.0694814,
        "lon": 80.2245196,
        "tags": {
          "amenity": "atm",
          "brand": "HDFC Bank",
          "brand:en": "HDFC Bank",
          "brand:wikidata": "Q631047",
          "brand:wikipedia": "en:HDFC Bank",
          "currency:INR": "yes",
          "drive_through": "no",
          "indoor": "yes",
          "name": "HDFC Bank",
          "name:en": "HDFC Bank",
          "note": "Contributors are requested to not edit the \"brand\", \"brand:en\", \"brand:wikidata\", \"operator\", \"operator:en\" and \"operator:wikidata\" tags. (2025/03/03)",
          "opening_hours": "24/7",
          "operator": "HDFC Bank",
          "operator:en": "HDFC Bank",
          "operator:wikidata": "Q631047",
          "operator:wikipedia": "en:HDFC Bank",
          "short_name": "HDFC"
        }
      },
      {
        "type": "node",
        "id": 4452136089,
        "lat": 13.0692534,
        "lon": 80.2242876,
        "tags": {
          "addr:street": "Railway Colony 1st Street",
          "amenity": "bank",
          "brand": "Karur Vysya Bank",
          "brand:wikidata": "Q6373724",
          "brand:wikipedia": "en:Karur Vysya Bank",
          "name": "Karur Vysya Bank",
          "name:en": "Karur Vysya Bank"
        }
      },
      {
        "type": "node",
        "id": 4452136189,
        "lat": 13.0692506,
        "lon": 80.2242033,
        "tags": {
          "amenity": "atm",
          "brand": "Karur Vysya Bank",
          "brand:wikidata": "Q6373724",
          "operator": "Karur Vysya Bank",
          "operator:wikidata": "Q6373724"
        }
      },
      {
        "type": "node",
        "id": 6914768046,
        "lat": 13.0757435,
        "lon": 80.2272588,
        "tags": {
          "addr:district": "Chennai",
          "addr:full": "43, Lakshmi Talkies Road, Shenoy Nagar",
          "addr:postcode": "600030",
          "addr:state": "Tamil Nadu",
          "addr:subdistrict": "Shenoy Nagar",
          "amenity": "hospital",
          "email": "support@billroth.com",
          "healthcare": "hospital",
          "name": "Billroth Hospitals",
          "operator:type": "private",
          "source": "OpenGovernmentData",
          "website": "https://www.billrothhospitals.com/"
        }
      },
      {
        "type": "node",
        "id": 6914880584,
        "lat": 13.0723588,
        "lon": 80.2157642,
        "tags": {
          "addr:district": "Chennai",
          "addr:full": "Cp-50, Razack Garden Main Road, Arumbakkam",
          "addr:postcode": "600106",
          "addr:state": "Tamil Nadu",
          "amenity": "hospital",
          "healthcare": "hospital",
          "name": "Vasanthi Orthopaedic Hospital",
          "source": "OpenGovernmentData"
        }
      },
      {
        "type": "node",
        "id": 6926055920,
        "lat": 13.0741442,
        "lon": 80.220515,
        "tags": {
          "addr:district": "Chennai",
          "addr:full": "P.H. Road,Jn Of P.H. Road And, Nelson Manickam Road, Aminjikarai",
          "addr:postcode": "600029",
          "addr:state": "Tamil Nadu",
          "amenity": "hospital",
          "healthcare": "hospital",
          "name": "A.K. Hospital, Chennai",
          "source": "OpenGovernmentData"
        }
      },
      {
        "type": "node",
        "id": 6934089837,
        "lat": 13.0696298,
        "lon": 80.2159499,
        "tags": {
          "addr:district": "Chennai",
          "addr:full": "No.12/16, New Natarajapuram, Aminjikarai",
          "addr:postcode": "600029",
          "addr:state": "Tamil Nadu",
          "amenity": "clinic",
          "healthcare": "clinic",
          "name": "Peoples Nursing Home, Chennai",
          "source": "OpenGovernmentData"
        }
      },
      {
        "type": "node",
        "id": 6934271069,
        "lat": 13.0725279,
        "lon": 80.2195783,
        "tags": {
          "addr:district": "Chennai",
          "addr:full": "New No. 12 Old No.20, Govindan Street Ayyavoo, Naidu Colony, Aminjikarai",
          "addr:postcode": "600029",
          "addr:state": "Tamil Nadu",
          "amenity": "hospital",
          "healthcare": "hospital",
          "name": "M.R. Hospital, Chennai",
          "source": "OpenGovernmentData"
        }
      },
      {
        "type": "node",
        "id": 6934897845,
        "lat": 13.0710341,
        "lon": 80.222632,
        "tags": {
          "addr:district": "Chennai",
          "addr:full": "No.76,Nelson Manickam Road, Aminjikaral",
          "addr:postcode": "600026",
          "addr:state": "Tamil Nadu",
          "amenity": "hospital",
          "healthcare": "hospital",
          "name": "Tamil Nadu Urological Research Centre",
          "source": "OpenGovernmentData"
        }
      },
      {
        "type": "node",
        "id": 7210895386,
        "lat": 13.0748708,
        "lon": 80.2147555,
        "tags": {
          "addr:district": "Chennai",
          "addr:full": "Poonamallee High Road,Arumbakkam LandMark : Next to Chennai Ford LandMark",
          "addr:postcode": "636106",
          "addr:state": "Tamil Nadu",
          "amenity": "hospital",
          "healthcare": "hospital",
          "name": "Tamil Nadu Urological Research Centre Best Kidney Stone Clinic",
          "source": "OpenGovernmentData"
        }
      },
      {
        "type": "node",
        "id": 7320948885,
        "lat": 13.0753606,
        "lon": 80.21879,
        "tags": {
          "amenity": "hospital",
          "healthcare": "hospital",
          "name:en": "Unani sidha ayurvedha in patient block"
        }
      },
      {
        "type": "node",
        "id": 7824965240,
        "lat": 13.0737332,
        "lon": 80.2268354,
        "tags": {
          "addr:district": "Chennai",
          "addr:full": "Shenoy Nagar, Aminjikarai, Chennai",
          "addr:postcode": "600029",
          "addr:state": "Tamil Nadu",
          "amenity": "hospital",
          "healthcare": "hospital",
          "name": "Dr. H. Yogish Hospital",
          "source": "Local Knowledge"
        }
      },
      {
        "type": "node",
        "id": 10611601106,
        "lat": 13.0736757,
        "lon": 80.2208569,
        "tags": {
          "amenity": "cafe",
          "name": "4 am Bonda Shop"
        }
      },
      {
        "type": "node",
        "id": 12167688099,
        "lat": 13.077526,
        "lon": 80.2250607,
        "tags": {
          "amenity": "fast_food",
          "name": "A2B Food Express"
        }
      },
      {
        "type": "node",
        "id": 12543232801,
        "lat": 13.0737596,
        "lon": 80.2259631,
        "tags": {
          "addr:street": "EVR Periyar Salai",
          "amenity": "restaurant",
          "name": "Arul Chettinad Hotel"
        }
      }
    ]
  },
  "pois_2_5km": {
    "version": 0.6,
    "generator": "Overpass API 0.7.62.8 e802775f",
    "osm3s": {
      "timestamp_osm_base": "2025-09-06T09:10:59Z",
      "copyright": "The data included in this document is from www.openstreetmap.org. The data is made available under ODbL."
    },
    "elements": [
      {
        "type": "node",
        "id": 248467432,
        "lat": 13.0513061,
        "lon": 80.2305555,
        "tags": {
          "public_transport": "stop_position"
        }
      },
      {
        "type": "node",
        "id": 293396820,
        "lat": 13.0678104,
        "lon": 80.2269115,
        "tags": {
          "bus": "yes",
          "name": "Mehtha Nagar",
          "network": "MTC",
          "operator": "Metropolitan Transport Corporation (Chennai) Ltd.",
          "public_transport": "stop_position"
        }
      },
      {
        "type": "node",
        "id": 306104406,
        "lat": 13.06846,
        "lon": 80.2051255,
        "tags": {
          "amenity": "bus_station",
          "bus": "yes",
          "loc_name": "Chennai Mofussil Bus Terminus",
          "name": "Puratchi Thalaivar Dr. M.G.R Bus Terminus",
          "name:en": "Puratchi Thalaivar Dr. M.G.R Bus Terminus",
          "name:ml": "\u0d2a\u0d41\u0d30\u0d1f\u0d4d\u0d1a\u0d3f \u0d24\u0d32\u0d48\u0d35\u0d7c \u0d21\u0d4b. \u0d0e\u0d02.\u0d1c\u0d3f.\u0d06\u0d7c \u0d2c\u0d38\u0d4d \u0d1f\u0d46\u0d7c\u0d2e\u0d3f\u0d28\u0d38\u0d4d",
          "name:ta": "\u0baa\u0bc1\u0bb0\u0b9f\u0bcd\u0b9a\u0bbf\u0ba4\u0bcd \u0ba4\u0bb2\u0bc8\u0bb5\u0bb0\u0bcd \u0b9f\u0bbe\u0b95\u0bcd\u0b9f\u0bb0\u0bcd. \u0b8e\u0bae\u0bcd.\u0b9c\u0bbf.\u0b86\u0bb0\u0bcd. \u0baa\u0bc7\u0bb0\u0bc1\u0ba8\u0bcd\u0ba4\u0bc1 \u0ba8\u0bbf\u0bb2\u0bc8\u0baf\u0bae\u0bcd",
          "public_transport": "station"
        }
      },
      {
        "type": "node",
        "id": 366075202,
        "lat": 13.0696245,
        "lon": 80.1996608,
        "tags": {
          "amenity": "fuel",
          "created_by": "Potlatch 0.10f"
        }
      },
      {
        "type": "node",
        "id": 415915284,
        "lat": 13.0705088,
        "lon": 80.2366686,
        "tags": {
          "amenity": "theatre",
          "name": "MCC Auditorium"
        }
      },
      {
        "type": "node",
        "id": 415915377,
        "lat": 13.0683685,
        "lon": 80.2387028,
        "tags": {
          "amenity": "theatre",
          "name": "MV Rao Concert Hall"
        }
      },
      {
        "type": "node",
        "id": 577362217,
        "lat": 13.0687582,
        "lon": 80.2052047,
        "tags": {
          "bus": "yes",
          "name": "CMBT",
          "public_transport": "stop_position"
        }
      },
      {
        "type": "node",
        "id": 652426042,
        "lat": 13.0755602,
        "lon": 80.2328587,
        "tags": {
          "name": "Pachaiyappa's College",
          "name:ta": "\u0baa\u0b9a\u0bcd\u0b9a\u0bc8\u0baf\u0baa\u0bcd\u0baa\u0ba9\u0bcd \u0b95\u0bb2\u0bcd\u0bb2\u0bc2\u0bb0\u0bbf",
          "network": "Chennai Metro",
          "note": "Contributors are requested to not edit the \"network\" and the \"operator\" tags. (2023/11/08)",
          "operator": "Chennai Metro Rail Limited",
          "public_transport": "stop_position",
          "railway": "stop",
          "subway": "yes"
        }
      },
      {
        "type": "node",
        "id": 687175415,
        "lat": 13.0685084,
        "lon": 80.2039344,
        "tags": {
          "alt_name": "\u0b95\u0bcb\u0baf\u0bae\u0bcd\u0baa\u0bc7\u0b9f\u0bc1 \u0baa\u0bc7\u0bb0\u0bc1\u0ba8\u0bcd\u0ba4\u0bc1 \u0ba8\u0bbf\u0bb2\u0bc8\u0baf\u0bae\u0bcd",
          "alt_name:en": "Chennai Mofussil Bus Terminus",
          "alt_name:ta": "\u0b95\u0bcb\u0baf\u0bae\u0bcd\u0baa\u0bc7\u0b9f\u0bc1 \u0baa\u0bc7\u0bb0\u0bc1\u0ba8\u0bcd\u0ba4\u0bc1 \u0ba8\u0bbf\u0bb2\u0bc8\u0baf\u0bae\u0bcd",
          "name": "\u0b9a\u0bc6\u0ba9\u0bcd\u0ba9\u0bc8 \u0baa\u0bc1\u0bb1\u0ba8\u0b95\u0bb0\u0bcd \u0baa\u0bc7\u0bb0\u0bc1\u0ba8\u0bcd\u0ba4\u0bc1 \u0ba8\u0bbf\u0bb2\u0bc8\u0baf\u0bae\u0bcd",
          "name:en": "CMBT",
          "name:ta": "\u0b9a\u0bc6\u0ba9\u0bcd\u0ba9\u0bc8 \u0baa\u0bc1\u0bb1\u0ba8\u0b95\u0bb0\u0bcd \u0baa\u0bc7\u0bb0\u0bc1\u0ba8\u0bcd\u0ba4\u0bc1 \u0ba8\u0bbf\u0bb2\u0bc8\u0baf\u0bae\u0bcd",
          "network": "Chennai Metro",
          "note": "Contributors are requested to not edit the \"network\" and the \"operator\" tags. (2023/11/08)",
          "operator": "Chennai Metro Rail Limited",
          "public_transport": "stop_position",
          "railway": "stop",
          "subway": "yes"
        }
      },
      {
        "type": "node",
        "id": 941573710,
        "lat": 13.0736242,
        "lon": 80.221695,
        "tags": {
          "amenity": "cinema",
          "brand": "PVR Cinemas",
          "brand:wikidata": "Q3359908",
          "brand:wikipedia": "en:PVR Cinemas",
          "name": "PVR Cinemas",
          "short_name": "PVR"
        }
      },
      {
        "type": "node",
        "id": 1165551007,
        "lat": 13.0776718,
        "lon": 80.225143,
        "tags": {
          "level": "-2",
          "local_ref": "2",
          "name": "Shenoy Nagar",
          "network": "Chennai Metro",
          "note": "Contributors are requested to not edit the \"network\" and the \"operator\" tags. (2023/11/08)",
          "operator": "Chennai Metro Rail Limited",
          "public_transport": "stop_position",
          "railway": "stop",
          "subway": "yes",
          "to": "MGR Central"
        }
      },
      {
        "type": "node",
        "id": 1207424028,
        "lat": 13.0846312,
        "lon": 80.2203688,
        "tags": {
          "local_ref": "2",
          "name": "Anna Nagar East",
          "name:en": "Anna Nagar East",
          "name:ta": "\u0b85\u0ba3\u0bcd\u0ba3\u0bbe \u0ba8\u0b95\u0bb0\u0bcd \u0b95\u0bbf\u0bb4\u0b95\u0bcd\u0b95\u0bc1",
          "network": "Chennai Metro",
          "note": "Contributors are requested to not edit the \"network\" and the \"operator\" tags. (2023/11/08)",
          "operator": "Chennai Metro Rail Limited",
          "public_transport": "stop_position",
          "railway": "stop",
          "subway": "yes",
          "to": "MGR Central"
        }
      },
      {
        "type": "node",
        "id": 2481259002,
        "lat": 13.0516624,
        "lon": 80.2306892,
        "tags": {
          "internet_access": "no",
          "name": "Kodambakkam",
          "name:ml": "\u0d15\u0d4b\u0d1f\u0d2e\u0d4d\u0d2a\u0d3e\u0d15\u0d4d\u0d15\u0d02",
          "name:ta": "\u0b95\u0bcb\u0b9f\u0bae\u0bcd\u0baa\u0bbe\u0b95\u0bcd\u0b95\u0bae\u0bcd",
          "network": "IR",
          "operator": "SR",
          "public_transport": "station",
          "railway": "station",
          "ref": "MKK",
          "wikidata": "Q6425199",
          "wikipedia": "en:Kodambakkam railway station"
        }
      },
      {
        "type": "node",
        "id": 2481259034,
        "lat": 13.0741931,
        "lon": 80.2422047,
        "tags": {
          "public_transport": "stop_position"
        }
      },
      {
        "type": "node",
        "id": 2487062550,
        "lat": 13.0748429,
        "lon": 80.2351946,
        "tags": {
          "amenity": "theatre"
        }
      },
      {
        "type": "node",
        "id": 3030620399,
        "lat": 13.0740453,
        "lon": 80.2208523,
        "tags": {
          "bus": "yes",
          "name": "Skywalk",
          "network": "MTC",
          "operator": "Metropolitan Transport Corporation (Chennai) Ltd.",
          "public_transport": "stop_position"
        }
      },
      {
        "type": "node",
        "id": 3685652294,
        "lat": 13.0536069,
        "lon": 80.2263575,
        "tags": {
          "amenity": "fuel"
        }
      },
      {
        "type": "node",
        "id": 4546369389,
        "lat": 13.0695129,
        "lon": 80.199087,
        "tags": {
          "amenity": "bus_station",
          "bus": "yes",
          "fixme": "Verify name and location; no platform",
          "name:en": "Paulo bus stand",
          "public_transport": "station"
        }
      },
      {
        "type": "node",
        "id": 4627586392,
        "lat": 13.082421,
        "lon": 80.2091831,
        "tags": {
          "amenity": "fuel",
          "name:en": "BP - Anna Nagar"
        }
      },
      {
        "type": "node",
        "id": 5311775881,
        "lat": 13.065841,
        "lon": 80.232839,
        "tags": {
          "internet_access": "no",
          "name": "Nungambakkam",
          "name:ml": "\u0d28\u0d41\u0d19\u0d4d\u0d15\u0d2e\u0d4d\u0d2a\u0d3e\u0d15\u0d4d\u0d15\u0d02",
          "name:ta": "\u0ba8\u0bc1\u0b99\u0bcd\u0b95\u0bae\u0bcd\u0baa\u0bbe\u0b95\u0bcd\u0b95\u0bae\u0bcd",
          "network": "IR",
          "operator": "SR",
          "public_transport": "station",
          "railway": "station",
          "ref": "NBK",
          "wikidata": "Q7069830",
          "wikipedia": "en:Nungambakkam railway station"
        }
      },
      {
        "type": "node",
        "id": 5318548733,
        "lat": 13.0710975,
        "lon": 80.2029962,
        "tags": {
          "amenity": "bus_station",
          "bus": "yes",
          "name": "SRM Travels",
          "public_transport": "station"
        }
      },
      {
        "type": "node",
        "id": 5319972798,
        "lat": 13.0509304,
        "lon": 80.2120661,
        "tags": {
          "name": "\u0bb5\u0b9f\u0baa\u0bb4\u0ba8\u0bbf",
          "name:en": "Vadapalani",
          "name:ml": "\u0d35\u0d1f\u0d2a\u0d33\u0d28\u0d3f",
          "name:ta": "\u0bb5\u0b9f\u0baa\u0bb4\u0ba8\u0bbf",
          "network": "Chennai Metro",
          "note": "Contributors are requested to not edit the \"network\" and the \"operator\" tags. (2023/11/08)",
          "operator": "Chennai Metro Rail Limited",
          "public_transport": "station",
          "railway": "station",
          "railway:ref": "SVA",
          "ref": "SVA",
          "station": "subway",
          "subway": "yes",
          "wikidata": "Q17075798",
          "wikipedia": "en:Vadapalani metro station"
        }
      },
      {
        "type": "node",
        "id": 5319972799,
        "lat": 13.0616746,
        "lon": 80.2116557,
        "tags": {
          "name": "\u0b85\u0bb0\u0bc1\u0bae\u0bcd\u0baa\u0bbe\u0b95\u0bcd\u0b95\u0bae\u0bcd",
          "name:en": "Arumbakkam",
          "name:ml": "\u0d05\u0d30\u0d41\u0d2e\u0d4d\u0d2a\u0d3e\u0d15\u0d4d\u0d15\u0d02",
          "name:ta": "\u0b85\u0bb0\u0bc1\u0bae\u0bcd\u0baa\u0bbe\u0b95\u0bcd\u0b95\u0bae\u0bcd",
          "network": "Chennai Metro",
          "note": "Contributors are requested to not edit the \"network\" and the \"operator\" tags. (2023/11/08)",
          "operator": "Chennai Metro Rail Limited",
          "public_transport": "station",
          "railway": "station",
          "railway:ref": "SAR",
          "ref": "SAR",
          "station": "subway",
          "subway": "yes",
          "wikidata": "Q19882103",
          "wikipedia": "en:Arumbakkam metro station"
        }
      },
      {
        "type": "node",
        "id": 5321248890,
        "lat": 13.0685246,
        "lon": 80.2039625,
        "tags": {
          "alt_name": "\u0b95\u0bcb\u0baf\u0bae\u0bcd\u0baa\u0bc7\u0b9f\u0bc1 \u0baa\u0bc7\u0bb0\u0bc1\u0ba8\u0bcd\u0ba4\u0bc1 \u0ba8\u0bbf\u0bb2\u0bc8\u0baf\u0bae\u0bcd",
          "alt_name:en": "Chennai Mofussil Bus Terminus",
          "alt_name:ta": "\u0b95\u0bcb\u0baf\u0bae\u0bcd\u0baa\u0bc7\u0b9f\u0bc1 \u0baa\u0bc7\u0bb0\u0bc1\u0ba8\u0bcd\u0ba4\u0bc1 \u0ba8\u0bbf\u0bb2\u0bc8\u0baf\u0bae\u0bcd",
          "name": "\u0b9a\u0bc6\u0ba9\u0bcd\u0ba9\u0bc8 \u0baa\u0bc1\u0bb1\u0ba8\u0b95\u0bb0\u0bcd \u0baa\u0bc7\u0bb0\u0bc1\u0ba8\u0bcd\u0ba4\u0bc1 \u0ba8\u0bbf\u0bb2\u0bc8\u0baf\u0bae\u0bcd",
          "name:en": "CMBT",
          "name:ml": "\u0d1a\u0d46\u0d28\u0d4d\u0d28\u0d48 \u0d28\u0d17\u0d30\u0d2a\u0d4d\u0d30\u0d3e\u0d28\u0d4d\u0d24 \u0d2c\u0d39\u0d41\u0d35\u0d3e\u0d39\u0d15 \u0d28\u0d3f\u0d32\u0d2f\u0d02",
          "name:ta": "\u0b9a\u0bc6\u0ba9\u0bcd\u0ba9\u0bc8 \u0baa\u0bc1\u0bb1\u0ba8\u0b95\u0bb0\u0bcd \u0baa\u0bc7\u0bb0\u0bc1\u0ba8\u0bcd\u0ba4\u0bc1 \u0ba8\u0bbf\u0bb2\u0bc8\u0baf\u0bae\u0bcd",
          "network": "Chennai Metro",
          "note": "Contributors are requested to not edit the \"network\" and the \"operator\" tags. (2023/11/08)",
          "operator": "Chennai Metro Rail Limited",
          "public_transport": "station",
          "railway": "station",
          "railway:ref": "SCM",
          "ref": "SCM",
          "station": "subway",
          "subway": "yes",
          "wikidata": "Q5012859",
          "wikipedia": "en:Chennai Mofussil Bus Terminus metro station"
        }
      },
      {
        "type": "node",
        "id": 5328279366,
        "lat": 13.0799248,
        "lon": 80.2251225,
        "tags": {
          "level": "-2",
          "local_ref": "1",
          "name": "Shenoy Nagar",
          "network": "Chennai Metro",
          "note": "Contributors are requested to not edit the \"network\" and the \"operator\" tags. (2023/11/08)",
          "operator": "Chennai Metro Rail Limited",
          "public_transport": "stop_position",
          "railway": "stop",
          "subway": "yes",
          "to": "St. Thomas Mount"
        }
      },
      {
        "type": "node",
        "id": 5329907482,
        "lat": 13.0755466,
        "lon": 80.2328522,
        "tags": {
          "name": "Pachaiyappa's College",
          "name:ml": "\u0d2a\u0d1a\u0d4d\u0d1a\u0d2f\u0d4d\u0d2f\u0d2a\u0d4d\u0d2a\u0d7b \u0d15\u0d4b\u0d33\u0d47\u0d1c\u0d4d",
          "name:ta": "\u0baa\u0b9a\u0bcd\u0b9a\u0bc8\u0baf\u0baa\u0bcd\u0baa\u0ba9\u0bcd \u0b95\u0bb2\u0bcd\u0bb2\u0bc2\u0bb0\u0bbf",
          "network": "Chennai Metro",
          "note": "Contributors are requested to not edit the \"network\" and the \"operator\" tags. (2023/11/08)",
          "operator": "Chennai Metro Rail Limited",
          "public_transport": "station",
          "railway": "station",
          "railway:ref": "SPC",
          "ref": "SPC",
          "station": "subway",
          "subway": "yes",
          "wikidata": "Q30638918",
          "wikipedia": "en:Pachaiyappa's College metro station"
        }
      },
      {
        "type": "node",
        "id": 5329907483,
        "lat": 13.0755402,
        "lon": 80.2328695,
        "tags": {
          "name": "Pachaiyappa's College",
          "name:ta": "\u0baa\u0b9a\u0bcd\u0b9a\u0bc8\u0baf\u0baa\u0bcd\u0baa\u0ba9\u0bcd \u0b95\u0bb2\u0bcd\u0bb2\u0bc2\u0bb0\u0bbf",
          "network": "Chennai Metro",
          "note": "Contributors are requested to not edit the \"network\" and the \"operator\" tags. (2023/11/08)",
          "operator": "Chennai Metro Rail Limited",
          "public_transport": "stop_position",
          "railway": "stop",
          "subway": "yes"
        }
      },
      {
        "type": "node",
        "id": 6274949832,
        "lat": 13.0743736,
        "lon": 80.2206151,
        "tags": {
          "bus": "yes",
          "name": "Ampa Skywalk",
          "network": "MTC",
          "operator": "Metropolitan Transport Corporation (Chennai) Ltd.",
          "public_transport": "stop_position"
        }
      },
      {
        "type": "node",
        "id": 7794528406,
        "lat": 13.0646628,
        "lon": 80.2347752,
        "tags": {
          "bus": "yes",
          "name": "Loyola College",
          "network": "MTC",
          "operator": "Metropolitan Transport Corporation (Chennai) Ltd.",
          "public_transport": "stop_position"
        }
      },
      {
        "type": "node",
        "id": 9419760484,
        "lat": 13.0753585,
        "lon": 80.2176228,
        "tags": {
          "bus": "yes",
          "name": "Anna Arch",
          "network": "MTC",
          "operator": "Metropolitan Transport Corporation (Chennai) Ltd.",
          "public_transport": "stop_position"
        }
      },
      {
        "type": "node",
        "id": 9592492222,
        "lat": 13.0509274,
        "lon": 80.2120872,
        "tags": {
          "name": "\u0bb5\u0b9f\u0baa\u0bb4\u0ba8\u0bbf",
          "name:en": "Vadapalani",
          "name:ta": "\u0bb5\u0b9f\u0baa\u0bb4\u0ba8\u0bbf",
          "network": "Chennai Metro",
          "note": "Contributors are requested to not edit the \"network\" and the \"operator\" tags. (2023/11/08)",
          "operator": "Chennai Metro Rail Limited",
          "public_transport": "stop_position",
          "railway": "stop",
          "subway": "yes"
        }
      },
      {
        "type": "node",
        "id": 9592492223,
        "lat": 13.0509321,
        "lon": 80.2120452,
        "tags": {
          "name": "\u0bb5\u0b9f\u0baa\u0bb4\u0ba8\u0bbf",
          "name:en": "Vadapalani",
          "name:ta": "\u0bb5\u0b9f\u0baa\u0bb4\u0ba8\u0bbf",
          "network": "Chennai Metro",
          "note": "Contributors are requested to not edit the \"network\" and the \"operator\" tags. (2023/11/08)",
          "operator": "Chennai Metro Rail Limited",
          "public_transport": "stop_position",
          "railway": "stop",
          "subway": "yes"
        }
      },
      {
        "type": "node",
        "id": 9592492224,
        "lat": 13.061664,
        "lon": 80.2116769,
        "tags": {
          "name": "\u0b85\u0bb0\u0bc1\u0bae\u0bcd\u0baa\u0bbe\u0b95\u0bcd\u0b95\u0bae\u0bcd",
          "name:en": "Arumbakkam",
          "name:ta": "\u0b85\u0bb0\u0bc1\u0bae\u0bcd\u0baa\u0bbe\u0b95\u0bcd\u0b95\u0bae\u0bcd",
          "network": "Chennai Metro",
          "note": "Contributors are requested to not edit the \"network\" and the \"operator\" tags. (2023/11/08)",
          "operator": "Chennai Metro Rail Limited",
          "public_transport": "stop_position",
          "railway": "stop",
          "subway": "yes"
        }
      },
      {
        "type": "node",
        "id": 9592492225,
        "lat": 13.0616666,
        "lon": 80.2116305,
        "tags": {
          "name": "\u0b85\u0bb0\u0bc1\u0bae\u0bcd\u0baa\u0bbe\u0b95\u0bcd\u0b95\u0bae\u0bcd",
          "name:en": "Arumbakkam",
          "name:ta": "\u0b85\u0bb0\u0bc1\u0bae\u0bcd\u0baa\u0bbe\u0b95\u0bcd\u0b95\u0bae\u0bcd",
          "network": "Chennai Metro",
          "note": "Contributors are requested to not edit the \"network\" and the \"operator\" tags. (2023/11/08)",
          "operator": "Chennai Metro Rail Limited",
          "public_transport": "stop_position",
          "railway": "stop",
          "subway": "yes"
        }
      },
      {
        "type": "node",
        "id": 9592492226,
        "lat": 13.0685576,
        "lon": 80.2039409,
        "tags": {
          "alt_name": "\u0b95\u0bcb\u0baf\u0bae\u0bcd\u0baa\u0bc7\u0b9f\u0bc1 \u0baa\u0bc7\u0bb0\u0bc1\u0ba8\u0bcd\u0ba4\u0bc1 \u0ba8\u0bbf\u0bb2\u0bc8\u0baf\u0bae\u0bcd",
          "alt_name:en": "Chennai Mofussil Bus Terminus",
          "alt_name:ta": "\u0b95\u0bcb\u0baf\u0bae\u0bcd\u0baa\u0bc7\u0b9f\u0bc1 \u0baa\u0bc7\u0bb0\u0bc1\u0ba8\u0bcd\u0ba4\u0bc1 \u0ba8\u0bbf\u0bb2\u0bc8\u0baf\u0bae\u0bcd",
          "name": "\u0b9a\u0bc6\u0ba9\u0bcd\u0ba9\u0bc8 \u0baa\u0bc1\u0bb1\u0ba8\u0b95\u0bb0\u0bcd \u0baa\u0bc7\u0bb0\u0bc1\u0ba8\u0bcd\u0ba4\u0bc1 \u0ba8\u0bbf\u0bb2\u0bc8\u0baf\u0bae\u0bcd",
          "name:en": "CMBT",
          "name:ta": "\u0b9a\u0bc6\u0ba9\u0bcd\u0ba9\u0bc8 \u0baa\u0bc1\u0bb1\u0ba8\u0b95\u0bb0\u0bcd \u0baa\u0bc7\u0bb0\u0bc1\u0ba8\u0bcd\u0ba4\u0bc1 \u0ba8\u0bbf\u0bb2\u0bc8\u0baf\u0bae\u0bcd",
          "network": "Chennai Metro",
          "note": "Contributors are requested to not edit the \"network\" and the \"operator\" tags. (2023/11/08)",
          "operator": "Chennai Metro Rail Limited",
          "public_transport": "stop_position",
          "railway": "stop",
          "subway": "yes"
        }
      },
      {
        "type": "node",
        "id": 9592492229,
        "lat": 13.0849335,
        "lon": 80.2088864,
        "tags": {
          "name": "Anna Nagar Tower",
          "name:en": "Anna Nagar Tower",
          "name:ta": "\u0b85\u0ba3\u0bcd\u0ba3\u0bbe \u0ba8\u0b95\u0bb0\u0bcd \u0b9f\u0bb5\u0bb0\u0bcd",
          "network": "Chennai Metro",
          "note": "Contributors are requested to not edit the \"network\" and the \"operator\" tags. (2023/11/08)",
          "operator": "Chennai Metro Rail Limited",
          "public_transport": "stop_position",
          "railway": "stop",
          "subway": "yes"
        }
      },
      {
        "type": "node",
        "id": 9592492230,
        "lat": 13.0849649,
        "lon": 80.208887,
        "tags": {
          "name": "Anna Nagar Tower",
          "name:en": "Anna Nagar Tower",
          "name:ta": "\u0b85\u0ba3\u0bcd\u0ba3\u0bbe \u0ba8\u0b95\u0bb0\u0bcd \u0b9f\u0bb5\u0bb0\u0bcd",
          "network": "Chennai Metro",
          "note": "Contributors are requested to not edit the \"network\" and the \"operator\" tags. (2023/11/08)",
          "operator": "Chennai Metro Rail Limited",
          "public_transport": "stop_position",
          "railway": "stop",
          "subway": "yes"
        }
      },
      {
        "type": "node",
        "id": 9592492231,
        "lat": 13.0845849,
        "lon": 80.2186077,
        "tags": {
          "local_ref": "1",
          "name": "Anna Nagar East",
          "name:en": "Anna Nagar East",
          "name:ta": "\u0b85\u0ba3\u0bcd\u0ba3\u0bbe \u0ba8\u0b95\u0bb0\u0bcd \u0b95\u0bbf\u0bb4\u0b95\u0bcd\u0b95\u0bc1",
          "network": "Chennai Metro",
          "note": "Contributors are requested to not edit the \"network\" and the \"operator\" tags. (2023/11/08)",
          "operator": "Chennai Metro Rail Limited",
          "public_transport": "stop_position",
          "railway": "stop",
          "subway": "yes",
          "to": "St. Thomas Mount"
        }
      },
      {
        "type": "node",
        "id": 9894539903,
        "lat": 13.0813149,
        "lon": 80.2177915,
        "tags": {
          "bus": "yes",
          "name": "Amminjikarai",
          "network": "MTC",
          "operator": "Metropolitan Transport Corporation (Chennai) Ltd.",
          "public_transport": "stop_position"
        }
      },
      {
        "type": "node",
        "id": 9894539905,
        "lat": 13.0666172,
        "lon": 80.230754,
        "tags": {
          "bus": "yes",
          "name": "Choolaimedu",
          "network": "MTC",
          "operator": "Metropolitan Transport Corporation (Chennai) Ltd.",
          "public_transport": "stop_position"
        }
      },
      {
        "type": "node",
        "id": 9903138576,
        "lat": 13.0580042,
        "lon": 80.2116331,
        "tags": {
          "bus": "yes",
          "name": "Thirunagar",
          "network": "MTC",
          "operator": "Metropolitan Transport Corporation (Chennai) Ltd.",
          "public_transport": "stop_position"
        }
      },
      {
        "type": "node",
        "id": 9903138577,
        "lat": 13.0650987,
        "lon": 80.2112453,
        "tags": {
          "bus": "yes",
          "name": "MMDA",
          "network": "MTC",
          "operator": "Metropolitan Transport Corporation (Chennai) Ltd.",
          "public_transport": "stop_position"
        }
      },
      {
        "type": "node",
        "id": 9921938890,
        "lat": 13.0704688,
        "lon": 80.2420456,
        "tags": {
          "bus": "yes",
          "name": "Chetpet",
          "public_transport": "stop_position"
        }
      },
      {
        "type": "node",
        "id": 10895057472,
        "lat": 13.0646905,
        "lon": 80.1977719,
        "tags": {
          "amenity": "fuel",
          "brand": "Indian Oil",
          "brand:wikidata": "Q1289348",
          "name": "Indian Oil"
        }
      },
      {
        "type": "node",
        "id": 10980207098,
        "lat": 13.065835,
        "lon": 80.2056011,
        "tags": {
          "amenity": "bus_station",
          "bus": "yes",
          "name": "Koyambedu Mofussil Bus Terminal",
          "public_transport": "station"
        }
      },
      {
        "type": "node",
        "id": 10980207099,
        "lat": 13.0665289,
        "lon": 80.2062855,
        "tags": {
          "amenity": "bus_station",
          "bus": "yes",
          "name": "Koyambedu Mofussil Bus Terminal",
          "public_transport": "station"
        }
      },
      {
        "type": "node",
        "id": 10980207100,
        "lat": 13.066402,
        "lon": 80.2049735,
        "tags": {
          "amenity": "bus_station",
          "bus": "yes",
          "name": "Koyambedu Mofussil Bus Terminal",
          "public_transport": "station"
        }
      },
      {
        "type": "node",
        "id": 11782138276,
        "lat": 13.0540708,
        "lon": 80.2344005,
        "tags": {
          "amenity": "fuel",
          "brand": "Hindustan Petroleum",
          "brand:wikidata": "Q1619375",
          "name": "HP",
          "official_name": "Hindustan Petroleum"
        }
      },
      {
        "type": "node",
        "id": 11786631296,
        "lat": 13.0773865,
        "lon": 80.2107125,
        "tags": {
          "amenity": "fuel",
          "brand": "Total",
          "brand:wikidata": "Q154037",
          "name": "Total"
        }
      },
      {
        "type": "node",
        "id": 11786642103,
        "lat": 13.0773833,
        "lon": 80.208043,
        "tags": {
          "amenity": "fuel",
          "brand": "Bharat Petroleum",
          "brand:wikidata": "Q854826",
          "compressed_air": "yes",
          "name": "Bharat Petroleum"
        }
      },
      {
        "type": "node",
        "id": 11959650459,
        "lat": 13.0745102,
        "lon": 80.1994378,
        "tags": {
          "bus": "yes",
          "name": "Koyambedu",
          "network": "MTC",
          "public_transport": "stop_position"
        }
      }
    ]
  }
}