{
  "pois_1km": {
    "version": 0.6,
    "generator": "Overpass API 0.7.62.8 e802775f",
    "osm3s": {
      "timestamp_osm_base": "2025-09-06T09:04:45Z",
      "copyright": "The data included in this document is from www.openstreetmap.org. The data is made available under ODbL."
    },
    "elements": [
      {
        "type": "node",
        "id": 301725766,
        "lat": 13.0390386,
        "lon": 80.2508349,
        "tags": {
          "brand": "Reliance Fresh",
          "brand:wikidata": "Q7311014",
          "brand:wikipedia": "en:Reliance Fresh",
          "name": "Reliance Fresh",
          "name:ta": "\u0bb0\u0bbf\u0bb2\u0bc8\u0baf\u0ba9\u0bcd\u0bb8\u0bcd \u0b83\u0baa\u0bcd\u0bb0\u0bc6\u0bb7\u0bcd",
          "shop": "supermarket"
        }
      },
      {
        "type": "node",
        "id": 301738570,
        "lat": 13.0391641,
        "lon": 80.247219,
        "tags": {
          "amenity": "restaurant",
          "created_by": "Potlatch 0.10d",
          "name": "Ananda"
        }
      },
      {
        "type": "node",
        "id": 308305423,
        "lat": 13.0464174,
        "lon": 80.2479934,
        "tags": {
          "amenity": "bank",
          "brand": "Karur Vysya Bank",
          "brand:wikidata": "Q6373724",
          "brand:wikipedia": "en:Karur Vysya Bank",
          "name": "Karur Vysya Bank",
          "name:en": "Karur Vysya Bank",
          "short_name": "KVB",
          "website": "https://www.kvb.co.in"
        }
      },
      {
        "type": "node",
        "id": 308305431,
        "lat": 13.0454637,
        "lon": 80.247755,
        "tags": {
          "amenity": "bank",
          "brand": "Canara Bank",
          "brand:en": "Canara Bank",
          "brand:hi": "\u0915\u0947\u0928\u0930\u093e \u092c\u0948\u0902\u0915",
          "brand:kn": "\u0c95\u0cc6\u0ca8\u0cb0\u0cbe \u0cac\u0ccd\u0caf\u0cbe\u0c82\u0c95\u0ccd",
          "brand:pa": "\u0a15\u0a47\u0a28\u0a30\u0a3e \u0a2c\u0a48\u0a02\u0a15",
          "brand:pnb": "\u06a9\u06cc\u0646\u0631\u0627 \u0628\u06cc\u0646\u06a9",
          "brand:ur": "\u06a9\u06cc\u0646\u0631\u0627 \u0628\u06cc\u0646\u06a9",
          "brand:wikidata": "Q2003777",
          "brand:wikipedia": "en:Canara Bank",
          "brand:wikipedia:pa": "\u0a15\u0a47\u0a28\u0a30\u0a3e \u0a2c\u0a48\u0a02\u0a15",
          "name": "Canara Bank",
          "name:en": "Canara Bank",
          "name:hi": "\u0915\u0947\u0928\u0930\u093e \u092c\u0948\u0902\u0915",
          "name:kn": "\u0c95\u0cc6\u0ca8\u0cb0\u0cbe \u0cac\u0ccd\u0caf\u0cbe\u0c82\u0c95\u0ccd",
          "name:pa": "\u0a15\u0a47\u0a28\u0a30\u0a3e \u0a2c\u0a48\u0a02\u0a15",
          "name:pnb": "\u06a9\u06cc\u0646\u0631\u0627 \u0628\u06cc\u0646\u06a9",
          "name:ur": "\u06a9\u06cc\u0646\u0631\u0627 \u0628\u06cc\u0646\u06a9",
          "website": "https://www.canarabank.com/"
        }
      },
      {
        "type": "node",
        "id": 364737027,
        "lat": 13.0404846,
        "lon": 80.2476605,
        "tags": {
          "amenity": "bank",
          "brand": "HDFC Bank",
          "brand:wikidata": "Q631047",
          "brand:wikipedia": "en:HDFC Bank",
          "name": "HDFC Bank",
          "short_name": "HDFC"
        }
      },
      {
        "type": "node",
        "id": 375679127,
        "lat": 13.0393986,
        "lon": 80.2467204,
        "tags": {
          "addr:city": "Chennai",
          "amenity": "bank",
          "branch": "Pbb Anna Salai",
          "brand": "State Bank of India",
          "brand:wikidata": "Q1340361",
          "brand:wikipedia": "en:State Bank of India",
          "name": "State Bank of India",
          "short_name": "SBI",
          "website": "https://www.sbi.co.in"
        }
      },
      {
        "type": "node",
        "id": 375679460,
        "lat": 13.0403524,
        "lon": 80.2468368,
        "tags": {
          "amenity": "atm",
          "brand": "State Bank of India",
          "brand:en": "State Bank of India",
          "brand:wikidata": "Q1340361",
          "brand:wikipedia": "en:State Bank of India",
          "currency:INR": "yes",
          "drive_through": "no",
          "indoor": "yes",
          "name": "State Bank of India",
          "note": "Contributors are requested to not edit the \"brand\", \"brand:en\", \"brand:wikidata\", \"operator\", \"operator:en\" and \"operator:wikidata\" tags. (2025/03/03)",
          "opening_hours": "24/7",
          "operator": "State Bank of India",
          "operator:en": "State Bank of India",
          "operator:wikidata": "Q1340361",
          "operator:wikipedia": "en:State Bank of India",
          "short_name": "SBI"
        }
      },
      {
        "type": "node",
        "id": 375679581,
        "lat": 13.0383319,
        "lon": 80.2473065,
        "tags": {
          "amenity": "atm",
          "created_by": "Potlatch 0.10f",
          "name": "SBT"
        }
      },
      {
        "type": "node",
        "id": 378688574,
        "lat": 13.0403208,
        "lon": 80.2437255,
        "tags": {
          "amenity": "restaurant",
          "name": "The Crown"
        }
      },
      {
        "type": "node",
        "id": 378688582,
        "lat": 13.0460421,
        "lon": 80.2476349,
        "tags": {
          "amenity": "restaurant",
          "name": "Paprika"
        }
      },
      {
        "type": "node",
        "id": 378688585,
        "lat": 13.0529661,
        "lon": 80.2500813,
        "tags": {
          "amenity": "restaurant",
          "name": "Aqua"
        }
      },
      {
        "type": "node",
        "id": 378688588,
        "lat": 13.0528789,
        "lon": 80.2498533,
        "tags": {
          "amenity": "restaurant",
          "cuisine": "thai",
          "name": "Lotus"
        }
      },
      {
        "type": "node",
        "id": 378692904,
        "lat": 13.039551,
        "lon": 80.2502927,
        "tags": {
          "amenity": "pharmacy",
          "healthcare": "pharmacy",
          "name": "Sugam"
        }
      },
      {
        "type": "node",
        "id": 378692907,
        "lat": 13.0402754,
        "lon": 80.2500307,
        "tags": {
          "amenity": "pharmacy",
          "healthcare": "pharmacy"
        }
      },
      {
        "type": "node",
        "id": 378692910,
        "lat": 13.0399682,
        "lon": 80.2503287,
        "tags": {
          "amenity": "doctors",
          "healthcare": "doctor"
        }
      },
      {
        "type": "node",
        "id": 378692913,
        "lat": 13.0406602,
        "lon": 80.2505675,
        "tags": {
          "amenity": "doctors",
          "healthcare": "doctor"
        }
      },
      {
        "type": "node",
        "id": 386780832,
        "lat": 13.0470673,
        "lon": 80.2455216,
        "tags": {
          "amenity": "cafe",
          "name": "Coffee Central"
        }
      },
      {
        "type": "node",
        "id": 583148538,
        "lat": 13.0425953,
        "lon": 80.2473617,
        "tags": {
          "amenity": "atm",
          "brand": "Deutsche Bank",
          "brand:wikidata": "Q66048",
          "brand:wikipedia": "en:Deutsche Bank",
          "name": "Deutsche Bank",
          "operator": "Deutsche Bank",
          "operator:wikidata": "Q66048",
          "operator:wikipedia": "en:Deutsche Bank"
        }
      },
      {
        "type": "node",
        "id": 864565812,
        "lat": 13.0398647,
        "lon": 80.2516758,
        "tags": {
          "name": "K-Store",
          "shop": "supermarket"
        }
      },
      {
        "type": "node",
        "id": 1053605028,
        "lat": 13.0494273,
        "lon": 80.2433788,
        "tags": {
          "amenity": "bank",
          "atm": "yes",
          "brand": "Canara Bank",
          "brand:en": "Canara Bank",
          "brand:hi": "\u0915\u0947\u0928\u0930\u093e \u092c\u0948\u0902\u0915",
          "brand:kn": "\u0c95\u0cc6\u0ca8\u0cb0\u0cbe \u0cac\u0ccd\u0caf\u0cbe\u0c82\u0c95\u0ccd",
          "brand:pa": "\u0a15\u0a47\u0a28\u0a30\u0a3e \u0a2c\u0a48\u0a02\u0a15",
          "brand:pnb": "\u06a9\u06cc\u0646\u0631\u0627 \u0628\u06cc\u0646\u06a9",
          "brand:ur": "\u06a9\u06cc\u0646\u0631\u0627 \u0628\u06cc\u0646\u06a9",
          "brand:wikidata": "Q2003777",
          "brand:wikipedia": "en:Canara Bank",
          "brand:wikipedia:pa": "\u0a15\u0a47\u0a28\u0a30\u0a3e \u0a2c\u0a48\u0a02\u0a15",
          "name": "Canara Bank",
          "name:en": "Canara Bank",
          "name:hi": "\u0915\u0947\u0928\u0930\u093e \u092c\u0948\u0902\u0915",
          "name:kn": "\u0c95\u0cc6\u0ca8\u0cb0\u0cbe \u0cac\u0ccd\u0caf\u0cbe\u0c82\u0c95\u0ccd",
          "name:pa": "\u0a15\u0a47\u0a28\u0a30\u0a3e \u0a2c\u0a48\u0a02\u0a15",
          "name:pnb": "\u06a9\u06cc\u0646\u0631\u0627 \u0628\u06cc\u0646\u06a9",
          "name:ur": "\u06a9\u06cc\u0646\u0631\u0627 \u0628\u06cc\u0646\u06a9",
          "website": "https://www.canarabank.com/"
        }
      },
      {
        "type": "node",
        "id": 1053605071,
        "lat": 13.051775,
        "lon": 80.2430546,
        "tags": {
          "amenity": "restaurant",
          "cuisine": "indian",
          "description": "closed",
          "internet_access": "no",
          "name": "Shankara Bhavan",
          "smoking": "no"
        }
      },
      {
        "type": "node",
        "id": 1152858038,
        "lat": 13.0508335,
        "lon": 80.2434416,
        "tags": {
          "addr:city": "Chennai",
          "addr:district": "Chennai",
          "addr:full": "5,Vidyodaya East Second Street, Behind Vidyodaya School",
          "addr:housenumber": "5",
          "addr:postcode": "600017",
          "addr:state": "Tamil Nadu",
          "addr:street": "Vidyodaya 2nd Cross Street",
          "amenity": "hospital",
          "email": "rajaneye@vsnl.com",
          "healthcare": "hospital",
          "healthcare:speciality": "ophthalmology",
          "name": "Rajan Eye Care Hospital",
          "phone": "2834 0500/0300",
          "source": "OpenGovernmentData",
          "website": "https://rajaneyecare.com/"
        }
      },
      {
        "type": "node",
        "id": 1990726883,
        "lat": 13.0471789,
        "lon": 80.2546452,
        "tags": {
          "amenity": "restaurant",
          "cuisine": "indian",
          "name": "Gangotree"
        }
      },
      {
        "type": "node",
        "id": 2296751330,
        "lat": 13.050641,
        "lon": 80.2517207,
        "tags": {
          "leisure": "playground"
        }
      },
      {
        "type": "node",
        "id": 3696257961,
        "lat": 13.0485453,
        "lon": 80.2457412,
        "tags": {
          "amenity": "cafe",
          "brand": "Cafe Coffee Day",
          "brand:wikidata": "Q5017235",
          "brand:wikipedia": "en:Caf\u00e9 Coffee Day",
          "cuisine": "coffee_shop",
          "name": "Cafe Coffee Day",
          "takeaway": "yes"
        }
      },
      {
        "type": "node",
        "id": 3700958155,
        "lat": 13.0515011,
        "lon": 80.2409517,
        "tags": {
          "amenity": "bank",
          "brand": "Indian Overseas Bank",
          "brand:wikidata": "Q2003611",
          "brand:wikipedia": "en:Indian Overseas Bank",
          "name": "Indian Overseas Bank",
          "name:en": "Indian Overseas Bank",
          "short_name": "IOB",
          "website": "https://www.iob.in"
        }
      },
      {
        "type": "node",
        "id": 3707526726,
        "lat": 13.0407297,
        "lon": 80.2395463,
        "tags": {
          "amenity": "bank",
          "brand": "Bank of India",
          "brand:wikidata": "Q2004439",
          "brand:wikipedia": "en:Bank of India",
          "name": "Bank of India",
          "name:en": "Bank of India",
          "short_name": "BoI",
          "website": "https://www.bankofindia.co.in/"
        }
      },
      {
        "type": "node",
        "id": 4241509490,
        "lat": 13.045426,
        "lon": 80.2412295,
        "tags": {
          "addr:street": "Gopathi Narayanaswami Road",
          "amenity": "restaurant",
          "name": "absolute barbeques "
        }
      },
      {
        "type": "node",
        "id": 4407798965,
        "lat": 13.0396517,
        "lon": 80.2428361,
        "tags": {
          "name": "Chella Mall",
          "shop": "mall"
        }
      },
      {
        "type": "node",
        "id": 4407799311,
        "lat": 13.0403053,
        "lon": 80.2422906,
        "tags": {
          "amenity": "atm",
          "brand": "State Bank of India",
          "brand:en": "State Bank of India",
          "brand:wikidata": "Q1340361",
          "brand:wikipedia": "en:State Bank of India",
          "currency:INR": "yes",
          "drive_through": "no",
          "indoor": "yes",
          "name": "State Bank of India",
          "note": "Contributors are requested to not edit the \"brand\", \"brand:en\", \"brand:wikidata\", \"operator\", \"operator:en\" and \"operator:wikidata\" tags. (2025/03/03)",
          "opening_hours": "24/7",
          "operator": "State Bank of India",
          "operator:en": "State Bank of India",
          "operator:wikidata": "Q1340361",
          "operator:wikipedia": "en:State Bank of India",
          "short_name": "SBI"
        }
      },
      {
        "type": "node",
        "id": 4407799312,
        "lat": 13.0404429,
        "lon": 80.2424961,
        "tags": {
          "addr:street": "Sir Thyagaraya Road",
          "amenity": "bank",
          "name": "Chennai central cooperative bank"
        }
      },
      {
        "type": "node",
        "id": 4417312197,
        "lat": 13.0408055,
        "lon": 80.2396158,
        "tags": {
          "amenity": "atm"
        }
      },
      {
        "type": "node",
        "id": 4544639994,
        "lat": 13.0463171,
        "lon": 80.246437,
        "tags": {
          "addr:street": "Narashiman 2nd Street",
          "amenity": "cafe",
          "cuisine": "indian;chinese",
          "internet_access": "wlan",
          "name": "Absolem"
        }
      },
      {
        "type": "node",
        "id": 4739621222,
        "lat": 13.0384105,
        "lon": 80.2469877,
        "tags": {
          "amenity": "atm",
          "brand": "Federal Bank",
          "brand:wikidata": "Q2044983",
          "brand:wikipedia": "en:Federal Bank",
          "name": "Federal Bank",
          "opening_hours": "24/7",
          "operator": "Federal Bank",
          "operator:wikidata": "Q2044983",
          "operator:wikipedia": "en:Federal Bank"
        }
      },
      {
        "type": "node",
        "id": 4739621223,
        "lat": 13.0412133,
        "lon": 80.2476261,
        "tags": {
          "amenity": "bank",
          "name:en": "Oriental insurance company"
        }
      },
      {
        "type": "node",
        "id": 5230272395,
        "lat": 13.0474926,
        "lon": 80.2400944,
        "tags": {
          "addr:city": "Chennai",
          "addr:housenumber": "29",
          "addr:postcode": "600017",
          "addr:street": "Thirumalai Pillai Road, Thirumurthy Nagar, Parthasarathi Puram, T Nagar",
          "amenity": "restaurant",
          "name": "Hotel Sabari"
        }
      },
      {
        "type": "node",
        "id": 6235479733,
        "lat": 13.0456112,
        "lon": 80.2408779,
        "tags": {
          "addr:city": "Chennai",
          "addr:postcode": "600017",
          "addr:street": "Gopathi Narayanaswami Road",
          "amenity": "restaurant",
          "capacity": "50",
          "cuisine": "noodle",
          "diet:vegetarian": "yes",
          "name": "Noodle Theory",
          "opening_hours": "Mo-Su 09:00-21:00",
          "outdoor_seating": "no",
          "wheelchair": "yes"
        }
      },
      {
        "type": "node",
        "id": 6235557537,
        "lat": 13.045587,
        "lon": 80.2407688,
        "tags": {
          "name": "Nuts and Spices",
          "shop": "supermarket"
        }
      },
      {
        "type": "node",
        "id": 6235557538,
        "lat": 13.0455141,
        "lon": 80.2406636,
        "tags": {
          "brand": "Nilgiri's",
          "brand:wikidata": "Q17079567",
          "name": "Nilgiri's",
          "shop": "supermarket"
        }
      },
      {
        "type": "node",
        "id": 6297565846,
        "lat": 13.0473514,
        "lon": 80.2447632,
        "tags": {
          "addr:street": "T Nagar, Chennai",
          "amenity": "restaurant",
          "name": "Buhari Hotel"
        }
      },
      {
        "type": "node",
        "id": 6324654184,
        "lat": 13.0464568,
        "lon": 80.2457288,
        "tags": {
          "addr:city": "Chennai",
          "addr:street": "Narashiman 2nd Street",
          "amenity": "clinic",
          "healthcare": "clinic",
          "name": "Aryan Clinic"
        }
      },
      {
        "type": "node",
        "id": 6356473263,
        "lat": 13.0470852,
        "lon": 80.2453529,
        "tags": {
          "amenity": "restaurant",
          "name": "The Thickshake Factory"
        }
      },
      {
        "type": "node",
        "id": 6914937645,
        "lat": 13.0425395,
        "lon": 80.2430315,
        "tags": {
          "addr:district": "Chennai",
          "addr:full": "11, Gopalakrishna Street, T Nagar",
          "addr:postcode": "600001",
          "addr:state": "Tamil Nadu",
          "amenity": "clinic",
          "healthcare": "clinic",
          "name": "Sri Ramana Eye Center",
          "source": "OpenGovernmentData"
        }
      },
      {
        "type": "node",
        "id": 6928800364,
        "lat": 13.0449508,
        "lon": 80.2388835,
        "tags": {
          "addr:district": "Chennai",
          "addr:full": "Old Number 21, New Number 3, Bharathi Nagar, 1st Street, 2nd Lane, T. Nagar",
          "addr:postcode": "600017",
          "addr:state": "Tamil Nadu",
          "amenity": "doctors",
          "healthcare": "doctor",
          "name": "Dr V Rathna Prabhu",
          "source": "OpenGovernmentData"
        }
      },
      {
        "type": "node",
        "id": 6928936160,
        "lat": 13.0465492,
        "lon": 80.2422899,
        "tags": {
          "addr:district": "Chennai",
          "addr:full": "56,(Old No.105), G.N. Chetty Road, First Floor, T.Nagar",
          "addr:postcode": "600017",
          "addr:state": "Tamil Nadu",
          "amenity": "hospital",
          "healthcare": "hospital",
          "name": "Dr. Udhaya Rajas Dental Centre",
          "source": "OpenGovernmentData"
        }
      },
      {
        "type": "node",
        "id": 6929359057,
        "lat": 13.0480981,
        "lon": 80.245015,
        "tags": {
          "addr:block": "Chennai Zone Ix",
          "addr:district": "Chennai",
          "addr:full": "Gopathi Narayanaswami Chetty Rd, Satyamurthy Nagar, T. Nagar",
          "addr:postcode": "600017",
          "addr:state": "Tamil Nadu",
          "amenity": "hospital",
          "healthcare": "hospital",
          "name": "Bharathirajaa Hospital and Research centre",
          "source": "OpenGovernmentData"
        }
      },
      {
        "type": "node",
        "id": 6929625901,
        "lat": 13.0519442,
        "lon": 80.2454831,
        "tags": {
          "addr:block": "Chennai Zone Ix",
          "addr:district": "Chennai",
          "addr:full": "No: 28, Cathedral Gardens Road, Next Hotel Palm Grove, Nungambakkam",
          "addr:postcode": "600034",
          "addr:state": "Tamil Nadu",
          "amenity": "hospital",
          "healthcare": "hospital",
          "name": "B.R.S. Hospital Pvt. Ltd.",
          "source": "OpenGovernmentData"
        }
      },
      {
        "type": "node",
        "id": 6929737121,
        "lat": 13.0518247,
        "lon": 80.2476483,
        "tags": {
          "addr:district": "Chennai",
          "addr:full": "No.30C, Cathedral Garden Road, Nungambakkam",
          "addr:postcode": "600034",
          "addr:state": "Tamil Nadu",
          "amenity": "hospital",
          "healthcare": "hospital",
          "name": "Chitra's Ent Laser Hospital",
          "source": "OpenGovernmentData"
        }
      },
      {
        "type": "node",
        "id": 6936709086,
        "lat": 13.0496502,
        "lon": 80.2410582,
        "tags": {
          "addr:city": "Chennai",
          "addr:district": "Chennai",
          "addr:full": "Old No.24, New 73, Habibullah Road, T.Nagar",
          "addr:housenumber": "73",
          "addr:postcode": "600017",
          "addr:state": "Tamil Nadu",
          "addr:street": "Habibullah Road",
          "amenity": "hospital",
          "healthcare": "hospital",
          "name": "Centre For Blood Disorder",
          "phone": "+91 44 2834 0668;+91 44 2834 5161",
          "source": "OpenGovernmentData"
        }
      },
      {
        "type": "node",
        "id": 6937467152,
        "lat": 13.0394065,
        "lon": 80.2507684,
        "tags": {
          "addr:district": "Tiruchirappalli",
          "addr:full": "C,57 11Th Cross Thillai Nagar",
          "addr:postcode": "620018",
          "addr:state": "Tamil Nadu",
          "amenity": "hospital",
          "healthcare": "hospital",
          "name": "Gastro Cre Hospital",
          "source": "OpenGovernmentData"
        }
      },
      {
        "type": "node",
        "id": 7213492568,
        "lat": 13.0465056,
        "lon": 80.2423799,
        "tags": {
          "addr:district": "Chennai",
          "addr:full": "56,(Old No.105), G.N. Chetty Road, First Floor, T.Nagar",
          "addr:postcode": "600017",
          "addr:state": "Tamil Nadu",
          "amenity": "hospital",
          "healthcare": "hospital",
          "name": "Dr.Bala Subramanian",
          "source": "OpenGovernmentData"
        }
      },
      {
        "type": "node",
        "id": 7252333321,
        "lat": 13.0433937,
        "lon": 80.2461174,
        "tags": {
          "addr:block": "Chennai Zone Ix",
          "addr:district": "Chennai",
          "addr:full": "Near Hyatt Resigency Hotel, T. Nagar, Vijayaraghava Road",
          "addr:postcode": "600017",
          "addr:state": "Tamil Nadu",
          "amenity": "hospital",
          "healthcare": "hospital",
          "name": "Cloudnine Hospital - Chennai",
          "source": "OpenGovernmentData"
        }
      },
      {
        "type": "node",
        "id": 7252333349,
        "lat": 13.0431134,
        "lon": 80.2453103,
        "tags": {
          "addr:block": "Chennai Zone Ix",
          "addr:district": "Chennai",
          "addr:full": "5A, (Opp) Anjuman Hr.Sec. School, T. Nagar, Vijayaraghava Road",
          "addr:postcode": "600017",
          "addr:state": "Tamil Nadu",
          "amenity": "hospital",
          "healthcare": "hospital",
          "name": "Be Well Hospital",
          "source": "OpenGovernmentData"
        }
      },
      {
        "type": "node",
        "id": 7252333378,
        "lat": 13.044837,
        "lon": 80.2475507,
        "tags": {
          "addr:block": "Chennai Zone Ix",
          "addr:district": "Chennai",
          "addr:full": "No. 562, Century Plaza, Anna Salai, Teynampet, Opp.Hyatt Regency, Chennai;Century Plaza Anna Salai Teynampet",
          "addr:postcode": "600018",
          "addr:state": "Tamil Nadu",
          "amenity": "hospital",
          "healthcare": "hospital",
          "name": "Dr. Rai Memorial Medical Centre",
          "source": "OpenGovernmentData"
        }
      },
      {
        "type": "node",
        "id": 7252446776,
        "lat": 13.054753,
        "lon": 80.2455557,
        "tags": {
          "name": "Helice",
          "shop": "supermarket"
        }
      },
      {
        "type": "node",
        "id": 7255751872,
        "lat": 13.0526267,
        "lon": 80.2460383,
        "tags": {
          "amenity": "bank",
          "brand": "Karur Vysya Bank",
          "brand:wikidata": "Q6373724",
          "brand:wikipedia": "en:Karur Vysya Bank",
          "name": "Karur Vysya Bank"
        }
      },
      {
        "type": "node",
        "id": 7255752064,
        "lat": 13.0531665,
        "lon": 80.2466703,
        "tags": {
          "amenity": "fast_food",
          "brand": "Domino's",
          "brand:ks": "\u0688\u0648\u0645\u06cc\u0646\u0648\u0632",
          "brand:pa": "\u0a21\u0a4b\u0a2e\u0a40\u0a28\u0a4b\u0a1c\u0a3c",
          "brand:ur": "\u0688\u0648\u0645\u06cc\u0646\u0648\u0632",
          "brand:wikidata": "Q839466",
          "brand:wikipedia": "en:Domino's Pizza",
          "cuisine": "pizza",
          "drive_through": "no",
          "name": "Domino's",
          "name:ks": "\u0688\u0648\u0645\u06cc\u0646\u0648\u0632",
          "name:pa": "\u0a21\u0a4b\u0a2e\u0a40\u0a28\u0a4b\u0a1c\u0a3c",
          "name:ur": "\u0688\u0648\u0645\u06cc\u0646\u0648\u0632",
          "takeaway": "yes"
        }
      },
      {
        "type": "node",
        "id": 7263474183,
        "lat": 13.0550346,
        "lon": 80.244413,
        "tags": {
          "amenity": "bank",
          "brand": "State Bank of India",
          "brand:wikidata": "Q1340361",
          "brand:wikipedia": "en:State Bank of India",
          "name": "State Bank of India",
          "short_name": "SBI"
        }
      },
      {
        "type": "node",
        "id": 7263503814,
        "lat": 13.0549203,
        "lon": 80.2444046,
        "tags": {
          "amenity": "atm",
          "brand": "State Bank of India",
          "brand:en": "State Bank of India",
          "brand:wikidata": "Q1340361",
          "brand:wikipedia": "en:State Bank of India",
          "currency:INR": "yes",
          "drive_through": "no",
          "indoor": "yes",
          "name": "State Bank of India",
          "note": "Contributors are requested to not edit the \"brand\", \"brand:en\", \"brand:wikidata\", \"operator\", \"operator:en\" and \"operator:wikidata\" tags. (2025/03/03)",
          "opening_hours": "24/7",
          "operator": "State Bank of India",
          "operator:en": "State Bank of India",
          "operator:wikidata": "Q1340361",
          "operator:wikipedia": "en:State Bank of India",
          "short_name": "SBI"
        }
      },
      {
        "type": "node",
        "id": 7263960653,
        "lat": 13.0532926,
        "lon": 80.2473074,
        "tags": {
          "amenity": "atm",
          "brand": "Canara Bank",
          "brand:en": "Canara Bank",
          "brand:hi": "\u0915\u0947\u0928\u0930\u093e \u092c\u0948\u0902\u0915",
          "brand:kn": "\u0c95\u0cc6\u0ca8\u0cb0\u0cbe \u0cac\u0ccd\u0caf\u0cbe\u0c82\u0c95\u0ccd",
          "brand:pa": "\u0a15\u0a47\u0a28\u0a30\u0a3e \u0a2c\u0a48\u0a02\u0a15",
          "brand:pnb": "\u06a9\u06cc\u0646\u0631\u0627 \u0628\u06cc\u0646\u06a9",
          "brand:ur": "\u06a9\u06cc\u0646\u0631\u0627 \u0628\u06cc\u0646\u06a9",
          "brand:wikidata": "Q2003777",
          "brand:wikipedia": "en:Canara Bank",
          "name": "Canara Bank",
          "name:en": "Canara Bank",
          "name:hi": "\u0915\u0947\u0928\u0930\u093e \u092c\u0948\u0902\u0915",
          "name:kn": "\u0c95\u0cc6\u0ca8\u0cb0\u0cbe \u0cac\u0ccd\u0caf\u0cbe\u0c82\u0c95\u0ccd",
          "name:pa": "\u0a15\u0a47\u0a28\u0a30\u0a3e \u0a2c\u0a48\u0a02\u0a15",
          "name:pnb": "\u06a9\u06cc\u0646\u0631\u0627 \u0628\u06cc\u0646\u06a9",
          "name:ur": "\u06a9\u06cc\u0646\u0631\u0627 \u0628\u06cc\u0646\u06a9",
          "operator": "Canara Bank",
          "operator:wikidata": "Q2003777",
          "operator:wikipedia": "en:Canara Bank"
        }
      },
      {
        "type": "node",
        "id": 7263967744,
        "lat": 13.0539386,
        "lon": 80.250339,
        "tags": {
          "amenity": "restaurant",
          "name": "Thalappakatti"
        }
      },
      {
        "type": "node",
        "id": 7263972901,
        "lat": 13.0533468,
        "lon": 80.2494941,
        "tags": {
          "amenity": "restaurant",
          "name": "Madras Curry Cup"
        }
      },
      {
        "type": "node",
        "id": 7263982748,
        "lat": 13.053128,
        "lon": 80.2465939,
        "tags": {
          "amenity": "atm",
          "brand": "Bandhan Bank",
          "brand:wikidata": "Q19882235",
          "brand:wikipedia": "en:Bandhan Bank",
          "name": "Bandhan Bank",
          "operator": "Bandhan Bank",
          "operator:wikidata": "Q19882235",
          "operator:wikipedia": "en:Bandhan Bank"
        }
      },
      {
        "type": "node",
        "id": 7263988223,
        "lat": 13.0534389,
        "lon": 80.2473986,
        "tags": {
          "alt_name": "Kentucky Fried Chicken",
          "alt_name:en": "Kentucky Fried Chicken",
          "alt_name:hi": "\u0915\u0947\u0902\u091f\u0941\u0915\u0940 \u092b\u094d\u0930\u093e\u0907\u0921 \u091a\u093f\u0915\u0928",
          "alt_name:pa": "\u0a15\u0a48\u0a02\u0a1f\u0a41\u0a15\u0a40 \u0a2b\u0a4d\u0a30\u0a3e\u0a08\u0a21 \u0a1a\u0a3f\u0a15\u0a28",
          "alt_name:pnb": "\u06a9\u06cc\u0646\u0679\u06a9\u06cc \u0641\u0631\u0627\u0626\u06cc\u0688 \u0686\u06a9\u0646",
          "alt_name:ur": "\u06a9\u06cc\u0646\u0679\u06a9\u06cc \u0641\u0631\u0627\u0626\u06cc\u0688 \u0686\u06a9\u0646",
          "amenity": "fast_food",
          "brand": "KFC",
          "brand:en": "KFC",
          "brand:hi": "\u0915\u0947\u090f\u092b\u0938\u0940",
          "brand:pa": "\u0a15\u0a47\u0a10\u0a2b\u0a38\u0a40",
          "brand:pnb": "\u06a9\u06d2 \u0627\u06cc\u0641 \u0633\u06cc",
          "brand:ur": "\u06a9\u06d2 \u0627\u06cc\u0641 \u0633\u06cc",
          "brand:wikidata": "Q524757",
          "brand:wikipedia": "en:KFC",
          "brand:wikipedia:pa": "\u0a15\u0a47\u0a10\u0a2b\u0a38\u0a40",
          "brand:wikipedia:ur": "\u06a9\u06cc\u0646\u0679\u06a9\u06cc \u0641\u0631\u0627\u0626\u06cc\u0688 \u0686\u06a9\u0646",
          "cuisine": "chicken",
          "name": "KFC",
          "name:en": "KFC",
          "name:hi": "\u0915\u0947\u090f\u092b\u0938\u0940",
          "name:pa": "\u0a15\u0a47\u0a10\u0a2b\u0a38\u0a40",
          "name:pnb": "\u06a9\u06d2 \u0627\u06cc\u0641 \u0633\u06cc",
          "name:ur": "\u06a9\u06d2 \u0627\u06cc\u0641 \u0633\u06cc",
          "takeaway": "yes"
        }
      },
      {
        "type": "node",
        "id": 7823776215,
        "lat": 13.051051,
        "lon": 80.243818,
        "tags": {
          "addr:district": "Chennai",
          "addr:postcode": "600017",
          "addr:state": "Tamil Nadu",
          "amenity": "hospital",
          "healthcare": "hospital",
          "name": "Koncept Hospitals",
          "source": "Local Knowledge"
        }
      },
      {
        "type": "node",
        "id": 8248064776,
        "lat": 13.0445056,
        "lon": 80.2443029,
        "tags": {
          "addr:city": "chennai",
          "addr:postcode": "600017",
          "addr:street": "Doctor Shivaji Ganesan Road",
          "name": "Dhanyam organic store",
          "organic": "only",
          "payment:cash": "yes",
          "payment:debit_cards": "yes",
          "shop": "supermarket",
          "website": "https://dhanyam.in/"
        }
      },
      {
        "type": "node",
        "id": 8639416762,
        "lat": 13.0475624,
        "lon": 80.2544953,
        "tags": {
          "amenity": "restaurant",
          "cuisine": "mediterranean",
          "name": "Tamu Tamu"
        }
      },
      {
        "type": "node",
        "id": 8935512053,
        "lat": 13.0414167,
        "lon": 80.2405354,
        "tags": {
          "amenity": "bank",
          "brand": "IDBI Bank",
          "brand:wikidata": "Q3633485",
          "brand:wikipedia": "en:IDBI Bank",
          "name": "IDBI Bank",
          "short_name": "IDBI"
        }
      },
      {
        "type": "node",
        "id": 8935514615,
        "lat": 13.0439323,
        "lon": 80.2407095,
        "tags": {
          "amenity": "hospital",
          "healthcare": "hospital",
          "name": "Geri care hospital"
        }
      },
      {
        "type": "node",
        "id": 8935518049,
        "lat": 13.0424979,
        "lon": 80.2409637,
        "tags": {
          "amenity": "bank",
          "brand": "Federal Bank",
          "brand:wikidata": "Q2044983",
          "brand:wikipedia": "en:Federal Bank",
          "name": "Federal Bank"
        }
      },
      {
        "type": "node",
        "id": 8935518050,
        "lat": 13.0435303,
        "lon": 80.2411689,
        "tags": {
          "name": "Ambika appalam",
          "shop": "department_store"
        }
      },
      {
        "type": "node",
        "id": 8935522910,
        "lat": 13.0465972,
        "lon": 80.243722,
        "tags": {
          "amenity": "bank",
          "brand": "Standard Chartered",
          "brand:wikidata": "Q548278",
          "brand:wikipedia": "en:Standard Chartered",
          "name": "Standard Chartered"
        }
      },
      {
        "type": "node",
        "id": 8935525377,
        "lat": 13.044123,
        "lon": 80.240596,
        "tags": {
          "brand": "More",
          "brand:wikidata": "Q6910891",
          "brand:wikipedia": "en:More (store)",
          "name": "More",
          "shop": "supermarket"
        }
      },
      {
        "type": "node",
        "id": 8935541440,
        "lat": 13.0474462,
        "lon": 80.2439151,
        "tags": {
          "amenity": "bank",
          "brand": "IndusInd Bank",
          "brand:wikidata": "Q2040323",
          "brand:wikipedia": "en:IndusInd Bank",
          "name": "IndusInd Bank"
        }
      },
      {
        "type": "node",
        "id": 9418560326,
        "lat": 13.0482571,
        "lon": 80.2534355,
        "tags": {
          "addr:city": "Chennai",
          "addr:housenumber": "1",
          "addr:postcode": "600086",
          "addr:street": "Muthiah Street",
          "amenity": "restaurant",
          "cuisine": "indian",
          "diet:vegetarian": "yes",
          "name": "Ek Aur Paratha"
        }
      },
      {
        "type": "node",
        "id": 10173145886,
        "lat": 13.0453571,
        "lon": 80.2555131,
        "tags": {
          "amenity": "restaurant",
          "name": "Manjal"
        }
      },
      {
        "type": "node",
        "id": 10316729993,
        "lat": 13.0530098,
        "lon": 80.2514437,
        "tags": {
          "amenity": "atm",
          "brand": "CSB Bank",
          "brand:wikidata": "Q5053244",
          "official_name": "Catholic Syrian Bank",
          "operator": "CSB Bank",
          "operator:wikidata": "Q5053244"
        }
      },
      {
        "type": "node",
        "id": 10316739353,
        "lat": 13.0543277,
        "lon": 80.2501562,
        "tags": {
          "amenity": "fast_food",
          "brand": "McDonald's",
          "brand:wikidata": "Q38076",
          "cuisine": "burger",
          "name": "McDonald's",
          "takeaway": "yes"
        }
      },
      {
        "type": "node",
        "id": 10316739368,
        "lat": 13.0528083,
        "lon": 80.2496472,
        "tags": {
          "amenity": "restaurant",
          "name": "Six 'O' One"
        }
      },
      {
        "type": "node",
        "id": 10593652055,
        "lat": 13.0437398,
        "lon": 80.2475129,
        "tags": {
          "amenity": "bank",
          "brand": "State Bank of India",
          "brand:wikidata": "Q1340361",
          "name": "State Bank of India",
          "short_name": "SBI"
        }
      },
      {
        "type": "node",
        "id": 10593652056,
        "lat": 13.0439058,
        "lon": 80.2475424,
        "tags": {
          "amenity": "bank",
          "brand": "Union Bank of India",
          "brand:wikidata": "Q2004078",
          "name": "Union Bank of India"
        }
      },
      {
        "type": "node",
        "id": 10593652058,
        "lat": 13.0438069,
        "lon": 80.247527,
        "tags": {
          "amenity": "bank",
          "brand": "Karur Vysya Bank",
          "brand:wikidata": "Q6373724",
          "name": "Karur Vysya Bank"
        }
      },
      {
        "type": "node",
        "id": 11828671526,
        "lat": 13.0496674,
        "lon": 80.24228,
        "tags": {
          "amenity": "restaurant",
          "name": "Basil with a twist"
        }
      },
      {
        "type": "node",
        "id": 11828671527,
        "lat": 13.0506072,
        "lon": 80.2428243,
        "tags": {
          "amenity": "cafe",
          "description": "Pet Themed Caf\u00e8",
          "name": "Happy Bum Pets"
        }
      },
      {
        "type": "node",
        "id": 11828705033,
        "lat": 13.0497445,
        "lon": 80.2417176,
        "tags": {
          "amenity": "atm",
          "brand": "ICICI Bank",
          "brand:en": "ICICI Bank",
          "brand:wikidata": "Q1653258",
          "currency:INR": "yes",
          "drive_through": "no",
          "indoor": "yes",
          "name": "ICICI Bank",
          "note": "Contributors are requested to not edit the \"brand\", \"brand:en\", \"brand:wikidata\", \"operator\", \"operator:en\" and \"operator:wikidata\" tags. (2025/03/03)",
          "opening_hours": "24/7",
          "operator": "ICICI Bank",
          "operator:en": "ICICI Bank",
          "operator:wikidata": "Q1653258",
          "short_name": "ICICI"
        }
      },
      {
        "type": "node",
        "id": 11835045101,
        "lat": 13.0514338,
        "lon": 80.240524,
        "tags": {
          "amenity": "bank",
          "brand": "State Bank of India",
          "brand:wikidata": "Q1340361",
          "name": "State Bank of India",
          "short_name": "SBI"
        }
      },
      {
        "type": "node",
        "id": 12473051001,
        "lat": 13.0477044,
        "lon": 80.2390445,
        "tags": {
          "addr:housenumber": "2",
          "addr:postcode": "600017",
          "addr:street": "Bhagirathi Ammal Street",
          "amenity": "restaurant",
          "contact:facebook": "PaatiVeedu",
          "contact:instagram": "paativeedu",
          "cuisine": "indian",
          "diet:vegetarian": "yes",
          "email": "gm@paativeedu.com",
          "name": "Paati Veedu",
          "opening_hours": "Mo-Th 12:00-15:30,19:00-22:00; Fr-Su 11:30-15:30,19:00-22:00",
          "website": "https://paativeedu.com/",
          "website:menu": "https://paativeedu.com/restaurant.html"
        }
      },
      {
        "type": "node",
        "id": 12640713376,
        "lat": 13.0531057,
        "lon": 80.2435995,
        "tags": {
          "amenity": "clinic",
          "name": "Capstone Clinic"
        }
      },
      {
        "type": "node",
        "id": 12640732029,
        "lat": 13.0497595,
        "lon": 80.2404197,
        "tags": {
          "amenity": "pharmacy",
          "name": "Medplus"
        }
      },
      {
        "type": "node",
        "id": 12640732242,
        "lat": 13.0506559,
        "lon": 80.2403622,
        "tags": {
          "amenity": "pharmacy",
          "name": "Muthu Pharmacy"
        }
      }
    ]
  },
  "pois_2_5km": {
    "version": 0.6,
    "generator": "Overpass API 0.7.62.8 e802775f",
    "osm3s": {
      "timestamp_osm_base": "2025-09-06T09:04:45Z",
      "copyright": "The data included in this document is from www.openstreetmap.org. The data is made available under ODbL."
    },
    "elements": [
      {
        "type": "node",
        "id": 186741980,
        "lat": 13.0578527,
        "lon": 80.2428163,
        "tags": {
          "bus": "yes",
          "name": "Nungambakkam Police Station",
          "network": "MTC",
          "operator": "Metropolitan Transport Corporation (Chennai) Ltd.",
          "public_transport": "stop_position"
        }
      },
      {
        "type": "node",
        "id": 243049436,
        "lat": 13.0634424,
        "lon": 80.2434914,
        "tags": {
          "bus": "yes",
          "name": "Sterling Road",
          "network": "MTC",
          "operator": "Metropolitan Transport Corporation (Chennai) Ltd.",
          "public_transport": "stop_position"
        }
      },
      {
        "type": "node",
        "id": 247675520,
        "lat": 13.0349762,
        "lon": 80.2307357,
        "tags": {
          "bus": "yes",
          "name": "T.Nagar",
          "network": "MTC",
          "operator": "Metropolitan Transport Corporation (Chennai) Ltd.",
          "public_transport": "stop_position"
        }
      },
      {
        "type": "node",
        "id": 248343706,
        "lat": 13.0368733,
        "lon": 80.2555597,
        "tags": {
          "amenity": "fuel",
          "brand": "Hindustan Petroleum",
          "brand:wikidata": "Q1619375",
          "brand:wikipedia": "en:Hindustan Petroleum",
          "name": "HP",
          "official_name": "Hindustan Petroleum"
        }
      },
      {
        "type": "node",
        "id": 248343893,
        "lat": 13.037841,
        "lon": 80.2562967,
        "tags": {
          "amenity": "fuel",
          "created_by": "Potlatch 0.10f",
          "name": "IOC"
        }
      },
      {
        "type": "node",
        "id": 248344281,
        "lat": 13.0378885,
        "lon": 80.2569506,
        "tags": {
          "amenity": "fuel",
          "brand": "BP",
          "brand:wikidata": "Q152057",
          "brand:wikipedia": "en:BP",
          "name": "BP"
        }
      },
      {
        "type": "node",
        "id": 248467432,
        "lat": 13.0513061,
        "lon": 80.2305555,
        "tags": {
          "public_transport": "stop_position"
        }
      },
      {
        "type": "node",
        "id": 250319253,
        "lat": 13.0363377,
        "lon": 80.2394517,
        "tags": {
          "bus": "yes",
          "name": "Hindi Prachar Sabha",
          "network": "MTC",
          "operator": "Metropolitan Transport Corporation (Chennai) Ltd.",
          "public_transport": "stop_position"
        }
      },
      {
        "type": "node",
        "id": 250327570,
        "lat": 13.0379784,
        "lon": 80.2276266,
        "tags": {
          "public_transport": "stop_position"
        }
      },
      {
        "type": "node",
        "id": 259662367,
        "lat": 13.0524541,
        "lon": 80.26382,
        "tags": {
          "bus": "yes",
          "name": "Royapettah Police Station",
          "public_transport": "stop_position"
        }
      },
      {
        "type": "node",
        "id": 301736165,
        "lat": 13.0387535,
        "lon": 80.2588492,
        "tags": {
          "bus": "yes",
          "highway": "bus_stop",
          "name": "\u0b86\u0bb4\u0bcd\u0bb5\u0bbe\u0bb0\u0bcd \u0baa\u0bc7\u0b9f\u0bcd\u0b9f\u0bc8",
          "name:en": "Alwarpet",
          "name:ta": "\u0b86\u0bb4\u0bcd\u0bb5\u0bbe\u0bb0\u0bcd \u0baa\u0bc7\u0b9f\u0bcd\u0b9f\u0bc8",
          "public_transport": "stop_position",
          "shelter": "yes"
        }
      },
      {
        "type": "node",
        "id": 301738571,
        "lat": 13.0391669,
        "lon": 80.2573351,
        "tags": {
          "amenity": "fuel",
          "brand": "Hindustan Petroleum",
          "brand:wikidata": "Q1619375",
          "brand:wikipedia": "en:Hindustan Petroleum",
          "name": "HP",
          "official_name": "Hindustan Petroleum"
        }
      },
      {
        "type": "node",
        "id": 301738572,
        "lat": 13.0402403,
        "lon": 80.2468562,
        "tags": {
          "amenity": "fuel",
          "brand": "Hindustan Petroleum",
          "brand:wikidata": "Q1619375",
          "brand:wikipedia": "en:Hindustan Petroleum",
          "name": "HP",
          "name:en": "HP",
          "official_name": "Hindustan Petroleum"
        }
      },
      {
        "type": "node",
        "id": 301947513,
        "lat": 13.0493343,
        "lon": 80.25305,
        "tags": {
          "amenity": "fuel"
        }
      },
      {
        "type": "node",
        "id": 308301823,
        "lat": 13.0490493,
        "lon": 80.2483265,
        "tags": {
          "amenity": "theatre",
          "name": "Kamaraj Arangam",
          "name:etymology:wikidata": "Q522048"
        }
      },
      {
        "type": "node",
        "id": 308303592,
        "lat": 13.0417163,
        "lon": 80.2494482,
        "tags": {
          "amenity": "theatre",
          "created_by": "Potlatch 0.10f",
          "name": "Anna Arivalayam",
          "name:etymology:wikidata": "Q138765"
        }
      },
      {
        "type": "node",
        "id": 308467144,
        "lat": 13.0311284,
        "lon": 80.2394414,
        "tags": {
          "amenity": "fuel",
          "brand": "Hindustan Petroleum",
          "brand:wikidata": "Q1619375",
          "brand:wikipedia": "en:Hindustan Petroleum",
          "name": "HP",
          "official_name": "Hindustan Petroleum",
          "opening_hours": "Mo-Su,PH 06:00-18:00"
        }
      },
      {
        "type": "node",
        "id": 308467145,
        "lat": 13.0337218,
        "lon": 80.2382988,
        "tags": {
          "amenity": "fuel"
        }
      },
      {
        "type": "node",
        "id": 308467150,
        "lat": 13.0459529,
        "lon": 80.2562406,
        "tags": {
          "amenity": "fuel"
        }
      },
      {
        "type": "node",
        "id": 310729808,
        "lat": 13.0445134,
        "lon": 80.2685481,
        "tags": {
          "bus": "yes",
          "highway": "bus_stop",
          "name": "Yellow Pages",
          "public_transport": "stop_position",
          "ref": "mtcstop#0626",
          "shelter": "yes"
        }
      },
      {
        "type": "node",
        "id": 313135840,
        "lat": 13.0534169,
        "lon": 80.252032,
        "tags": {
          "amenity": "fuel",
          "brand": "Hindustan Petroleum",
          "brand:wikidata": "Q1619375",
          "brand:wikipedia": "en:Hindustan Petroleum",
          "name": "HP",
          "name:en": "HP",
          "official_name": "Hindustan Petroleum"
        }
      },
      {
        "type": "node",
        "id": 313135912,
        "lat": 13.0540764,
        "lon": 80.2530457,
        "tags": {
          "amenity": "fuel",
          "created_by": "Potlatch 0.10d"
        }
      },
      {
        "type": "node",
        "id": 314688253,
        "lat": 13.0427775,
        "lon": 80.2677547,
        "tags": {
          "amenity": "fuel",
          "brand": "Hindustan Petroleum",
          "brand:wikidata": "Q1619375",
          "brand:wikipedia": "en:Hindustan Petroleum",
          "name": "HP",
          "official_name": "Hindustan Petroleum"
        }
      },
      {
        "type": "node",
        "id": 319038955,
        "lat": 13.0421221,
        "lon": 80.2684202,
        "tags": {
          "amenity": "fuel",
          "brand": "Indian Oil",
          "brand:wikidata": "Q1289348",
          "brand:wikipedia": "en:Indian Oil Corporation",
          "check_date": "2024-05-22",
          "fuel:diesel": "yes",
          "fuel:octane_80": "yes",
          "internet_access": "no",
          "name": "Indian Oil",
          "name:en": "Indian Oil",
          "operator": "Indian Oil Corporation Ltd",
          "payment:cash": "yes",
          "payment:credit_cards": "yes",
          "payment:debit_cards": "yes",
          "payment:upi": "yes",
          "self_service": "no",
          "wheelchair": "yes"
        }
      },
      {
        "type": "node",
        "id": 339327873,
        "lat": 13.0432174,
        "lon": 80.2304165,
        "tags": {
          "addr:city": "Chennai",
          "addr:housenumber": "20",
          "addr:postcode": "600017",
          "addr:street": "Maharajapuram Santhanam Salai",
          "amenity": "theatre",
          "name": "Sri Krishna Gana Sabha - Auditorium",
          "operator": "Sri Krishna Gana Sabha",
          "website": "https://www.krishnaganasabha.org/"
        }
      },
      {
        "type": "node",
        "id": 343721497,
        "lat": 13.0386195,
        "lon": 80.2588399,
        "tags": {
          "bus": "yes",
          "highway": "bus_stop",
          "name": "\u0b86\u0bb4\u0bcd\u0bb5\u0bbe\u0bb0\u0bcd \u0baa\u0bc7\u0b9f\u0bcd\u0b9f\u0bc8",
          "name:en": "Alwarpet",
          "name:ta": "\u0b86\u0bb4\u0bcd\u0bb5\u0bbe\u0bb0\u0bcd \u0baa\u0bc7\u0b9f\u0bcd\u0b9f\u0bc8",
          "public_transport": "stop_position",
          "shelter": "yes"
        }
      },
      {
        "type": "node",
        "id": 344405871,
        "lat": 13.0674553,
        "lon": 80.2524458,
        "tags": {
          "amenity": "fuel"
        }
      },
      {
        "type": "node",
        "id": 365281356,
        "lat": 13.0373045,
        "lon": 80.258891,
        "tags": {
          "amenity": "theatre",
          "name": "Sivagami Petachi Auditorium"
        }
      },
      {
        "type": "node",
        "id": 370317596,
        "lat": 13.0669309,
        "lon": 80.2457303,
        "tags": {
          "addr:housenumber": "24",
          "addr:postcode": "600034",
          "addr:street": "College Road",
          "amenity": "theatre",
          "created_by": "Potlatch 0.10f",
          "name": "Alliance Francais",
          "name:en": "Alliance Fran\u00e7aise",
          "phone": "+91 44 2827 9803",
          "website": "https://madras.afindia.org/"
        }
      },
      {
        "type": "node",
        "id": 378021346,
        "lat": 13.044528,
        "lon": 80.2634018,
        "tags": {
          "amenity": "fuel",
          "brand": "Indian Oil",
          "brand:wikidata": "Q1289348",
          "brand:wikipedia": "en:Indian Oil Corporation",
          "name": "Indian Oil",
          "operator": "Indian Oil"
        }
      },
      {
        "type": "node",
        "id": 378688538,
        "lat": 13.0277462,
        "lon": 80.2512876,
        "tags": {
          "addr:city": "Chennai",
          "addr:street": "Pasumpon Muthuramalinga Thevar Salai",
          "amenity": "fuel",
          "brand": "Hindustan Petroleum",
          "brand:wikidata": "Q1619375",
          "compressed_air": "yes",
          "name": "HP Petrol Bunk",
          "official_name": "Hindustan Petroleum",
          "opening_hours": "24/7"
        }
      },
      {
        "type": "node",
        "id": 386890399,
        "lat": 13.0553594,
        "lon": 80.2580847,
        "tags": {
          "amenity": "theatre",
          "name": "Sathyam Cinema"
        }
      },
      {
        "type": "node",
        "id": 416413322,
        "lat": 13.0378036,
        "lon": 80.2665431,
        "tags": {
          "amenity": "cinema",
          "check_date": "2024-05-22",
          "name": "Kamadhenu",
          "name:en": "Kamadhenu"
        }
      },
      {
        "type": "node",
        "id": 1885029649,
        "lat": 13.0421141,
        "lon": 80.259281,
        "tags": {
          "amenity": "fuel",
          "brand": "BP",
          "brand:wikidata": "Q152057",
          "brand:wikipedia": "en:BP",
          "name": "BP",
          "operator": "Thevar automobiles"
        }
      },
      {
        "type": "node",
        "id": 1975496434,
        "lat": 13.0566614,
        "lon": 80.2426317,
        "tags": {
          "bus": "yes",
          "name": "Independence Day Park",
          "network": "MTC",
          "operator": "Metropolitan Transport Corporation (Chennai) Ltd.",
          "public_transport": "stop_position"
        }
      },
      {
        "type": "node",
        "id": 2197496797,
        "lat": 13.0539962,
        "lon": 80.2422574,
        "tags": {
          "bus": "yes",
          "name": "Valluvar Kottam",
          "network": "MTC",
          "operator": "Metropolitan Transport Corporation (Chennai) Ltd.",
          "public_transport": "stop_position"
        }
      },
      {
        "type": "node",
        "id": 2237592529,
        "lat": 13.0342665,
        "lon": 80.2304553,
        "tags": {
          "bus": "yes",
          "name": "Thyagaraya Nagar Bus Terminus",
          "public_transport": "stop_position"
        }
      },
      {
        "type": "node",
        "id": 2481259002,
        "lat": 13.0516624,
        "lon": 80.2306892,
        "tags": {
          "internet_access": "no",
          "name": "Kodambakkam",
          "name:ml": "\u0d15\u0d4b\u0d1f\u0d2e\u0d4d\u0d2a\u0d3e\u0d15\u0d4d\u0d15\u0d02",
          "name:ta": "\u0b95\u0bcb\u0b9f\u0bae\u0bcd\u0baa\u0bbe\u0b95\u0bcd\u0b95\u0bae\u0bcd",
          "network": "IR",
          "operator": "SR",
          "public_transport": "station",
          "railway": "station",
          "ref": "MKK",
          "wikidata": "Q6425199",
          "wikipedia": "en:Kodambakkam railway station"
        }
      },
      {
        "type": "node",
        "id": 2481259006,
        "lat": 13.0380662,
        "lon": 80.2277752,
        "tags": {
          "internet_access": "no",
          "name": "Mambalam",
          "name:en": "Mambalam",
          "name:hi": "\u092e\u093e\u0902\u092c\u0932\u092e",
          "name:ml": "\u0d2e\u0d3e\u0d2e\u0d4d\u0d2a\u0d32\u0d02",
          "name:ta": "\u0bae\u0bbe\u0bae\u0bcd\u0baa\u0bb2\u0bae\u0bcd",
          "network": "IR",
          "operator": "SR",
          "public_transport": "station",
          "railway": "station",
          "ref": "MBM",
          "wikidata": "Q6745495",
          "wikipedia": "en:Mambalam railway station"
        }
      },
      {
        "type": "node",
        "id": 2482238496,
        "lat": 13.0643044,
        "lon": 80.2586227,
        "tags": {
          "amenity": "theatre"
        }
      },
      {
        "type": "node",
        "id": 2485384468,
        "lat": 13.045805,
        "lon": 80.2693631,
        "tags": {
          "amenity": "theatre",
          "name": "L. Balasubramaniam Hall Aiobeu Swastika"
        }
      },
      {
        "type": "node",
        "id": 3683580478,
        "lat": 13.0409717,
        "lon": 80.2373739,
        "tags": {
          "addr:city": "T.Nagar, Chennai",
          "addr:postcode": "600017",
          "amenity": "fuel",
          "name": "Chinthamani Cooperative Petrol Bunk"
        }
      },
      {
        "type": "node",
        "id": 3685280058,
        "lat": 13.0401531,
        "lon": 80.2400751,
        "tags": {
          "amenity": "fuel",
          "brand": "Hindustan Petroleum",
          "brand:wikidata": "Q1619375",
          "name": "HP",
          "official_name": "Hindustan Petroleum"
        }
      },
      {
        "type": "node",
        "id": 3685381587,
        "lat": 13.040274,
        "lon": 80.2423014,
        "tags": {
          "amenity": "fuel"
        }
      },
      {
        "type": "node",
        "id": 3685431628,
        "lat": 13.0291289,
        "lon": 80.2538708,
        "tags": {
          "amenity": "fuel"
        }
      },
      {
        "type": "node",
        "id": 3685563463,
        "lat": 13.0338283,
        "lon": 80.2448209,
        "tags": {
          "amenity": "fuel"
        }
      },
      {
        "type": "node",
        "id": 3685566217,
        "lat": 13.0451808,
        "lon": 80.2400027,
        "tags": {
          "amenity": "fuel"
        }
      },
      {
        "type": "node",
        "id": 3685567878,
        "lat": 13.0453689,
        "lon": 80.2404265,
        "tags": {
          "amenity": "fuel"
        }
      },
      {
        "type": "node",
        "id": 3685652294,
        "lat": 13.0536069,
        "lon": 80.2263575,
        "tags": {
          "amenity": "fuel"
        }
      },
      {
        "type": "node",
        "id": 3685653044,
        "lat": 13.0539215,
        "lon": 80.234525,
        "tags": {
          "amenity": "fuel"
        }
      },
      {
        "type": "node",
        "id": 3693619427,
        "lat": 13.0587298,
        "lon": 80.263784,
        "tags": {
          "amenity": "cinema",
          "name": "Escape Cinemas"
        }
      },
      {
        "type": "node",
        "id": 4359466591,
        "lat": 13.0649955,
        "lon": 80.2432915,
        "tags": {
          "addr:street": "Valluvar Kottam High Road",
          "amenity": "fuel",
          "brand": "Bharat Petroleum",
          "brand:wikidata": "Q854826",
          "brand:wikipedia": "en:Bharat Petroleum",
          "name": "Bharat Petroleum",
          "name:en": "Bharat Petroleum",
          "operator": "Bharat Petroleum"
        }
      },
      {
        "type": "node",
        "id": 5337407335,
        "lat": 13.0316813,
        "lon": 80.2411933,
        "tags": {
          "name": "\u0ba8\u0ba8\u0bcd\u0ba4\u0ba9\u0bae\u0bcd",
          "name:en": "Nandanam",
          "name:ta": "\u0ba8\u0ba8\u0bcd\u0ba4\u0ba9\u0bae\u0bcd",
          "network": "Chennai Metro",
          "note": "Contributors are requested to not edit the \"network\" and the \"operator\" tags. (2023/11/08)",
          "operator": "Chennai Metro Rail Limited",
          "public_transport": "stop_position",
          "railway": "stop",
          "station": "subway",
          "subway": "yes"
        }
      },
      {
        "type": "node",
        "id": 5337407339,
        "lat": 13.0368085,
        "lon": 80.2464553,
        "tags": {
          "name": "\u0ba4\u0bc7\u0ba9\u0bbe\u0bae\u0bcd\u0baa\u0bc7\u0b9f\u0bcd\u0b9f\u0bc8",
          "name:en": "Teynampet",
          "name:ta": "\u0ba4\u0bc7\u0ba9\u0bbe\u0bae\u0bcd\u0baa\u0bc7\u0b9f\u0bcd\u0b9f\u0bc8",
          "network": "Chennai Metro",
          "note": "Contributors are requested to not edit the \"network\" and the \"operator\" tags. (2023/11/08)",
          "operator": "Chennai Metro Rail Limited",
          "public_transport": "stop_position",
          "railway": "stop",
          "station": "subway",
          "subway": "yes"
        }
      },
      {
        "type": "node",
        "id": 5337407346,
        "lat": 13.0585155,
        "lon": 80.2587833,
        "tags": {
          "name": "\u0b86\u0baf\u0bbf\u0bb0\u0bae\u0bcd \u0bb5\u0bbf\u0bb3\u0b95\u0bcd\u0b95\u0bc1",
          "name:en": "Thousand Lights",
          "name:ml": "\u0d06\u0d2f\u0d3f\u0d30\u0d02 \u0d35\u0d3f\u0d33\u0d15\u0d4d\u0d15\u0d4d",
          "name:ta": "\u0b86\u0baf\u0bbf\u0bb0\u0bae\u0bcd \u0bb5\u0bbf\u0bb3\u0b95\u0bcd\u0b95\u0bc1",
          "network": "Chennai Metro",
          "network:wikidata": "Q1639576",
          "note": "Contributors are requested to not edit the \"network\" and the \"operator\" tags. (2023/11/08)",
          "operator": "Chennai Metro Rail Limited",
          "public_transport": "station",
          "railway": "station",
          "railway:ref": "STL",
          "ref": "STL",
          "station": "subway",
          "subway": "yes",
          "wikidata": "Q62005544",
          "wikipedia": "en:Thousand Lights metro station"
        }
      },
      {
        "type": "node",
        "id": 5337407347,
        "lat": 13.0458615,
        "lon": 80.2483032,
        "tags": {
          "name": "\u0b8f \u0b9c\u0bbf \u0b9f\u0bbf.\u0b8e\u0bae\u0bcd.\u0b8e\u0bb8\u0bcd",
          "name:en": "AG-DMS",
          "name:ta": "\u0b8f \u0b9c\u0bbf \u0b9f\u0bbf.\u0b8e\u0bae\u0bcd.\u0b8e\u0bb8\u0bcd",
          "network": "Chennai Metro",
          "note": "Contributors are requested to not edit the \"network\" and the \"operator\" tags. (2023/11/08)",
          "operator": "Chennai Metro Rail Limited",
          "public_transport": "stop_position",
          "railway": "stop",
          "station": "subway",
          "subway": "yes"
        }
      },
      {
        "type": "node",
        "id": 5533743121,
        "lat": 13.0534243,
        "lon": 80.2348497,
        "tags": {
          "amenity": "theatre",
          "name:en": "mm preview  theatre"
        }
      },
      {
        "type": "node",
        "id": 5760196458,
        "lat": 13.0458703,
        "lon": 80.2482567,
        "tags": {
          "name": "\u0b8f \u0b9c\u0bbf \u0b9f\u0bbf.\u0b8e\u0bae\u0bcd.\u0b8e\u0bb8\u0bcd",
          "name:en": "AG-DMS",
          "name:ta": "\u0b8f \u0b9c\u0bbf \u0b9f\u0bbf.\u0b8e\u0bae\u0bcd.\u0b8e\u0bb8\u0bcd",
          "network": "Chennai Metro",
          "note": "Contributors are requested to not edit the \"network\" and the \"operator\" tags. (2023/11/08)",
          "operator": "Chennai Metro Rail Limited",
          "public_transport": "stop_position",
          "railway": "stop",
          "station": "subway",
          "subway": "yes"
        }
      },
      {
        "type": "node",
        "id": 5760196466,
        "lat": 13.0368236,
        "lon": 80.2463929,
        "tags": {
          "name": "\u0ba4\u0bc7\u0ba9\u0bbe\u0bae\u0bcd\u0baa\u0bc7\u0b9f\u0bcd\u0b9f\u0bc8",
          "name:en": "Teynampet",
          "name:ta": "\u0ba4\u0bc7\u0ba9\u0bbe\u0bae\u0bcd\u0baa\u0bc7\u0b9f\u0bcd\u0b9f\u0bc8",
          "network": "Chennai Metro",
          "note": "Contributors are requested to not edit the \"network\" and the \"operator\" tags. (2023/11/08)",
          "operator": "Chennai Metro Rail Limited",
          "public_transport": "stop_position",
          "railway": "stop",
          "station": "subway",
          "subway": "yes"
        }
      },
      {
        "type": "node",
        "id": 5760196474,
        "lat": 13.0317226,
        "lon": 80.2411721,
        "tags": {
          "name": "\u0ba8\u0ba8\u0bcd\u0ba4\u0ba9\u0bae\u0bcd",
          "name:en": "Nandanam",
          "name:ta": "\u0ba8\u0ba8\u0bcd\u0ba4\u0ba9\u0bae\u0bcd",
          "network": "Chennai Metro",
          "note": "Contributors are requested to not edit the \"network\" and the \"operator\" tags. (2023/11/08)",
          "operator": "Chennai Metro Rail Limited",
          "public_transport": "stop_position",
          "railway": "stop",
          "station": "subway",
          "subway": "yes"
        }
      },
      {
        "type": "node",
        "id": 6285857242,
        "lat": 13.0368003,
        "lon": 80.2464194,
        "tags": {
          "name": "\u0ba4\u0bc7\u0ba9\u0bbe\u0bae\u0bcd\u0baa\u0bc7\u0b9f\u0bcd\u0b9f\u0bc8",
          "name:en": "Teynampet",
          "name:ml": "\u0d24\u0d47\u0d28\u0d3e\u0d02\u0d2a\u0d47\u0d1f\u0d4d\u0d1f",
          "name:ta": "\u0ba4\u0bc7\u0ba9\u0bbe\u0bae\u0bcd\u0baa\u0bc7\u0b9f\u0bcd\u0b9f\u0bc8",
          "network": "Chennai Metro",
          "network:wikidata": "Q1639576",
          "note": "Contributors are requested to not edit the \"network\" and the \"operator\" tags. (2023/11/08)",
          "operator": "Chennai Metro Rail Limited",
          "public_transport": "station",
          "railway": "station",
          "railway:ref": "STE",
          "ref": "STE",
          "station": "subway",
          "subway": "yes",
          "wikidata": "Q55634996",
          "wikipedia": "en:Teynampet metro station"
        }
      },
      {
        "type": "node",
        "id": 6285857243,
        "lat": 13.0317092,
        "lon": 80.2411957,
        "tags": {
          "alt_name": "Chamiers Road",
          "local_ref": "Chamiers Road",
          "name": "\u0ba8\u0ba8\u0bcd\u0ba4\u0ba9\u0bae\u0bcd",
          "name:en": "Nandanam",
          "name:ml": "\u0d28\u0d28\u0d4d\u0d26\u0d28\u0d02",
          "name:ta": "\u0ba8\u0ba8\u0bcd\u0ba4\u0ba9\u0bae\u0bcd",
          "network": "Chennai Metro",
          "network:wikidata": "Q1639576",
          "note": "Contributors are requested to not edit the \"network\" and the \"operator\" tags. (2023/11/08)",
          "operator": "Chennai Metro Rail Limited",
          "public_transport": "station",
          "railway": "station",
          "railway:ref": "SCR",
          "ref": "SCR",
          "station": "subway",
          "subway": "yes",
          "wikidata": "Q55624607",
          "wikipedia": "en:Nandanam metro station"
        }
      },
      {
        "type": "node",
        "id": 6285857249,
        "lat": 13.0458852,
        "lon": 80.2482846,
        "tags": {
          "alt_name": "Gemini",
          "alt_name:ta": "\u0b9c\u0bc6\u0bae\u0bbf\u0ba9\u0bbf",
          "local_ref": "Gemini",
          "name": "\u0b8f \u0b9c\u0bbf \u0b9f\u0bbf.\u0b8e\u0bae\u0bcd.\u0b8e\u0bb8\u0bcd",
          "name:en": "AG-DMS",
          "name:ml": "\u0d0e\u0d1c\u0d3f - \u0d21\u0d3f\u0d0e\u0d02\u0d0e\u0d38\u0d4d",
          "name:ta": "\u0b8f \u0b9c\u0bbf \u0b9f\u0bbf.\u0b8e\u0bae\u0bcd.\u0b8e\u0bb8\u0bcd",
          "network": "Chennai Metro",
          "note": "Contributors are requested to not edit the \"network\" and the \"operator\" tags. (2023/11/08)",
          "operator": "Chennai Metro Rail Limited",
          "public_transport": "station",
          "railway": "station",
          "railway:ref": "SGM",
          "ref": "SGM",
          "station": "subway",
          "subway": "yes",
          "wikidata": "Q55602937",
          "wikipedia": "en:AG-DMS metro station"
        }
      },
      {
        "type": "node",
        "id": 6297571205,
        "lat": 13.0474821,
        "lon": 80.2450469,
        "tags": {
          "addr:street": "T Nagar, Chennai",
          "amenity": "cinema",
          "name": "AGS Cinemas (T Nagar)"
        }
      },
      {
        "type": "node",
        "id": 6397600722,
        "lat": 13.0586219,
        "lon": 80.2587519,
        "tags": {
          "name": "\u0b86\u0baf\u0bbf\u0bb0\u0bae\u0bcd \u0bb5\u0bbf\u0bb3\u0b95\u0bcd\u0b95\u0bc1",
          "name:en": "Thousand Lights",
          "name:ta": "\u0b86\u0baf\u0bbf\u0bb0\u0bae\u0bcd \u0bb5\u0bbf\u0bb3\u0b95\u0bcd\u0b95\u0bc1",
          "network": "Chennai Metro",
          "note": "Contributors are requested to not edit the \"network\" and the \"operator\" tags. (2023/11/08)",
          "operator": "Chennai Metro Rail Limited",
          "public_transport": "stop_position",
          "railway": "stop",
          "station": "subway",
          "subway": "yes"
        }
      },
      {
        "type": "node",
        "id": 6397600723,
        "lat": 13.0585796,
        "lon": 80.258773,
        "tags": {
          "name": "\u0b86\u0baf\u0bbf\u0bb0\u0bae\u0bcd \u0bb5\u0bbf\u0bb3\u0b95\u0bcd\u0b95\u0bc1",
          "name:en": "Thousand Lights",
          "name:ta": "\u0b86\u0baf\u0bbf\u0bb0\u0bae\u0bcd \u0bb5\u0bbf\u0bb3\u0b95\u0bcd\u0b95\u0bc1",
          "network": "Chennai Metro",
          "note": "Contributors are requested to not edit the \"network\" and the \"operator\" tags. (2023/11/08)",
          "operator": "Chennai Metro Rail Limited",
          "public_transport": "stop_position",
          "railway": "stop",
          "station": "subway",
          "subway": "yes"
        }
      },
      {
        "type": "node",
        "id": 6497450229,
        "lat": 13.0342592,
        "lon": 80.230369,
        "tags": {
          "bus": "yes",
          "name": "Thyagaraya Nagar Bus Terminus",
          "public_transport": "stop_position"
        }
      },
      {
        "type": "node",
        "id": 6812229988,
        "lat": 13.0427698,
        "lon": 80.2600474,
        "tags": {
          "addr:street": "CIT Colony 2nd Main Road",
          "amenity": "theatre",
          "name": "Kavikko Convention Centre",
          "name:ta": "\u0b95\u0bb5\u0bbf\u0b95\u0bcd\u0b95\u0bcb \u0b85\u0bb0\u0b99\u0bcd\u0b95\u0bae\u0bcd"
        }
      },
      {
        "type": "node",
        "id": 7136010485,
        "lat": 13.0504559,
        "lon": 80.2564197,
        "tags": {
          "amenity": "fuel",
          "brand": "Bharat Petroleum",
          "brand:wikidata": "Q854826",
          "brand:wikipedia": "en:Bharat Petroleum",
          "name": "Bharat Petroleum Petrol Station",
          "name:en": "Bharat Petroleum Petrol Station"
        }
      },
      {
        "type": "node",
        "id": 7155445050,
        "lat": 13.0592866,
        "lon": 80.2595105,
        "tags": {
          "bus": "yes",
          "name": "TVS",
          "network": "MTC",
          "operator": "Metropolitan Transport Corporation (Chennai) Ltd.",
          "public_transport": "stop_position"
        }
      },
      {
        "type": "node",
        "id": 7252470680,
        "lat": 13.0584278,
        "lon": 80.2425658,
        "tags": {
          "amenity": "fuel"
        }
      },
      {
        "type": "node",
        "id": 7255733766,
        "lat": 13.0558552,
        "lon": 80.2487664,
        "tags": {
          "amenity": "fuel",
          "brand": "Indian Oil",
          "brand:wikidata": "Q1289348",
          "brand:wikipedia": "en:Indian Oil Corporation",
          "name": "IndianOil"
        }
      },
      {
        "type": "node",
        "id": 7272343104,
        "lat": 13.052993,
        "lon": 80.2513143,
        "tags": {
          "amenity": "theatre",
          "name": "Rani Seethai Hall"
        }
      },
      {
        "type": "node",
        "id": 7412932327,
        "lat": 13.0390729,
        "lon": 80.2575264,
        "tags": {
          "bus": "yes",
          "name": "CIT colony",
          "operator": "MTC",
          "public_transport": "stop_position"
        }
      },
      {
        "type": "node",
        "id": 7412932328,
        "lat": 13.0356479,
        "lon": 80.2548953,
        "tags": {
          "bus": "yes",
          "highway": "bus_stop",
          "name": "\u0b86\u0bb4\u0bcd\u0bb5\u0bbe\u0bb0\u0bcd \u0baa\u0bc7\u0b9f\u0bcd\u0b9f\u0bc8",
          "name:en": "Alwarpet",
          "name:ta": "\u0b86\u0bb4\u0bcd\u0bb5\u0bbe\u0bb0\u0bcd \u0baa\u0bc7\u0b9f\u0bcd\u0b9f\u0bc8",
          "operator": "MTC",
          "public_transport": "stop_position"
        }
      },
      {
        "type": "node",
        "id": 7794528406,
        "lat": 13.0646628,
        "lon": 80.2347752,
        "tags": {
          "bus": "yes",
          "name": "Loyola College",
          "network": "MTC",
          "operator": "Metropolitan Transport Corporation (Chennai) Ltd.",
          "public_transport": "stop_position"
        }
      },
      {
        "type": "node",
        "id": 9404253944,
        "lat": 13.0287697,
        "lon": 80.2608444,
        "tags": {
          "name": "Mandaveli",
          "name:en": "Mandaveli",
          "name:ta": "\u0bae\u0ba8\u0bcd\u0ba4\u0bc8\u0bb5\u0bc6\u0bb3\u0bbf",
          "operator": "Southern Railway",
          "public_transport": "stop_position",
          "railway": "stop",
          "train": "yes"
        }
      },
      {
        "type": "node",
        "id": 9504474769,
        "lat": 13.0546591,
        "lon": 80.2643733,
        "tags": {
          "bus": "yes",
          "name": "Royapettah Hospital",
          "public_transport": "stop_position"
        }
      },
      {
        "type": "node",
        "id": 9504474770,
        "lat": 13.057129,
        "lon": 80.2648726,
        "tags": {
          "bus": "yes",
          "name": "Woodlands Theatre / Wesley school",
          "public_transport": "stop_position"
        }
      },
      {
        "type": "node",
        "id": 9819010214,
        "lat": 13.0463989,
        "lon": 80.2395728,
        "tags": {
          "bus": "yes",
          "name": "Thirumalai Pillai Road",
          "network": "MTC",
          "operator": "Metropolitan Transport Corporation (Chennai) Ltd.",
          "public_transport": "stop_position"
        }
      },
      {
        "type": "node",
        "id": 9886468232,
        "lat": 13.0446919,
        "lon": 80.2630242,
        "tags": {
          "bus": "yes",
          "name": "New Woodlands",
          "public_transport": "stop_position"
        }
      },
      {
        "type": "node",
        "id": 9894539908,
        "lat": 13.0409609,
        "lon": 80.2405902,
        "tags": {
          "bus": "yes",
          "name": "Power House",
          "network": "MTC",
          "operator": "Metropolitan Transport Corporation (Chennai) Ltd.",
          "public_transport": "stop_position"
        }
      },
      {
        "type": "node",
        "id": 9920647758,
        "lat": 13.0345423,
        "lon": 80.2300791,
        "tags": {
          "bus": "yes",
          "name": "Thyagaraya Nagar Bus Terminus",
          "network": "MTC",
          "operator": "Metropolitan Transport Corporation (Chennai) Ltd.",
          "public_transport": "stop_position"
        }
      },
      {
        "type": "node",
        "id": 9921938875,
        "lat": 13.0376257,
        "lon": 80.2676931,
        "tags": {
          "bus": "yes",
          "name": "Luz Corner",
          "name:en": "Luz Corner",
          "public_transport": "stop_position"
        }
      },
      {
        "type": "node",
        "id": 9921938876,
        "lat": 13.0417805,
        "lon": 80.2682611,
        "tags": {
          "bus": "yes",
          "name": "Valluvar Statue",
          "name:en": "Valluvar Statue",
          "public_transport": "stop_position"
        }
      },
      {
        "type": "node",
        "id": 9921938877,
        "lat": 13.0446682,
        "lon": 80.2653247,
        "tags": {
          "bus": "yes",
          "name": "AVM Rajeshwari Thirumana Mandapam",
          "public_transport": "stop_position"
        }
      },
      {
        "type": "node",
        "id": 9921938878,
        "lat": 13.0447817,
        "lon": 80.2631832,
        "tags": {
          "bus": "yes",
          "name": "New Woodlands",
          "public_transport": "stop_position"
        }
      },
      {
        "type": "node",
        "id": 9921938879,
        "lat": 13.0461759,
        "lon": 80.2565485,
        "tags": {
          "bus": "yes",
          "name": "Chola Sheraton",
          "public_transport": "stop_position"
        }
      },
      {
        "type": "node",
        "id": 9921938880,
        "lat": 13.0480058,
        "lon": 80.2540431,
        "tags": {
          "bus": "yes",
          "name": "Stella Maris College",
          "public_transport": "stop_position"
        }
      },
      {
        "type": "node",
        "id": 9921938881,
        "lat": 13.050467,
        "lon": 80.2526125,
        "tags": {
          "bus": "yes",
          "name": "Semozhi Poonga",
          "public_transport": "stop_position"
        }
      },
      {
        "type": "node",
        "id": 9921938882,
        "lat": 13.0514535,
        "lon": 80.2518364,
        "tags": {
          "bus": "yes",
          "name": "Woodlands",
          "public_transport": "stop_position"
        }
      },
      {
        "type": "node",
        "id": 9921938883,
        "lat": 13.0549423,
        "lon": 80.2496076,
        "tags": {
          "bus": "yes",
          "name": "Gemini",
          "public_transport": "stop_position"
        }
      },
      {
        "type": "node",
        "id": 9921938884,
        "lat": 13.0573111,
        "lon": 80.2486595,
        "tags": {
          "bus": "yes",
          "name": "Income Tax Offrice",
          "public_transport": "stop_position"
        }
      },
      {
        "type": "node",
        "id": 9921938885,
        "lat": 13.0594268,
        "lon": 80.2479477,
        "tags": {
          "bus": "yes",
          "name": "Taj Hotel",
          "public_transport": "stop_position"
        }
      },
      {
        "type": "node",
        "id": 9921938886,
        "lat": 13.060609,
        "lon": 80.2474532,
        "tags": {
          "bus": "yes",
          "fixme": "Check name",
          "name": "Sterling",
          "public_transport": "stop_position"
        }
      },
      {
        "type": "node",
        "id": 9921938887,
        "lat": 13.0666679,
        "lon": 80.247881,
        "tags": {
          "bus": "yes",
          "name": "Haddows Road",
          "public_transport": "stop_position"
        }
      },
      {
        "type": "node",
        "id": 9921938888,
        "lat": 13.0671202,
        "lon": 80.2479099,
        "tags": {
          "bus": "yes",
          "name": "College Road",
          "public_transport": "stop_position"
        }
      },
      {
        "type": "node",
        "id": 9921938889,
        "lat": 13.0677731,
        "lon": 80.2465395,
        "tags": {
          "bus": "yes",
          "name": "College Road",
          "public_transport": "stop_position"
        }
      },
      {
        "type": "node",
        "id": 10036499344,
        "lat": 13.0317217,
        "lon": 80.2419487,
        "tags": {
          "amenity": "charging_station"
        }
      },
      {
        "type": "node",
        "id": 10316739373,
        "lat": 13.0543034,
        "lon": 80.2496574,
        "tags": {
          "amenity": "fuel",
          "brand": "Bharat Petroleum",
          "brand:wikidata": "Q854826",
          "name": "Bharat Petroleum"
        }
      },
      {
        "type": "node",
        "id": 11495909640,
        "lat": 13.0566431,
        "lon": 80.2644059,
        "tags": {
          "amenity": "fuel",
          "brand": "Indian Oil",
          "brand:wikidata": "Q1289348",
          "name": "Indian Oil"
        }
      },
      {
        "type": "node",
        "id": 11703420865,
        "lat": 13.0579367,
        "lon": 80.2581872,
        "tags": {
          "addr:city": "Chennai",
          "addr:district": "Chennai",
          "addr:housenumber": "189",
          "addr:postcode": "600002",
          "addr:street": "Mount Rd, Anna Salai, Express Estate, Triplicane",
          "name": "Thousand Lights Metro Rail Station - \u0ba4\u0bcc\u0b9a\u0ba9\u0bcd\u0b9f\u0bcd \u0bb2\u0bc8\u0b9f\u0bcd\u0bb8\u0bcd \u0bae\u0bc6\u0b9f\u0bcd\u0bb0\u0bcb \u0bb0\u0baf\u0bbf\u0bb2\u0bcd \u0bb8\u0bcd\u0b9f\u0bc7\u0bb7\u0ba9\u0bcd",
          "public_transport": "station",
          "railway": "station",
          "station": "subway",
          "subway": "yes"
        }
      },
      {
        "type": "node",
        "id": 11782138276,
        "lat": 13.0540708,
        "lon": 80.2344005,
        "tags": {
          "amenity": "fuel",
          "brand": "Hindustan Petroleum",
          "brand:wikidata": "Q1619375",
          "name": "HP",
          "official_name": "Hindustan Petroleum"
        }
      },
      {
        "type": "node",
        "id": 11835030329,
        "lat": 13.0458131,
        "lon": 80.2398536,
        "tags": {
          "amenity": "fuel",
          "description": "LPG",
          "fuel:lpg": "yes",
          "name": "Go Gas"
        }
      },
      {
        "type": "node",
        "id": 11924536821,
        "lat": 13.0369443,
        "lon": 80.2670478,
        "tags": {
          "bus": "yes",
          "name": "Luz Corner",
          "name:en": "Luz Corner",
          "public_transport": "stop_position"
        }
      }
    ]
  }
}