{
  "pois_1km": {
    "version": 0.6,
    "generator": "Overpass API 0.7.62.8 e802775f",
    "osm3s": {
      "timestamp_osm_base": "2025-09-06T09:01:36Z",
      "copyright": "The data included in this document is from www.openstreetmap.org. The data is made available under ODbL."
    },
    "elements": [
      {
        "type": "node",
        "id": 5304609406,
        "lat": 12.849078,
        "lon": 80.2284838,
        "tags": {
          "amenity": "atm",
          "brand": "ICICI Bank",
          "brand:en": "ICICI Bank",
          "brand:wikidata": "Q1653258",
          "currency:INR": "yes",
          "drive_through": "no",
          "indoor": "yes",
          "note": "Contributors are requested to not edit the \"brand\", \"brand:en\", \"brand:wikidata\", \"operator\", \"operator:en\" and \"operator:wikidata\" tags. (2025/03/03)",
          "opening_hours": "24/7",
          "operator": "ICICI Bank",
          "operator:en": "ICICI Bank",
          "operator:wikidata": "Q1653258",
          "short_name": "ICICI"
        }
      },
      {
        "type": "node",
        "id": 6026311317,
        "lat": 12.8429293,
        "lon": 80.226607,
        "tags": {
          "amenity": "restaurant",
          "name": "Spicy Route"
        }
      },
      {
        "type": "node",
        "id": 9591980532,
        "lat": 12.8447188,
        "lon": 80.2263777,
        "tags": {
          "addr:housenumber": "No. 1/279",
          "addr:street": "Rajiv Gandhi Street, Navalur, OMR",
          "amenity": "restaurant",
          "name": "Arusuvai Cafe",
          "opening_hours": "Mo-Su 06:00-23:00",
          "phone": "9080724768"
        }
      },
      {
        "type": "node",
        "id": 9591995528,
        "lat": 12.8461109,
        "lon": 80.2263842,
        "tags": {
          "addr:city": "Chennai",
          "addr:housenumber": "1/79",
          "addr:postcode": "600130",
          "addr:street": "Rajiv Gandhi Salai",
          "addr:suburb": "Navalur",
          "amenity": "hospital",
          "description": "24 hours service",
          "healthcare": "hospital",
          "name": "S B Hospital",
          "opening_hours": "Mo-Su 12:00-00:00",
          "phone": "+919514577333",
          "website": "https://s-b-hospital.business.site/"
        }
      },
      {
        "type": "node",
        "id": 9592072300,
        "lat": 12.8521866,
        "lon": 80.2261114,
        "tags": {
          "addr:housenumber": "1A",
          "addr:street": "Rajiv Gandhi Street, Navalur, OMR",
          "amenity": "restaurant",
          "email": "sangeethafoods@sangeethaveg.com",
          "name": "Sangeetha Veg Restaurant",
          "phone": "+91 7397333111",
          "website": "https://www.sangeethaveg.com/"
        }
      },
      {
        "type": "node",
        "id": 11079072040,
        "lat": 12.8460979,
        "lon": 80.2263843,
        "tags": {
          "addr:city": "Chennai",
          "addr:housenumber": "1/259",
          "addr:postcode": "600130",
          "addr:street": "Rajiv Gandhi Salai",
          "amenity": "pharmacy",
          "healthcare": "pharmacy",
          "name": "Shree Andal Medical"
        }
      }
    ]
  },
  "pois_2_5km": {
    "version": 0.6,
    "generator": "Overpass API 0.7.62.8 e802775f",
    "osm3s": {
      "timestamp_osm_base": "2025-09-06T09:01:36Z",
      "copyright": "The data included in this document is from www.openstreetmap.org. The data is made available under ODbL."
    },
    "elements": [
      {
        "type": "node",
        "id": 415874078,
        "lat": 12.8479789,
        "lon": 80.2399205,
        "tags": {
          "amenity": "cinema",
          "name": "Mayajaal Multiplex",
          "wheelchair": "limited"
        }
      },
      {
        "type": "node",
        "id": 2676979364,
        "lat": 12.8504483,
        "lon": 80.2261648,
        "tags": {
          "addr:full": "No.33, Old Mahabalipuram Road, Navalur, Chennai \u2013 600130.",
          "addr:housename": "AGS Cinemas",
          "amenity": "theatre",
          "description": "Established in 2006 by three brothers, AGS is a successful and ever filled multiplex chain in India. Equipped with the latest technologies like Dolby Digital Surround Sound & Atmos and 4K resolution picture quality and with a capacity to hold 3800 people",
          "name": "AGS Cinemas, Vivira Mall",
          "opening_hours": "Mo-Su 10:00-23:00",
          "phone": "044 4016 7777",
          "website": "https://viviramall.com/ags/"
        }
      },
      {
        "type": "node",
        "id": 10036356518,
        "lat": 12.8400275,
        "lon": 80.2273055,
        "tags": {
          "amenity": "fuel",
          "brand": "Hindustan Petroleum",
          "brand:wikidata": "Q1619375",
          "name": "HP",
          "official_name": "Hindustan Petroleum"
        }
      },
      {
        "type": "node",
        "id": 11804254205,
        "lat": 12.8711605,
        "lon": 80.2207909,
        "tags": {
          "amenity": "theatre",
          "image": "https://www.sathyabama.ac.in/sites/default/files/inline-images/Pharmacy%20Journal%20Club.jpg",
          "name": "Open Air Theatre",
          "theatre:type": "amphi"
        }
      },
      {
        "type": "node",
        "id": 11821379636,
        "lat": 12.867248,
        "lon": 80.226778,
        "tags": {
          "amenity": "fuel",
          "brand": "Shell",
          "brand:wikidata": "Q110716465",
          "name": "Shell"
        }
      },
      {
        "type": "node",
        "id": 12470987701,
        "lat": 12.8670551,
        "lon": 80.2429093,
        "tags": {
          "amenity": "fuel",
          "brand": "Hindustan Petroleum",
          "brand:wikidata": "Q1619375",
          "name": "Hindustan Petroleum",
          "official_name": "Hindustan Petroleum"
        }
      },
      {
        "type": "node",
        "id": 12995641935,
        "lat": 12.8307949,
        "lon": 80.2239543,
        "tags": {
          "amenity": "fuel",
          "brand": "Hindustan Petroleum",
          "brand:wikidata": "Q1619375",
          "name": "HP",
          "official_name": "Hindustan Petroleum"
        }
      }
    ]
  }
}