{
  "pois_1km": {
    "version": 0.6,
    "generator": "Overpass API 0.7.62.8 e802775f",
    "osm3s": {
      "timestamp_osm_base": "2025-09-06T09:15:01Z",
      "copyright": "The data included in this document is from www.openstreetmap.org. The data is made available under ODbL."
    },
    "elements": [
      {
        "type": "node",
        "id": 248643383,
        "lat": 13.0391457,
        "lon": 80.2572843,
        "tags": {
          "amenity": "atm",
          "brand": "HDFC Bank",
          "brand:en": "HDFC Bank",
          "brand:wikidata": "Q631047",
          "brand:wikipedia": "en:HDFC Bank",
          "currency:INR": "yes",
          "drive_through": "no",
          "indoor": "yes",
          "name": "HDFC Bank",
          "note": "Contributors are requested to not edit the \"brand\", \"brand:en\", \"brand:wikidata\", \"operator\", \"operator:en\" and \"operator:wikidata\" tags. (2025/03/03)",
          "opening_hours": "24/7",
          "operator": "HDFC Bank",
          "operator:en": "HDFC Bank",
          "operator:wikidata": "Q631047",
          "operator:wikipedia": "en:HDFC Bank",
          "short_name": "HDFC"
        }
      },
      {
        "type": "node",
        "id": 301725737,
        "lat": 13.0392554,
        "lon": 80.2556216,
        "tags": {
          "amenity": "restaurant",
          "name": "Tangerine"
        }
      },
      {
        "type": "node",
        "id": 301725738,
        "lat": 13.0421141,
        "lon": 80.2558968,
        "tags": {
          "amenity": "restaurant",
          "name": "Ente Keralam"
        }
      },
      {
        "type": "node",
        "id": 301725751,
        "lat": 13.0383186,
        "lon": 80.2566708,
        "tags": {
          "amenity": "restaurant",
          "created_by": "Potlatch 0.10f",
          "name": "Suriyas"
        }
      },
      {
        "type": "node",
        "id": 301738744,
        "lat": 13.0410323,
        "lon": 80.2578002,
        "tags": {
          "amenity": "bank",
          "atm": "yes",
          "brand": "State Bank of India",
          "brand:wikidata": "Q1340361",
          "brand:wikipedia": "en:State Bank of India",
          "name": "State Bank of India",
          "name:en": "State Bank of India",
          "short_name": "SBI"
        }
      },
      {
        "type": "node",
        "id": 301816128,
        "lat": 13.0409358,
        "lon": 80.2586973,
        "tags": {
          "amenity": "restaurant",
          "created_by": "Potlatch 0.10f",
          "name": "Midnight Express"
        }
      },
      {
        "type": "node",
        "id": 339125302,
        "lat": 13.0384527,
        "lon": 80.2567668,
        "tags": {
          "amenity": "restaurant",
          "created_by": "Potlatch 0.10f",
          "name": "Okadeys"
        }
      },
      {
        "type": "node",
        "id": 339129150,
        "lat": 13.0386164,
        "lon": 80.2583324,
        "tags": {
          "amenity": "bank",
          "atm": "yes",
          "created_by": "Potlatch 0.10f",
          "name": "Tamil Nadu Co-op Bank"
        }
      },
      {
        "type": "node",
        "id": 339129986,
        "lat": 13.0451417,
        "lon": 80.2592552,
        "tags": {
          "amenity": "restaurant",
          "name": "Amaravati",
          "name:hi": "\u0905\u092e\u0930\u093e\u0935\u0924\u0940",
          "name:pa": "\u0a05\u0a2e\u0a30\u0a3e\u0a35\u0a24\u0a40"
        }
      },
      {
        "type": "node",
        "id": 339130052,
        "lat": 13.0468725,
        "lon": 80.2605083,
        "tags": {
          "amenity": "restaurant",
          "created_by": "Potlatch 0.10f",
          "name": "Kalpaka"
        }
      },
      {
        "type": "node",
        "id": 354944093,
        "lat": 13.0453726,
        "lon": 80.2669904,
        "tags": {
          "alt_name": "Haldiram",
          "amenity": "fast_food",
          "brand": "Haldiram's",
          "brand:wikidata": "Q17054442",
          "brand:wikipedia": "en:Haldiram's",
          "cuisine": "indian",
          "name": "Haldiram's",
          "takeaway": "yes"
        }
      },
      {
        "type": "node",
        "id": 357189520,
        "lat": 13.0458581,
        "lon": 80.258173,
        "tags": {
          "amenity": "restaurant",
          "name": "Don Pepe, Copper Chimney"
        }
      },
      {
        "type": "node",
        "id": 386890401,
        "lat": 13.044333,
        "lon": 80.2644982,
        "tags": {
          "amenity": "fast_food",
          "brand": "Saravana Bhavan",
          "brand:wikidata": "Q3528082",
          "brand:wikipedia": "en:Saravana Bhavan",
          "cuisine": "indian;south_indian",
          "food": "veg",
          "name": "Saravana Bhavan",
          "official_name": "Hotel Saravana Bhavan",
          "takeaway": "yes"
        }
      },
      {
        "type": "node",
        "id": 386890403,
        "lat": 13.0443358,
        "lon": 80.2637655,
        "tags": {
          "addr:city": "Chennai",
          "addr:postcode": "600004",
          "addr:street": "P. S. Sivasamy Street",
          "name": "Waitrose",
          "name:ta": "\u0bb5\u0bc6\u0baf\u0bbf\u0b9f\u0bcd\u0bb0\u0bcb\u0bb8\u0bcd",
          "organic": "yes",
          "shop": "supermarket",
          "website": "https://www.waitrose.com/"
        }
      },
      {
        "type": "node",
        "id": 386890406,
        "lat": 13.0387921,
        "lon": 80.2570003,
        "tags": {
          "amenity": "restaurant",
          "created_by": "Potlatch 0.10f",
          "name": "Parvathi Bhavan"
        }
      },
      {
        "type": "node",
        "id": 407982613,
        "lat": 13.037322,
        "lon": 80.2643178,
        "tags": {
          "amenity": "bank",
          "brand": "State Bank of India",
          "brand:wikidata": "Q1340361",
          "brand:wikipedia": "en:State Bank of India",
          "name": "State Bank of India",
          "short_name": "SBI",
          "website": "https://www.sbi.co.in"
        }
      },
      {
        "type": "node",
        "id": 1080219492,
        "lat": 13.0448865,
        "lon": 80.2644988,
        "tags": {
          "amenity": "restaurant",
          "name": "Karaikudi",
          "name:hi": "\u0915\u0930\u093e\u0908\u0915\u0941\u0921\u093c\u0940",
          "name:pa": "\u0a15\u0a30\u0a3e\u0a08\u0a15\u0a41\u0a5c\u0a40"
        }
      },
      {
        "type": "node",
        "id": 1990726878,
        "lat": 13.0428655,
        "lon": 80.259599,
        "tags": {
          "amenity": "restaurant",
          "cuisine": "ice_cream",
          "name": "Freeze Zone"
        }
      },
      {
        "type": "node",
        "id": 1990726883,
        "lat": 13.0471789,
        "lon": 80.2546452,
        "tags": {
          "amenity": "restaurant",
          "cuisine": "indian",
          "name": "Gangotree"
        }
      },
      {
        "type": "node",
        "id": 3118828098,
        "lat": 13.0388272,
        "lon": 80.2592138,
        "tags": {
          "name": "Wait Rose",
          "note": "I believe this isn't by the guys who run London's waitrose.",
          "shop": "supermarket"
        }
      },
      {
        "type": "node",
        "id": 3118864398,
        "lat": 13.0381705,
        "lon": 80.2573008,
        "tags": {
          "addr:city": "Chennai",
          "addr:housenumber": "#199",
          "addr:postcode": "60004",
          "addr:street": "Luz Church Road",
          "amenity": "hospital",
          "emergency": "yes",
          "healthcare": "hospital",
          "name": "Kauvery Hospital",
          "note": "The building is shared by Lifestyle Home Center and the hospital",
          "phone": "+914440006000",
          "website": "https://www.kauveryhospital.com/",
          "wheelchair": "yes"
        }
      },
      {
        "type": "node",
        "id": 3686383394,
        "lat": 13.0445136,
        "lon": 80.2614492,
        "tags": {
          "addr:city": "Chennai",
          "addr:housenumber": "20/3",
          "addr:postcode": "600004",
          "addr:street": "Bishop Wallers East Avenue",
          "amenity": "restaurant",
          "cuisine": "international",
          "delivery": "no",
          "name": "Kaidhi Kitchen",
          "takeaway": "yes"
        }
      },
      {
        "type": "node",
        "id": 4175851801,
        "lat": 13.0449084,
        "lon": 80.2611408,
        "tags": {
          "amenity": "restaurant",
          "cuisine": "regional",
          "smoking": "no",
          "takeaway": "yes"
        }
      },
      {
        "type": "node",
        "id": 4335525920,
        "lat": 13.0387128,
        "lon": 80.2624199,
        "tags": {
          "amenity": "restaurant",
          "cuisine": "indian",
          "diet:vegetarian": "yes",
          "name": "Isabel Hospital Canteen",
          "takeaway": "yes",
          "wheelchair": "yes"
        }
      },
      {
        "type": "node",
        "id": 4335525921,
        "lat": 13.03836,
        "lon": 80.2621637,
        "tags": {
          "amenity": "cafe",
          "cuisine": "Vending Machine",
          "name": "Tea Shop",
          "wheelchair": "yes"
        }
      },
      {
        "type": "node",
        "id": 4518445190,
        "lat": 13.0428997,
        "lon": 80.2594227,
        "tags": {
          "addr:housenumber": "222",
          "addr:postcode": "600018",
          "addr:street": "TTK Road",
          "amenity": "bank",
          "atm": "yes",
          "brand": "Andhra Bank",
          "brand:wikidata": "Q2003476",
          "brand:wikipedia": "en:Andhra Bank",
          "name": "Andhra Bank",
          "name:en": "Vodafone office for SIMs for foreigners;Andhra Bank",
          "office": "telecommunication",
          "opening_hours": "Mo-Sa 10:00-20:00",
          "operator": "Vodafone",
          "website": "https://www.andhrabank.in"
        }
      },
      {
        "type": "node",
        "id": 4519166489,
        "lat": 13.0447604,
        "lon": 80.2639172,
        "tags": {
          "amenity": "atm",
          "brand": "Axis Bank",
          "brand:wikidata": "Q2003549",
          "name": "Axis Bank",
          "opening_hours": "24/7",
          "operator": "Axis Bank",
          "operator:wikidata": "Q2003549"
        }
      },
      {
        "type": "node",
        "id": 4694760593,
        "lat": 13.0444847,
        "lon": 80.2597051,
        "tags": {
          "amenity": "bank",
          "name:en": "T.t.k road"
        }
      },
      {
        "type": "node",
        "id": 4740021911,
        "lat": 13.0396163,
        "lon": 80.2630412,
        "tags": {
          "amenity": "pharmacy",
          "healthcare": "pharmacy",
          "name": "Gokul XRAY"
        }
      },
      {
        "type": "node",
        "id": 4812799921,
        "lat": 13.04479,
        "lon": 80.2617411,
        "tags": {
          "amenity": "restaurant",
          "name:en": "Tovo"
        }
      },
      {
        "type": "node",
        "id": 4926677002,
        "lat": 13.0392735,
        "lon": 80.2608433,
        "tags": {
          "addr:city": "chennai",
          "addr:postcode": "600004",
          "addr:street": "Musiri Subramanium Road",
          "amenity": "bank",
          "atm": "no",
          "name": "ICICI Wealth Management Bank",
          "not:brand:wikidata": "Q1653258",
          "opening_hours": "Mo-Sa 09:30-18:00",
          "wheelchair": "yes"
        }
      },
      {
        "type": "node",
        "id": 5649401606,
        "lat": 13.0454715,
        "lon": 80.2615074,
        "tags": {
          "addr:housenumber": "65/5",
          "addr:street": "Dr Radhakrishnan Salai",
          "amenity": "cafe",
          "cuisine": "breakfast;coffee_shop",
          "diet:vegan": "yes",
          "name:en": "Brew Room",
          "website": "https://saverahotel.com/"
        }
      },
      {
        "type": "node",
        "id": 6533255085,
        "lat": 13.0407718,
        "lon": 80.2642763,
        "tags": {
          "addr:street": "Sivaswamy Salai",
          "amenity": "bank",
          "name:en": "Union bank of india, mylapore branch",
          "opening_hours": "Mo-Su 10:00-15:00"
        }
      },
      {
        "type": "node",
        "id": 6760756963,
        "lat": 13.044745,
        "lon": 80.2669641,
        "tags": {
          "amenity": "atm",
          "brand": "Punjab National Bank",
          "brand:wikidata": "Q2743499",
          "brand:wikipedia": "en:Punjab National Bank",
          "name": "Punjab National Bank",
          "operator": "Punjab National Bank",
          "operator:wikidata": "Q2743499",
          "operator:wikipedia": "en:Punjab National Bank"
        }
      },
      {
        "type": "node",
        "id": 6914937681,
        "lat": 13.0422887,
        "lon": 80.2665116,
        "tags": {
          "addr:district": "Chennai",
          "addr:full": "#37,Oid#17Bheemasena Garden St., Mylapore",
          "addr:postcode": "600004",
          "addr:state": "Tamil Nadu",
          "amenity": "clinic",
          "healthcare": "clinic",
          "name": "Sri Sayee Poly Clinic",
          "source": "OpenGovernmentData"
        }
      },
      {
        "type": "node",
        "id": 6926049968,
        "lat": 13.0490968,
        "lon": 80.2576214,
        "tags": {
          "addr:district": "Chennai",
          "addr:full": "No.1, 1st Street,Gopalapuram",
          "addr:postcode": "600086",
          "addr:state": "Tamil Nadu",
          "amenity": "clinic",
          "health_facility:type": "dispensary",
          "healthcare": "centre",
          "name": "Gopalapuram Dispensary",
          "operator:type": "government",
          "source": "OpenGovernmentData",
          "website": "http://nb.bsf.gov.in/CGHS%20DIspenseries.pdf"
        }
      },
      {
        "type": "node",
        "id": 6927380447,
        "lat": 13.0476871,
        "lon": 80.2646568,
        "tags": {
          "addr:district": "Chennai",
          "addr:full": "No.159 Lloyds Road , Siva .Ent Hospital Building",
          "addr:postcode": "600014",
          "addr:state": "Tamil Nadu",
          "amenity": "hospital",
          "healthcare": "hospital",
          "name": "Santhigiri Ayurveda and Siddha Hospital, Chennai",
          "source": "OpenGovernmentData"
        }
      },
      {
        "type": "node",
        "id": 6928384708,
        "lat": 13.0407013,
        "lon": 80.2618016,
        "tags": {
          "addr:district": "Chennai",
          "addr:full": "No. 03 2nd Link Street. Cit Colony",
          "addr:postcode": "600004",
          "addr:state": "Tamil Nadu",
          "amenity": "hospital",
          "healthcare": "hospital",
          "name": "Dr. K Ravi Eye Care",
          "source": "OpenGovernmentData"
        }
      },
      {
        "type": "node",
        "id": 6929398895,
        "lat": 13.0382607,
        "lon": 80.2582785,
        "tags": {
          "addr:block": "Chennai Zone Ix",
          "addr:district": "Chennai",
          "addr:full": "No:33, Near Alwarpet Signal, Mylapore, Desikan Road",
          "addr:postcode": "600004",
          "addr:state": "Tamil Nadu",
          "amenity": "hospital",
          "healthcare": "hospital",
          "name": "Trinity Acute Care Hospital - Chennai",
          "source": "OpenGovernmentData"
        }
      },
      {
        "type": "node",
        "id": 6930163175,
        "lat": 13.0376198,
        "lon": 80.2619625,
        "tags": {
          "addr:district": "Chennai",
          "addr:full": "148, Luz Church Road Mylapore",
          "addr:postcode": "600004",
          "addr:state": "Tamil Nadu",
          "amenity": "hospital",
          "healthcare": "hospital",
          "name": "Chennai Meenakshi Multispeciality Hospital Ltd",
          "source": "OpenGovernmentData"
        }
      },
      {
        "type": "node",
        "id": 6932103990,
        "lat": 13.0390564,
        "lon": 80.2568208,
        "tags": {
          "addr:district": "Chennai",
          "addr:full": "#81, Ttk Road,Alwarpet",
          "addr:postcode": "600018",
          "addr:state": "Tamil Nadu",
          "amenity": "hospital",
          "healthcare": "hospital",
          "name": "Kauvery Hospital, Chennai",
          "source": "OpenGovernmentData"
        }
      },
      {
        "type": "node",
        "id": 6932938089,
        "lat": 13.0435469,
        "lon": 80.2636349,
        "tags": {
          "addr:district": "Chennai",
          "addr:full": "No.15, P.S.Sivasamy Salai Road, P.S.Sivasamy Salai",
          "addr:postcode": "600004",
          "addr:state": "Tamil Nadu",
          "addr:subdistrict": "Mylapore",
          "amenity": "hospital",
          "email": "admin@lakshahospitals.com; stemcell@lakshahospitals.com",
          "healthcare": "hospital",
          "name": "Laksha Hospital",
          "operator:type": "private",
          "source": "OpenGovernmentData",
          "website": "http://www.lakshahospitals.com/"
        }
      },
      {
        "type": "node",
        "id": 6933833923,
        "lat": 13.0535505,
        "lon": 80.2576911,
        "tags": {
          "addr:block": "Chennai Zone Ix",
          "addr:district": "Chennai",
          "addr:full": "32/12, Next To Gopalapuram Boys High School Play Ground, Gopalapuram, Conran Smith Road",
          "addr:postcode": "600086",
          "addr:state": "Tamil Nadu",
          "amenity": "hospital",
          "healthcare": "hospital",
          "name": "Life Medhospital",
          "source": "OpenGovernmentData"
        }
      },
      {
        "type": "node",
        "id": 6936339822,
        "lat": 13.0441485,
        "lon": 80.2637114,
        "tags": {
          "addr:district": "Chennai",
          "addr:full": "3, P S Sivasami Salai Mylapore",
          "addr:postcode": "600004",
          "addr:state": "Tamil Nadu",
          "addr:subdistrict": "Mylapore",
          "amenity": "hospital",
          "email": "avmmerf@sify.com;ravikv@mail.com",
          "healthcare": "hospital",
          "name": "Avm Medical Ent Research Foundation Pvt Ltd",
          "operator:type": "private",
          "source": "OpenGovernmentData",
          "website": "https://avmmerf.in/contact.php"
        }
      },
      {
        "type": "node",
        "id": 6937594692,
        "lat": 13.0489087,
        "lon": 80.2645898,
        "tags": {
          "addr:district": "Chennai",
          "addr:full": "241,Royupattak High Road",
          "addr:postcode": "600014",
          "addr:state": "Tamil Nadu",
          "amenity": "clinic",
          "healthcare": "clinic",
          "name": "Seethapathy Nursing Home",
          "source": "OpenGovernmentData"
        }
      },
      {
        "type": "node",
        "id": 7077905785,
        "lat": 13.0453027,
        "lon": 80.2588466,
        "tags": {
          "amenity": "bank",
          "brand": "HSBC",
          "brand:wikidata": "Q190464",
          "brand:wikipedia": "en:HSBC",
          "name": "HSBC",
          "name:en": "Hsbc"
        }
      },
      {
        "type": "node",
        "id": 7080292287,
        "lat": 13.0458647,
        "lon": 80.2580654,
        "tags": {
          "amenity": "restaurant",
          "cuisine": "spanish;tapas",
          "name:en": "Sera The Tapas"
        }
      },
      {
        "type": "node",
        "id": 7136008686,
        "lat": 13.0495809,
        "lon": 80.2572224,
        "tags": {
          "amenity": "cafe",
          "brand": "Cafe Coffee Day",
          "brand:wikidata": "Q5017235",
          "brand:wikipedia": "en:Caf\u00e9 Coffee Day",
          "cuisine": "coffee_shop",
          "name": "Cafe Coffee Day",
          "name:en": "Cafe coffee day",
          "takeaway": "yes"
        }
      },
      {
        "type": "node",
        "id": 7136029885,
        "lat": 13.0497796,
        "lon": 80.2573042,
        "tags": {
          "amenity": "bank",
          "brand": "HDFC Bank",
          "brand:wikidata": "Q631047",
          "brand:wikipedia": "en:HDFC Bank",
          "name": "HDFC Bank",
          "name:en": "HDFC bank",
          "short_name": "HDFC"
        }
      },
      {
        "type": "node",
        "id": 7136031885,
        "lat": 13.0491472,
        "lon": 80.2584202,
        "tags": {
          "amenity": "bank",
          "brand": "Axis Bank",
          "brand:wikidata": "Q2003549",
          "brand:wikipedia": "en:Axis Bank",
          "name": "Axis Bank",
          "name:en": "Axis bank"
        }
      },
      {
        "type": "node",
        "id": 7181711080,
        "lat": 13.0476113,
        "lon": 80.2650954,
        "tags": {
          "addr:district": "Chennai",
          "addr:full": "194, Old No 289, Lloyd's Road, Avvai Sanmugam Salai, Royapettah",
          "addr:postcode": "600014",
          "addr:state": "Tamil Nadu",
          "amenity": "hospital",
          "healthcare": "hospital",
          "name": "Vinayagam Laser Hospital, Chennai",
          "source": "OpenGovernmentData"
        }
      },
      {
        "type": "node",
        "id": 7181722911,
        "lat": 13.0432085,
        "lon": 80.259169,
        "tags": {
          "addr:district": "Chennai",
          "addr:full": "No-19, Cathedral Road",
          "addr:postcode": "600086",
          "addr:state": "Tamil Nadu",
          "addr:subdistrict": "Gopala Puram",
          "amenity": "hospital",
          "email": "dragarwal@vsnl.com",
          "healthcare": "hospital",
          "name": "Dr.Agarwal's Eye Hospital Ltd., Gopala Puram",
          "operator": "Dr. Agarwal's Eye Hospital",
          "operator:type": "private",
          "operator:wikidata": "Q17052044",
          "source": "OpenGovernmentData",
          "website": "https://www.dragarwal.com/"
        }
      },
      {
        "type": "node",
        "id": 7252333394,
        "lat": 13.0487028,
        "lon": 80.2645448,
        "tags": {
          "addr:block": "Chennai Zone Ix",
          "addr:district": "Chennai",
          "addr:full": "128/241, (Opp) To Provident Fund Office, Royapettah",
          "addr:postcode": "600014",
          "addr:state": "Tamil Nadu",
          "amenity": "hospital",
          "healthcare": "hospital",
          "name": "Seethapathy clinic & Hospital",
          "source": "OpenGovernmentData",
          "wikidata": "Q61932788"
        }
      },
      {
        "type": "node",
        "id": 7257421601,
        "lat": 13.038362,
        "lon": 80.2572398,
        "tags": {
          "addr:block": "Chennai Zone Ix",
          "addr:district": "Chennai",
          "addr:full": "Cit Colony, Alwarpet",
          "addr:postcode": "600018",
          "addr:state": "Tamil Nadu",
          "amenity": "hospital",
          "healthcare": "hospital",
          "name": "Kavery Hospital",
          "source": "OpenGovernmentData"
        }
      },
      {
        "type": "node",
        "id": 7823415019,
        "lat": 13.0380247,
        "lon": 80.2637952,
        "tags": {
          "addr:district": "Chennai",
          "addr:full": "Mylapore, Chennai",
          "addr:postcode": "600004",
          "addr:state": "Tamil Nadu",
          "amenity": "doctors",
          "healthcare": "doctor",
          "name": "Dr. S. Nambi",
          "source": "Local Knowledge"
        }
      },
      {
        "type": "node",
        "id": 7823415033,
        "lat": 13.041251,
        "lon": 80.267354,
        "tags": {
          "addr:district": "Chennai",
          "addr:full": "Mylapore, Chennai",
          "addr:postcode": "600004",
          "addr:state": "Tamil Nadu",
          "amenity": "hospital",
          "healthcare": "hospital",
          "name": "Accu Hospital",
          "source": "Local Knowledge"
        }
      },
      {
        "type": "node",
        "id": 7823415046,
        "lat": 13.042349,
        "lon": 80.2664963,
        "tags": {
          "addr:district": "Chennai",
          "addr:full": "Mylapore, Chennai",
          "addr:postcode": "600004",
          "addr:state": "Tamil Nadu",
          "amenity": "clinic",
          "healthcare": "clinic",
          "name": "Sai Clinic",
          "source": "Local Knowledge"
        }
      },
      {
        "type": "node",
        "id": 7823415048,
        "lat": 13.0385371,
        "lon": 80.2581929,
        "tags": {
          "addr:district": "Chennai",
          "addr:full": "Mylapore, Chennai",
          "addr:postcode": "600004",
          "addr:state": "Tamil Nadu",
          "amenity": "hospital",
          "healthcare": "hospital",
          "name": "Triveni Hospital",
          "source": "Local Knowledge"
        }
      },
      {
        "type": "node",
        "id": 7823415061,
        "lat": 13.0454703,
        "lon": 80.2668731,
        "tags": {
          "addr:district": "Chennai",
          "addr:full": "Royapettah, Chennai",
          "addr:postcode": "600004",
          "addr:state": "Tamil Nadu",
          "amenity": "hospital",
          "healthcare": "hospital",
          "name": "Orthomed Hospital",
          "source": "Local Knowledge"
        }
      },
      {
        "type": "node",
        "id": 7823415068,
        "lat": 13.0373228,
        "lon": 80.2612955,
        "tags": {
          "addr:district": "Chennai",
          "addr:full": "Bhaskarapuram, Mylapore, Chennai",
          "addr:postcode": "600004",
          "addr:state": "Tamil Nadu",
          "amenity": "clinic",
          "name": "Sri Sai Speciality Clinic",
          "source": "Local Knowledge"
        }
      },
      {
        "type": "node",
        "id": 7823415075,
        "lat": 13.0386219,
        "lon": 80.261844,
        "tags": {
          "addr:district": "Chennai",
          "addr:full": "Oliver Road, Chennai",
          "addr:postcode": "600004",
          "addr:state": "Tamil Nadu",
          "amenity": "doctors",
          "healthcare": "doctor",
          "name": "Dr. M G Rajamanickam",
          "source": "Local Knowledge"
        }
      },
      {
        "type": "node",
        "id": 7823415077,
        "lat": 13.037733,
        "lon": 80.261316,
        "tags": {
          "addr:district": "Chennai",
          "addr:full": "Mylapore, Chennai",
          "addr:postcode": "600004",
          "addr:state": "Tamil Nadu",
          "amenity": "doctors",
          "healthcare": "doctor",
          "name": "Dr. Niraj Joshi",
          "source": "Local Knowledge"
        }
      },
      {
        "type": "node",
        "id": 7823415080,
        "lat": 13.039965,
        "lon": 80.267691,
        "tags": {
          "addr:district": "Chennai",
          "addr:full": "Mylapore, Chennai",
          "addr:postcode": "600004",
          "addr:state": "Tamil Nadu",
          "amenity": "doctors",
          "healthcare": "doctor",
          "name": "Dr. G. Venkatakrishnan",
          "source": "Local Knowledge"
        }
      },
      {
        "type": "node",
        "id": 7823415083,
        "lat": 13.0436591,
        "lon": 80.2639406,
        "tags": {
          "addr:district": "Chennai",
          "addr:postcode": "600004",
          "addr:state": "Tamil Nadu",
          "amenity": "hospital",
          "healthcare": "hospital",
          "name": "Saanvi Fertility Centre Urology and Stone Centre",
          "source": "Local Knowledge"
        }
      },
      {
        "type": "node",
        "id": 7823415085,
        "lat": 13.0428357,
        "lon": 80.2620778,
        "tags": {
          "addr:district": "Chennai",
          "addr:full": "Mylapore, Chennai",
          "addr:postcode": "600004",
          "addr:state": "Tamil Nadu",
          "amenity": "clinic",
          "healthcare": "clinic",
          "name": "Chennai Urology Clinic",
          "source": "Local Knowledge"
        }
      },
      {
        "type": "node",
        "id": 7823415086,
        "lat": 13.0383898,
        "lon": 80.2639336,
        "tags": {
          "addr:district": "Chennai",
          "addr:full": "Karpagambal Nagar, Mylapore, Chennai",
          "addr:postcode": "600004",
          "addr:state": "Tamil Nadu",
          "amenity": "doctors",
          "healthcare": "doctor",
          "name": "Dr. Sridher",
          "source": "Local Knowledge"
        }
      },
      {
        "type": "node",
        "id": 7823415092,
        "lat": 13.042006,
        "lon": 80.2665,
        "tags": {
          "addr:district": "Chennai",
          "addr:full": "Mylapore, Chennai",
          "addr:postcode": "600004",
          "addr:state": "Tamil Nadu",
          "amenity": "clinic",
          "healthcare": "clinic",
          "name": "Vijayganga Speciality Care",
          "source": "Local Knowledge"
        }
      },
      {
        "type": "node",
        "id": 7953366985,
        "lat": 13.0474258,
        "lon": 80.268615,
        "tags": {
          "addr:housenumber": "430",
          "addr:street": "VM St",
          "name": "\u0b85\u0bae\u0bc1\u0ba4\u0bae\u0bcd \u0baa\u0bb2\u0bcd\u0baa\u0bca\u0bb0\u0bc1\u0bb3\u0bcd \u0b9a\u0bbf\u0bb1\u0baa\u0bcd\u0baa\u0bc1 \u0b85\u0b99\u0bcd\u0b95\u0bbe\u0b9f\u0bbf(\u0b9a\u0bc1\u0baf \u0b9a\u0bc7\u0bb5\u0bc8 \u0baa\u0bbf\u0bb0\u0bbf\u0bb5\u0bc1)",
          "name:en": "Amudham Super Market",
          "opening_hours": "Mo-Su 08:00-20:00",
          "shop": "supermarket"
        }
      },
      {
        "type": "node",
        "id": 8639416762,
        "lat": 13.0475624,
        "lon": 80.2544953,
        "tags": {
          "amenity": "restaurant",
          "cuisine": "mediterranean",
          "name": "Tamu Tamu"
        }
      },
      {
        "type": "node",
        "id": 9418560326,
        "lat": 13.0482571,
        "lon": 80.2534355,
        "tags": {
          "addr:city": "Chennai",
          "addr:housenumber": "1",
          "addr:postcode": "600086",
          "addr:street": "Muthiah Street",
          "amenity": "restaurant",
          "cuisine": "indian",
          "diet:vegetarian": "yes",
          "name": "Ek Aur Paratha"
        }
      },
      {
        "type": "node",
        "id": 10173145886,
        "lat": 13.0453571,
        "lon": 80.2555131,
        "tags": {
          "amenity": "restaurant",
          "name": "Manjal"
        }
      },
      {
        "type": "node",
        "id": 11164628005,
        "lat": 13.03985,
        "lon": 80.2578026,
        "tags": {
          "addr:street": "TTK Road",
          "amenity": "restaurant",
          "name:en": "Royal Sandwich",
          "opening_hours": "Mo-Su 09:00-21:00"
        }
      },
      {
        "type": "node",
        "id": 11299210270,
        "lat": 13.0543059,
        "lon": 80.2610245,
        "tags": {
          "amenity": "cafe",
          "name:fr": "Brownie Heaven"
        }
      },
      {
        "type": "node",
        "id": 11832498559,
        "lat": 13.0376928,
        "lon": 80.2642431,
        "tags": {
          "amenity": "restaurant",
          "name": "Bombaysthan"
        }
      }
    ]
  },
  "pois_2_5km": {
    "version": 0.6,
    "generator": "Overpass API 0.7.62.8 e802775f",
    "osm3s": {
      "timestamp_osm_base": "2025-09-06T09:15:01Z",
      "copyright": "The data included in this document is from www.openstreetmap.org. The data is made available under ODbL."
    },
    "elements": [
      {
        "type": "node",
        "id": 186741980,
        "lat": 13.0578527,
        "lon": 80.2428163,
        "tags": {
          "bus": "yes",
          "name": "Nungambakkam Police Station",
          "network": "MTC",
          "operator": "Metropolitan Transport Corporation (Chennai) Ltd.",
          "public_transport": "stop_position"
        }
      },
      {
        "type": "node",
        "id": 243041613,
        "lat": 13.0543596,
        "lon": 80.2806267,
        "tags": {
          "name": "Thiruvallikeni",
          "public_transport": "stop_position",
          "railway": "stop",
          "train": "yes"
        }
      },
      {
        "type": "node",
        "id": 243041642,
        "lat": 13.0401367,
        "lon": 80.2697176,
        "tags": {
          "name": "Mundakakanni Amman Koil",
          "name:en": "Mundakakanni Amman Koil",
          "public_transport": "stop_position",
          "railway": "stop",
          "train": "yes"
        }
      },
      {
        "type": "node",
        "id": 243060332,
        "lat": 13.0334336,
        "lon": 80.2679457,
        "tags": {
          "amenity": "bus_station",
          "bus": "yes",
          "check_date": "2024-05-22",
          "name": "\u0bae\u0bc8\u0bb2\u0bbe\u0baa\u0bcd\u0baa\u0bc2\u0bb0\u0bcd",
          "name:en": "Mylapore Bus Terminus",
          "name:ta": "\u0bae\u0bc8\u0bb2\u0bbe\u0baa\u0bcd\u0baa\u0bc2\u0bb0\u0bcd",
          "public_transport": "station"
        }
      },
      {
        "type": "node",
        "id": 243064594,
        "lat": 13.0608709,
        "lon": 80.2652174,
        "tags": {
          "bus": "yes",
          "name": "Express avenue",
          "network": "MTC",
          "public_transport": "stop_position"
        }
      },
      {
        "type": "node",
        "id": 247678427,
        "lat": 13.0347683,
        "lon": 80.2669792,
        "tags": {
          "name": "Thirumayilai",
          "name:en": "Thirumayilai",
          "public_transport": "stop_position",
          "railway": "stop",
          "train": "yes"
        }
      },
      {
        "type": "node",
        "id": 247691544,
        "lat": 13.0512112,
        "lon": 80.2778386,
        "tags": {
          "amenity": "bus_station",
          "bus": "yes",
          "name": "V House Bus Terminus",
          "public_transport": "station"
        }
      },
      {
        "type": "node",
        "id": 248343706,
        "lat": 13.0368733,
        "lon": 80.2555597,
        "tags": {
          "amenity": "fuel",
          "brand": "Hindustan Petroleum",
          "brand:wikidata": "Q1619375",
          "brand:wikipedia": "en:Hindustan Petroleum",
          "name": "HP",
          "official_name": "Hindustan Petroleum"
        }
      },
      {
        "type": "node",
        "id": 248343893,
        "lat": 13.037841,
        "lon": 80.2562967,
        "tags": {
          "amenity": "fuel",
          "created_by": "Potlatch 0.10f",
          "name": "IOC"
        }
      },
      {
        "type": "node",
        "id": 248344281,
        "lat": 13.0378885,
        "lon": 80.2569506,
        "tags": {
          "amenity": "fuel",
          "brand": "BP",
          "brand:wikidata": "Q152057",
          "brand:wikipedia": "en:BP",
          "name": "BP"
        }
      },
      {
        "type": "node",
        "id": 259662367,
        "lat": 13.0524541,
        "lon": 80.26382,
        "tags": {
          "bus": "yes",
          "name": "Royapettah Police Station",
          "public_transport": "stop_position"
        }
      },
      {
        "type": "node",
        "id": 262666364,
        "lat": 13.0505637,
        "lon": 80.2796983,
        "tags": {
          "bus": "yes",
          "highway": "bus_stop",
          "public_transport": "stop_position"
        }
      },
      {
        "type": "node",
        "id": 301736165,
        "lat": 13.0387535,
        "lon": 80.2588492,
        "tags": {
          "bus": "yes",
          "highway": "bus_stop",
          "name": "\u0b86\u0bb4\u0bcd\u0bb5\u0bbe\u0bb0\u0bcd \u0baa\u0bc7\u0b9f\u0bcd\u0b9f\u0bc8",
          "name:en": "Alwarpet",
          "name:ta": "\u0b86\u0bb4\u0bcd\u0bb5\u0bbe\u0bb0\u0bcd \u0baa\u0bc7\u0b9f\u0bcd\u0b9f\u0bc8",
          "public_transport": "stop_position",
          "shelter": "yes"
        }
      },
      {
        "type": "node",
        "id": 301738571,
        "lat": 13.0391669,
        "lon": 80.2573351,
        "tags": {
          "amenity": "fuel",
          "brand": "Hindustan Petroleum",
          "brand:wikidata": "Q1619375",
          "brand:wikipedia": "en:Hindustan Petroleum",
          "name": "HP",
          "official_name": "Hindustan Petroleum"
        }
      },
      {
        "type": "node",
        "id": 301738572,
        "lat": 13.0402403,
        "lon": 80.2468562,
        "tags": {
          "amenity": "fuel",
          "brand": "Hindustan Petroleum",
          "brand:wikidata": "Q1619375",
          "brand:wikipedia": "en:Hindustan Petroleum",
          "name": "HP",
          "name:en": "HP",
          "official_name": "Hindustan Petroleum"
        }
      },
      {
        "type": "node",
        "id": 301947513,
        "lat": 13.0493343,
        "lon": 80.25305,
        "tags": {
          "amenity": "fuel"
        }
      },
      {
        "type": "node",
        "id": 308301823,
        "lat": 13.0490493,
        "lon": 80.2483265,
        "tags": {
          "amenity": "theatre",
          "name": "Kamaraj Arangam",
          "name:etymology:wikidata": "Q522048"
        }
      },
      {
        "type": "node",
        "id": 308303592,
        "lat": 13.0417163,
        "lon": 80.2494482,
        "tags": {
          "amenity": "theatre",
          "created_by": "Potlatch 0.10f",
          "name": "Anna Arivalayam",
          "name:etymology:wikidata": "Q138765"
        }
      },
      {
        "type": "node",
        "id": 308467150,
        "lat": 13.0459529,
        "lon": 80.2562406,
        "tags": {
          "amenity": "fuel"
        }
      },
      {
        "type": "node",
        "id": 308489028,
        "lat": 13.0260196,
        "lon": 80.2661174,
        "tags": {
          "amenity": "fuel",
          "check_date": "2024-05-22",
          "fuel:diesel": "yes",
          "fuel:octane_80": "yes",
          "internet_access": "no",
          "payment:cash": "yes",
          "payment:credit_cards": "yes",
          "payment:debit_cards": "yes",
          "payment:mastercard": "yes",
          "payment:upi": "yes",
          "payment:visa": "yes",
          "self_service": "no",
          "wheelchair": "yes"
        }
      },
      {
        "type": "node",
        "id": 310729808,
        "lat": 13.0445134,
        "lon": 80.2685481,
        "tags": {
          "bus": "yes",
          "highway": "bus_stop",
          "name": "Yellow Pages",
          "public_transport": "stop_position",
          "ref": "mtcstop#0626",
          "shelter": "yes"
        }
      },
      {
        "type": "node",
        "id": 313135840,
        "lat": 13.0534169,
        "lon": 80.252032,
        "tags": {
          "amenity": "fuel",
          "brand": "Hindustan Petroleum",
          "brand:wikidata": "Q1619375",
          "brand:wikipedia": "en:Hindustan Petroleum",
          "name": "HP",
          "name:en": "HP",
          "official_name": "Hindustan Petroleum"
        }
      },
      {
        "type": "node",
        "id": 313135912,
        "lat": 13.0540764,
        "lon": 80.2530457,
        "tags": {
          "amenity": "fuel",
          "created_by": "Potlatch 0.10d"
        }
      },
      {
        "type": "node",
        "id": 314688253,
        "lat": 13.0427775,
        "lon": 80.2677547,
        "tags": {
          "amenity": "fuel",
          "brand": "Hindustan Petroleum",
          "brand:wikidata": "Q1619375",
          "brand:wikipedia": "en:Hindustan Petroleum",
          "name": "HP",
          "official_name": "Hindustan Petroleum"
        }
      },
      {
        "type": "node",
        "id": 315897595,
        "lat": 13.0593418,
        "lon": 80.2657932,
        "tags": {
          "amenity": "cinema",
          "created_by": "Potlatch 0.10f",
          "name": "Melody"
        }
      },
      {
        "type": "node",
        "id": 319038955,
        "lat": 13.0421221,
        "lon": 80.2684202,
        "tags": {
          "amenity": "fuel",
          "brand": "Indian Oil",
          "brand:wikidata": "Q1289348",
          "brand:wikipedia": "en:Indian Oil Corporation",
          "check_date": "2024-05-22",
          "fuel:diesel": "yes",
          "fuel:octane_80": "yes",
          "internet_access": "no",
          "name": "Indian Oil",
          "name:en": "Indian Oil",
          "operator": "Indian Oil Corporation Ltd",
          "payment:cash": "yes",
          "payment:credit_cards": "yes",
          "payment:debit_cards": "yes",
          "payment:upi": "yes",
          "self_service": "no",
          "wheelchair": "yes"
        }
      },
      {
        "type": "node",
        "id": 343721497,
        "lat": 13.0386195,
        "lon": 80.2588399,
        "tags": {
          "bus": "yes",
          "highway": "bus_stop",
          "name": "\u0b86\u0bb4\u0bcd\u0bb5\u0bbe\u0bb0\u0bcd \u0baa\u0bc7\u0b9f\u0bcd\u0b9f\u0bc8",
          "name:en": "Alwarpet",
          "name:ta": "\u0b86\u0bb4\u0bcd\u0bb5\u0bbe\u0bb0\u0bcd \u0baa\u0bc7\u0b9f\u0bcd\u0b9f\u0bc8",
          "public_transport": "stop_position",
          "shelter": "yes"
        }
      },
      {
        "type": "node",
        "id": 365281356,
        "lat": 13.0373045,
        "lon": 80.258891,
        "tags": {
          "amenity": "theatre",
          "name": "Sivagami Petachi Auditorium"
        }
      },
      {
        "type": "node",
        "id": 378021346,
        "lat": 13.044528,
        "lon": 80.2634018,
        "tags": {
          "amenity": "fuel",
          "brand": "Indian Oil",
          "brand:wikidata": "Q1289348",
          "brand:wikipedia": "en:Indian Oil Corporation",
          "name": "Indian Oil",
          "operator": "Indian Oil"
        }
      },
      {
        "type": "node",
        "id": 378688538,
        "lat": 13.0277462,
        "lon": 80.2512876,
        "tags": {
          "addr:city": "Chennai",
          "addr:street": "Pasumpon Muthuramalinga Thevar Salai",
          "amenity": "fuel",
          "brand": "Hindustan Petroleum",
          "brand:wikidata": "Q1619375",
          "compressed_air": "yes",
          "name": "HP Petrol Bunk",
          "official_name": "Hindustan Petroleum",
          "opening_hours": "24/7"
        }
      },
      {
        "type": "node",
        "id": 386890399,
        "lat": 13.0553594,
        "lon": 80.2580847,
        "tags": {
          "amenity": "theatre",
          "name": "Sathyam Cinema"
        }
      },
      {
        "type": "node",
        "id": 416413322,
        "lat": 13.0378036,
        "lon": 80.2665431,
        "tags": {
          "amenity": "cinema",
          "check_date": "2024-05-22",
          "name": "Kamadhenu",
          "name:en": "Kamadhenu"
        }
      },
      {
        "type": "node",
        "id": 1885029649,
        "lat": 13.0421141,
        "lon": 80.259281,
        "tags": {
          "amenity": "fuel",
          "brand": "BP",
          "brand:wikidata": "Q152057",
          "brand:wikipedia": "en:BP",
          "name": "BP",
          "operator": "Thevar automobiles"
        }
      },
      {
        "type": "node",
        "id": 1975496434,
        "lat": 13.0566614,
        "lon": 80.2426317,
        "tags": {
          "bus": "yes",
          "name": "Independence Day Park",
          "network": "MTC",
          "operator": "Metropolitan Transport Corporation (Chennai) Ltd.",
          "public_transport": "stop_position"
        }
      },
      {
        "type": "node",
        "id": 2188511086,
        "lat": 13.0343967,
        "lon": 80.2680763,
        "tags": {
          "bus": "yes",
          "name": "Kapaleeshwar Temple",
          "public_transport": "stop_position"
        }
      },
      {
        "type": "node",
        "id": 2197496797,
        "lat": 13.0539962,
        "lon": 80.2422574,
        "tags": {
          "bus": "yes",
          "name": "Valluvar Kottam",
          "network": "MTC",
          "operator": "Metropolitan Transport Corporation (Chennai) Ltd.",
          "public_transport": "stop_position"
        }
      },
      {
        "type": "node",
        "id": 2440049183,
        "lat": 13.0272126,
        "lon": 80.2602969,
        "tags": {
          "name": "Mandaveli",
          "name:en": "Mandaveli",
          "name:ta": "\u0bae\u0ba8\u0bcd\u0ba4\u0bc8\u0bb5\u0bc6\u0bb3\u0bbf",
          "public_transport": "stop_position",
          "railway": "stop",
          "train": "yes"
        }
      },
      {
        "type": "node",
        "id": 2440049207,
        "lat": 13.0411205,
        "lon": 80.2703694,
        "tags": {
          "name": "Mundakakanni Amman Koil",
          "name:en": "Mundakakanni Amman Koil",
          "public_transport": "stop_position",
          "railway": "stop",
          "train": "yes"
        }
      },
      {
        "type": "node",
        "id": 2482238496,
        "lat": 13.0643044,
        "lon": 80.2586227,
        "tags": {
          "amenity": "theatre"
        }
      },
      {
        "type": "node",
        "id": 2485384468,
        "lat": 13.045805,
        "lon": 80.2693631,
        "tags": {
          "amenity": "theatre",
          "name": "L. Balasubramaniam Hall Aiobeu Swastika"
        }
      },
      {
        "type": "node",
        "id": 2486239288,
        "lat": 13.0559352,
        "lon": 80.2806044,
        "tags": {
          "internet_access": "no",
          "name": "Thiruvallikeni",
          "network": "IR",
          "operator": "SR",
          "public_transport": "station",
          "railway": "station",
          "ref": "MTCN",
          "train": "yes",
          "wikidata": "Q7785486",
          "wikipedia": "en:Thiruvallikeni railway station"
        }
      },
      {
        "type": "node",
        "id": 3216996445,
        "lat": 13.0253858,
        "lon": 80.2654342,
        "tags": {
          "bus": "yes",
          "local_ref": "IIT",
          "name": "Mandaveli Telephone Exchange",
          "public_transport": "stop_position",
          "source": "GPS"
        }
      },
      {
        "type": "node",
        "id": 3685280058,
        "lat": 13.0401531,
        "lon": 80.2400751,
        "tags": {
          "amenity": "fuel",
          "brand": "Hindustan Petroleum",
          "brand:wikidata": "Q1619375",
          "name": "HP",
          "official_name": "Hindustan Petroleum"
        }
      },
      {
        "type": "node",
        "id": 3685381587,
        "lat": 13.040274,
        "lon": 80.2423014,
        "tags": {
          "amenity": "fuel"
        }
      },
      {
        "type": "node",
        "id": 3685431628,
        "lat": 13.0291289,
        "lon": 80.2538708,
        "tags": {
          "amenity": "fuel"
        }
      },
      {
        "type": "node",
        "id": 3685563463,
        "lat": 13.0338283,
        "lon": 80.2448209,
        "tags": {
          "amenity": "fuel"
        }
      },
      {
        "type": "node",
        "id": 3685566217,
        "lat": 13.0451808,
        "lon": 80.2400027,
        "tags": {
          "amenity": "fuel"
        }
      },
      {
        "type": "node",
        "id": 3685567878,
        "lat": 13.0453689,
        "lon": 80.2404265,
        "tags": {
          "amenity": "fuel"
        }
      },
      {
        "type": "node",
        "id": 3693619427,
        "lat": 13.0587298,
        "lon": 80.263784,
        "tags": {
          "amenity": "cinema",
          "name": "Escape Cinemas"
        }
      },
      {
        "type": "node",
        "id": 4534763875,
        "lat": 13.0353467,
        "lon": 80.2674446,
        "tags": {
          "name": "Thirumayilai",
          "name:en": "Thirumayilai",
          "public_transport": "stop_position",
          "railway": "stop",
          "train": "yes"
        }
      },
      {
        "type": "node",
        "id": 5311755232,
        "lat": 13.0455374,
        "lon": 80.2769885,
        "tags": {
          "internet_access": "no",
          "name": "Light House",
          "name:ta": "\u0b95\u0bb2\u0b99\u0bcd\u0b95\u0bb0\u0bc8 \u0bb5\u0bbf\u0bb3\u0b95\u0bcd\u0b95\u0bae\u0bcd",
          "network": "IR",
          "operator": "SR",
          "public_transport": "station",
          "railway": "station",
          "ref": "MLHS",
          "train": "yes",
          "wikidata": "Q6546029",
          "wikipedia": "en:Light House railway station"
        }
      },
      {
        "type": "node",
        "id": 5311755233,
        "lat": 13.0406508,
        "lon": 80.2698818,
        "tags": {
          "internet_access": "no",
          "name": "Mundakakanni Amman Koil",
          "name:en": "Mundakakanni Amman Koil",
          "network": "IR",
          "operator": "SR",
          "public_transport": "station",
          "railway": "station",
          "ref": "MKAK",
          "train": "yes",
          "wikidata": "Q6935719",
          "wikipedia": "en:Mundagakanniamman Koil railway station"
        }
      },
      {
        "type": "node",
        "id": 5311755234,
        "lat": 13.0353976,
        "lon": 80.2675129,
        "tags": {
          "internet_access": "no",
          "name": "Thirumayilai",
          "network": "IR",
          "operator": "SR",
          "public_transport": "station",
          "railway": "station",
          "ref": "MTMY",
          "train": "yes",
          "wikidata": "Q7785353",
          "wikipedia": "en:Thirumayilai railway station"
        }
      },
      {
        "type": "node",
        "id": 5311755235,
        "lat": 13.0280931,
        "lon": 80.2606181,
        "tags": {
          "internet_access": "no",
          "name": "Mandaveli",
          "name:en": "Mandaveli",
          "name:ta": "\u0bae\u0ba8\u0bcd\u0ba4\u0bc8\u0bb5\u0bc6\u0bb3\u0bbf",
          "network": "IR",
          "operator": "SR",
          "public_transport": "station",
          "railway": "station",
          "ref": "MNDY",
          "wikidata": "Q6747921",
          "wikipedia": "en:Mandaveli railway station"
        }
      },
      {
        "type": "node",
        "id": 5337407339,
        "lat": 13.0368085,
        "lon": 80.2464553,
        "tags": {
          "name": "\u0ba4\u0bc7\u0ba9\u0bbe\u0bae\u0bcd\u0baa\u0bc7\u0b9f\u0bcd\u0b9f\u0bc8",
          "name:en": "Teynampet",
          "name:ta": "\u0ba4\u0bc7\u0ba9\u0bbe\u0bae\u0bcd\u0baa\u0bc7\u0b9f\u0bcd\u0b9f\u0bc8",
          "network": "Chennai Metro",
          "note": "Contributors are requested to not edit the \"network\" and the \"operator\" tags. (2023/11/08)",
          "operator": "Chennai Metro Rail Limited",
          "public_transport": "stop_position",
          "railway": "stop",
          "station": "subway",
          "subway": "yes"
        }
      },
      {
        "type": "node",
        "id": 5337407346,
        "lat": 13.0585155,
        "lon": 80.2587833,
        "tags": {
          "name": "\u0b86\u0baf\u0bbf\u0bb0\u0bae\u0bcd \u0bb5\u0bbf\u0bb3\u0b95\u0bcd\u0b95\u0bc1",
          "name:en": "Thousand Lights",
          "name:ml": "\u0d06\u0d2f\u0d3f\u0d30\u0d02 \u0d35\u0d3f\u0d33\u0d15\u0d4d\u0d15\u0d4d",
          "name:ta": "\u0b86\u0baf\u0bbf\u0bb0\u0bae\u0bcd \u0bb5\u0bbf\u0bb3\u0b95\u0bcd\u0b95\u0bc1",
          "network": "Chennai Metro",
          "network:wikidata": "Q1639576",
          "note": "Contributors are requested to not edit the \"network\" and the \"operator\" tags. (2023/11/08)",
          "operator": "Chennai Metro Rail Limited",
          "public_transport": "station",
          "railway": "station",
          "railway:ref": "STL",
          "ref": "STL",
          "station": "subway",
          "subway": "yes",
          "wikidata": "Q62005544",
          "wikipedia": "en:Thousand Lights metro station"
        }
      },
      {
        "type": "node",
        "id": 5337407347,
        "lat": 13.0458615,
        "lon": 80.2483032,
        "tags": {
          "name": "\u0b8f \u0b9c\u0bbf \u0b9f\u0bbf.\u0b8e\u0bae\u0bcd.\u0b8e\u0bb8\u0bcd",
          "name:en": "AG-DMS",
          "name:ta": "\u0b8f \u0b9c\u0bbf \u0b9f\u0bbf.\u0b8e\u0bae\u0bcd.\u0b8e\u0bb8\u0bcd",
          "network": "Chennai Metro",
          "note": "Contributors are requested to not edit the \"network\" and the \"operator\" tags. (2023/11/08)",
          "operator": "Chennai Metro Rail Limited",
          "public_transport": "stop_position",
          "railway": "stop",
          "station": "subway",
          "subway": "yes"
        }
      },
      {
        "type": "node",
        "id": 5337407350,
        "lat": 13.0643716,
        "lon": 80.2658465,
        "tags": {
          "name": "\u0b8e\u0bb2\u0bcd \u0b90 \u0b9a\u0bbf",
          "name:en": "LIC",
          "name:ml": "\u0d0e\u0d7d\u0d10\u0d38\u0d3f",
          "name:ta": "\u0b8e\u0bb2\u0bcd \u0b90 \u0b9a\u0bbf",
          "network": "Chennai Metro",
          "network:wikidata": "Q1639576",
          "note": "Contributors are requested to not edit the \"network\" and the \"operator\" tags. (2023/11/08)",
          "operator": "Chennai Metro Rail Limited",
          "public_transport": "station",
          "railway": "station",
          "railway:ref": "SLI",
          "ref": "SLI",
          "station": "subway",
          "subway": "yes",
          "wikidata": "Q62005418",
          "wikipedia": "en:LIC metro station"
        }
      },
      {
        "type": "node",
        "id": 5460685950,
        "lat": 13.0653877,
        "lon": 80.2676197,
        "tags": {
          "bus": "yes",
          "name": "LIC",
          "operator": "MTC",
          "public_transport": "stop_position"
        }
      },
      {
        "type": "node",
        "id": 5760196458,
        "lat": 13.0458703,
        "lon": 80.2482567,
        "tags": {
          "name": "\u0b8f \u0b9c\u0bbf \u0b9f\u0bbf.\u0b8e\u0bae\u0bcd.\u0b8e\u0bb8\u0bcd",
          "name:en": "AG-DMS",
          "name:ta": "\u0b8f \u0b9c\u0bbf \u0b9f\u0bbf.\u0b8e\u0bae\u0bcd.\u0b8e\u0bb8\u0bcd",
          "network": "Chennai Metro",
          "note": "Contributors are requested to not edit the \"network\" and the \"operator\" tags. (2023/11/08)",
          "operator": "Chennai Metro Rail Limited",
          "public_transport": "stop_position",
          "railway": "stop",
          "station": "subway",
          "subway": "yes"
        }
      },
      {
        "type": "node",
        "id": 5760196466,
        "lat": 13.0368236,
        "lon": 80.2463929,
        "tags": {
          "name": "\u0ba4\u0bc7\u0ba9\u0bbe\u0bae\u0bcd\u0baa\u0bc7\u0b9f\u0bcd\u0b9f\u0bc8",
          "name:en": "Teynampet",
          "name:ta": "\u0ba4\u0bc7\u0ba9\u0bbe\u0bae\u0bcd\u0baa\u0bc7\u0b9f\u0bcd\u0b9f\u0bc8",
          "network": "Chennai Metro",
          "note": "Contributors are requested to not edit the \"network\" and the \"operator\" tags. (2023/11/08)",
          "operator": "Chennai Metro Rail Limited",
          "public_transport": "stop_position",
          "railway": "stop",
          "station": "subway",
          "subway": "yes"
        }
      },
      {
        "type": "node",
        "id": 6285857242,
        "lat": 13.0368003,
        "lon": 80.2464194,
        "tags": {
          "name": "\u0ba4\u0bc7\u0ba9\u0bbe\u0bae\u0bcd\u0baa\u0bc7\u0b9f\u0bcd\u0b9f\u0bc8",
          "name:en": "Teynampet",
          "name:ml": "\u0d24\u0d47\u0d28\u0d3e\u0d02\u0d2a\u0d47\u0d1f\u0d4d\u0d1f",
          "name:ta": "\u0ba4\u0bc7\u0ba9\u0bbe\u0bae\u0bcd\u0baa\u0bc7\u0b9f\u0bcd\u0b9f\u0bc8",
          "network": "Chennai Metro",
          "network:wikidata": "Q1639576",
          "note": "Contributors are requested to not edit the \"network\" and the \"operator\" tags. (2023/11/08)",
          "operator": "Chennai Metro Rail Limited",
          "public_transport": "station",
          "railway": "station",
          "railway:ref": "STE",
          "ref": "STE",
          "station": "subway",
          "subway": "yes",
          "wikidata": "Q55634996",
          "wikipedia": "en:Teynampet metro station"
        }
      },
      {
        "type": "node",
        "id": 6285857249,
        "lat": 13.0458852,
        "lon": 80.2482846,
        "tags": {
          "alt_name": "Gemini",
          "alt_name:ta": "\u0b9c\u0bc6\u0bae\u0bbf\u0ba9\u0bbf",
          "local_ref": "Gemini",
          "name": "\u0b8f \u0b9c\u0bbf \u0b9f\u0bbf.\u0b8e\u0bae\u0bcd.\u0b8e\u0bb8\u0bcd",
          "name:en": "AG-DMS",
          "name:ml": "\u0d0e\u0d1c\u0d3f - \u0d21\u0d3f\u0d0e\u0d02\u0d0e\u0d38\u0d4d",
          "name:ta": "\u0b8f \u0b9c\u0bbf \u0b9f\u0bbf.\u0b8e\u0bae\u0bcd.\u0b8e\u0bb8\u0bcd",
          "network": "Chennai Metro",
          "note": "Contributors are requested to not edit the \"network\" and the \"operator\" tags. (2023/11/08)",
          "operator": "Chennai Metro Rail Limited",
          "public_transport": "station",
          "railway": "station",
          "railway:ref": "SGM",
          "ref": "SGM",
          "station": "subway",
          "subway": "yes",
          "wikidata": "Q55602937",
          "wikipedia": "en:AG-DMS metro station"
        }
      },
      {
        "type": "node",
        "id": 6297571205,
        "lat": 13.0474821,
        "lon": 80.2450469,
        "tags": {
          "addr:street": "T Nagar, Chennai",
          "amenity": "cinema",
          "name": "AGS Cinemas (T Nagar)"
        }
      },
      {
        "type": "node",
        "id": 6397600720,
        "lat": 13.0643478,
        "lon": 80.265862,
        "tags": {
          "name": "\u0b8e\u0bb2\u0bcd \u0b90 \u0b9a\u0bbf",
          "name:en": "LIC",
          "name:ta": "\u0b8e\u0bb2\u0bcd \u0b90 \u0b9a\u0bbf",
          "network": "Chennai Metro",
          "note": "Contributors are requested to not edit the \"network\" and the \"operator\" tags. (2023/11/08)",
          "operator": "Chennai Metro Rail Limited",
          "public_transport": "stop_position",
          "railway": "stop",
          "station": "subway",
          "subway": "yes"
        }
      },
      {
        "type": "node",
        "id": 6397600721,
        "lat": 13.0643999,
        "lon": 80.26583,
        "tags": {
          "name": "\u0b8e\u0bb2\u0bcd \u0b90 \u0b9a\u0bbf",
          "name:en": "LIC",
          "name:ta": "\u0b8e\u0bb2\u0bcd \u0b90 \u0b9a\u0bbf",
          "network": "Chennai Metro",
          "note": "Contributors are requested to not edit the \"network\" and the \"operator\" tags. (2023/11/08)",
          "operator": "Chennai Metro Rail Limited",
          "public_transport": "stop_position",
          "railway": "stop",
          "station": "subway",
          "subway": "yes"
        }
      },
      {
        "type": "node",
        "id": 6397600722,
        "lat": 13.0586219,
        "lon": 80.2587519,
        "tags": {
          "name": "\u0b86\u0baf\u0bbf\u0bb0\u0bae\u0bcd \u0bb5\u0bbf\u0bb3\u0b95\u0bcd\u0b95\u0bc1",
          "name:en": "Thousand Lights",
          "name:ta": "\u0b86\u0baf\u0bbf\u0bb0\u0bae\u0bcd \u0bb5\u0bbf\u0bb3\u0b95\u0bcd\u0b95\u0bc1",
          "network": "Chennai Metro",
          "note": "Contributors are requested to not edit the \"network\" and the \"operator\" tags. (2023/11/08)",
          "operator": "Chennai Metro Rail Limited",
          "public_transport": "stop_position",
          "railway": "stop",
          "station": "subway",
          "subway": "yes"
        }
      },
      {
        "type": "node",
        "id": 6397600723,
        "lat": 13.0585796,
        "lon": 80.258773,
        "tags": {
          "name": "\u0b86\u0baf\u0bbf\u0bb0\u0bae\u0bcd \u0bb5\u0bbf\u0bb3\u0b95\u0bcd\u0b95\u0bc1",
          "name:en": "Thousand Lights",
          "name:ta": "\u0b86\u0baf\u0bbf\u0bb0\u0bae\u0bcd \u0bb5\u0bbf\u0bb3\u0b95\u0bcd\u0b95\u0bc1",
          "network": "Chennai Metro",
          "note": "Contributors are requested to not edit the \"network\" and the \"operator\" tags. (2023/11/08)",
          "operator": "Chennai Metro Rail Limited",
          "public_transport": "stop_position",
          "railway": "stop",
          "station": "subway",
          "subway": "yes"
        }
      },
      {
        "type": "node",
        "id": 6812229988,
        "lat": 13.0427698,
        "lon": 80.2600474,
        "tags": {
          "addr:street": "CIT Colony 2nd Main Road",
          "amenity": "theatre",
          "name": "Kavikko Convention Centre",
          "name:ta": "\u0b95\u0bb5\u0bbf\u0b95\u0bcd\u0b95\u0bcb \u0b85\u0bb0\u0b99\u0bcd\u0b95\u0bae\u0bcd"
        }
      },
      {
        "type": "node",
        "id": 7136010485,
        "lat": 13.0504559,
        "lon": 80.2564197,
        "tags": {
          "amenity": "fuel",
          "brand": "Bharat Petroleum",
          "brand:wikidata": "Q854826",
          "brand:wikipedia": "en:Bharat Petroleum",
          "name": "Bharat Petroleum Petrol Station",
          "name:en": "Bharat Petroleum Petrol Station"
        }
      },
      {
        "type": "node",
        "id": 7155445050,
        "lat": 13.0592866,
        "lon": 80.2595105,
        "tags": {
          "bus": "yes",
          "name": "TVS",
          "network": "MTC",
          "operator": "Metropolitan Transport Corporation (Chennai) Ltd.",
          "public_transport": "stop_position"
        }
      },
      {
        "type": "node",
        "id": 7252470680,
        "lat": 13.0584278,
        "lon": 80.2425658,
        "tags": {
          "amenity": "fuel"
        }
      },
      {
        "type": "node",
        "id": 7255733766,
        "lat": 13.0558552,
        "lon": 80.2487664,
        "tags": {
          "amenity": "fuel",
          "brand": "Indian Oil",
          "brand:wikidata": "Q1289348",
          "brand:wikipedia": "en:Indian Oil Corporation",
          "name": "IndianOil"
        }
      },
      {
        "type": "node",
        "id": 7272343104,
        "lat": 13.052993,
        "lon": 80.2513143,
        "tags": {
          "amenity": "theatre",
          "name": "Rani Seethai Hall"
        }
      },
      {
        "type": "node",
        "id": 7412932327,
        "lat": 13.0390729,
        "lon": 80.2575264,
        "tags": {
          "bus": "yes",
          "name": "CIT colony",
          "operator": "MTC",
          "public_transport": "stop_position"
        }
      },
      {
        "type": "node",
        "id": 7412932328,
        "lat": 13.0356479,
        "lon": 80.2548953,
        "tags": {
          "bus": "yes",
          "highway": "bus_stop",
          "name": "\u0b86\u0bb4\u0bcd\u0bb5\u0bbe\u0bb0\u0bcd \u0baa\u0bc7\u0b9f\u0bcd\u0b9f\u0bc8",
          "name:en": "Alwarpet",
          "name:ta": "\u0b86\u0bb4\u0bcd\u0bb5\u0bbe\u0bb0\u0bcd \u0baa\u0bc7\u0b9f\u0bcd\u0b9f\u0bc8",
          "operator": "MTC",
          "public_transport": "stop_position"
        }
      },
      {
        "type": "node",
        "id": 7653024582,
        "lat": 13.0430874,
        "lon": 80.2737331,
        "tags": {
          "amenity": "cinema",
          "brand": "INOX Leisure",
          "brand:wikidata": "Q5972349",
          "brand:wikipedia": "en:INOX Leisure Limited",
          "name": "Inox",
          "payment:cash": "yes",
          "payment:credit_cards": "yes",
          "payment:debit_cards": "yes",
          "screen": "4",
          "short_name": "INOX"
        }
      },
      {
        "type": "node",
        "id": 9404253944,
        "lat": 13.0287697,
        "lon": 80.2608444,
        "tags": {
          "name": "Mandaveli",
          "name:en": "Mandaveli",
          "name:ta": "\u0bae\u0ba8\u0bcd\u0ba4\u0bc8\u0bb5\u0bc6\u0bb3\u0bbf",
          "operator": "Southern Railway",
          "public_transport": "stop_position",
          "railway": "stop",
          "train": "yes"
        }
      },
      {
        "type": "node",
        "id": 9404253945,
        "lat": 13.04582,
        "lon": 80.2769914,
        "tags": {
          "name": "Light House",
          "public_transport": "stop_position",
          "railway": "stop",
          "train": "yes"
        }
      },
      {
        "type": "node",
        "id": 9404253946,
        "lat": 13.0443521,
        "lon": 80.2765589,
        "tags": {
          "name": "Light House",
          "public_transport": "stop_position",
          "railway": "stop",
          "train": "yes"
        }
      },
      {
        "type": "node",
        "id": 9404253947,
        "lat": 13.0559321,
        "lon": 80.2805277,
        "tags": {
          "name": "Thiruvallikeni",
          "public_transport": "stop_position",
          "railway": "stop",
          "train": "yes"
        }
      },
      {
        "type": "node",
        "id": 9504474769,
        "lat": 13.0546591,
        "lon": 80.2643733,
        "tags": {
          "bus": "yes",
          "name": "Royapettah Hospital",
          "public_transport": "stop_position"
        }
      },
      {
        "type": "node",
        "id": 9504474770,
        "lat": 13.057129,
        "lon": 80.2648726,
        "tags": {
          "bus": "yes",
          "name": "Woodlands Theatre / Wesley school",
          "public_transport": "stop_position"
        }
      },
      {
        "type": "node",
        "id": 9819010214,
        "lat": 13.0463989,
        "lon": 80.2395728,
        "tags": {
          "bus": "yes",
          "name": "Thirumalai Pillai Road",
          "network": "MTC",
          "operator": "Metropolitan Transport Corporation (Chennai) Ltd.",
          "public_transport": "stop_position"
        }
      },
      {
        "type": "node",
        "id": 9886468232,
        "lat": 13.0446919,
        "lon": 80.2630242,
        "tags": {
          "bus": "yes",
          "name": "New Woodlands",
          "public_transport": "stop_position"
        }
      },
      {
        "type": "node",
        "id": 9894539908,
        "lat": 13.0409609,
        "lon": 80.2405902,
        "tags": {
          "bus": "yes",
          "name": "Power House",
          "network": "MTC",
          "operator": "Metropolitan Transport Corporation (Chennai) Ltd.",
          "public_transport": "stop_position"
        }
      },
      {
        "type": "node",
        "id": 9921938872,
        "lat": 13.0272018,
        "lon": 80.2661429,
        "tags": {
          "bus": "yes",
          "name": "Mandaveli",
          "name:en": "Mandaveli",
          "public_transport": "stop_position"
        }
      },
      {
        "type": "node",
        "id": 9921938873,
        "lat": 13.0299143,
        "lon": 80.2667084,
        "tags": {
          "bus": "yes",
          "name": "Mandaveli Market",
          "public_transport": "stop_position"
        }
      },
      {
        "type": "node",
        "id": 9921938874,
        "lat": 13.0339289,
        "lon": 80.2679807,
        "tags": {
          "bus": "yes",
          "name": "Mylapore Tank",
          "name:en": "Mylapore Tank",
          "public_transport": "stop_position"
        }
      },
      {
        "type": "node",
        "id": 9921938875,
        "lat": 13.0376257,
        "lon": 80.2676931,
        "tags": {
          "bus": "yes",
          "name": "Luz Corner",
          "name:en": "Luz Corner",
          "public_transport": "stop_position"
        }
      },
      {
        "type": "node",
        "id": 9921938876,
        "lat": 13.0417805,
        "lon": 80.2682611,
        "tags": {
          "bus": "yes",
          "name": "Valluvar Statue",
          "name:en": "Valluvar Statue",
          "public_transport": "stop_position"
        }
      },
      {
        "type": "node",
        "id": 9921938877,
        "lat": 13.0446682,
        "lon": 80.2653247,
        "tags": {
          "bus": "yes",
          "name": "AVM Rajeshwari Thirumana Mandapam",
          "public_transport": "stop_position"
        }
      },
      {
        "type": "node",
        "id": 9921938878,
        "lat": 13.0447817,
        "lon": 80.2631832,
        "tags": {
          "bus": "yes",
          "name": "New Woodlands",
          "public_transport": "stop_position"
        }
      },
      {
        "type": "node",
        "id": 9921938879,
        "lat": 13.0461759,
        "lon": 80.2565485,
        "tags": {
          "bus": "yes",
          "name": "Chola Sheraton",
          "public_transport": "stop_position"
        }
      },
      {
        "type": "node",
        "id": 9921938880,
        "lat": 13.0480058,
        "lon": 80.2540431,
        "tags": {
          "bus": "yes",
          "name": "Stella Maris College",
          "public_transport": "stop_position"
        }
      },
      {
        "type": "node",
        "id": 9921938881,
        "lat": 13.050467,
        "lon": 80.2526125,
        "tags": {
          "bus": "yes",
          "name": "Semozhi Poonga",
          "public_transport": "stop_position"
        }
      },
      {
        "type": "node",
        "id": 9921938882,
        "lat": 13.0514535,
        "lon": 80.2518364,
        "tags": {
          "bus": "yes",
          "name": "Woodlands",
          "public_transport": "stop_position"
        }
      },
      {
        "type": "node",
        "id": 9921938883,
        "lat": 13.0549423,
        "lon": 80.2496076,
        "tags": {
          "bus": "yes",
          "name": "Gemini",
          "public_transport": "stop_position"
        }
      },
      {
        "type": "node",
        "id": 9921938884,
        "lat": 13.0573111,
        "lon": 80.2486595,
        "tags": {
          "bus": "yes",
          "name": "Income Tax Offrice",
          "public_transport": "stop_position"
        }
      },
      {
        "type": "node",
        "id": 9921938885,
        "lat": 13.0594268,
        "lon": 80.2479477,
        "tags": {
          "bus": "yes",
          "name": "Taj Hotel",
          "public_transport": "stop_position"
        }
      },
      {
        "type": "node",
        "id": 9921938886,
        "lat": 13.060609,
        "lon": 80.2474532,
        "tags": {
          "bus": "yes",
          "fixme": "Check name",
          "name": "Sterling",
          "public_transport": "stop_position"
        }
      },
      {
        "type": "node",
        "id": 10316739373,
        "lat": 13.0543034,
        "lon": 80.2496574,
        "tags": {
          "amenity": "fuel",
          "brand": "Bharat Petroleum",
          "brand:wikidata": "Q854826",
          "name": "Bharat Petroleum"
        }
      },
      {
        "type": "node",
        "id": 11495909640,
        "lat": 13.0566431,
        "lon": 80.2644059,
        "tags": {
          "amenity": "fuel",
          "brand": "Indian Oil",
          "brand:wikidata": "Q1289348",
          "name": "Indian Oil"
        }
      },
      {
        "type": "node",
        "id": 11703420865,
        "lat": 13.0579367,
        "lon": 80.2581872,
        "tags": {
          "addr:city": "Chennai",
          "addr:district": "Chennai",
          "addr:housenumber": "189",
          "addr:postcode": "600002",
          "addr:street": "Mount Rd, Anna Salai, Express Estate, Triplicane",
          "name": "Thousand Lights Metro Rail Station - \u0ba4\u0bcc\u0b9a\u0ba9\u0bcd\u0b9f\u0bcd \u0bb2\u0bc8\u0b9f\u0bcd\u0bb8\u0bcd \u0bae\u0bc6\u0b9f\u0bcd\u0bb0\u0bcb \u0bb0\u0baf\u0bbf\u0bb2\u0bcd \u0bb8\u0bcd\u0b9f\u0bc7\u0bb7\u0ba9\u0bcd",
          "public_transport": "station",
          "railway": "station",
          "station": "subway",
          "subway": "yes"
        }
      },
      {
        "type": "node",
        "id": 11835030329,
        "lat": 13.0458131,
        "lon": 80.2398536,
        "tags": {
          "amenity": "fuel",
          "description": "LPG",
          "fuel:lpg": "yes",
          "name": "Go Gas"
        }
      },
      {
        "type": "node",
        "id": 11924536816,
        "lat": 13.0292564,
        "lon": 80.2661412,
        "tags": {
          "bus": "yes",
          "name": "Mandaveli Post Office",
          "name:en": "Mandaveli Post Office",
          "public_transport": "stop_position"
        }
      },
      {
        "type": "node",
        "id": 11924536817,
        "lat": 13.0265016,
        "lon": 80.2643143,
        "tags": {
          "bus": "yes",
          "fixme": "Please merge me into a nearby highway",
          "name": "Mandaveli",
          "name:en": "Mandaveli",
          "public_transport": "stop_position"
        }
      },
      {
        "type": "node",
        "id": 11924536818,
        "lat": 13.0265316,
        "lon": 80.2641813,
        "tags": {
          "bus": "yes",
          "name": "Mandaveli",
          "name:en": "Mandaveli",
          "public_transport": "stop_position"
        }
      },
      {
        "type": "node",
        "id": 11924536819,
        "lat": 13.0288106,
        "lon": 80.2639144,
        "tags": {
          "bus": "yes",
          "name": "Devanathan Street",
          "name:en": "Devanathan Street",
          "public_transport": "stop_position"
        }
      },
      {
        "type": "node",
        "id": 11924536820,
        "lat": 13.0338241,
        "lon": 80.2678824,
        "tags": {
          "bus": "yes",
          "name": "Mylapore Tank",
          "name:en": "Mylapore Tank",
          "public_transport": "stop_position"
        }
      },
      {
        "type": "node",
        "id": 11924536821,
        "lat": 13.0369443,
        "lon": 80.2670478,
        "tags": {
          "bus": "yes",
          "name": "Luz Corner",
          "name:en": "Luz Corner",
          "public_transport": "stop_position"
        }
      }
    ]
  }
}