{
  "pois_1km": {
    "version": 0.6,
    "generator": "Overpass API 0.7.62.8 e802775f",
    "osm3s": {
      "timestamp_osm_base": "2025-09-06T09:23:13Z",
      "copyright": "The data included in this document is from www.openstreetmap.org. The data is made available under ODbL."
    },
    "elements": [
      {
        "type": "node",
        "id": 393765040,
        "lat": 13.0889948,
        "lon": 80.2887576,
        "tags": {
          "addr:city": "Chennai",
          "amenity": "bank",
          "atm": "yes",
          "branch": "Chennai George Town",
          "brand": "State Bank of India",
          "brand:wikidata": "Q1340361",
          "brand:wikipedia": "en:State Bank of India",
          "name": "State Bank of India",
          "short_name": "SBI",
          "website": "https://www.sbi.co.in"
        }
      },
      {
        "type": "node",
        "id": 751934585,
        "lat": 13.0940164,
        "lon": 80.2926773,
        "tags": {
          "amenity": "fast_food",
          "brand": "Saravanaa Bhavan",
          "brand:wikidata": "Q3528082",
          "brand:wikipedia": "en:Saravana Bhavan",
          "cuisine": "indian;south_indian",
          "name": "Saravanaa Bhavan",
          "official_name": "Hotel Saravana Bhavan",
          "takeaway": "yes"
        }
      },
      {
        "type": "node",
        "id": 3490433702,
        "lat": 13.0889275,
        "lon": 80.2875692,
        "tags": {
          "amenity": "restaurant",
          "cuisine": "indian;regional",
          "name": "Sangeetha Vegetarian Restaurant"
        }
      },
      {
        "type": "node",
        "id": 4369777490,
        "lat": 13.0891115,
        "lon": 80.2878586,
        "tags": {
          "addr:street": "Armenian Street",
          "amenity": "restaurant",
          "cuisine": "indian",
          "name": "Murugan Idli Shop"
        }
      },
      {
        "type": "node",
        "id": 4519166589,
        "lat": 13.0898796,
        "lon": 80.2879365,
        "tags": {
          "amenity": "atm",
          "brand": "Federal Bank",
          "brand:wikidata": "Q2044983",
          "brand:wikipedia": "en:Federal Bank",
          "name": "Federal Bank",
          "opening_hours": "24/7",
          "operator": "Federal Bank",
          "operator:wikidata": "Q2044983",
          "operator:wikipedia": "en:Federal Bank"
        }
      },
      {
        "type": "node",
        "id": 4797659563,
        "lat": 13.0886358,
        "lon": 80.2849229,
        "tags": {
          "addr:city": "Chennai",
          "addr:postcode": "600001",
          "addr:street": "Netaji Subhash Chandra Bose Road",
          "amenity": "restaurant",
          "cuisine": "regional",
          "diet:vegetarian": "only",
          "name": "Adyar Anand Bhavan",
          "phone": "+91 44 2345 3044",
          "website": "https://www.aabsweets.in"
        }
      },
      {
        "type": "node",
        "id": 6928936138,
        "lat": 13.0991061,
        "lon": 80.2836885,
        "tags": {
          "addr:district": "Chennai",
          "addr:full": "Clinic:185,Portuguese Church Street",
          "addr:postcode": "600013",
          "addr:state": "Tamil Nadu",
          "amenity": "doctors",
          "healthcare": "doctor",
          "name": "Dr.C. Satheesh",
          "source": "OpenGovernmentData"
        }
      },
      {
        "type": "node",
        "id": 6933010456,
        "lat": 13.0970567,
        "lon": 80.2821958,
        "tags": {
          "addr:district": "Chennai",
          "addr:full": "29, Nagamani Garden Street, Seven Wells South, Near Govindappa Naicken Street end, George Town, Flower Bazar Police Station",
          "addr:postcode": "600001",
          "addr:state": "Tamil Nadu",
          "addr:subdistrict": "Nagamani",
          "amenity": "clinic",
          "email": "janakientnh@gmail.com",
          "healthcare": "clinic",
          "name": "Janaki E.N.T. Nursing Home",
          "operator:type": "private",
          "source": "OpenGovernmentData",
          "website": "http://www.janakient.com/"
        }
      },
      {
        "type": "node",
        "id": 7252333381,
        "lat": 13.0993782,
        "lon": 80.2825418,
        "tags": {
          "addr:block": "Chennai Zone V",
          "addr:district": "Chennai",
          "addr:full": "Near Seven Wells Police Station, Seven Wells, Amman Koil Street,Chennai-1",
          "addr:postcode": "600001",
          "addr:state": "Tamil Nadu",
          "amenity": "hospital",
          "healthcare": "hospital",
          "name": "Seven Wells Hospital",
          "source": "OpenGovernmentData"
        }
      },
      {
        "type": "node",
        "id": 9872385054,
        "lat": 13.0904391,
        "lon": 80.285707,
        "tags": {
          "amenity": "bank",
          "brand": "State Bank of India",
          "brand:wikidata": "Q1340361",
          "name": "State Bank of India",
          "short_name": "SBI"
        }
      },
      {
        "type": "node",
        "id": 9872527231,
        "lat": 13.0887528,
        "lon": 80.2867827,
        "tags": {
          "amenity": "restaurant",
          "name": "Hot Chips Vegetarian Restaurant"
        }
      },
      {
        "type": "node",
        "id": 9873524740,
        "lat": 13.0905203,
        "lon": 80.2877796,
        "tags": {
          "amenity": "bank",
          "brand": "Indian Overseas Bank",
          "brand:wikidata": "Q2003611",
          "name": "Indian Overseas Bank"
        }
      },
      {
        "type": "node",
        "id": 9873524741,
        "lat": 13.0904759,
        "lon": 80.2877737,
        "tags": {
          "amenity": "atm",
          "brand": "ICICI Bank",
          "brand:en": "ICICI Bank",
          "brand:wikidata": "Q1653258",
          "currency:INR": "yes",
          "drive_through": "no",
          "indoor": "yes",
          "name": "ICICI Bank",
          "note": "Contributors are requested to not edit the \"brand\", \"brand:en\", \"brand:wikidata\", \"operator\", \"operator:en\" and \"operator:wikidata\" tags. (2025/03/03)",
          "opening_hours": "24/7",
          "operator": "ICICI Bank",
          "operator:en": "ICICI Bank",
          "operator:wikidata": "Q1653258",
          "short_name": "ICICI"
        }
      },
      {
        "type": "node",
        "id": 9873524743,
        "lat": 13.0900552,
        "lon": 80.2877164,
        "tags": {
          "amenity": "atm",
          "brand": "South Indian Bank",
          "brand:wikidata": "Q2044973",
          "name": "South Indian Bank",
          "operator": "South Indian Bank",
          "operator:wikidata": "Q2044973"
        }
      },
      {
        "type": "node",
        "id": 9979919329,
        "lat": 13.088904,
        "lon": 80.286806,
        "tags": {
          "amenity": "restaurant",
          "name": "A-1 Hyderabad Biriyani & Fast Food"
        }
      },
      {
        "type": "node",
        "id": 9979919357,
        "lat": 13.0896476,
        "lon": 80.2883195,
        "tags": {
          "amenity": "bank",
          "brand": "Punjab & Sind Bank",
          "brand:en": "Punjab & Sind Bank",
          "brand:hi": "\u092a\u0902\u091c\u093e\u092c \u090f\u0923\u094d\u0921 \u0938\u093f\u0902\u0927 \u092c\u0948\u0902\u0915",
          "brand:ur": "\u067e\u0646\u062c\u0627\u0628 \u0627\u06cc\u0646\u0688 \u0633\u0646\u062f\u06be \u0628\u06cc\u0646\u06a9",
          "brand:website": "https://punjabandsindbank.co.in/",
          "brand:wikidata": "Q2003302",
          "name": "Punjab & Sind Bank",
          "name:en": "Punjab & Sind Bank",
          "name:hi": "\u092a\u0902\u091c\u093e\u092c \u090f\u0923\u094d\u0921 \u0938\u093f\u0902\u0927 \u092c\u0948\u0902\u0915",
          "name:pa": "\u0a2a\u0a70\u0a1c\u0a3e\u0a2c \u0a10\u0a02\u0a21 \u0a38\u0a3f\u0a70\u0a27 \u0a2c\u0a48\u0a02\u0a15",
          "name:ur": "\u067e\u0646\u062c\u0627\u0628 \u0627\u06cc\u0646\u0688 \u0633\u0646\u062f\u06be \u0628\u06cc\u0646\u06a9"
        }
      },
      {
        "type": "node",
        "id": 9979919362,
        "lat": 13.0892806,
        "lon": 80.2883011,
        "tags": {
          "amenity": "bank",
          "brand": "IDBI Bank",
          "brand:wikidata": "Q3633485",
          "name": "IDBI Bank",
          "short_name": "IDBI"
        }
      },
      {
        "type": "node",
        "id": 9979919435,
        "lat": 13.0897924,
        "lon": 80.2886111,
        "tags": {
          "amenity": "bank",
          "brand": "HDFC Bank",
          "brand:wikidata": "Q631047",
          "name": "HDFC Bank",
          "short_name": "HDFC"
        }
      },
      {
        "type": "node",
        "id": 9979969994,
        "lat": 13.0894323,
        "lon": 80.2896312,
        "tags": {
          "amenity": "bank",
          "brand": "Canara Bank",
          "brand:en": "Canara Bank",
          "brand:hi": "\u0915\u0947\u0928\u0930\u093e \u092c\u0948\u0902\u0915",
          "brand:kn": "\u0c95\u0cc6\u0ca8\u0cb0\u0cbe \u0cac\u0ccd\u0caf\u0cbe\u0c82\u0c95\u0ccd",
          "brand:pa": "\u0a15\u0a47\u0a28\u0a30\u0a3e \u0a2c\u0a48\u0a02\u0a15",
          "brand:pnb": "\u06a9\u06cc\u0646\u0631\u0627 \u0628\u06cc\u0646\u06a9",
          "brand:ur": "\u06a9\u06cc\u0646\u0631\u0627 \u0628\u06cc\u0646\u06a9",
          "brand:wikidata": "Q2003777",
          "name": "Canara Bank",
          "name:en": "Canara Bank",
          "name:hi": "\u0915\u0947\u0928\u0930\u093e \u092c\u0948\u0902\u0915",
          "name:kn": "\u0c95\u0cc6\u0ca8\u0cb0\u0cbe \u0cac\u0ccd\u0caf\u0cbe\u0c82\u0c95\u0ccd",
          "name:pa": "\u0a15\u0a47\u0a28\u0a30\u0a3e \u0a2c\u0a48\u0a02\u0a15",
          "name:pnb": "\u06a9\u06cc\u0646\u0631\u0627 \u0628\u06cc\u0646\u06a9",
          "name:ur": "\u06a9\u06cc\u0646\u0631\u0627 \u0628\u06cc\u0646\u06a9"
        }
      },
      {
        "type": "node",
        "id": 9979970007,
        "lat": 13.0893372,
        "lon": 80.2898299,
        "tags": {
          "amenity": "bank",
          "brand": "ICICI Bank",
          "brand:wikidata": "Q1653258",
          "name": "ICICI Bank",
          "short_name": "ICICI"
        }
      },
      {
        "type": "node",
        "id": 9979970012,
        "lat": 13.0898848,
        "lon": 80.2898735,
        "tags": {
          "amenity": "bank",
          "brand": "Bank of Baroda",
          "brand:wikidata": "Q2003797",
          "name": "Bank of Baroda"
        }
      },
      {
        "type": "node",
        "id": 9980881646,
        "lat": 13.0887415,
        "lon": 80.2865499,
        "tags": {
          "amenity": "restaurant",
          "name": "Suprabatham"
        }
      },
      {
        "type": "node",
        "id": 9980882521,
        "lat": 13.0905767,
        "lon": 80.2905767,
        "tags": {
          "amenity": "restaurant",
          "name": "Anna Viruksham Vegetarian Restaurant"
        }
      },
      {
        "type": "node",
        "id": 9980951866,
        "lat": 13.0886961,
        "lon": 80.2859233,
        "tags": {
          "amenity": "bank",
          "brand": "Citibank",
          "brand:wikidata": "Q857063",
          "name": "Citibank",
          "short_name": "Citi"
        }
      },
      {
        "type": "node",
        "id": 9982741731,
        "lat": 13.0912179,
        "lon": 80.2882337,
        "tags": {
          "amenity": "bank",
          "brand": "Karur Vysya Bank",
          "brand:wikidata": "Q6373724",
          "name": "Karur Vysya Bank"
        }
      },
      {
        "type": "node",
        "id": 9982741732,
        "lat": 13.0915085,
        "lon": 80.2882875,
        "tags": {
          "amenity": "bank",
          "brand": "Punjab National Bank",
          "brand:wikidata": "Q2743499",
          "name": "Punjab National Bank"
        }
      },
      {
        "type": "node",
        "id": 9982741738,
        "lat": 13.092583,
        "lon": 80.2886227,
        "tags": {
          "amenity": "bank",
          "name": "Chennai Central Cooperative Bank"
        }
      },
      {
        "type": "node",
        "id": 9982758852,
        "lat": 13.0910043,
        "lon": 80.2893867,
        "tags": {
          "amenity": "bank",
          "brand": "Punjab National Bank",
          "brand:wikidata": "Q2743499",
          "name": "Punjab National Bank"
        }
      },
      {
        "type": "node",
        "id": 9982769121,
        "lat": 13.0924508,
        "lon": 80.2898978,
        "tags": {
          "amenity": "cafe",
          "name": "Queen's Cool Palace"
        }
      },
      {
        "type": "node",
        "id": 9983026854,
        "lat": 13.0961756,
        "lon": 80.2862653,
        "tags": {
          "amenity": "atm",
          "brand": "City Union Bank",
          "brand:en": "City Union Bank",
          "brand:fa": "\u0633\u06cc\u062a\u06cc \u06cc\u0648\u0646\u06cc\u0648\u0646 \u0628\u0646\u06a9",
          "brand:hi": "\u0938\u093f\u091f\u0940 \u092f\u0942\u0928\u093f\u092f\u0928 \u092c\u0948\u0902\u0915",
          "brand:mr": "\u0938\u093f\u091f\u0940 \u092f\u0941\u0928\u093f\u092f\u0928 \u092c\u0901\u0915",
          "brand:ta": "\u0b9a\u0bbf\u0b9f\u0bcd\u0b9f\u0bbf \u0baf\u0bc2\u0ba9\u0bbf\u0baf\u0ba9\u0bcd \u0bb5\u0b99\u0bcd\u0b95\u0bbf",
          "brand:ur": "\u0633\u0679\u06cc \u06cc\u0648\u0646\u06cc\u0646 \u0628\u06cc\u0646\u06a9",
          "brand:website": "https://www.cityunionbank.com",
          "brand:wikidata": "Q2040264",
          "name": "City Union Bank",
          "name:en": "City Union Bank",
          "name:fa": "\u0633\u06cc\u062a\u06cc \u06cc\u0648\u0646\u06cc\u0648\u0646 \u0628\u0646\u06a9",
          "name:hi": "\u0938\u093f\u091f\u0940 \u092f\u0942\u0928\u093f\u092f\u0928 \u092c\u0948\u0902\u0915",
          "name:mr": "\u0938\u093f\u091f\u0940 \u092f\u0941\u0928\u093f\u092f\u0928 \u092c\u0901\u0915",
          "name:ta": "\u0b9a\u0bbf\u0b9f\u0bcd\u0b9f\u0bbf \u0baf\u0bc2\u0ba9\u0bbf\u0baf\u0ba9\u0bcd \u0bb5\u0b99\u0bcd\u0b95\u0bbf",
          "name:ur": "\u0633\u0679\u06cc \u06cc\u0648\u0646\u06cc\u0646 \u0628\u06cc\u0646\u06a9",
          "operator": "City Union Bank",
          "operator:wikidata": "Q2040264",
          "short_name": "CUB",
          "short_name:pa": "\u0a38\u0a40 \u0a2f\u0a42 \u0a2c\u0a40",
          "short_name:ur": "\u0633\u06cc \u06cc\u0648 \u0628\u06cc"
        }
      },
      {
        "type": "node",
        "id": 9983026859,
        "lat": 13.0948869,
        "lon": 80.2861755,
        "tags": {
          "amenity": "cafe",
          "cuisine": "coffee_shop",
          "name": "Chai Waale"
        }
      },
      {
        "type": "node",
        "id": 9983048500,
        "lat": 13.0886372,
        "lon": 80.284971,
        "tags": {
          "amenity": "restaurant",
          "name": "Broadway Biriyani"
        }
      },
      {
        "type": "node",
        "id": 9983114075,
        "lat": 13.0950595,
        "lon": 80.2920476,
        "tags": {
          "amenity": "bank",
          "brand": "Indian Bank",
          "brand:wikidata": "Q2003789",
          "name": "Indian Bank"
        }
      },
      {
        "type": "node",
        "id": 9983409949,
        "lat": 13.0943159,
        "lon": 80.2860215,
        "tags": {
          "amenity": "bank",
          "brand": "Canara Bank",
          "brand:en": "Canara Bank",
          "brand:hi": "\u0915\u0947\u0928\u0930\u093e \u092c\u0948\u0902\u0915",
          "brand:kn": "\u0c95\u0cc6\u0ca8\u0cb0\u0cbe \u0cac\u0ccd\u0caf\u0cbe\u0c82\u0c95\u0ccd",
          "brand:pa": "\u0a15\u0a47\u0a28\u0a30\u0a3e \u0a2c\u0a48\u0a02\u0a15",
          "brand:pnb": "\u06a9\u06cc\u0646\u0631\u0627 \u0628\u06cc\u0646\u06a9",
          "brand:ur": "\u06a9\u06cc\u0646\u0631\u0627 \u0628\u06cc\u0646\u06a9",
          "brand:wikidata": "Q2003777",
          "name": "Canara Bank",
          "name:en": "Canara Bank",
          "name:hi": "\u0915\u0947\u0928\u0930\u093e \u092c\u0948\u0902\u0915",
          "name:kn": "\u0c95\u0cc6\u0ca8\u0cb0\u0cbe \u0cac\u0ccd\u0caf\u0cbe\u0c82\u0c95\u0ccd",
          "name:pa": "\u0a15\u0a47\u0a28\u0a30\u0a3e \u0a2c\u0a48\u0a02\u0a15",
          "name:pnb": "\u06a9\u06cc\u0646\u0631\u0627 \u0628\u06cc\u0646\u06a9",
          "name:ur": "\u06a9\u06cc\u0646\u0631\u0627 \u0628\u06cc\u0646\u06a9"
        }
      },
      {
        "type": "node",
        "id": 9989782816,
        "lat": 13.0896743,
        "lon": 80.285344,
        "tags": {
          "amenity": "atm",
          "brand": "IndusInd Bank",
          "brand:wikidata": "Q2040323",
          "name": "IndusInd Bank",
          "operator": "IndusInd Bank",
          "operator:wikidata": "Q2040323"
        }
      },
      {
        "type": "node",
        "id": 9989808500,
        "lat": 13.0887346,
        "lon": 80.2862359,
        "tags": {
          "amenity": "restaurant",
          "name": "Ninan's Restaurant"
        }
      },
      {
        "type": "node",
        "id": 9989811617,
        "lat": 13.0896462,
        "lon": 80.2853413,
        "tags": {
          "amenity": "atm",
          "brand": "Canara Bank",
          "brand:en": "Canara Bank",
          "brand:hi": "\u0915\u0947\u0928\u0930\u093e \u092c\u0948\u0902\u0915",
          "brand:kn": "\u0c95\u0cc6\u0ca8\u0cb0\u0cbe \u0cac\u0ccd\u0caf\u0cbe\u0c82\u0c95\u0ccd",
          "brand:pa": "\u0a15\u0a47\u0a28\u0a30\u0a3e \u0a2c\u0a48\u0a02\u0a15",
          "brand:pnb": "\u06a9\u06cc\u0646\u0631\u0627 \u0628\u06cc\u0646\u06a9",
          "brand:ur": "\u06a9\u06cc\u0646\u0631\u0627 \u0628\u06cc\u0646\u06a9",
          "brand:wikidata": "Q2003777",
          "name": "Canara Bank",
          "name:en": "Canara Bank",
          "name:hi": "\u0915\u0947\u0928\u0930\u093e \u092c\u0948\u0902\u0915",
          "name:kn": "\u0c95\u0cc6\u0ca8\u0cb0\u0cbe \u0cac\u0ccd\u0caf\u0cbe\u0c82\u0c95\u0ccd",
          "name:pa": "\u0a15\u0a47\u0a28\u0a30\u0a3e \u0a2c\u0a48\u0a02\u0a15",
          "name:pnb": "\u06a9\u06cc\u0646\u0631\u0627 \u0628\u06cc\u0646\u06a9",
          "name:ur": "\u06a9\u06cc\u0646\u0631\u0627 \u0628\u06cc\u0646\u06a9",
          "operator": "Canara Bank",
          "operator:wikidata": "Q2003777"
        }
      },
      {
        "type": "node",
        "id": 9989811629,
        "lat": 13.0890597,
        "lon": 80.2852408,
        "tags": {
          "amenity": "restaurant",
          "name": "Sea Shore"
        }
      },
      {
        "type": "node",
        "id": 9989843712,
        "lat": 13.0907195,
        "lon": 80.2843765,
        "tags": {
          "amenity": "cafe",
          "name": "Praba Cool Bar"
        }
      },
      {
        "type": "node",
        "id": 10036718970,
        "lat": 13.1026805,
        "lon": 80.2905294,
        "tags": {
          "amenity": "restaurant",
          "cuisine": "chinese",
          "name": "The Red Box"
        }
      },
      {
        "type": "node",
        "id": 10036718971,
        "lat": 13.1026569,
        "lon": 80.2905244,
        "tags": {
          "amenity": "atm",
          "brand": "ICICI Bank",
          "brand:en": "ICICI Bank",
          "brand:wikidata": "Q1653258",
          "currency:INR": "yes",
          "drive_through": "no",
          "indoor": "yes",
          "name": "ICICI Bank",
          "note": "Contributors are requested to not edit the \"brand\", \"brand:en\", \"brand:wikidata\", \"operator\", \"operator:en\" and \"operator:wikidata\" tags. (2025/03/03)",
          "opening_hours": "24/7",
          "operator": "ICICI Bank",
          "operator:en": "ICICI Bank",
          "operator:wikidata": "Q1653258",
          "short_name": "ICICI"
        }
      },
      {
        "type": "node",
        "id": 10036718972,
        "lat": 13.1026336,
        "lon": 80.2905213,
        "tags": {
          "amenity": "atm",
          "brand": "State Bank of India",
          "brand:en": "State Bank of India",
          "brand:wikidata": "Q1340361",
          "currency:INR": "yes",
          "drive_through": "no",
          "indoor": "yes",
          "name": "State Bank of India",
          "note": "Contributors are requested to not edit the \"brand\", \"brand:en\", \"brand:wikidata\", \"operator\", \"operator:en\" and \"operator:wikidata\" tags. (2025/03/03)",
          "opening_hours": "24/7",
          "operator": "State Bank of India",
          "operator:en": "State Bank of India",
          "operator:wikidata": "Q1340361",
          "short_name": "SBI"
        }
      },
      {
        "type": "node",
        "id": 10036718996,
        "lat": 13.1022825,
        "lon": 80.2904264,
        "tags": {
          "amenity": "restaurant",
          "name": "K7"
        }
      },
      {
        "type": "node",
        "id": 10036725803,
        "lat": 13.1025752,
        "lon": 80.2899089,
        "tags": {
          "amenity": "atm",
          "brand": "State Bank of India",
          "brand:en": "State Bank of India",
          "brand:wikidata": "Q1340361",
          "currency:INR": "yes",
          "drive_through": "no",
          "indoor": "yes",
          "name": "State Bank of India",
          "note": "Contributors are requested to not edit the \"brand\", \"brand:en\", \"brand:wikidata\", \"operator\", \"operator:en\" and \"operator:wikidata\" tags. (2025/03/03)",
          "opening_hours": "24/7",
          "operator": "State Bank of India",
          "operator:en": "State Bank of India",
          "operator:wikidata": "Q1340361",
          "short_name": "SBI"
        }
      },
      {
        "type": "node",
        "id": 10102275885,
        "lat": 13.0940733,
        "lon": 80.2919861,
        "tags": {
          "amenity": "bank",
          "brand": "IndusInd Bank",
          "brand:wikidata": "Q2040323",
          "name": "IndusInd Bank"
        }
      },
      {
        "type": "node",
        "id": 10102275886,
        "lat": 13.0939502,
        "lon": 80.2919568,
        "tags": {
          "amenity": "bank",
          "brand": "Bank of Baroda",
          "brand:wikidata": "Q2003797",
          "name": "Bank of Baroda"
        }
      },
      {
        "type": "node",
        "id": 10102299119,
        "lat": 13.0925719,
        "lon": 80.2908288,
        "tags": {
          "amenity": "bank",
          "brand": "Central Bank of India",
          "brand:wikidata": "Q2007090",
          "name": "Central Bank of India"
        }
      },
      {
        "type": "node",
        "id": 10102299126,
        "lat": 13.0931158,
        "lon": 80.2910773,
        "tags": {
          "amenity": "cafe",
          "name": "Caribeean Chai"
        }
      },
      {
        "type": "node",
        "id": 10102299129,
        "lat": 13.0932475,
        "lon": 80.291037,
        "tags": {
          "amenity": "fast_food",
          "cuisine": "juice",
          "name": "Cool House"
        }
      },
      {
        "type": "node",
        "id": 10102405624,
        "lat": 13.1012171,
        "lon": 80.2942221,
        "tags": {
          "amenity": "cafe",
          "name": "A.K. Tea Stall"
        }
      },
      {
        "type": "node",
        "id": 10103037610,
        "lat": 13.094975,
        "lon": 80.2865618,
        "tags": {
          "amenity": "doctors",
          "healthcare": "doctor",
          "name": "Dr. Hidayathullah"
        }
      },
      {
        "type": "node",
        "id": 10106263979,
        "lat": 13.0939922,
        "lon": 80.2860209,
        "tags": {
          "amenity": "cafe"
        }
      },
      {
        "type": "node",
        "id": 10106263980,
        "lat": 13.09397,
        "lon": 80.2861299,
        "tags": {
          "amenity": "cafe"
        }
      },
      {
        "type": "node",
        "id": 10106264008,
        "lat": 13.0934769,
        "lon": 80.2859411,
        "tags": {
          "amenity": "bank",
          "brand": "Central Bank of India",
          "brand:wikidata": "Q2007090",
          "name": "Central Bank of India"
        }
      },
      {
        "type": "node",
        "id": 10106349658,
        "lat": 13.0921637,
        "lon": 80.2857288,
        "tags": {
          "amenity": "bank",
          "brand": "HDFC Bank",
          "brand:wikidata": "Q631047",
          "name": "HDFC Bank",
          "short_name": "HDFC"
        }
      },
      {
        "type": "node",
        "id": 10107894691,
        "lat": 13.093665,
        "lon": 80.2897756,
        "tags": {
          "amenity": "cafe",
          "name": "Nisha Cafe"
        }
      },
      {
        "type": "node",
        "id": 10107901528,
        "lat": 13.093601,
        "lon": 80.2901765,
        "tags": {
          "amenity": "fast_food",
          "cuisine": "juice",
          "name": "Royal Hot In Cold"
        }
      },
      {
        "type": "node",
        "id": 10107910281,
        "lat": 13.0933232,
        "lon": 80.2902547,
        "tags": {
          "amenity": "fast_food",
          "cuisine": "juice",
          "name": "Merdeka Juice Point"
        }
      },
      {
        "type": "node",
        "id": 10107983225,
        "lat": 13.0942585,
        "lon": 80.2913537,
        "tags": {
          "amenity": "restaurant",
          "name": "Chennai Woodlands"
        }
      },
      {
        "type": "node",
        "id": 10107983235,
        "lat": 13.0944064,
        "lon": 80.2914241,
        "tags": {
          "amenity": "restaurant",
          "name": "Top Form"
        }
      },
      {
        "type": "node",
        "id": 10107983260,
        "lat": 13.0934492,
        "lon": 80.2911389,
        "tags": {
          "amenity": "fast_food",
          "cuisine": "juice",
          "name": "Greenapple Juice Shop"
        }
      },
      {
        "type": "node",
        "id": 10107995332,
        "lat": 13.0943274,
        "lon": 80.2908948,
        "tags": {
          "amenity": "cafe",
          "name": "New Modern Tea Stall"
        }
      },
      {
        "type": "node",
        "id": 10107995366,
        "lat": 13.0943855,
        "lon": 80.2908945,
        "tags": {
          "amenity": "cafe",
          "name": "Athima Tiffin Centre"
        }
      },
      {
        "type": "node",
        "id": 10107995463,
        "lat": 13.0955445,
        "lon": 80.2913878,
        "tags": {
          "amenity": "cafe",
          "name": "Food Corner"
        }
      },
      {
        "type": "node",
        "id": 10107995494,
        "lat": 13.0959948,
        "lon": 80.2912592,
        "tags": {
          "amenity": "fast_food",
          "name": "Chaat Zone"
        }
      },
      {
        "type": "node",
        "id": 10107995495,
        "lat": 13.0960049,
        "lon": 80.2912208,
        "tags": {
          "amenity": "fast_food",
          "name": "Hotel Moon"
        }
      },
      {
        "type": "node",
        "id": 10107995496,
        "lat": 13.0960127,
        "lon": 80.2911867,
        "tags": {
          "amenity": "restaurant",
          "cuisine": "barbecue",
          "name": "Classic Barbeque Corner"
        }
      },
      {
        "type": "node",
        "id": 10108462459,
        "lat": 13.0942076,
        "lon": 80.2892837,
        "tags": {
          "amenity": "cafe",
          "name": "Sri Maa Kali Tea Stall"
        }
      },
      {
        "type": "node",
        "id": 10108462463,
        "lat": 13.094153,
        "lon": 80.289276,
        "tags": {
          "amenity": "bank",
          "brand": "Kotak Mahindra Bank",
          "brand:wikidata": "Q2040404",
          "name": "Kotak Mahindra Bank"
        }
      },
      {
        "type": "node",
        "id": 10115447189,
        "lat": 13.0944464,
        "lon": 80.2891745,
        "tags": {
          "amenity": "fast_food",
          "cuisine": "juice",
          "name": "Chennai Juice World"
        }
      },
      {
        "type": "node",
        "id": 10115467357,
        "lat": 13.0955495,
        "lon": 80.2892979,
        "tags": {
          "amenity": "bank",
          "brand": "Indian Overseas Bank",
          "brand:wikidata": "Q2003611",
          "name": "Indian Overseas Bank"
        }
      },
      {
        "type": "node",
        "id": 10115467409,
        "lat": 13.0963553,
        "lon": 80.2892692,
        "tags": {
          "amenity": "cafe",
          "name": "ABC Cafe"
        }
      },
      {
        "type": "node",
        "id": 10115467413,
        "lat": 13.0963162,
        "lon": 80.2894382,
        "tags": {
          "amenity": "fast_food",
          "cuisine": "juice",
          "name": "Sree Annai Pazharasam Fresh Juice & Cold Drinks"
        }
      },
      {
        "type": "node",
        "id": 10115467419,
        "lat": 13.0957863,
        "lon": 80.289305,
        "tags": {
          "amenity": "pharmacy",
          "dispensing": "yes",
          "healthcare": "pharmacy",
          "name": "Azeez Medicals"
        }
      },
      {
        "type": "node",
        "id": 10115467420,
        "lat": 13.0957813,
        "lon": 80.289378,
        "tags": {
          "amenity": "fast_food",
          "cuisine": "juice",
          "name": "Sankar Cool Bar"
        }
      },
      {
        "type": "node",
        "id": 10115467423,
        "lat": 13.0956243,
        "lon": 80.2893557,
        "tags": {
          "amenity": "cafe",
          "cuisine": "coffee_shop",
          "name": "Rani Dam Chai"
        }
      },
      {
        "type": "node",
        "id": 10115689799,
        "lat": 13.0963862,
        "lon": 80.2890778,
        "tags": {
          "amenity": "pharmacy",
          "dispensing": "yes",
          "healthcare": "pharmacy",
          "name": "City Medicals"
        }
      },
      {
        "type": "node",
        "id": 10116132938,
        "lat": 13.0966171,
        "lon": 80.2877228,
        "tags": {
          "amenity": "fast_food",
          "name": "New Priya Chat Center"
        }
      },
      {
        "type": "node",
        "id": 10116132940,
        "lat": 13.0966107,
        "lon": 80.287775,
        "tags": {
          "amenity": "fast_food",
          "cuisine": "juice",
          "name": "Olympic Tea & Fresh Juice"
        }
      },
      {
        "type": "node",
        "id": 10116132946,
        "lat": 13.0965713,
        "lon": 80.2878998,
        "tags": {
          "amenity": "restaurant",
          "name": "Alreef The Family Restaurant"
        }
      },
      {
        "type": "node",
        "id": 10116132948,
        "lat": 13.09651,
        "lon": 80.2879306,
        "tags": {
          "amenity": "cafe",
          "name": "Alreef Cafe"
        }
      },
      {
        "type": "node",
        "id": 10116132966,
        "lat": 13.0959434,
        "lon": 80.2878228,
        "tags": {
          "amenity": "doctors",
          "healthcare": "doctor",
          "name": "S.S.R. Clinic"
        }
      },
      {
        "type": "node",
        "id": 10116259641,
        "lat": 13.0965172,
        "lon": 80.2881725,
        "tags": {
          "amenity": "fast_food",
          "cuisine": "juice",
          "name": "Moonstar Cool Bar"
        }
      },
      {
        "type": "node",
        "id": 10116259642,
        "lat": 13.0965216,
        "lon": 80.2881464,
        "tags": {
          "amenity": "cafe",
          "name": "Al-Ameen Tiffen Center"
        }
      },
      {
        "type": "node",
        "id": 10116259643,
        "lat": 13.0965119,
        "lon": 80.2882079,
        "tags": {
          "amenity": "restaurant",
          "name": "Udipi Sri Durga Bhavan"
        }
      },
      {
        "type": "node",
        "id": 10116259650,
        "lat": 13.0964998,
        "lon": 80.2882948,
        "tags": {
          "amenity": "fast_food",
          "name": "Farida Fast Food"
        }
      },
      {
        "type": "node",
        "id": 10116330729,
        "lat": 13.0944032,
        "lon": 80.2885113,
        "tags": {
          "amenity": "bank",
          "brand": "Union Bank of India",
          "brand:wikidata": "Q2004078",
          "name": "Union Bank of India"
        }
      },
      {
        "type": "node",
        "id": 10156167510,
        "lat": 13.0969063,
        "lon": 80.2866796,
        "tags": {
          "amenity": "restaurant",
          "name": "Hatimy's"
        }
      },
      {
        "type": "node",
        "id": 10156167516,
        "lat": 13.097062,
        "lon": 80.2866516,
        "tags": {
          "amenity": "restaurant",
          "name": "Valima Biriyani"
        }
      },
      {
        "type": "node",
        "id": 10156205638,
        "lat": 13.100929,
        "lon": 80.2871168,
        "tags": {
          "amenity": "bank",
          "brand": "IndusInd Bank",
          "brand:wikidata": "Q2040323",
          "name": "IndusInd Bank"
        }
      },
      {
        "type": "node",
        "id": 10156225819,
        "lat": 13.0985202,
        "lon": 80.2867135,
        "tags": {
          "amenity": "atm",
          "brand": "ICICI Bank",
          "brand:en": "ICICI Bank",
          "brand:wikidata": "Q1653258",
          "currency:INR": "yes",
          "drive_through": "no",
          "indoor": "yes",
          "note": "Contributors are requested to not edit the \"brand\", \"brand:en\", \"brand:wikidata\", \"operator\", \"operator:en\" and \"operator:wikidata\" tags. (2025/03/03)",
          "opening_hours": "24/7",
          "operator": "ICICI Bank",
          "operator:en": "ICICI Bank",
          "operator:wikidata": "Q1653258",
          "short_name": "ICICI"
        }
      },
      {
        "type": "node",
        "id": 10156225820,
        "lat": 13.0985611,
        "lon": 80.2867529,
        "tags": {
          "amenity": "bank",
          "brand": "ICICI Bank",
          "brand:wikidata": "Q1653258",
          "name": "ICICI Bank",
          "short_name": "ICICI"
        }
      },
      {
        "type": "node",
        "id": 10156225827,
        "lat": 13.0987516,
        "lon": 80.2867305,
        "tags": {
          "amenity": "atm",
          "brand": "Indian Overseas Bank",
          "brand:wikidata": "Q2003611",
          "operator": "Indian Overseas Bank",
          "operator:wikidata": "Q2003611"
        }
      },
      {
        "type": "node",
        "id": 10201837492,
        "lat": 13.0982603,
        "lon": 80.2934208,
        "tags": {
          "amenity": "bank",
          "brand": "Union Bank of India",
          "brand:wikidata": "Q2004078",
          "name": "Union Bank of India"
        }
      },
      {
        "type": "node",
        "id": 10205248978,
        "lat": 13.0968585,
        "lon": 80.2870288,
        "tags": {
          "amenity": "restaurant",
          "name": "Hotel Farida"
        }
      },
      {
        "type": "node",
        "id": 10208620483,
        "lat": 13.0961176,
        "lon": 80.2912083,
        "tags": {
          "amenity": "fast_food",
          "cuisine": "kebab",
          "name": "Kebab Centre"
        }
      },
      {
        "type": "node",
        "id": 10208620492,
        "lat": 13.0960322,
        "lon": 80.2914647,
        "tags": {
          "amenity": "fast_food",
          "name": "A to Z Hyderabad Biryani"
        }
      },
      {
        "type": "node",
        "id": 10208685806,
        "lat": 13.09688,
        "lon": 80.2908894,
        "tags": {
          "amenity": "restaurant",
          "name": "Seema"
        }
      },
      {
        "type": "node",
        "id": 10208737666,
        "lat": 13.096196,
        "lon": 80.2909115,
        "tags": {
          "amenity": "fast_food",
          "cuisine": "juice",
          "name": "Olympic Tea & Fresh Juice"
        }
      },
      {
        "type": "node",
        "id": 10208787869,
        "lat": 13.0968758,
        "lon": 80.2907429,
        "tags": {
          "amenity": "cafe",
          "name": "CM Corner Cafe"
        }
      },
      {
        "type": "node",
        "id": 10208798643,
        "lat": 13.0964397,
        "lon": 80.2902357,
        "tags": {
          "amenity": "restaurant",
          "name": "Taste of Turkey"
        }
      },
      {
        "type": "node",
        "id": 10208798672,
        "lat": 13.0968317,
        "lon": 80.290344,
        "tags": {
          "amenity": "atm",
          "network": "indicash",
          "operator": "indicash"
        }
      },
      {
        "type": "node",
        "id": 10208858002,
        "lat": 13.0969386,
        "lon": 80.2875876,
        "tags": {
          "amenity": "clinic",
          "healthcare": "clinic",
          "name": "Sri Lakshmi Clinic"
        }
      },
      {
        "type": "node",
        "id": 10208901306,
        "lat": 13.0966093,
        "lon": 80.2896858,
        "tags": {
          "amenity": "pharmacy",
          "healthcare": "pharmacy",
          "name": "Alahu Pharmacy"
        }
      },
      {
        "type": "node",
        "id": 10208903025,
        "lat": 13.0963895,
        "lon": 80.2897607,
        "tags": {
          "amenity": "fast_food",
          "name": "Arabian Nights Shawarma"
        }
      },
      {
        "type": "node",
        "id": 10208903026,
        "lat": 13.0963927,
        "lon": 80.2897283,
        "tags": {
          "amenity": "fast_food",
          "cuisine": "juice",
          "name": "Lassi Shop"
        }
      },
      {
        "type": "node",
        "id": 10208903046,
        "lat": 13.0966064,
        "lon": 80.2901251,
        "tags": {
          "amenity": "cafe",
          "name": "Cutting Chai Yaari"
        }
      },
      {
        "type": "node",
        "id": 10208988594,
        "lat": 13.096636,
        "lon": 80.2884752,
        "tags": {
          "amenity": "fast_food",
          "name": "Baap"
        }
      },
      {
        "type": "node",
        "id": 10209000554,
        "lat": 13.0967994,
        "lon": 80.2891889,
        "tags": {
          "amenity": "atm",
          "brand": "State Bank of India",
          "brand:en": "State Bank of India",
          "brand:wikidata": "Q1340361",
          "currency:INR": "yes",
          "drive_through": "no",
          "indoor": "yes",
          "note": "Contributors are requested to not edit the \"brand\", \"brand:en\", \"brand:wikidata\", \"operator\", \"operator:en\" and \"operator:wikidata\" tags. (2025/03/03)",
          "opening_hours": "24/7",
          "operator": "State Bank of India",
          "operator:en": "State Bank of India",
          "operator:wikidata": "Q1340361",
          "short_name": "SBI"
        }
      },
      {
        "type": "node",
        "id": 10209543578,
        "lat": 13.0994059,
        "lon": 80.2938237,
        "tags": {
          "amenity": "cafe",
          "name": "Sea Lord"
        }
      },
      {
        "type": "node",
        "id": 10209600084,
        "lat": 13.0976067,
        "lon": 80.2932418,
        "tags": {
          "amenity": "restaurant",
          "name": "Grill Nights"
        }
      },
      {
        "type": "node",
        "id": 10209600106,
        "lat": 13.098215,
        "lon": 80.2930031,
        "tags": {
          "amenity": "cafe",
          "name": "Golden Tea"
        }
      },
      {
        "type": "node",
        "id": 10575518798,
        "lat": 13.1019911,
        "lon": 80.2926089,
        "tags": {
          "amenity": "restaurant",
          "name": "Al-Arsh Hotel"
        }
      },
      {
        "type": "node",
        "id": 10575684704,
        "lat": 13.0984966,
        "lon": 80.2924206,
        "tags": {
          "amenity": "cafe",
          "name": "RPS Cafe"
        }
      },
      {
        "type": "node",
        "id": 10575684705,
        "lat": 13.0985064,
        "lon": 80.2923742,
        "tags": {
          "amenity": "restaurant",
          "cuisine": "thai",
          "name": "Thai Mess"
        }
      },
      {
        "type": "node",
        "id": 10575684706,
        "lat": 13.0985331,
        "lon": 80.2922808,
        "tags": {
          "amenity": "atm",
          "operator": "indicash"
        }
      },
      {
        "type": "node",
        "id": 10583922905,
        "lat": 13.1010225,
        "lon": 80.2922949,
        "tags": {
          "amenity": "pharmacy",
          "healthcare": "pharmacy",
          "name": "K. S. Medicals"
        }
      },
      {
        "type": "node",
        "id": 10584033829,
        "lat": 13.1009922,
        "lon": 80.2916438,
        "tags": {
          "amenity": "cafe",
          "name": "K. B. Tea Stall"
        }
      },
      {
        "type": "node",
        "id": 10584033830,
        "lat": 13.1009979,
        "lon": 80.2915977,
        "tags": {
          "amenity": "fast_food",
          "cuisine": "juice",
          "name": "Greenapple Juice Shop"
        }
      },
      {
        "type": "node",
        "id": 10584033937,
        "lat": 13.0978333,
        "lon": 80.2864233,
        "tags": {
          "amenity": "bank",
          "brand": "State Bank of India",
          "brand:wikidata": "Q1340361",
          "name": "State Bank of India",
          "short_name": "SBI"
        }
      },
      {
        "type": "node",
        "id": 10584033942,
        "lat": 13.0979556,
        "lon": 80.2864655,
        "tags": {
          "amenity": "bank",
          "brand": "Indian Overseas Bank",
          "brand:wikidata": "Q2003611",
          "name": "Indian Overseas Bank"
        }
      },
      {
        "type": "node",
        "id": 10584063733,
        "lat": 13.0963175,
        "lon": 80.285492,
        "tags": {
          "amenity": "pharmacy",
          "healthcare": "pharmacy",
          "name": "MAS Medicals"
        }
      },
      {
        "type": "node",
        "id": 10593975168,
        "lat": 13.0997277,
        "lon": 80.2877847,
        "tags": {
          "amenity": "fast_food",
          "name": "Zam Zam Hot Chips"
        }
      },
      {
        "type": "node",
        "id": 10595586116,
        "lat": 13.0996018,
        "lon": 80.2885735,
        "tags": {
          "amenity": "pharmacy",
          "healthcare": "pharmacy",
          "name": "London Medicals"
        }
      },
      {
        "type": "node",
        "id": 10595586119,
        "lat": 13.0995895,
        "lon": 80.2887629,
        "tags": {
          "amenity": "fast_food",
          "name": "Nitesh Chat House"
        }
      },
      {
        "type": "node",
        "id": 10595586120,
        "lat": 13.0995811,
        "lon": 80.2888424,
        "tags": {
          "amenity": "fast_food",
          "cuisine": "juice",
          "name": "Malar Fresh Juice"
        }
      },
      {
        "type": "node",
        "id": 10595586124,
        "lat": 13.0996157,
        "lon": 80.288504,
        "tags": {
          "amenity": "cafe",
          "name": "Bharat Tea Stall"
        }
      },
      {
        "type": "node",
        "id": 10595652724,
        "lat": 13.0968183,
        "lon": 80.2884066,
        "tags": {
          "amenity": "cafe",
          "name": "iCafe"
        }
      },
      {
        "type": "node",
        "id": 10675497897,
        "lat": 13.0987924,
        "lon": 80.2905773,
        "tags": {
          "amenity": "fast_food",
          "cuisine": "juice",
          "name": "Aju Corner Cool Bar"
        }
      },
      {
        "type": "node",
        "id": 10675523420,
        "lat": 13.0987549,
        "lon": 80.2900061,
        "tags": {
          "amenity": "fast_food",
          "cuisine": "juice",
          "name": "Jam Jam Tea and Cool Bar"
        }
      },
      {
        "type": "node",
        "id": 10676094997,
        "lat": 13.1002164,
        "lon": 80.2900699,
        "tags": {
          "amenity": "bank",
          "brand": "Indian Bank",
          "brand:wikidata": "Q2003789",
          "name": "Indian Bank"
        }
      },
      {
        "type": "node",
        "id": 10703342981,
        "lat": 13.099817,
        "lon": 80.2878941,
        "tags": {
          "amenity": "atm",
          "brand": "Axis Bank",
          "brand:wikidata": "Q2003549",
          "operator": "Axis Bank",
          "operator:wikidata": "Q2003549"
        }
      },
      {
        "type": "node",
        "id": 10742504914,
        "lat": 13.0886236,
        "lon": 80.2847721,
        "tags": {
          "amenity": "restaurant",
          "name": "Real Biriyani"
        }
      },
      {
        "type": "node",
        "id": 10742504996,
        "lat": 13.0897314,
        "lon": 80.2848828,
        "tags": {
          "amenity": "cafe",
          "name": "Myson"
        }
      },
      {
        "type": "node",
        "id": 10798117003,
        "lat": 13.0910449,
        "lon": 80.2824543,
        "tags": {
          "amenity": "bank",
          "brand": "Karur Vysya Bank",
          "brand:wikidata": "Q6373724",
          "name": "Karur Vysya Bank"
        }
      },
      {
        "type": "node",
        "id": 10798123407,
        "lat": 13.09123,
        "lon": 80.2824716,
        "tags": {
          "amenity": "atm",
          "brand": "City Union Bank",
          "brand:en": "City Union Bank",
          "brand:hi": "\u0938\u093f\u091f\u0940 \u092f\u0942\u0928\u093f\u092f\u0928 \u092c\u0948\u0902\u0915",
          "brand:ta": "\u0b9a\u0bbf\u0b9f\u0bcd\u0b9f\u0bbf \u0baf\u0bc2\u0ba9\u0bbf\u0baf\u0ba9\u0bcd \u0bb5\u0b99\u0bcd\u0b95\u0bbf",
          "brand:wikidata": "Q2040264",
          "name:en": "City Union Bank",
          "name:hi": "\u0938\u093f\u091f\u0940 \u092f\u0942\u0928\u093f\u092f\u0928 \u092c\u0948\u0902\u0915",
          "name:ta": "\u0b9a\u0bbf\u0b9f\u0bcd\u0b9f\u0bbf \u0baf\u0bc2\u0ba9\u0bbf\u0baf\u0ba9\u0bcd \u0bb5\u0b99\u0bcd\u0b95\u0bbf",
          "operator": "City Union Bank",
          "operator:wikidata": "Q2040264",
          "short_name": "CUB"
        }
      },
      {
        "type": "node",
        "id": 10798123410,
        "lat": 13.091402,
        "lon": 80.282483,
        "tags": {
          "amenity": "fast_food",
          "cuisine": "juice",
          "name": "Ganeshan Cool Bar"
        }
      },
      {
        "type": "node",
        "id": 10798123413,
        "lat": 13.0916476,
        "lon": 80.2825231,
        "tags": {
          "amenity": "restaurant",
          "name": "New Annapoorani Hotel"
        }
      },
      {
        "type": "node",
        "id": 10931088807,
        "lat": 13.0931039,
        "lon": 80.2817607,
        "tags": {
          "amenity": "bank",
          "brand": "Kotak Mahindra Bank",
          "brand:wikidata": "Q2040404",
          "name": "Kotak Mahindra Bank"
        }
      },
      {
        "type": "node",
        "id": 10933186980,
        "lat": 13.0943423,
        "lon": 80.2844478,
        "tags": {
          "amenity": "pharmacy",
          "healthcare": "pharmacy",
          "name": "Gem Medicals"
        }
      },
      {
        "type": "node",
        "id": 10933186996,
        "lat": 13.0944314,
        "lon": 80.2837737,
        "tags": {
          "amenity": "cafe",
          "name": "Archana Tea Stall"
        }
      },
      {
        "type": "node",
        "id": 10933484198,
        "lat": 13.0984553,
        "lon": 80.2833342,
        "tags": {
          "amenity": "restaurant",
          "name": "Bismillah Biriyani"
        }
      },
      {
        "type": "node",
        "id": 10933495005,
        "lat": 13.0985389,
        "lon": 80.2829543,
        "tags": {
          "amenity": "pharmacy",
          "healthcare": "pharmacy",
          "name": "Sri Lakhsmi Medical"
        }
      },
      {
        "type": "node",
        "id": 10933574885,
        "lat": 13.0927005,
        "lon": 80.2826617,
        "tags": {
          "amenity": "cafe",
          "name": "Sri Vinodkumar Tea & Coffee Center"
        }
      },
      {
        "type": "node",
        "id": 10943965130,
        "lat": 13.0942797,
        "lon": 80.282896,
        "tags": {
          "amenity": "cafe",
          "name": "Tea Stall"
        }
      },
      {
        "type": "node",
        "id": 10945919479,
        "lat": 13.0942816,
        "lon": 80.2819967,
        "tags": {
          "amenity": "cafe",
          "name": "Regal Snack Bar"
        }
      },
      {
        "type": "node",
        "id": 10946038859,
        "lat": 13.0933923,
        "lon": 80.2817372,
        "tags": {
          "amenity": "atm",
          "brand": "Union Bank of India",
          "brand:wikidata": "Q2004078",
          "operator": "Union Bank of India",
          "operator:wikidata": "Q2004078"
        }
      },
      {
        "type": "node",
        "id": 10951520437,
        "lat": 13.0949718,
        "lon": 80.2815594,
        "tags": {
          "amenity": "pharmacy",
          "healthcare": "pharmacy",
          "name": "Rajeshwar Medical"
        }
      },
      {
        "type": "node",
        "id": 10951520440,
        "lat": 13.094953,
        "lon": 80.2816731,
        "tags": {
          "amenity": "fast_food",
          "cuisine": "juice",
          "name": "B. Sedhramaiya Cool Bar"
        }
      },
      {
        "type": "node",
        "id": 10967301666,
        "lat": 13.0966857,
        "lon": 80.2840689,
        "tags": {
          "amenity": "cafe",
          "name": "Al-Aksar Tiffin Centre"
        }
      },
      {
        "type": "node",
        "id": 10967301671,
        "lat": 13.0976163,
        "lon": 80.2844014,
        "tags": {
          "amenity": "pharmacy",
          "healthcare": "pharmacy",
          "name": "Prem Medicals"
        }
      },
      {
        "type": "node",
        "id": 10967640688,
        "lat": 13.0922909,
        "lon": 80.2825072,
        "tags": {
          "amenity": "cafe",
          "name": "Everest Coffee"
        }
      },
      {
        "type": "node",
        "id": 11299228769,
        "lat": 13.0960708,
        "lon": 80.2910545,
        "tags": {
          "amenity": "restaurant",
          "name:fr": "Al Myn"
        }
      },
      {
        "type": "node",
        "id": 11300088669,
        "lat": 13.0901878,
        "lon": 80.2858471,
        "tags": {
          "amenity": "restaurant",
          "name:fr": "Poonam's Gujarati Bhojnalaya"
        }
      },
      {
        "type": "node",
        "id": 11510724068,
        "lat": 13.1011731,
        "lon": 80.2867141,
        "tags": {
          "amenity": "cafe",
          "name": "Devi Tea Stall"
        }
      },
      {
        "type": "node",
        "id": 11513123143,
        "lat": 13.1001821,
        "lon": 80.2848093,
        "tags": {
          "amenity": "atm",
          "brand": "Canara Bank",
          "brand:en": "Canara Bank",
          "brand:hi": "\u0915\u0947\u0928\u0930\u093e \u092c\u0948\u0902\u0915",
          "brand:kn": "\u0c95\u0cc6\u0ca8\u0cb0\u0cbe \u0cac\u0ccd\u0caf\u0cbe\u0c82\u0c95\u0ccd",
          "brand:pa": "\u0a15\u0a47\u0a28\u0a30\u0a3e \u0a2c\u0a48\u0a02\u0a15",
          "brand:pnb": "\u06a9\u06cc\u0646\u0631\u0627 \u0628\u06cc\u0646\u06a9",
          "brand:ur": "\u06a9\u06cc\u0646\u0631\u0627 \u0628\u06cc\u0646\u06a9",
          "brand:wikidata": "Q2003777",
          "name:en": "Canara Bank",
          "name:hi": "\u0915\u0947\u0928\u0930\u093e \u092c\u0948\u0902\u0915",
          "name:kn": "\u0c95\u0cc6\u0ca8\u0cb0\u0cbe \u0cac\u0ccd\u0caf\u0cbe\u0c82\u0c95\u0ccd",
          "name:pa": "\u0a15\u0a47\u0a28\u0a30\u0a3e \u0a2c\u0a48\u0a02\u0a15",
          "name:pnb": "\u06a9\u06cc\u0646\u0631\u0627 \u0628\u06cc\u0646\u06a9",
          "name:ur": "\u06a9\u06cc\u0646\u0631\u0627 \u0628\u06cc\u0646\u06a9",
          "operator": "Canara Bank",
          "operator:wikidata": "Q2003777"
        }
      },
      {
        "type": "node",
        "id": 11513123149,
        "lat": 13.1002052,
        "lon": 80.2846695,
        "tags": {
          "amenity": "cafe",
          "name": "Cafe Madrassi"
        }
      },
      {
        "type": "node",
        "id": 11513226090,
        "lat": 13.1002136,
        "lon": 80.2845375,
        "tags": {
          "amenity": "restaurant",
          "name": "New Mughal Biriyani"
        }
      },
      {
        "type": "node",
        "id": 11513226268,
        "lat": 13.1003427,
        "lon": 80.2837444,
        "tags": {
          "amenity": "pharmacy",
          "healthcare": "pharmacy",
          "name": "Ameer Medicals"
        }
      },
      {
        "type": "node",
        "id": 11513795762,
        "lat": 13.1013345,
        "lon": 80.2838452,
        "tags": {
          "amenity": "fast_food",
          "cuisine": "juice",
          "name": "Dinakaran Juice Centre"
        }
      },
      {
        "type": "node",
        "id": 11533319778,
        "lat": 13.0977527,
        "lon": 80.2842159,
        "tags": {
          "amenity": "restaurant",
          "name": "Nirmala Tiffen Center"
        }
      },
      {
        "type": "node",
        "id": 11533446513,
        "lat": 13.0994602,
        "lon": 80.2836839,
        "tags": {
          "amenity": "pharmacy",
          "healthcare": "pharmacy",
          "name": "Rithick Medicals"
        }
      }
    ]
  },
  "pois_2_5km": {
    "version": 0.6,
    "generator": "Overpass API 0.7.62.8 e802775f",
    "osm3s": {
      "timestamp_osm_base": "2025-09-06T09:23:13Z",
      "copyright": "The data included in this document is from www.openstreetmap.org. The data is made available under ODbL."
    },
    "elements": [
      {
        "type": "node",
        "id": 243041570,
        "lat": 13.0794798,
        "lon": 80.2760155,
        "tags": {
          "name": "Chennai Park Town",
          "public_transport": "stop_position",
          "railway": "stop",
          "ref": "MPKT:1;2",
          "train": "yes"
        }
      },
      {
        "type": "node",
        "id": 254142204,
        "lat": 13.1041595,
        "lon": 80.2931903,
        "tags": {
          "public_transport": "stop_position",
          "ref": "RPM:2"
        }
      },
      {
        "type": "node",
        "id": 254142280,
        "lat": 13.1023579,
        "lon": 80.2715583,
        "tags": {
          "public_transport": "stop_position",
          "ref": "BBQ:6"
        }
      },
      {
        "type": "node",
        "id": 254143113,
        "lat": 13.1089336,
        "lon": 80.2820595,
        "tags": {
          "public_transport": "stop_position",
          "railway": "stop",
          "ref": "WST:1",
          "train": "yes"
        }
      },
      {
        "type": "node",
        "id": 303284326,
        "lat": 13.0851617,
        "lon": 80.2835544,
        "tags": {
          "amenity": "fuel"
        }
      },
      {
        "type": "node",
        "id": 303284327,
        "lat": 13.0862218,
        "lon": 80.2812471,
        "tags": {
          "amenity": "fuel"
        }
      },
      {
        "type": "node",
        "id": 316260288,
        "lat": 13.0973052,
        "lon": 80.2998905,
        "tags": {
          "amenity": "ferry_terminal",
          "ferry": "yes",
          "name": "Chokani Jetty",
          "public_transport": "station"
        }
      },
      {
        "type": "node",
        "id": 393768353,
        "lat": 13.0949946,
        "lon": 80.2927844,
        "tags": {
          "amenity": "fuel",
          "brand": "Hindustan Petroleum",
          "brand:wikidata": "Q1619375",
          "brand:wikipedia": "en:Hindustan Petroleum",
          "name": "HP",
          "official_name": "Hindustan Petroleum"
        }
      },
      {
        "type": "node",
        "id": 603015252,
        "lat": 13.095369,
        "lon": 80.2860786,
        "tags": {
          "name": "Mannadi",
          "network": "Chennai Metro",
          "note": "Contributors are requested to not edit the \"network\" and the \"operator\" tags. (2023/11/08)",
          "operator": "Chennai Metro Rail Limited",
          "public_transport": "stop_position",
          "railway": "stop",
          "station": "subway",
          "subway": "yes"
        }
      },
      {
        "type": "node",
        "id": 603480842,
        "lat": 13.1047263,
        "lon": 80.2795897,
        "tags": {
          "amenity": "cinema",
          "name": "Crown Talkies"
        }
      },
      {
        "type": "node",
        "id": 674698187,
        "lat": 13.1023633,
        "lon": 80.2717659,
        "tags": {
          "public_transport": "stop_position",
          "ref": "BBQ:7"
        }
      },
      {
        "type": "node",
        "id": 674698226,
        "lat": 13.1041549,
        "lon": 80.2935179,
        "tags": {
          "name": "Royapuram",
          "public_transport": "stop_position",
          "ref": "RPM:1"
        }
      },
      {
        "type": "node",
        "id": 674698252,
        "lat": 13.1023304,
        "lon": 80.2713764,
        "tags": {
          "public_transport": "stop_position",
          "ref": "BBQ:3"
        }
      },
      {
        "type": "node",
        "id": 674698261,
        "lat": 13.1088417,
        "lon": 80.2819651,
        "tags": {
          "public_transport": "stop_position",
          "railway": "stop",
          "ref": "WST:2",
          "train": "yes"
        }
      },
      {
        "type": "node",
        "id": 919522123,
        "lat": 13.0832295,
        "lon": 80.2829442,
        "tags": {
          "local_ref": "4",
          "name": "Chennai Fort",
          "public_transport": "stop_position",
          "railway": "stop",
          "ref": "MSF:4",
          "train": "yes"
        }
      },
      {
        "type": "node",
        "id": 919522213,
        "lat": 13.0834778,
        "lon": 80.2826722,
        "tags": {
          "local_ref": "1",
          "public_transport": "stop_position",
          "railway": "stop",
          "ref": "MSF:1",
          "train": "yes"
        }
      },
      {
        "type": "node",
        "id": 1184256833,
        "lat": 13.1023555,
        "lon": 80.2715142,
        "tags": {
          "public_transport": "stop_position",
          "ref": "BBQ:5"
        }
      },
      {
        "type": "node",
        "id": 2269384782,
        "lat": 13.1023311,
        "lon": 80.2714212,
        "tags": {
          "public_transport": "stop_position",
          "ref": "BBQ:4"
        }
      },
      {
        "type": "node",
        "id": 2272877093,
        "lat": 13.0795162,
        "lon": 80.2760051,
        "tags": {
          "name": "Chennai Park Town",
          "public_transport": "stop_position",
          "railway": "stop",
          "ref": "MPKT:1;2",
          "train": "yes"
        }
      },
      {
        "type": "node",
        "id": 2481258995,
        "lat": 13.079587,
        "lon": 80.2762947,
        "tags": {
          "name": "Chennai Park Town",
          "name:ml": "\u0d2a\u0d3e\u0d7c\u0d15\u0d4d\u0d15\u0d4d \u0d1f\u0d57\u0d7a",
          "name:ta": "\u0baa\u0bc2\u0b99\u0bcd\u0b95\u0bbe \u0ba8\u0b95\u0bb0\u0bcd",
          "network": "IR",
          "operator": "SR",
          "public_transport": "station",
          "railway": "station",
          "ref": "MPKT",
          "train": "yes",
          "wikidata": "Q5091453",
          "wikipedia": "en:Chennai Park Town railway station"
        }
      },
      {
        "type": "node",
        "id": 2481258999,
        "lat": 13.0807537,
        "lon": 80.2730879,
        "tags": {
          "internet_access": "no",
          "name": "Chennai Park",
          "name:ml": "\u0d1a\u0d46\u0d28\u0d4d\u0d28\u0d48 \u0d2a\u0d3e\u0d7c\u0d15\u0d4d\u0d15\u0d4d",
          "name:ta": "\u0b9a\u0bc6\u0ba9\u0bcd\u0ba9\u0bc8 \u0baa\u0bc2\u0b99\u0bcd\u0b95\u0bbe",
          "network": "IR",
          "operator": "SR",
          "public_transport": "station",
          "railway": "station",
          "ref": "MPK",
          "wikidata": "Q5091452",
          "wikipedia": "en:Chennai Park railway station"
        }
      },
      {
        "type": "node",
        "id": 2481969291,
        "lat": 13.0824232,
        "lon": 80.2759622,
        "tags": {
          "alt_name": "Chennai Central",
          "int_name": "Chennai Central",
          "internet_access": "wlan",
          "name": "Puratchi Thalaivar Dr. M. G. Ramachandran Central",
          "name:ml": "\u0d2a\u0d41\u0d30\u0d1f\u0d4d\u0d1a\u0d3f \u0d24\u0d32\u0d48\u0d35\u0d7c \u0d21\u0d4b.\u0d0e\u0d02.\u0d1c\u0d3f.\u0d30\u0d3e\u0d2e\u0d1a\u0d28\u0d4d\u0d26\u0d4d\u0d30\u0d7b \u0d38\u0d46\u0d7b\u0d1f\u0d4d\u0d30\u0d7d",
          "name:ta": "\u0b9a\u0bc6\u0ba9\u0bcd\u0ba9\u0bc8 - \u0baa\u0bc1\u0bb0\u0b9f\u0bcd\u0b9a\u0bbf \u0ba4\u0bb2\u0bc8\u0bb5\u0bb0\u0bcd \u0b9f\u0bbe. \u0b8e\u0bae\u0bcd. \u0b9c\u0bbf. \u0bb0\u0bbe\u0bae\u0b9a\u0bcd\u0b9a\u0ba8\u0bcd\u0ba4\u0bbf\u0bb0\u0ba9\u0bcd \u0b9a\u0bc6\u0ba9\u0bcd\u0b9f\u0bcd\u0bb0\u0bb2\u0bcd",
          "network": "IR",
          "old_name": "Madras Central",
          "operator": "SR",
          "public_transport": "station",
          "railway": "station",
          "ref": "MAS",
          "wikidata": "Q257382",
          "wikipedia": "en:Chennai Central railway station"
        }
      },
      {
        "type": "node",
        "id": 4393828696,
        "lat": 13.0835855,
        "lon": 80.2739849,
        "tags": {
          "name": "Moore Market Complex",
          "public_transport": "stop_position",
          "railway": "stop",
          "ref": "16",
          "train": "yes"
        }
      },
      {
        "type": "node",
        "id": 4393828697,
        "lat": 13.0835994,
        "lon": 80.2741136,
        "tags": {
          "name": "Moore Market Complex",
          "public_transport": "stop_position",
          "railway": "stop",
          "ref": "15",
          "train": "yes"
        }
      },
      {
        "type": "node",
        "id": 4393828698,
        "lat": 13.083603,
        "lon": 80.274255,
        "tags": {
          "name": "Moore Market Complex",
          "public_transport": "stop_position",
          "railway": "stop",
          "ref": "14",
          "train": "yes"
        }
      },
      {
        "type": "node",
        "id": 4533572479,
        "lat": 13.1024603,
        "lon": 80.2711188,
        "tags": {
          "public_transport": "stop_position",
          "ref": "BBQ:3"
        }
      },
      {
        "type": "node",
        "id": 4533572480,
        "lat": 13.1024641,
        "lon": 80.2711741,
        "tags": {
          "public_transport": "stop_position",
          "ref": "BBQ:3"
        }
      },
      {
        "type": "node",
        "id": 5329907502,
        "lat": 13.0817666,
        "lon": 80.2739102,
        "tags": {
          "name": "Central Metro",
          "network": "Chennai Metro",
          "note": "Contributors are requested to not edit the \"network\" and the \"operator\" tags. (2023/11/08)",
          "operator": "Chennai Metro Rail Limited",
          "public_transport": "stop_position",
          "railway": "stop",
          "subway": "yes"
        }
      },
      {
        "type": "node",
        "id": 5337658075,
        "lat": 13.0953587,
        "lon": 80.2861592,
        "tags": {
          "name": "Mannadi",
          "network": "Chennai Metro",
          "note": "Contributors are requested to not edit the \"network\" and the \"operator\" tags. (2023/11/08)",
          "operator": "Chennai Metro Rail Limited",
          "public_transport": "stop_position",
          "railway": "stop",
          "station": "subway",
          "subway": "yes"
        }
      },
      {
        "type": "node",
        "id": 5337658083,
        "lat": 13.0872681,
        "lon": 80.2849845,
        "tags": {
          "name": "High Court",
          "name:en": "High Court",
          "name:ml": "\u0d39\u0d48\u0d15\u0d4d\u0d15\u0d4b\u0d1f\u0d24\u0d3f",
          "name:ta": "\u0b89\u0baf\u0bb0\u0bcd\u0ba8\u0bc0\u0ba4\u0bbf\u0bae\u0ba9\u0bcd\u0bb1\u0bae\u0bcd",
          "network": "Chennai Metro",
          "note": "Contributors are requested to not edit the \"network\" and the \"operator\" tags. (2023/11/08)",
          "operator": "Chennai Metro Rail Limited",
          "public_transport": "station",
          "railway": "station",
          "railway:ref": "SHC",
          "ref": "SHC",
          "start_date": "2019-02-10",
          "station": "subway",
          "subway": "yes",
          "wikidata": "Q62005403",
          "wikipedia": "en:High Court metro station"
        }
      },
      {
        "type": "node",
        "id": 5337658088,
        "lat": 13.0954465,
        "lon": 80.2861312,
        "tags": {
          "name": "Mannadi",
          "name:en": "Mannadi",
          "name:ml": "\u0d2e\u0d23\u0d4d\u0d23\u0d1f\u0d3f",
          "name:ta": "\u0bae\u0ba3\u0bcd\u0ba3\u0b9f\u0bbf",
          "network": "Chennai Metro",
          "note": "Contributors are requested to not edit the \"network\" and the \"operator\" tags. (2023/11/08)",
          "operator": "Chennai Metro Rail Limited",
          "public_transport": "station",
          "railway": "station",
          "railway:ref": "SMA",
          "ref": "SMA",
          "station": "subway",
          "subway": "yes",
          "wikidata": "Q62005430",
          "wikipedia": "en:Mannadi metro station"
        }
      },
      {
        "type": "node",
        "id": 5337658099,
        "lat": 13.1078469,
        "lon": 80.280949,
        "tags": {
          "name": "\u0bb5\u0ba3\u0bcd\u0ba3\u0bbe\u0bb0\u0baa\u0bcd\u0baa\u0bc7\u0b9f\u0bcd\u0b9f\u0bc8",
          "name:en": "Washermanpet",
          "name:ml": "\u0d35\u0d23\u0d4d\u0d23\u0d3e\u0d30\u0d2a\u0d4d\u0d2a\u0d47\u0d1f\u0d4d\u0d1f",
          "name:ta": "\u0bb5\u0ba3\u0bcd\u0ba3\u0bbe\u0bb0\u0baa\u0bcd\u0baa\u0bc7\u0b9f\u0bcd\u0b9f\u0bc8",
          "network": "Chennai Metro",
          "note": "Contributors are requested to not edit the \"network\" and the \"operator\" tags. (2023/11/08)",
          "operator": "Chennai Metro Rail Limited",
          "public_transport": "station",
          "railway": "station",
          "railway:ref": "SWA",
          "ref": "SWA",
          "station": "subway",
          "subway": "yes",
          "wikidata": "Q48732079",
          "wikipedia": "en:Washermanpet metro station"
        }
      },
      {
        "type": "node",
        "id": 5817838780,
        "lat": 13.0832404,
        "lon": 80.2829044,
        "tags": {
          "local_ref": "3",
          "name": "Chennai Fort",
          "public_transport": "stop_position",
          "railway": "stop",
          "ref": "MSF:3",
          "train": "yes"
        }
      },
      {
        "type": "node",
        "id": 5895473215,
        "lat": 13.0913914,
        "lon": 80.2922474,
        "tags": {
          "name": "Chennai Beach",
          "public_transport": "stop_position",
          "railway": "stop",
          "train": "yes"
        }
      },
      {
        "type": "node",
        "id": 5895473234,
        "lat": 13.0930919,
        "lon": 80.2926493,
        "tags": {
          "name": "Chennai Beach",
          "public_transport": "stop_position",
          "railway": "stop",
          "train": "yes"
        }
      },
      {
        "type": "node",
        "id": 6285857250,
        "lat": 13.0816876,
        "lon": 80.2739223,
        "tags": {
          "name": "Central Metro",
          "network": "Chennai Metro",
          "note": "Contributors are requested to not edit the \"network\" and the \"operator\" tags. (2023/11/08)",
          "operator": "Chennai Metro Rail Limited",
          "public_transport": "stop_position",
          "railway": "stop",
          "station": "subway",
          "subway": "yes"
        }
      },
      {
        "type": "node",
        "id": 6285857251,
        "lat": 13.0817126,
        "lon": 80.2739184,
        "tags": {
          "name": "Central Metro",
          "network": "Chennai Metro",
          "note": "Contributors are requested to not edit the \"network\" and the \"operator\" tags. (2023/11/08)",
          "operator": "Chennai Metro Rail Limited",
          "public_transport": "stop_position",
          "railway": "stop",
          "station": "subway",
          "subway": "yes"
        }
      },
      {
        "type": "node",
        "id": 6285857252,
        "lat": 13.0817435,
        "lon": 80.2739136,
        "tags": {
          "name": "Central Metro",
          "network": "Chennai Metro",
          "note": "Contributors are requested to not edit the \"network\" and the \"operator\" tags. (2023/11/08)",
          "operator": "Chennai Metro Rail Limited",
          "public_transport": "stop_position",
          "railway": "stop",
          "subway": "yes"
        }
      },
      {
        "type": "node",
        "id": 6285857253,
        "lat": 13.0817254,
        "lon": 80.273916,
        "tags": {
          "internet_access": "no",
          "name": "Chennai Central",
          "name:en": "Chennai Central",
          "name:ml": "\u0d1a\u0d46\u0d28\u0d4d\u0d28\u0d48 \u0d38\u0d46\u0d7b\u0d1f\u0d4d\u0d30\u0d7d",
          "name:ta": "\u0b9a\u0bc6\u0ba9\u0bcd\u0ba9\u0bc8 \u0bae\u0ba4\u0bcd\u0ba4\u0bbf\u0baf \u0bb0\u0baf\u0bbf\u0bb2\u0bcd \u0ba8\u0bbf\u0bb2\u0bc8\u0baf\u0bae\u0bcd",
          "network": "Chennai Metro",
          "note": "Contributors are requested to not edit the \"network\" and the \"operator\" tags. (2023/11/08)",
          "operator": "Chennai Metro Rail Limited",
          "public_transport": "station",
          "railway": "station",
          "railway:ref": "SCC",
          "ref": "SCC",
          "station": "subway",
          "subway": "yes",
          "wikidata": "Q5091428",
          "wikipedia": "en:Chennai Central metro station"
        }
      },
      {
        "type": "node",
        "id": 6397600715,
        "lat": 13.1079591,
        "lon": 80.281025,
        "tags": {
          "name": "\u0bb5\u0ba3\u0bcd\u0ba3\u0bbe\u0bb0\u0baa\u0bcd\u0baa\u0bc7\u0b9f\u0bcd\u0b9f\u0bc8",
          "name:en": "Washermanpet",
          "name:ta": "\u0bb5\u0ba3\u0bcd\u0ba3\u0bbe\u0bb0\u0baa\u0bcd\u0baa\u0bc7\u0b9f\u0bcd\u0b9f\u0bc8",
          "network": "Chennai Metro",
          "note": "Contributors are requested to not edit the \"network\" and the \"operator\" tags. (2023/11/08)",
          "operator": "Chennai Metro Rail Limited",
          "public_transport": "stop_position",
          "railway": "stop",
          "station": "subway",
          "subway": "yes"
        }
      },
      {
        "type": "node",
        "id": 6397600716,
        "lat": 13.1079711,
        "lon": 80.2809437,
        "tags": {
          "name": "\u0bb5\u0ba3\u0bcd\u0ba3\u0bbe\u0bb0\u0baa\u0bcd\u0baa\u0bc7\u0b9f\u0bcd\u0b9f\u0bc8",
          "name:en": "Washermanpet",
          "name:ta": "\u0bb5\u0ba3\u0bcd\u0ba3\u0bbe\u0bb0\u0baa\u0bcd\u0baa\u0bc7\u0b9f\u0bcd\u0b9f\u0bc8",
          "network": "Chennai Metro",
          "note": "Contributors are requested to not edit the \"network\" and the \"operator\" tags. (2023/11/08)",
          "operator": "Chennai Metro Rail Limited",
          "public_transport": "stop_position",
          "railway": "stop",
          "station": "subway",
          "subway": "yes"
        }
      },
      {
        "type": "node",
        "id": 6397600717,
        "lat": 13.0872148,
        "lon": 80.2849401,
        "tags": {
          "name": "High Court",
          "network": "Chennai Metro",
          "note": "Contributors are requested to not edit the \"network\" and the \"operator\" tags. (2023/11/08)",
          "operator": "Chennai Metro Rail Limited",
          "public_transport": "stop_position",
          "railway": "stop",
          "station": "subway",
          "subway": "yes"
        }
      },
      {
        "type": "node",
        "id": 6397600718,
        "lat": 13.0872079,
        "lon": 80.2849935,
        "tags": {
          "name": "High Court",
          "network": "Chennai Metro",
          "note": "Contributors are requested to not edit the \"network\" and the \"operator\" tags. (2023/11/08)",
          "operator": "Chennai Metro Rail Limited",
          "public_transport": "stop_position",
          "railway": "stop",
          "station": "subway",
          "subway": "yes"
        }
      },
      {
        "type": "node",
        "id": 6460934200,
        "lat": 13.1089648,
        "lon": 80.2820095,
        "tags": {
          "internet_access": "no",
          "name": "Washermanpet",
          "name:ml": "\u0d35\u0d23\u0d4d\u0d23\u0d3e\u0d30\u0d2a\u0d4d\u0d2a\u0d47\u0d1f\u0d4d\u0d1f",
          "name:ta": "\u0bb5\u0ba3\u0bcd\u0ba3\u0bbe\u0bb0\u0baa\u0bcd\u0baa\u0bc7\u0b9f\u0bcd\u0b9f\u0bc8",
          "network": "IR",
          "operator": "SR",
          "public_transport": "station",
          "railway": "station",
          "ref": "WST",
          "wikidata": "Q7971483",
          "wikipedia": "en:Washermanpet railway station"
        }
      },
      {
        "type": "node",
        "id": 7412932325,
        "lat": 13.0883365,
        "lon": 80.2838631,
        "tags": {
          "bus": "yes",
          "name": "Broadway",
          "operator": "MTC",
          "public_transport": "stop_position",
          "public_transport:version": "2"
        }
      },
      {
        "type": "node",
        "id": 7636804603,
        "lat": 13.0835557,
        "lon": 80.275842,
        "tags": {
          "alt_name": "Chennai Central",
          "name": "Puratchi Thalaivar Dr. M. G. Ramachandran Central",
          "name:ta": "\u0b9a\u0bc6\u0ba9\u0bcd\u0ba9\u0bc8 - \u0baa\u0bc1\u0bb0\u0b9f\u0bcd\u0b9a\u0bbf \u0ba4\u0bb2\u0bc8\u0bb5\u0bb0\u0bcd \u0b9f\u0bbe. \u0b8e\u0bae\u0bcd. \u0b9c\u0bbf. \u0bb0\u0bbe\u0bae\u0b9a\u0bcd\u0b9a\u0ba8\u0bcd\u0ba4\u0bbf\u0bb0\u0ba9\u0bcd \u0b9a\u0bc6\u0ba9\u0bcd\u0b9f\u0bcd\u0bb0\u0bb2\u0bcd",
          "public_transport": "stop_position",
          "railway": "stop",
          "ref": "1",
          "train": "yes"
        }
      },
      {
        "type": "node",
        "id": 7636804604,
        "lat": 13.0835516,
        "lon": 80.2758095,
        "tags": {
          "alt_name": "Chennai Central",
          "name": "Puratchi Thalaivar Dr. M. G. Ramachandran Central",
          "name:ta": "\u0b9a\u0bc6\u0ba9\u0bcd\u0ba9\u0bc8 - \u0baa\u0bc1\u0bb0\u0b9f\u0bcd\u0b9a\u0bbf \u0ba4\u0bb2\u0bc8\u0bb5\u0bb0\u0bcd \u0b9f\u0bbe. \u0b8e\u0bae\u0bcd. \u0b9c\u0bbf. \u0bb0\u0bbe\u0bae\u0b9a\u0bcd\u0b9a\u0ba8\u0bcd\u0ba4\u0bbf\u0bb0\u0ba9\u0bcd \u0b9a\u0bc6\u0ba9\u0bcd\u0b9f\u0bcd\u0bb0\u0bb2\u0bcd",
          "public_transport": "stop_position",
          "railway": "stop",
          "ref": "2",
          "train": "yes"
        }
      },
      {
        "type": "node",
        "id": 7636804605,
        "lat": 13.08354,
        "lon": 80.2757,
        "tags": {
          "alt_name": "Chennai Central",
          "name": "Puratchi Thalaivar Dr. M. G. Ramachandran Central",
          "name:ta": "\u0b9a\u0bc6\u0ba9\u0bcd\u0ba9\u0bc8 - \u0baa\u0bc1\u0bb0\u0b9f\u0bcd\u0b9a\u0bbf \u0ba4\u0bb2\u0bc8\u0bb5\u0bb0\u0bcd \u0b9f\u0bbe. \u0b8e\u0bae\u0bcd. \u0b9c\u0bbf. \u0bb0\u0bbe\u0bae\u0b9a\u0bcd\u0b9a\u0ba8\u0bcd\u0ba4\u0bbf\u0bb0\u0ba9\u0bcd \u0b9a\u0bc6\u0ba9\u0bcd\u0b9f\u0bcd\u0bb0\u0bb2\u0bcd",
          "public_transport": "stop_position",
          "railway": "stop",
          "ref": "2A",
          "train": "yes"
        }
      },
      {
        "type": "node",
        "id": 7636804606,
        "lat": 13.0835318,
        "lon": 80.2756071,
        "tags": {
          "alt_name": "Chennai Central",
          "name": "Puratchi Thalaivar Dr. M. G. Ramachandran Central",
          "name:ta": "\u0b9a\u0bc6\u0ba9\u0bcd\u0ba9\u0bc8 - \u0baa\u0bc1\u0bb0\u0b9f\u0bcd\u0b9a\u0bbf \u0ba4\u0bb2\u0bc8\u0bb5\u0bb0\u0bcd \u0b9f\u0bbe. \u0b8e\u0bae\u0bcd. \u0b9c\u0bbf. \u0bb0\u0bbe\u0bae\u0b9a\u0bcd\u0b9a\u0ba8\u0bcd\u0ba4\u0bbf\u0bb0\u0ba9\u0bcd \u0b9a\u0bc6\u0ba9\u0bcd\u0b9f\u0bcd\u0bb0\u0bb2\u0bcd",
          "public_transport": "stop_position",
          "railway": "stop",
          "ref": "3",
          "train": "yes"
        }
      },
      {
        "type": "node",
        "id": 7636804607,
        "lat": 13.0835264,
        "lon": 80.2755696,
        "tags": {
          "alt_name": "Chennai Central",
          "name": "Puratchi Thalaivar Dr. M. G. Ramachandran Central",
          "name:ta": "\u0b9a\u0bc6\u0ba9\u0bcd\u0ba9\u0bc8 - \u0baa\u0bc1\u0bb0\u0b9f\u0bcd\u0b9a\u0bbf \u0ba4\u0bb2\u0bc8\u0bb5\u0bb0\u0bcd \u0b9f\u0bbe. \u0b8e\u0bae\u0bcd. \u0b9c\u0bbf. \u0bb0\u0bbe\u0bae\u0b9a\u0bcd\u0b9a\u0ba8\u0bcd\u0ba4\u0bbf\u0bb0\u0ba9\u0bcd \u0b9a\u0bc6\u0ba9\u0bcd\u0b9f\u0bcd\u0bb0\u0bb2\u0bcd",
          "public_transport": "stop_position",
          "railway": "stop",
          "ref": "4",
          "train": "yes"
        }
      },
      {
        "type": "node",
        "id": 7636804608,
        "lat": 13.08351,
        "lon": 80.2754328,
        "tags": {
          "alt_name": "Chennai Central",
          "name": "Puratchi Thalaivar Dr. M. G. Ramachandran Central",
          "name:ta": "\u0b9a\u0bc6\u0ba9\u0bcd\u0ba9\u0bc8 - \u0baa\u0bc1\u0bb0\u0b9f\u0bcd\u0b9a\u0bbf \u0ba4\u0bb2\u0bc8\u0bb5\u0bb0\u0bcd \u0b9f\u0bbe. \u0b8e\u0bae\u0bcd. \u0b9c\u0bbf. \u0bb0\u0bbe\u0bae\u0b9a\u0bcd\u0b9a\u0ba8\u0bcd\u0ba4\u0bbf\u0bb0\u0ba9\u0bcd \u0b9a\u0bc6\u0ba9\u0bcd\u0b9f\u0bcd\u0bb0\u0bb2\u0bcd",
          "public_transport": "stop_position",
          "railway": "stop",
          "ref": "5",
          "train": "yes"
        }
      },
      {
        "type": "node",
        "id": 7636804609,
        "lat": 13.0835056,
        "lon": 80.2754043,
        "tags": {
          "alt_name": "Chennai Central",
          "name": "Puratchi Thalaivar Dr. M. G. Ramachandran Central",
          "name:ta": "\u0b9a\u0bc6\u0ba9\u0bcd\u0ba9\u0bc8 - \u0baa\u0bc1\u0bb0\u0b9f\u0bcd\u0b9a\u0bbf \u0ba4\u0bb2\u0bc8\u0bb5\u0bb0\u0bcd \u0b9f\u0bbe. \u0b8e\u0bae\u0bcd. \u0b9c\u0bbf. \u0bb0\u0bbe\u0bae\u0b9a\u0bcd\u0b9a\u0ba8\u0bcd\u0ba4\u0bbf\u0bb0\u0ba9\u0bcd \u0b9a\u0bc6\u0ba9\u0bcd\u0b9f\u0bcd\u0bb0\u0bb2\u0bcd",
          "public_transport": "stop_position",
          "railway": "stop",
          "ref": "6",
          "train": "yes"
        }
      },
      {
        "type": "node",
        "id": 7710665289,
        "lat": 13.083673,
        "lon": 80.2747381,
        "tags": {
          "alt_name": "Chennai Central",
          "name": "Puratchi Thalaivar Dr. M. G. Ramachandran Central",
          "name:ta": "\u0b9a\u0bc6\u0ba9\u0bcd\u0ba9\u0bc8 - \u0baa\u0bc1\u0bb0\u0b9f\u0bcd\u0b9a\u0bbf \u0ba4\u0bb2\u0bc8\u0bb5\u0bb0\u0bcd \u0b9f\u0bbe. \u0b8e\u0bae\u0bcd. \u0b9c\u0bbf. \u0bb0\u0bbe\u0bae\u0b9a\u0bcd\u0b9a\u0ba8\u0bcd\u0ba4\u0bbf\u0bb0\u0ba9\u0bcd \u0b9a\u0bc6\u0ba9\u0bcd\u0b9f\u0bcd\u0bb0\u0bb2\u0bcd",
          "public_transport": "stop_position",
          "railway": "stop",
          "ref": "11",
          "train": "yes"
        }
      },
      {
        "type": "node",
        "id": 7710665290,
        "lat": 13.0835317,
        "lon": 80.2751985,
        "tags": {
          "alt_name": "Chennai Central",
          "name": "Puratchi Thalaivar Dr. M. G. Ramachandran Central",
          "name:ta": "\u0b9a\u0bc6\u0ba9\u0bcd\u0ba9\u0bc8 - \u0baa\u0bc1\u0bb0\u0b9f\u0bcd\u0b9a\u0bbf \u0ba4\u0bb2\u0bc8\u0bb5\u0bb0\u0bcd \u0b9f\u0bbe. \u0b8e\u0bae\u0bcd. \u0b9c\u0bbf. \u0bb0\u0bbe\u0bae\u0b9a\u0bcd\u0b9a\u0ba8\u0bcd\u0ba4\u0bbf\u0bb0\u0ba9\u0bcd \u0b9a\u0bc6\u0ba9\u0bcd\u0b9f\u0bcd\u0bb0\u0bb2\u0bcd",
          "public_transport": "stop_position",
          "railway": "stop",
          "ref": "7",
          "train": "yes"
        }
      },
      {
        "type": "node",
        "id": 7710665291,
        "lat": 13.0835267,
        "lon": 80.2751567,
        "tags": {
          "alt_name": "Chennai Central",
          "name": "Puratchi Thalaivar Dr. M. G. Ramachandran Central",
          "name:ta": "\u0b9a\u0bc6\u0ba9\u0bcd\u0ba9\u0bc8 - \u0baa\u0bc1\u0bb0\u0b9f\u0bcd\u0b9a\u0bbf \u0ba4\u0bb2\u0bc8\u0bb5\u0bb0\u0bcd \u0b9f\u0bbe. \u0b8e\u0bae\u0bcd. \u0b9c\u0bbf. \u0bb0\u0bbe\u0bae\u0b9a\u0bcd\u0b9a\u0ba8\u0bcd\u0ba4\u0bbf\u0bb0\u0ba9\u0bcd \u0b9a\u0bc6\u0ba9\u0bcd\u0b9f\u0bcd\u0bb0\u0bb2\u0bcd",
          "public_transport": "stop_position",
          "railway": "stop",
          "ref": "8",
          "train": "yes"
        }
      },
      {
        "type": "node",
        "id": 8430632406,
        "lat": 13.1157545,
        "lon": 80.2847439,
        "tags": {
          "name": "\u0ba4\u0bbf\u0baf\u0bbe\u0b95\u0bb0\u0bbe\u0baf\u0bbe \u0b95\u0bb2\u0bcd\u0bb2\u0bc2\u0bb0\u0bbf",
          "name:en": "Sir Theagaraya College",
          "name:ml": "\u0d24\u0d4d\u0d2f\u0d3e\u0d17\u0d30\u0d3e\u0d2f \u0d15\u0d4b\u0d33\u0d47\u0d1c\u0d4d",
          "name:ta": "\u0ba4\u0bbf\u0baf\u0bbe\u0b95\u0bb0\u0bbe\u0baf\u0bbe \u0b95\u0bb2\u0bcd\u0bb2\u0bc2\u0bb0\u0bbf",
          "network": "Chennai Metro",
          "note": "Contributors are requested to not edit the \"network\" and the \"operator\" tags. (2023/11/08)",
          "operator": "Chennai Metro Rail Limited",
          "public_transport": "station",
          "railway": "station",
          "railway:ref": "STC",
          "ref": "STC",
          "station": "subway",
          "subway": "yes",
          "wikidata": "Q105676245"
        }
      },
      {
        "type": "node",
        "id": 8477103091,
        "lat": 13.1157558,
        "lon": 80.284756,
        "tags": {
          "name": "\u0ba4\u0bbf\u0baf\u0bbe\u0b95\u0bb0\u0bbe\u0baf\u0bbe \u0b95\u0bb2\u0bcd\u0bb2\u0bc2\u0bb0\u0bbf",
          "name:en": "Sir Theagaraya College",
          "name:ta": "\u0ba4\u0bbf\u0baf\u0bbe\u0b95\u0bb0\u0bbe\u0baf\u0bbe \u0b95\u0bb2\u0bcd\u0bb2\u0bc2\u0bb0\u0bbf",
          "network": "Chennai Metro",
          "note": "Contributors are requested to not edit the \"network\" and the \"operator\" tags. (2023/11/08)",
          "operator": "Chennai Metro Rail Limited",
          "public_transport": "stop_position",
          "railway": "stop",
          "subway": "yes"
        }
      },
      {
        "type": "node",
        "id": 8477103093,
        "lat": 13.1157667,
        "lon": 80.2847109,
        "tags": {
          "name": "\u0ba4\u0bbf\u0baf\u0bbe\u0b95\u0bb0\u0bbe\u0baf\u0bbe \u0b95\u0bb2\u0bcd\u0bb2\u0bc2\u0bb0\u0bbf",
          "name:en": "Sir Theagaraya College",
          "name:ta": "\u0ba4\u0bbf\u0baf\u0bbe\u0b95\u0bb0\u0bbe\u0baf\u0bbe \u0b95\u0bb2\u0bcd\u0bb2\u0bc2\u0bb0\u0bbf",
          "network": "Chennai Metro",
          "note": "Contributors are requested to not edit the \"network\" and the \"operator\" tags. (2023/11/08)",
          "operator": "Chennai Metro Rail Limited",
          "public_transport": "stop_position",
          "railway": "stop",
          "subway": "yes"
        }
      },
      {
        "type": "node",
        "id": 9504474775,
        "lat": 13.081935,
        "lon": 80.2774889,
        "tags": {
          "bus": "yes",
          "name": "General Hospital",
          "public_transport": "stop_position"
        }
      },
      {
        "type": "node",
        "id": 9885031455,
        "lat": 13.0835608,
        "lon": 80.2738737,
        "tags": {
          "name": "Moore Market Complex",
          "public_transport": "stop_position",
          "railway": "stop",
          "ref": "17",
          "train": "yes"
        }
      },
      {
        "type": "node",
        "id": 9885031456,
        "lat": 13.0836178,
        "lon": 80.2743736,
        "tags": {
          "name": "Moore Market Complex",
          "public_transport": "stop_position",
          "railway": "stop",
          "ref": "13",
          "train": "yes"
        }
      },
      {
        "type": "node",
        "id": 9992403939,
        "lat": 13.1085033,
        "lon": 80.2810805,
        "tags": {
          "amenity": "charging_station"
        }
      },
      {
        "type": "node",
        "id": 10187877326,
        "lat": 13.0876838,
        "lon": 80.2836744,
        "tags": {
          "bus": "yes",
          "name": "Broadway Bus Terminus",
          "public_transport": "stop_position"
        }
      },
      {
        "type": "node",
        "id": 10893129578,
        "lat": 13.1036664,
        "lon": 80.2734324,
        "tags": {
          "amenity": "fuel",
          "brand": "Hindustan Petroleum",
          "brand:wikidata": "Q1619375",
          "name": "HP",
          "official_name": "Hindustan Petroleum"
        }
      },
      {
        "type": "node",
        "id": 12794255583,
        "lat": 13.0835001,
        "lon": 80.2749403,
        "tags": {
          "alt_name": "Chennai Central",
          "name": "Puratchi Thalaivar Dr. M. G. Ramachandran Central",
          "name:ta": "\u0b9a\u0bc6\u0ba9\u0bcd\u0ba9\u0bc8 - \u0baa\u0bc1\u0bb0\u0b9f\u0bcd\u0b9a\u0bbf \u0ba4\u0bb2\u0bc8\u0bb5\u0bb0\u0bcd \u0b9f\u0bbe. \u0b8e\u0bae\u0bcd. \u0b9c\u0bbf. \u0bb0\u0bbe\u0bae\u0b9a\u0bcd\u0b9a\u0ba8\u0bcd\u0ba4\u0bbf\u0bb0\u0ba9\u0bcd \u0b9a\u0bc6\u0ba9\u0bcd\u0b9f\u0bcd\u0bb0\u0bb2\u0bcd",
          "public_transport": "stop_position",
          "railway": "stop",
          "ref": "10",
          "train": "yes"
        }
      },
      {
        "type": "node",
        "id": 12794255584,
        "lat": 13.0835059,
        "lon": 80.2749931,
        "tags": {
          "alt_name": "Chennai Central",
          "name": "Puratchi Thalaivar Dr. M. G. Ramachandran Central",
          "name:ta": "\u0b9a\u0bc6\u0ba9\u0bcd\u0ba9\u0bc8 - \u0baa\u0bc1\u0bb0\u0b9f\u0bcd\u0b9a\u0bbf \u0ba4\u0bb2\u0bc8\u0bb5\u0bb0\u0bcd \u0b9f\u0bbe. \u0b8e\u0bae\u0bcd. \u0b9c\u0bbf. \u0bb0\u0bbe\u0bae\u0b9a\u0bcd\u0b9a\u0ba8\u0bcd\u0ba4\u0bbf\u0bb0\u0ba9\u0bcd \u0b9a\u0bc6\u0ba9\u0bcd\u0b9f\u0bcd\u0bb0\u0bb2\u0bcd",
          "public_transport": "stop_position",
          "railway": "stop",
          "ref": "9",
          "train": "yes"
        }
      }
    ]
  }
}