{
  "pois_1km": {
    "version": 0.6,
    "generator": "Overpass API 0.7.62.8 e802775f",
    "osm3s": {
      "timestamp_osm_base": "2025-09-06T09:09:00Z",
      "copyright": "The data included in this document is from www.openstreetmap.org. The data is made available under ODbL."
    },
    "elements": [
      {
        "type": "node",
        "id": 370972611,
        "lat": 13.0316532,
        "lon": 80.1640666,
        "tags": {
          "amenity": "restaurant",
          "name": "Dominoes Pizza"
        }
      },
      {
        "type": "node",
        "id": 370972614,
        "lat": 13.0330479,
        "lon": 80.161486,
        "tags": {
          "amenity": "atm",
          "brand": "Karnataka Bank",
          "brand:wikidata": "Q2042632",
          "operator": "Karnataka Bank",
          "operator:wikidata": "Q2042632"
        }
      },
      {
        "type": "node",
        "id": 2072479943,
        "lat": 13.0358564,
        "lon": 80.1644897,
        "tags": {
          "amenity": "hospital",
          "emergency": "no",
          "name": "JK Hospital"
        }
      },
      {
        "type": "node",
        "id": 4313246197,
        "lat": 13.0294749,
        "lon": 80.1590885,
        "tags": {
          "name": "Muthu Stores",
          "shop": "department_store"
        }
      },
      {
        "type": "node",
        "id": 4315325991,
        "lat": 13.029866,
        "lon": 80.1592223,
        "tags": {
          "name": "Raja Stores",
          "shop": "department_store"
        }
      },
      {
        "type": "node",
        "id": 5617370037,
        "lat": 13.0335073,
        "lon": 80.1610851,
        "tags": {
          "addr:city": "chennai",
          "addr:street": "Mount Poonamallee Highway",
          "amenity": "restaurant",
          "capacity": "05",
          "delivery": "yes",
          "name": "Goly pav no 1",
          "smoking": "no",
          "takeaway": "yes"
        }
      },
      {
        "type": "node",
        "id": 6936386662,
        "lat": 13.0381353,
        "lon": 80.1619336,
        "tags": {
          "addr:district": "Kanchipuram",
          "addr:full": "No 49, Aruot Road Porur Porur Chennai",
          "addr:postcode": "600116",
          "addr:state": "Tamil Nadu",
          "amenity": "hospital",
          "name": "Dr Agarwals Eye Hospital Ltd, Chennai",
          "source": "OpenGovernmentData"
        }
      },
      {
        "type": "node",
        "id": 7257421589,
        "lat": 13.036525,
        "lon": 80.1567342,
        "tags": {
          "addr:block": "Chennai Zone Xi",
          "addr:district": "Chennai",
          "addr:full": "Back Side Of Hotel Grand Residence, Karapakkam",
          "addr:postcode": "600116",
          "addr:state": "Tamil Nadu",
          "amenity": "hospital",
          "name": "Parvathy Hospital",
          "source": "OpenGovernmentData"
        }
      },
      {
        "type": "node",
        "id": 8869350452,
        "lat": 13.0381458,
        "lon": 80.1619363,
        "tags": {
          "amenity": "hospital",
          "healthcare": "hospital"
        }
      },
      {
        "type": "node",
        "id": 8869350454,
        "lat": 13.03833,
        "lon": 80.1617888,
        "tags": {
          "shop": "mall"
        }
      },
      {
        "type": "node",
        "id": 8869350458,
        "lat": 13.0379485,
        "lon": 80.161715,
        "tags": {
          "shop": "mall"
        }
      }
    ]
  },
  "pois_2_5km": {
    "version": 0.6,
    "generator": "Overpass API 0.7.62.8 e802775f",
    "osm3s": {
      "timestamp_osm_base": "2025-09-06T09:09:00Z",
      "copyright": "The data included in this document is from www.openstreetmap.org. The data is made available under ODbL."
    },
    "elements": [
      {
        "type": "node",
        "id": 370972600,
        "lat": 13.0259345,
        "lon": 80.1753026,
        "tags": {
          "amenity": "fuel",
          "compressed_air": "yes",
          "created_by": "Potlatch 0.10f",
          "name": "Indainoil"
        }
      },
      {
        "type": "node",
        "id": 370972606,
        "lat": 13.0310451,
        "lon": 80.1651264,
        "tags": {
          "amenity": "fuel",
          "brand": "Shell",
          "brand:wikidata": "Q110716465",
          "created_by": "Potlatch 0.10f",
          "name": "Shell"
        }
      },
      {
        "type": "node",
        "id": 5489108080,
        "lat": 13.0410443,
        "lon": 80.1733792,
        "tags": {
          "bus": "yes",
          "name": "Valasaravakkam",
          "public_transport": "stop_position"
        }
      },
      {
        "type": "node",
        "id": 11617869405,
        "lat": 13.0312675,
        "lon": 80.1645244,
        "tags": {
          "amenity": "fuel",
          "brand": "Shell",
          "brand:wikidata": "Q110716465",
          "compressed_air": "yes",
          "name": "Shell"
        }
      },
      {
        "type": "node",
        "id": 11629500452,
        "lat": 13.0488261,
        "lon": 80.1661892,
        "tags": {
          "amenity": "fuel",
          "brand": "Hindustan Petroleum",
          "brand:wikidata": "Q1619375",
          "name": "HP",
          "official_name": "Hindustan Petroleum"
        }
      }
    ]
  }
}