{
  "pois_1km": {
    "version": 0.6,
    "generator": "Overpass API 0.7.62.8 e802775f",
    "osm3s": {
      "timestamp_osm_base": "2025-09-06T08:59:35Z",
      "copyright": "The data included in this document is from www.openstreetmap.org. The data is made available under ODbL."
    },
    "elements": [
      {
        "type": "node",
        "id": 257532623,
        "lat": 12.9946821,
        "lon": 80.1874068,
        "tags": {
          "amenity": "restaurant",
          "name": "The Great Kabab Factory"
        }
      },
      {
        "type": "node",
        "id": 310830914,
        "lat": 12.9932203,
        "lon": 80.1853385,
        "tags": {
          "amenity": "atm",
          "brand": "ICICI Bank",
          "brand:en": "ICICI Bank",
          "brand:wikidata": "Q1653258",
          "brand:wikipedia": "en:ICICI Bank",
          "currency:INR": "yes",
          "drive_through": "no",
          "indoor": "yes",
          "name": "ICICI Bank",
          "note": "Contributors are requested to not edit the \"brand\", \"brand:en\", \"brand:wikidata\", \"operator\", \"operator:en\" and \"operator:wikidata\" tags. (2025/03/03)",
          "opening_hours": "24/7",
          "operator": "ICICI Bank",
          "operator:en": "ICICI Bank",
          "operator:wikidata": "Q1653258",
          "operator:wikipedia": "en:ICICI Bank",
          "short_name": "ICICI"
        }
      },
      {
        "type": "node",
        "id": 310910945,
        "lat": 12.9887616,
        "lon": 80.1904116,
        "tags": {
          "addr:street": "5th Main Road",
          "amenity": "hospital",
          "healthcare": "hospital",
          "name": "BM Hospital",
          "phone": "044-22670277",
          "website": "https://bmhospitals.com/",
          "wheelchair": "limited"
        }
      },
      {
        "type": "node",
        "id": 312013569,
        "lat": 12.985929,
        "lon": 80.1883597,
        "tags": {
          "amenity": "bank",
          "brand": "Canara Bank",
          "brand:pa": "\u0a15\u0a47\u0a28\u0a30\u0a3e \u0a2c\u0a48\u0a02\u0a15",
          "brand:ur": "\u06a9\u06cc\u0646\u0631\u0627 \u0628\u06cc\u0646\u06a9",
          "brand:wikidata": "Q2003777",
          "brand:wikipedia": "en:Canara Bank",
          "brand:wikipedia:pa": "\u0a15\u0a47\u0a28\u0a30\u0a3e \u0a2c\u0a48\u0a02\u0a15",
          "name": "Canara Bank",
          "name:pa": "\u0a15\u0a47\u0a28\u0a30\u0a3e \u0a2c\u0a48\u0a02\u0a15",
          "name:ur": "\u06a9\u06cc\u0646\u0631\u0627 \u0628\u06cc\u0646\u06a9",
          "website": "https://www.canarabank.com/"
        }
      },
      {
        "type": "node",
        "id": 325200225,
        "lat": 12.9943729,
        "lon": 80.1942837,
        "tags": {
          "leisure": "park",
          "name": "Alandur",
          "name:ta": "\u0b86\u0bb2\u0ba8\u0bcd\u0ba4\u0bc2\u0bb0\u0bcd"
        }
      },
      {
        "type": "node",
        "id": 2116368563,
        "lat": 12.9855368,
        "lon": 80.1880412,
        "tags": {
          "amenity": "atm",
          "brand": "Karur Vysya Bank",
          "brand:wikidata": "Q6373724",
          "brand:wikipedia": "en:Karur Vysya Bank",
          "drive_through": "no",
          "name": "Karur Vysya Bank",
          "operator": "Karur Vysya Bank",
          "operator:wikidata": "Q6373724",
          "operator:wikipedia": "en:Karur Vysya Bank"
        }
      },
      {
        "type": "node",
        "id": 2145424658,
        "lat": 12.9863102,
        "lon": 80.1883615,
        "tags": {
          "amenity": "restaurant",
          "name": "Sri Sai Surya Hotel"
        }
      },
      {
        "type": "node",
        "id": 2150436707,
        "lat": 12.9936906,
        "lon": 80.185352,
        "tags": {
          "amenity": "atm",
          "brand": "ICICI Bank",
          "brand:en": "ICICI Bank",
          "brand:wikidata": "Q1653258",
          "brand:wikipedia": "en:ICICI Bank",
          "currency:INR": "yes",
          "drive_through": "no",
          "indoor": "yes",
          "name": "ICICI Bank",
          "note": "Contributors are requested to not edit the \"brand\", \"brand:en\", \"brand:wikidata\", \"operator\", \"operator:en\" and \"operator:wikidata\" tags. (2025/03/03)",
          "opening_hours": "24/7",
          "operator": "ICICI Bank",
          "operator:en": "ICICI Bank",
          "operator:wikidata": "Q1653258",
          "operator:wikipedia": "en:ICICI Bank",
          "short_name": "ICICI"
        }
      },
      {
        "type": "node",
        "id": 2151931902,
        "lat": 12.9861219,
        "lon": 80.1885197,
        "tags": {
          "amenity": "atm",
          "brand": "Indian Overseas Bank",
          "brand:wikidata": "Q2003611",
          "brand:wikipedia": "en:Indian Overseas Bank",
          "name": "Indian Overseas Bank",
          "operator": "Indian Overseas Bank",
          "operator:wikidata": "Q2003611",
          "operator:wikipedia": "en:Indian Overseas Bank"
        }
      },
      {
        "type": "node",
        "id": 2151932128,
        "lat": 12.9857036,
        "lon": 80.1886779,
        "tags": {
          "amenity": "atm",
          "brand": "State Bank of India",
          "brand:en": "State Bank of India",
          "brand:wikidata": "Q1340361",
          "brand:wikipedia": "en:State Bank of India",
          "currency:INR": "yes",
          "drive_through": "no",
          "indoor": "yes",
          "name": "State Bank of India",
          "note": "Contributors are requested to not edit the \"brand\", \"brand:en\", \"brand:wikidata\", \"operator\", \"operator:en\" and \"operator:wikidata\" tags. (2025/03/03)",
          "opening_hours": "24/7",
          "operator": "State Bank of India",
          "operator:en": "State Bank of India",
          "operator:wikidata": "Q1340361",
          "operator:wikipedia": "en:State Bank of India",
          "short_name": "SBI"
        }
      },
      {
        "type": "node",
        "id": 2151933464,
        "lat": 12.9860357,
        "lon": 80.1885197,
        "tags": {
          "amenity": "pharmacy",
          "brand": "Apollo Pharmacy",
          "brand:wikidata": "Q62562612",
          "healthcare": "pharmacy",
          "name": "Apollo Pharmacy"
        }
      },
      {
        "type": "node",
        "id": 2258356173,
        "lat": 12.9872328,
        "lon": 80.1881281,
        "tags": {
          "amenity": "pharmacy",
          "brand": "MedPlus",
          "brand:wikidata": "Q65684234",
          "brand:wikipedia": "en:MedPlus",
          "healthcare": "pharmacy",
          "name": "MedPlus"
        }
      },
      {
        "type": "node",
        "id": 2878228521,
        "lat": 12.9936642,
        "lon": 80.1853882,
        "tags": {
          "amenity": "atm",
          "brand": "Canara Bank",
          "brand:pa": "\u0a15\u0a47\u0a28\u0a30\u0a3e \u0a2c\u0a48\u0a02\u0a15",
          "brand:ur": "\u06a9\u06cc\u0646\u0631\u0627 \u0628\u06cc\u0646\u06a9",
          "brand:wikidata": "Q2003777",
          "brand:wikipedia": "en:Canara Bank",
          "brand:wikipedia:pa": "\u0a15\u0a47\u0a28\u0a30\u0a3e \u0a2c\u0a48\u0a02\u0a15",
          "name": "Canara Bank",
          "name:pa": "\u0a15\u0a47\u0a28\u0a30\u0a3e \u0a2c\u0a48\u0a02\u0a15",
          "name:ur": "\u06a9\u06cc\u0646\u0631\u0627 \u0628\u06cc\u0646\u06a9"
        }
      },
      {
        "type": "node",
        "id": 2878239762,
        "lat": 12.99415,
        "lon": 80.1872174,
        "tags": {
          "amenity": "fast_food",
          "brand": "Papa John's",
          "brand:wikidata": "Q2759586",
          "brand:wikipedia": "en:Papa John's Pizza",
          "cuisine": "pizza",
          "name": "Papa John's",
          "takeaway": "yes"
        }
      },
      {
        "type": "node",
        "id": 2878241398,
        "lat": 12.9941032,
        "lon": 80.1871212,
        "tags": {
          "amenity": "restaurant",
          "name": "Aishwarya Restaurant"
        }
      },
      {
        "type": "node",
        "id": 2878248837,
        "lat": 12.9940614,
        "lon": 80.186987,
        "tags": {
          "amenity": "fast_food",
          "cuisine": "chinese",
          "name": "Noodle King"
        }
      },
      {
        "type": "node",
        "id": 2878249758,
        "lat": 12.9941657,
        "lon": 80.1872979,
        "tags": {
          "amenity": "fast_food",
          "name": "Fruit Shop on Greams Road"
        }
      },
      {
        "type": "node",
        "id": 2878250431,
        "lat": 12.9941189,
        "lon": 80.1868905,
        "tags": {
          "amenity": "atm",
          "brand": "Standard Chartered",
          "brand:wikidata": "Q548278",
          "brand:wikipedia": "en:Standard Chartered",
          "name": "Standard Chartered",
          "operator": "Standard Chartered",
          "operator:wikidata": "Q548278",
          "operator:wikipedia": "en:Standard Chartered"
        }
      },
      {
        "type": "node",
        "id": 2878265275,
        "lat": 12.9948375,
        "lon": 80.1878291,
        "tags": {
          "amenity": "atm",
          "brand": "HDFC Bank",
          "brand:en": "HDFC Bank",
          "brand:wikidata": "Q631047",
          "brand:wikipedia": "en:HDFC Bank",
          "currency:INR": "yes",
          "drive_through": "no",
          "indoor": "yes",
          "name": "HDFC Bank",
          "note": "Contributors are requested to not edit the \"brand\", \"brand:en\", \"brand:wikidata\", \"operator\", \"operator:en\" and \"operator:wikidata\" tags. (2025/03/03)",
          "opening_hours": "24/7",
          "operator": "HDFC Bank",
          "operator:en": "HDFC Bank",
          "operator:wikidata": "Q631047",
          "operator:wikipedia": "en:HDFC Bank",
          "short_name": "HDFC"
        }
      },
      {
        "type": "node",
        "id": 2878313102,
        "lat": 12.9859735,
        "lon": 80.188365,
        "tags": {
          "amenity": "atm",
          "brand": "Canara Bank",
          "brand:pa": "\u0a15\u0a47\u0a28\u0a30\u0a3e \u0a2c\u0a48\u0a02\u0a15",
          "brand:ur": "\u06a9\u06cc\u0646\u0631\u0627 \u0628\u06cc\u0646\u06a9",
          "brand:wikidata": "Q2003777",
          "brand:wikipedia": "en:Canara Bank",
          "brand:wikipedia:pa": "\u0a15\u0a47\u0a28\u0a30\u0a3e \u0a2c\u0a48\u0a02\u0a15",
          "name": "Canara Bank",
          "name:pa": "\u0a15\u0a47\u0a28\u0a30\u0a3e \u0a2c\u0a48\u0a02\u0a15",
          "name:ur": "\u06a9\u06cc\u0646\u0631\u0627 \u0628\u06cc\u0646\u06a9"
        }
      },
      {
        "type": "node",
        "id": 2881969945,
        "lat": 12.9855316,
        "lon": 80.1859959,
        "tags": {
          "amenity": "bank",
          "atm": "yes",
          "brand": "Punjab National Bank",
          "brand:wikidata": "Q2743499",
          "brand:wikipedia": "en:Punjab National Bank",
          "name": "Punjab National Bank",
          "name:en": "Punjab National Bank",
          "short_name": "PNB",
          "website": "https://www.pnbindia.in"
        }
      },
      {
        "type": "node",
        "id": 2881972050,
        "lat": 12.9871207,
        "lon": 80.1858832,
        "tags": {
          "amenity": "bank",
          "atm": "yes",
          "brand": "Indian Overseas Bank",
          "brand:wikidata": "Q2003611",
          "brand:wikipedia": "en:Indian Overseas Bank",
          "name": "Indian Overseas Bank",
          "name:en": "Indian Overseas Bank",
          "short_name": "IOB",
          "website": "https://www.iob.in"
        }
      },
      {
        "type": "node",
        "id": 3240606754,
        "lat": 12.9886621,
        "lon": 80.1903162,
        "tags": {
          "addr:street": "5th Main Road",
          "amenity": "pharmacy",
          "healthcare": "pharmacy",
          "name": "Shri Ganesh Pharmacy"
        }
      },
      {
        "type": "node",
        "id": 6934186203,
        "lat": 12.9857914,
        "lon": 80.185987,
        "tags": {
          "addr:district": "Chennai",
          "addr:full": "No.1, 47th Street, 5th Main Road",
          "addr:postcode": "600 061",
          "addr:state": "Tamil Nadu",
          "addr:subdistrict": "Nanganallur",
          "amenity": "hospital",
          "email": "info@cmhospital.in",
          "healthcare": "hospital",
          "name": "Sri Venkateshwara`s C.M. Hospital",
          "operator:type": "private",
          "source": "OpenGovernmentData",
          "website": "https://cmhospital.in/"
        }
      }
    ]
  },
  "pois_2_5km": {
    "version": 0.6,
    "generator": "Overpass API 0.7.62.8 e802775f",
    "osm3s": {
      "timestamp_osm_base": "2025-09-06T08:59:35Z",
      "copyright": "The data included in this document is from www.openstreetmap.org. The data is made available under ODbL."
    },
    "elements": [
      {
        "type": "node",
        "id": 252171269,
        "lat": 12.9949254,
        "lon": 80.1993669,
        "tags": {
          "public_transport": "stop_position",
          "ref": "STM"
        }
      },
      {
        "type": "node",
        "id": 257532624,
        "lat": 12.9943244,
        "lon": 80.1870765,
        "tags": {
          "amenity": "fuel",
          "brand": "Bharat Petroleum",
          "brand:wikidata": "Q854826",
          "brand:wikipedia": "en:Bharat Petroleum",
          "compressed_air": "yes",
          "name": "Bharat Petroleum",
          "operator": "ASM Abdul Cader Co"
        }
      },
      {
        "type": "node",
        "id": 278746634,
        "lat": 12.9778068,
        "lon": 80.1812484,
        "tags": {
          "amenity": "bus_station",
          "bus": "yes",
          "internet_access": "no",
          "name": "Nanganallur Bus Terminus",
          "operator": "MTC",
          "public_transport": "station"
        }
      },
      {
        "type": "node",
        "id": 300134382,
        "lat": 12.988501,
        "lon": 80.197819,
        "tags": {
          "bus": "yes",
          "public_transport": "stop_position"
        }
      },
      {
        "type": "node",
        "id": 300370338,
        "lat": 12.9816619,
        "lon": 80.1957195,
        "tags": {
          "bus": "yes",
          "name": "Vanuvampet",
          "public_transport": "stop_position"
        }
      },
      {
        "type": "node",
        "id": 308914783,
        "lat": 12.9799224,
        "lon": 80.1822996,
        "tags": {
          "amenity": "cinema",
          "name": "Vetrivel Cinemas"
        }
      },
      {
        "type": "node",
        "id": 310830860,
        "lat": 12.9935494,
        "lon": 80.1850866,
        "tags": {
          "amenity": "fuel",
          "brand": "Indian Oil",
          "brand:wikidata": "Q1289348",
          "brand:wikipedia": "en:Indian Oil Corporation",
          "compressed_air": "yes",
          "name": "Shanthi Petrol Station"
        }
      },
      {
        "type": "node",
        "id": 391823888,
        "lat": 13.0073386,
        "lon": 80.1969623,
        "tags": {
          "bus": "yes",
          "highway": "bus_stop",
          "name": "Butt Road",
          "public_transport": "stop_position"
        }
      },
      {
        "type": "node",
        "id": 978180615,
        "lat": 13.0073497,
        "lon": 80.2002828,
        "tags": {
          "amenity": "fuel",
          "brand": "Bharat Petroleum",
          "brand:wikidata": "Q854826",
          "name": "Bharat Petroleum"
        }
      },
      {
        "type": "node",
        "id": 1008034321,
        "lat": 12.9951306,
        "lon": 80.1992885,
        "tags": {
          "public_transport": "stop_position",
          "ref": "STM"
        }
      },
      {
        "type": "node",
        "id": 1008034345,
        "lat": 12.9947038,
        "lon": 80.1994765,
        "tags": {
          "public_transport": "stop_position",
          "ref": "STM"
        }
      },
      {
        "type": "node",
        "id": 1197445418,
        "lat": 12.9948463,
        "lon": 80.1994107,
        "tags": {
          "public_transport": "stop_position",
          "ref": "STM"
        }
      },
      {
        "type": "node",
        "id": 2137260915,
        "lat": 13.008573,
        "lon": 80.1977929,
        "tags": {
          "bus": "yes",
          "public_transport": "stop_position"
        }
      },
      {
        "type": "node",
        "id": 2438975982,
        "lat": 12.9949578,
        "lon": 80.1993542,
        "tags": {
          "public_transport": "stop_position",
          "ref": "STM"
        }
      },
      {
        "type": "node",
        "id": 2878263802,
        "lat": 12.9949579,
        "lon": 80.1879445,
        "tags": {
          "amenity": "fuel",
          "brand": "Hindustan Petroleum",
          "brand:wikidata": "Q1619375",
          "brand:wikipedia": "en:Hindustan Petroleum",
          "compressed_air": "yes",
          "name": "HP",
          "official_name": "Hindustan Petroleum"
        }
      },
      {
        "type": "node",
        "id": 3187977875,
        "lat": 12.9906385,
        "lon": 80.1879401,
        "tags": {
          "name": "Palavanthangal",
          "name:ml": "\u0d2a\u0d34\u0d35\u0d28\u0d4d\u0d24\u0d3e\u0d19\u0d4d\u0d15\u0d7d",
          "name:ta": "\u0baa\u0bb4\u0bb5\u0ba8\u0bcd\u0ba4\u0bbe\u0b99\u0bcd\u0b95\u0bb2\u0bcd",
          "network": "IR",
          "operator": "SR",
          "public_transport": "station",
          "railway": "station",
          "ref": "PZA",
          "wikidata": "Q7156987",
          "wikipedia": "en:Pazhavanthangal railway station"
        }
      },
      {
        "type": "node",
        "id": 4221752111,
        "lat": 12.9947654,
        "lon": 80.1993715,
        "tags": {
          "internet_access": "no",
          "name": "St. Thomas Mount",
          "name:ml": "\u0d38\u0d46\u0d28\u0d4d\u0d31\u0d4d \u0d24\u0d4b\u0d2e\u0d38\u0d4d \u0d2e\u0d57\u0d23\u0d4d\u0d1f\u0d4d",
          "name:ta": "\u0baa\u0bb0\u0b99\u0bcd\u0b95\u0bbf\u0bae\u0bb2\u0bc8",
          "network": "IR",
          "operator": "SR",
          "public_transport": "station",
          "railway": "station",
          "ref": "STM",
          "wikidata": "Q7591984",
          "wikipedia": "en:St. Thomas Mount railway station"
        }
      },
      {
        "type": "node",
        "id": 4885094689,
        "lat": 12.9846976,
        "lon": 80.1750925,
        "tags": {
          "internet_access": "no",
          "internet_access:fee": "no",
          "name": "Meenambakkam",
          "name:ml": "\u0d2e\u0d40\u0d28\u0d2e\u0d4d\u0d2a\u0d3e\u0d15\u0d4d\u0d15\u0d02",
          "name:ta": "\u0bae\u0bc0\u0ba9\u0bae\u0bcd\u0baa\u0bbe\u0b95\u0bcd\u0b95\u0bae\u0bcd",
          "network": "IR",
          "operator": "SR",
          "public_transport": "station",
          "railway": "station",
          "ref": "MN",
          "wikidata": "Q6807623",
          "wikipedia": "en:Meenambakkam railway station"
        }
      },
      {
        "type": "node",
        "id": 5308690568,
        "lat": 13.0042558,
        "lon": 80.2014525,
        "tags": {
          "addr:city": "Chennai",
          "layer": "1",
          "level": "1",
          "name": "\u0b86\u0bb2\u0ba8\u0bcd\u0ba4\u0bc2\u0bb0\u0bcd",
          "name:en": "Alandur",
          "name:ml": "\u0d06\u0d32\u0d28\u0d4d\u0d24\u0d42\u0d7c",
          "name:ta": "\u0b86\u0bb2\u0ba8\u0bcd\u0ba4\u0bc2\u0bb0\u0bcd",
          "network": "Chennai Metro",
          "note": "Contributors are requested to not edit the \"network\" and the \"operator\" tags. (2023/11/08)",
          "operator": "Chennai Metro Rail Limited",
          "public_transport": "station",
          "railway": "station",
          "railway:ref": "SAL",
          "ref": "SAL",
          "station": "subway",
          "subway": "yes",
          "wheelchair": "yes",
          "wikidata": "Q4708199",
          "wikipedia": "en:Alandur metro station"
        }
      },
      {
        "type": "node",
        "id": 5311755244,
        "lat": 12.9823811,
        "lon": 80.1968882,
        "tags": {
          "construction:railway": "station",
          "name": "Adambakkam",
          "network": "MRTS",
          "operator": "MRTS",
          "public_transport": "station",
          "railway": "station",
          "train": "yes",
          "wikidata": "Q4680126",
          "wikipedia": "en:Adambakkam railway station"
        }
      },
      {
        "type": "node",
        "id": 5319202812,
        "lat": 12.995,
        "lon": 80.198582,
        "tags": {
          "name": "\u0baa\u0bb0\u0b99\u0bcd\u0b95\u0bbf\u0bae\u0bb2\u0bc8",
          "name:en": "St. Thomas Mount",
          "name:ml": "\u0d38\u0d46\u0d28\u0d4d\u0d31\u0d4d \u0d24\u0d4b\u0d2e\u0d38\u0d4d \u0d2e\u0d57\u0d23\u0d4d\u0d1f\u0d4d",
          "name:ta": "\u0baa\u0bb0\u0b99\u0bcd\u0b95\u0bbf\u0bae\u0bb2\u0bc8",
          "network": "Chennai Metro",
          "network:wikidata": "Q1639576",
          "note": "Contributors are requested to not edit the \"network\" and the \"operator\" tags. (2023/11/08)",
          "operator": "Chennai Metro Rail Limited",
          "public_transport": "station",
          "railway": "station",
          "railway:ref": "SMM",
          "ref": "SMM",
          "station": "subway",
          "subway": "yes",
          "wikidata": "Q7591984",
          "wikipedia": "en:St. Thomas Mount railway station"
        }
      },
      {
        "type": "node",
        "id": 5319207346,
        "lat": 12.9876388,
        "lon": 80.1764698,
        "tags": {
          "name": "\u0bae\u0bc0\u0ba9\u0bae\u0bcd\u0baa\u0bbe\u0b95\u0bcd\u0b95\u0bae\u0bcd",
          "name:en": "Meenambakkam",
          "name:ta": "\u0bae\u0bc0\u0ba9\u0bae\u0bcd\u0baa\u0bbe\u0b95\u0bcd\u0b95\u0bae\u0bcd",
          "network": "Chennai Metro",
          "note": "Contributors are requested to not edit the \"network\" and the \"operator\" tags. (2023/11/08)",
          "operator": "Chennai Metro Rail Limited",
          "public_transport": "stop_position",
          "railway": "stop",
          "station": "subway",
          "subway": "yes"
        }
      },
      {
        "type": "node",
        "id": 5319207355,
        "lat": 12.9998483,
        "lon": 80.1940028,
        "tags": {
          "name": "Nanganallur Road",
          "network": "Chennai Metro",
          "note": "Contributors are requested to not edit the \"network\" and the \"operator\" tags. (2023/11/08)",
          "operator": "Chennai Metro Rail Limited",
          "public_transport": "stop_position",
          "railway": "stop",
          "station": "subway",
          "subway": "yes"
        }
      },
      {
        "type": "node",
        "id": 5367536435,
        "lat": 13.0154656,
        "lon": 80.1840501,
        "tags": {
          "amenity": "fuel",
          "brand": "Bharat Petroleum",
          "brand:wikidata": "Q854826",
          "fuel:diesel": "yes",
          "fuel:gasoline": "yes",
          "fuel:octane_95": "yes",
          "fuel:octane_98": "yes",
          "name": "Bharat Petroleum",
          "operator": "Bharat Petroleum",
          "payment:cash": "yes",
          "payment:credit_cards": "yes",
          "payment:debit_cards": "yes"
        }
      },
      {
        "type": "node",
        "id": 5423870707,
        "lat": 13.0042124,
        "lon": 80.2015605,
        "tags": {
          "name": "\u0b86\u0bb2\u0ba8\u0bcd\u0ba4\u0bc2\u0bb0\u0bcd",
          "name:en": "Alandur",
          "name:ta": "\u0b86\u0bb2\u0ba8\u0bcd\u0ba4\u0bc2\u0bb0\u0bcd",
          "network": "Chennai Metro",
          "note": "Contributors are requested to not edit the \"network\" and the \"operator\" tags. (2023/11/08)",
          "operator": "Chennai Metro Rail Limited",
          "public_transport": "stop_position",
          "railway": "stop",
          "subway": "yes"
        }
      },
      {
        "type": "node",
        "id": 5423870708,
        "lat": 13.0042231,
        "lon": 80.201533,
        "tags": {
          "name": "\u0b86\u0bb2\u0ba8\u0bcd\u0ba4\u0bc2\u0bb0\u0bcd",
          "name:en": "Alandur",
          "name:ta": "\u0b86\u0bb2\u0ba8\u0bcd\u0ba4\u0bc2\u0bb0\u0bcd",
          "network": "Chennai Metro",
          "note": "Contributors are requested to not edit the \"network\" and the \"operator\" tags. (2023/11/08)",
          "operator": "Chennai Metro Rail Limited",
          "public_transport": "stop_position",
          "railway": "stop",
          "subway": "yes"
        }
      },
      {
        "type": "node",
        "id": 5423870709,
        "lat": 13.0042275,
        "lon": 80.2015164,
        "tags": {
          "name": "\u0b86\u0bb2\u0ba8\u0bcd\u0ba4\u0bc2\u0bb0\u0bcd",
          "name:en": "Alandur",
          "name:ta": "\u0b86\u0bb2\u0ba8\u0bcd\u0ba4\u0bc2\u0bb0\u0bcd",
          "network": "Chennai Metro",
          "note": "Contributors are requested to not edit the \"network\" and the \"operator\" tags. (2023/11/08)",
          "operator": "Chennai Metro Rail Limited",
          "public_transport": "stop_position",
          "railway": "stop",
          "subway": "yes"
        }
      },
      {
        "type": "node",
        "id": 6285857236,
        "lat": 12.9998739,
        "lon": 80.1939756,
        "tags": {
          "name": "Nanganallur Road",
          "network": "Chennai Metro",
          "note": "Contributors are requested to not edit the \"network\" and the \"operator\" tags. (2023/11/08)",
          "operator": "Chennai Metro Rail Limited",
          "public_transport": "stop_position",
          "railway": "stop",
          "station": "subway",
          "subway": "yes"
        }
      },
      {
        "type": "node",
        "id": 6285857237,
        "lat": 12.9998798,
        "lon": 80.1940099,
        "tags": {
          "alt_name": "Officers Training Academy",
          "local_ref": "Officers Training Academy",
          "name": "\u0ba8\u0b99\u0bcd\u0b95\u0ba8\u0bb2\u0bcd\u0bb2\u0bc2\u0bb0\u0bcd \u0b9a\u0bbe\u0bb2\u0bc8",
          "name:en": "Nanganallur Road",
          "name:ml": "\u0d28\u0d19\u0d4d\u0d15\u0d28\u0d32\u0d4d\u0d32\u0d42\u0d7c \u0d31\u0d4b\u0d21\u0d4d",
          "name:ta": "\u0ba8\u0b99\u0bcd\u0b95\u0ba8\u0bb2\u0bcd\u0bb2\u0bc2\u0bb0\u0bcd \u0b9a\u0bbe\u0bb2\u0bc8",
          "network": "Chennai Metro",
          "note": "Contributors are requested to not edit the \"network\" and the \"operator\" tags. (2023/11/08)",
          "operator": "Chennai Metro Rail Limited",
          "public_transport": "station",
          "railway": "station",
          "railway:ref": "SOT",
          "ref": "SOT",
          "station": "subway",
          "subway": "yes",
          "wikidata": "Q19894462",
          "wikipedia": "en:Nanganallur Road metro station"
        }
      },
      {
        "type": "node",
        "id": 6285857238,
        "lat": 12.9876709,
        "lon": 80.1764378,
        "tags": {
          "name": "\u0bae\u0bc0\u0ba9\u0bae\u0bcd\u0baa\u0bbe\u0b95\u0bcd\u0b95\u0bae\u0bcd",
          "name:en": "Meenambakkam",
          "name:ta": "\u0bae\u0bc0\u0ba9\u0bae\u0bcd\u0baa\u0bbe\u0b95\u0bcd\u0b95\u0bae\u0bcd",
          "network": "Chennai Metro",
          "note": "Contributors are requested to not edit the \"network\" and the \"operator\" tags. (2023/11/08)",
          "operator": "Chennai Metro Rail Limited",
          "public_transport": "stop_position",
          "railway": "stop",
          "station": "subway",
          "subway": "yes"
        }
      },
      {
        "type": "node",
        "id": 6285857239,
        "lat": 12.9876728,
        "lon": 80.1764787,
        "tags": {
          "name": "\u0bae\u0bc0\u0ba9\u0bae\u0bcd\u0baa\u0bbe\u0b95\u0bcd\u0b95\u0bae\u0bcd",
          "name:ml": "\u0d2e\u0d40\u0d28\u0d2e\u0d4d\u0d2a\u0d3e\u0d15\u0d4d\u0d15\u0d02",
          "name:ta": "\u0bae\u0bc0\u0ba9\u0bae\u0bcd\u0baa\u0bbe\u0b95\u0bcd\u0b95\u0bae\u0bcd",
          "network": "Chennai Metro",
          "note": "Contributors are requested to not edit the \"network\" and the \"operator\" tags. (2023/11/08)",
          "operator": "Chennai Metro Rail Limited",
          "public_transport": "station",
          "railway": "station",
          "railway:ref": "SME",
          "ref": "SME",
          "station": "subway",
          "subway": "yes",
          "wheelchair": "yes",
          "wikidata": "Q19893884",
          "wikipedia": "en:Meenambakkam metro station"
        }
      },
      {
        "type": "node",
        "id": 6286383211,
        "lat": 13.0042165,
        "lon": 80.2015496,
        "tags": {
          "name": "\u0b86\u0bb2\u0ba8\u0bcd\u0ba4\u0bc2\u0bb0\u0bcd",
          "name:en": "Alandur",
          "name:ta": "\u0b86\u0bb2\u0ba8\u0bcd\u0ba4\u0bc2\u0bb0\u0bcd",
          "network": "Chennai Metro",
          "note": "Contributors are requested to not edit the \"network\" and the \"operator\" tags. (2023/11/08)",
          "operator": "Chennai Metro Rail Limited",
          "public_transport": "stop_position",
          "railway": "stop",
          "subway": "yes"
        }
      },
      {
        "type": "node",
        "id": 7802828807,
        "lat": 12.9726442,
        "lon": 80.1914709,
        "tags": {
          "bus": "yes",
          "name": "Kumaran Theater",
          "public_transport": "stop_position"
        }
      },
      {
        "type": "node",
        "id": 9417619430,
        "lat": 12.9725284,
        "lon": 80.1914999,
        "tags": {
          "bus": "yes",
          "name": "Kumaran Theater",
          "public_transport": "stop_position"
        }
      },
      {
        "type": "node",
        "id": 9417619431,
        "lat": 12.9818042,
        "lon": 80.1957994,
        "tags": {
          "bus": "yes",
          "name": "Vanuvampet",
          "public_transport": "stop_position"
        }
      },
      {
        "type": "node",
        "id": 9417619433,
        "lat": 12.9946272,
        "lon": 80.200283,
        "tags": {
          "bus": "yes",
          "name": "\u0baa\u0bb0\u0b99\u0bcd\u0b95\u0bbf\u0bae\u0bb2\u0bc8 \u0bb0\u0baf\u0bbf\u0bb2\u0bcd \u0ba8\u0bbf\u0bb2\u0bc8\u0baf\u0bae\u0bcd",
          "name:en": "St. Thomas Mount Railway Station",
          "name:ta": "\u0baa\u0bb0\u0b99\u0bcd\u0b95\u0bbf\u0bae\u0bb2\u0bc8 \u0bb0\u0baf\u0bbf\u0bb2\u0bcd \u0ba8\u0bbf\u0bb2\u0bc8\u0baf\u0bae\u0bcd",
          "public_transport": "stop_position"
        }
      },
      {
        "type": "node",
        "id": 9417619444,
        "lat": 12.994701,
        "lon": 80.206559,
        "tags": {
          "bus": "yes",
          "name": "NGO Colony",
          "network": "Metropolitan Transport Corporation (Chennai) Ltd.",
          "operator": "Government of Tamil Nadu",
          "public_transport": "stop_position"
        }
      },
      {
        "type": "node",
        "id": 9417619445,
        "lat": 12.9947979,
        "lon": 80.2067982,
        "tags": {
          "bus": "yes",
          "name": "NGO Colony Bus Terminus",
          "public_transport": "stop_position"
        }
      },
      {
        "type": "node",
        "id": 9592492217,
        "lat": 12.9950171,
        "lon": 80.1983815,
        "tags": {
          "name": "\u0baa\u0bb0\u0b99\u0bcd\u0b95\u0bbf\u0bae\u0bb2\u0bc8",
          "name:en": "St. Thomas Mount",
          "name:ta": "\u0baa\u0bb0\u0b99\u0bcd\u0b95\u0bbf\u0bae\u0bb2\u0bc8",
          "network": "Chennai Metro",
          "note": "Contributors are requested to not edit the \"network\" and the \"operator\" tags. (2023/11/08)",
          "operator": "Chennai Metro Rail Limited",
          "public_transport": "stop_position",
          "railway": "stop",
          "subway": "yes"
        }
      },
      {
        "type": "node",
        "id": 9592492218,
        "lat": 12.9950609,
        "lon": 80.1983631,
        "tags": {
          "name": "\u0baa\u0bb0\u0b99\u0bcd\u0b95\u0bbf\u0bae\u0bb2\u0bc8",
          "name:en": "St. Thomas Mount",
          "name:ta": "\u0baa\u0bb0\u0b99\u0bcd\u0b95\u0bbf\u0bae\u0bb2\u0bc8",
          "network": "Chennai Metro",
          "note": "Contributors are requested to not edit the \"network\" and the \"operator\" tags. (2023/11/08)",
          "operator": "Chennai Metro Rail Limited",
          "public_transport": "stop_position",
          "railway": "stop",
          "subway": "yes"
        }
      },
      {
        "type": "node",
        "id": 11626062275,
        "lat": 12.9746968,
        "lon": 80.1920646,
        "tags": {
          "amenity": "fuel",
          "brand": "Bharat Petroleum",
          "brand:wikidata": "Q854826",
          "name": "Bharat Petroleum"
        }
      },
      {
        "type": "node",
        "id": 11949359786,
        "lat": 12.9919179,
        "lon": 80.2058126,
        "tags": {
          "bus": "yes",
          "name": "Church",
          "public_transport": "stop_position"
        }
      },
      {
        "type": "node",
        "id": 11949365488,
        "lat": 12.9844281,
        "lon": 80.2049489,
        "tags": {
          "bus": "yes",
          "name": "Brindavanam Koil",
          "public_transport": "stop_position"
        }
      },
      {
        "type": "node",
        "id": 11949365490,
        "lat": 12.9871331,
        "lon": 80.2053644,
        "tags": {
          "bus": "yes",
          "name": "Brindavan Nagar",
          "public_transport": "stop_position"
        }
      },
      {
        "type": "node",
        "id": 11949365493,
        "lat": 12.9891277,
        "lon": 80.2048999,
        "tags": {
          "bus": "yes",
          "name": "Kakkan Bridge stop",
          "public_transport": "stop_position"
        }
      }
    ]
  }
}