{
  "pois_1km": {
    "version": 0.6,
    "generator": "Overpass API 0.7.62.8 e802775f",
    "osm3s": {
      "timestamp_osm_base": "2025-09-06T09:04:45Z",
      "copyright": "The data included in this document is from www.openstreetmap.org. The data is made available under ODbL."
    },
    "elements": [
      {
        "type": "node",
        "id": 353206130,
        "lat": 13.0454388,
        "lon": 80.2331563,
        "tags": {
          "amenity": "restaurant",
          "created_by": "Potlatch 0.10f",
          "name": "Barbecue Nation"
        }
      },
      {
        "type": "node",
        "id": 928070924,
        "lat": 13.04426,
        "lon": 80.2272823,
        "tags": {
          "amenity": "pharmacy",
          "healthcare": "pharmacy"
        }
      },
      {
        "type": "node",
        "id": 1171632060,
        "lat": 13.0293344,
        "lon": 80.2306558,
        "tags": {
          "amenity": "fast_food",
          "name": "krishna bhavan"
        }
      },
      {
        "type": "node",
        "id": 2000840330,
        "lat": 13.0408188,
        "lon": 80.2380816,
        "tags": {
          "amenity": "restaurant",
          "cuisine": "regional",
          "name": "Banana Leaf"
        }
      },
      {
        "type": "node",
        "id": 2001077832,
        "lat": 13.0409184,
        "lon": 80.2376269,
        "tags": {
          "addr:city": "Chennai",
          "addr:postcode": "600017",
          "addr:street": "Thiyagaraya Road",
          "alt_name": "A2B",
          "amenity": "restaurant",
          "brand": "Adyar Ananda Bhavan",
          "brand:wikidata": "Q15178238",
          "brand:wikipedia": "en:Adyar Ananda Bhavan",
          "cuisine": "regional",
          "diet:vegetarian": "only",
          "email": "info@aabsweets.com",
          "name": "Adyar Ananda Bhavan",
          "operator": "Adyar Ananda Bhavan",
          "phone": "+91 44 2345 3041",
          "shop": "confectionery",
          "smoking": "no",
          "website": "https://aabsweets.com"
        }
      },
      {
        "type": "node",
        "id": 2001077834,
        "lat": 13.0408797,
        "lon": 80.2378821,
        "tags": {
          "amenity": "restaurant",
          "name": "Sri Balajee Bhavan"
        }
      },
      {
        "type": "node",
        "id": 2001077840,
        "lat": 13.0414126,
        "lon": 80.2385427,
        "tags": {
          "brand": "Reliance Fresh",
          "brand:wikidata": "Q7311014",
          "brand:wikipedia": "en:Reliance Fresh",
          "name": "Reliance Fresh",
          "shop": "supermarket"
        }
      },
      {
        "type": "node",
        "id": 2270331348,
        "lat": 13.0410311,
        "lon": 80.2332635,
        "tags": {
          "leisure": "park",
          "name": "Panagal Park",
          "name:ml": "\u0d2a\u0d28\u0d17\u0d7d \u0d2a\u0d3e\u0d7c\u0d15\u0d4d\u0d15\u0d4d",
          "name:ta": "\u0baa\u0ba9\u0b95\u0bb2\u0bcd \u0baa\u0bc2\u0b99\u0bcd\u0b95\u0bbe"
        }
      },
      {
        "type": "node",
        "id": 3182651396,
        "lat": 13.0370131,
        "lon": 80.234096,
        "tags": {
          "addr:street": "Dhandapani Street",
          "amenity": "bank",
          "atm": "yes",
          "brand": "Karur Vysya Bank",
          "brand:wikidata": "Q6373724",
          "brand:wikipedia": "en:Karur Vysya Bank",
          "name": "Karur Vysya Bank",
          "name:en": "Karur Vysya Bank",
          "short_name": "KVB",
          "website": "https://www.kvb.co.in"
        }
      },
      {
        "type": "node",
        "id": 3508291445,
        "lat": 13.0348438,
        "lon": 80.2305246,
        "tags": {
          "amenity": "restaurant",
          "cuisine": "indian",
          "name": "Indian Cofee House",
          "smoking": "no"
        }
      },
      {
        "type": "node",
        "id": 3544273429,
        "lat": 13.037288,
        "lon": 80.227272,
        "tags": {
          "amenity": "atm",
          "brand": "State Bank of India",
          "brand:en": "State Bank of India",
          "brand:wikidata": "Q1340361",
          "brand:wikipedia": "en:State Bank of India",
          "currency:INR": "yes",
          "drive_through": "no",
          "indoor": "yes",
          "name": "State Bank of India",
          "note": "Contributors are requested to not edit the \"brand\", \"brand:en\", \"brand:wikidata\", \"operator\", \"operator:en\" and \"operator:wikidata\" tags. (2025/03/03)",
          "opening_hours": "24/7",
          "operator": "State Bank of India",
          "operator:en": "State Bank of India",
          "operator:wikidata": "Q1340361",
          "operator:wikipedia": "en:State Bank of India",
          "short_name": "SBI"
        }
      },
      {
        "type": "node",
        "id": 3544273430,
        "lat": 13.0382672,
        "lon": 80.2274043,
        "tags": {
          "amenity": "atm",
          "brand": "IndusInd Bank",
          "brand:wikidata": "Q2040323",
          "brand:wikipedia": "en:IndusInd Bank",
          "name": "IndusInd Bank",
          "operator": "IndusInd Bank",
          "operator:wikidata": "Q2040323",
          "operator:wikipedia": "en:IndusInd Bank"
        }
      },
      {
        "type": "node",
        "id": 3680482049,
        "lat": 13.041711,
        "lon": 80.2285827,
        "tags": {
          "addr:city": "Chennai",
          "addr:district": "Chennai",
          "addr:full": "No. 3A, Baroda Street, West Mambalam, T Nagar",
          "addr:housenumber": "3A",
          "addr:postcode": "600001",
          "addr:state": "Tamil Nadu",
          "addr:street": "Railway Border Road",
          "amenity": "clinic",
          "healthcare": "clinic",
          "name": "Sri Meenakshi Nursing Home, Chennai",
          "phone": "044 2345 5290",
          "source": "OpenGovernmentData"
        }
      },
      {
        "type": "node",
        "id": 3685002782,
        "lat": 13.0419746,
        "lon": 80.2249547,
        "tags": {
          "amenity": "pharmacy",
          "healthcare": "pharmacy",
          "name": "West Mambalam Pharmacy"
        }
      },
      {
        "type": "node",
        "id": 3685005953,
        "lat": 13.0412117,
        "lon": 80.2247324,
        "tags": {
          "amenity": "atm"
        }
      },
      {
        "type": "node",
        "id": 3694656005,
        "lat": 13.043019,
        "lon": 80.2359004,
        "tags": {
          "amenity": "bank",
          "atm": "yes",
          "brand": "Karur Vysya Bank",
          "brand:wikidata": "Q6373724",
          "brand:wikipedia": "en:Karur Vysya Bank",
          "name": "Karur Vysya Bank",
          "name:en": "Karur Vysya Bank",
          "short_name": "KVB",
          "website": "https://www.kvb.co.in"
        }
      },
      {
        "type": "node",
        "id": 3707526726,
        "lat": 13.0407297,
        "lon": 80.2395463,
        "tags": {
          "amenity": "bank",
          "brand": "Bank of India",
          "brand:wikidata": "Q2004439",
          "brand:wikipedia": "en:Bank of India",
          "name": "Bank of India",
          "name:en": "Bank of India",
          "short_name": "BoI",
          "website": "https://www.bankofindia.co.in/"
        }
      },
      {
        "type": "node",
        "id": 3732415962,
        "lat": 13.0411995,
        "lon": 80.2296079,
        "tags": {
          "addr:city": "Chennai",
          "addr:postcode": "600017",
          "amenity": "atm",
          "brand": "Canara Bank",
          "brand:en": "Canara Bank",
          "brand:hi": "\u0915\u0947\u0928\u0930\u093e \u092c\u0948\u0902\u0915",
          "brand:kn": "\u0c95\u0cc6\u0ca8\u0cb0\u0cbe \u0cac\u0ccd\u0caf\u0cbe\u0c82\u0c95\u0ccd",
          "brand:pa": "\u0a15\u0a47\u0a28\u0a30\u0a3e \u0a2c\u0a48\u0a02\u0a15",
          "brand:pnb": "\u06a9\u06cc\u0646\u0631\u0627 \u0628\u06cc\u0646\u06a9",
          "brand:ur": "\u06a9\u06cc\u0646\u0631\u0627 \u0628\u06cc\u0646\u06a9",
          "brand:wikidata": "Q2003777",
          "brand:wikipedia": "en:Canara Bank",
          "brand:wikipedia:pa": "\u0a15\u0a47\u0a28\u0a30\u0a3e \u0a2c\u0a48\u0a02\u0a15",
          "name": "Canara Bank",
          "name:en": "Canara Bank",
          "name:hi": "\u0915\u0947\u0928\u0930\u093e \u092c\u0948\u0902\u0915",
          "name:kn": "\u0c95\u0cc6\u0ca8\u0cb0\u0cbe \u0cac\u0ccd\u0caf\u0cbe\u0c82\u0c95\u0ccd",
          "name:pa": "\u0a15\u0a47\u0a28\u0a30\u0a3e \u0a2c\u0a48\u0a02\u0a15",
          "name:pnb": "\u06a9\u06cc\u0646\u0631\u0627 \u0628\u06cc\u0646\u06a9",
          "name:ur": "\u06a9\u06cc\u0646\u0631\u0627 \u0628\u06cc\u0646\u06a9",
          "operator": "Canara Bank",
          "operator:wikidata": "Q2003777",
          "operator:wikipedia": "en:Canara Bank"
        }
      },
      {
        "type": "node",
        "id": 3735409816,
        "lat": 13.0420421,
        "lon": 80.2257791,
        "tags": {
          "amenity": "pharmacy",
          "healthcare": "pharmacy",
          "name": "Jeyalakshmi Medicals"
        }
      },
      {
        "type": "node",
        "id": 3736887372,
        "lat": 13.0455027,
        "lon": 80.2355696,
        "tags": {
          "addr:city": "Chennai",
          "addr:postcode": "600017",
          "addr:street": "Raghaviah Road",
          "amenity": "restaurant",
          "name": "Grill Box BBQ"
        }
      },
      {
        "type": "node",
        "id": 4011491489,
        "lat": 13.0353775,
        "lon": 80.2343301,
        "tags": {
          "amenity": "restaurant",
          "capacity": "25",
          "delivery": "no",
          "name": "Naidu Andhra Mess",
          "smoking": "no",
          "takeaway": "yes"
        }
      },
      {
        "type": "node",
        "id": 4417312197,
        "lat": 13.0408055,
        "lon": 80.2396158,
        "tags": {
          "amenity": "atm"
        }
      },
      {
        "type": "node",
        "id": 4558616289,
        "lat": 13.0400035,
        "lon": 80.236367,
        "tags": {
          "addr:street": "Raja Street",
          "amenity": "bank",
          "name:en": "Punjap National Bank"
        }
      },
      {
        "type": "node",
        "id": 4580689267,
        "lat": 13.0387955,
        "lon": 80.223371,
        "tags": {
          "amenity": "atm",
          "brand": "State Bank of India",
          "brand:en": "State Bank of India",
          "brand:wikidata": "Q1340361",
          "brand:wikipedia": "en:State Bank of India",
          "currency:INR": "yes",
          "drive_through": "no",
          "indoor": "yes",
          "name": "State Bank of India",
          "note": "Contributors are requested to not edit the \"brand\", \"brand:en\", \"brand:wikidata\", \"operator\", \"operator:en\" and \"operator:wikidata\" tags. (2025/03/03)",
          "opening_hours": "24/7",
          "operator": "State Bank of India",
          "operator:en": "State Bank of India",
          "operator:wikidata": "Q1340361",
          "operator:wikipedia": "en:State Bank of India",
          "short_name": "SBI"
        }
      },
      {
        "type": "node",
        "id": 4681428385,
        "lat": 13.0378221,
        "lon": 80.2301551,
        "tags": {
          "addr:city": "t.nagar",
          "addr:housenumber": "9",
          "addr:postcode": "600 017",
          "addr:street": "Ramanathan Street",
          "amenity": "restaurant",
          "name": "Murugan Idli Shop",
          "phone": "+914442128182"
        }
      },
      {
        "type": "node",
        "id": 4681428855,
        "lat": 13.0379675,
        "lon": 80.2297373,
        "tags": {
          "addr:city": "t.nagar",
          "addr:postcode": "600 017",
          "addr:street": "Ramanathan Street",
          "name": "Saravana Stores Super Market",
          "shop": "supermarket"
        }
      },
      {
        "type": "node",
        "id": 4681455945,
        "lat": 13.039421,
        "lon": 80.2288253,
        "tags": {
          "addr:city": "t.nagar",
          "addr:housenumber": "28",
          "addr:postcode": "600 017",
          "addr:street": "Rameswaram Street",
          "amenity": "cafe",
          "cuisine": "italian",
          "name": "Candose Ice Cream Palour",
          "outdoor_seating": "no",
          "phone": "+914442178384"
        }
      },
      {
        "type": "node",
        "id": 4688927498,
        "lat": 13.037789,
        "lon": 80.2301883,
        "tags": {
          "addr:housenumber": "9",
          "addr:postcode": "600 017",
          "addr:street": "Ramanathan Street",
          "amenity": "cafe",
          "name:en": "Murugan Idli Shop",
          "opening_hours": "Mo-Su 07:00-23:00",
          "phone": "04442084842"
        }
      },
      {
        "type": "node",
        "id": 4688927500,
        "lat": 13.0356535,
        "lon": 80.2306035,
        "tags": {
          "addr:street": "South Usman Road",
          "name:en": "Pothys Hyper Super Market",
          "shop": "supermarket"
        }
      },
      {
        "type": "node",
        "id": 4688930495,
        "lat": 13.03801,
        "lon": 80.2294591,
        "tags": {
          "addr:postcode": "600 017",
          "addr:street": "Ramanathan Street",
          "name:en": "Saravana Super Market",
          "phone": "04424314242",
          "shop": "supermarket"
        }
      },
      {
        "type": "node",
        "id": 4711359172,
        "lat": 13.042971,
        "lon": 80.2333968,
        "tags": {
          "addr:city": "T.Nagar,Chennai",
          "addr:housenumber": "453",
          "addr:postcode": "600017",
          "addr:street": "Govindu Street",
          "amenity": "cafe",
          "cuisine": "regional",
          "name": "Cafeteria",
          "outdoor_seating": "yes",
          "phone": "+9133578",
          "smoking": "no",
          "website": "www.ccd.com"
        }
      },
      {
        "type": "node",
        "id": 4797659570,
        "lat": 13.0363714,
        "lon": 80.2304855,
        "tags": {
          "addr:city": "Chennai",
          "addr:postcode": "600017",
          "addr:street": "South Usman Road",
          "amenity": "restaurant",
          "brand": "Adyar Ananda Bhavan",
          "brand:wikidata": "Q15178238",
          "cuisine": "regional",
          "name": "Adyar Ananda Bhavan",
          "phone": "914423453036",
          "shop": "confectionery",
          "website": "https://aabsweets.com"
        }
      },
      {
        "type": "node",
        "id": 4832843422,
        "lat": 13.0409915,
        "lon": 80.2367581,
        "tags": {
          "amenity": "fast_food",
          "brand": "Saravana Bhavan",
          "brand:wikidata": "Q3528082",
          "brand:wikipedia": "en:Saravana Bhavan",
          "cuisine": "indian;south_indian",
          "name": "Saravana Bhavan",
          "name:en": "saravana bhavan",
          "official_name": "Hotel Saravana Bhavan",
          "takeaway": "yes"
        }
      },
      {
        "type": "node",
        "id": 5320068772,
        "lat": 13.0362882,
        "lon": 80.2365489,
        "tags": {
          "addr:street": "Venkatnarayana Road",
          "amenity": "atm",
          "brand": "HDFC Bank",
          "brand:en": "HDFC Bank",
          "brand:wikidata": "Q631047",
          "brand:wikipedia": "en:HDFC Bank",
          "currency:INR": "yes",
          "drive_through": "no",
          "indoor": "yes",
          "name": "HDFC Bank",
          "note": "Contributors are requested to not edit the \"brand\", \"brand:en\", \"brand:wikidata\", \"operator\", \"operator:en\" and \"operator:wikidata\" tags. (2025/03/03)",
          "opening_hours": "24/7",
          "operator": "HDFC Bank",
          "operator:en": "HDFC Bank",
          "operator:wikidata": "Q631047",
          "operator:wikipedia": "en:HDFC Bank",
          "short_name": "HDFC"
        }
      },
      {
        "type": "node",
        "id": 5320069698,
        "lat": 13.0362444,
        "lon": 80.2365809,
        "tags": {
          "addr:street": "Venkat Narayana Road",
          "amenity": "atm",
          "brand": "Indian Overseas Bank",
          "brand:wikidata": "Q2003611",
          "brand:wikipedia": "en:Indian Overseas Bank",
          "name": "Indian Overseas Bank",
          "operator": "Indian Overseas Bank",
          "operator:wikidata": "Q2003611",
          "operator:wikipedia": "en:Indian Overseas Bank"
        }
      },
      {
        "type": "node",
        "id": 5326981421,
        "lat": 13.0425459,
        "lon": 80.2353398,
        "tags": {
          "amenity": "restaurant",
          "cuisine": "local",
          "name:en": "Murugan Idli Shop"
        }
      },
      {
        "type": "node",
        "id": 5334985292,
        "lat": 13.0398137,
        "lon": 80.2398822,
        "tags": {
          "amenity": "bank",
          "name": "DCB Bank"
        }
      },
      {
        "type": "node",
        "id": 6002018456,
        "lat": 13.0306399,
        "lon": 80.2385434,
        "tags": {
          "amenity": "bank",
          "atm": "yes",
          "brand": "Indian Bank",
          "brand:wikidata": "Q2003789",
          "brand:wikipedia": "en:Indian Bank",
          "name": "Indian Bank"
        }
      },
      {
        "type": "node",
        "id": 6504621185,
        "lat": 13.029706,
        "lon": 80.2369283,
        "tags": {
          "amenity": "bank",
          "name:en": "Periyar Building"
        }
      },
      {
        "type": "node",
        "id": 6914280086,
        "lat": 13.0329888,
        "lon": 80.230346,
        "tags": {
          "addr:block": "Chennai Zone X",
          "addr:district": "Chennai",
          "addr:full": "No:43, Near Bus Terminus, T. Nagar, South Usman Road",
          "addr:postcode": "600017",
          "addr:state": "Tamil Nadu",
          "amenity": "hospital",
          "healthcare": "hospital",
          "name": "Raju Hospitals",
          "source": "OpenGovernmentData"
        }
      },
      {
        "type": "node",
        "id": 6914896192,
        "lat": 13.0440054,
        "lon": 80.2355951,
        "tags": {
          "addr:district": "Chennai",
          "addr:full": "13, Raghaviah Road, T Nagar",
          "addr:postcode": "600017",
          "addr:state": "Tamil Nadu",
          "amenity": "clinic",
          "healthcare": "clinic",
          "name": "R.M.D. Nursing Home",
          "source": "OpenGovernmentData"
        }
      },
      {
        "type": "node",
        "id": 6926107781,
        "lat": 13.0339283,
        "lon": 80.2394965,
        "tags": {
          "addr:district": "Chennai",
          "addr:full": "12, Hindi Prachara Sabha Street, T Nagar",
          "addr:postcode": "600017",
          "addr:state": "Tamil Nadu",
          "amenity": "hospital",
          "healthcare": "hospital",
          "name": "Radhatri Nethralaya",
          "source": "OpenGovernmentData"
        }
      },
      {
        "type": "node",
        "id": 6926437454,
        "lat": 13.0374924,
        "lon": 80.2381137,
        "tags": {
          "addr:district": "Chennai",
          "addr:full": "N0-01, Crescent Park Street, T Nagar",
          "addr:postcode": "600017",
          "addr:state": "Tamil Nadu",
          "amenity": "hospital",
          "healthcare": "hospital",
          "name": "Dr Gurusekaran Hospital Pvt Ltd",
          "source": "OpenGovernmentData"
        }
      },
      {
        "type": "node",
        "id": 6927292449,
        "lat": 13.0343985,
        "lon": 80.2339764,
        "tags": {
          "addr:district": "Chennai",
          "addr:full": "No.39, Burkit Road, T. Nagar",
          "addr:postcode": "600017",
          "addr:state": "Tamil Nadu",
          "amenity": "hospital",
          "healthcare": "hospital",
          "name": "Krishna Eye And Ent Hospitals",
          "source": "OpenGovernmentData"
        }
      },
      {
        "type": "node",
        "id": 6928920473,
        "lat": 13.034051,
        "lon": 80.2279374,
        "tags": {
          "addr:district": "Chennai",
          "addr:full": "No.10/11, Madley Road, T.Nagar",
          "addr:postcode": "600017",
          "addr:state": "Tamil Nadu",
          "amenity": "hospital",
          "healthcare": "hospital",
          "name": "Dr.Duraiswami Eye Hospital",
          "source": "OpenGovernmentData"
        }
      },
      {
        "type": "node",
        "id": 6929969774,
        "lat": 13.0395483,
        "lon": 80.2313016,
        "tags": {
          "addr:district": "Chennai",
          "addr:full": "Mangesh Street, T Nagar",
          "addr:postcode": "600017",
          "addr:state": "Tamil Nadu",
          "amenity": "hospital",
          "healthcare": "hospital",
          "name": "Kottakkal Arya Vaidya Sala",
          "source": "OpenGovernmentData"
        }
      },
      {
        "type": "node",
        "id": 6933973123,
        "lat": 13.0350165,
        "lon": 80.2392798,
        "tags": {
          "addr:district": "Chennai",
          "addr:full": "New No 11,Old No 4 Saarngapani Street T.Nagar",
          "addr:postcode": "600017",
          "addr:state": "Tamil Nadu",
          "amenity": "doctors",
          "healthcare": "doctor",
          "name": "Dr.N. Nagajothi,M.D",
          "source": "OpenGovernmentData"
        }
      },
      {
        "type": "node",
        "id": 6934340658,
        "lat": 13.0316469,
        "lon": 80.2311185,
        "tags": {
          "addr:district": "Chennai",
          "addr:full": "49 Srinivasa Reddu Street,T Nagar",
          "addr:postcode": "600017",
          "addr:state": "Tamil Nadu",
          "amenity": "hospital",
          "healthcare": "hospital",
          "name": "New Balaji Hospital, Chennai",
          "source": "OpenGovernmentData"
        }
      },
      {
        "type": "node",
        "id": 6934347093,
        "lat": 13.0356881,
        "lon": 80.2337551,
        "tags": {
          "addr:district": "Chennai",
          "addr:full": "31,Dhandapani Street,T.Nagar",
          "addr:postcode": "600017",
          "addr:state": "Tamil Nadu",
          "amenity": "hospital",
          "healthcare": "hospital",
          "name": "Anuradha Maternity Centre",
          "source": "OpenGovernmentData"
        }
      },
      {
        "type": "node",
        "id": 6936324681,
        "lat": 13.0341895,
        "lon": 80.2325615,
        "tags": {
          "addr:district": "Chennai",
          "addr:full": "Old No.33,New No.10.Mannar Street,T.Nagar",
          "addr:postcode": "600017",
          "addr:state": "Tamil Nadu",
          "amenity": "clinic",
          "healthcare": "clinic",
          "name": "Dr Vas Dental Clinic",
          "source": "OpenGovernmentData"
        }
      },
      {
        "type": "node",
        "id": 6936359923,
        "lat": 13.0430125,
        "lon": 80.2371521,
        "tags": {
          "addr:district": "Chennai",
          "addr:full": "No.121 G.N.Chetty Road",
          "addr:postcode": "600017",
          "addr:state": "Tamil Nadu",
          "addr:subdistrict": "T Nagar",
          "amenity": "hospital",
          "email": "info@drashokchennai.com",
          "healthcare": "hospital",
          "name": "Laser and Laparascopic Hospital",
          "operator:type": "private",
          "source": "OpenGovernmentData",
          "website": "https://www.drashokchennai.com/"
        }
      },
      {
        "type": "node",
        "id": 6936681265,
        "lat": 13.0440365,
        "lon": 80.2336198,
        "tags": {
          "addr:district": "Chennai",
          "addr:full": "24,Coats Road, T.Nagar",
          "addr:postcode": "600017",
          "addr:state": "Tamil Nadu",
          "amenity": "hospital",
          "healthcare": "hospital",
          "name": "Sathya Physiotherapy Centre",
          "source": "OpenGovernmentData"
        }
      },
      {
        "type": "node",
        "id": 6936684391,
        "lat": 13.0389519,
        "lon": 80.2290894,
        "tags": {
          "addr:district": "Chennai",
          "addr:full": "35, Rangan Street, Behind Grt, T.Nagar",
          "addr:postcode": "600017",
          "addr:state": "Tamil Nadu",
          "amenity": "hospital",
          "healthcare": "hospital",
          "name": "Pdr Othopaedic Hospital",
          "source": "OpenGovernmentData"
        }
      },
      {
        "type": "node",
        "id": 6936708005,
        "lat": 13.0332775,
        "lon": 80.2371645,
        "tags": {
          "addr:district": "Chennai",
          "addr:full": "55, Sadulla Street, T.Nagar",
          "addr:postcode": "600017",
          "addr:state": "Tamil Nadu",
          "amenity": "hospital",
          "healthcare": "hospital",
          "name": "Sai Ortho Care Hospital",
          "source": "OpenGovernmentData"
        }
      },
      {
        "type": "node",
        "id": 6937025938,
        "lat": 13.0312145,
        "lon": 80.2321847,
        "tags": {
          "addr:district": "Chennai",
          "addr:full": "A Unit Of Sre Visa Clinic (P) Ltd, No.13,New Boag Road, T Nagar",
          "addr:postcode": "600017",
          "addr:state": "Tamil Nadu",
          "amenity": "clinic",
          "healthcare": "clinic",
          "name": "Sri Visa Clinic",
          "source": "OpenGovernmentData"
        }
      },
      {
        "type": "node",
        "id": 7257421531,
        "lat": 13.0348047,
        "lon": 80.2246285,
        "tags": {
          "addr:block": "Chennai Zone X",
          "addr:district": "Chennai",
          "addr:full": "Old No 108 New No: 4, T. Nagar Bus Stand Madley Subway, West Mambalam, Ellaiamman Koil Street",
          "addr:postcode": "600033",
          "addr:state": "Tamil Nadu",
          "amenity": "clinic",
          "healthcare": "clinic",
          "name": "Shree Chakra Maternity Clinic and Nursing Home",
          "source": "OpenGovernmentData"
        }
      },
      {
        "type": "node",
        "id": 7257421569,
        "lat": 13.0374624,
        "lon": 80.2389389,
        "tags": {
          "addr:block": "Chennai Zone X",
          "addr:district": "Chennai",
          "addr:full": "No:1, Raj Palace Hotel (Opp), T. Nagar, Crescent Park St",
          "addr:postcode": "600017",
          "addr:state": "Tamil Nadu",
          "amenity": "hospital",
          "healthcare": "hospital",
          "name": "Gunasekaran Hospitals Pvt.Ltd",
          "source": "OpenGovernmentData"
        }
      },
      {
        "type": "node",
        "id": 7257421596,
        "lat": 13.0342203,
        "lon": 80.2398192,
        "tags": {
          "addr:block": "Chennai Zone Ix",
          "addr:district": "Chennai",
          "addr:full": "New No: 12, Old No:29, Behind Dakshina Hindi Prachara Sabha, T. Nagar, Hindi Prachara Sabha St",
          "addr:postcode": "600017",
          "addr:state": "Tamil Nadu",
          "amenity": "hospital",
          "healthcare": "hospital",
          "name": "Radhatri Nethralaya",
          "source": "OpenGovernmentData"
        }
      },
      {
        "type": "node",
        "id": 8228218791,
        "lat": 13.0365972,
        "lon": 80.2323815,
        "tags": {
          "addr:city": "Chennai",
          "addr:housenumber": "42",
          "addr:postcode": "600017",
          "addr:street": "Mothilol street",
          "name": "Bharath Gem Testing Lab",
          "opening_hours": "Mo-Sa 10:00-19:00",
          "payment:cash": "yes",
          "phone": "+914424338725",
          "shop": "supermarket"
        }
      },
      {
        "type": "node",
        "id": 8273581151,
        "lat": 13.033688,
        "lon": 80.2383491,
        "tags": {
          "addr:city": "Chennai",
          "addr:housenumber": "27",
          "addr:postcode": "600017",
          "addr:street": "Venkatanarayana Road",
          "amenity": "restaurant",
          "delivery": "yes",
          "name": "Dindigul Thalappakatti Restaurant T NAGAR",
          "name:ta": "\u0ba4\u0bbf\u0ba3\u0bcd\u0b9f\u0bc1\u0b95\u0bcd\u0b95\u0bb2\u0bcd \u0ba4\u0bb2\u0baa\u0bcd\u0baa\u0bbe\u0b95\u0bcd\u0b95\u0b9f\u0bcd\u0b9f\u0bbf \u0b89\u0ba3\u0bb5\u0b95\u0bae\u0bcd",
          "opening_hours": "Mo-Su 09:00-21:00",
          "outdoor_seating": "yes",
          "takeaway": "yes"
        }
      },
      {
        "type": "node",
        "id": 8935512053,
        "lat": 13.0414167,
        "lon": 80.2405354,
        "tags": {
          "amenity": "bank",
          "brand": "IDBI Bank",
          "brand:wikidata": "Q3633485",
          "brand:wikipedia": "en:IDBI Bank",
          "name": "IDBI Bank",
          "short_name": "IDBI"
        }
      },
      {
        "type": "node",
        "id": 9418560328,
        "lat": 13.0416717,
        "lon": 80.2346309,
        "tags": {
          "amenity": "restaurant",
          "cuisine": "indian",
          "name": "That Mallu Joint"
        }
      },
      {
        "type": "node",
        "id": 10307972067,
        "lat": 13.0408892,
        "lon": 80.2317501,
        "tags": {
          "amenity": "restaurant",
          "name": "Omar Khayyam",
          "name:ta": "\u0b92\u0bae\u0bb0\u0bcd \u0b95\u0baf\u0bbe\u0bae\u0bcd"
        }
      },
      {
        "type": "node",
        "id": 10307972083,
        "lat": 13.0408527,
        "lon": 80.2311764,
        "tags": {
          "amenity": "restaurant",
          "name": "Hot Chips"
        }
      },
      {
        "type": "node",
        "id": 10308012367,
        "lat": 13.0406949,
        "lon": 80.2322275,
        "tags": {
          "amenity": "restaurant",
          "name": "Nic Nac"
        }
      },
      {
        "type": "node",
        "id": 11395977112,
        "lat": 13.0427579,
        "lon": 80.2252034,
        "tags": {
          "amenity": "pharmacy",
          "branch": "medical shop",
          "brand": "MedPlus",
          "brand:wikidata": "Q65684234",
          "healthcare": "pharmacy",
          "name": "MedPlus"
        }
      },
      {
        "type": "node",
        "id": 11395977113,
        "lat": 13.0426041,
        "lon": 80.2251597,
        "tags": {
          "amenity": "pharmacy",
          "healthcare": "pharmacy",
          "name": "Velavan medical shop"
        }
      },
      {
        "type": "node",
        "id": 11610491969,
        "lat": 13.0409957,
        "lon": 80.2363961,
        "tags": {
          "amenity": "fast_food",
          "name:en": "Mc Donald's fast food"
        }
      }
    ]
  },
  "pois_2_5km": {
    "version": 0.6,
    "generator": "Overpass API 0.7.62.8 e802775f",
    "osm3s": {
      "timestamp_osm_base": "2025-09-06T09:04:45Z",
      "copyright": "The data included in this document is from www.openstreetmap.org. The data is made available under ODbL."
    },
    "elements": [
      {
        "type": "node",
        "id": 247675520,
        "lat": 13.0349762,
        "lon": 80.2307357,
        "tags": {
          "bus": "yes",
          "name": "T.Nagar",
          "network": "MTC",
          "operator": "Metropolitan Transport Corporation (Chennai) Ltd.",
          "public_transport": "stop_position"
        }
      },
      {
        "type": "node",
        "id": 248467432,
        "lat": 13.0513061,
        "lon": 80.2305555,
        "tags": {
          "public_transport": "stop_position"
        }
      },
      {
        "type": "node",
        "id": 250319253,
        "lat": 13.0363377,
        "lon": 80.2394517,
        "tags": {
          "bus": "yes",
          "name": "Hindi Prachar Sabha",
          "network": "MTC",
          "operator": "Metropolitan Transport Corporation (Chennai) Ltd.",
          "public_transport": "stop_position"
        }
      },
      {
        "type": "node",
        "id": 250327570,
        "lat": 13.0379784,
        "lon": 80.2276266,
        "tags": {
          "public_transport": "stop_position"
        }
      },
      {
        "type": "node",
        "id": 301738572,
        "lat": 13.0402403,
        "lon": 80.2468562,
        "tags": {
          "amenity": "fuel",
          "brand": "Hindustan Petroleum",
          "brand:wikidata": "Q1619375",
          "brand:wikipedia": "en:Hindustan Petroleum",
          "name": "HP",
          "name:en": "HP",
          "official_name": "Hindustan Petroleum"
        }
      },
      {
        "type": "node",
        "id": 308301823,
        "lat": 13.0490493,
        "lon": 80.2483265,
        "tags": {
          "amenity": "theatre",
          "name": "Kamaraj Arangam",
          "name:etymology:wikidata": "Q522048"
        }
      },
      {
        "type": "node",
        "id": 308303592,
        "lat": 13.0417163,
        "lon": 80.2494482,
        "tags": {
          "amenity": "theatre",
          "created_by": "Potlatch 0.10f",
          "name": "Anna Arivalayam",
          "name:etymology:wikidata": "Q138765"
        }
      },
      {
        "type": "node",
        "id": 308317064,
        "lat": 13.0348314,
        "lon": 80.2118803,
        "tags": {
          "bus": "yes",
          "name": "Ashok Pillar",
          "public_transport": "stop_position"
        }
      },
      {
        "type": "node",
        "id": 308467144,
        "lat": 13.0311284,
        "lon": 80.2394414,
        "tags": {
          "amenity": "fuel",
          "brand": "Hindustan Petroleum",
          "brand:wikidata": "Q1619375",
          "brand:wikipedia": "en:Hindustan Petroleum",
          "name": "HP",
          "official_name": "Hindustan Petroleum",
          "opening_hours": "Mo-Su,PH 06:00-18:00"
        }
      },
      {
        "type": "node",
        "id": 308467145,
        "lat": 13.0337218,
        "lon": 80.2382988,
        "tags": {
          "amenity": "fuel"
        }
      },
      {
        "type": "node",
        "id": 313106870,
        "lat": 13.0319681,
        "lon": 80.2111904,
        "tags": {
          "bus": "yes",
          "public_transport": "stop_position"
        }
      },
      {
        "type": "node",
        "id": 339327873,
        "lat": 13.0432174,
        "lon": 80.2304165,
        "tags": {
          "addr:city": "Chennai",
          "addr:housenumber": "20",
          "addr:postcode": "600017",
          "addr:street": "Maharajapuram Santhanam Salai",
          "amenity": "theatre",
          "name": "Sri Krishna Gana Sabha - Auditorium",
          "operator": "Sri Krishna Gana Sabha",
          "website": "https://www.krishnaganasabha.org/"
        }
      },
      {
        "type": "node",
        "id": 367103495,
        "lat": 13.0347707,
        "lon": 80.2109563,
        "tags": {
          "amenity": "fuel",
          "brand": "Indian Oil",
          "brand:wikidata": "Q1289348",
          "brand:wikipedia": "en:Indian Oil Corporation",
          "name": "Indian Oil"
        }
      },
      {
        "type": "node",
        "id": 375667931,
        "lat": 13.0265542,
        "lon": 80.2324615,
        "tags": {
          "amenity": "fuel",
          "brand": "Hindustan Petroleum",
          "brand:wikidata": "Q1619375",
          "brand:wikipedia": "en:Hindustan Petroleum",
          "name": "HP",
          "official_name": "Hindustan Petroleum"
        }
      },
      {
        "type": "node",
        "id": 378688538,
        "lat": 13.0277462,
        "lon": 80.2512876,
        "tags": {
          "addr:city": "Chennai",
          "addr:street": "Pasumpon Muthuramalinga Thevar Salai",
          "amenity": "fuel",
          "brand": "Hindustan Petroleum",
          "brand:wikidata": "Q1619375",
          "compressed_air": "yes",
          "name": "HP Petrol Bunk",
          "official_name": "Hindustan Petroleum",
          "opening_hours": "24/7"
        }
      },
      {
        "type": "node",
        "id": 919522182,
        "lat": 13.0234333,
        "lon": 80.2236757,
        "tags": {
          "name": "Saidapet",
          "public_transport": "stop_position",
          "ref": "SP"
        }
      },
      {
        "type": "node",
        "id": 998294040,
        "lat": 13.0355403,
        "lon": 80.2111917,
        "tags": {
          "name": "\u0b85\u0b9a\u0bcb\u0b95\u0bcd \u0ba8\u0b95\u0bb0\u0bcd",
          "name:en": "Ashok Nagar",
          "name:ta": "\u0b85\u0b9a\u0bc7\u0bbe\u0b95\u0bcd \u0ba8\u0b95\u0bb0\u0bcd",
          "network": "Chennai Metro",
          "note": "Contributors are requested to not edit the \"network\" and the \"operator\" tags. (2023/11/08)",
          "operator": "Chennai Metro Rail Limited",
          "public_transport": "stop_position",
          "railway": "stop",
          "subway": "yes"
        }
      },
      {
        "type": "node",
        "id": 1975496434,
        "lat": 13.0566614,
        "lon": 80.2426317,
        "tags": {
          "bus": "yes",
          "name": "Independence Day Park",
          "network": "MTC",
          "operator": "Metropolitan Transport Corporation (Chennai) Ltd.",
          "public_transport": "stop_position"
        }
      },
      {
        "type": "node",
        "id": 2197496797,
        "lat": 13.0539962,
        "lon": 80.2422574,
        "tags": {
          "bus": "yes",
          "name": "Valluvar Kottam",
          "network": "MTC",
          "operator": "Metropolitan Transport Corporation (Chennai) Ltd.",
          "public_transport": "stop_position"
        }
      },
      {
        "type": "node",
        "id": 2237592529,
        "lat": 13.0342665,
        "lon": 80.2304553,
        "tags": {
          "bus": "yes",
          "name": "Thyagaraya Nagar Bus Terminus",
          "public_transport": "stop_position"
        }
      },
      {
        "type": "node",
        "id": 2481259002,
        "lat": 13.0516624,
        "lon": 80.2306892,
        "tags": {
          "internet_access": "no",
          "name": "Kodambakkam",
          "name:ml": "\u0d15\u0d4b\u0d1f\u0d2e\u0d4d\u0d2a\u0d3e\u0d15\u0d4d\u0d15\u0d02",
          "name:ta": "\u0b95\u0bcb\u0b9f\u0bae\u0bcd\u0baa\u0bbe\u0b95\u0bcd\u0b95\u0bae\u0bcd",
          "network": "IR",
          "operator": "SR",
          "public_transport": "station",
          "railway": "station",
          "ref": "MKK",
          "wikidata": "Q6425199",
          "wikipedia": "en:Kodambakkam railway station"
        }
      },
      {
        "type": "node",
        "id": 2481259006,
        "lat": 13.0380662,
        "lon": 80.2277752,
        "tags": {
          "internet_access": "no",
          "name": "Mambalam",
          "name:en": "Mambalam",
          "name:hi": "\u092e\u093e\u0902\u092c\u0932\u092e",
          "name:ml": "\u0d2e\u0d3e\u0d2e\u0d4d\u0d2a\u0d32\u0d02",
          "name:ta": "\u0bae\u0bbe\u0bae\u0bcd\u0baa\u0bb2\u0bae\u0bcd",
          "network": "IR",
          "operator": "SR",
          "public_transport": "station",
          "railway": "station",
          "ref": "MBM",
          "wikidata": "Q6745495",
          "wikipedia": "en:Mambalam railway station"
        }
      },
      {
        "type": "node",
        "id": 2481259029,
        "lat": 13.0233098,
        "lon": 80.2237191,
        "tags": {
          "internet_access": "no",
          "name": "Saidapet",
          "name:ml": "\u0d38\u0d48\u0d26\u0d3e\u0d2a\u0d47\u0d1f\u0d4d\u0d1f",
          "name:ta": "\u0b9a\u0bc8\u0ba4\u0bbe\u0baa\u0bcd\u0baa\u0bc7\u0b9f\u0bcd\u0b9f\u0bc8",
          "network": "IR",
          "operator": "SR",
          "public_transport": "station",
          "railway": "station",
          "ref": "SP",
          "wikidata": "Q7399955",
          "wikipedia": "en:Saidapet railway station"
        }
      },
      {
        "type": "node",
        "id": 3683580478,
        "lat": 13.0409717,
        "lon": 80.2373739,
        "tags": {
          "addr:city": "T.Nagar, Chennai",
          "addr:postcode": "600017",
          "amenity": "fuel",
          "name": "Chinthamani Cooperative Petrol Bunk"
        }
      },
      {
        "type": "node",
        "id": 3685008256,
        "lat": 13.0452801,
        "lon": 80.2182725,
        "tags": {
          "amenity": "fuel"
        }
      },
      {
        "type": "node",
        "id": 3685280058,
        "lat": 13.0401531,
        "lon": 80.2400751,
        "tags": {
          "amenity": "fuel",
          "brand": "Hindustan Petroleum",
          "brand:wikidata": "Q1619375",
          "name": "HP",
          "official_name": "Hindustan Petroleum"
        }
      },
      {
        "type": "node",
        "id": 3685381587,
        "lat": 13.040274,
        "lon": 80.2423014,
        "tags": {
          "amenity": "fuel"
        }
      },
      {
        "type": "node",
        "id": 3685431628,
        "lat": 13.0291289,
        "lon": 80.2538708,
        "tags": {
          "amenity": "fuel"
        }
      },
      {
        "type": "node",
        "id": 3685563463,
        "lat": 13.0338283,
        "lon": 80.2448209,
        "tags": {
          "amenity": "fuel"
        }
      },
      {
        "type": "node",
        "id": 3685566217,
        "lat": 13.0451808,
        "lon": 80.2400027,
        "tags": {
          "amenity": "fuel"
        }
      },
      {
        "type": "node",
        "id": 3685567878,
        "lat": 13.0453689,
        "lon": 80.2404265,
        "tags": {
          "amenity": "fuel"
        }
      },
      {
        "type": "node",
        "id": 3685652294,
        "lat": 13.0536069,
        "lon": 80.2263575,
        "tags": {
          "amenity": "fuel"
        }
      },
      {
        "type": "node",
        "id": 3685653044,
        "lat": 13.0539215,
        "lon": 80.234525,
        "tags": {
          "amenity": "fuel"
        }
      },
      {
        "type": "node",
        "id": 4410824051,
        "lat": 13.0263102,
        "lon": 80.2316753,
        "tags": {
          "amenity": "fuel",
          "brand": "Indian Oil",
          "brand:wikidata": "Q1289348",
          "brand:wikipedia": "en:Indian Oil Corporation",
          "fuel:lpg": "yes",
          "name": "Indian Oil Propel",
          "operator": "Indian Oil"
        }
      },
      {
        "type": "node",
        "id": 5319972796,
        "lat": 13.0354768,
        "lon": 80.2111075,
        "tags": {
          "alt_name": "Ashok Nagar - KK Nagar",
          "local_ref": "Ashok Nagar - KK Nagar",
          "name": "\u0b85\u0b9a\u0bcb\u0b95\u0bcd \u0ba8\u0b95\u0bb0\u0bcd",
          "name:en": "Ashok Nagar",
          "name:ml": "\u0d05\u0d36\u0d4b\u0d15\u0d4d \u0d28\u0d17\u0d7c",
          "name:ta": "\u0b85\u0b9a\u0bcb\u0b95\u0bcd \u0ba8\u0b95\u0bb0\u0bcd",
          "network": "Chennai Metro",
          "network:wikidata": "Q1639576",
          "note": "Contributors are requested to not edit the \"network\" and the \"operator\" tags. (2023/11/08)",
          "operator": "Chennai Metro Rail Limited",
          "public_transport": "station",
          "railway": "station",
          "railway:ref": "SAN",
          "ref": "SAN",
          "station": "subway",
          "subway": "yes",
          "wikidata": "Q18378132",
          "wikipedia": "en:Ashok Nagar metro station"
        }
      },
      {
        "type": "node",
        "id": 5337407333,
        "lat": 13.0239394,
        "lon": 80.2280916,
        "tags": {
          "name": "\u0b9a\u0bc8\u0ba4\u0bbe\u0baa\u0bcd\u0baa\u0bc7\u0b9f\u0bcd\u0b9f\u0bc8",
          "name:en": "Saidapet",
          "name:ta": "\u0b9a\u0bc8\u0ba4\u0bbe\u0baa\u0bcd\u0baa\u0bc7\u0b9f\u0bcd\u0b9f\u0bc8",
          "network": "Chennai Metro",
          "note": "Contributors are requested to not edit the \"network\" and the \"operator\" tags. (2023/11/08)",
          "operator": "Chennai Metro Rail Limited",
          "public_transport": "stop_position",
          "railway": "stop",
          "station": "subway",
          "subway": "yes"
        }
      },
      {
        "type": "node",
        "id": 5337407335,
        "lat": 13.0316813,
        "lon": 80.2411933,
        "tags": {
          "name": "\u0ba8\u0ba8\u0bcd\u0ba4\u0ba9\u0bae\u0bcd",
          "name:en": "Nandanam",
          "name:ta": "\u0ba8\u0ba8\u0bcd\u0ba4\u0ba9\u0bae\u0bcd",
          "network": "Chennai Metro",
          "note": "Contributors are requested to not edit the \"network\" and the \"operator\" tags. (2023/11/08)",
          "operator": "Chennai Metro Rail Limited",
          "public_transport": "stop_position",
          "railway": "stop",
          "station": "subway",
          "subway": "yes"
        }
      },
      {
        "type": "node",
        "id": 5337407339,
        "lat": 13.0368085,
        "lon": 80.2464553,
        "tags": {
          "name": "\u0ba4\u0bc7\u0ba9\u0bbe\u0bae\u0bcd\u0baa\u0bc7\u0b9f\u0bcd\u0b9f\u0bc8",
          "name:en": "Teynampet",
          "name:ta": "\u0ba4\u0bc7\u0ba9\u0bbe\u0bae\u0bcd\u0baa\u0bc7\u0b9f\u0bcd\u0b9f\u0bc8",
          "network": "Chennai Metro",
          "note": "Contributors are requested to not edit the \"network\" and the \"operator\" tags. (2023/11/08)",
          "operator": "Chennai Metro Rail Limited",
          "public_transport": "stop_position",
          "railway": "stop",
          "station": "subway",
          "subway": "yes"
        }
      },
      {
        "type": "node",
        "id": 5337407347,
        "lat": 13.0458615,
        "lon": 80.2483032,
        "tags": {
          "name": "\u0b8f \u0b9c\u0bbf \u0b9f\u0bbf.\u0b8e\u0bae\u0bcd.\u0b8e\u0bb8\u0bcd",
          "name:en": "AG-DMS",
          "name:ta": "\u0b8f \u0b9c\u0bbf \u0b9f\u0bbf.\u0b8e\u0bae\u0bcd.\u0b8e\u0bb8\u0bcd",
          "network": "Chennai Metro",
          "note": "Contributors are requested to not edit the \"network\" and the \"operator\" tags. (2023/11/08)",
          "operator": "Chennai Metro Rail Limited",
          "public_transport": "stop_position",
          "railway": "stop",
          "station": "subway",
          "subway": "yes"
        }
      },
      {
        "type": "node",
        "id": 5533743121,
        "lat": 13.0534243,
        "lon": 80.2348497,
        "tags": {
          "amenity": "theatre",
          "name:en": "mm preview  theatre"
        }
      },
      {
        "type": "node",
        "id": 5760196458,
        "lat": 13.0458703,
        "lon": 80.2482567,
        "tags": {
          "name": "\u0b8f \u0b9c\u0bbf \u0b9f\u0bbf.\u0b8e\u0bae\u0bcd.\u0b8e\u0bb8\u0bcd",
          "name:en": "AG-DMS",
          "name:ta": "\u0b8f \u0b9c\u0bbf \u0b9f\u0bbf.\u0b8e\u0bae\u0bcd.\u0b8e\u0bb8\u0bcd",
          "network": "Chennai Metro",
          "note": "Contributors are requested to not edit the \"network\" and the \"operator\" tags. (2023/11/08)",
          "operator": "Chennai Metro Rail Limited",
          "public_transport": "stop_position",
          "railway": "stop",
          "station": "subway",
          "subway": "yes"
        }
      },
      {
        "type": "node",
        "id": 5760196466,
        "lat": 13.0368236,
        "lon": 80.2463929,
        "tags": {
          "name": "\u0ba4\u0bc7\u0ba9\u0bbe\u0bae\u0bcd\u0baa\u0bc7\u0b9f\u0bcd\u0b9f\u0bc8",
          "name:en": "Teynampet",
          "name:ta": "\u0ba4\u0bc7\u0ba9\u0bbe\u0bae\u0bcd\u0baa\u0bc7\u0b9f\u0bcd\u0b9f\u0bc8",
          "network": "Chennai Metro",
          "note": "Contributors are requested to not edit the \"network\" and the \"operator\" tags. (2023/11/08)",
          "operator": "Chennai Metro Rail Limited",
          "public_transport": "stop_position",
          "railway": "stop",
          "station": "subway",
          "subway": "yes"
        }
      },
      {
        "type": "node",
        "id": 5760196474,
        "lat": 13.0317226,
        "lon": 80.2411721,
        "tags": {
          "name": "\u0ba8\u0ba8\u0bcd\u0ba4\u0ba9\u0bae\u0bcd",
          "name:en": "Nandanam",
          "name:ta": "\u0ba8\u0ba8\u0bcd\u0ba4\u0ba9\u0bae\u0bcd",
          "network": "Chennai Metro",
          "note": "Contributors are requested to not edit the \"network\" and the \"operator\" tags. (2023/11/08)",
          "operator": "Chennai Metro Rail Limited",
          "public_transport": "stop_position",
          "railway": "stop",
          "station": "subway",
          "subway": "yes"
        }
      },
      {
        "type": "node",
        "id": 5760196488,
        "lat": 13.023975,
        "lon": 80.2280614,
        "tags": {
          "name": "\u0b9a\u0bc8\u0ba4\u0bbe\u0baa\u0bcd\u0baa\u0bc7\u0b9f\u0bcd\u0b9f\u0bc8",
          "name:en": "Saidapet",
          "name:ta": "\u0b9a\u0bc8\u0ba4\u0bbe\u0baa\u0bcd\u0baa\u0bc7\u0b9f\u0bcd\u0b9f\u0bc8",
          "network": "Chennai Metro",
          "note": "Contributors are requested to not edit the \"network\" and the \"operator\" tags. (2023/11/08)",
          "operator": "Chennai Metro Rail Limited",
          "public_transport": "stop_position",
          "railway": "stop",
          "station": "subway",
          "subway": "yes"
        }
      },
      {
        "type": "node",
        "id": 6285857242,
        "lat": 13.0368003,
        "lon": 80.2464194,
        "tags": {
          "name": "\u0ba4\u0bc7\u0ba9\u0bbe\u0bae\u0bcd\u0baa\u0bc7\u0b9f\u0bcd\u0b9f\u0bc8",
          "name:en": "Teynampet",
          "name:ml": "\u0d24\u0d47\u0d28\u0d3e\u0d02\u0d2a\u0d47\u0d1f\u0d4d\u0d1f",
          "name:ta": "\u0ba4\u0bc7\u0ba9\u0bbe\u0bae\u0bcd\u0baa\u0bc7\u0b9f\u0bcd\u0b9f\u0bc8",
          "network": "Chennai Metro",
          "network:wikidata": "Q1639576",
          "note": "Contributors are requested to not edit the \"network\" and the \"operator\" tags. (2023/11/08)",
          "operator": "Chennai Metro Rail Limited",
          "public_transport": "station",
          "railway": "station",
          "railway:ref": "STE",
          "ref": "STE",
          "station": "subway",
          "subway": "yes",
          "wikidata": "Q55634996",
          "wikipedia": "en:Teynampet metro station"
        }
      },
      {
        "type": "node",
        "id": 6285857243,
        "lat": 13.0317092,
        "lon": 80.2411957,
        "tags": {
          "alt_name": "Chamiers Road",
          "local_ref": "Chamiers Road",
          "name": "\u0ba8\u0ba8\u0bcd\u0ba4\u0ba9\u0bae\u0bcd",
          "name:en": "Nandanam",
          "name:ml": "\u0d28\u0d28\u0d4d\u0d26\u0d28\u0d02",
          "name:ta": "\u0ba8\u0ba8\u0bcd\u0ba4\u0ba9\u0bae\u0bcd",
          "network": "Chennai Metro",
          "network:wikidata": "Q1639576",
          "note": "Contributors are requested to not edit the \"network\" and the \"operator\" tags. (2023/11/08)",
          "operator": "Chennai Metro Rail Limited",
          "public_transport": "station",
          "railway": "station",
          "railway:ref": "SCR",
          "ref": "SCR",
          "station": "subway",
          "subway": "yes",
          "wikidata": "Q55624607",
          "wikipedia": "en:Nandanam metro station"
        }
      },
      {
        "type": "node",
        "id": 6285857244,
        "lat": 13.0239638,
        "lon": 80.2280815,
        "tags": {
          "name": "\u0b9a\u0bc8\u0ba4\u0bbe\u0baa\u0bcd\u0baa\u0bc7\u0b9f\u0bcd\u0b9f\u0bc8",
          "name:en": "Saidapet",
          "name:ml": "\u0d38\u0d48\u0d26\u0d3e\u0d2a\u0d47\u0d1f\u0d4d\u0d1f",
          "name:ta": "\u0b9a\u0bc8\u0ba4\u0bbe\u0baa\u0bcd\u0baa\u0bc7\u0b9f\u0bcd\u0b9f\u0bc8",
          "network": "Chennai Metro",
          "network:wikidata": "Q1639576",
          "note": "Contributors are requested to not edit the \"network\" and the \"operator\" tags. (2023/11/08)",
          "operator": "Chennai Metro Rail Limited",
          "public_transport": "station",
          "railway": "station",
          "railway:ref": "SSA",
          "ref": "SSA",
          "station": "subway",
          "subway": "yes",
          "wikidata": "Q55632346",
          "wikipedia": "en:Saidapet metro station"
        }
      },
      {
        "type": "node",
        "id": 6285857249,
        "lat": 13.0458852,
        "lon": 80.2482846,
        "tags": {
          "alt_name": "Gemini",
          "alt_name:ta": "\u0b9c\u0bc6\u0bae\u0bbf\u0ba9\u0bbf",
          "local_ref": "Gemini",
          "name": "\u0b8f \u0b9c\u0bbf \u0b9f\u0bbf.\u0b8e\u0bae\u0bcd.\u0b8e\u0bb8\u0bcd",
          "name:en": "AG-DMS",
          "name:ml": "\u0d0e\u0d1c\u0d3f - \u0d21\u0d3f\u0d0e\u0d02\u0d0e\u0d38\u0d4d",
          "name:ta": "\u0b8f \u0b9c\u0bbf \u0b9f\u0bbf.\u0b8e\u0bae\u0bcd.\u0b8e\u0bb8\u0bcd",
          "network": "Chennai Metro",
          "note": "Contributors are requested to not edit the \"network\" and the \"operator\" tags. (2023/11/08)",
          "operator": "Chennai Metro Rail Limited",
          "public_transport": "station",
          "railway": "station",
          "railway:ref": "SGM",
          "ref": "SGM",
          "station": "subway",
          "subway": "yes",
          "wikidata": "Q55602937",
          "wikipedia": "en:AG-DMS metro station"
        }
      },
      {
        "type": "node",
        "id": 6297571205,
        "lat": 13.0474821,
        "lon": 80.2450469,
        "tags": {
          "addr:street": "T Nagar, Chennai",
          "amenity": "cinema",
          "name": "AGS Cinemas (T Nagar)"
        }
      },
      {
        "type": "node",
        "id": 6497450229,
        "lat": 13.0342592,
        "lon": 80.230369,
        "tags": {
          "bus": "yes",
          "name": "Thyagaraya Nagar Bus Terminus",
          "public_transport": "stop_position"
        }
      },
      {
        "type": "node",
        "id": 7412932328,
        "lat": 13.0356479,
        "lon": 80.2548953,
        "tags": {
          "bus": "yes",
          "highway": "bus_stop",
          "name": "\u0b86\u0bb4\u0bcd\u0bb5\u0bbe\u0bb0\u0bcd \u0baa\u0bc7\u0b9f\u0bcd\u0b9f\u0bc8",
          "name:en": "Alwarpet",
          "name:ta": "\u0b86\u0bb4\u0bcd\u0bb5\u0bbe\u0bb0\u0bcd \u0baa\u0bc7\u0b9f\u0bcd\u0b9f\u0bc8",
          "operator": "MTC",
          "public_transport": "stop_position"
        }
      },
      {
        "type": "node",
        "id": 7412932329,
        "lat": 13.0231055,
        "lon": 80.2427833,
        "tags": {
          "bus": "yes",
          "highway": "bus_stop",
          "name": "Kotturpuram",
          "operator": "MTC",
          "public_transport": "stop_position"
        }
      },
      {
        "type": "node",
        "id": 7412932330,
        "lat": 13.0185768,
        "lon": 80.2413141,
        "tags": {
          "bus": "yes",
          "highway": "bus_stop",
          "name": "Kottur",
          "operator": "MTC",
          "public_transport": "stop_position"
        }
      },
      {
        "type": "node",
        "id": 9412787735,
        "lat": 13.0221111,
        "lon": 80.226294,
        "tags": {
          "bus": "yes",
          "name": "Saidapet",
          "public_transport": "stop_position"
        }
      },
      {
        "type": "node",
        "id": 9412787736,
        "lat": 13.0279977,
        "lon": 80.2309273,
        "tags": {
          "bus": "yes",
          "name": "C.I.T. Nagar",
          "public_transport": "stop_position"
        }
      },
      {
        "type": "node",
        "id": 9412862312,
        "lat": 13.0343027,
        "lon": 80.2121485,
        "tags": {
          "bus": "yes",
          "name": "Ashok Pillar",
          "public_transport": "stop_position"
        }
      },
      {
        "type": "node",
        "id": 9592492221,
        "lat": 13.0355123,
        "lon": 80.2112057,
        "tags": {
          "name": "\u0b85\u0b9a\u0bcb\u0b95\u0bcd \u0ba8\u0b95\u0bb0\u0bcd",
          "name:en": "Ashok Nagar",
          "name:ta": "\u0b85\u0b9a\u0bc7\u0bbe\u0b95\u0bcd \u0ba8\u0b95\u0bb0\u0bcd",
          "network": "Chennai Metro",
          "note": "Contributors are requested to not edit the \"network\" and the \"operator\" tags. (2023/11/08)",
          "operator": "Chennai Metro Rail Limited",
          "public_transport": "stop_position",
          "railway": "stop",
          "subway": "yes"
        }
      },
      {
        "type": "node",
        "id": 9819010214,
        "lat": 13.0463989,
        "lon": 80.2395728,
        "tags": {
          "bus": "yes",
          "name": "Thirumalai Pillai Road",
          "network": "MTC",
          "operator": "Metropolitan Transport Corporation (Chennai) Ltd.",
          "public_transport": "stop_position"
        }
      },
      {
        "type": "node",
        "id": 9894539908,
        "lat": 13.0409609,
        "lon": 80.2405902,
        "tags": {
          "bus": "yes",
          "name": "Power House",
          "network": "MTC",
          "operator": "Metropolitan Transport Corporation (Chennai) Ltd.",
          "public_transport": "stop_position"
        }
      },
      {
        "type": "node",
        "id": 9920647758,
        "lat": 13.0345423,
        "lon": 80.2300791,
        "tags": {
          "bus": "yes",
          "name": "Thyagaraya Nagar Bus Terminus",
          "network": "MTC",
          "operator": "Metropolitan Transport Corporation (Chennai) Ltd.",
          "public_transport": "stop_position"
        }
      },
      {
        "type": "node",
        "id": 10036499344,
        "lat": 13.0317217,
        "lon": 80.2419487,
        "tags": {
          "amenity": "charging_station"
        }
      },
      {
        "type": "node",
        "id": 11782138276,
        "lat": 13.0540708,
        "lon": 80.2344005,
        "tags": {
          "amenity": "fuel",
          "brand": "Hindustan Petroleum",
          "brand:wikidata": "Q1619375",
          "name": "HP",
          "official_name": "Hindustan Petroleum"
        }
      },
      {
        "type": "node",
        "id": 11824517918,
        "lat": 13.0210393,
        "lon": 80.2251942,
        "tags": {
          "amenity": "fuel",
          "brand": "Indian Oil",
          "brand:wikidata": "Q1289348",
          "name": "Indian Oil"
        }
      },
      {
        "type": "node",
        "id": 11835030329,
        "lat": 13.0458131,
        "lon": 80.2398536,
        "tags": {
          "amenity": "fuel",
          "description": "LPG",
          "fuel:lpg": "yes",
          "name": "Go Gas"
        }
      },
      {
        "type": "node",
        "id": 11959593361,
        "lat": 13.0350987,
        "lon": 80.2111199,
        "tags": {
          "bus": "yes",
          "public_transport": "stop_position"
        }
      },
      {
        "type": "node",
        "id": 11959617428,
        "lat": 13.046284,
        "lon": 80.2121909,
        "tags": {
          "bus": "yes",
          "public_transport": "stop_position"
        }
      }
    ]
  }
}