{
  "pois_1km": {
    "version": 0.6,
    "generator": "Overpass API 0.7.62.8 e802775f",
    "osm3s": {
      "timestamp_osm_base": "2025-09-06T09:24:15Z",
      "copyright": "The data included in this document is from www.openstreetmap.org. The data is made available under ODbL."
    },
    "elements": [
      {
        "type": "node",
        "id": 1979251396,
        "lat": 12.9744402,
        "lon": 80.1349055,
        "tags": {
          "brand": "More",
          "brand:wikidata": "Q6910891",
          "brand:wikipedia": "en:More (store)",
          "name": "More",
          "shop": "supermarket"
        }
      },
      {
        "type": "node",
        "id": 6929922974,
        "lat": 12.9893694,
        "lon": 80.1422824,
        "tags": {
          "addr:block": "Tambaram Mpty",
          "addr:district": "Kancheepuram",
          "addr:full": "5/271, Pozhichalur Bus Stop, Prem Nagar, Polichalur, Ambedkar Nagar Main Road",
          "addr:postcode": "600074",
          "addr:state": "Tamil Nadu",
          "addr:subdistrict": "Tambaram",
          "amenity": "clinic",
          "healthcare": "clinic",
          "name": "Das Nursing Home",
          "source": "OpenGovernmentData"
        }
      },
      {
        "type": "node",
        "id": 6934139598,
        "lat": 12.9731392,
        "lon": 80.1371252,
        "tags": {
          "addr:district": "Kanchipuram",
          "addr:full": "No. 1, Ganesan Street, (Pammal Main Road) Krishna Nagar, Pammal",
          "addr:postcode": "600075",
          "addr:state": "Tamil Nadu",
          "amenity": "hospital",
          "healthcare": "hospital",
          "name": "Arvind Sai Eye Hospital",
          "source": "OpenGovernmentData"
        }
      },
      {
        "type": "node",
        "id": 6936695215,
        "lat": 12.9740991,
        "lon": 80.1387607,
        "tags": {
          "addr:block": "Tambaram Mpty",
          "addr:district": "Kancheepuram",
          "addr:full": "Krishna Nagar, Pammal, Pilliyar Koil Street",
          "addr:postcode": "600075",
          "addr:state": "Tamil Nadu",
          "addr:subdistrict": "Tambaram",
          "amenity": "hospital",
          "healthcare": "hospital",
          "name": "Subhiksha Hospital",
          "source": "OpenGovernmentData"
        }
      },
      {
        "type": "node",
        "id": 7823212556,
        "lat": 12.9734407,
        "lon": 80.1388275,
        "tags": {
          "addr:district": "Chengalpattu",
          "addr:full": "Krishna Nagar, Muthamizh Nagar, Pallavaram",
          "addr:postcode": "600043",
          "addr:state": "Tamil Nadu",
          "amenity": "doctors",
          "healthcare": "doctor",
          "name": "Dr. Bhuvaneshwari",
          "source": "Local Knowledge"
        }
      },
      {
        "type": "node",
        "id": 7823212595,
        "lat": 12.9785202,
        "lon": 80.1364766,
        "tags": {
          "addr:district": "Chengalpattu",
          "addr:full": "Iyyappan Nagar, Pammal",
          "addr:postcode": "600074",
          "addr:state": "Tamil Nadu",
          "amenity": "clinic",
          "healthcare": "clinic",
          "name": "Nilaa Women's Care Clinic",
          "source": "Local Knowledge"
        }
      },
      {
        "type": "node",
        "id": 7823212606,
        "lat": 12.9757761,
        "lon": 80.1327778,
        "tags": {
          "addr:district": "Chengalpattu",
          "addr:full": "Pasumpon Nagar, Pammal",
          "addr:postcode": "600075",
          "addr:state": "Tamil Nadu",
          "amenity": "clinic",
          "healthcare": "clinic",
          "name": "Divine Clinic",
          "source": "Local Knowledge"
        }
      },
      {
        "type": "node",
        "id": 7823212611,
        "lat": 12.9730521,
        "lon": 80.1373013,
        "tags": {
          "addr:district": "Chengalpattu",
          "addr:full": "Krishna Nagar, Pammal",
          "addr:postcode": "600075",
          "addr:state": "Tamil Nadu",
          "amenity": "clinic",
          "healthcare": "clinic",
          "name": "Dharani Clinic",
          "source": "Local Knowledge"
        }
      },
      {
        "type": "node",
        "id": 7823212621,
        "lat": 12.975069,
        "lon": 80.133741,
        "tags": {
          "addr:district": "Chengalpattu",
          "addr:full": "Pasumpon Nagar, Pammal",
          "addr:postcode": "600074",
          "addr:state": "Tamil Nadu",
          "amenity": "clinic",
          "healthcare": "clinic",
          "name": "Bailey Opticals Eye Clinic",
          "source": "Local Knowledge"
        }
      },
      {
        "type": "node",
        "id": 7823212629,
        "lat": 12.9785736,
        "lon": 80.1363228,
        "tags": {
          "addr:district": "Chengalpattu",
          "addr:full": "Iyyappan Nagar, HL Colony",
          "addr:postcode": "600074",
          "addr:state": "Tamil Nadu",
          "amenity": "clinic",
          "healthcare": "clinic",
          "name": "Dermalaya, Skin & Hair Laser Clinic",
          "source": "Local Knowledge"
        }
      },
      {
        "type": "node",
        "id": 7823212634,
        "lat": 12.9731545,
        "lon": 80.1386876,
        "tags": {
          "addr:district": "Chengalpattu",
          "addr:full": "Pallavaram",
          "addr:postcode": "600074",
          "addr:state": "Tamil Nadu",
          "amenity": "clinic",
          "healthcare": "clinic",
          "name": "KO's Skin and Hair Clinic",
          "source": "Local Knowledge"
        }
      }
    ]
  },
  "pois_2_5km": {
    "version": 0.6,
    "generator": "Overpass API 0.7.62.8 e802775f",
    "osm3s": {
      "timestamp_osm_base": "2025-09-06T09:24:15Z",
      "copyright": "The data included in this document is from www.openstreetmap.org. The data is made available under ODbL."
    },
    "elements": [
      {
        "type": "node",
        "id": 252171381,
        "lat": 12.9679,
        "lon": 80.1524,
        "tags": {
          "name": "Pallavaram",
          "public_transport": "stop_position",
          "railway": "stop",
          "train": "yes"
        }
      },
      {
        "type": "node",
        "id": 1008034381,
        "lat": 12.9679789,
        "lon": 80.1522522,
        "tags": {
          "name": "Pallavaram",
          "public_transport": "stop_position",
          "railway": "stop",
          "train": "yes"
        }
      },
      {
        "type": "node",
        "id": 1884890517,
        "lat": 12.9678546,
        "lon": 80.1524644,
        "tags": {
          "name": "Pallavaram",
          "public_transport": "stop_position",
          "railway": "stop",
          "train": "yes"
        }
      },
      {
        "type": "node",
        "id": 2439092458,
        "lat": 12.9678842,
        "lon": 80.1524305,
        "tags": {
          "name": "Pallavaram",
          "public_transport": "stop_position",
          "railway": "stop",
          "train": "yes"
        }
      },
      {
        "type": "node",
        "id": 4435694788,
        "lat": 12.9675742,
        "lon": 80.1520504,
        "tags": {
          "internet_access": "no",
          "name": "Pallavaram",
          "name:hi": "\u092a\u0932\u094d\u0932\u093e\u0935\u0930\u092e",
          "name:ml": "\u0d2a\u0d32\u0d4d\u0d32\u0d3e\u0d35\u0d30\u0d02",
          "name:pa": "\u0a2a\u0a71\u0a32\u0a3e\u0a35\u0a30\u0a2e",
          "name:ta": "\u0baa\u0bb2\u0bcd\u0bb2\u0bbe\u0bb5\u0bb0\u0bae\u0bcd",
          "operator": "SR",
          "public_transport": "station",
          "railway": "station",
          "ref": "PV",
          "wikidata": "Q7127768",
          "wikipedia": "en:Pallavaram railway station"
        }
      },
      {
        "type": "node",
        "id": 6299266860,
        "lat": 12.9695901,
        "lon": 80.1499164,
        "tags": {
          "amenity": "fuel",
          "brand": "Bharat Petroleum",
          "brand:wikidata": "Q854826",
          "brand:wikipedia": "en:Bharat Petroleum",
          "name": "Bharat Petroleum"
        }
      },
      {
        "type": "node",
        "id": 6299266897,
        "lat": 12.9684621,
        "lon": 80.1499328,
        "tags": {
          "amenity": "fuel",
          "brand": "Hindustan Petroleum",
          "brand:wikidata": "Q1619375",
          "brand:wikipedia": "en:Hindustan Petroleum",
          "name": "HP",
          "official_name": "Hindustan Petroleum"
        }
      },
      {
        "type": "node",
        "id": 6329440330,
        "lat": 12.965443,
        "lon": 80.1484205,
        "tags": {
          "amenity": "fuel",
          "brand": "Hindustan Petroleum",
          "brand:wikidata": "Q1619375",
          "brand:wikipedia": "en:Hindustan Petroleum",
          "check_date": "2019-02-23",
          "name": "HP",
          "official_name": "Hindustan Petroleum"
        }
      },
      {
        "type": "node",
        "id": 9331600151,
        "lat": 12.9852524,
        "lon": 80.1230797,
        "tags": {
          "amenity": "bus_station",
          "bus": "yes",
          "name": "Anakaputhur Bus Stand",
          "public_transport": "station"
        }
      },
      {
        "type": "node",
        "id": 11906447554,
        "lat": 12.9712243,
        "lon": 80.1430289,
        "tags": {
          "amenity": "fuel",
          "brand": "Hindustan Petroleum",
          "brand:wikidata": "Q1619375",
          "brand:wikipedia": "en:Hindustan Petroleum",
          "name": "HP",
          "official_name": "Hindustan Petroleum"
        }
      }
    ]
  }
}