{
  "pois_1km": {
    "version": 0.6,
    "generator": "Overpass API 0.7.62.8 e802775f",
    "osm3s": {
      "timestamp_osm_base": "2025-09-06T09:05:46Z",
      "copyright": "The data included in this document is from www.openstreetmap.org. The data is made available under ODbL."
    },
    "elements": [
      {
        "type": "node",
        "id": 248643383,
        "lat": 13.0391457,
        "lon": 80.2572843,
        "tags": {
          "amenity": "atm",
          "brand": "HDFC Bank",
          "brand:en": "HDFC Bank",
          "brand:wikidata": "Q631047",
          "brand:wikipedia": "en:HDFC Bank",
          "currency:INR": "yes",
          "drive_through": "no",
          "indoor": "yes",
          "name": "HDFC Bank",
          "note": "Contributors are requested to not edit the \"brand\", \"brand:en\", \"brand:wikidata\", \"operator\", \"operator:en\" and \"operator:wikidata\" tags. (2025/03/03)",
          "opening_hours": "24/7",
          "operator": "HDFC Bank",
          "operator:en": "HDFC Bank",
          "operator:wikidata": "Q631047",
          "operator:wikipedia": "en:HDFC Bank",
          "short_name": "HDFC"
        }
      },
      {
        "type": "node",
        "id": 301725737,
        "lat": 13.0392554,
        "lon": 80.2556216,
        "tags": {
          "amenity": "restaurant",
          "name": "Tangerine"
        }
      },
      {
        "type": "node",
        "id": 301725738,
        "lat": 13.0421141,
        "lon": 80.2558968,
        "tags": {
          "amenity": "restaurant",
          "name": "Ente Keralam"
        }
      },
      {
        "type": "node",
        "id": 301725751,
        "lat": 13.0383186,
        "lon": 80.2566708,
        "tags": {
          "amenity": "restaurant",
          "created_by": "Potlatch 0.10f",
          "name": "Suriyas"
        }
      },
      {
        "type": "node",
        "id": 301725766,
        "lat": 13.0390386,
        "lon": 80.2508349,
        "tags": {
          "brand": "Reliance Fresh",
          "brand:wikidata": "Q7311014",
          "brand:wikipedia": "en:Reliance Fresh",
          "name": "Reliance Fresh",
          "name:ta": "\u0bb0\u0bbf\u0bb2\u0bc8\u0baf\u0ba9\u0bcd\u0bb8\u0bcd \u0b83\u0baa\u0bcd\u0bb0\u0bc6\u0bb7\u0bcd",
          "shop": "supermarket"
        }
      },
      {
        "type": "node",
        "id": 301738744,
        "lat": 13.0410323,
        "lon": 80.2578002,
        "tags": {
          "amenity": "bank",
          "atm": "yes",
          "brand": "State Bank of India",
          "brand:wikidata": "Q1340361",
          "brand:wikipedia": "en:State Bank of India",
          "name": "State Bank of India",
          "name:en": "State Bank of India",
          "short_name": "SBI"
        }
      },
      {
        "type": "node",
        "id": 301816128,
        "lat": 13.0409358,
        "lon": 80.2586973,
        "tags": {
          "amenity": "restaurant",
          "created_by": "Potlatch 0.10f",
          "name": "Midnight Express"
        }
      },
      {
        "type": "node",
        "id": 303590777,
        "lat": 13.0336624,
        "lon": 80.2572467,
        "tags": {
          "amenity": "hospital",
          "healthcare": "hospital",
          "name": "Corporation Hospital"
        }
      },
      {
        "type": "node",
        "id": 339120850,
        "lat": 13.0313113,
        "lon": 80.2513502,
        "tags": {
          "amenity": "restaurant",
          "created_by": "Potlatch 0.10f",
          "name": "Benjarong"
        }
      },
      {
        "type": "node",
        "id": 339125302,
        "lat": 13.0384527,
        "lon": 80.2567668,
        "tags": {
          "amenity": "restaurant",
          "created_by": "Potlatch 0.10f",
          "name": "Okadeys"
        }
      },
      {
        "type": "node",
        "id": 339129119,
        "lat": 13.0380761,
        "lon": 80.2546633,
        "tags": {
          "amenity": "bank",
          "brand": "State Bank of India",
          "brand:wikidata": "Q1340361",
          "brand:wikipedia": "en:State Bank of India",
          "name": "State Bank of India",
          "short_name": "SBI",
          "website": "https://www.sbi.co.in"
        }
      },
      {
        "type": "node",
        "id": 339129150,
        "lat": 13.0386164,
        "lon": 80.2583324,
        "tags": {
          "amenity": "bank",
          "atm": "yes",
          "created_by": "Potlatch 0.10f",
          "name": "Tamil Nadu Co-op Bank"
        }
      },
      {
        "type": "node",
        "id": 359289706,
        "lat": 13.0333788,
        "lon": 80.2569388,
        "tags": {
          "amenity": "restaurant",
          "name": "Corner Juice Shop"
        }
      },
      {
        "type": "node",
        "id": 363704800,
        "lat": 13.0354864,
        "lon": 80.2496631,
        "tags": {
          "amenity": "fast_food",
          "brand": "Domino's",
          "brand:ks": "\u0688\u0648\u0645\u06cc\u0646\u0648\u0632",
          "brand:pa": "\u0a21\u0a4b\u0a2e\u0a40\u0a28\u0a4b\u0a1c\u0a3c",
          "brand:ur": "\u0688\u0648\u0645\u06cc\u0646\u0648\u0632",
          "brand:wikidata": "Q839466",
          "brand:wikipedia": "en:Domino's Pizza",
          "cuisine": "pizza",
          "food": "non-veg",
          "name": "Domino's",
          "name:ks": "\u0688\u0648\u0645\u06cc\u0646\u0648\u0632",
          "name:pa": "\u0a21\u0a4b\u0a2e\u0a40\u0a28\u0a4b\u0a1c\u0a3c",
          "name:ur": "\u0688\u0648\u0645\u06cc\u0646\u0648\u0632",
          "takeaway": "yes"
        }
      },
      {
        "type": "node",
        "id": 363704809,
        "lat": 13.0368042,
        "lon": 80.2553943,
        "tags": {
          "amenity": "restaurant",
          "name": "US Pizza"
        }
      },
      {
        "type": "node",
        "id": 364119253,
        "lat": 13.0308675,
        "lon": 80.2547014,
        "tags": {
          "amenity": "restaurant",
          "created_by": "Potlatch 0.10f",
          "name": "The Wanton"
        }
      },
      {
        "type": "node",
        "id": 378684857,
        "lat": 13.0287554,
        "lon": 80.253254,
        "tags": {
          "amenity": "restaurant",
          "cuisine": "chinese",
          "name": "Lemongrass"
        }
      },
      {
        "type": "node",
        "id": 378684866,
        "lat": 13.0276871,
        "lon": 80.2526956,
        "tags": {
          "amenity": "restaurant",
          "cuisine": "north_indian",
          "name": "Grains of Paradise"
        }
      },
      {
        "type": "node",
        "id": 378688532,
        "lat": 13.026914,
        "lon": 80.2556765,
        "tags": {
          "amenity": "restaurant",
          "cuisine": "north_indian",
          "name": "Cream Centre"
        }
      },
      {
        "type": "node",
        "id": 378688549,
        "lat": 13.0321755,
        "lon": 80.2521158,
        "tags": {
          "amenity": "restaurant",
          "created_by": "Potlatch 0.10f",
          "cuisine": "korean",
          "name": "In Seoul"
        }
      },
      {
        "type": "node",
        "id": 378688552,
        "lat": 13.0313502,
        "lon": 80.2566048,
        "tags": {
          "addr:city": "Chennai",
          "amenity": "bank",
          "branch": "Abhiramapuram",
          "brand": "State Bank of India",
          "brand:wikidata": "Q1340361",
          "brand:wikipedia": "en:State Bank of India",
          "name": "State Bank of India",
          "short_name": "SBI",
          "website": "https://www.sbi.co.in"
        }
      },
      {
        "type": "node",
        "id": 378688557,
        "lat": 13.031996,
        "lon": 80.2566384,
        "tags": {
          "name": "Nilgiris",
          "name:ta": "\u0ba8\u0bc0\u0bb2\u0bcd\u0b95\u0bbf\u0bb0\u0bc0\u0bb8\u0bcd",
          "shop": "supermarket"
        }
      },
      {
        "type": "node",
        "id": 378688560,
        "lat": 13.0328095,
        "lon": 80.2570496,
        "tags": {
          "addr:city": "Chennai",
          "addr:postcode": "600118",
          "addr:street": "CP Ramaswamy Road",
          "name": "Spencers Daily",
          "organic": "yes",
          "shop": "supermarket",
          "website": "https://www.spencers.in/"
        }
      },
      {
        "type": "node",
        "id": 378692897,
        "lat": 13.0348418,
        "lon": 80.2555018,
        "tags": {
          "amenity": "pharmacy",
          "healthcare": "pharmacy",
          "name": "Appolo"
        }
      },
      {
        "type": "node",
        "id": 378692901,
        "lat": 13.0386303,
        "lon": 80.2517685,
        "tags": {
          "amenity": "pharmacy",
          "healthcare": "pharmacy",
          "name": "Sugam"
        }
      },
      {
        "type": "node",
        "id": 378692904,
        "lat": 13.039551,
        "lon": 80.2502927,
        "tags": {
          "amenity": "pharmacy",
          "healthcare": "pharmacy",
          "name": "Sugam"
        }
      },
      {
        "type": "node",
        "id": 378692910,
        "lat": 13.0399682,
        "lon": 80.2503287,
        "tags": {
          "amenity": "doctors",
          "healthcare": "doctor"
        }
      },
      {
        "type": "node",
        "id": 378692913,
        "lat": 13.0406602,
        "lon": 80.2505675,
        "tags": {
          "amenity": "doctors",
          "healthcare": "doctor"
        }
      },
      {
        "type": "node",
        "id": 386890405,
        "lat": 13.0379504,
        "lon": 80.2561125,
        "tags": {
          "amenity": "atm",
          "brand": "ICICI Bank",
          "brand:en": "ICICI Bank",
          "brand:wikidata": "Q1653258",
          "brand:wikipedia": "en:ICICI Bank",
          "currency:INR": "yes",
          "drive_through": "no",
          "indoor": "yes",
          "name": "ICICI Bank",
          "note": "Contributors are requested to not edit the \"brand\", \"brand:en\", \"brand:wikidata\", \"operator\", \"operator:en\" and \"operator:wikidata\" tags. (2025/03/03)",
          "opening_hours": "24/7",
          "operator": "ICICI Bank",
          "operator:en": "ICICI Bank",
          "operator:wikidata": "Q1653258",
          "operator:wikipedia": "en:ICICI Bank",
          "short_name": "ICICI"
        }
      },
      {
        "type": "node",
        "id": 386890406,
        "lat": 13.0387921,
        "lon": 80.2570003,
        "tags": {
          "amenity": "restaurant",
          "created_by": "Potlatch 0.10f",
          "name": "Parvathi Bhavan"
        }
      },
      {
        "type": "node",
        "id": 407982613,
        "lat": 13.037322,
        "lon": 80.2643178,
        "tags": {
          "amenity": "bank",
          "brand": "State Bank of India",
          "brand:wikidata": "Q1340361",
          "brand:wikipedia": "en:State Bank of India",
          "name": "State Bank of India",
          "short_name": "SBI",
          "website": "https://www.sbi.co.in"
        }
      },
      {
        "type": "node",
        "id": 415623146,
        "lat": 13.0372383,
        "lon": 80.2650731,
        "tags": {
          "amenity": "bank",
          "brand": "Bank of Baroda",
          "brand:wikidata": "Q2003797",
          "brand:wikipedia": "en:Bank of Baroda",
          "name": "Bank of Baroda",
          "name:en": "Bank of Baroda",
          "short_name": "BoB",
          "website": "http://www.bankofbaroda.com"
        }
      },
      {
        "type": "node",
        "id": 646540032,
        "lat": 13.033027,
        "lon": 80.2577325,
        "tags": {
          "addr:city": "Chennai",
          "addr:housenumber": "4",
          "addr:postcode": "600018",
          "addr:street": "Abhiramapuram 1st Street",
          "amenity": "bank",
          "atm": "yes",
          "brand": "IDBI Bank",
          "brand:wikidata": "Q3633485",
          "brand:wikipedia": "en:IDBI Bank",
          "drive_through": "no",
          "name": "IDBI Bank",
          "name:en": "IDBI Bank",
          "old_name": "Industrial Development Bank of India",
          "short_name": "IDBI",
          "source": "Yahoo",
          "website": "https://www.idbibank.in"
        }
      },
      {
        "type": "node",
        "id": 864565812,
        "lat": 13.0398647,
        "lon": 80.2516758,
        "tags": {
          "name": "K-Store",
          "shop": "supermarket"
        }
      },
      {
        "type": "node",
        "id": 1018359157,
        "lat": 13.029475,
        "lon": 80.2539531,
        "tags": {
          "amenity": "pharmacy",
          "healthcare": "pharmacy",
          "name": "Apollo"
        }
      },
      {
        "type": "node",
        "id": 1685079568,
        "lat": 13.038511,
        "lon": 80.2551167,
        "tags": {
          "amenity": "restaurant",
          "name": "Asli Punjabi Rasoi Ghar"
        }
      },
      {
        "type": "node",
        "id": 1990726878,
        "lat": 13.0428655,
        "lon": 80.259599,
        "tags": {
          "amenity": "restaurant",
          "cuisine": "ice_cream",
          "name": "Freeze Zone"
        }
      },
      {
        "type": "node",
        "id": 3118828098,
        "lat": 13.0388272,
        "lon": 80.2592138,
        "tags": {
          "name": "Wait Rose",
          "note": "I believe this isn't by the guys who run London's waitrose.",
          "shop": "supermarket"
        }
      },
      {
        "type": "node",
        "id": 3118864398,
        "lat": 13.0381705,
        "lon": 80.2573008,
        "tags": {
          "addr:city": "Chennai",
          "addr:housenumber": "#199",
          "addr:postcode": "60004",
          "addr:street": "Luz Church Road",
          "amenity": "hospital",
          "emergency": "yes",
          "healthcare": "hospital",
          "name": "Kauvery Hospital",
          "note": "The building is shared by Lifestyle Home Center and the hospital",
          "phone": "+914440006000",
          "website": "https://www.kauveryhospital.com/",
          "wheelchair": "yes"
        }
      },
      {
        "type": "node",
        "id": 3233720458,
        "lat": 13.0386988,
        "lon": 80.2532833,
        "tags": {
          "addr:city": "chennai",
          "addr:housenumber": "44",
          "addr:postcode": "600018",
          "addr:street": "Eldams Road",
          "amenity": "bank",
          "atm": "yes",
          "brand": "Punjab National Bank",
          "brand:wikidata": "Q2743499",
          "brand:wikipedia": "en:Punjab National Bank",
          "name": "Punjab National Bank",
          "name:en": "Punjab National Bank",
          "operator": "punjab national bank",
          "short_name": "PNB",
          "website": "https://www.pnbindia.in"
        }
      },
      {
        "type": "node",
        "id": 3686393228,
        "lat": 13.0338021,
        "lon": 80.2533553,
        "tags": {
          "addr:city": "Chennai",
          "addr:housenumber": "159/160",
          "addr:postcode": "600018",
          "addr:street": "T T Krishnamachari Road",
          "amenity": "fast_food",
          "cuisine": "sandwich",
          "delivery": "yes",
          "name": "Royal Sandwich",
          "opening_hours": "Mo-Su 09:30-21:30",
          "takeaway": "yes"
        }
      },
      {
        "type": "node",
        "id": 3686393758,
        "lat": 13.0335251,
        "lon": 80.2534304,
        "tags": {
          "addr:city": "Chennai",
          "addr:housenumber": "239/107",
          "addr:postcode": "600018",
          "addr:street": "TTK Road",
          "amenity": "restaurant",
          "cuisine": "international",
          "delivery": "yes",
          "name": "Spoonbill",
          "opening_hours": "11:00-23:00",
          "takeaway": "yes"
        }
      },
      {
        "type": "node",
        "id": 4241464991,
        "lat": 13.039509,
        "lon": 80.2538071,
        "tags": {
          "addr:street": "Maharaja Surya Road",
          "amenity": "restaurant",
          "cuisine": "indian",
          "name": "Meena Tai's"
        }
      },
      {
        "type": "node",
        "id": 4335525920,
        "lat": 13.0387128,
        "lon": 80.2624199,
        "tags": {
          "amenity": "restaurant",
          "cuisine": "indian",
          "diet:vegetarian": "yes",
          "name": "Isabel Hospital Canteen",
          "takeaway": "yes",
          "wheelchair": "yes"
        }
      },
      {
        "type": "node",
        "id": 4335525921,
        "lat": 13.03836,
        "lon": 80.2621637,
        "tags": {
          "amenity": "cafe",
          "cuisine": "Vending Machine",
          "name": "Tea Shop",
          "wheelchair": "yes"
        }
      },
      {
        "type": "node",
        "id": 4348942389,
        "lat": 13.0366167,
        "lon": 80.2624809,
        "tags": {
          "amenity": "restaurant",
          "name": "Mahamudra"
        }
      },
      {
        "type": "node",
        "id": 4455816594,
        "lat": 13.0333077,
        "lon": 80.2497859,
        "tags": {
          "amenity": "atm"
        }
      },
      {
        "type": "node",
        "id": 4455877890,
        "lat": 13.0339142,
        "lon": 80.2497305,
        "tags": {
          "amenity": "atm"
        }
      },
      {
        "type": "node",
        "id": 4488387389,
        "lat": 13.0327786,
        "lon": 80.2526813,
        "tags": {
          "addr:housenumber": "530",
          "addr:postcode": "600018",
          "addr:street": "TTK Road",
          "amenity": "clinic",
          "email": "libertyscans@gmail.com",
          "healthcare": "clinic",
          "name:en": "Liberty High Scans",
          "phone": "04424346665"
        }
      },
      {
        "type": "node",
        "id": 4518445190,
        "lat": 13.0428997,
        "lon": 80.2594227,
        "tags": {
          "addr:housenumber": "222",
          "addr:postcode": "600018",
          "addr:street": "TTK Road",
          "amenity": "bank",
          "atm": "yes",
          "brand": "Andhra Bank",
          "brand:wikidata": "Q2003476",
          "brand:wikipedia": "en:Andhra Bank",
          "name": "Andhra Bank",
          "name:en": "Vodafone office for SIMs for foreigners;Andhra Bank",
          "office": "telecommunication",
          "opening_hours": "Mo-Sa 10:00-20:00",
          "operator": "Vodafone",
          "website": "https://www.andhrabank.in"
        }
      },
      {
        "type": "node",
        "id": 4740021911,
        "lat": 13.0396163,
        "lon": 80.2630412,
        "tags": {
          "amenity": "pharmacy",
          "healthcare": "pharmacy",
          "name": "Gokul XRAY"
        }
      },
      {
        "type": "node",
        "id": 4832843522,
        "lat": 13.0268229,
        "lon": 80.2582073,
        "tags": {
          "amenity": "restaurant",
          "name:en": "food nirvana"
        }
      },
      {
        "type": "node",
        "id": 4926677002,
        "lat": 13.0392735,
        "lon": 80.2608433,
        "tags": {
          "addr:city": "chennai",
          "addr:postcode": "600004",
          "addr:street": "Musiri Subramanium Road",
          "amenity": "bank",
          "atm": "no",
          "name": "ICICI Wealth Management Bank",
          "not:brand:wikidata": "Q1653258",
          "opening_hours": "Mo-Sa 09:30-18:00",
          "wheelchair": "yes"
        }
      },
      {
        "type": "node",
        "id": 5393427427,
        "lat": 13.0365816,
        "lon": 80.2511081,
        "tags": {
          "amenity": "restaurant",
          "name": "Ananda veg restaurant"
        }
      },
      {
        "type": "node",
        "id": 5393429271,
        "lat": 13.0354735,
        "lon": 80.2493101,
        "tags": {
          "amenity": "restaurant",
          "name": "Sangeetha veg restaurant"
        }
      },
      {
        "type": "node",
        "id": 6533255085,
        "lat": 13.0407718,
        "lon": 80.2642763,
        "tags": {
          "addr:street": "Sivaswamy Salai",
          "amenity": "bank",
          "name:en": "Union bank of india, mylapore branch",
          "opening_hours": "Mo-Su 10:00-15:00"
        }
      },
      {
        "type": "node",
        "id": 6914880546,
        "lat": 13.0268492,
        "lon": 80.2558082,
        "tags": {
          "addr:district": "Chennai",
          "addr:full": "#52, Raja Annamalai Puram",
          "addr:postcode": "600028",
          "addr:state": "Tamil Nadu",
          "amenity": "hospital",
          "healthcare": "hospital",
          "name": "Chennai Kaliappa Hospital",
          "source": "OpenGovernmentData"
        }
      },
      {
        "type": "node",
        "id": 6926437405,
        "lat": 13.0323531,
        "lon": 80.2517212,
        "tags": {
          "addr:district": "Chennai",
          "addr:full": "123 T.T.K. Rood Alwarpet",
          "addr:postcode": "600018",
          "addr:state": "Tamil Nadu",
          "amenity": "hospital",
          "healthcare": "hospital",
          "name": "Frontline Eye Hospital",
          "source": "OpenGovernmentData"
        }
      },
      {
        "type": "node",
        "id": 6926953017,
        "lat": 13.0274616,
        "lon": 80.2566481,
        "tags": {
          "addr:district": "Chennai",
          "addr:full": "No.43,Second Main Road,R A Puram",
          "addr:postcode": "600028",
          "addr:state": "Tamil Nadu",
          "amenity": "hospital",
          "healthcare": "hospital",
          "name": "Kaliappa Renal Center",
          "source": "OpenGovernmentData"
        }
      },
      {
        "type": "node",
        "id": 6928167787,
        "lat": 13.0349787,
        "lon": 80.2519137,
        "tags": {
          "addr:district": "Chennai",
          "addr:full": "19, K.B Dasan Road (SIET College Road), Alwarpet",
          "addr:postcode": "600018",
          "addr:state": "Tamil Nadu",
          "addr:subdistrict": "Alwarpet",
          "amenity": "hospital",
          "email": "enquiry@girishwarihospital.com",
          "healthcare": "hospital",
          "name": "Girishwari Hospital Pvt Ltd",
          "operator:type": "private",
          "source": "OpenGovernmentData",
          "website": "https://girishwarihospital.com/"
        }
      },
      {
        "type": "node",
        "id": 6928384708,
        "lat": 13.0407013,
        "lon": 80.2618016,
        "tags": {
          "addr:district": "Chennai",
          "addr:full": "No. 03 2nd Link Street. Cit Colony",
          "addr:postcode": "600004",
          "addr:state": "Tamil Nadu",
          "amenity": "hospital",
          "healthcare": "hospital",
          "name": "Dr. K Ravi Eye Care",
          "source": "OpenGovernmentData"
        }
      },
      {
        "type": "node",
        "id": 6928727073,
        "lat": 13.0268688,
        "lon": 80.2541439,
        "tags": {
          "addr:district": "Chennai",
          "addr:full": "15, P.S.Sivasamy Salai, Off Dr.Radhakrishnan Raod) Mylapore",
          "addr:postcode": "600004",
          "addr:state": "Tamil Nadu",
          "amenity": "hospital",
          "healthcare": "hospital",
          "name": "Madras Ent Research Foundation",
          "source": "OpenGovernmentData"
        }
      },
      {
        "type": "node",
        "id": 6929398895,
        "lat": 13.0382607,
        "lon": 80.2582785,
        "tags": {
          "addr:block": "Chennai Zone Ix",
          "addr:district": "Chennai",
          "addr:full": "No:33, Near Alwarpet Signal, Mylapore, Desikan Road",
          "addr:postcode": "600004",
          "addr:state": "Tamil Nadu",
          "amenity": "hospital",
          "healthcare": "hospital",
          "name": "Trinity Acute Care Hospital - Chennai",
          "source": "OpenGovernmentData"
        }
      },
      {
        "type": "node",
        "id": 6929731466,
        "lat": 13.037303,
        "lon": 80.2558136,
        "tags": {
          "addr:district": "Chennai",
          "addr:full": "Old No 32, New No 12, Conran Smith Road, Gopalapuram",
          "addr:postcode": "600086",
          "addr:state": "Tamil Nadu",
          "amenity": "hospital",
          "healthcare": "hospital",
          "name": "Harvey Healthcare Limited",
          "source": "OpenGovernmentData"
        }
      },
      {
        "type": "node",
        "id": 6930163175,
        "lat": 13.0376198,
        "lon": 80.2619625,
        "tags": {
          "addr:district": "Chennai",
          "addr:full": "148, Luz Church Road Mylapore",
          "addr:postcode": "600004",
          "addr:state": "Tamil Nadu",
          "amenity": "hospital",
          "healthcare": "hospital",
          "name": "Chennai Meenakshi Multispeciality Hospital Ltd",
          "source": "OpenGovernmentData"
        }
      },
      {
        "type": "node",
        "id": 6932103990,
        "lat": 13.0390564,
        "lon": 80.2568208,
        "tags": {
          "addr:district": "Chennai",
          "addr:full": "#81, Ttk Road,Alwarpet",
          "addr:postcode": "600018",
          "addr:state": "Tamil Nadu",
          "amenity": "hospital",
          "healthcare": "hospital",
          "name": "Kauvery Hospital, Chennai",
          "source": "OpenGovernmentData"
        }
      },
      {
        "type": "node",
        "id": 6932706544,
        "lat": 13.0331886,
        "lon": 80.258056,
        "tags": {
          "addr:district": "Chennai",
          "addr:full": "Thoppu New No 2 (Old No 64) Dr. Ranga Road, Abhiramapuram",
          "addr:postcode": "600018",
          "addr:state": "Tamil Nadu",
          "amenity": "clinic",
          "name": "Suraksha Ent Care Centre",
          "source": "OpenGovernmentData"
        }
      },
      {
        "type": "node",
        "id": 6934325882,
        "lat": 13.0328516,
        "lon": 80.2615173,
        "tags": {
          "addr:district": "Chennai",
          "addr:full": "Thoppu New No.2,(Old No.64),Dr.Ranga Road, Abiramapuram",
          "addr:postcode": "600018",
          "addr:state": "Tamil Nadu",
          "amenity": "hospital",
          "healthcare": "hospital",
          "name": "Nandalala Medical Foundation",
          "source": "OpenGovernmentData"
        }
      },
      {
        "type": "node",
        "id": 6934340623,
        "lat": 13.0265108,
        "lon": 80.2607878,
        "tags": {
          "addr:district": "Chennai",
          "addr:full": "73 Venkatakrishna Road, Ra Puram",
          "addr:postcode": "600028",
          "addr:state": "Tamil Nadu",
          "amenity": "hospital",
          "check_date": "2024-05-22",
          "healthcare": "hospital",
          "name": "Navasuja Sankara Nethralaya",
          "name:en": "Navasuja Sankara Nethralaya",
          "source": "OpenGovernmentData"
        }
      },
      {
        "type": "node",
        "id": 6936891601,
        "lat": 13.0346684,
        "lon": 80.2576784,
        "tags": {
          "addr:district": "Chennai",
          "addr:full": "No 17, CV Raman Road",
          "addr:postcode": "600018",
          "addr:state": "Tamil Nadu",
          "amenity": "clinic",
          "healthcare:speciality": "Cardiology; Cardiac Surgery; Cyanotic and Acyanotic Heart Diseases (Simple and Complex); Vascular Surgery; Gastroenterology",
          "name": "Aarthi Scans",
          "source": "OpenGovernmentData"
        }
      },
      {
        "type": "node",
        "id": 6937467152,
        "lat": 13.0394065,
        "lon": 80.2507684,
        "tags": {
          "addr:district": "Tiruchirappalli",
          "addr:full": "C,57 11Th Cross Thillai Nagar",
          "addr:postcode": "620018",
          "addr:state": "Tamil Nadu",
          "amenity": "hospital",
          "healthcare": "hospital",
          "name": "Gastro Cre Hospital",
          "source": "OpenGovernmentData"
        }
      },
      {
        "type": "node",
        "id": 7181722911,
        "lat": 13.0432085,
        "lon": 80.259169,
        "tags": {
          "addr:district": "Chennai",
          "addr:full": "No-19, Cathedral Road",
          "addr:postcode": "600086",
          "addr:state": "Tamil Nadu",
          "addr:subdistrict": "Gopala Puram",
          "amenity": "hospital",
          "email": "dragarwal@vsnl.com",
          "healthcare": "hospital",
          "name": "Dr.Agarwal's Eye Hospital Ltd., Gopala Puram",
          "operator": "Dr. Agarwal's Eye Hospital",
          "operator:type": "private",
          "operator:wikidata": "Q17052044",
          "source": "OpenGovernmentData",
          "website": "https://www.dragarwal.com/"
        }
      },
      {
        "type": "node",
        "id": 7210911300,
        "lat": 13.0290525,
        "lon": 80.2636265,
        "tags": {
          "addr:district": "Chennai",
          "addr:full": "No.06, Chokkalingam St, Jeth Nagar, Mandaveli",
          "addr:postcode": "600028",
          "addr:state": "Tamil Nadu",
          "amenity": "hospital",
          "healthcare": "hospital",
          "name": "Sri Ranga Hospitals",
          "source": "OpenGovernmentData"
        }
      },
      {
        "type": "node",
        "id": 7257421557,
        "lat": 13.0312006,
        "lon": 80.2511993,
        "tags": {
          "addr:block": "Chennai Zone Ix",
          "addr:district": "Chennai",
          "addr:full": "Alwarpet Signal, Alwerpet, T.T..K Road",
          "addr:postcode": "600018",
          "addr:state": "Tamil Nadu",
          "amenity": "hospital",
          "healthcare": "hospital",
          "name": "Motherhood Hospital",
          "source": "OpenGovernmentData"
        }
      },
      {
        "type": "node",
        "id": 7257421601,
        "lat": 13.038362,
        "lon": 80.2572398,
        "tags": {
          "addr:block": "Chennai Zone Ix",
          "addr:district": "Chennai",
          "addr:full": "Cit Colony, Alwarpet",
          "addr:postcode": "600018",
          "addr:state": "Tamil Nadu",
          "amenity": "hospital",
          "healthcare": "hospital",
          "name": "Kavery Hospital",
          "source": "OpenGovernmentData"
        }
      },
      {
        "type": "node",
        "id": 7823415019,
        "lat": 13.0380247,
        "lon": 80.2637952,
        "tags": {
          "addr:district": "Chennai",
          "addr:full": "Mylapore, Chennai",
          "addr:postcode": "600004",
          "addr:state": "Tamil Nadu",
          "amenity": "doctors",
          "healthcare": "doctor",
          "name": "Dr. S. Nambi",
          "source": "Local Knowledge"
        }
      },
      {
        "type": "node",
        "id": 7823415026,
        "lat": 13.0297211,
        "lon": 80.2606156,
        "tags": {
          "addr:district": "Chennai",
          "addr:full": "Mandaveli, Chennai",
          "addr:postcode": "600028",
          "addr:state": "Tamil Nadu",
          "amenity": "clinic",
          "healthcare": "clinic",
          "name": "Sri Sarada Ayurveda Clinic",
          "source": "Local Knowledge"
        }
      },
      {
        "type": "node",
        "id": 7823415029,
        "lat": 13.0292453,
        "lon": 80.2602795,
        "tags": {
          "addr:district": "Chennai",
          "addr:full": "Narasimahapuram, Abiramapuram, Chennai",
          "addr:postcode": "600004",
          "addr:state": "Tamil Nadu",
          "amenity": "clinic",
          "healthcare": "clinic",
          "name": "Dr. Vasantha Clinic",
          "source": "Local Knowledge"
        }
      },
      {
        "type": "node",
        "id": 7823415038,
        "lat": 13.0375294,
        "lon": 80.2658475,
        "tags": {
          "addr:district": "Chennai",
          "addr:full": "Mylapore, Chennai",
          "addr:postcode": "600004",
          "addr:state": "Tamil Nadu",
          "amenity": "clinic",
          "healthcare": "clinic",
          "name": "Dr. N. Sekar",
          "source": "Local Knowledge"
        }
      },
      {
        "type": "node",
        "id": 7823415048,
        "lat": 13.0385371,
        "lon": 80.2581929,
        "tags": {
          "addr:district": "Chennai",
          "addr:full": "Mylapore, Chennai",
          "addr:postcode": "600004",
          "addr:state": "Tamil Nadu",
          "amenity": "hospital",
          "healthcare": "hospital",
          "name": "Triveni Hospital",
          "source": "Local Knowledge"
        }
      },
      {
        "type": "node",
        "id": 7823415057,
        "lat": 13.0318707,
        "lon": 80.2595716,
        "tags": {
          "addr:district": "Chennai",
          "addr:full": "Mandaveli Railway Station, Abiramapuram, Chennai",
          "addr:postcode": "600004",
          "addr:state": "Tamil Nadu",
          "amenity": "clinic",
          "name": "Sai Neuro Clinic",
          "source": "Local Knowledge"
        }
      },
      {
        "type": "node",
        "id": 7823415060,
        "lat": 13.034819,
        "lon": 80.2580026,
        "tags": {
          "addr:district": "Chennai",
          "addr:full": "Alwarpet, Chennai",
          "addr:postcode": "600018",
          "addr:state": "Tamil Nadu",
          "amenity": "clinic",
          "name": "Elixir Multi Speciality Centre",
          "source": "Local Knowledge"
        }
      },
      {
        "type": "node",
        "id": 7823415068,
        "lat": 13.0373228,
        "lon": 80.2612955,
        "tags": {
          "addr:district": "Chennai",
          "addr:full": "Bhaskarapuram, Mylapore, Chennai",
          "addr:postcode": "600004",
          "addr:state": "Tamil Nadu",
          "amenity": "clinic",
          "name": "Sri Sai Speciality Clinic",
          "source": "Local Knowledge"
        }
      },
      {
        "type": "node",
        "id": 7823415075,
        "lat": 13.0386219,
        "lon": 80.261844,
        "tags": {
          "addr:district": "Chennai",
          "addr:full": "Oliver Road, Chennai",
          "addr:postcode": "600004",
          "addr:state": "Tamil Nadu",
          "amenity": "doctors",
          "healthcare": "doctor",
          "name": "Dr. M G Rajamanickam",
          "source": "Local Knowledge"
        }
      },
      {
        "type": "node",
        "id": 7823415077,
        "lat": 13.037733,
        "lon": 80.261316,
        "tags": {
          "addr:district": "Chennai",
          "addr:full": "Mylapore, Chennai",
          "addr:postcode": "600004",
          "addr:state": "Tamil Nadu",
          "amenity": "doctors",
          "healthcare": "doctor",
          "name": "Dr. Niraj Joshi",
          "source": "Local Knowledge"
        }
      },
      {
        "type": "node",
        "id": 7823415086,
        "lat": 13.0383898,
        "lon": 80.2639336,
        "tags": {
          "addr:district": "Chennai",
          "addr:full": "Karpagambal Nagar, Mylapore, Chennai",
          "addr:postcode": "600004",
          "addr:state": "Tamil Nadu",
          "amenity": "doctors",
          "healthcare": "doctor",
          "name": "Dr. Sridher",
          "source": "Local Knowledge"
        }
      },
      {
        "type": "node",
        "id": 9006119303,
        "lat": 13.0354377,
        "lon": 80.2494992,
        "tags": {
          "addr:city": "Chennai",
          "addr:housenumber": "46/1",
          "addr:postcode": "600018",
          "addr:street": "Kavingar Barathidasan Road",
          "amenity": "restaurant",
          "cuisine": "indian;south_indian;kerala;malabar",
          "diet:halal": "yes",
          "diet:non-vegetarian": "yes",
          "name": "Biriyania"
        }
      },
      {
        "type": "node",
        "id": 9418560325,
        "lat": 13.0335737,
        "lon": 80.2552947,
        "tags": {
          "addr:city": "Chennai",
          "addr:housenumber": "37/20",
          "addr:postcode": "600018",
          "addr:street": "Bheemana Garden Street",
          "amenity": "restaurant",
          "level": "1",
          "name": "Pumpkin Tales",
          "opening_hours": "Mo-Su 07:00-22:30",
          "phone": "+91 99529 96446;+91 98415 07557;+91 44 2499 5510",
          "website": "https://pumpkintales.com/"
        }
      },
      {
        "type": "node",
        "id": 9575096617,
        "lat": 13.0309488,
        "lon": 80.2547228,
        "tags": {
          "addr:housenumber": "39",
          "addr:postcode": "600018",
          "addr:street": "Abhiramapuram 4th Street",
          "name:en": "Terra Earthfood Store",
          "opening_hours": "Mo-Su 08:30-20:30",
          "phone": "+91 44 42088800",
          "shop": "supermarket",
          "website": "https://www.terraearthfood.com"
        }
      },
      {
        "type": "node",
        "id": 9920387337,
        "lat": 13.0330561,
        "lon": 80.2527299,
        "tags": {
          "amenity": "restaurant",
          "cuisine": "japanese",
          "name": "Hokkaido"
        }
      },
      {
        "type": "node",
        "id": 11164628005,
        "lat": 13.03985,
        "lon": 80.2578026,
        "tags": {
          "addr:street": "TTK Road",
          "amenity": "restaurant",
          "name:en": "Royal Sandwich",
          "opening_hours": "Mo-Su 09:00-21:00"
        }
      },
      {
        "type": "node",
        "id": 11832498559,
        "lat": 13.0376928,
        "lon": 80.2642431,
        "tags": {
          "amenity": "restaurant",
          "name": "Bombaysthan"
        }
      },
      {
        "type": "node",
        "id": 11951383558,
        "lat": 13.0349294,
        "lon": 80.256897,
        "tags": {
          "amenity": "bank",
          "brand": "Bank of Baroda",
          "brand:wikidata": "Q2003797",
          "name": "Bank of Baroda"
        }
      },
      {
        "type": "node",
        "id": 12864010782,
        "lat": 13.0290981,
        "lon": 80.2553915,
        "tags": {
          "addr:housenumber": "94/189",
          "addr:street": "St Marys Road SBI Colony, RA Puram Chennai, 600028 Tamil Nadu India",
          "amenity": "cafe",
          "name": "Beachville",
          "opening_hours": "Mo-Su 08:00-20:00",
          "phone": "+91 98416 18185",
          "website": "https://beachvillecoffee.com/"
        }
      }
    ]
  },
  "pois_2_5km": {
    "version": 0.6,
    "generator": "Overpass API 0.7.62.8 e802775f",
    "osm3s": {
      "timestamp_osm_base": "2025-09-06T09:05:46Z",
      "copyright": "The data included in this document is from www.openstreetmap.org. The data is made available under ODbL."
    },
    "elements": [
      {
        "type": "node",
        "id": 243041642,
        "lat": 13.0401367,
        "lon": 80.2697176,
        "tags": {
          "name": "Mundakakanni Amman Koil",
          "name:en": "Mundakakanni Amman Koil",
          "public_transport": "stop_position",
          "railway": "stop",
          "train": "yes"
        }
      },
      {
        "type": "node",
        "id": 243041679,
        "lat": 13.0198754,
        "lon": 80.2515301,
        "tags": {
          "name": "Greenways Road",
          "public_transport": "stop_position",
          "railway": "stop",
          "train": "yes"
        }
      },
      {
        "type": "node",
        "id": 243060332,
        "lat": 13.0334336,
        "lon": 80.2679457,
        "tags": {
          "amenity": "bus_station",
          "bus": "yes",
          "check_date": "2024-05-22",
          "name": "\u0bae\u0bc8\u0bb2\u0bbe\u0baa\u0bcd\u0baa\u0bc2\u0bb0\u0bcd",
          "name:en": "Mylapore Bus Terminus",
          "name:ta": "\u0bae\u0bc8\u0bb2\u0bbe\u0baa\u0bcd\u0baa\u0bc2\u0bb0\u0bcd",
          "public_transport": "station"
        }
      },
      {
        "type": "node",
        "id": 247678427,
        "lat": 13.0347683,
        "lon": 80.2669792,
        "tags": {
          "name": "Thirumayilai",
          "name:en": "Thirumayilai",
          "public_transport": "stop_position",
          "railway": "stop",
          "train": "yes"
        }
      },
      {
        "type": "node",
        "id": 248343706,
        "lat": 13.0368733,
        "lon": 80.2555597,
        "tags": {
          "amenity": "fuel",
          "brand": "Hindustan Petroleum",
          "brand:wikidata": "Q1619375",
          "brand:wikipedia": "en:Hindustan Petroleum",
          "name": "HP",
          "official_name": "Hindustan Petroleum"
        }
      },
      {
        "type": "node",
        "id": 248343893,
        "lat": 13.037841,
        "lon": 80.2562967,
        "tags": {
          "amenity": "fuel",
          "created_by": "Potlatch 0.10f",
          "name": "IOC"
        }
      },
      {
        "type": "node",
        "id": 248344281,
        "lat": 13.0378885,
        "lon": 80.2569506,
        "tags": {
          "amenity": "fuel",
          "brand": "BP",
          "brand:wikidata": "Q152057",
          "brand:wikipedia": "en:BP",
          "name": "BP"
        }
      },
      {
        "type": "node",
        "id": 250319253,
        "lat": 13.0363377,
        "lon": 80.2394517,
        "tags": {
          "bus": "yes",
          "name": "Hindi Prachar Sabha",
          "network": "MTC",
          "operator": "Metropolitan Transport Corporation (Chennai) Ltd.",
          "public_transport": "stop_position"
        }
      },
      {
        "type": "node",
        "id": 259662367,
        "lat": 13.0524541,
        "lon": 80.26382,
        "tags": {
          "bus": "yes",
          "name": "Royapettah Police Station",
          "public_transport": "stop_position"
        }
      },
      {
        "type": "node",
        "id": 301736165,
        "lat": 13.0387535,
        "lon": 80.2588492,
        "tags": {
          "bus": "yes",
          "highway": "bus_stop",
          "name": "\u0b86\u0bb4\u0bcd\u0bb5\u0bbe\u0bb0\u0bcd \u0baa\u0bc7\u0b9f\u0bcd\u0b9f\u0bc8",
          "name:en": "Alwarpet",
          "name:ta": "\u0b86\u0bb4\u0bcd\u0bb5\u0bbe\u0bb0\u0bcd \u0baa\u0bc7\u0b9f\u0bcd\u0b9f\u0bc8",
          "public_transport": "stop_position",
          "shelter": "yes"
        }
      },
      {
        "type": "node",
        "id": 301738571,
        "lat": 13.0391669,
        "lon": 80.2573351,
        "tags": {
          "amenity": "fuel",
          "brand": "Hindustan Petroleum",
          "brand:wikidata": "Q1619375",
          "brand:wikipedia": "en:Hindustan Petroleum",
          "name": "HP",
          "official_name": "Hindustan Petroleum"
        }
      },
      {
        "type": "node",
        "id": 301738572,
        "lat": 13.0402403,
        "lon": 80.2468562,
        "tags": {
          "amenity": "fuel",
          "brand": "Hindustan Petroleum",
          "brand:wikidata": "Q1619375",
          "brand:wikipedia": "en:Hindustan Petroleum",
          "name": "HP",
          "name:en": "HP",
          "official_name": "Hindustan Petroleum"
        }
      },
      {
        "type": "node",
        "id": 301947513,
        "lat": 13.0493343,
        "lon": 80.25305,
        "tags": {
          "amenity": "fuel"
        }
      },
      {
        "type": "node",
        "id": 308301823,
        "lat": 13.0490493,
        "lon": 80.2483265,
        "tags": {
          "amenity": "theatre",
          "name": "Kamaraj Arangam",
          "name:etymology:wikidata": "Q522048"
        }
      },
      {
        "type": "node",
        "id": 308303592,
        "lat": 13.0417163,
        "lon": 80.2494482,
        "tags": {
          "amenity": "theatre",
          "created_by": "Potlatch 0.10f",
          "name": "Anna Arivalayam",
          "name:etymology:wikidata": "Q138765"
        }
      },
      {
        "type": "node",
        "id": 308467144,
        "lat": 13.0311284,
        "lon": 80.2394414,
        "tags": {
          "amenity": "fuel",
          "brand": "Hindustan Petroleum",
          "brand:wikidata": "Q1619375",
          "brand:wikipedia": "en:Hindustan Petroleum",
          "name": "HP",
          "official_name": "Hindustan Petroleum",
          "opening_hours": "Mo-Su,PH 06:00-18:00"
        }
      },
      {
        "type": "node",
        "id": 308467145,
        "lat": 13.0337218,
        "lon": 80.2382988,
        "tags": {
          "amenity": "fuel"
        }
      },
      {
        "type": "node",
        "id": 308467150,
        "lat": 13.0459529,
        "lon": 80.2562406,
        "tags": {
          "amenity": "fuel"
        }
      },
      {
        "type": "node",
        "id": 308489028,
        "lat": 13.0260196,
        "lon": 80.2661174,
        "tags": {
          "amenity": "fuel",
          "check_date": "2024-05-22",
          "fuel:diesel": "yes",
          "fuel:octane_80": "yes",
          "internet_access": "no",
          "payment:cash": "yes",
          "payment:credit_cards": "yes",
          "payment:debit_cards": "yes",
          "payment:mastercard": "yes",
          "payment:upi": "yes",
          "payment:visa": "yes",
          "self_service": "no",
          "wheelchair": "yes"
        }
      },
      {
        "type": "node",
        "id": 310729808,
        "lat": 13.0445134,
        "lon": 80.2685481,
        "tags": {
          "bus": "yes",
          "highway": "bus_stop",
          "name": "Yellow Pages",
          "public_transport": "stop_position",
          "ref": "mtcstop#0626",
          "shelter": "yes"
        }
      },
      {
        "type": "node",
        "id": 313135840,
        "lat": 13.0534169,
        "lon": 80.252032,
        "tags": {
          "amenity": "fuel",
          "brand": "Hindustan Petroleum",
          "brand:wikidata": "Q1619375",
          "brand:wikipedia": "en:Hindustan Petroleum",
          "name": "HP",
          "name:en": "HP",
          "official_name": "Hindustan Petroleum"
        }
      },
      {
        "type": "node",
        "id": 313135912,
        "lat": 13.0540764,
        "lon": 80.2530457,
        "tags": {
          "amenity": "fuel",
          "created_by": "Potlatch 0.10d"
        }
      },
      {
        "type": "node",
        "id": 314688253,
        "lat": 13.0427775,
        "lon": 80.2677547,
        "tags": {
          "amenity": "fuel",
          "brand": "Hindustan Petroleum",
          "brand:wikidata": "Q1619375",
          "brand:wikipedia": "en:Hindustan Petroleum",
          "name": "HP",
          "official_name": "Hindustan Petroleum"
        }
      },
      {
        "type": "node",
        "id": 317821274,
        "lat": 13.0184727,
        "lon": 80.2614032,
        "tags": {
          "amenity": "fuel",
          "brand": "Hindustan Petroleum",
          "brand:wikidata": "Q1619375",
          "name": "HP",
          "official_name": "Hindustan Petroleum"
        }
      },
      {
        "type": "node",
        "id": 319038955,
        "lat": 13.0421221,
        "lon": 80.2684202,
        "tags": {
          "amenity": "fuel",
          "brand": "Indian Oil",
          "brand:wikidata": "Q1289348",
          "brand:wikipedia": "en:Indian Oil Corporation",
          "check_date": "2024-05-22",
          "fuel:diesel": "yes",
          "fuel:octane_80": "yes",
          "internet_access": "no",
          "name": "Indian Oil",
          "name:en": "Indian Oil",
          "operator": "Indian Oil Corporation Ltd",
          "payment:cash": "yes",
          "payment:credit_cards": "yes",
          "payment:debit_cards": "yes",
          "payment:upi": "yes",
          "self_service": "no",
          "wheelchair": "yes"
        }
      },
      {
        "type": "node",
        "id": 343721497,
        "lat": 13.0386195,
        "lon": 80.2588399,
        "tags": {
          "bus": "yes",
          "highway": "bus_stop",
          "name": "\u0b86\u0bb4\u0bcd\u0bb5\u0bbe\u0bb0\u0bcd \u0baa\u0bc7\u0b9f\u0bcd\u0b9f\u0bc8",
          "name:en": "Alwarpet",
          "name:ta": "\u0b86\u0bb4\u0bcd\u0bb5\u0bbe\u0bb0\u0bcd \u0baa\u0bc7\u0b9f\u0bcd\u0b9f\u0bc8",
          "public_transport": "stop_position",
          "shelter": "yes"
        }
      },
      {
        "type": "node",
        "id": 365251742,
        "lat": 13.0184326,
        "lon": 80.2698072,
        "tags": {
          "amenity": "theatre",
          "name": "IMAGE Auditorium"
        }
      },
      {
        "type": "node",
        "id": 365281356,
        "lat": 13.0373045,
        "lon": 80.258891,
        "tags": {
          "amenity": "theatre",
          "name": "Sivagami Petachi Auditorium"
        }
      },
      {
        "type": "node",
        "id": 378021346,
        "lat": 13.044528,
        "lon": 80.2634018,
        "tags": {
          "amenity": "fuel",
          "brand": "Indian Oil",
          "brand:wikidata": "Q1289348",
          "brand:wikipedia": "en:Indian Oil Corporation",
          "name": "Indian Oil",
          "operator": "Indian Oil"
        }
      },
      {
        "type": "node",
        "id": 378688538,
        "lat": 13.0277462,
        "lon": 80.2512876,
        "tags": {
          "addr:city": "Chennai",
          "addr:street": "Pasumpon Muthuramalinga Thevar Salai",
          "amenity": "fuel",
          "brand": "Hindustan Petroleum",
          "brand:wikidata": "Q1619375",
          "compressed_air": "yes",
          "name": "HP Petrol Bunk",
          "official_name": "Hindustan Petroleum",
          "opening_hours": "24/7"
        }
      },
      {
        "type": "node",
        "id": 386890399,
        "lat": 13.0553594,
        "lon": 80.2580847,
        "tags": {
          "amenity": "theatre",
          "name": "Sathyam Cinema"
        }
      },
      {
        "type": "node",
        "id": 410623629,
        "lat": 13.0164331,
        "lon": 80.2635512,
        "tags": {
          "amenity": "theatre"
        }
      },
      {
        "type": "node",
        "id": 416413322,
        "lat": 13.0378036,
        "lon": 80.2665431,
        "tags": {
          "amenity": "cinema",
          "check_date": "2024-05-22",
          "name": "Kamadhenu",
          "name:en": "Kamadhenu"
        }
      },
      {
        "type": "node",
        "id": 1885029649,
        "lat": 13.0421141,
        "lon": 80.259281,
        "tags": {
          "amenity": "fuel",
          "brand": "BP",
          "brand:wikidata": "Q152057",
          "brand:wikipedia": "en:BP",
          "name": "BP",
          "operator": "Thevar automobiles"
        }
      },
      {
        "type": "node",
        "id": 2188511086,
        "lat": 13.0343967,
        "lon": 80.2680763,
        "tags": {
          "bus": "yes",
          "name": "Kapaleeshwar Temple",
          "public_transport": "stop_position"
        }
      },
      {
        "type": "node",
        "id": 2440049183,
        "lat": 13.0272126,
        "lon": 80.2602969,
        "tags": {
          "name": "Mandaveli",
          "name:en": "Mandaveli",
          "name:ta": "\u0bae\u0ba8\u0bcd\u0ba4\u0bc8\u0bb5\u0bc6\u0bb3\u0bbf",
          "public_transport": "stop_position",
          "railway": "stop",
          "train": "yes"
        }
      },
      {
        "type": "node",
        "id": 2440049207,
        "lat": 13.0411205,
        "lon": 80.2703694,
        "tags": {
          "name": "Mundakakanni Amman Koil",
          "name:en": "Mundakakanni Amman Koil",
          "public_transport": "stop_position",
          "railway": "stop",
          "train": "yes"
        }
      },
      {
        "type": "node",
        "id": 2485384468,
        "lat": 13.045805,
        "lon": 80.2693631,
        "tags": {
          "amenity": "theatre",
          "name": "L. Balasubramaniam Hall Aiobeu Swastika"
        }
      },
      {
        "type": "node",
        "id": 3215424909,
        "lat": 13.0230542,
        "lon": 80.2639113,
        "tags": {
          "bus": "yes",
          "local_ref": "IIT",
          "name": "Mandaveli Telephone Exchange",
          "public_transport": "stop_position",
          "source": "GPS"
        }
      },
      {
        "type": "node",
        "id": 3216996445,
        "lat": 13.0253858,
        "lon": 80.2654342,
        "tags": {
          "bus": "yes",
          "local_ref": "IIT",
          "name": "Mandaveli Telephone Exchange",
          "public_transport": "stop_position",
          "source": "GPS"
        }
      },
      {
        "type": "node",
        "id": 3683580478,
        "lat": 13.0409717,
        "lon": 80.2373739,
        "tags": {
          "addr:city": "T.Nagar, Chennai",
          "addr:postcode": "600017",
          "amenity": "fuel",
          "name": "Chinthamani Cooperative Petrol Bunk"
        }
      },
      {
        "type": "node",
        "id": 3685280058,
        "lat": 13.0401531,
        "lon": 80.2400751,
        "tags": {
          "amenity": "fuel",
          "brand": "Hindustan Petroleum",
          "brand:wikidata": "Q1619375",
          "name": "HP",
          "official_name": "Hindustan Petroleum"
        }
      },
      {
        "type": "node",
        "id": 3685381587,
        "lat": 13.040274,
        "lon": 80.2423014,
        "tags": {
          "amenity": "fuel"
        }
      },
      {
        "type": "node",
        "id": 3685431628,
        "lat": 13.0291289,
        "lon": 80.2538708,
        "tags": {
          "amenity": "fuel"
        }
      },
      {
        "type": "node",
        "id": 3685563463,
        "lat": 13.0338283,
        "lon": 80.2448209,
        "tags": {
          "amenity": "fuel"
        }
      },
      {
        "type": "node",
        "id": 3685566217,
        "lat": 13.0451808,
        "lon": 80.2400027,
        "tags": {
          "amenity": "fuel"
        }
      },
      {
        "type": "node",
        "id": 3685567878,
        "lat": 13.0453689,
        "lon": 80.2404265,
        "tags": {
          "amenity": "fuel"
        }
      },
      {
        "type": "node",
        "id": 4534763875,
        "lat": 13.0353467,
        "lon": 80.2674446,
        "tags": {
          "name": "Thirumayilai",
          "name:en": "Thirumayilai",
          "public_transport": "stop_position",
          "railway": "stop",
          "train": "yes"
        }
      },
      {
        "type": "node",
        "id": 4534763876,
        "lat": 13.0145658,
        "lon": 80.2484112,
        "tags": {
          "name": "Kotturpuram",
          "public_transport": "stop_position",
          "railway": "stop",
          "train": "yes"
        }
      },
      {
        "type": "node",
        "id": 5310193406,
        "lat": 13.0214925,
        "lon": 80.252532,
        "tags": {
          "name": "Greenways Road",
          "name:en": "Greenways Road",
          "public_transport": "stop_position",
          "railway": "stop",
          "train": "yes"
        }
      },
      {
        "type": "node",
        "id": 5311755232,
        "lat": 13.0455374,
        "lon": 80.2769885,
        "tags": {
          "internet_access": "no",
          "name": "Light House",
          "name:ta": "\u0b95\u0bb2\u0b99\u0bcd\u0b95\u0bb0\u0bc8 \u0bb5\u0bbf\u0bb3\u0b95\u0bcd\u0b95\u0bae\u0bcd",
          "network": "IR",
          "operator": "SR",
          "public_transport": "station",
          "railway": "station",
          "ref": "MLHS",
          "train": "yes",
          "wikidata": "Q6546029",
          "wikipedia": "en:Light House railway station"
        }
      },
      {
        "type": "node",
        "id": 5311755233,
        "lat": 13.0406508,
        "lon": 80.2698818,
        "tags": {
          "internet_access": "no",
          "name": "Mundakakanni Amman Koil",
          "name:en": "Mundakakanni Amman Koil",
          "network": "IR",
          "operator": "SR",
          "public_transport": "station",
          "railway": "station",
          "ref": "MKAK",
          "train": "yes",
          "wikidata": "Q6935719",
          "wikipedia": "en:Mundagakanniamman Koil railway station"
        }
      },
      {
        "type": "node",
        "id": 5311755234,
        "lat": 13.0353976,
        "lon": 80.2675129,
        "tags": {
          "internet_access": "no",
          "name": "Thirumayilai",
          "network": "IR",
          "operator": "SR",
          "public_transport": "station",
          "railway": "station",
          "ref": "MTMY",
          "train": "yes",
          "wikidata": "Q7785353",
          "wikipedia": "en:Thirumayilai railway station"
        }
      },
      {
        "type": "node",
        "id": 5311755235,
        "lat": 13.0280931,
        "lon": 80.2606181,
        "tags": {
          "internet_access": "no",
          "name": "Mandaveli",
          "name:en": "Mandaveli",
          "name:ta": "\u0bae\u0ba8\u0bcd\u0ba4\u0bc8\u0bb5\u0bc6\u0bb3\u0bbf",
          "network": "IR",
          "operator": "SR",
          "public_transport": "station",
          "railway": "station",
          "ref": "MNDY",
          "wikidata": "Q6747921",
          "wikipedia": "en:Mandaveli railway station"
        }
      },
      {
        "type": "node",
        "id": 5311755236,
        "lat": 13.0215846,
        "lon": 80.2527292,
        "tags": {
          "internet_access": "no",
          "name": "Greenways Road",
          "network": "IR",
          "operator": "SR",
          "public_transport": "station",
          "railway": "station",
          "ref": "GWYR",
          "train": "yes",
          "wikidata": "Q15222131",
          "wikipedia": "en:Greenways Road railway station"
        }
      },
      {
        "type": "node",
        "id": 5337407335,
        "lat": 13.0316813,
        "lon": 80.2411933,
        "tags": {
          "name": "\u0ba8\u0ba8\u0bcd\u0ba4\u0ba9\u0bae\u0bcd",
          "name:en": "Nandanam",
          "name:ta": "\u0ba8\u0ba8\u0bcd\u0ba4\u0ba9\u0bae\u0bcd",
          "network": "Chennai Metro",
          "note": "Contributors are requested to not edit the \"network\" and the \"operator\" tags. (2023/11/08)",
          "operator": "Chennai Metro Rail Limited",
          "public_transport": "stop_position",
          "railway": "stop",
          "station": "subway",
          "subway": "yes"
        }
      },
      {
        "type": "node",
        "id": 5337407339,
        "lat": 13.0368085,
        "lon": 80.2464553,
        "tags": {
          "name": "\u0ba4\u0bc7\u0ba9\u0bbe\u0bae\u0bcd\u0baa\u0bc7\u0b9f\u0bcd\u0b9f\u0bc8",
          "name:en": "Teynampet",
          "name:ta": "\u0ba4\u0bc7\u0ba9\u0bbe\u0bae\u0bcd\u0baa\u0bc7\u0b9f\u0bcd\u0b9f\u0bc8",
          "network": "Chennai Metro",
          "note": "Contributors are requested to not edit the \"network\" and the \"operator\" tags. (2023/11/08)",
          "operator": "Chennai Metro Rail Limited",
          "public_transport": "stop_position",
          "railway": "stop",
          "station": "subway",
          "subway": "yes"
        }
      },
      {
        "type": "node",
        "id": 5337407347,
        "lat": 13.0458615,
        "lon": 80.2483032,
        "tags": {
          "name": "\u0b8f \u0b9c\u0bbf \u0b9f\u0bbf.\u0b8e\u0bae\u0bcd.\u0b8e\u0bb8\u0bcd",
          "name:en": "AG-DMS",
          "name:ta": "\u0b8f \u0b9c\u0bbf \u0b9f\u0bbf.\u0b8e\u0bae\u0bcd.\u0b8e\u0bb8\u0bcd",
          "network": "Chennai Metro",
          "note": "Contributors are requested to not edit the \"network\" and the \"operator\" tags. (2023/11/08)",
          "operator": "Chennai Metro Rail Limited",
          "public_transport": "stop_position",
          "railway": "stop",
          "station": "subway",
          "subway": "yes"
        }
      },
      {
        "type": "node",
        "id": 5760196458,
        "lat": 13.0458703,
        "lon": 80.2482567,
        "tags": {
          "name": "\u0b8f \u0b9c\u0bbf \u0b9f\u0bbf.\u0b8e\u0bae\u0bcd.\u0b8e\u0bb8\u0bcd",
          "name:en": "AG-DMS",
          "name:ta": "\u0b8f \u0b9c\u0bbf \u0b9f\u0bbf.\u0b8e\u0bae\u0bcd.\u0b8e\u0bb8\u0bcd",
          "network": "Chennai Metro",
          "note": "Contributors are requested to not edit the \"network\" and the \"operator\" tags. (2023/11/08)",
          "operator": "Chennai Metro Rail Limited",
          "public_transport": "stop_position",
          "railway": "stop",
          "station": "subway",
          "subway": "yes"
        }
      },
      {
        "type": "node",
        "id": 5760196466,
        "lat": 13.0368236,
        "lon": 80.2463929,
        "tags": {
          "name": "\u0ba4\u0bc7\u0ba9\u0bbe\u0bae\u0bcd\u0baa\u0bc7\u0b9f\u0bcd\u0b9f\u0bc8",
          "name:en": "Teynampet",
          "name:ta": "\u0ba4\u0bc7\u0ba9\u0bbe\u0bae\u0bcd\u0baa\u0bc7\u0b9f\u0bcd\u0b9f\u0bc8",
          "network": "Chennai Metro",
          "note": "Contributors are requested to not edit the \"network\" and the \"operator\" tags. (2023/11/08)",
          "operator": "Chennai Metro Rail Limited",
          "public_transport": "stop_position",
          "railway": "stop",
          "station": "subway",
          "subway": "yes"
        }
      },
      {
        "type": "node",
        "id": 5760196474,
        "lat": 13.0317226,
        "lon": 80.2411721,
        "tags": {
          "name": "\u0ba8\u0ba8\u0bcd\u0ba4\u0ba9\u0bae\u0bcd",
          "name:en": "Nandanam",
          "name:ta": "\u0ba8\u0ba8\u0bcd\u0ba4\u0ba9\u0bae\u0bcd",
          "network": "Chennai Metro",
          "note": "Contributors are requested to not edit the \"network\" and the \"operator\" tags. (2023/11/08)",
          "operator": "Chennai Metro Rail Limited",
          "public_transport": "stop_position",
          "railway": "stop",
          "station": "subway",
          "subway": "yes"
        }
      },
      {
        "type": "node",
        "id": 6285857242,
        "lat": 13.0368003,
        "lon": 80.2464194,
        "tags": {
          "name": "\u0ba4\u0bc7\u0ba9\u0bbe\u0bae\u0bcd\u0baa\u0bc7\u0b9f\u0bcd\u0b9f\u0bc8",
          "name:en": "Teynampet",
          "name:ml": "\u0d24\u0d47\u0d28\u0d3e\u0d02\u0d2a\u0d47\u0d1f\u0d4d\u0d1f",
          "name:ta": "\u0ba4\u0bc7\u0ba9\u0bbe\u0bae\u0bcd\u0baa\u0bc7\u0b9f\u0bcd\u0b9f\u0bc8",
          "network": "Chennai Metro",
          "network:wikidata": "Q1639576",
          "note": "Contributors are requested to not edit the \"network\" and the \"operator\" tags. (2023/11/08)",
          "operator": "Chennai Metro Rail Limited",
          "public_transport": "station",
          "railway": "station",
          "railway:ref": "STE",
          "ref": "STE",
          "station": "subway",
          "subway": "yes",
          "wikidata": "Q55634996",
          "wikipedia": "en:Teynampet metro station"
        }
      },
      {
        "type": "node",
        "id": 6285857243,
        "lat": 13.0317092,
        "lon": 80.2411957,
        "tags": {
          "alt_name": "Chamiers Road",
          "local_ref": "Chamiers Road",
          "name": "\u0ba8\u0ba8\u0bcd\u0ba4\u0ba9\u0bae\u0bcd",
          "name:en": "Nandanam",
          "name:ml": "\u0d28\u0d28\u0d4d\u0d26\u0d28\u0d02",
          "name:ta": "\u0ba8\u0ba8\u0bcd\u0ba4\u0ba9\u0bae\u0bcd",
          "network": "Chennai Metro",
          "network:wikidata": "Q1639576",
          "note": "Contributors are requested to not edit the \"network\" and the \"operator\" tags. (2023/11/08)",
          "operator": "Chennai Metro Rail Limited",
          "public_transport": "station",
          "railway": "station",
          "railway:ref": "SCR",
          "ref": "SCR",
          "station": "subway",
          "subway": "yes",
          "wikidata": "Q55624607",
          "wikipedia": "en:Nandanam metro station"
        }
      },
      {
        "type": "node",
        "id": 6285857249,
        "lat": 13.0458852,
        "lon": 80.2482846,
        "tags": {
          "alt_name": "Gemini",
          "alt_name:ta": "\u0b9c\u0bc6\u0bae\u0bbf\u0ba9\u0bbf",
          "local_ref": "Gemini",
          "name": "\u0b8f \u0b9c\u0bbf \u0b9f\u0bbf.\u0b8e\u0bae\u0bcd.\u0b8e\u0bb8\u0bcd",
          "name:en": "AG-DMS",
          "name:ml": "\u0d0e\u0d1c\u0d3f - \u0d21\u0d3f\u0d0e\u0d02\u0d0e\u0d38\u0d4d",
          "name:ta": "\u0b8f \u0b9c\u0bbf \u0b9f\u0bbf.\u0b8e\u0bae\u0bcd.\u0b8e\u0bb8\u0bcd",
          "network": "Chennai Metro",
          "note": "Contributors are requested to not edit the \"network\" and the \"operator\" tags. (2023/11/08)",
          "operator": "Chennai Metro Rail Limited",
          "public_transport": "station",
          "railway": "station",
          "railway:ref": "SGM",
          "ref": "SGM",
          "station": "subway",
          "subway": "yes",
          "wikidata": "Q55602937",
          "wikipedia": "en:AG-DMS metro station"
        }
      },
      {
        "type": "node",
        "id": 6297571205,
        "lat": 13.0474821,
        "lon": 80.2450469,
        "tags": {
          "addr:street": "T Nagar, Chennai",
          "amenity": "cinema",
          "name": "AGS Cinemas (T Nagar)"
        }
      },
      {
        "type": "node",
        "id": 6812229988,
        "lat": 13.0427698,
        "lon": 80.2600474,
        "tags": {
          "addr:street": "CIT Colony 2nd Main Road",
          "amenity": "theatre",
          "name": "Kavikko Convention Centre",
          "name:ta": "\u0b95\u0bb5\u0bbf\u0b95\u0bcd\u0b95\u0bcb \u0b85\u0bb0\u0b99\u0bcd\u0b95\u0bae\u0bcd"
        }
      },
      {
        "type": "node",
        "id": 7136010485,
        "lat": 13.0504559,
        "lon": 80.2564197,
        "tags": {
          "amenity": "fuel",
          "brand": "Bharat Petroleum",
          "brand:wikidata": "Q854826",
          "brand:wikipedia": "en:Bharat Petroleum",
          "name": "Bharat Petroleum Petrol Station",
          "name:en": "Bharat Petroleum Petrol Station"
        }
      },
      {
        "type": "node",
        "id": 7272343104,
        "lat": 13.052993,
        "lon": 80.2513143,
        "tags": {
          "amenity": "theatre",
          "name": "Rani Seethai Hall"
        }
      },
      {
        "type": "node",
        "id": 7412932327,
        "lat": 13.0390729,
        "lon": 80.2575264,
        "tags": {
          "bus": "yes",
          "name": "CIT colony",
          "operator": "MTC",
          "public_transport": "stop_position"
        }
      },
      {
        "type": "node",
        "id": 7412932328,
        "lat": 13.0356479,
        "lon": 80.2548953,
        "tags": {
          "bus": "yes",
          "highway": "bus_stop",
          "name": "\u0b86\u0bb4\u0bcd\u0bb5\u0bbe\u0bb0\u0bcd \u0baa\u0bc7\u0b9f\u0bcd\u0b9f\u0bc8",
          "name:en": "Alwarpet",
          "name:ta": "\u0b86\u0bb4\u0bcd\u0bb5\u0bbe\u0bb0\u0bcd \u0baa\u0bc7\u0b9f\u0bcd\u0b9f\u0bc8",
          "operator": "MTC",
          "public_transport": "stop_position"
        }
      },
      {
        "type": "node",
        "id": 7412932329,
        "lat": 13.0231055,
        "lon": 80.2427833,
        "tags": {
          "bus": "yes",
          "highway": "bus_stop",
          "name": "Kotturpuram",
          "operator": "MTC",
          "public_transport": "stop_position"
        }
      },
      {
        "type": "node",
        "id": 7653024582,
        "lat": 13.0430874,
        "lon": 80.2737331,
        "tags": {
          "amenity": "cinema",
          "brand": "INOX Leisure",
          "brand:wikidata": "Q5972349",
          "brand:wikipedia": "en:INOX Leisure Limited",
          "name": "Inox",
          "payment:cash": "yes",
          "payment:credit_cards": "yes",
          "payment:debit_cards": "yes",
          "screen": "4",
          "short_name": "INOX"
        }
      },
      {
        "type": "node",
        "id": 9404253944,
        "lat": 13.0287697,
        "lon": 80.2608444,
        "tags": {
          "name": "Mandaveli",
          "name:en": "Mandaveli",
          "name:ta": "\u0bae\u0ba8\u0bcd\u0ba4\u0bc8\u0bb5\u0bc6\u0bb3\u0bbf",
          "operator": "Southern Railway",
          "public_transport": "stop_position",
          "railway": "stop",
          "train": "yes"
        }
      },
      {
        "type": "node",
        "id": 9404253945,
        "lat": 13.04582,
        "lon": 80.2769914,
        "tags": {
          "name": "Light House",
          "public_transport": "stop_position",
          "railway": "stop",
          "train": "yes"
        }
      },
      {
        "type": "node",
        "id": 9404253946,
        "lat": 13.0443521,
        "lon": 80.2765589,
        "tags": {
          "name": "Light House",
          "public_transport": "stop_position",
          "railway": "stop",
          "train": "yes"
        }
      },
      {
        "type": "node",
        "id": 9504474769,
        "lat": 13.0546591,
        "lon": 80.2643733,
        "tags": {
          "bus": "yes",
          "name": "Royapettah Hospital",
          "public_transport": "stop_position"
        }
      },
      {
        "type": "node",
        "id": 9819010214,
        "lat": 13.0463989,
        "lon": 80.2395728,
        "tags": {
          "bus": "yes",
          "name": "Thirumalai Pillai Road",
          "network": "MTC",
          "operator": "Metropolitan Transport Corporation (Chennai) Ltd.",
          "public_transport": "stop_position"
        }
      },
      {
        "type": "node",
        "id": 9886329408,
        "lat": 13.0223777,
        "lon": 80.276278,
        "tags": {
          "bus": "yes",
          "name": "Foreshore Estate Bus Terminus",
          "name:en": "Foreshore Estate Bus Terminus",
          "network": "MTC Chennai",
          "operator": "Metropolitan Transport Corporation (Chennai)",
          "public_transport": "stop_position"
        }
      },
      {
        "type": "node",
        "id": 9886468232,
        "lat": 13.0446919,
        "lon": 80.2630242,
        "tags": {
          "bus": "yes",
          "name": "New Woodlands",
          "public_transport": "stop_position"
        }
      },
      {
        "type": "node",
        "id": 9894539908,
        "lat": 13.0409609,
        "lon": 80.2405902,
        "tags": {
          "bus": "yes",
          "name": "Power House",
          "network": "MTC",
          "operator": "Metropolitan Transport Corporation (Chennai) Ltd.",
          "public_transport": "stop_position"
        }
      },
      {
        "type": "node",
        "id": 9921938872,
        "lat": 13.0272018,
        "lon": 80.2661429,
        "tags": {
          "bus": "yes",
          "name": "Mandaveli",
          "name:en": "Mandaveli",
          "public_transport": "stop_position"
        }
      },
      {
        "type": "node",
        "id": 9921938873,
        "lat": 13.0299143,
        "lon": 80.2667084,
        "tags": {
          "bus": "yes",
          "name": "Mandaveli Market",
          "public_transport": "stop_position"
        }
      },
      {
        "type": "node",
        "id": 9921938874,
        "lat": 13.0339289,
        "lon": 80.2679807,
        "tags": {
          "bus": "yes",
          "name": "Mylapore Tank",
          "name:en": "Mylapore Tank",
          "public_transport": "stop_position"
        }
      },
      {
        "type": "node",
        "id": 9921938875,
        "lat": 13.0376257,
        "lon": 80.2676931,
        "tags": {
          "bus": "yes",
          "name": "Luz Corner",
          "name:en": "Luz Corner",
          "public_transport": "stop_position"
        }
      },
      {
        "type": "node",
        "id": 9921938876,
        "lat": 13.0417805,
        "lon": 80.2682611,
        "tags": {
          "bus": "yes",
          "name": "Valluvar Statue",
          "name:en": "Valluvar Statue",
          "public_transport": "stop_position"
        }
      },
      {
        "type": "node",
        "id": 9921938877,
        "lat": 13.0446682,
        "lon": 80.2653247,
        "tags": {
          "bus": "yes",
          "name": "AVM Rajeshwari Thirumana Mandapam",
          "public_transport": "stop_position"
        }
      },
      {
        "type": "node",
        "id": 9921938878,
        "lat": 13.0447817,
        "lon": 80.2631832,
        "tags": {
          "bus": "yes",
          "name": "New Woodlands",
          "public_transport": "stop_position"
        }
      },
      {
        "type": "node",
        "id": 9921938879,
        "lat": 13.0461759,
        "lon": 80.2565485,
        "tags": {
          "bus": "yes",
          "name": "Chola Sheraton",
          "public_transport": "stop_position"
        }
      },
      {
        "type": "node",
        "id": 9921938880,
        "lat": 13.0480058,
        "lon": 80.2540431,
        "tags": {
          "bus": "yes",
          "name": "Stella Maris College",
          "public_transport": "stop_position"
        }
      },
      {
        "type": "node",
        "id": 9921938881,
        "lat": 13.050467,
        "lon": 80.2526125,
        "tags": {
          "bus": "yes",
          "name": "Semozhi Poonga",
          "public_transport": "stop_position"
        }
      },
      {
        "type": "node",
        "id": 9921938882,
        "lat": 13.0514535,
        "lon": 80.2518364,
        "tags": {
          "bus": "yes",
          "name": "Woodlands",
          "public_transport": "stop_position"
        }
      },
      {
        "type": "node",
        "id": 9921938883,
        "lat": 13.0549423,
        "lon": 80.2496076,
        "tags": {
          "bus": "yes",
          "name": "Gemini",
          "public_transport": "stop_position"
        }
      },
      {
        "type": "node",
        "id": 10036499344,
        "lat": 13.0317217,
        "lon": 80.2419487,
        "tags": {
          "amenity": "charging_station"
        }
      },
      {
        "type": "node",
        "id": 10316739373,
        "lat": 13.0543034,
        "lon": 80.2496574,
        "tags": {
          "amenity": "fuel",
          "brand": "Bharat Petroleum",
          "brand:wikidata": "Q854826",
          "name": "Bharat Petroleum"
        }
      },
      {
        "type": "node",
        "id": 11835030329,
        "lat": 13.0458131,
        "lon": 80.2398536,
        "tags": {
          "amenity": "fuel",
          "description": "LPG",
          "fuel:lpg": "yes",
          "name": "Go Gas"
        }
      },
      {
        "type": "node",
        "id": 11924536816,
        "lat": 13.0292564,
        "lon": 80.2661412,
        "tags": {
          "bus": "yes",
          "name": "Mandaveli Post Office",
          "name:en": "Mandaveli Post Office",
          "public_transport": "stop_position"
        }
      },
      {
        "type": "node",
        "id": 11924536817,
        "lat": 13.0265016,
        "lon": 80.2643143,
        "tags": {
          "bus": "yes",
          "fixme": "Please merge me into a nearby highway",
          "name": "Mandaveli",
          "name:en": "Mandaveli",
          "public_transport": "stop_position"
        }
      },
      {
        "type": "node",
        "id": 11924536818,
        "lat": 13.0265316,
        "lon": 80.2641813,
        "tags": {
          "bus": "yes",
          "name": "Mandaveli",
          "name:en": "Mandaveli",
          "public_transport": "stop_position"
        }
      },
      {
        "type": "node",
        "id": 11924536819,
        "lat": 13.0288106,
        "lon": 80.2639144,
        "tags": {
          "bus": "yes",
          "name": "Devanathan Street",
          "name:en": "Devanathan Street",
          "public_transport": "stop_position"
        }
      },
      {
        "type": "node",
        "id": 11924536820,
        "lat": 13.0338241,
        "lon": 80.2678824,
        "tags": {
          "bus": "yes",
          "name": "Mylapore Tank",
          "name:en": "Mylapore Tank",
          "public_transport": "stop_position"
        }
      },
      {
        "type": "node",
        "id": 11924536821,
        "lat": 13.0369443,
        "lon": 80.2670478,
        "tags": {
          "bus": "yes",
          "name": "Luz Corner",
          "name:en": "Luz Corner",
          "public_transport": "stop_position"
        }
      },
      {
        "type": "node",
        "id": 12698047362,
        "lat": 13.0191364,
        "lon": 80.2663999,
        "tags": {
          "amenity": "cinema",
          "name": "AMPHI THEATRE"
        }
      }
    ]
  }
}