{
  "pois_1km": {
    "version": 0.6,
    "generator": "Overpass API 0.7.62.8 e802775f",
    "osm3s": {
      "timestamp_osm_base": "2025-09-07T14:21:21Z",
      "copyright": "The data included in this document is from www.openstreetmap.org. The data is made available under ODbL."
    },
    "elements": [
      {
        "type": "node",
        "id": 7018026502,
        "lat": 26.7905447,
        "lon": 80.898027,
        "tags": {
          "addr:district": "Lucknow",
          "addr:full": "Nh 1, Sector D(Adjacent To Community Hall),Lda Colony ,Kanpur Road",
          "addr:postcode": "226012",
          "addr:state": "Uttar Pradesh",
          "amenity": "hospital",
          "name": "Ganga Childrens Hospital",
          "source": "OpenGovernmentData"
        }
      },
      {
        "type": "node",
        "id": 7019217134,
        "lat": 26.7813383,
        "lon": 80.8987632,
        "tags": {
          "addr:district": "Lucknow",
          "addr:full": "Md-22, Sector D-1, Lda Coloy, Kanpur Road",
          "addr:postcode": "226012",
          "addr:state": "Uttar Pradesh",
          "amenity": "hospital",
          "name": "Biraj Maternity and Child Care",
          "source": "OpenGovernmentData"
        }
      },
      {
        "type": "node",
        "id": 7024791011,
        "lat": 26.7920502,
        "lon": 80.8907247,
        "tags": {
          "addr:district": "Lucknow",
          "addr:full": "Baldikhera, Kanpur Road",
          "addr:postcode": "226001",
          "addr:state": "Uttar Pradesh",
          "amenity": "clinic",
          "name": "Dr. Rama Bhatnagar Nursing Home",
          "source": "OpenGovernmentData"
        }
      },
      {
        "type": "node",
        "id": 7030903305,
        "lat": 26.7922704,
        "lon": 80.8899697,
        "tags": {
          "addr:district": "Lucknow",
          "addr:full": "Vijai Nagar , Kanpur Road",
          "addr:postcode": "226023",
          "addr:state": "Uttar Pradesh",
          "amenity": "hospital",
          "name": "Gupta Hospital - Lucknow",
          "source": "OpenGovernmentData"
        }
      },
      {
        "type": "node",
        "id": 7510640717,
        "lat": 26.7906841,
        "lon": 80.9001343,
        "tags": {
          "addr:district": "Lucknow",
          "addr:full": "Kanpur Road, Sector D, Lda Colony, Lucknow",
          "addr:postcode": "226012",
          "addr:state": "Uttar Pradesh",
          "amenity": "hospital",
          "name": "Saha Hospital",
          "source": "Local Knowledge"
        }
      },
      {
        "type": "node",
        "id": 7510640744,
        "lat": 26.7858387,
        "lon": 80.8855539,
        "tags": {
          "addr:district": "Lucknow",
          "addr:full": "Overhead Water Tank, Vijay Nagar Colony, Alambagh, Lucknow",
          "addr:postcode": "226023",
          "addr:state": "Uttar Pradesh",
          "amenity": "hospital",
          "name": "ESIC Hospital",
          "source": "Local Knowledge"
        }
      },
      {
        "type": "node",
        "id": 7510640765,
        "lat": 26.7913344,
        "lon": 80.8897137,
        "tags": {
          "addr:district": "Lucknow",
          "addr:full": "Station Road, Cipet College, Gindan Khera, Lucknow",
          "addr:postcode": "226008",
          "addr:state": "Uttar Pradesh",
          "amenity": "hospital",
          "name": "Saina Charitable Hospital",
          "source": "Local Knowledge"
        }
      },
      {
        "type": "node",
        "id": 7510640766,
        "lat": 26.7935391,
        "lon": 80.888399,
        "tags": {
          "addr:district": "Lucknow",
          "addr:full": "Manokanika Road, Vijay Nagar Colony, Krishna Nagar, Alambagh, Lucknow",
          "addr:postcode": "226005",
          "addr:state": "Uttar Pradesh",
          "amenity": "hospital",
          "name": "Eye Q Super Speciality Eye Hospital",
          "source": "Local Knowledge"
        }
      },
      {
        "type": "node",
        "id": 7510640776,
        "lat": 26.7834712,
        "lon": 80.8932889,
        "tags": {
          "addr:district": "Lucknow",
          "addr:full": "Hind Nagar, Sector C1, Lda Colony, Lucknow",
          "addr:postcode": "226012",
          "addr:state": "Uttar Pradesh",
          "amenity": "hospital",
          "name": "Crop Hospital",
          "source": "Local Knowledge"
        }
      },
      {
        "type": "node",
        "id": 7510640779,
        "lat": 26.7954249,
        "lon": 80.8933345,
        "tags": {
          "addr:district": "Lucknow",
          "addr:full": "Bargawan, L.D.A Turn (Community), Kanpur Road, Lucknow",
          "addr:postcode": "226012",
          "addr:state": "Uttar Pradesh",
          "amenity": "hospital",
          "name": "Balaji Hospital & Eye Centre",
          "source": "Local Knowledge"
        }
      },
      {
        "type": "node",
        "id": 7510640783,
        "lat": 26.7853909,
        "lon": 80.8902143,
        "tags": {
          "addr:district": "Lucknow",
          "addr:full": "Kanpur Road, Near Shivalik Girls Inter College, Hind Nagar, Lucknow",
          "addr:postcode": "226012",
          "addr:state": "Uttar Pradesh",
          "amenity": "hospital",
          "name": "Neelkanth Hospital",
          "source": "Local Knowledge"
        }
      },
      {
        "type": "node",
        "id": 7510640785,
        "lat": 26.7928072,
        "lon": 80.8891023,
        "tags": {
          "addr:district": "Lucknow",
          "addr:full": "Vijay Nagar Colony, Krishna Nagar, Alambagh, Lucknow",
          "addr:postcode": "226023",
          "addr:state": "Uttar Pradesh",
          "amenity": "hospital",
          "name": "CMC Medical Centre",
          "source": "Local Knowledge"
        }
      },
      {
        "type": "node",
        "id": 7510640806,
        "lat": 26.7889169,
        "lon": 80.9013158,
        "tags": {
          "addr:district": "Lucknow",
          "addr:full": "Near Spring Dale College, L.D.A Colony, Kanpur Road, Lucknow",
          "addr:postcode": "226012",
          "addr:state": "Uttar Pradesh",
          "amenity": "hospital",
          "name": "Roy's Hospital Centre",
          "source": "Local Knowledge"
        }
      },
      {
        "type": "node",
        "id": 7510640815,
        "lat": 26.7869465,
        "lon": 80.8995506,
        "tags": {
          "addr:district": "Lucknow",
          "addr:full": "Kanpur Road, Ashiyana, Lucknow",
          "addr:postcode": "226012",
          "addr:state": "Uttar Pradesh",
          "amenity": "hospital",
          "name": "Surgical Nursing Home",
          "source": "Local Knowledge"
        }
      }
    ]
  },
  "pois_2_5km": {
    "version": 0.6,
    "generator": "Overpass API 0.7.62.8 e802775f",
    "osm3s": {
      "timestamp_osm_base": "2025-09-07T14:21:21Z",
      "copyright": "The data included in this document is from www.openstreetmap.org. The data is made available under ODbL."
    },
    "elements": [
      {
        "type": "node",
        "id": 2194710817,
        "lat": 26.7774158,
        "lon": 80.9026554,
        "tags": {
          "name": "Lucknow Amausi Airport",
          "operator": "NR",
          "railway": "station"
        }
      },
      {
        "type": "node",
        "id": 3097223409,
        "lat": 26.7988392,
        "lon": 80.8968316,
        "tags": {
          "amenity": "cinema",
          "brand": "PVR Cinemas",
          "brand:wikidata": "Q3359908",
          "name": "PVR Cinemas",
          "opening_hours": "Mo-Su 10:00-22:00",
          "short_name": "PVR"
        }
      },
      {
        "type": "node",
        "id": 3997322402,
        "lat": 26.794391,
        "lon": 80.891762,
        "tags": {
          "name": "Krishna Nagar",
          "name:hi": "\u0915\u0943\u0937\u094d\u0923\u093e \u0928\u0917\u0930",
          "network": "Lucknow Metro",
          "note": "Contributors are requested to not edit the \"network\" and the \"operator\" tags. (2023/11/08)",
          "operator": "Lucknow Metro Rail Corporation Limited",
          "public_transport": "station",
          "railway": "station",
          "station": "subway",
          "subway": "yes"
        }
      },
      {
        "type": "node",
        "id": 3997322776,
        "lat": 26.8030998,
        "lon": 80.8964272,
        "tags": {
          "name": "Singar Nagar",
          "name:hi": "\u0938\u093f\u0902\u0917\u093e\u0930 \u0928\u0917\u0930",
          "network": "Lucknow Metro",
          "note": "Contributors are requested to not edit the \"network\" and the \"operator\" tags. (2023/11/08)",
          "operator": "Lucknow Metro Rail Corporation Limited",
          "public_transport": "station",
          "railway": "station",
          "station": "subway",
          "subway": "yes",
          "wheelchair": "yes"
        }
      },
      {
        "type": "node",
        "id": 3997322777,
        "lat": 26.7781141,
        "lon": 80.8828258,
        "tags": {
          "name": "Transport Nagar",
          "name:hi": "\u091f\u094d\u0930\u093e\u0902\u0938\u092a\u094b\u0930\u094d\u091f \u0928\u0917\u0930",
          "network": "Lucknow Metro",
          "note": "Contributors are requested to not edit the \"network\" and the \"operator\" tags. (2023/11/08)",
          "operator": "Lucknow Metro Rail Corporation Limited",
          "public_transport": "stop_position",
          "railway": "stop",
          "subway": "yes"
        }
      },
      {
        "type": "node",
        "id": 4977531262,
        "lat": 26.7711411,
        "lon": 80.8785885,
        "tags": {
          "name": "Amausi",
          "name:hi": "\u0905\u092e\u094c\u0938\u0940",
          "network": "Lucknow Metro",
          "note": "Contributors are requested to not edit the \"network\" and the \"operator\" tags. (2023/11/08)",
          "operator": "Lucknow Metro Rail Corporation Limited",
          "public_transport": "stop_position",
          "railway": "stop",
          "subway": "yes"
        }
      },
      {
        "type": "node",
        "id": 5777576803,
        "lat": 26.7715478,
        "lon": 80.8787836,
        "tags": {
          "name": "Amausi",
          "name:hi": "\u0905\u092e\u094c\u0938\u0940",
          "network": "Lucknow Metro",
          "note": "Contributors are requested to not edit the \"network\" and the \"operator\" tags. (2023/11/08)",
          "operator": "Lucknow Metro Rail Corporation Limited",
          "public_transport": "stop_position",
          "railway": "stop",
          "subway": "yes"
        }
      },
      {
        "type": "node",
        "id": 5777576804,
        "lat": 26.7776382,
        "lon": 80.8824633,
        "tags": {
          "name": "Transport Nagar",
          "name:hi": "\u091f\u094d\u0930\u093e\u0902\u0938\u092a\u094b\u0930\u094d\u091f \u0928\u0917\u0930",
          "network": "Lucknow Metro",
          "note": "Contributors are requested to not edit the \"network\" and the \"operator\" tags. (2023/11/08)",
          "operator": "Lucknow Metro Rail Corporation Limited",
          "public_transport": "stop_position",
          "railway": "stop",
          "subway": "yes"
        }
      },
      {
        "type": "node",
        "id": 5777576805,
        "lat": 26.7944007,
        "lon": 80.8917436,
        "tags": {
          "name": "Krishna Nagar",
          "name:hi": "\u0915\u0943\u0937\u094d\u0923\u093e \u0928\u0917\u0930",
          "network": "Lucknow Metro",
          "note": "Contributors are requested to not edit the \"network\" and the \"operator\" tags. (2023/11/08)",
          "operator": "Lucknow Metro Rail Corporation Limited",
          "public_transport": "stop_position",
          "subway": "yes"
        }
      },
      {
        "type": "node",
        "id": 5777576806,
        "lat": 26.8030987,
        "lon": 80.8964109,
        "tags": {
          "name": "Singar Nagar",
          "name:hi": "\u0938\u093f\u0902\u0917\u093e\u0930 \u0928\u0917\u0930",
          "network": "Lucknow Metro",
          "note": "Contributors are requested to not edit the \"network\" and the \"operator\" tags. (2023/11/08)",
          "operator": "Lucknow Metro Rail Corporation Limited",
          "public_transport": "stop_position",
          "railway": "stop",
          "subway": "yes"
        }
      },
      {
        "type": "node",
        "id": 8001538669,
        "lat": 26.7662824,
        "lon": 80.8836391,
        "tags": {
          "alt_name": "CCS Airport",
          "name": "Chaudhary Charan Singh International Airport",
          "name:hi": "\u091a\u094c\u0927\u0930\u0940 \u091a\u0930\u0923 \u0938\u093f\u0902\u0939 \u0905\u0902\u0924\u0930\u0930\u093e\u0937\u094d\u091f\u094d\u0930\u0940\u092f \u0939\u0935\u093e\u0908 \u0905\u0921\u094d\u0921\u093e",
          "network": "Lucknow Metro",
          "note": "Contributors are requested to not edit the \"network\" and the \"operator\" tags. (2023/11/08)",
          "operator": "Lucknow Metro Rail Corporation Limited",
          "public_transport": "station",
          "railway": "station",
          "station": "subway",
          "subway": "yes",
          "wikidata": "Q20861591",
          "wikipedia": "en:Chaudhary Charan Singh International Airport metro station"
        }
      },
      {
        "type": "node",
        "id": 8001987860,
        "lat": 26.7662799,
        "lon": 80.8841756,
        "tags": {
          "alt_name": "CCS Airport",
          "name": "Chaudhary Charan Singh International Airport",
          "name:hi": "\u091a\u094c\u0927\u0930\u0940 \u091a\u0930\u0923 \u0938\u093f\u0902\u0939 \u0905\u0902\u0924\u0930\u0930\u093e\u0937\u094d\u091f\u094d\u0930\u0940\u092f \u0939\u0935\u093e\u0908 \u0905\u0921\u094d\u0921\u093e",
          "network": "Lucknow Metro",
          "note": "Contributors are requested to not edit the \"network\" and the \"operator\" tags. (2023/11/08)",
          "operator": "Lucknow Metro Rail Corporation Limited",
          "public_transport": "stop_position",
          "railway": "stop",
          "subway": "yes"
        }
      },
      {
        "type": "node",
        "id": 8006089159,
        "lat": 26.8030829,
        "lon": 80.8964507,
        "tags": {
          "name": "Singar Nagar",
          "name:hi": "\u0938\u093f\u0902\u0917\u093e\u0930 \u0928\u0917\u0930",
          "network": "Lucknow Metro",
          "note": "Contributors are requested to not edit the \"network\" and the \"operator\" tags. (2023/11/08)",
          "operator": "Lucknow Metro Rail Corporation Limited",
          "public_transport": "stop_position",
          "subway": "yes"
        }
      },
      {
        "type": "node",
        "id": 8006089160,
        "lat": 26.7943833,
        "lon": 80.8917825,
        "tags": {
          "name": "Krishna Nagar",
          "name:hi": "\u0915\u0943\u0937\u094d\u0923\u093e \u0928\u0917\u0930",
          "network": "Lucknow Metro",
          "note": "Contributors are requested to not edit the \"network\" and the \"operator\" tags. (2023/11/08)",
          "operator": "Lucknow Metro Rail Corporation Limited",
          "public_transport": "stop_position",
          "subway": "yes"
        }
      },
      {
        "type": "node",
        "id": 8006089161,
        "lat": 26.777877,
        "lon": 80.8826512,
        "tags": {
          "name": "Transport Nagar",
          "name:hi": "\u091f\u094d\u0930\u093e\u0902\u0938\u092a\u094b\u0930\u094d\u091f \u0928\u0917\u0930",
          "network": "Lucknow Metro",
          "note": "Contributors are requested to not edit the \"network\" and the \"operator\" tags. (2023/11/08)",
          "operator": "Lucknow Metro Rail Corporation Limited",
          "public_transport": "station",
          "railway": "station",
          "station": "subway",
          "subway": "yes",
          "wikidata": "Q17123999",
          "wikipedia": "en:Transport Nagar metro station"
        }
      },
      {
        "type": "node",
        "id": 8006089162,
        "lat": 26.7713636,
        "lon": 80.8786976,
        "tags": {
          "name": "Amausi",
          "name:hi": "\u0905\u092e\u094c\u0938\u0940",
          "network": "Lucknow Metro",
          "note": "Contributors are requested to not edit the \"network\" and the \"operator\" tags. (2023/11/08)",
          "operator": "Lucknow Metro Rail Corporation Limited",
          "public_transport": "station",
          "railway": "station",
          "station": "subway",
          "subway": "yes",
          "wikidata": "Q17049249",
          "wikipedia": "en:Amausi metro station"
        }
      },
      {
        "type": "node",
        "id": 10899849036,
        "lat": 26.7990009,
        "lon": 80.9140059,
        "tags": {
          "amenity": "fuel",
          "brand": "Bharat Petroleum",
          "brand:wikidata": "Q854826",
          "fuel:diesel": "yes",
          "fuel:petroleum": "yes",
          "name": "Bharat Petroleum"
        }
      },
      {
        "type": "node",
        "id": 10899869144,
        "lat": 26.7873466,
        "lon": 80.9120308,
        "tags": {
          "amenity": "fuel",
          "brand": "Indian Oil Petrol Pump",
          "brand:wikidata": "Q1289348",
          "fuel:diesel": "yes",
          "fuel:petrol": "yes",
          "name": "Indian Oil Petrol Pump"
        }
      }
    ]
  }
}