{
  "pois_1km": {
    "version": 0.6,
    "generator": "Overpass API 0.7.62.8 e802775f",
    "osm3s": {
      "timestamp_osm_base": "2025-09-07T14:06:11Z",
      "copyright": "The data included in this document is from www.openstreetmap.org. The data is made available under ODbL."
    },
    "elements": [
      {
        "type": "node",
        "id": 7031207670,
        "lat": 26.8398841,
        "lon": 80.9426891,
        "tags": {
          "addr:district": "Lucknow",
          "addr:full": "4-A, Fawnbrake Avenue, Near Yogana Bhawan,Sarojini Naidu Marg",
          "addr:postcode": "226001",
          "addr:state": "Uttar Pradesh",
          "amenity": "hospital",
          "name": "Handa Hospital, Lucknow",
          "source": "OpenGovernmentData"
        }
      }
    ]
  },
  "pois_2_5km": {
    "version": 0.6,
    "generator": "Overpass API 0.7.62.8 e802775f",
    "osm3s": {
      "timestamp_osm_base": "2025-09-07T14:06:11Z",
      "copyright": "The data included in this document is from www.openstreetmap.org. The data is made available under ODbL."
    },
    "elements": [
      {
        "type": "node",
        "id": 564713410,
        "lat": 26.8305073,
        "lon": 80.9244154,
        "tags": {
          "name": "Lucknow Charbagh",
          "name:de": "Lucknow Charbagh",
          "name:ur": "\u0644\u06a9\u06be\u0646\u0624 \u0686\u0627\u0631\u0628\u0627\u063a",
          "public_transport": "stop_position",
          "railway": "stop",
          "train": "yes"
        }
      },
      {
        "type": "node",
        "id": 564718427,
        "lat": 26.8311583,
        "lon": 80.9243609,
        "tags": {
          "addr:city": "Lucknow",
          "ele": "123.5",
          "internet_access": "wlan",
          "name": "Lucknow Charbagh",
          "name:de": "Lucknow Charbagh",
          "name:en": "Lucknow Charbagh",
          "name:hi": "\u0932\u0916\u0928\u090a \u091a\u093e\u0930\u092c\u093e\u0917\u093c",
          "name:ur": "\u0644\u06a9\u06be\u0646\u0624 \u0686\u0627\u0631\u0628\u0627\u063a",
          "network": "IR",
          "operator": "NR",
          "public_transport": "station",
          "railway": "station",
          "ref": "LKO",
          "train": "yes",
          "wheelchair": "yes",
          "wikidata": "Q3633969",
          "wikimedia_commons": "File:Lucknow Charbagh Railway Station 3.jpg",
          "wikipedia": "en:Lucknow Charbagh railway station"
        }
      },
      {
        "type": "node",
        "id": 2226248382,
        "lat": 26.8479918,
        "lon": 80.9394268,
        "tags": {
          "amenity": "cinema"
        }
      },
      {
        "type": "node",
        "id": 4244207702,
        "lat": 26.8324023,
        "lon": 80.9231133,
        "tags": {
          "name": "Charbagh Railway Station",
          "name:hi": "\u091a\u093e\u0930\u092c\u093e\u0917\u093c \u0930\u0947\u0932\u0935\u0947 \u0938\u094d\u091f\u0947\u0936\u0928",
          "name:ur": "\u0644\u06a9\u06be\u0646\u0624 \u0686\u0627\u0631\u0628\u0627\u063a \u0627\u0633\u0679\u06cc\u0634\u0646",
          "network": "Lucknow Metro",
          "note": "Contributors are requested to not edit the \"network\" and the \"operator\" tags. (2023/11/08)",
          "operator": "Lucknow Metro Rail Corporation Limited",
          "public_transport": "station",
          "railway": "station",
          "station": "subway",
          "subway": "yes",
          "wheelchair": "yes"
        }
      },
      {
        "type": "node",
        "id": 4244207745,
        "lat": 26.8415965,
        "lon": 80.9399056,
        "tags": {
          "name": "Sachivalaya",
          "name:hi": "\u0938\u091a\u093f\u0935\u093e\u0932\u092f",
          "network": "Lucknow Metro",
          "note": "Contributors are requested to not edit the \"network\" and the \"operator\" tags. (2023/11/08)",
          "operator": "Lucknow Metro Rail Corporation Limited",
          "public_transport": "station",
          "railway": "station",
          "station": "subway",
          "subway": "yes"
        }
      },
      {
        "type": "node",
        "id": 4292019389,
        "lat": 26.8478371,
        "lon": 80.9472678,
        "tags": {
          "addr:postcode": "226001",
          "addr:street": "Ashok Marg",
          "amenity": "fuel",
          "name": "Sarkar Petrol Pump "
        }
      },
      {
        "type": "node",
        "id": 4977535798,
        "lat": 26.8539423,
        "lon": 80.9368471,
        "tags": {
          "name": "KD Singh Babu Stadium",
          "name:hi": "\u0915\u0947\u0921\u0940 \u0938\u093f\u0902\u0939 \u092c\u093e\u092c\u0942 \u0938\u094d\u091f\u0947\u0921\u093f\u092f\u092e",
          "network": "Lucknow Metro",
          "note": "Contributors are requested to not edit the \"network\" and the \"operator\" tags. (2023/11/08)",
          "operator": "Lucknow Metro Rail Corporation Limited",
          "public_transport": "stop_position",
          "subway": "yes"
        }
      },
      {
        "type": "node",
        "id": 5195189621,
        "lat": 26.8388944,
        "lon": 80.9345356,
        "tags": {
          "amenity": "fuel",
          "brand": "Bharat Petroleum",
          "brand:wikidata": "Q854826",
          "name": "Bharat Petroleum",
          "name:en": "Bharat Petroleum"
        }
      },
      {
        "type": "node",
        "id": 5777575720,
        "lat": 26.8416132,
        "lon": 80.939897,
        "tags": {
          "name": "Sachivalaya",
          "name:hi": "\u0938\u091a\u093f\u0935\u093e\u0932\u092f",
          "network": "Lucknow Metro",
          "note": "Contributors are requested to not edit the \"network\" and the \"operator\" tags. (2023/11/08)",
          "operator": "Lucknow Metro Rail Corporation Limited",
          "public_transport": "stop_position",
          "subway": "yes"
        }
      },
      {
        "type": "node",
        "id": 5777576802,
        "lat": 26.83242,
        "lon": 80.9231122,
        "tags": {
          "name": "Charbagh Railway Station",
          "name:hi": "\u091a\u093e\u0930\u092c\u093e\u0917\u093c \u0930\u0947\u0932\u0935\u0947 \u0938\u094d\u091f\u0947\u0936\u0928",
          "name:ur": "\u0644\u06a9\u06be\u0646\u0624 \u0686\u0627\u0631\u0628\u0627\u063a \u0627\u0633\u0679\u06cc\u0634\u0646",
          "network": "Lucknow Metro",
          "note": "Contributors are requested to not edit the \"network\" and the \"operator\" tags. (2023/11/08)",
          "operator": "Lucknow Metro Rail Corporation Limited",
          "public_transport": "stop_position",
          "railway": "stop",
          "subway": "yes"
        }
      },
      {
        "type": "node",
        "id": 5790401044,
        "lat": 26.8392677,
        "lon": 80.9335726,
        "tags": {
          "bus": "yes",
          "highway": "bus_stop",
          "name": "Lucknow Main 221 KTM Bike",
          "public_transport": "stop_position"
        }
      },
      {
        "type": "node",
        "id": 5790401045,
        "lat": 26.8390031,
        "lon": 80.9295848,
        "tags": {
          "bus": "yes",
          "highway": "bus_stop",
          "name": "Lucknow Main 221",
          "public_transport": "stop_position"
        }
      },
      {
        "type": "node",
        "id": 5790401046,
        "lat": 26.8374784,
        "lon": 80.9263134,
        "tags": {
          "bus": "yes",
          "highway": "bus_stop",
          "name": "Lucknow Main 221",
          "public_transport": "stop_position"
        }
      },
      {
        "type": "node",
        "id": 5790401047,
        "lat": 26.837286,
        "lon": 80.9243269,
        "tags": {
          "bus": "yes",
          "highway": "bus_stop",
          "name": "Lucknow Main",
          "public_transport": "stop_position"
        }
      },
      {
        "type": "node",
        "id": 6445132136,
        "lat": 26.8500472,
        "lon": 80.9416143,
        "tags": {
          "name": "Hazratganj",
          "name:hi": "\u0939\u091c\u093c\u0930\u0924\u0917\u0902\u091c",
          "network": "Lucknow Metro",
          "note": "Contributors are requested to not edit the \"network\" and the \"operator\" tags. (2023/11/08)",
          "operator": "Lucknow Metro Rail Corporation Limited",
          "public_transport": "stop_position",
          "subway": "yes"
        }
      },
      {
        "type": "node",
        "id": 6445132137,
        "lat": 26.8384284,
        "lon": 80.93433,
        "tags": {
          "name": "Hussainganj",
          "name:hi": "\u0939\u0941\u0938\u0948\u0928\u0917\u0902\u091c",
          "network": "Lucknow Metro",
          "note": "Contributors are requested to not edit the \"network\" and the \"operator\" tags. (2023/11/08)",
          "operator": "Lucknow Metro Rail Corporation Limited",
          "public_transport": "station",
          "railway": "station",
          "station": "subway",
          "subway": "yes"
        }
      },
      {
        "type": "node",
        "id": 6621697158,
        "lat": 26.8422387,
        "lon": 80.940551,
        "tags": {
          "amenity": "fuel",
          "brand": "Hindustan Petroleum"
        }
      },
      {
        "type": "node",
        "id": 6621697161,
        "lat": 26.8411158,
        "lon": 80.9395115,
        "tags": {
          "amenity": "fuel",
          "brand": "Hindustan Petroleum"
        }
      },
      {
        "type": "node",
        "id": 6621697166,
        "lat": 26.8453548,
        "lon": 80.9455528,
        "tags": {
          "amenity": "fuel",
          "brand": "Bharat Petroleum",
          "fuel:diesel": "yes",
          "opening_hours": "24/7"
        }
      },
      {
        "type": "node",
        "id": 6635065569,
        "lat": 26.8481427,
        "lon": 80.9399566,
        "tags": {
          "amenity": "cinema",
          "name": "Novelty MGS Cinemas"
        }
      },
      {
        "type": "node",
        "id": 7620685578,
        "lat": 26.8300322,
        "lon": 80.9244101,
        "tags": {
          "name": "Lucknow Charbagh",
          "name:de": "Lucknow Charbagh",
          "name:ur": "\u0644\u06a9\u06be\u0646\u0624 \u0686\u0627\u0631\u0628\u0627\u063a",
          "public_transport": "stop_position",
          "railway": "stop",
          "train": "yes"
        }
      },
      {
        "type": "node",
        "id": 7620685579,
        "lat": 26.8302051,
        "lon": 80.92439,
        "tags": {
          "name": "Lucknow Charbagh",
          "name:de": "Lucknow Charbagh",
          "name:ur": "\u0644\u06a9\u06be\u0646\u0624 \u0686\u0627\u0631\u0628\u0627\u063a",
          "public_transport": "stop_position",
          "railway": "stop",
          "train": "yes"
        }
      },
      {
        "type": "node",
        "id": 7620685580,
        "lat": 26.8302437,
        "lon": 80.9243891,
        "tags": {
          "name": "Lucknow Charbagh",
          "name:de": "Lucknow Charbagh",
          "name:ur": "\u0644\u06a9\u06be\u0646\u0624 \u0686\u0627\u0631\u0628\u0627\u063a",
          "public_transport": "stop_position",
          "railway": "stop",
          "train": "yes"
        }
      },
      {
        "type": "node",
        "id": 7620685581,
        "lat": 26.8307654,
        "lon": 80.9243676,
        "tags": {
          "name": "Lucknow Charbagh",
          "name:de": "Lucknow Charbagh",
          "name:ur": "\u0644\u06a9\u06be\u0646\u0624 \u0686\u0627\u0631\u0628\u0627\u063a",
          "public_transport": "stop_position",
          "railway": "stop",
          "train": "yes"
        }
      },
      {
        "type": "node",
        "id": 7620685582,
        "lat": 26.8306811,
        "lon": 80.9243746,
        "tags": {
          "name": "Lucknow Charbagh",
          "name:de": "Lucknow Charbagh",
          "name:ur": "\u0644\u06a9\u06be\u0646\u0624 \u0686\u0627\u0631\u0628\u0627\u063a",
          "public_transport": "stop_position",
          "railway": "stop",
          "train": "yes"
        }
      },
      {
        "type": "node",
        "id": 7620685583,
        "lat": 26.8304265,
        "lon": 80.924412,
        "tags": {
          "name": "Lucknow Charbagh",
          "name:ur": "\u0644\u06a9\u06be\u0646\u0624 \u0686\u0627\u0631\u0628\u0627\u063a",
          "public_transport": "stop_position",
          "railway": "stop",
          "train": "yes"
        }
      },
      {
        "type": "node",
        "id": 8006089152,
        "lat": 26.8415797,
        "lon": 80.9399191,
        "tags": {
          "name": "Sachivalaya",
          "name:hi": "\u0938\u091a\u093f\u0935\u093e\u0932\u092f",
          "network": "Lucknow Metro",
          "note": "Contributors are requested to not edit the \"network\" and the \"operator\" tags. (2023/11/08)",
          "operator": "Lucknow Metro Rail Corporation Limited",
          "public_transport": "stop_position",
          "subway": "yes"
        }
      },
      {
        "type": "node",
        "id": 8006089153,
        "lat": 26.8384239,
        "lon": 80.9343499,
        "tags": {
          "name": "Hussainganj",
          "name:hi": "\u0939\u0941\u0938\u0948\u0928\u0917\u0902\u091c",
          "network": "Lucknow Metro",
          "note": "Contributors are requested to not edit the \"network\" and the \"operator\" tags. (2023/11/08)",
          "operator": "Lucknow Metro Rail Corporation Limited",
          "public_transport": "stop_position",
          "railway": "stop",
          "subway": "yes"
        }
      },
      {
        "type": "node",
        "id": 8006089154,
        "lat": 26.8323812,
        "lon": 80.9231145,
        "tags": {
          "name": "Charbagh Railway Station",
          "name:hi": "\u091a\u093e\u0930\u092c\u093e\u0917\u093c \u0930\u0947\u0932\u0935\u0947 \u0938\u094d\u091f\u0947\u0936\u0928",
          "name:ur": "\u0644\u06a9\u06be\u0646\u0624 \u0686\u0627\u0631\u0628\u0627\u063a \u0627\u0633\u0679\u06cc\u0634\u0646",
          "network": "Lucknow Metro",
          "note": "Contributors are requested to not edit the \"network\" and the \"operator\" tags. (2023/11/08)",
          "operator": "Lucknow Metro Rail Corporation Limited",
          "public_transport": "stop_position",
          "subway": "yes"
        }
      },
      {
        "type": "node",
        "id": 8006089163,
        "lat": 26.8384335,
        "lon": 80.934311,
        "tags": {
          "name": "Hussainganj",
          "name:hi": "\u0939\u0941\u0938\u0948\u0928\u0917\u0902\u091c",
          "network": "Lucknow Metro",
          "note": "Contributors are requested to not edit the \"network\" and the \"operator\" tags. (2023/11/08)",
          "operator": "Lucknow Metro Rail Corporation Limited",
          "public_transport": "stop_position",
          "railway": "stop",
          "subway": "yes"
        }
      },
      {
        "type": "node",
        "id": 9655708800,
        "lat": 26.8539449,
        "lon": 80.9368084,
        "tags": {
          "name": "KD Singh Babu Stadium",
          "name:hi": "\u0915\u0947\u0921\u0940 \u0938\u093f\u0902\u0939 \u092c\u093e\u092c\u0942 \u0938\u094d\u091f\u0947\u0921\u093f\u092f\u092e",
          "network": "Lucknow Metro",
          "note": "Contributors are requested to not edit the \"network\" and the \"operator\" tags. (2023/11/08)",
          "operator": "Lucknow Metro Rail Corporation Limited",
          "public_transport": "station",
          "railway": "station",
          "station": "subway",
          "subway": "yes"
        }
      },
      {
        "type": "node",
        "id": 9655708801,
        "lat": 26.8500335,
        "lon": 80.9415944,
        "tags": {
          "name": "Hazratganj",
          "name:hi": "\u0939\u091c\u093c\u0930\u0924\u0917\u0902\u091c",
          "network": "Lucknow Metro",
          "note": "Contributors are requested to not edit the \"network\" and the \"operator\" tags. (2023/11/08)",
          "operator": "Lucknow Metro Rail Corporation Limited",
          "public_transport": "station",
          "railway": "station",
          "station": "subway",
          "subway": "yes"
        }
      },
      {
        "type": "node",
        "id": 9655728294,
        "lat": 26.8539129,
        "lon": 80.9368026,
        "tags": {
          "name": "KD Singh Babu Stadium",
          "name:hi": "\u0915\u0947\u0921\u0940 \u0938\u093f\u0902\u0939 \u092c\u093e\u092c\u0942 \u0938\u094d\u091f\u0947\u0921\u093f\u092f\u092e",
          "network": "Lucknow Metro",
          "note": "Contributors are requested to not edit the \"network\" and the \"operator\" tags. (2023/11/08)",
          "operator": "Lucknow Metro Rail Corporation Limited",
          "public_transport": "stop_position",
          "subway": "yes"
        }
      },
      {
        "type": "node",
        "id": 9655728299,
        "lat": 26.8500069,
        "lon": 80.9415821,
        "tags": {
          "name": "Hazratganj",
          "name:hi": "\u0939\u091c\u093c\u0930\u0924\u0917\u0902\u091c",
          "network": "Lucknow Metro",
          "note": "Contributors are requested to not edit the \"network\" and the \"operator\" tags. (2023/11/08)",
          "operator": "Lucknow Metro Rail Corporation Limited",
          "public_transport": "stop_position",
          "subway": "yes"
        }
      }
    ]
  }
}