{
  "pois_1km": {
    "version": 0.6,
    "generator": "Overpass API 0.7.62.8 e802775f",
    "osm3s": {
      "timestamp_osm_base": "2025-09-07T14:08:15Z",
      "copyright": "The data included in this document is from www.openstreetmap.org. The data is made available under ODbL."
    },
    "elements": [
      {
        "type": "node",
        "id": 6621845254,
        "lat": 26.8739653,
        "lon": 81.0022785,
        "tags": {
          "amenity": "fast_food",
          "name": "Mansi Sweet"
        }
      },
      {
        "type": "node",
        "id": 6621993316,
        "lat": 26.8734381,
        "lon": 81.00247,
        "tags": {
          "addr:city": "Lucknow",
          "addr:housenumber": "Sushma Hospital",
          "addr:street": "Faizabad Road",
          "amenity": "cafe",
          "name": "Fresh Fruit Juice and Shakes"
        }
      },
      {
        "type": "node",
        "id": 8899865492,
        "lat": 26.8774962,
        "lon": 81.0040732,
        "tags": {
          "amenity": "bank",
          "brand": "Canara Bank",
          "brand:en": "Canara Bank",
          "brand:hi": "\u0915\u0947\u0928\u0930\u093e \u092c\u0948\u0902\u0915",
          "brand:kn": "\u0c95\u0cc6\u0ca8\u0cb0\u0cbe \u0cac\u0ccd\u0caf\u0cbe\u0c82\u0c95\u0ccd",
          "brand:pa": "\u0a15\u0a47\u0a28\u0a30\u0a3e \u0a2c\u0a48\u0a02\u0a15",
          "brand:pnb": "\u06a9\u06cc\u0646\u0631\u0627 \u0628\u06cc\u0646\u06a9",
          "brand:ur": "\u06a9\u06cc\u0646\u0631\u0627 \u0628\u06cc\u0646\u06a9",
          "brand:wikidata": "Q2003777",
          "brand:wikipedia": "en:Canara Bank",
          "brand:wikipedia:pa": "\u0a15\u0a47\u0a28\u0a30\u0a3e \u0a2c\u0a48\u0a02\u0a15",
          "name": "Canara Bank",
          "name:en": "Canara Bank",
          "name:hi": "\u0915\u0947\u0928\u0930\u093e \u092c\u0948\u0902\u0915",
          "name:kn": "\u0c95\u0cc6\u0ca8\u0cb0\u0cbe \u0cac\u0ccd\u0caf\u0cbe\u0c82\u0c95\u0ccd",
          "name:pa": "\u0a15\u0a47\u0a28\u0a30\u0a3e \u0a2c\u0a48\u0a02\u0a15",
          "name:pnb": "\u06a9\u06cc\u0646\u0631\u0627 \u0628\u06cc\u0646\u06a9",
          "name:ur": "\u06a9\u06cc\u0646\u0631\u0627 \u0628\u06cc\u0646\u06a9"
        }
      },
      {
        "type": "node",
        "id": 8899865493,
        "lat": 26.8774364,
        "lon": 81.0041711,
        "tags": {
          "amenity": "atm"
        }
      },
      {
        "type": "node",
        "id": 8899865494,
        "lat": 26.8774202,
        "lon": 81.004212,
        "tags": {
          "amenity": "atm"
        }
      },
      {
        "type": "node",
        "id": 11697871241,
        "lat": 26.8707596,
        "lon": 81.0148717,
        "tags": {
          "amenity": "food_court",
          "name": "Highway Foods"
        }
      },
      {
        "type": "node",
        "id": 11698034610,
        "lat": 26.8726578,
        "lon": 81.0193279,
        "tags": {
          "leisure": "park",
          "name": "Bhojpuri Park"
        }
      },
      {
        "type": "node",
        "id": 11698552939,
        "lat": 26.8677222,
        "lon": 81.0180444,
        "tags": {
          "leisure": "park",
          "name": "qwerrt"
        }
      },
      {
        "type": "node",
        "id": 13114803254,
        "lat": 26.8732111,
        "lon": 81.0151799,
        "tags": {
          "addr:city": "lucknow",
          "addr:district": "lucknow",
          "addr:housenumber": "Alpha tower",
          "addr:postcode": "226028",
          "addr:street": "Shaheed Path",
          "amenity": "restaurant",
          "cuisine": "indian",
          "name": "Shree Rajbhog",
          "opening_hours": "Mo-Su 10:00-22:00"
        }
      }
    ]
  },
  "pois_2_5km": {
    "version": 0.6,
    "generator": "Overpass API 0.7.62.8 e802775f",
    "osm3s": {
      "timestamp_osm_base": "2025-09-07T14:08:15Z",
      "copyright": "The data included in this document is from www.openstreetmap.org. The data is made available under ODbL."
    },
    "elements": [
      {
        "type": "node",
        "id": 534853237,
        "lat": 26.8650887,
        "lon": 80.996398,
        "tags": {
          "amenity": "fuel",
          "brand": "Indian Oil Petrol Pump",
          "brand:wikidata": "Q1289348",
          "name": "Indian Oil Petrol Pump",
          "operator": "IOCL"
        }
      },
      {
        "type": "node",
        "id": 534853247,
        "lat": 26.8720047,
        "lon": 80.9964674,
        "tags": {
          "amenity": "fuel",
          "brand": "Indian Oil",
          "brand:wikidata": "Q1289348",
          "compressed_air": "yes",
          "name": "Indian Oil Petrol Station",
          "operator": "IBP"
        }
      },
      {
        "type": "node",
        "id": 534853283,
        "lat": 26.8857723,
        "lon": 80.9925664,
        "tags": {
          "amenity": "fuel",
          "brand": "Indian Oil",
          "brand:wikidata": "Q1289348",
          "name": "Indian Oil Petrol Station",
          "operator": "IOCL"
        }
      },
      {
        "type": "node",
        "id": 535121349,
        "lat": 26.8605833,
        "lon": 81.0029055,
        "tags": {
          "name": "Gomti Nagar",
          "operator": "NER",
          "railway": "station",
          "ref": "GTNR",
          "wikidata": "Q24949486",
          "wikipedia": "en:Gomti Nagar railway station"
        }
      },
      {
        "type": "node",
        "id": 4165961096,
        "lat": 26.8625882,
        "lon": 81.0105719,
        "tags": {
          "amenity": "cinema",
          "brand": "Cinepolis",
          "brand:wikidata": "Q5686673",
          "name": "Cinepolis"
        }
      },
      {
        "type": "node",
        "id": 4169719265,
        "lat": 26.8699998,
        "lon": 80.9971593,
        "tags": {
          "amenity": "theatre",
          "check_date": "2024-10-15",
          "name": "Wave Cinemas"
        }
      },
      {
        "type": "node",
        "id": 4977536038,
        "lat": 26.8726989,
        "lon": 80.9908838,
        "tags": {
          "name": "Indira Nagar",
          "name:hi": "\u0907\u0902\u0926\u093f\u0930\u093e \u0928\u0917\u0930",
          "network": "Lucknow Metro",
          "note": "Contributors are requested to not edit the \"network\" and the \"operator\" tags. (2023/11/08)",
          "operator": "Lucknow Metro Rail Corporation Limited",
          "public_transport": "stop_position",
          "railway": "stop",
          "subway": "yes"
        }
      },
      {
        "type": "node",
        "id": 6444506071,
        "lat": 26.8878924,
        "lon": 80.9959029,
        "tags": {
          "name": "Munshipulia",
          "name:hi": "\u092e\u0941\u0902\u0936\u0940\u092a\u0941\u0932\u093f\u092f\u093e",
          "network": "Lucknow Metro",
          "note": "Contributors are requested to not edit the \"network\" and the \"operator\" tags. (2023/11/08)",
          "operator": "Lucknow Metro Rail Corporation Limited",
          "public_transport": "stop_position",
          "railway": "stop",
          "ref": "1",
          "subway": "yes"
        }
      },
      {
        "type": "node",
        "id": 9655708794,
        "lat": 26.8879654,
        "lon": 80.9959863,
        "tags": {
          "name": "Munshipulia",
          "name:hi": "\u092e\u0941\u0902\u0936\u0940 \u092a\u0941\u0932\u093f\u092f\u093e",
          "network": "Lucknow Metro",
          "note": "Contributors are requested to not edit the \"network\" and the \"operator\" tags. (2023/11/08)",
          "operator": "Lucknow Metro Rail Corporation Limited",
          "public_transport": "station",
          "railway": "station",
          "station": "subway",
          "subway": "yes",
          "wheelchair": "yes"
        }
      },
      {
        "type": "node",
        "id": 9655708795,
        "lat": 26.8727659,
        "lon": 80.9909732,
        "tags": {
          "name": "Indira Nagar",
          "name:hi": "\u0907\u0902\u0926\u093f\u0930\u093e \u0928\u0917\u0930",
          "network": "Lucknow Metro",
          "note": "Contributors are requested to not edit the \"network\" and the \"operator\" tags. (2023/11/08)",
          "operator": "Lucknow Metro Rail Corporation Limited",
          "public_transport": "station",
          "railway": "station",
          "station": "subway",
          "subway": "yes"
        }
      },
      {
        "type": "node",
        "id": 9655708803,
        "lat": 26.8878962,
        "lon": 80.9958426,
        "tags": {
          "name": "Munshipulia",
          "name:hi": "\u092e\u0941\u0902\u0936\u0940\u092a\u0941\u0932\u093f\u092f\u093e",
          "network": "Lucknow Metro",
          "note": "Contributors are requested to not edit the \"network\" and the \"operator\" tags. (2023/11/08)",
          "operator": "Lucknow Metro Rail Corporation Limited",
          "public_transport": "stop_position",
          "railway": "stop",
          "ref": "21",
          "subway": "yes"
        }
      },
      {
        "type": "node",
        "id": 9655728217,
        "lat": 26.8727682,
        "lon": 80.9908727,
        "tags": {
          "name": "Indira Nagar",
          "name:hi": "\u0907\u0902\u0926\u093f\u0930\u093e \u0928\u0917\u0930",
          "network": "Lucknow Metro",
          "note": "Contributors are requested to not edit the \"network\" and the \"operator\" tags. (2023/11/08)",
          "operator": "Lucknow Metro Rail Corporation Limited",
          "public_transport": "stop_position",
          "railway": "stop",
          "subway": "yes"
        }
      },
      {
        "type": "node",
        "id": 10605651827,
        "lat": 26.8728798,
        "lon": 80.9886495,
        "tags": {
          "amenity": "fuel",
          "brand": "Indian Oil Petrol Pump",
          "brand:wikidata": "Q1289348",
          "name": "Indian Oil Petrol Pump"
        }
      }
    ]
  }
}