{
  "pois_1km": {
    "version": 0.6,
    "generator": "Overpass API 0.7.62.8 e802775f",
    "osm3s": {
      "timestamp_osm_base": "2025-09-07T14:12:14Z",
      "copyright": "The data included in this document is from www.openstreetmap.org. The data is made available under ODbL."
    },
    "elements": [
      {
        "type": "node",
        "id": 534853236,
        "lat": 26.8647922,
        "lon": 80.9962852,
        "tags": {
          "amenity": "bank",
          "brand:wikidata": "Q2004439",
          "name": "Bank of India",
          "name:en": "Bank of India",
          "short_name": "BoI",
          "website": "https://www.bankofindia.co.in/"
        }
      },
      {
        "type": "node",
        "id": 1904209108,
        "lat": 26.8698078,
        "lon": 80.997144,
        "tags": {
          "alt_name": "Wave Mall",
          "name": "Wave, West End Mall",
          "shop": "supermarket"
        }
      },
      {
        "type": "node",
        "id": 2472333725,
        "lat": 26.8779443,
        "lon": 80.9994639,
        "tags": {
          "amenity": "atm"
        }
      },
      {
        "type": "node",
        "id": 2472333732,
        "lat": 26.878015,
        "lon": 80.9995683,
        "tags": {
          "amenity": "bank",
          "brand": "State Bank of India",
          "brand:wikidata": "Q1340361",
          "name": "State Bank of India",
          "short_name": "SBI",
          "website": "https://www.sbi.co.in"
        }
      },
      {
        "type": "node",
        "id": 4169483138,
        "lat": 26.8779227,
        "lon": 80.9969109,
        "tags": {
          "amenity": "pharmacy"
        }
      },
      {
        "type": "node",
        "id": 5163485321,
        "lat": 26.8633364,
        "lon": 81.0016846,
        "tags": {
          "amenity": "restaurant",
          "name:en": "Sheikh Chilli"
        }
      },
      {
        "type": "node",
        "id": 6621845254,
        "lat": 26.8739653,
        "lon": 81.0022785,
        "tags": {
          "amenity": "fast_food",
          "name": "Mansi Sweet"
        }
      },
      {
        "type": "node",
        "id": 6621993316,
        "lat": 26.8734381,
        "lon": 81.00247,
        "tags": {
          "addr:city": "Lucknow",
          "addr:housenumber": "Sushma Hospital",
          "addr:street": "Faizabad Road",
          "amenity": "cafe",
          "name": "Fresh Fruit Juice and Shakes"
        }
      },
      {
        "type": "node",
        "id": 6630593984,
        "lat": 26.8777243,
        "lon": 81.0007227,
        "tags": {
          "addr:housenumber": "8/204",
          "addr:place": "Indiranagar",
          "addr:postcode": "226016",
          "amenity": "cafe",
          "drink:tea": "yes",
          "name": "Chai Ki Chuski",
          "opening_hours": "Mo-Su 06:00-10:30, 16:00-22:30",
          "outdoor_seating": "yes",
          "seats": "15"
        }
      },
      {
        "type": "node",
        "id": 7018994347,
        "lat": 26.8661579,
        "lon": 81.0056037,
        "tags": {
          "addr:district": "Lucknow",
          "addr:full": "4/43, Vivek Khand Opp: Central School, Gomti Nagar",
          "addr:postcode": "226010",
          "addr:state": "Uttar Pradesh",
          "amenity": "hospital",
          "name": "Chandra Mother And Eye Care Pvt Ltd",
          "source": "OpenGovernmentData"
        }
      },
      {
        "type": "node",
        "id": 8860945287,
        "lat": 26.8629327,
        "lon": 80.9954584,
        "tags": {
          "amenity": "hospital",
          "healthcare": "hospital",
          "name": "CGHS Hospital",
          "operator": "Goverment Hospital",
          "operator:type": "government"
        }
      },
      {
        "type": "node",
        "id": 8860945288,
        "lat": 26.8608577,
        "lon": 80.9984195,
        "tags": {
          "amenity": "bank",
          "brand": "Punjab National Bank",
          "brand:wikidata": "Q2743499",
          "brand:wikipedia": "en:Punjab National Bank",
          "name": "Punjab National Bank"
        }
      },
      {
        "type": "node",
        "id": 8899867393,
        "lat": 26.8776925,
        "lon": 81.0008025,
        "tags": {
          "amenity": "fast_food",
          "name": "Dosa Point"
        }
      },
      {
        "type": "node",
        "id": 10605470656,
        "lat": 26.8756107,
        "lon": 80.9956276,
        "tags": {
          "amenity": "bank",
          "brand": "Punjab National Bank",
          "brand:wikidata": "Q2743499",
          "name": "Punjab National Bank"
        }
      },
      {
        "type": "node",
        "id": 12462498369,
        "lat": 26.8715624,
        "lon": 80.9985595,
        "tags": {
          "addr:city": "Barabanki",
          "addr:district": "Lucknow",
          "addr:postcode": "255001",
          "addr:street": "Surya Orthopaedic Hospital and Trauma Center, Opposite K.D.Singh Babu Stadium",
          "amenity": "clinic",
          "healthcare": "clinic",
          "healthcare:speciality": "orthopaedics;trauma",
          "name": "Dr. Santosh Singh",
          "operator": "Novosalus technology",
          "operator:type": "private"
        }
      }
    ]
  },
  "pois_2_5km": {
    "version": 0.6,
    "generator": "Overpass API 0.7.62.8 e802775f",
    "osm3s": {
      "timestamp_osm_base": "2025-09-07T14:12:14Z",
      "copyright": "The data included in this document is from www.openstreetmap.org. The data is made available under ODbL."
    },
    "elements": [
      {
        "type": "node",
        "id": 534853237,
        "lat": 26.8650887,
        "lon": 80.996398,
        "tags": {
          "amenity": "fuel",
          "brand": "Indian Oil Petrol Pump",
          "brand:wikidata": "Q1289348",
          "name": "Indian Oil Petrol Pump",
          "operator": "IOCL"
        }
      },
      {
        "type": "node",
        "id": 534853247,
        "lat": 26.8720047,
        "lon": 80.9964674,
        "tags": {
          "amenity": "fuel",
          "brand": "Indian Oil",
          "brand:wikidata": "Q1289348",
          "compressed_air": "yes",
          "name": "Indian Oil Petrol Station",
          "operator": "IBP"
        }
      },
      {
        "type": "node",
        "id": 534853283,
        "lat": 26.8857723,
        "lon": 80.9925664,
        "tags": {
          "amenity": "fuel",
          "brand": "Indian Oil",
          "brand:wikidata": "Q1289348",
          "name": "Indian Oil Petrol Station",
          "operator": "IOCL"
        }
      },
      {
        "type": "node",
        "id": 535121349,
        "lat": 26.8605833,
        "lon": 81.0029055,
        "tags": {
          "name": "Gomti Nagar",
          "operator": "NER",
          "railway": "station",
          "ref": "GTNR",
          "wikidata": "Q24949486",
          "wikipedia": "en:Gomti Nagar railway station"
        }
      },
      {
        "type": "node",
        "id": 4165961096,
        "lat": 26.8625882,
        "lon": 81.0105719,
        "tags": {
          "amenity": "cinema",
          "brand": "Cinepolis",
          "brand:wikidata": "Q5686673",
          "name": "Cinepolis"
        }
      },
      {
        "type": "node",
        "id": 4169719265,
        "lat": 26.8699998,
        "lon": 80.9971593,
        "tags": {
          "amenity": "theatre",
          "check_date": "2024-10-15",
          "name": "Wave Cinemas"
        }
      },
      {
        "type": "node",
        "id": 4977535811,
        "lat": 26.8708981,
        "lon": 80.9739102,
        "tags": {
          "name": "Lekhraj Market",
          "name:hi": "\u0932\u0947\u0916\u0930\u093e\u091c \u092e\u093e\u0930\u094d\u0915\u0947\u091f",
          "network": "Lucknow Metro",
          "note": "Contributors are requested to not edit the \"network\" and the \"operator\" tags. (2023/11/08)",
          "operator": "Lucknow Metro Rail Corporation Limited",
          "public_transport": "stop_position",
          "railway": "stop",
          "subway": "yes"
        }
      },
      {
        "type": "node",
        "id": 4977536038,
        "lat": 26.8726989,
        "lon": 80.9908838,
        "tags": {
          "name": "Indira Nagar",
          "name:hi": "\u0907\u0902\u0926\u093f\u0930\u093e \u0928\u0917\u0930",
          "network": "Lucknow Metro",
          "note": "Contributors are requested to not edit the \"network\" and the \"operator\" tags. (2023/11/08)",
          "operator": "Lucknow Metro Rail Corporation Limited",
          "public_transport": "stop_position",
          "railway": "stop",
          "subway": "yes"
        }
      },
      {
        "type": "node",
        "id": 6223289522,
        "lat": 26.8579165,
        "lon": 80.98439,
        "tags": {
          "amenity": "theatre",
          "theatre:type": "amphi"
        }
      },
      {
        "type": "node",
        "id": 6444506071,
        "lat": 26.8878924,
        "lon": 80.9959029,
        "tags": {
          "name": "Munshipulia",
          "name:hi": "\u092e\u0941\u0902\u0936\u0940\u092a\u0941\u0932\u093f\u092f\u093e",
          "network": "Lucknow Metro",
          "note": "Contributors are requested to not edit the \"network\" and the \"operator\" tags. (2023/11/08)",
          "operator": "Lucknow Metro Rail Corporation Limited",
          "public_transport": "stop_position",
          "railway": "stop",
          "ref": "1",
          "subway": "yes"
        }
      },
      {
        "type": "node",
        "id": 6445132135,
        "lat": 26.8722077,
        "lon": 80.9823048,
        "tags": {
          "name": "Bhootnath Market",
          "name:hi": "\u092d\u0942\u0924\u0928\u093e\u0925 \u092e\u093e\u0930\u094d\u0915\u0947\u091f",
          "network": "Lucknow Metro",
          "note": "Contributors are requested to not edit the \"network\" and the \"operator\" tags. (2023/11/08)",
          "operator": "Lucknow Metro Rail Corporation Limited",
          "public_transport": "stop_position",
          "railway": "stop",
          "subway": "yes"
        }
      },
      {
        "type": "node",
        "id": 9655708793,
        "lat": 26.8709686,
        "lon": 80.9738961,
        "tags": {
          "name": "Lekhraj Market",
          "name:hi": "\u0932\u0947\u0916\u0930\u093e\u091c \u092e\u093e\u0930\u094d\u0915\u0947\u091f",
          "network": "Lucknow Metro",
          "note": "Contributors are requested to not edit the \"network\" and the \"operator\" tags. (2023/11/08)",
          "operator": "Lucknow Metro Rail Corporation Limited",
          "public_transport": "station",
          "railway": "station",
          "station": "subway",
          "subway": "yes"
        }
      },
      {
        "type": "node",
        "id": 9655708794,
        "lat": 26.8879654,
        "lon": 80.9959863,
        "tags": {
          "name": "Munshipulia",
          "name:hi": "\u092e\u0941\u0902\u0936\u0940 \u092a\u0941\u0932\u093f\u092f\u093e",
          "network": "Lucknow Metro",
          "note": "Contributors are requested to not edit the \"network\" and the \"operator\" tags. (2023/11/08)",
          "operator": "Lucknow Metro Rail Corporation Limited",
          "public_transport": "station",
          "railway": "station",
          "station": "subway",
          "subway": "yes",
          "wheelchair": "yes"
        }
      },
      {
        "type": "node",
        "id": 9655708795,
        "lat": 26.8727659,
        "lon": 80.9909732,
        "tags": {
          "name": "Indira Nagar",
          "name:hi": "\u0907\u0902\u0926\u093f\u0930\u093e \u0928\u0917\u0930",
          "network": "Lucknow Metro",
          "note": "Contributors are requested to not edit the \"network\" and the \"operator\" tags. (2023/11/08)",
          "operator": "Lucknow Metro Rail Corporation Limited",
          "public_transport": "station",
          "railway": "station",
          "station": "subway",
          "subway": "yes"
        }
      },
      {
        "type": "node",
        "id": 9655708796,
        "lat": 26.8722368,
        "lon": 80.9823474,
        "tags": {
          "name": "Bhootnath Market",
          "name:hi": "\u092d\u0942\u0924\u0928\u093e\u0925 \u092e\u093e\u0930\u094d\u0915\u0947\u091f",
          "network": "Lucknow Metro",
          "note": "Contributors are requested to not edit the \"network\" and the \"operator\" tags. (2023/11/08)",
          "operator": "Lucknow Metro Rail Corporation Limited",
          "public_transport": "station",
          "railway": "station",
          "station": "subway",
          "subway": "yes"
        }
      },
      {
        "type": "node",
        "id": 9655708803,
        "lat": 26.8878962,
        "lon": 80.9958426,
        "tags": {
          "name": "Munshipulia",
          "name:hi": "\u092e\u0941\u0902\u0936\u0940\u092a\u0941\u0932\u093f\u092f\u093e",
          "network": "Lucknow Metro",
          "note": "Contributors are requested to not edit the \"network\" and the \"operator\" tags. (2023/11/08)",
          "operator": "Lucknow Metro Rail Corporation Limited",
          "public_transport": "stop_position",
          "railway": "stop",
          "ref": "21",
          "subway": "yes"
        }
      },
      {
        "type": "node",
        "id": 9655728217,
        "lat": 26.8727682,
        "lon": 80.9908727,
        "tags": {
          "name": "Indira Nagar",
          "name:hi": "\u0907\u0902\u0926\u093f\u0930\u093e \u0928\u0917\u0930",
          "network": "Lucknow Metro",
          "note": "Contributors are requested to not edit the \"network\" and the \"operator\" tags. (2023/11/08)",
          "operator": "Lucknow Metro Rail Corporation Limited",
          "public_transport": "stop_position",
          "railway": "stop",
          "subway": "yes"
        }
      },
      {
        "type": "node",
        "id": 9655728224,
        "lat": 26.8722671,
        "lon": 80.9823039,
        "tags": {
          "name": "Bhootnath Market",
          "name:hi": "\u092d\u0942\u0924\u0928\u093e\u0925 \u092e\u093e\u0930\u094d\u0915\u0947\u091f",
          "network": "Lucknow Metro",
          "note": "Contributors are requested to not edit the \"network\" and the \"operator\" tags. (2023/11/08)",
          "operator": "Lucknow Metro Rail Corporation Limited",
          "public_transport": "stop_position",
          "railway": "stop",
          "subway": "yes"
        }
      },
      {
        "type": "node",
        "id": 9655728230,
        "lat": 26.8709474,
        "lon": 80.973895,
        "tags": {
          "name": "Lekhraj Market",
          "name:hi": "\u0932\u0947\u0916\u0930\u093e\u091c \u092e\u093e\u0930\u094d\u0915\u0947\u091f",
          "network": "Lucknow Metro",
          "note": "Contributors are requested to not edit the \"network\" and the \"operator\" tags. (2023/11/08)",
          "operator": "Lucknow Metro Rail Corporation Limited",
          "public_transport": "stop_position",
          "railway": "stop",
          "subway": "yes"
        }
      },
      {
        "type": "node",
        "id": 10605651827,
        "lat": 26.8728798,
        "lon": 80.9886495,
        "tags": {
          "amenity": "fuel",
          "brand": "Indian Oil Petrol Pump",
          "brand:wikidata": "Q1289348",
          "name": "Indian Oil Petrol Pump"
        }
      }
    ]
  }
}