{
  "pois_1km": {
    "version": 0.6,
    "generator": "Overpass API 0.7.62.8 e802775f",
    "osm3s": {
      "timestamp_osm_base": "2025-09-07T14:27:30Z",
      "copyright": "The data included in this document is from www.openstreetmap.org. The data is made available under ODbL."
    },
    "elements": [
      {
        "type": "node",
        "id": 3664092940,
        "lat": 26.8444615,
        "lon": 80.945768,
        "tags": {
          "addr:city": "lucknow",
          "addr:housenumber": "234",
          "addr:postcode": "226010",
          "amenity": "fast_food",
          "cuisine": "pizza",
          "name": "Telepizza"
        }
      },
      {
        "type": "node",
        "id": 3941230269,
        "lat": 26.8470252,
        "lon": 80.9461409,
        "tags": {
          "addr:street": "Hazratganj",
          "amenity": "cafe",
          "cuisine": "coffee_shop",
          "name": "Cafe Coffee Day",
          "opening_hours": "Mo-Su 09:00-01:00"
        }
      },
      {
        "type": "node",
        "id": 4968712021,
        "lat": 26.8475668,
        "lon": 80.9447975,
        "tags": {
          "addr:housenumber": "75",
          "addr:street": "Hazratganj",
          "amenity": "restaurant",
          "name:en": "Moti Mahal"
        }
      },
      {
        "type": "node",
        "id": 6005264685,
        "lat": 26.8474755,
        "lon": 80.9465305,
        "tags": {
          "addr:street": "Ashok Marg",
          "amenity": "cafe",
          "name:en": "Indian Coffee House",
          "phone": "+914872335275",
          "website": "http://indiancoffeehouse.com"
        }
      },
      {
        "type": "node",
        "id": 6621697159,
        "lat": 26.845277,
        "lon": 80.9480991,
        "tags": {
          "amenity": "atm",
          "brand": "Bank of Baroda",
          "opening_hours": "24/7"
        }
      },
      {
        "type": "node",
        "id": 6621697165,
        "lat": 26.8453238,
        "lon": 80.9480471,
        "tags": {
          "amenity": "bank",
          "brand": "Bank of Baroda"
        }
      },
      {
        "type": "node",
        "id": 6635438743,
        "lat": 26.8463948,
        "lon": 80.9455284,
        "tags": {
          "amenity": "atm",
          "brand": "Indian Overseas Bank",
          "opening_hours": "24/7",
          "wheelchair": "no"
        }
      },
      {
        "type": "node",
        "id": 7018564216,
        "lat": 26.8446682,
        "lon": 80.9489809,
        "tags": {
          "addr:district": "Lucknow",
          "addr:full": "Park Rd,Hazratgunj",
          "addr:postcode": "226001",
          "addr:state": "Uttar Pradesh",
          "amenity": "hospital",
          "name": "Dr.Shyama Prasad Mukherjee (Civil) Hospital",
          "source": "OpenGovernmentData"
        }
      },
      {
        "type": "node",
        "id": 7031207670,
        "lat": 26.8398841,
        "lon": 80.9426891,
        "tags": {
          "addr:district": "Lucknow",
          "addr:full": "4-A, Fawnbrake Avenue, Near Yogana Bhawan,Sarojini Naidu Marg",
          "addr:postcode": "226001",
          "addr:state": "Uttar Pradesh",
          "amenity": "hospital",
          "name": "Handa Hospital, Lucknow",
          "source": "OpenGovernmentData"
        }
      },
      {
        "type": "node",
        "id": 7205453350,
        "lat": 26.8460131,
        "lon": 80.9452862,
        "tags": {
          "addr:district": "Lucknow",
          "addr:full": "Major, Infront of Statue of Mahatma Gandhi Hazratganj lucknow, Hazratganj Lucknow, Veerangana Jhalkaribai Mahila Hospital,",
          "addr:state": "Uttar Pradesh",
          "amenity": "hospital",
          "description": "District Hospital",
          "name": "JHALKARI BAI MAHILA HOSPITALS",
          "source": "OpenGovernmentData"
        }
      },
      {
        "type": "node",
        "id": 7510640775,
        "lat": 26.8472761,
        "lon": 80.9460149,
        "tags": {
          "addr:district": "Lucknow",
          "addr:full": "Ashok Marg, Block E, Narhi, Hazratganj, Lucknow",
          "addr:postcode": "226001",
          "addr:state": "Uttar Pradesh",
          "amenity": "hospital",
          "name": "Mariyam Hospital",
          "source": "Local Knowledge"
        }
      },
      {
        "type": "node",
        "id": 12751717518,
        "lat": 26.8437136,
        "lon": 80.9469722,
        "tags": {
          "amenity": "restaurant",
          "name": "Tanatan"
        }
      },
      {
        "type": "node",
        "id": 12751882300,
        "lat": 26.8437278,
        "lon": 80.9469897,
        "tags": {
          "amenity": "restaurant",
          "level": "0;1",
          "name": "Tanatan",
          "wheelchair": "no"
        }
      },
      {
        "type": "node",
        "id": 13045341758,
        "lat": 26.8474472,
        "lon": 80.9455297,
        "tags": {
          "amenity": "restaurant",
          "name": "Curry Leaf",
          "panoramax": "cfb94745-b00e-4452-a098-2f07ef138844"
        }
      }
    ]
  },
  "pois_2_5km": {
    "version": 0.6,
    "generator": "Overpass API 0.7.62.8 e802775f",
    "osm3s": {
      "timestamp_osm_base": "2025-09-07T14:27:30Z",
      "copyright": "The data included in this document is from www.openstreetmap.org. The data is made available under ODbL."
    },
    "elements": [
      {
        "type": "node",
        "id": 2226248382,
        "lat": 26.8479918,
        "lon": 80.9394268,
        "tags": {
          "amenity": "cinema"
        }
      },
      {
        "type": "node",
        "id": 4244207745,
        "lat": 26.8415965,
        "lon": 80.9399056,
        "tags": {
          "name": "Sachivalaya",
          "name:hi": "\u0938\u091a\u093f\u0935\u093e\u0932\u092f",
          "network": "Lucknow Metro",
          "note": "Contributors are requested to not edit the \"network\" and the \"operator\" tags. (2023/11/08)",
          "operator": "Lucknow Metro Rail Corporation Limited",
          "public_transport": "station",
          "railway": "station",
          "station": "subway",
          "subway": "yes"
        }
      },
      {
        "type": "node",
        "id": 4292019389,
        "lat": 26.8478371,
        "lon": 80.9472678,
        "tags": {
          "addr:postcode": "226001",
          "addr:street": "Ashok Marg",
          "amenity": "fuel",
          "name": "Sarkar Petrol Pump "
        }
      },
      {
        "type": "node",
        "id": 4977535798,
        "lat": 26.8539423,
        "lon": 80.9368471,
        "tags": {
          "name": "KD Singh Babu Stadium",
          "name:hi": "\u0915\u0947\u0921\u0940 \u0938\u093f\u0902\u0939 \u092c\u093e\u092c\u0942 \u0938\u094d\u091f\u0947\u0921\u093f\u092f\u092e",
          "network": "Lucknow Metro",
          "note": "Contributors are requested to not edit the \"network\" and the \"operator\" tags. (2023/11/08)",
          "operator": "Lucknow Metro Rail Corporation Limited",
          "public_transport": "stop_position",
          "subway": "yes"
        }
      },
      {
        "type": "node",
        "id": 5195189621,
        "lat": 26.8388944,
        "lon": 80.9345356,
        "tags": {
          "amenity": "fuel",
          "brand": "Bharat Petroleum",
          "brand:wikidata": "Q854826",
          "name": "Bharat Petroleum",
          "name:en": "Bharat Petroleum"
        }
      },
      {
        "type": "node",
        "id": 5777575720,
        "lat": 26.8416132,
        "lon": 80.939897,
        "tags": {
          "name": "Sachivalaya",
          "name:hi": "\u0938\u091a\u093f\u0935\u093e\u0932\u092f",
          "network": "Lucknow Metro",
          "note": "Contributors are requested to not edit the \"network\" and the \"operator\" tags. (2023/11/08)",
          "operator": "Lucknow Metro Rail Corporation Limited",
          "public_transport": "stop_position",
          "subway": "yes"
        }
      },
      {
        "type": "node",
        "id": 5790401044,
        "lat": 26.8392677,
        "lon": 80.9335726,
        "tags": {
          "bus": "yes",
          "highway": "bus_stop",
          "name": "Lucknow Main 221 KTM Bike",
          "public_transport": "stop_position"
        }
      },
      {
        "type": "node",
        "id": 5790401045,
        "lat": 26.8390031,
        "lon": 80.9295848,
        "tags": {
          "bus": "yes",
          "highway": "bus_stop",
          "name": "Lucknow Main 221",
          "public_transport": "stop_position"
        }
      },
      {
        "type": "node",
        "id": 5790401046,
        "lat": 26.8374784,
        "lon": 80.9263134,
        "tags": {
          "bus": "yes",
          "highway": "bus_stop",
          "name": "Lucknow Main 221",
          "public_transport": "stop_position"
        }
      },
      {
        "type": "node",
        "id": 6445132136,
        "lat": 26.8500472,
        "lon": 80.9416143,
        "tags": {
          "name": "Hazratganj",
          "name:hi": "\u0939\u091c\u093c\u0930\u0924\u0917\u0902\u091c",
          "network": "Lucknow Metro",
          "note": "Contributors are requested to not edit the \"network\" and the \"operator\" tags. (2023/11/08)",
          "operator": "Lucknow Metro Rail Corporation Limited",
          "public_transport": "stop_position",
          "subway": "yes"
        }
      },
      {
        "type": "node",
        "id": 6445132137,
        "lat": 26.8384284,
        "lon": 80.93433,
        "tags": {
          "name": "Hussainganj",
          "name:hi": "\u0939\u0941\u0938\u0948\u0928\u0917\u0902\u091c",
          "network": "Lucknow Metro",
          "note": "Contributors are requested to not edit the \"network\" and the \"operator\" tags. (2023/11/08)",
          "operator": "Lucknow Metro Rail Corporation Limited",
          "public_transport": "station",
          "railway": "station",
          "station": "subway",
          "subway": "yes"
        }
      },
      {
        "type": "node",
        "id": 6621697158,
        "lat": 26.8422387,
        "lon": 80.940551,
        "tags": {
          "amenity": "fuel",
          "brand": "Hindustan Petroleum"
        }
      },
      {
        "type": "node",
        "id": 6621697161,
        "lat": 26.8411158,
        "lon": 80.9395115,
        "tags": {
          "amenity": "fuel",
          "brand": "Hindustan Petroleum"
        }
      },
      {
        "type": "node",
        "id": 6621697166,
        "lat": 26.8453548,
        "lon": 80.9455528,
        "tags": {
          "amenity": "fuel",
          "brand": "Bharat Petroleum",
          "fuel:diesel": "yes",
          "opening_hours": "24/7"
        }
      },
      {
        "type": "node",
        "id": 6635065569,
        "lat": 26.8481427,
        "lon": 80.9399566,
        "tags": {
          "amenity": "cinema",
          "name": "Novelty MGS Cinemas"
        }
      },
      {
        "type": "node",
        "id": 8006089152,
        "lat": 26.8415797,
        "lon": 80.9399191,
        "tags": {
          "name": "Sachivalaya",
          "name:hi": "\u0938\u091a\u093f\u0935\u093e\u0932\u092f",
          "network": "Lucknow Metro",
          "note": "Contributors are requested to not edit the \"network\" and the \"operator\" tags. (2023/11/08)",
          "operator": "Lucknow Metro Rail Corporation Limited",
          "public_transport": "stop_position",
          "subway": "yes"
        }
      },
      {
        "type": "node",
        "id": 8006089153,
        "lat": 26.8384239,
        "lon": 80.9343499,
        "tags": {
          "name": "Hussainganj",
          "name:hi": "\u0939\u0941\u0938\u0948\u0928\u0917\u0902\u091c",
          "network": "Lucknow Metro",
          "note": "Contributors are requested to not edit the \"network\" and the \"operator\" tags. (2023/11/08)",
          "operator": "Lucknow Metro Rail Corporation Limited",
          "public_transport": "stop_position",
          "railway": "stop",
          "subway": "yes"
        }
      },
      {
        "type": "node",
        "id": 8006089163,
        "lat": 26.8384335,
        "lon": 80.934311,
        "tags": {
          "name": "Hussainganj",
          "name:hi": "\u0939\u0941\u0938\u0948\u0928\u0917\u0902\u091c",
          "network": "Lucknow Metro",
          "note": "Contributors are requested to not edit the \"network\" and the \"operator\" tags. (2023/11/08)",
          "operator": "Lucknow Metro Rail Corporation Limited",
          "public_transport": "stop_position",
          "railway": "stop",
          "subway": "yes"
        }
      },
      {
        "type": "node",
        "id": 9655708800,
        "lat": 26.8539449,
        "lon": 80.9368084,
        "tags": {
          "name": "KD Singh Babu Stadium",
          "name:hi": "\u0915\u0947\u0921\u0940 \u0938\u093f\u0902\u0939 \u092c\u093e\u092c\u0942 \u0938\u094d\u091f\u0947\u0921\u093f\u092f\u092e",
          "network": "Lucknow Metro",
          "note": "Contributors are requested to not edit the \"network\" and the \"operator\" tags. (2023/11/08)",
          "operator": "Lucknow Metro Rail Corporation Limited",
          "public_transport": "station",
          "railway": "station",
          "station": "subway",
          "subway": "yes"
        }
      },
      {
        "type": "node",
        "id": 9655708801,
        "lat": 26.8500335,
        "lon": 80.9415944,
        "tags": {
          "name": "Hazratganj",
          "name:hi": "\u0939\u091c\u093c\u0930\u0924\u0917\u0902\u091c",
          "network": "Lucknow Metro",
          "note": "Contributors are requested to not edit the \"network\" and the \"operator\" tags. (2023/11/08)",
          "operator": "Lucknow Metro Rail Corporation Limited",
          "public_transport": "station",
          "railway": "station",
          "station": "subway",
          "subway": "yes"
        }
      },
      {
        "type": "node",
        "id": 9655728294,
        "lat": 26.8539129,
        "lon": 80.9368026,
        "tags": {
          "name": "KD Singh Babu Stadium",
          "name:hi": "\u0915\u0947\u0921\u0940 \u0938\u093f\u0902\u0939 \u092c\u093e\u092c\u0942 \u0938\u094d\u091f\u0947\u0921\u093f\u092f\u092e",
          "network": "Lucknow Metro",
          "note": "Contributors are requested to not edit the \"network\" and the \"operator\" tags. (2023/11/08)",
          "operator": "Lucknow Metro Rail Corporation Limited",
          "public_transport": "stop_position",
          "subway": "yes"
        }
      },
      {
        "type": "node",
        "id": 9655728299,
        "lat": 26.8500069,
        "lon": 80.9415821,
        "tags": {
          "name": "Hazratganj",
          "name:hi": "\u0939\u091c\u093c\u0930\u0924\u0917\u0902\u091c",
          "network": "Lucknow Metro",
          "note": "Contributors are requested to not edit the \"network\" and the \"operator\" tags. (2023/11/08)",
          "operator": "Lucknow Metro Rail Corporation Limited",
          "public_transport": "stop_position",
          "subway": "yes"
        }
      }
    ]
  }
}