{
  "pois_1km": {
    "version": 0.6,
    "generator": "Overpass API 0.7.62.8 e802775f",
    "osm3s": {
      "timestamp_osm_base": "2025-09-07T14:20:16Z",
      "copyright": "The data included in this document is from www.openstreetmap.org. The data is made available under ODbL."
    },
    "elements": [
      {
        "type": "node",
        "id": 7018564238,
        "lat": 26.8907187,
        "lon": 80.9353687,
        "tags": {
          "addr:district": "Lucknow",
          "addr:full": "Opp-Naveen Galla Mandi , Tarun Dharam Kanta, Sitapur Road",
          "addr:postcode": "226021",
          "addr:state": "Uttar Pradesh",
          "amenity": "clinic",
          "name": "Varshney Clinic and Hospital",
          "source": "OpenGovernmentData"
        }
      },
      {
        "type": "node",
        "id": 7020885960,
        "lat": 26.8850431,
        "lon": 80.9368023,
        "tags": {
          "addr:district": "Lucknow",
          "addr:full": "B-25, Sector-C, Aliganj",
          "addr:postcode": "226024",
          "addr:state": "Uttar Pradesh",
          "amenity": "clinic",
          "name": "Devika Surgical And Maternity Clinic",
          "source": "OpenGovernmentData"
        }
      },
      {
        "type": "node",
        "id": 7020926004,
        "lat": 26.8971164,
        "lon": 80.9368868,
        "tags": {
          "addr:district": "Lucknow",
          "addr:full": "1/95-96 Priyadarshini Colony",
          "addr:postcode": "226024",
          "addr:state": "Uttar Pradesh",
          "amenity": "hospital",
          "healthcare": "hospital",
          "name": "Jeevan Hospital And Trauma Centre",
          "source": "OpenGovernmentData"
        }
      },
      {
        "type": "node",
        "id": 7021010374,
        "lat": 26.8858601,
        "lon": 80.9381582,
        "tags": {
          "addr:district": "Lucknow",
          "addr:full": "A1/11, Sector B, Aliganj",
          "addr:postcode": "226024",
          "addr:state": "Uttar Pradesh",
          "amenity": "hospital",
          "name": "Precision Eye Care",
          "source": "OpenGovernmentData"
        }
      },
      {
        "type": "node",
        "id": 7025113016,
        "lat": 26.8967834,
        "lon": 80.9337847,
        "tags": {
          "addr:district": "Lucknow",
          "addr:full": "1/182 Sector C, Priyadarshini Colony Sitapur Road",
          "addr:postcode": "226010",
          "addr:state": "Uttar Pradesh",
          "amenity": "hospital",
          "name": "Harsha Hospital, Lucknow",
          "source": "OpenGovernmentData"
        }
      },
      {
        "type": "node",
        "id": 7025223729,
        "lat": 26.8943447,
        "lon": 80.9422197,
        "tags": {
          "addr:district": "Lucknow",
          "addr:full": "B-70, Sector- H, Aliganj",
          "addr:postcode": "226024",
          "addr:state": "Uttar Pradesh",
          "amenity": "hospital",
          "name": "Aliganj Orthopadic and Orthoscopy Centre",
          "source": "OpenGovernmentData"
        }
      },
      {
        "type": "node",
        "id": 7027632369,
        "lat": 26.8962346,
        "lon": 80.9360992,
        "tags": {
          "addr:district": "Lucknow",
          "addr:full": "Sector - D, Priyadarshani Colony, Sitapur Road, Near Kiran Gas Agency",
          "addr:postcode": "226020",
          "addr:state": "Uttar Pradesh",
          "amenity": "hospital",
          "healthcare": "hospital",
          "name": "Sushrut Hospital Maternity and Trauma Centre",
          "source": "OpenGovernmentData"
        }
      },
      {
        "type": "node",
        "id": 7027743618,
        "lat": 26.8969322,
        "lon": 80.9419575,
        "tags": {
          "addr:district": "Lucknow",
          "addr:full": "B-1/31, Sector - K, Aliganj",
          "addr:postcode": "226024",
          "addr:state": "Uttar Pradesh",
          "amenity": "hospital",
          "name": "Arushi Medical Center",
          "source": "OpenGovernmentData"
        }
      },
      {
        "type": "node",
        "id": 7029765214,
        "lat": 26.8938644,
        "lon": 80.9364402,
        "tags": {
          "addr:district": "Lucknow",
          "addr:full": "Hig1/20-B,Sector-B, Priyadarshini Colony,Sitapur Road",
          "addr:postcode": "226024",
          "addr:state": "Uttar Pradesh",
          "amenity": "hospital",
          "healthcare": "hospital",
          "name": "Kilkari Child and Mother Care Centre",
          "source": "OpenGovernmentData"
        }
      },
      {
        "type": "node",
        "id": 7510640738,
        "lat": 26.8845556,
        "lon": 80.9308593,
        "tags": {
          "addr:district": "Lucknow",
          "addr:full": "Near Iim Tiraha,Inderpuri Colony,Sitapur Road, Lucknow",
          "addr:postcode": "226020",
          "addr:state": "Uttar Pradesh",
          "amenity": "hospital",
          "name": "Welcome Hospital & Trauma Centre",
          "source": "Local Knowledge"
        }
      },
      {
        "type": "node",
        "id": 7510640805,
        "lat": 26.8890258,
        "lon": 80.9339719,
        "tags": {
          "addr:district": "Lucknow",
          "addr:full": "Sitapur Road, Yogi Nagar, Ahibaranpur, Triveni Nagar, Lucknow",
          "addr:postcode": "226020",
          "addr:state": "Uttar Pradesh",
          "amenity": "hospital",
          "name": "Relief Hospital",
          "source": "Local Knowledge"
        }
      },
      {
        "type": "node",
        "id": 8911017248,
        "lat": 26.8980251,
        "lon": 80.9395706,
        "tags": {
          "amenity": "bank",
          "name": "United Bank Of India (Aliganj)"
        }
      },
      {
        "type": "node",
        "id": 8911017266,
        "lat": 26.8957293,
        "lon": 80.9426592,
        "tags": {
          "amenity": "fast_food",
          "name": "Burger Beans"
        }
      },
      {
        "type": "node",
        "id": 8911017267,
        "lat": 26.895745,
        "lon": 80.9423213,
        "tags": {
          "amenity": "food_court",
          "name": "Golden Leaf"
        }
      },
      {
        "type": "node",
        "id": 8911017268,
        "lat": 26.8955154,
        "lon": 80.9421063,
        "tags": {
          "amenity": "bank",
          "name": "United Bank of India"
        }
      },
      {
        "type": "node",
        "id": 8911017270,
        "lat": 26.8950744,
        "lon": 80.9417677,
        "tags": {
          "amenity": "fast_food",
          "name": "Sree Nath Chicken place"
        }
      },
      {
        "type": "node",
        "id": 8911017272,
        "lat": 26.8944346,
        "lon": 80.9421359,
        "tags": {
          "amenity": "food_court",
          "name": "Summit Food Point"
        }
      },
      {
        "type": "node",
        "id": 8911017274,
        "lat": 26.8945408,
        "lon": 80.9428026,
        "tags": {
          "amenity": "food_court",
          "name": "South Indian Tamil Nadu Dosa"
        }
      }
    ]
  },
  "pois_2_5km": {
    "version": 0.6,
    "generator": "Overpass API 0.7.62.8 e802775f",
    "osm3s": {
      "timestamp_osm_base": "2025-09-07T14:20:16Z",
      "copyright": "The data included in this document is from www.openstreetmap.org. The data is made available under ODbL."
    },
    "elements": [
      {
        "type": "node",
        "id": 564716972,
        "lat": 26.8753418,
        "lon": 80.9275723,
        "tags": {
          "name": "Daliganj",
          "network": "IR",
          "operator": "NER",
          "public_transport": "station",
          "railway": "station",
          "ref": "DAL",
          "wikidata": "Q27962020",
          "wikipedia": "en:Daliganj Junction railway station"
        }
      },
      {
        "type": "node",
        "id": 2219662699,
        "lat": 26.9096328,
        "lon": 80.9395109,
        "tags": {
          "name": "Mohibullapur",
          "network": "IR",
          "operator": "NER",
          "public_transport": "station",
          "railway": "station",
          "ref": "MBP",
          "wikidata": "Q63357514"
        }
      },
      {
        "type": "node",
        "id": 4186033390,
        "lat": 26.8818485,
        "lon": 80.946383,
        "tags": {
          "amenity": "cinema",
          "name": "novelty cinema aliganj"
        }
      },
      {
        "type": "node",
        "id": 4486336190,
        "lat": 26.9105293,
        "lon": 80.9486983,
        "tags": {
          "addr:street": "Ring Road",
          "amenity": "fuel",
          "name:en": "CNG Pump"
        }
      },
      {
        "type": "node",
        "id": 12526298036,
        "lat": 26.9036553,
        "lon": 80.9138099,
        "tags": {
          "amenity": "fuel",
          "brand": "Essar",
          "brand:wikidata": "Q5399372",
          "name": "Essar"
        }
      }
    ]
  }
}