{
  "pois_1km": {
    "version": 0.6,
    "generator": "Overpass API 0.7.62.8 e802775f",
    "osm3s": {
      "timestamp_osm_base": "2025-09-07T14:29:30Z",
      "copyright": "The data included in this document is from www.openstreetmap.org. The data is made available under ODbL."
    },
    "elements": [
      {
        "type": "node",
        "id": 2619549288,
        "lat": 26.8653341,
        "lon": 81.0244622,
        "tags": {
          "amenity": "fast_food",
          "indoor_seating": "no",
          "name": "kathauta chauraha",
          "name:en": "Kathauta Roundabout",
          "name:hi-Latn": "Kathauta Chauraha",
          "outdoor_seating": "no",
          "takeaway": "only"
        }
      },
      {
        "type": "node",
        "id": 6824640954,
        "lat": 26.858999,
        "lon": 81.0211491,
        "tags": {
          "leisure": "park",
          "name": "zhar",
          "opening_hours": "24/7",
          "operator": "atul"
        }
      },
      {
        "type": "node",
        "id": 7018343388,
        "lat": 26.8663756,
        "lon": 81.0220738,
        "tags": {
          "addr:district": "Lucknow",
          "addr:full": "4/33, Vijyant Khand, Kathauta Chauraha Rd, Gomti Nagar",
          "addr:postcode": "226010",
          "addr:state": "Uttar Pradesh",
          "amenity": "hospital",
          "healthcare": "hospital",
          "name": "Rishi Hospital",
          "source": "OpenGovernmentData"
        }
      },
      {
        "type": "node",
        "id": 7035254921,
        "lat": 26.8674679,
        "lon": 81.0253572,
        "tags": {
          "addr:district": "Lucknow",
          "addr:full": "2/142, Vinay Khand ( In Fron Of St. Joseph Hospital), Gomti Nagar",
          "addr:postcode": "226010",
          "addr:state": "Uttar Pradesh",
          "amenity": "hospital",
          "healthcare:speciality": "chiropractic",
          "name": "Sanjivini Lung Centre",
          "source": "OpenGovernmentData"
        }
      },
      {
        "type": "node",
        "id": 7048895993,
        "lat": 26.8631915,
        "lon": 81.0241393,
        "tags": {
          "addr:city": "Lucknow",
          "addr:postcode": "226010",
          "addr:street": "Vinamra Khand, Gomti Nagar",
          "amenity": "cafe",
          "mobile": "7081260018",
          "name": "HIDEOUT CAFE",
          "opening_hours": "Mo-Fr 11:00-02:00"
        }
      },
      {
        "type": "node",
        "id": 11698513949,
        "lat": 26.8607845,
        "lon": 81.0208903,
        "tags": {
          "leisure": "park",
          "name": "Park4"
        }
      },
      {
        "type": "node",
        "id": 11698534703,
        "lat": 26.8631762,
        "lon": 81.0229617,
        "tags": {
          "leisure": "park",
          "name": "Park Opposite"
        }
      },
      {
        "type": "node",
        "id": 11698545046,
        "lat": 26.8649995,
        "lon": 81.0221597,
        "tags": {
          "leisure": "park",
          "name": "Vijyanta Park 2"
        }
      },
      {
        "type": "node",
        "id": 11698552022,
        "lat": 26.8606455,
        "lon": 81.0220681,
        "tags": {
          "leisure": "park",
          "name": "Park 3"
        }
      },
      {
        "type": "node",
        "id": 11698560364,
        "lat": 26.8617658,
        "lon": 81.0211378,
        "tags": {
          "leisure": "park",
          "name": "Park 1233"
        }
      }
    ]
  },
  "pois_2_5km": {
    "version": 0.6,
    "generator": "Overpass API 0.7.62.8 e802775f",
    "osm3s": {
      "timestamp_osm_base": "2025-09-07T14:29:30Z",
      "copyright": "The data included in this document is from www.openstreetmap.org. The data is made available under ODbL."
    },
    "elements": [
      {
        "type": "node",
        "id": 535121349,
        "lat": 26.8605833,
        "lon": 81.0029055,
        "tags": {
          "name": "Gomti Nagar",
          "operator": "NER",
          "railway": "station",
          "ref": "GTNR",
          "wikidata": "Q24949486",
          "wikipedia": "en:Gomti Nagar railway station"
        }
      },
      {
        "type": "node",
        "id": 2196598017,
        "lat": 26.8536826,
        "lon": 81.040798,
        "tags": {
          "name": "Malhaur",
          "network": "IR",
          "operator": "NR",
          "public_transport": "station",
          "railway": "station",
          "ref": "ML",
          "wikidata": "Q63370017"
        }
      },
      {
        "type": "node",
        "id": 4165961096,
        "lat": 26.8625882,
        "lon": 81.0105719,
        "tags": {
          "amenity": "cinema",
          "brand": "Cinepolis",
          "brand:wikidata": "Q5686673",
          "name": "Cinepolis"
        }
      }
    ]
  }
}