{
  "pois_1km": {
    "version": 0.6,
    "generator": "Overpass API 0.7.62.8 e802775f",
    "osm3s": {
      "timestamp_osm_base": "2025-09-07T14:32:35Z",
      "copyright": "The data included in this document is from www.openstreetmap.org. The data is made available under ODbL."
    },
    "elements": [
      {
        "type": "node",
        "id": 4727509133,
        "lat": 26.7949494,
        "lon": 80.9106601,
        "tags": {
          "amenity": "atm"
        }
      },
      {
        "type": "node",
        "id": 4727512743,
        "lat": 26.7941789,
        "lon": 80.9120734,
        "tags": {
          "amenity": "atm",
          "name": "pnb"
        }
      },
      {
        "type": "node",
        "id": 4727513800,
        "lat": 26.7938601,
        "lon": 80.9130086,
        "tags": {
          "amenity": "bank",
          "brand:wikidata": "Q2003611",
          "name": "Indian Overseas Bank",
          "name:en": "Indian Overseas Bank",
          "short_name": "IOB",
          "website": "https://www.iob.in"
        }
      },
      {
        "type": "node",
        "id": 7008982842,
        "lat": 26.784019,
        "lon": 80.9071112,
        "tags": {
          "description": "This is a park named after the Vice-chancellor of the college. ",
          "leisure": "park",
          "name": "VC Lawn"
        }
      },
      {
        "type": "node",
        "id": 7008982843,
        "lat": 26.7843018,
        "lon": 80.9070113,
        "tags": {
          "leisure": "park"
        }
      },
      {
        "type": "node",
        "id": 7018011404,
        "lat": 26.7902712,
        "lon": 80.913268,
        "tags": {
          "addr:district": "Lucknow",
          "addr:full": "K-956-961, Aashiana Colony",
          "addr:postcode": "226012",
          "addr:state": "Uttar Pradesh",
          "amenity": "hospital",
          "name": "Vaishali Maternity and Infertility Centre",
          "source": "OpenGovernmentData"
        }
      },
      {
        "type": "node",
        "id": 7018026502,
        "lat": 26.7905447,
        "lon": 80.898027,
        "tags": {
          "addr:district": "Lucknow",
          "addr:full": "Nh 1, Sector D(Adjacent To Community Hall),Lda Colony ,Kanpur Road",
          "addr:postcode": "226012",
          "addr:state": "Uttar Pradesh",
          "amenity": "hospital",
          "name": "Ganga Childrens Hospital",
          "source": "OpenGovernmentData"
        }
      },
      {
        "type": "node",
        "id": 7018108331,
        "lat": 26.799298,
        "lon": 80.9056827,
        "tags": {
          "addr:district": "Lucknow",
          "addr:full": "4 And 8, Damodar Nagar, V I P Road, Alanbagh",
          "addr:postcode": "226005",
          "addr:state": "Uttar Pradesh",
          "amenity": "hospital",
          "name": "Raj Chandra Hospital And Research Centre",
          "source": "OpenGovernmentData"
        }
      },
      {
        "type": "node",
        "id": 7177530143,
        "lat": 26.7934993,
        "lon": 80.9011249,
        "tags": {
          "addr:district": "Lucknow",
          "addr:full": "Near Bargawa, Ashiyana, Kanpur Road, LDA Colony,",
          "addr:postcode": "226012",
          "addr:state": "Uttar Pradesh",
          "amenity": "hospital",
          "description": "District Hospital",
          "name": "Lokbandhu Sri Rajnarain Combined Hospital",
          "name:etymology:wikidata": "Q7285331",
          "source": "OpenGovernmentData"
        }
      },
      {
        "type": "node",
        "id": 7510640712,
        "lat": 26.7903108,
        "lon": 80.9100492,
        "tags": {
          "addr:district": "Lucknow",
          "addr:full": "Sector H, Lda Colony, Lucknow",
          "addr:postcode": "226012",
          "addr:state": "Uttar Pradesh",
          "amenity": "hospital",
          "name": "Kiran Hospital and Maternity Home",
          "source": "Local Knowledge"
        }
      },
      {
        "type": "node",
        "id": 7510640717,
        "lat": 26.7906841,
        "lon": 80.9001343,
        "tags": {
          "addr:district": "Lucknow",
          "addr:full": "Kanpur Road, Sector D, Lda Colony, Lucknow",
          "addr:postcode": "226012",
          "addr:state": "Uttar Pradesh",
          "amenity": "hospital",
          "name": "Saha Hospital",
          "source": "Local Knowledge"
        }
      },
      {
        "type": "node",
        "id": 7510640746,
        "lat": 26.7907714,
        "lon": 80.9044492,
        "tags": {
          "addr:district": "Lucknow",
          "addr:full": "Prem Plaza, Sector G, Lda Colony, Lucknow",
          "addr:postcode": "226012",
          "addr:state": "Uttar Pradesh",
          "amenity": "hospital",
          "name": "CGHS Wellness Centre-3",
          "source": "Local Knowledge"
        }
      },
      {
        "type": "node",
        "id": 7510640801,
        "lat": 26.7891714,
        "lon": 80.9100076,
        "tags": {
          "addr:district": "Lucknow",
          "addr:full": "Vandana Plaza, Power House Road, Sector K, Ashiyana, Lucknow",
          "addr:postcode": "226012",
          "addr:state": "Uttar Pradesh",
          "amenity": "hospital",
          "name": "Shaurya Hospital",
          "source": "Local Knowledge"
        }
      },
      {
        "type": "node",
        "id": 7510640806,
        "lat": 26.7889169,
        "lon": 80.9013158,
        "tags": {
          "addr:district": "Lucknow",
          "addr:full": "Near Spring Dale College, L.D.A Colony, Kanpur Road, Lucknow",
          "addr:postcode": "226012",
          "addr:state": "Uttar Pradesh",
          "amenity": "hospital",
          "name": "Roy's Hospital Centre",
          "source": "Local Knowledge"
        }
      },
      {
        "type": "node",
        "id": 7510640808,
        "lat": 26.797846,
        "lon": 80.9000673,
        "tags": {
          "addr:district": "Lucknow",
          "addr:full": "Opp. Phoenix Mall, Sector B Road, Lucknow",
          "addr:postcode": "226012",
          "addr:state": "Uttar Pradesh",
          "amenity": "hospital",
          "name": "SKD Hospital",
          "source": "Local Knowledge"
        }
      },
      {
        "type": "node",
        "id": 7510640815,
        "lat": 26.7869465,
        "lon": 80.8995506,
        "tags": {
          "addr:district": "Lucknow",
          "addr:full": "Kanpur Road, Ashiyana, Lucknow",
          "addr:postcode": "226012",
          "addr:state": "Uttar Pradesh",
          "amenity": "hospital",
          "name": "Surgical Nursing Home",
          "source": "Local Knowledge"
        }
      },
      {
        "type": "node",
        "id": 10896553227,
        "lat": 26.7963383,
        "lon": 80.907648,
        "tags": {
          "addr:city": "lunknow",
          "amenity": "food_court",
          "internet_access": "no",
          "opening_hours": "Mo-Su 09:00-21:00"
        }
      },
      {
        "type": "node",
        "id": 10899736221,
        "lat": 26.7889773,
        "lon": 80.9093591,
        "tags": {
          "amenity": "fast_food",
          "cuisine": "juice;regional",
          "diet:vegetarian": "yes",
          "opening_hours": "Mo-Su 10:00-22:00"
        }
      },
      {
        "type": "node",
        "id": 10899768635,
        "lat": 26.7873658,
        "lon": 80.9088006,
        "tags": {
          "name": "Fashion Factory",
          "shop": "mall"
        }
      },
      {
        "type": "node",
        "id": 10899882070,
        "lat": 26.7896313,
        "lon": 80.9076654,
        "tags": {
          "amenity": "restaurant",
          "name": "Thr Punjab - barbeque and Grill",
          "opening_hours": "Mo-Su 10:00-22:00"
        }
      },
      {
        "type": "node",
        "id": 12041178534,
        "lat": 26.7981769,
        "lon": 80.9015504,
        "tags": {
          "addr:city": "Lucknow",
          "addr:district": "Lucknow",
          "addr:postcode": "226012",
          "addr:street": "Apollomedics superspeciality hospital, Sector B",
          "amenity": "hospital",
          "healthcare": "hospital",
          "healthcare:speciality": "nephrology",
          "name": "Dr Manish Sharma",
          "operator": "Novosalus Technology",
          "operator:type": "private"
        }
      }
    ]
  },
  "pois_2_5km": {
    "version": 0.6,
    "generator": "Overpass API 0.7.62.8 e802775f",
    "osm3s": {
      "timestamp_osm_base": "2025-09-07T14:32:35Z",
      "copyright": "The data included in this document is from www.openstreetmap.org. The data is made available under ODbL."
    },
    "elements": [
      {
        "type": "node",
        "id": 2194710817,
        "lat": 26.7774158,
        "lon": 80.9026554,
        "tags": {
          "name": "Lucknow Amausi Airport",
          "operator": "NR",
          "railway": "station"
        }
      },
      {
        "type": "node",
        "id": 3097223409,
        "lat": 26.7988392,
        "lon": 80.8968316,
        "tags": {
          "amenity": "cinema",
          "brand": "PVR Cinemas",
          "brand:wikidata": "Q3359908",
          "name": "PVR Cinemas",
          "opening_hours": "Mo-Su 10:00-22:00",
          "short_name": "PVR"
        }
      },
      {
        "type": "node",
        "id": 3997322402,
        "lat": 26.794391,
        "lon": 80.891762,
        "tags": {
          "name": "Krishna Nagar",
          "name:hi": "\u0915\u0943\u0937\u094d\u0923\u093e \u0928\u0917\u0930",
          "network": "Lucknow Metro",
          "note": "Contributors are requested to not edit the \"network\" and the \"operator\" tags. (2023/11/08)",
          "operator": "Lucknow Metro Rail Corporation Limited",
          "public_transport": "station",
          "railway": "station",
          "station": "subway",
          "subway": "yes"
        }
      },
      {
        "type": "node",
        "id": 3997322776,
        "lat": 26.8030998,
        "lon": 80.8964272,
        "tags": {
          "name": "Singar Nagar",
          "name:hi": "\u0938\u093f\u0902\u0917\u093e\u0930 \u0928\u0917\u0930",
          "network": "Lucknow Metro",
          "note": "Contributors are requested to not edit the \"network\" and the \"operator\" tags. (2023/11/08)",
          "operator": "Lucknow Metro Rail Corporation Limited",
          "public_transport": "station",
          "railway": "station",
          "station": "subway",
          "subway": "yes",
          "wheelchair": "yes"
        }
      },
      {
        "type": "node",
        "id": 4727514579,
        "lat": 26.7905004,
        "lon": 80.9252067,
        "tags": {
          "amenity": "fuel"
        }
      },
      {
        "type": "node",
        "id": 5777576805,
        "lat": 26.7944007,
        "lon": 80.8917436,
        "tags": {
          "name": "Krishna Nagar",
          "name:hi": "\u0915\u0943\u0937\u094d\u0923\u093e \u0928\u0917\u0930",
          "network": "Lucknow Metro",
          "note": "Contributors are requested to not edit the \"network\" and the \"operator\" tags. (2023/11/08)",
          "operator": "Lucknow Metro Rail Corporation Limited",
          "public_transport": "stop_position",
          "subway": "yes"
        }
      },
      {
        "type": "node",
        "id": 5777576806,
        "lat": 26.8030987,
        "lon": 80.8964109,
        "tags": {
          "name": "Singar Nagar",
          "name:hi": "\u0938\u093f\u0902\u0917\u093e\u0930 \u0928\u0917\u0930",
          "network": "Lucknow Metro",
          "note": "Contributors are requested to not edit the \"network\" and the \"operator\" tags. (2023/11/08)",
          "operator": "Lucknow Metro Rail Corporation Limited",
          "public_transport": "stop_position",
          "railway": "stop",
          "subway": "yes"
        }
      },
      {
        "type": "node",
        "id": 8006089159,
        "lat": 26.8030829,
        "lon": 80.8964507,
        "tags": {
          "name": "Singar Nagar",
          "name:hi": "\u0938\u093f\u0902\u0917\u093e\u0930 \u0928\u0917\u0930",
          "network": "Lucknow Metro",
          "note": "Contributors are requested to not edit the \"network\" and the \"operator\" tags. (2023/11/08)",
          "operator": "Lucknow Metro Rail Corporation Limited",
          "public_transport": "stop_position",
          "subway": "yes"
        }
      },
      {
        "type": "node",
        "id": 8006089160,
        "lat": 26.7943833,
        "lon": 80.8917825,
        "tags": {
          "name": "Krishna Nagar",
          "name:hi": "\u0915\u0943\u0937\u094d\u0923\u093e \u0928\u0917\u0930",
          "network": "Lucknow Metro",
          "note": "Contributors are requested to not edit the \"network\" and the \"operator\" tags. (2023/11/08)",
          "operator": "Lucknow Metro Rail Corporation Limited",
          "public_transport": "stop_position",
          "subway": "yes"
        }
      },
      {
        "type": "node",
        "id": 10899849036,
        "lat": 26.7990009,
        "lon": 80.9140059,
        "tags": {
          "amenity": "fuel",
          "brand": "Bharat Petroleum",
          "brand:wikidata": "Q854826",
          "fuel:diesel": "yes",
          "fuel:petroleum": "yes",
          "name": "Bharat Petroleum"
        }
      },
      {
        "type": "node",
        "id": 10899869144,
        "lat": 26.7873466,
        "lon": 80.9120308,
        "tags": {
          "amenity": "fuel",
          "brand": "Indian Oil Petrol Pump",
          "brand:wikidata": "Q1289348",
          "fuel:diesel": "yes",
          "fuel:petrol": "yes",
          "name": "Indian Oil Petrol Pump"
        }
      }
    ]
  }
}