{
  "pois_1km": {
    "version": 0.6,
    "generator": "Overpass API 0.7.62.8 e802775f",
    "osm3s": {
      "timestamp_osm_base": "2025-09-07T14:06:11Z",
      "copyright": "The data included in this document is from www.openstreetmap.org. The data is made available under ODbL."
    },
    "elements": [
      {
        "type": "node",
        "id": 3097212437,
        "lat": 26.8024464,
        "lon": 80.8957547,
        "tags": {
          "addr:district": "Lucknow",
          "addr:full": "Avadh Hospital Chauraha, 9-D, Singar Nagar, Kanpur Road",
          "addr:postcode": "226005",
          "addr:state": "Uttar Pradesh",
          "amenity": "hospital",
          "name": "Avadh Hospital And Heart Centre",
          "source": "OpenGovernmentData"
        }
      },
      {
        "type": "node",
        "id": 7018026502,
        "lat": 26.7905447,
        "lon": 80.898027,
        "tags": {
          "addr:district": "Lucknow",
          "addr:full": "Nh 1, Sector D(Adjacent To Community Hall),Lda Colony ,Kanpur Road",
          "addr:postcode": "226012",
          "addr:state": "Uttar Pradesh",
          "amenity": "hospital",
          "name": "Ganga Childrens Hospital",
          "source": "OpenGovernmentData"
        }
      },
      {
        "type": "node",
        "id": 7020926057,
        "lat": 26.8068548,
        "lon": 80.8961092,
        "tags": {
          "addr:district": "Lucknow",
          "addr:full": "57- B, Singar Nagar, Alambagh",
          "addr:postcode": "226005",
          "addr:state": "Uttar Pradesh",
          "amenity": "hospital",
          "name": "Sun Eye Hospital And Laser Centre Pvt Ltd",
          "source": "OpenGovernmentData"
        }
      },
      {
        "type": "node",
        "id": 7024791011,
        "lat": 26.7920502,
        "lon": 80.8907247,
        "tags": {
          "addr:district": "Lucknow",
          "addr:full": "Baldikhera, Kanpur Road",
          "addr:postcode": "226001",
          "addr:state": "Uttar Pradesh",
          "amenity": "clinic",
          "name": "Dr. Rama Bhatnagar Nursing Home",
          "source": "OpenGovernmentData"
        }
      },
      {
        "type": "node",
        "id": 7028065727,
        "lat": 26.7973043,
        "lon": 80.8852771,
        "tags": {
          "addr:district": "Lucknow",
          "addr:full": "M-62 Indra Lok Khishna Nagar",
          "addr:postcode": "226021",
          "addr:state": "Uttar Pradesh",
          "amenity": "clinic",
          "name": "Chandra Prabha Nursing Home",
          "source": "OpenGovernmentData"
        }
      },
      {
        "type": "node",
        "id": 7030903305,
        "lat": 26.7922704,
        "lon": 80.8899697,
        "tags": {
          "addr:district": "Lucknow",
          "addr:full": "Vijai Nagar , Kanpur Road",
          "addr:postcode": "226023",
          "addr:state": "Uttar Pradesh",
          "amenity": "hospital",
          "name": "Gupta Hospital - Lucknow",
          "source": "OpenGovernmentData"
        }
      },
      {
        "type": "node",
        "id": 7031760176,
        "lat": 26.7954518,
        "lon": 80.8906576,
        "tags": {
          "addr:district": "Lucknow",
          "addr:full": "Kanpur Road Behind Krishna Nagar Police Station",
          "addr:postcode": "226023",
          "addr:state": "Uttar Pradesh",
          "amenity": "hospital",
          "name": "Lucknow Hospital",
          "source": "OpenGovernmentData"
        }
      },
      {
        "type": "node",
        "id": 7034986685,
        "lat": 26.7965639,
        "lon": 80.8925807,
        "tags": {
          "addr:district": "Lucknow",
          "addr:full": "Krishna Nagar, Kanpur Road",
          "addr:postcode": "226023",
          "addr:state": "Uttar Pradesh",
          "amenity": "hospital",
          "name": "Lal Hospital and Research Centre",
          "source": "OpenGovernmentData"
        }
      },
      {
        "type": "node",
        "id": 7177530143,
        "lat": 26.7934993,
        "lon": 80.9011249,
        "tags": {
          "addr:district": "Lucknow",
          "addr:full": "Near Bargawa, Ashiyana, Kanpur Road, LDA Colony,",
          "addr:postcode": "226012",
          "addr:state": "Uttar Pradesh",
          "amenity": "hospital",
          "description": "District Hospital",
          "name": "Lokbandhu Sri Rajnarain Combined Hospital",
          "name:etymology:wikidata": "Q7285331",
          "source": "OpenGovernmentData"
        }
      },
      {
        "type": "node",
        "id": 7510640724,
        "lat": 26.7980082,
        "lon": 80.8989469,
        "tags": {
          "addr:district": "Lucknow",
          "addr:full": "Near Phoenix Mall, Kanpur Road, Lucknow",
          "addr:postcode": "226012",
          "addr:state": "Uttar Pradesh",
          "amenity": "hospital",
          "healthcare": "hospital",
          "name": "Tulip Eye Hospital",
          "source": "Local Knowledge"
        }
      },
      {
        "type": "node",
        "id": 7510640725,
        "lat": 26.796716,
        "lon": 80.8976756,
        "tags": {
          "addr:district": "Lucknow",
          "addr:full": "Kanpur - Lucknow Road, Sector B, Bargawan, Lda Colony, Lucknow",
          "addr:postcode": "226012",
          "addr:state": "Uttar Pradesh",
          "amenity": "hospital",
          "name": "Greens Medical Centre",
          "source": "Local Knowledge"
        }
      },
      {
        "type": "node",
        "id": 7510640749,
        "lat": 26.7977709,
        "lon": 80.8869151,
        "tags": {
          "addr:district": "Lucknow",
          "addr:full": "Gopal Nagar, Krishna Nagar, Alambagh, Lucknow",
          "addr:postcode": "226023",
          "addr:state": "Uttar Pradesh",
          "amenity": "hospital",
          "name": "Silverline Hospital",
          "source": "Local Knowledge"
        }
      },
      {
        "type": "node",
        "id": 7510640765,
        "lat": 26.7913344,
        "lon": 80.8897137,
        "tags": {
          "addr:district": "Lucknow",
          "addr:full": "Station Road, Cipet College, Gindan Khera, Lucknow",
          "addr:postcode": "226008",
          "addr:state": "Uttar Pradesh",
          "amenity": "hospital",
          "name": "Saina Charitable Hospital",
          "source": "Local Knowledge"
        }
      },
      {
        "type": "node",
        "id": 7510640766,
        "lat": 26.7935391,
        "lon": 80.888399,
        "tags": {
          "addr:district": "Lucknow",
          "addr:full": "Manokanika Road, Vijay Nagar Colony, Krishna Nagar, Alambagh, Lucknow",
          "addr:postcode": "226005",
          "addr:state": "Uttar Pradesh",
          "amenity": "hospital",
          "name": "Eye Q Super Speciality Eye Hospital",
          "source": "Local Knowledge"
        }
      },
      {
        "type": "node",
        "id": 7510640779,
        "lat": 26.7954249,
        "lon": 80.8933345,
        "tags": {
          "addr:district": "Lucknow",
          "addr:full": "Bargawan, L.D.A Turn (Community), Kanpur Road, Lucknow",
          "addr:postcode": "226012",
          "addr:state": "Uttar Pradesh",
          "amenity": "hospital",
          "name": "Balaji Hospital & Eye Centre",
          "source": "Local Knowledge"
        }
      },
      {
        "type": "node",
        "id": 7510640784,
        "lat": 26.8020406,
        "lon": 80.8967853,
        "tags": {
          "addr:district": "Lucknow",
          "addr:full": "Sneh Nagar, Vip Road, Near Gramin Bank Of Aryavart, Alambagh, Lucknow",
          "addr:postcode": "226005",
          "addr:state": "Uttar Pradesh",
          "amenity": "clinic",
          "name": "Madhavbaug Clinic",
          "source": "Local Knowledge"
        }
      },
      {
        "type": "node",
        "id": 7510640785,
        "lat": 26.7928072,
        "lon": 80.8891023,
        "tags": {
          "addr:district": "Lucknow",
          "addr:full": "Vijay Nagar Colony, Krishna Nagar, Alambagh, Lucknow",
          "addr:postcode": "226023",
          "addr:state": "Uttar Pradesh",
          "amenity": "hospital",
          "name": "CMC Medical Centre",
          "source": "Local Knowledge"
        }
      },
      {
        "type": "node",
        "id": 7510640786,
        "lat": 26.8003634,
        "lon": 80.8972183,
        "tags": {
          "addr:district": "Lucknow",
          "addr:full": "Kanpur Road, Sector - B, Lda Colony, Lucknow",
          "addr:postcode": "226012",
          "addr:state": "Uttar Pradesh",
          "amenity": "hospital",
          "name": "Rajaram Hospital",
          "source": "Local Knowledge"
        }
      },
      {
        "type": "node",
        "id": 7510640799,
        "lat": 26.7980243,
        "lon": 80.8858923,
        "tags": {
          "addr:district": "Lucknow",
          "addr:full": "Indralok Market, Indralok Colony, Krishna Nagar, Alambagh, Lucknow",
          "addr:postcode": "226012",
          "addr:state": "Uttar Pradesh",
          "amenity": "hospital",
          "name": "Dr.Manju Pankaj Tripathi Diagnostics and Multi Speciality Hospital",
          "source": "Local Knowledge"
        }
      },
      {
        "type": "node",
        "id": 7510640804,
        "lat": 26.8041859,
        "lon": 80.8923008,
        "tags": {
          "addr:district": "Lucknow",
          "addr:full": "Singar Nagar, Alambagh, Lucknow",
          "addr:postcode": "226005",
          "addr:state": "Uttar Pradesh",
          "amenity": "hospital",
          "name": "Deo's Medical and Surgical",
          "source": "Local Knowledge"
        }
      },
      {
        "type": "node",
        "id": 7510640808,
        "lat": 26.797846,
        "lon": 80.9000673,
        "tags": {
          "addr:district": "Lucknow",
          "addr:full": "Opp. Phoenix Mall, Sector B Road, Lucknow",
          "addr:postcode": "226012",
          "addr:state": "Uttar Pradesh",
          "amenity": "hospital",
          "name": "SKD Hospital",
          "source": "Local Knowledge"
        }
      },
      {
        "type": "node",
        "id": 9590868465,
        "lat": 26.7990317,
        "lon": 80.8968591,
        "tags": {
          "amenity": "fast_food",
          "brand": "McDonald's",
          "brand:wikidata": "Q38076",
          "changing_table": "no",
          "changing_table:fee": "no",
          "cuisine": "burger",
          "highchair": "yes",
          "level": "0",
          "name": "McDonald's",
          "opening_hours": "PH,Mo-Su 11:00-23:00",
          "smoking": "no",
          "takeaway": "yes",
          "toilets:access": "permissive",
          "toilets:wheelchair": "no",
          "wheelchair": "limited"
        }
      },
      {
        "type": "node",
        "id": 9590868467,
        "lat": 26.7985068,
        "lon": 80.8976694,
        "tags": {
          "amenity": "cafe",
          "cuisine": "sandwich;noodle;coffee_shop;pasta",
          "level": "0",
          "name": "The Hazelnut Factory - Alambagh",
          "opening_hours": "Mo-Su 08:30-23:30",
          "shop": "bakery",
          "takeaway": "yes",
          "toilets:access": "customers",
          "toilets:wheelchair": "no",
          "wheelchair": "limited"
        }
      },
      {
        "type": "node",
        "id": 9590887407,
        "lat": 26.7988187,
        "lon": 80.8972237,
        "tags": {
          "amenity": "cafe",
          "brand": "Cafe Coffee Day",
          "brand:wikidata": "Q5017235",
          "changing_table": "no",
          "changing_table:fee": "no",
          "cuisine": "coffee_shop",
          "kids_area": "no",
          "kids_area:fee": "no",
          "kids_area:indoor": "no",
          "kids_area:outdoor": "no",
          "kids_area:supervised": "no",
          "level": "0",
          "name": "Cafe Coffee Day",
          "opening_hours": "Mo-Su 09:00-23:15",
          "smoking": "no",
          "takeaway": "yes",
          "toilets": "no",
          "toilets:access": "yes",
          "toilets:wheelchair": "limited",
          "wheelchair": "limited"
        }
      },
      {
        "type": "node",
        "id": 12041178534,
        "lat": 26.7981769,
        "lon": 80.9015504,
        "tags": {
          "addr:city": "Lucknow",
          "addr:district": "Lucknow",
          "addr:postcode": "226012",
          "addr:street": "Apollomedics superspeciality hospital, Sector B",
          "amenity": "hospital",
          "healthcare": "hospital",
          "healthcare:speciality": "nephrology",
          "name": "Dr Manish Sharma",
          "operator": "Novosalus Technology",
          "operator:type": "private"
        }
      }
    ]
  },
  "pois_2_5km": {
    "version": 0.6,
    "generator": "Overpass API 0.7.62.8 e802775f",
    "osm3s": {
      "timestamp_osm_base": "2025-09-07T14:06:11Z",
      "copyright": "The data included in this document is from www.openstreetmap.org. The data is made available under ODbL."
    },
    "elements": [
      {
        "type": "node",
        "id": 2194710817,
        "lat": 26.7774158,
        "lon": 80.9026554,
        "tags": {
          "name": "Lucknow Amausi Airport",
          "operator": "NR",
          "railway": "station"
        }
      },
      {
        "type": "node",
        "id": 3097223409,
        "lat": 26.7988392,
        "lon": 80.8968316,
        "tags": {
          "amenity": "cinema",
          "brand": "PVR Cinemas",
          "brand:wikidata": "Q3359908",
          "name": "PVR Cinemas",
          "opening_hours": "Mo-Su 10:00-22:00",
          "short_name": "PVR"
        }
      },
      {
        "type": "node",
        "id": 3997322401,
        "lat": 26.8140101,
        "lon": 80.9025123,
        "tags": {
          "name": "Alambagh",
          "name:hi": "\u0906\u0932\u092e\u092c\u093e\u0917\u093c",
          "network": "Lucknow Metro",
          "note": "Contributors are requested to not edit the \"network\" and the \"operator\" tags. (2023/11/08)",
          "operator": "Lucknow Metro Rail Corporation Limited",
          "public_transport": "station",
          "railway": "station",
          "station": "subway",
          "subway": "yes",
          "wikidata": "Q17049199"
        }
      },
      {
        "type": "node",
        "id": 3997322402,
        "lat": 26.794391,
        "lon": 80.891762,
        "tags": {
          "name": "Krishna Nagar",
          "name:hi": "\u0915\u0943\u0937\u094d\u0923\u093e \u0928\u0917\u0930",
          "network": "Lucknow Metro",
          "note": "Contributors are requested to not edit the \"network\" and the \"operator\" tags. (2023/11/08)",
          "operator": "Lucknow Metro Rail Corporation Limited",
          "public_transport": "station",
          "railway": "station",
          "station": "subway",
          "subway": "yes"
        }
      },
      {
        "type": "node",
        "id": 3997322776,
        "lat": 26.8030998,
        "lon": 80.8964272,
        "tags": {
          "name": "Singar Nagar",
          "name:hi": "\u0938\u093f\u0902\u0917\u093e\u0930 \u0928\u0917\u0930",
          "network": "Lucknow Metro",
          "note": "Contributors are requested to not edit the \"network\" and the \"operator\" tags. (2023/11/08)",
          "operator": "Lucknow Metro Rail Corporation Limited",
          "public_transport": "station",
          "railway": "station",
          "station": "subway",
          "subway": "yes",
          "wheelchair": "yes"
        }
      },
      {
        "type": "node",
        "id": 5372681324,
        "lat": 26.8148264,
        "lon": 80.9047645,
        "tags": {
          "amenity": "cinema",
          "name": "carnival cinema"
        }
      },
      {
        "type": "node",
        "id": 5777576805,
        "lat": 26.7944007,
        "lon": 80.8917436,
        "tags": {
          "name": "Krishna Nagar",
          "name:hi": "\u0915\u0943\u0937\u094d\u0923\u093e \u0928\u0917\u0930",
          "network": "Lucknow Metro",
          "note": "Contributors are requested to not edit the \"network\" and the \"operator\" tags. (2023/11/08)",
          "operator": "Lucknow Metro Rail Corporation Limited",
          "public_transport": "stop_position",
          "subway": "yes"
        }
      },
      {
        "type": "node",
        "id": 5777576806,
        "lat": 26.8030987,
        "lon": 80.8964109,
        "tags": {
          "name": "Singar Nagar",
          "name:hi": "\u0938\u093f\u0902\u0917\u093e\u0930 \u0928\u0917\u0930",
          "network": "Lucknow Metro",
          "note": "Contributors are requested to not edit the \"network\" and the \"operator\" tags. (2023/11/08)",
          "operator": "Lucknow Metro Rail Corporation Limited",
          "public_transport": "stop_position",
          "railway": "stop",
          "subway": "yes"
        }
      },
      {
        "type": "node",
        "id": 5777576807,
        "lat": 26.814023,
        "lon": 80.9024999,
        "tags": {
          "name": "Alambagh",
          "name:hi": "\u0906\u0932\u092e\u092c\u093e\u0917\u093c",
          "network": "Lucknow Metro",
          "note": "Contributors are requested to not edit the \"network\" and the \"operator\" tags. (2023/11/08)",
          "operator": "Lucknow Metro Rail Corporation Limited",
          "public_transport": "stop_position",
          "subway": "yes"
        }
      },
      {
        "type": "node",
        "id": 7716995066,
        "lat": 26.8106778,
        "lon": 80.8909379,
        "tags": {
          "name": "Manak Nagar",
          "operator": "NR",
          "public_transport": "station",
          "railway": "station",
          "ref": "MKG",
          "train": "yes",
          "wikidata": "Q24949466",
          "wikipedia": "en:Manak Nagar railway station"
        }
      },
      {
        "type": "node",
        "id": 8006089158,
        "lat": 26.8139957,
        "lon": 80.9025308,
        "tags": {
          "name": "Alambagh",
          "name:hi": "\u0906\u0932\u092e\u092c\u093e\u0917\u093c",
          "network": "Lucknow Metro",
          "note": "Contributors are requested to not edit the \"network\" and the \"operator\" tags. (2023/11/08)",
          "operator": "Lucknow Metro Rail Corporation Limited",
          "public_transport": "stop_position",
          "subway": "yes"
        }
      },
      {
        "type": "node",
        "id": 8006089159,
        "lat": 26.8030829,
        "lon": 80.8964507,
        "tags": {
          "name": "Singar Nagar",
          "name:hi": "\u0938\u093f\u0902\u0917\u093e\u0930 \u0928\u0917\u0930",
          "network": "Lucknow Metro",
          "note": "Contributors are requested to not edit the \"network\" and the \"operator\" tags. (2023/11/08)",
          "operator": "Lucknow Metro Rail Corporation Limited",
          "public_transport": "stop_position",
          "subway": "yes"
        }
      },
      {
        "type": "node",
        "id": 8006089160,
        "lat": 26.7943833,
        "lon": 80.8917825,
        "tags": {
          "name": "Krishna Nagar",
          "name:hi": "\u0915\u0943\u0937\u094d\u0923\u093e \u0928\u0917\u0930",
          "network": "Lucknow Metro",
          "note": "Contributors are requested to not edit the \"network\" and the \"operator\" tags. (2023/11/08)",
          "operator": "Lucknow Metro Rail Corporation Limited",
          "public_transport": "stop_position",
          "subway": "yes"
        }
      },
      {
        "type": "node",
        "id": 10899849036,
        "lat": 26.7990009,
        "lon": 80.9140059,
        "tags": {
          "amenity": "fuel",
          "brand": "Bharat Petroleum",
          "brand:wikidata": "Q854826",
          "fuel:diesel": "yes",
          "fuel:petroleum": "yes",
          "name": "Bharat Petroleum"
        }
      },
      {
        "type": "node",
        "id": 10899869144,
        "lat": 26.7873466,
        "lon": 80.9120308,
        "tags": {
          "amenity": "fuel",
          "brand": "Indian Oil Petrol Pump",
          "brand:wikidata": "Q1289348",
          "fuel:diesel": "yes",
          "fuel:petrol": "yes",
          "name": "Indian Oil Petrol Pump"
        }
      }
    ]
  }
}