{
  "pois_1km": {
    "version": 0.6,
    "generator": "Overpass API 0.7.62.8 e802775f",
    "osm3s": {
      "timestamp_osm_base": "2025-09-07T14:25:31Z",
      "copyright": "The data included in this document is from www.openstreetmap.org. The data is made available under ODbL."
    },
    "elements": [
      {
        "type": "node",
        "id": 7018066804,
        "lat": 26.8722807,
        "lon": 80.9764923,
        "tags": {
          "addr:district": "Lucknow",
          "addr:full": "Rida Nursing Home ,1, Sector-9, Vikas Nagar",
          "addr:postcode": "226020",
          "addr:state": "Uttar Pradesh",
          "amenity": "clinic",
          "name": "Rida Nursing Home",
          "source": "OpenGovernmentData"
        }
      },
      {
        "type": "node",
        "id": 7029117900,
        "lat": 26.8724637,
        "lon": 80.9785107,
        "tags": {
          "addr:district": "Lucknow",
          "addr:full": "Shree Rhaghav Bhawan , Reliance Web World , A-26, Indira Nagar",
          "addr:postcode": "226016",
          "addr:state": "Uttar Pradesh",
          "amenity": "hospital",
          "name": "Suri Medical Foundation Hospital",
          "source": "OpenGovernmentData"
        }
      },
      {
        "type": "node",
        "id": 7030358678,
        "lat": 26.8697132,
        "lon": 80.9782691,
        "tags": {
          "addr:district": "Lucknow",
          "addr:full": "20, Ravindra Palli, Faizabad, road",
          "addr:postcode": "226016",
          "addr:state": "Uttar Pradesh",
          "amenity": "hospital",
          "healthcare": "hospital",
          "name": "Gayatri Hospital, Lucknow",
          "source": "OpenGovernmentData"
        }
      },
      {
        "type": "node",
        "id": 7031572221,
        "lat": 26.8713828,
        "lon": 80.9760343,
        "tags": {
          "addr:district": "Lucknow",
          "addr:full": "# 1, Maruti Puram, Faizabad Road, Opposite Lekhraj Khanzana, Indira Nagar",
          "addr:postcode": "226001",
          "addr:state": "Uttar Pradesh",
          "amenity": "hospital",
          "name": "Manjula Hospital And Trauma Centre",
          "source": "OpenGovernmentData"
        }
      },
      {
        "type": "node",
        "id": 7038760203,
        "lat": 26.8697774,
        "lon": 80.9723262,
        "tags": {
          "addr:district": "Lucknow",
          "addr:full": "Goel Plaza,Opp Sahara Shopping Complex,Faizabad Road",
          "addr:postcode": "226006",
          "addr:state": "Uttar Pradesh",
          "amenity": "hospital",
          "name": "Goel Hospital, Lucknow",
          "source": "OpenGovernmentData"
        }
      },
      {
        "type": "node",
        "id": 8752312548,
        "lat": 26.8688699,
        "lon": 80.9745604,
        "tags": {
          "amenity": "restaurant",
          "name": "Srivastava Bhojnalaya"
        }
      },
      {
        "type": "node",
        "id": 10605470638,
        "lat": 26.8724179,
        "lon": 80.9807104,
        "tags": {
          "amenity": "restaurant",
          "cuisine": "indian",
          "name": "Aadab e Dastarkhwan"
        }
      },
      {
        "type": "node",
        "id": 10605651828,
        "lat": 26.8711509,
        "lon": 80.9756575,
        "tags": {
          "amenity": "cafe",
          "name": "Cafe Repertwahr"
        }
      },
      {
        "type": "node",
        "id": 10605651830,
        "lat": 26.8715733,
        "lon": 80.9735083,
        "tags": {
          "amenity": "cafe",
          "brand": "Cafe Coffee Day",
          "brand:wikidata": "Q5017235",
          "cuisine": "coffee_shop",
          "name": "Cafe Coffee Day",
          "takeaway": "yes"
        }
      },
      {
        "type": "node",
        "id": 10605651885,
        "lat": 26.8722127,
        "lon": 80.9772838,
        "tags": {
          "amenity": "bank",
          "brand": "HDFC Bank",
          "brand:wikidata": "Q631047",
          "name": "HDFC Bank",
          "short_name": "HDFC"
        }
      },
      {
        "type": "node",
        "id": 11233594352,
        "lat": 26.8736186,
        "lon": 80.9776393,
        "tags": {
          "amenity": "atm",
          "branch": "Indira Nagar, Lucknow",
          "brand": "Punjab National Bank",
          "brand:wikidata": "Q2743499",
          "operator": "Punjab National Bank",
          "operator:wikidata": "Q2743499"
        }
      },
      {
        "type": "node",
        "id": 13110639464,
        "lat": 26.8740021,
        "lon": 80.9775652,
        "tags": {
          "air_conditioning": "yes",
          "amenity": "restaurant",
          "bar": "no",
          "cuisine": "indian",
          "diet:vegetarian": "yes",
          "level": "0",
          "name": "Curry Leaf",
          "outdoor_seating": "no",
          "reservation": "yes"
        }
      }
    ]
  },
  "pois_2_5km": {
    "version": 0.6,
    "generator": "Overpass API 0.7.62.8 e802775f",
    "osm3s": {
      "timestamp_osm_base": "2025-09-07T14:25:31Z",
      "copyright": "The data included in this document is from www.openstreetmap.org. The data is made available under ODbL."
    },
    "elements": [
      {
        "type": "node",
        "id": 534852993,
        "lat": 26.8707127,
        "lon": 80.9630368,
        "tags": {
          "amenity": "fuel",
          "name": "IOCL",
          "operator": "IOCL"
        }
      },
      {
        "type": "node",
        "id": 534853237,
        "lat": 26.8650887,
        "lon": 80.996398,
        "tags": {
          "amenity": "fuel",
          "brand": "Indian Oil Petrol Pump",
          "brand:wikidata": "Q1289348",
          "name": "Indian Oil Petrol Pump",
          "operator": "IOCL"
        }
      },
      {
        "type": "node",
        "id": 534853247,
        "lat": 26.8720047,
        "lon": 80.9964674,
        "tags": {
          "amenity": "fuel",
          "brand": "Indian Oil",
          "brand:wikidata": "Q1289348",
          "compressed_air": "yes",
          "name": "Indian Oil Petrol Station",
          "operator": "IBP"
        }
      },
      {
        "type": "node",
        "id": 2213443829,
        "lat": 26.8689884,
        "lon": 80.9614569,
        "tags": {
          "name": "Badshahnagar",
          "network": "IR",
          "operator": "NER",
          "public_transport": "station",
          "railway": "station",
          "ref": "BNZ",
          "wikidata": "Q12441382",
          "wikipedia": "en:Badshahnagar railway station"
        }
      },
      {
        "type": "node",
        "id": 2214748503,
        "lat": 26.856771,
        "lon": 80.9729819,
        "tags": {
          "amenity": "fuel",
          "brand": "Bharat Petroleum"
        }
      },
      {
        "type": "node",
        "id": 2217075733,
        "lat": 26.8711954,
        "lon": 80.9584756,
        "tags": {
          "amenity": "cinema",
          "name": "Umrao Cineplex"
        }
      },
      {
        "type": "node",
        "id": 4169719265,
        "lat": 26.8699998,
        "lon": 80.9971593,
        "tags": {
          "amenity": "theatre",
          "check_date": "2024-10-15",
          "name": "Wave Cinemas"
        }
      },
      {
        "type": "node",
        "id": 4977535811,
        "lat": 26.8708981,
        "lon": 80.9739102,
        "tags": {
          "name": "Lekhraj Market",
          "name:hi": "\u0932\u0947\u0916\u0930\u093e\u091c \u092e\u093e\u0930\u094d\u0915\u0947\u091f",
          "network": "Lucknow Metro",
          "note": "Contributors are requested to not edit the \"network\" and the \"operator\" tags. (2023/11/08)",
          "operator": "Lucknow Metro Rail Corporation Limited",
          "public_transport": "stop_position",
          "railway": "stop",
          "subway": "yes"
        }
      },
      {
        "type": "node",
        "id": 4977535820,
        "lat": 26.8706788,
        "lon": 80.9610675,
        "tags": {
          "name": "Badshah Nagar",
          "name:hi": "\u092c\u093e\u0926\u0936\u093e\u0939 \u0928\u0917\u0930",
          "network": "Lucknow Metro",
          "note": "Contributors are requested to not edit the \"network\" and the \"operator\" tags. (2023/11/08)",
          "operator": "Lucknow Metro Rail Corporation Limited",
          "public_transport": "stop_position",
          "subway": "yes"
        }
      },
      {
        "type": "node",
        "id": 4977536038,
        "lat": 26.8726989,
        "lon": 80.9908838,
        "tags": {
          "name": "Indira Nagar",
          "name:hi": "\u0907\u0902\u0926\u093f\u0930\u093e \u0928\u0917\u0930",
          "network": "Lucknow Metro",
          "note": "Contributors are requested to not edit the \"network\" and the \"operator\" tags. (2023/11/08)",
          "operator": "Lucknow Metro Rail Corporation Limited",
          "public_transport": "stop_position",
          "railway": "stop",
          "subway": "yes"
        }
      },
      {
        "type": "node",
        "id": 6223289522,
        "lat": 26.8579165,
        "lon": 80.98439,
        "tags": {
          "amenity": "theatre",
          "theatre:type": "amphi"
        }
      },
      {
        "type": "node",
        "id": 6445132135,
        "lat": 26.8722077,
        "lon": 80.9823048,
        "tags": {
          "name": "Bhootnath Market",
          "name:hi": "\u092d\u0942\u0924\u0928\u093e\u0925 \u092e\u093e\u0930\u094d\u0915\u0947\u091f",
          "network": "Lucknow Metro",
          "note": "Contributors are requested to not edit the \"network\" and the \"operator\" tags. (2023/11/08)",
          "operator": "Lucknow Metro Rail Corporation Limited",
          "public_transport": "stop_position",
          "railway": "stop",
          "subway": "yes"
        }
      },
      {
        "type": "node",
        "id": 6627215625,
        "lat": 26.8554808,
        "lon": 80.973177,
        "tags": {
          "amenity": "theatre",
          "level": "1",
          "name": "Sant Gadge Ji Maharaj Auditorium",
          "name:hi": "\u0938\u0928\u094d\u0924 \u0917\u093e\u0921\u0917\u0947 \u091c\u0940 \u092e\u0939\u093e\u0930\u093e\u091c \u092a\u094d\u0930\u0947\u0915\u094d\u0937\u093e\u0917\u0943\u0939"
        }
      },
      {
        "type": "node",
        "id": 6627215626,
        "lat": 26.8555677,
        "lon": 80.9732368,
        "tags": {
          "amenity": "theatre",
          "level": "0",
          "name": "Valmiki Rangshala",
          "name:hi": "\u0935\u093e\u0932\u094d\u092e\u0940\u0915\u093f \u0930\u0902\u0917\u0936\u093e\u0932\u093e"
        }
      },
      {
        "type": "node",
        "id": 9655708793,
        "lat": 26.8709686,
        "lon": 80.9738961,
        "tags": {
          "name": "Lekhraj Market",
          "name:hi": "\u0932\u0947\u0916\u0930\u093e\u091c \u092e\u093e\u0930\u094d\u0915\u0947\u091f",
          "network": "Lucknow Metro",
          "note": "Contributors are requested to not edit the \"network\" and the \"operator\" tags. (2023/11/08)",
          "operator": "Lucknow Metro Rail Corporation Limited",
          "public_transport": "station",
          "railway": "station",
          "station": "subway",
          "subway": "yes"
        }
      },
      {
        "type": "node",
        "id": 9655708795,
        "lat": 26.8727659,
        "lon": 80.9909732,
        "tags": {
          "name": "Indira Nagar",
          "name:hi": "\u0907\u0902\u0926\u093f\u0930\u093e \u0928\u0917\u0930",
          "network": "Lucknow Metro",
          "note": "Contributors are requested to not edit the \"network\" and the \"operator\" tags. (2023/11/08)",
          "operator": "Lucknow Metro Rail Corporation Limited",
          "public_transport": "station",
          "railway": "station",
          "station": "subway",
          "subway": "yes"
        }
      },
      {
        "type": "node",
        "id": 9655708796,
        "lat": 26.8722368,
        "lon": 80.9823474,
        "tags": {
          "name": "Bhootnath Market",
          "name:hi": "\u092d\u0942\u0924\u0928\u093e\u0925 \u092e\u093e\u0930\u094d\u0915\u0947\u091f",
          "network": "Lucknow Metro",
          "note": "Contributors are requested to not edit the \"network\" and the \"operator\" tags. (2023/11/08)",
          "operator": "Lucknow Metro Rail Corporation Limited",
          "public_transport": "station",
          "railway": "station",
          "station": "subway",
          "subway": "yes"
        }
      },
      {
        "type": "node",
        "id": 9655708797,
        "lat": 26.8706977,
        "lon": 80.9610133,
        "tags": {
          "name": "Badshah Nagar",
          "name:hi": "\u092c\u093e\u0926\u0936\u093e\u0939 \u0928\u0917\u0930",
          "network": "Lucknow Metro",
          "note": "Contributors are requested to not edit the \"network\" and the \"operator\" tags. (2023/11/08)",
          "operator": "Lucknow Metro Rail Corporation Limited",
          "public_transport": "station",
          "railway": "station",
          "station": "subway",
          "subway": "yes"
        }
      },
      {
        "type": "node",
        "id": 9655728217,
        "lat": 26.8727682,
        "lon": 80.9908727,
        "tags": {
          "name": "Indira Nagar",
          "name:hi": "\u0907\u0902\u0926\u093f\u0930\u093e \u0928\u0917\u0930",
          "network": "Lucknow Metro",
          "note": "Contributors are requested to not edit the \"network\" and the \"operator\" tags. (2023/11/08)",
          "operator": "Lucknow Metro Rail Corporation Limited",
          "public_transport": "stop_position",
          "railway": "stop",
          "subway": "yes"
        }
      },
      {
        "type": "node",
        "id": 9655728224,
        "lat": 26.8722671,
        "lon": 80.9823039,
        "tags": {
          "name": "Bhootnath Market",
          "name:hi": "\u092d\u0942\u0924\u0928\u093e\u0925 \u092e\u093e\u0930\u094d\u0915\u0947\u091f",
          "network": "Lucknow Metro",
          "note": "Contributors are requested to not edit the \"network\" and the \"operator\" tags. (2023/11/08)",
          "operator": "Lucknow Metro Rail Corporation Limited",
          "public_transport": "stop_position",
          "railway": "stop",
          "subway": "yes"
        }
      },
      {
        "type": "node",
        "id": 9655728230,
        "lat": 26.8709474,
        "lon": 80.973895,
        "tags": {
          "name": "Lekhraj Market",
          "name:hi": "\u0932\u0947\u0916\u0930\u093e\u091c \u092e\u093e\u0930\u094d\u0915\u0947\u091f",
          "network": "Lucknow Metro",
          "note": "Contributors are requested to not edit the \"network\" and the \"operator\" tags. (2023/11/08)",
          "operator": "Lucknow Metro Rail Corporation Limited",
          "public_transport": "stop_position",
          "railway": "stop",
          "subway": "yes"
        }
      },
      {
        "type": "node",
        "id": 9655728244,
        "lat": 26.870728,
        "lon": 80.9610619,
        "tags": {
          "name": "Badshah Nagar",
          "name:hi": "\u092c\u093e\u0926\u0936\u093e\u0939 \u0928\u0917\u0930",
          "network": "Lucknow Metro",
          "note": "Contributors are requested to not edit the \"network\" and the \"operator\" tags. (2023/11/08)",
          "operator": "Lucknow Metro Rail Corporation Limited",
          "public_transport": "stop_position",
          "subway": "yes"
        }
      },
      {
        "type": "node",
        "id": 10605651827,
        "lat": 26.8728798,
        "lon": 80.9886495,
        "tags": {
          "amenity": "fuel",
          "brand": "Indian Oil Petrol Pump",
          "brand:wikidata": "Q1289348",
          "name": "Indian Oil Petrol Pump"
        }
      }
    ]
  }
}