{
  "pois_1km": {
    "version": 0.6,
    "generator": "Overpass API 0.7.62.8 e802775f",
    "osm3s": {
      "timestamp_osm_base": "2025-09-07T14:30:31Z",
      "copyright": "The data included in this document is from www.openstreetmap.org. The data is made available under ODbL."
    },
    "elements": [
      {
        "type": "node",
        "id": 7026638538,
        "lat": 26.8806957,
        "lon": 80.9850076,
        "tags": {
          "addr:district": "Lucknow",
          "addr:full": "No. B-2432, Indra Nagar",
          "addr:postcode": "226016",
          "addr:state": "Uttar Pradesh",
          "amenity": "clinic",
          "healthcare": "clinic",
          "name": "Jivan Jyoti Surgical Center and Nursing Home",
          "source": "OpenGovernmentData"
        }
      },
      {
        "type": "node",
        "id": 7027743623,
        "lat": 26.8830384,
        "lon": 80.9962669,
        "tags": {
          "addr:district": "Lucknow",
          "addr:full": "D-2226, Indira Nagar Munshi Pulia, Ring Road",
          "addr:postcode": "226010",
          "addr:state": "Uttar Pradesh",
          "amenity": "hospital",
          "healthcare": "hospital",
          "name": "Jwala Hospital",
          "source": "OpenGovernmentData"
        }
      },
      {
        "type": "node",
        "id": 7028878593,
        "lat": 26.885982,
        "lon": 80.9811422,
        "tags": {
          "addr:district": "Lucknow",
          "addr:full": "20/154, Sector-25 Crossing, Indira Nagar",
          "addr:postcode": "226016",
          "addr:state": "Uttar Pradesh",
          "amenity": "hospital",
          "healthcare": "hospital",
          "name": "Centre For Neurosciences and Trauma",
          "source": "OpenGovernmentData"
        }
      },
      {
        "type": "node",
        "id": 7035449086,
        "lat": 26.8849355,
        "lon": 80.9971477,
        "tags": {
          "addr:district": "Lucknow",
          "addr:full": "12/665,Opposite Jama Masjid, Near Munshi Puliya, Indira Nagar",
          "addr:postcode": "226016",
          "addr:state": "Uttar Pradesh",
          "amenity": "clinic",
          "healthcare": "clinic",
          "name": "Nazar Eye Care Clinic",
          "source": "OpenGovernmentData"
        }
      },
      {
        "type": "node",
        "id": 8860945276,
        "lat": 26.8884848,
        "lon": 80.9961972,
        "tags": {
          "amenity": "restaurant",
          "name": "Aryan Munshipulia",
          "opening_hours": "Mo-Su 11:45-23:00"
        }
      },
      {
        "type": "node",
        "id": 8860945278,
        "lat": 26.8893661,
        "lon": 80.9921386,
        "tags": {
          "amenity": "hospital",
          "healthcare": "hospital",
          "name": "Varsha Hospital"
        }
      },
      {
        "type": "node",
        "id": 8860945279,
        "lat": 26.8867489,
        "lon": 80.9933226,
        "tags": {
          "amenity": "bank",
          "brand": "Axis Bank",
          "brand:wikidata": "Q2003549",
          "brand:wikipedia": "en:Axis Bank",
          "name": "Axis Bank"
        }
      },
      {
        "type": "node",
        "id": 8860945281,
        "lat": 26.886321,
        "lon": 80.9867033,
        "tags": {
          "amenity": "bank",
          "brand": "HDFC Bank",
          "brand:wikidata": "Q631047",
          "brand:wikipedia": "en:HDFC Bank",
          "name": "HDFC Bank",
          "short_name": "HDFC"
        }
      },
      {
        "type": "node",
        "id": 10605470658,
        "lat": 26.8821874,
        "lon": 80.9962466,
        "tags": {
          "amenity": "cafe",
          "name": "Cafe WTF"
        }
      },
      {
        "type": "node",
        "id": 10605470659,
        "lat": 26.8849822,
        "lon": 80.9941882,
        "tags": {
          "amenity": "bank",
          "atm": "yes",
          "brand": "Union Bank of India",
          "brand:wikidata": "Q2004078",
          "name": "Union Bank of India"
        }
      },
      {
        "type": "node",
        "id": 10605651817,
        "lat": 26.8833594,
        "lon": 80.9911319,
        "tags": {
          "amenity": "pharmacy",
          "healthcare": "pharmacy",
          "name": "Jai Medicals"
        }
      },
      {
        "type": "node",
        "id": 10605651818,
        "lat": 26.8832176,
        "lon": 80.9911363,
        "tags": {
          "amenity": "pharmacy",
          "healthcare": "pharmacy",
          "name": "Shiva Medicine Store"
        }
      },
      {
        "type": "node",
        "id": 10617826018,
        "lat": 26.8852372,
        "lon": 80.9906976,
        "tags": {
          "amenity": "doctors",
          "healthcare": "doctor",
          "name": "Mother's Care and IVF Centre"
        }
      },
      {
        "type": "node",
        "id": 10617826021,
        "lat": 26.8855924,
        "lon": 80.9862047,
        "tags": {
          "amenity": "clinic",
          "healthcare": "clinic",
          "name": "RK Medical Centre"
        }
      },
      {
        "type": "node",
        "id": 10617826024,
        "lat": 26.8805196,
        "lon": 80.9858639,
        "tags": {
          "amenity": "bank",
          "brand": "Central Bank of India",
          "brand:wikidata": "Q2007090",
          "name": "Central Bank of India"
        }
      },
      {
        "type": "node",
        "id": 10617826029,
        "lat": 26.8800447,
        "lon": 80.9908601,
        "tags": {
          "amenity": "bank",
          "brand": "Bank of India",
          "brand:wikidata": "Q2004439",
          "name": "Bank of India"
        }
      },
      {
        "type": "node",
        "id": 10629718387,
        "lat": 26.8836747,
        "lon": 80.9802751,
        "tags": {
          "amenity": "atm",
          "brand": "State Bank of India",
          "brand:en": "State Bank of India",
          "brand:wikidata": "Q1340361",
          "currency:INR": "yes",
          "drive_through": "no",
          "indoor": "yes",
          "name": "SBI ATM",
          "note": "Contributors are requested to not edit the \"brand\", \"brand:en\", \"brand:wikidata\", \"operator\", \"operator:en\" and \"operator:wikidata\" tags. (2025/03/03)",
          "opening_hours": "24/7",
          "operator": "State Bank of India",
          "operator:en": "State Bank of India",
          "operator:wikidata": "Q1340361",
          "short_name": "SBI"
        }
      },
      {
        "type": "node",
        "id": 11404750533,
        "lat": 26.8825893,
        "lon": 80.99126,
        "tags": {
          "amenity": "atm",
          "brand": "State Bank of India",
          "brand:en": "State Bank of India",
          "brand:wikidata": "Q1340361",
          "currency:INR": "yes",
          "drive_through": "no",
          "indoor": "yes",
          "note": "Contributors are requested to not edit the \"brand\", \"brand:en\", \"brand:wikidata\", \"operator\", \"operator:en\" and \"operator:wikidata\" tags. (2025/03/03)",
          "opening_hours": "24/7",
          "operator": "State Bank of India",
          "operator:en": "State Bank of India",
          "operator:wikidata": "Q1340361",
          "short_name": "SBI"
        }
      },
      {
        "type": "node",
        "id": 11404750538,
        "lat": 26.8831891,
        "lon": 80.9911372,
        "tags": {
          "amenity": "pharmacy",
          "healthcare": "pharmacy",
          "name": "Nidhish Medicals"
        }
      },
      {
        "type": "node",
        "id": 11404750539,
        "lat": 26.8831702,
        "lon": 80.9911382,
        "tags": {
          "amenity": "atm",
          "brand": "ICICI Bank",
          "brand:en": "ICICI Bank",
          "brand:wikidata": "Q1653258",
          "currency:INR": "yes",
          "drive_through": "no",
          "indoor": "yes",
          "note": "Contributors are requested to not edit the \"brand\", \"brand:en\", \"brand:wikidata\", \"operator\", \"operator:en\" and \"operator:wikidata\" tags. (2025/03/03)",
          "opening_hours": "24/7",
          "operator": "ICICI Bank",
          "operator:en": "ICICI Bank",
          "operator:wikidata": "Q1653258",
          "short_name": "ICICI"
        }
      },
      {
        "type": "node",
        "id": 11404923543,
        "lat": 26.8850925,
        "lon": 80.9925396,
        "tags": {
          "amenity": "bank",
          "atm": "yes",
          "brand": "Bank of Baroda",
          "brand:wikidata": "Q2003797",
          "name": "Bank of Baroda"
        }
      },
      {
        "type": "node",
        "id": 11404923544,
        "lat": 26.8812888,
        "lon": 80.9955688,
        "tags": {
          "amenity": "bank",
          "brand": "Indian Overseas Bank",
          "brand:wikidata": "Q2003611",
          "name": "Indian Overseas Bank"
        }
      },
      {
        "type": "node",
        "id": 11404923545,
        "lat": 26.8830491,
        "lon": 80.9963586,
        "tags": {
          "amenity": "atm",
          "brand": "State Bank of India",
          "brand:en": "State Bank of India",
          "brand:wikidata": "Q1340361",
          "currency:INR": "yes",
          "drive_through": "no",
          "indoor": "yes",
          "note": "Contributors are requested to not edit the \"brand\", \"brand:en\", \"brand:wikidata\", \"operator\", \"operator:en\" and \"operator:wikidata\" tags. (2025/03/03)",
          "opening_hours": "24/7",
          "operator": "State Bank of India",
          "operator:en": "State Bank of India",
          "operator:wikidata": "Q1340361",
          "short_name": "SBI"
        }
      },
      {
        "type": "node",
        "id": 11404923561,
        "lat": 26.8805041,
        "lon": 80.994089,
        "tags": {
          "amenity": "fast_food",
          "name": "New Dana Pani"
        }
      },
      {
        "type": "node",
        "id": 11601740768,
        "lat": 26.8847293,
        "lon": 80.9956034,
        "tags": {
          "addr:city": "Lucknow",
          "addr:housenumber": "G-1 Shahar Plaza",
          "addr:postcode": "226016",
          "addr:street": "Munshipulia",
          "amenity": "restaurant",
          "cuisine": "indian;chicken;roll",
          "diet:halal": "yes",
          "diet:meat": "yes",
          "name": "Sahu Kathi Chicken Egg Roll Wala",
          "opening_hours": "Mo-Su 12:00-22:30",
          "phone": "+91 9450641480"
        }
      },
      {
        "type": "node",
        "id": 11690601493,
        "lat": 26.8851052,
        "lon": 80.9967835,
        "tags": {
          "name": "My Jio Store Electronics store",
          "shop": "supermarket"
        }
      },
      {
        "type": "node",
        "id": 12596302178,
        "lat": 26.8885076,
        "lon": 80.9962392,
        "tags": {
          "amenity": "bank",
          "name": "Axis Bank"
        }
      },
      {
        "type": "node",
        "id": 12596331353,
        "lat": 26.8893358,
        "lon": 80.9955319,
        "tags": {
          "amenity": "fast_food",
          "cuisine": "juice",
          "name": "Juice Corner"
        }
      },
      {
        "type": "node",
        "id": 12596331367,
        "lat": 26.889042,
        "lon": 80.9955072,
        "tags": {
          "amenity": "fast_food",
          "name": "What a Burger"
        }
      },
      {
        "type": "node",
        "id": 12596331381,
        "lat": 26.8886593,
        "lon": 80.996925,
        "tags": {
          "amenity": "restaurant",
          "name": "Kolkata Cuttlets and rolls"
        }
      }
    ]
  },
  "pois_2_5km": {
    "version": 0.6,
    "generator": "Overpass API 0.7.62.8 e802775f",
    "osm3s": {
      "timestamp_osm_base": "2025-09-07T14:30:31Z",
      "copyright": "The data included in this document is from www.openstreetmap.org. The data is made available under ODbL."
    },
    "elements": [
      {
        "type": "node",
        "id": 534853247,
        "lat": 26.8720047,
        "lon": 80.9964674,
        "tags": {
          "amenity": "fuel",
          "brand": "Indian Oil",
          "brand:wikidata": "Q1289348",
          "compressed_air": "yes",
          "name": "Indian Oil Petrol Station",
          "operator": "IBP"
        }
      },
      {
        "type": "node",
        "id": 534853283,
        "lat": 26.8857723,
        "lon": 80.9925664,
        "tags": {
          "amenity": "fuel",
          "brand": "Indian Oil",
          "brand:wikidata": "Q1289348",
          "name": "Indian Oil Petrol Station",
          "operator": "IOCL"
        }
      },
      {
        "type": "node",
        "id": 4169719265,
        "lat": 26.8699998,
        "lon": 80.9971593,
        "tags": {
          "amenity": "theatre",
          "check_date": "2024-10-15",
          "name": "Wave Cinemas"
        }
      },
      {
        "type": "node",
        "id": 4977535811,
        "lat": 26.8708981,
        "lon": 80.9739102,
        "tags": {
          "name": "Lekhraj Market",
          "name:hi": "\u0932\u0947\u0916\u0930\u093e\u091c \u092e\u093e\u0930\u094d\u0915\u0947\u091f",
          "network": "Lucknow Metro",
          "note": "Contributors are requested to not edit the \"network\" and the \"operator\" tags. (2023/11/08)",
          "operator": "Lucknow Metro Rail Corporation Limited",
          "public_transport": "stop_position",
          "railway": "stop",
          "subway": "yes"
        }
      },
      {
        "type": "node",
        "id": 4977536038,
        "lat": 26.8726989,
        "lon": 80.9908838,
        "tags": {
          "name": "Indira Nagar",
          "name:hi": "\u0907\u0902\u0926\u093f\u0930\u093e \u0928\u0917\u0930",
          "network": "Lucknow Metro",
          "note": "Contributors are requested to not edit the \"network\" and the \"operator\" tags. (2023/11/08)",
          "operator": "Lucknow Metro Rail Corporation Limited",
          "public_transport": "stop_position",
          "railway": "stop",
          "subway": "yes"
        }
      },
      {
        "type": "node",
        "id": 6444506071,
        "lat": 26.8878924,
        "lon": 80.9959029,
        "tags": {
          "name": "Munshipulia",
          "name:hi": "\u092e\u0941\u0902\u0936\u0940\u092a\u0941\u0932\u093f\u092f\u093e",
          "network": "Lucknow Metro",
          "note": "Contributors are requested to not edit the \"network\" and the \"operator\" tags. (2023/11/08)",
          "operator": "Lucknow Metro Rail Corporation Limited",
          "public_transport": "stop_position",
          "railway": "stop",
          "ref": "1",
          "subway": "yes"
        }
      },
      {
        "type": "node",
        "id": 6445132135,
        "lat": 26.8722077,
        "lon": 80.9823048,
        "tags": {
          "name": "Bhootnath Market",
          "name:hi": "\u092d\u0942\u0924\u0928\u093e\u0925 \u092e\u093e\u0930\u094d\u0915\u0947\u091f",
          "network": "Lucknow Metro",
          "note": "Contributors are requested to not edit the \"network\" and the \"operator\" tags. (2023/11/08)",
          "operator": "Lucknow Metro Rail Corporation Limited",
          "public_transport": "stop_position",
          "railway": "stop",
          "subway": "yes"
        }
      },
      {
        "type": "node",
        "id": 9655708793,
        "lat": 26.8709686,
        "lon": 80.9738961,
        "tags": {
          "name": "Lekhraj Market",
          "name:hi": "\u0932\u0947\u0916\u0930\u093e\u091c \u092e\u093e\u0930\u094d\u0915\u0947\u091f",
          "network": "Lucknow Metro",
          "note": "Contributors are requested to not edit the \"network\" and the \"operator\" tags. (2023/11/08)",
          "operator": "Lucknow Metro Rail Corporation Limited",
          "public_transport": "station",
          "railway": "station",
          "station": "subway",
          "subway": "yes"
        }
      },
      {
        "type": "node",
        "id": 9655708794,
        "lat": 26.8879654,
        "lon": 80.9959863,
        "tags": {
          "name": "Munshipulia",
          "name:hi": "\u092e\u0941\u0902\u0936\u0940 \u092a\u0941\u0932\u093f\u092f\u093e",
          "network": "Lucknow Metro",
          "note": "Contributors are requested to not edit the \"network\" and the \"operator\" tags. (2023/11/08)",
          "operator": "Lucknow Metro Rail Corporation Limited",
          "public_transport": "station",
          "railway": "station",
          "station": "subway",
          "subway": "yes",
          "wheelchair": "yes"
        }
      },
      {
        "type": "node",
        "id": 9655708795,
        "lat": 26.8727659,
        "lon": 80.9909732,
        "tags": {
          "name": "Indira Nagar",
          "name:hi": "\u0907\u0902\u0926\u093f\u0930\u093e \u0928\u0917\u0930",
          "network": "Lucknow Metro",
          "note": "Contributors are requested to not edit the \"network\" and the \"operator\" tags. (2023/11/08)",
          "operator": "Lucknow Metro Rail Corporation Limited",
          "public_transport": "station",
          "railway": "station",
          "station": "subway",
          "subway": "yes"
        }
      },
      {
        "type": "node",
        "id": 9655708796,
        "lat": 26.8722368,
        "lon": 80.9823474,
        "tags": {
          "name": "Bhootnath Market",
          "name:hi": "\u092d\u0942\u0924\u0928\u093e\u0925 \u092e\u093e\u0930\u094d\u0915\u0947\u091f",
          "network": "Lucknow Metro",
          "note": "Contributors are requested to not edit the \"network\" and the \"operator\" tags. (2023/11/08)",
          "operator": "Lucknow Metro Rail Corporation Limited",
          "public_transport": "station",
          "railway": "station",
          "station": "subway",
          "subway": "yes"
        }
      },
      {
        "type": "node",
        "id": 9655708803,
        "lat": 26.8878962,
        "lon": 80.9958426,
        "tags": {
          "name": "Munshipulia",
          "name:hi": "\u092e\u0941\u0902\u0936\u0940\u092a\u0941\u0932\u093f\u092f\u093e",
          "network": "Lucknow Metro",
          "note": "Contributors are requested to not edit the \"network\" and the \"operator\" tags. (2023/11/08)",
          "operator": "Lucknow Metro Rail Corporation Limited",
          "public_transport": "stop_position",
          "railway": "stop",
          "ref": "21",
          "subway": "yes"
        }
      },
      {
        "type": "node",
        "id": 9655728217,
        "lat": 26.8727682,
        "lon": 80.9908727,
        "tags": {
          "name": "Indira Nagar",
          "name:hi": "\u0907\u0902\u0926\u093f\u0930\u093e \u0928\u0917\u0930",
          "network": "Lucknow Metro",
          "note": "Contributors are requested to not edit the \"network\" and the \"operator\" tags. (2023/11/08)",
          "operator": "Lucknow Metro Rail Corporation Limited",
          "public_transport": "stop_position",
          "railway": "stop",
          "subway": "yes"
        }
      },
      {
        "type": "node",
        "id": 9655728224,
        "lat": 26.8722671,
        "lon": 80.9823039,
        "tags": {
          "name": "Bhootnath Market",
          "name:hi": "\u092d\u0942\u0924\u0928\u093e\u0925 \u092e\u093e\u0930\u094d\u0915\u0947\u091f",
          "network": "Lucknow Metro",
          "note": "Contributors are requested to not edit the \"network\" and the \"operator\" tags. (2023/11/08)",
          "operator": "Lucknow Metro Rail Corporation Limited",
          "public_transport": "stop_position",
          "railway": "stop",
          "subway": "yes"
        }
      },
      {
        "type": "node",
        "id": 9655728230,
        "lat": 26.8709474,
        "lon": 80.973895,
        "tags": {
          "name": "Lekhraj Market",
          "name:hi": "\u0932\u0947\u0916\u0930\u093e\u091c \u092e\u093e\u0930\u094d\u0915\u0947\u091f",
          "network": "Lucknow Metro",
          "note": "Contributors are requested to not edit the \"network\" and the \"operator\" tags. (2023/11/08)",
          "operator": "Lucknow Metro Rail Corporation Limited",
          "public_transport": "stop_position",
          "railway": "stop",
          "subway": "yes"
        }
      },
      {
        "type": "node",
        "id": 10605651827,
        "lat": 26.8728798,
        "lon": 80.9886495,
        "tags": {
          "amenity": "fuel",
          "brand": "Indian Oil Petrol Pump",
          "brand:wikidata": "Q1289348",
          "name": "Indian Oil Petrol Pump"
        }
      }
    ]
  }
}