{
  "pois_1km": {
    "version": 0.6,
    "generator": "Overpass API 0.7.62.8 e802775f",
    "osm3s": {
      "timestamp_osm_base": "2025-09-07T14:11:15Z",
      "copyright": "The data included in this document is from www.openstreetmap.org. The data is made available under ODbL."
    },
    "elements": [
      {
        "type": "node",
        "id": 7020584435,
        "lat": 26.8457355,
        "lon": 81.0058692,
        "tags": {
          "addr:district": "Lucknow",
          "addr:full": "5/452, Viram Khand-5, Hig Duplex, Gomti Nagar",
          "addr:postcode": "226010",
          "addr:state": "Uttar Pradesh",
          "amenity": "clinic",
          "name": "Vishwas Eye and Laser Centre",
          "source": "OpenGovernmentData"
        }
      },
      {
        "type": "node",
        "id": 9996549855,
        "lat": 26.8476516,
        "lon": 81.0004895,
        "tags": {
          "addr:city": "Lucknow",
          "addr:postcode": "226010",
          "addr:street": "2/301 , Viram Khand, Gomti Nagar,UttarPradesh, India",
          "amenity": "clinic",
          "healthcare": "clinic",
          "healthcare:speciality": "ivf_specialist",
          "name": "Ganga Laxmi IVF",
          "opening_hours": "Mon - Sun : 9:00am to 8:00pm",
          "operator": "Novosalus",
          "operator:type": "private",
          "website": "https://www.gangalaxmiivf.com/"
        }
      }
    ]
  },
  "pois_2_5km": {
    "version": 0.6,
    "generator": "Overpass API 0.7.62.8 e802775f",
    "osm3s": {
      "timestamp_osm_base": "2025-09-07T14:11:15Z",
      "copyright": "The data included in this document is from www.openstreetmap.org. The data is made available under ODbL."
    },
    "elements": [
      {
        "type": "node",
        "id": 535121349,
        "lat": 26.8605833,
        "lon": 81.0029055,
        "tags": {
          "name": "Gomti Nagar",
          "operator": "NER",
          "railway": "station",
          "ref": "GTNR",
          "wikidata": "Q24949486",
          "wikipedia": "en:Gomti Nagar railway station"
        }
      },
      {
        "type": "node",
        "id": 4165961096,
        "lat": 26.8625882,
        "lon": 81.0105719,
        "tags": {
          "amenity": "cinema",
          "brand": "Cinepolis",
          "brand:wikidata": "Q5686673",
          "name": "Cinepolis"
        }
      }
    ]
  }
}