{
  "pois_1km": {
    "version": 0.6,
    "generator": "Overpass API 0.7.62.8 e802775f",
    "osm3s": {
      "timestamp_osm_base": "2025-09-07T14:24:30Z",
      "copyright": "The data included in this document is from www.openstreetmap.org. The data is made available under ODbL."
    },
    "elements": [
      {
        "type": "node",
        "id": 6232216094,
        "lat": 26.8146397,
        "lon": 80.9044751,
        "tags": {
          "amenity": "hospital",
          "healthcare": "hospital",
          "name": "Ajanta Hospital & IVF Centre"
        }
      },
      {
        "type": "node",
        "id": 7019031518,
        "lat": 26.8157204,
        "lon": 80.9051429,
        "tags": {
          "addr:district": "Lucknow",
          "addr:full": "765, Alambagh,Near Krishna Cinema, Kanpur Road",
          "addr:postcode": "226005",
          "addr:state": "Uttar Pradesh",
          "amenity": "hospital",
          "name": "Ajanta Hospital and Ivf Centre Pvt. Limited",
          "source": "OpenGovernmentData"
        }
      },
      {
        "type": "node",
        "id": 7025470278,
        "lat": 26.8220295,
        "lon": 80.9118906,
        "tags": {
          "addr:district": "Lucknow",
          "addr:full": "56, Patel Nagar, Alambagh",
          "addr:postcode": "226005",
          "addr:state": "Uttar Pradesh",
          "amenity": "clinic",
          "name": "Sawhney Nursing Home",
          "source": "OpenGovernmentData"
        }
      },
      {
        "type": "node",
        "id": 7025773808,
        "lat": 26.8124032,
        "lon": 80.9085151,
        "tags": {
          "addr:district": "Lucknow",
          "addr:full": "Anand Bhawan, Om Nagar Alambagh",
          "addr:postcode": "226005",
          "addr:state": "Uttar Pradesh",
          "amenity": "hospital",
          "healthcare": "hospital",
          "name": "Sheela Health Care",
          "source": "OpenGovernmentData"
        }
      },
      {
        "type": "node",
        "id": 7172783852,
        "lat": 26.813663,
        "lon": 80.9036596,
        "tags": {
          "addr:district": "Lucknow",
          "addr:full": "Beside Post & Telegraph office (BSNL), Lucknow, Chander Nagar, Urban community health Centre and maternity home",
          "addr:postcode": "226005",
          "addr:state": "Uttar Pradesh",
          "amenity": "hospital",
          "name": "Goverment Hospital",
          "source": "OpenGovernmentData"
        }
      },
      {
        "type": "node",
        "id": 7510640711,
        "lat": 26.8163759,
        "lon": 80.8996572,
        "tags": {
          "addr:district": "Lucknow",
          "addr:full": "Mahendi Kheda, Manak Nagar, Mahendi Kheda Lko, Manak Nagar, Alambagh, Lucknow",
          "addr:postcode": "226005",
          "addr:state": "Uttar Pradesh",
          "amenity": "hospital",
          "name": "Nadsi Hospital",
          "source": "Local Knowledge"
        }
      },
      {
        "type": "node",
        "id": 7510640740,
        "lat": 26.8166802,
        "lon": 80.9061501,
        "tags": {
          "addr:district": "Lucknow",
          "addr:full": "Sardari Khera, Sector J, Aliganj, Lucknow",
          "addr:postcode": "226001",
          "addr:state": "Uttar Pradesh",
          "amenity": "hospital",
          "name": "Ali Hospital",
          "source": "Local Knowledge"
        }
      },
      {
        "type": "node",
        "id": 7510640742,
        "lat": 26.8217475,
        "lon": 80.9120612,
        "tags": {
          "addr:district": "Lucknow",
          "addr:full": "Alambagh Marg, Adarsh Nagar, Alambagh, Lucknow",
          "addr:postcode": "226005",
          "addr:state": "Uttar Pradesh",
          "amenity": "hospital",
          "name": "Dr. Sahani Hospital",
          "source": "Local Knowledge"
        }
      },
      {
        "type": "node",
        "id": 7510640770,
        "lat": 26.8167521,
        "lon": 80.9049302,
        "tags": {
          "addr:district": "Lucknow",
          "addr:full": "Sardari Khera, Railway Colony, Alambagh, Lucknow",
          "addr:postcode": "226005",
          "addr:state": "Uttar Pradesh",
          "amenity": "hospital",
          "name": "City Hospital",
          "source": "Local Knowledge"
        }
      }
    ]
  },
  "pois_2_5km": {
    "version": 0.6,
    "generator": "Overpass API 0.7.62.8 e802775f",
    "osm3s": {
      "timestamp_osm_base": "2025-09-07T14:24:30Z",
      "copyright": "The data included in this document is from www.openstreetmap.org. The data is made available under ODbL."
    },
    "elements": [
      {
        "type": "node",
        "id": 564713410,
        "lat": 26.8305073,
        "lon": 80.9244154,
        "tags": {
          "name": "Lucknow Charbagh",
          "name:de": "Lucknow Charbagh",
          "name:ur": "\u0644\u06a9\u06be\u0646\u0624 \u0686\u0627\u0631\u0628\u0627\u063a",
          "public_transport": "stop_position",
          "railway": "stop",
          "train": "yes"
        }
      },
      {
        "type": "node",
        "id": 564718427,
        "lat": 26.8311583,
        "lon": 80.9243609,
        "tags": {
          "addr:city": "Lucknow",
          "ele": "123.5",
          "internet_access": "wlan",
          "name": "Lucknow Charbagh",
          "name:de": "Lucknow Charbagh",
          "name:en": "Lucknow Charbagh",
          "name:hi": "\u0932\u0916\u0928\u090a \u091a\u093e\u0930\u092c\u093e\u0917\u093c",
          "name:ur": "\u0644\u06a9\u06be\u0646\u0624 \u0686\u0627\u0631\u0628\u0627\u063a",
          "network": "IR",
          "operator": "NR",
          "public_transport": "station",
          "railway": "station",
          "ref": "LKO",
          "train": "yes",
          "wheelchair": "yes",
          "wikidata": "Q3633969",
          "wikimedia_commons": "File:Lucknow Charbagh Railway Station 3.jpg",
          "wikipedia": "en:Lucknow Charbagh railway station"
        }
      },
      {
        "type": "node",
        "id": 2207518133,
        "lat": 26.8370396,
        "lon": 80.9213257,
        "tags": {
          "bus": "yes",
          "highway": "bus_stop",
          "name": "Lucknow Main Hotel ANR",
          "public_transport": "stop_position"
        }
      },
      {
        "type": "node",
        "id": 3305357099,
        "lat": 26.8374521,
        "lon": 80.9200495,
        "tags": {
          "amenity": "fuel",
          "name": "Bharath Petroleum Station"
        }
      },
      {
        "type": "node",
        "id": 3997322400,
        "lat": 26.8184732,
        "lon": 80.9072927,
        "tags": {
          "name": "Alambagh Bus Station",
          "name:hi": "\u0906\u0932\u092e\u092c\u093e\u0917 \u092c\u0938 \u0938\u094d\u091f\u0947\u0936\u0928",
          "network": "Lucknow Metro",
          "note": "Contributors are requested to not edit the \"network\" and the \"operator\" tags. (2023/11/08)",
          "operator": "Lucknow Metro Rail Corporation Limited",
          "public_transport": "station",
          "railway": "station",
          "station": "subway",
          "subway": "yes",
          "wikidata": "Q18109514",
          "wikipedia": "en:Alambagh ISBT metro station"
        }
      },
      {
        "type": "node",
        "id": 3997322401,
        "lat": 26.8140101,
        "lon": 80.9025123,
        "tags": {
          "name": "Alambagh",
          "name:hi": "\u0906\u0932\u092e\u092c\u093e\u0917\u093c",
          "network": "Lucknow Metro",
          "note": "Contributors are requested to not edit the \"network\" and the \"operator\" tags. (2023/11/08)",
          "operator": "Lucknow Metro Rail Corporation Limited",
          "public_transport": "station",
          "railway": "station",
          "station": "subway",
          "subway": "yes",
          "wikidata": "Q17049199"
        }
      },
      {
        "type": "node",
        "id": 3997322403,
        "lat": 26.8253101,
        "lon": 80.9098575,
        "tags": {
          "name": "Mawaiya",
          "name:hi": "\u092e\u0935\u0908\u092f\u093e",
          "network": "Lucknow Metro",
          "note": "Contributors are requested to not edit the \"network\" and the \"operator\" tags. (2023/11/08)",
          "operator": "Lucknow Metro Rail Corporation Limited",
          "public_transport": "station",
          "railway": "station",
          "station": "subway",
          "subway": "yes"
        }
      },
      {
        "type": "node",
        "id": 3997322776,
        "lat": 26.8030998,
        "lon": 80.8964272,
        "tags": {
          "name": "Singar Nagar",
          "name:hi": "\u0938\u093f\u0902\u0917\u093e\u0930 \u0928\u0917\u0930",
          "network": "Lucknow Metro",
          "note": "Contributors are requested to not edit the \"network\" and the \"operator\" tags. (2023/11/08)",
          "operator": "Lucknow Metro Rail Corporation Limited",
          "public_transport": "station",
          "railway": "station",
          "station": "subway",
          "subway": "yes",
          "wheelchair": "yes"
        }
      },
      {
        "type": "node",
        "id": 4170031601,
        "lat": 26.8315101,
        "lon": 80.9222977,
        "tags": {
          "addr:city": "Lucknow",
          "ele": "126",
          "name": "Lucknow Junction",
          "name:de": "Lakhnau Junction",
          "name:hi": "\u0932\u0916\u0928\u090a \u091c\u0902\u0915\u094d\u0936\u0928",
          "name:ur": "\u0644\u06a9\u06be\u0646\u0624 \u062c\u0646\u06a9\u0634\u0646",
          "network": "Indian Railways",
          "operator": "Northern Railway",
          "public_transport": "station",
          "railway": "station",
          "ref": "LJN",
          "train": "yes",
          "wheelchair": "limited",
          "wikidata": "Q17151999",
          "wikipedia": "en:Lucknow Junction railway station"
        }
      },
      {
        "type": "node",
        "id": 4244207702,
        "lat": 26.8324023,
        "lon": 80.9231133,
        "tags": {
          "name": "Charbagh Railway Station",
          "name:hi": "\u091a\u093e\u0930\u092c\u093e\u0917\u093c \u0930\u0947\u0932\u0935\u0947 \u0938\u094d\u091f\u0947\u0936\u0928",
          "name:ur": "\u0644\u06a9\u06be\u0646\u0624 \u0686\u0627\u0631\u0628\u0627\u063a \u0627\u0633\u0679\u06cc\u0634\u0646",
          "network": "Lucknow Metro",
          "note": "Contributors are requested to not edit the \"network\" and the \"operator\" tags. (2023/11/08)",
          "operator": "Lucknow Metro Rail Corporation Limited",
          "public_transport": "station",
          "railway": "station",
          "station": "subway",
          "subway": "yes",
          "wheelchair": "yes"
        }
      },
      {
        "type": "node",
        "id": 4244207703,
        "lat": 26.8320029,
        "lon": 80.9154077,
        "tags": {
          "name": "Durgapuri",
          "name:hi": "\u0926\u0941\u0930\u094d\u0917\u093e\u092a\u0941\u0930\u0940",
          "network": "Lucknow Metro",
          "note": "Contributors are requested to not edit the \"network\" and the \"operator\" tags. (2023/11/08)",
          "operator": "Lucknow Metro Rail Corporation Limited",
          "public_transport": "station",
          "railway": "station",
          "ref": "DGPI",
          "station": "subway",
          "subway": "yes"
        }
      },
      {
        "type": "node",
        "id": 5372681324,
        "lat": 26.8148264,
        "lon": 80.9047645,
        "tags": {
          "amenity": "cinema",
          "name": "carnival cinema"
        }
      },
      {
        "type": "node",
        "id": 5777576802,
        "lat": 26.83242,
        "lon": 80.9231122,
        "tags": {
          "name": "Charbagh Railway Station",
          "name:hi": "\u091a\u093e\u0930\u092c\u093e\u0917\u093c \u0930\u0947\u0932\u0935\u0947 \u0938\u094d\u091f\u0947\u0936\u0928",
          "name:ur": "\u0644\u06a9\u06be\u0646\u0624 \u0686\u0627\u0631\u0628\u0627\u063a \u0627\u0633\u0679\u06cc\u0634\u0646",
          "network": "Lucknow Metro",
          "note": "Contributors are requested to not edit the \"network\" and the \"operator\" tags. (2023/11/08)",
          "operator": "Lucknow Metro Rail Corporation Limited",
          "public_transport": "stop_position",
          "railway": "stop",
          "subway": "yes"
        }
      },
      {
        "type": "node",
        "id": 5777576806,
        "lat": 26.8030987,
        "lon": 80.8964109,
        "tags": {
          "name": "Singar Nagar",
          "name:hi": "\u0938\u093f\u0902\u0917\u093e\u0930 \u0928\u0917\u0930",
          "network": "Lucknow Metro",
          "note": "Contributors are requested to not edit the \"network\" and the \"operator\" tags. (2023/11/08)",
          "operator": "Lucknow Metro Rail Corporation Limited",
          "public_transport": "stop_position",
          "railway": "stop",
          "subway": "yes"
        }
      },
      {
        "type": "node",
        "id": 5777576807,
        "lat": 26.814023,
        "lon": 80.9024999,
        "tags": {
          "name": "Alambagh",
          "name:hi": "\u0906\u0932\u092e\u092c\u093e\u0917\u093c",
          "network": "Lucknow Metro",
          "note": "Contributors are requested to not edit the \"network\" and the \"operator\" tags. (2023/11/08)",
          "operator": "Lucknow Metro Rail Corporation Limited",
          "public_transport": "stop_position",
          "subway": "yes"
        }
      },
      {
        "type": "node",
        "id": 5777576808,
        "lat": 26.8184851,
        "lon": 80.9072782,
        "tags": {
          "name": "Alambagh Bus Station",
          "name:hi": "\u0906\u0932\u092e\u092c\u093e\u0917 \u092c\u0938 \u0938\u094d\u091f\u0947\u0936\u0928",
          "network": "Lucknow Metro",
          "note": "Contributors are requested to not edit the \"network\" and the \"operator\" tags. (2023/11/08)",
          "operator": "Lucknow Metro Rail Corporation Limited",
          "public_transport": "stop_position",
          "subway": "yes"
        }
      },
      {
        "type": "node",
        "id": 5777576809,
        "lat": 26.825311,
        "lon": 80.909837,
        "tags": {
          "name": "Mawaiya",
          "name:hi": "\u092e\u0935\u0908\u092f\u093e",
          "network": "Lucknow Metro",
          "note": "Contributors are requested to not edit the \"network\" and the \"operator\" tags. (2023/11/08)",
          "operator": "Lucknow Metro Rail Corporation Limited",
          "public_transport": "stop_position",
          "subway": "yes"
        }
      },
      {
        "type": "node",
        "id": 5777576810,
        "lat": 26.8320186,
        "lon": 80.915408,
        "tags": {
          "name": "Durgapuri",
          "name:hi": "\u0926\u0941\u0930\u094d\u0917\u093e\u092a\u0941\u0930\u0940",
          "network": "Lucknow Metro",
          "note": "Contributors are requested to not edit the \"network\" and the \"operator\" tags. (2023/11/08)",
          "operator": "Lucknow Metro Rail Corporation Limited",
          "public_transport": "stop_position",
          "ref": "DGPI",
          "subway": "yes"
        }
      },
      {
        "type": "node",
        "id": 5790401048,
        "lat": 26.8370973,
        "lon": 80.9231744,
        "tags": {
          "bus": "yes",
          "highway": "bus_stop",
          "name": "Lucknow Main",
          "public_transport": "stop_position"
        }
      },
      {
        "type": "node",
        "id": 7605969608,
        "lat": 26.837359,
        "lon": 80.9097954,
        "tags": {
          "name": "Aishbagh",
          "name:hi": "\u0910\u0936\u092c\u093e\u0917",
          "network": "IR",
          "operator": "NER",
          "public_transport": "station",
          "railway": "station",
          "ref": "ASH",
          "train": "yes",
          "wikidata": "Q15645574",
          "wikipedia": "en:Aishbagh railway station"
        }
      },
      {
        "type": "node",
        "id": 7620685578,
        "lat": 26.8300322,
        "lon": 80.9244101,
        "tags": {
          "name": "Lucknow Charbagh",
          "name:de": "Lucknow Charbagh",
          "name:ur": "\u0644\u06a9\u06be\u0646\u0624 \u0686\u0627\u0631\u0628\u0627\u063a",
          "public_transport": "stop_position",
          "railway": "stop",
          "train": "yes"
        }
      },
      {
        "type": "node",
        "id": 7620685579,
        "lat": 26.8302051,
        "lon": 80.92439,
        "tags": {
          "name": "Lucknow Charbagh",
          "name:de": "Lucknow Charbagh",
          "name:ur": "\u0644\u06a9\u06be\u0646\u0624 \u0686\u0627\u0631\u0628\u0627\u063a",
          "public_transport": "stop_position",
          "railway": "stop",
          "train": "yes"
        }
      },
      {
        "type": "node",
        "id": 7620685580,
        "lat": 26.8302437,
        "lon": 80.9243891,
        "tags": {
          "name": "Lucknow Charbagh",
          "name:de": "Lucknow Charbagh",
          "name:ur": "\u0644\u06a9\u06be\u0646\u0624 \u0686\u0627\u0631\u0628\u0627\u063a",
          "public_transport": "stop_position",
          "railway": "stop",
          "train": "yes"
        }
      },
      {
        "type": "node",
        "id": 7620685581,
        "lat": 26.8307654,
        "lon": 80.9243676,
        "tags": {
          "name": "Lucknow Charbagh",
          "name:de": "Lucknow Charbagh",
          "name:ur": "\u0644\u06a9\u06be\u0646\u0624 \u0686\u0627\u0631\u0628\u0627\u063a",
          "public_transport": "stop_position",
          "railway": "stop",
          "train": "yes"
        }
      },
      {
        "type": "node",
        "id": 7620685582,
        "lat": 26.8306811,
        "lon": 80.9243746,
        "tags": {
          "name": "Lucknow Charbagh",
          "name:de": "Lucknow Charbagh",
          "name:ur": "\u0644\u06a9\u06be\u0646\u0624 \u0686\u0627\u0631\u0628\u0627\u063a",
          "public_transport": "stop_position",
          "railway": "stop",
          "train": "yes"
        }
      },
      {
        "type": "node",
        "id": 7620685583,
        "lat": 26.8304265,
        "lon": 80.924412,
        "tags": {
          "name": "Lucknow Charbagh",
          "name:ur": "\u0644\u06a9\u06be\u0646\u0624 \u0686\u0627\u0631\u0628\u0627\u063a",
          "public_transport": "stop_position",
          "railway": "stop",
          "train": "yes"
        }
      },
      {
        "type": "node",
        "id": 7716995066,
        "lat": 26.8106778,
        "lon": 80.8909379,
        "tags": {
          "name": "Manak Nagar",
          "operator": "NR",
          "public_transport": "station",
          "railway": "station",
          "ref": "MKG",
          "train": "yes",
          "wikidata": "Q24949466",
          "wikipedia": "en:Manak Nagar railway station"
        }
      },
      {
        "type": "node",
        "id": 8006089154,
        "lat": 26.8323812,
        "lon": 80.9231145,
        "tags": {
          "name": "Charbagh Railway Station",
          "name:hi": "\u091a\u093e\u0930\u092c\u093e\u0917\u093c \u0930\u0947\u0932\u0935\u0947 \u0938\u094d\u091f\u0947\u0936\u0928",
          "name:ur": "\u0644\u06a9\u06be\u0646\u0624 \u0686\u0627\u0631\u0628\u0627\u063a \u0627\u0633\u0679\u06cc\u0634\u0646",
          "network": "Lucknow Metro",
          "note": "Contributors are requested to not edit the \"network\" and the \"operator\" tags. (2023/11/08)",
          "operator": "Lucknow Metro Rail Corporation Limited",
          "public_transport": "stop_position",
          "subway": "yes"
        }
      },
      {
        "type": "node",
        "id": 8006089155,
        "lat": 26.8319799,
        "lon": 80.9154112,
        "tags": {
          "name": "Durgapuri",
          "name:hi": "\u0926\u0941\u0930\u094d\u0917\u093e\u092a\u0941\u0930\u0940",
          "network": "Lucknow Metro",
          "note": "Contributors are requested to not edit the \"network\" and the \"operator\" tags. (2023/11/08)",
          "operator": "Lucknow Metro Rail Corporation Limited",
          "public_transport": "stop_position",
          "ref": "DGPI",
          "subway": "yes"
        }
      },
      {
        "type": "node",
        "id": 8006089156,
        "lat": 26.8253033,
        "lon": 80.9098797,
        "tags": {
          "name": "Mawaiya",
          "name:hi": "\u092e\u0935\u0908\u092f\u093e",
          "network": "Lucknow Metro",
          "note": "Contributors are requested to not edit the \"network\" and the \"operator\" tags. (2023/11/08)",
          "operator": "Lucknow Metro Rail Corporation Limited",
          "public_transport": "stop_position",
          "subway": "yes"
        }
      },
      {
        "type": "node",
        "id": 8006089157,
        "lat": 26.8184598,
        "lon": 80.9073112,
        "tags": {
          "name": "Alambagh Bus Station",
          "name:hi": "\u0906\u0932\u092e\u092c\u093e\u0917 \u092c\u0938 \u0938\u094d\u091f\u0947\u0936\u0928",
          "network": "Lucknow Metro",
          "note": "Contributors are requested to not edit the \"network\" and the \"operator\" tags. (2023/11/08)",
          "operator": "Lucknow Metro Rail Corporation Limited",
          "public_transport": "stop_position",
          "subway": "yes"
        }
      },
      {
        "type": "node",
        "id": 8006089158,
        "lat": 26.8139957,
        "lon": 80.9025308,
        "tags": {
          "name": "Alambagh",
          "name:hi": "\u0906\u0932\u092e\u092c\u093e\u0917\u093c",
          "network": "Lucknow Metro",
          "note": "Contributors are requested to not edit the \"network\" and the \"operator\" tags. (2023/11/08)",
          "operator": "Lucknow Metro Rail Corporation Limited",
          "public_transport": "stop_position",
          "subway": "yes"
        }
      },
      {
        "type": "node",
        "id": 8006089159,
        "lat": 26.8030829,
        "lon": 80.8964507,
        "tags": {
          "name": "Singar Nagar",
          "name:hi": "\u0938\u093f\u0902\u0917\u093e\u0930 \u0928\u0917\u0930",
          "network": "Lucknow Metro",
          "note": "Contributors are requested to not edit the \"network\" and the \"operator\" tags. (2023/11/08)",
          "operator": "Lucknow Metro Rail Corporation Limited",
          "public_transport": "stop_position",
          "subway": "yes"
        }
      },
      {
        "type": "node",
        "id": 8429904747,
        "lat": 26.8315435,
        "lon": 80.9215211,
        "tags": {
          "name": "Lucknow Junction",
          "name:de": "Lakhnau Junction Gleis 6",
          "name:ur": "\u0644\u06a9\u06be\u0646\u0624 \u062c\u0646\u06a9\u0634\u0646",
          "public_transport": "stop_position",
          "railway": "stop",
          "ref": "6",
          "train": "yes"
        }
      },
      {
        "type": "node",
        "id": 8429904748,
        "lat": 26.8316258,
        "lon": 80.9215193,
        "tags": {
          "name": "Lucknow Junction",
          "name:de": "Lakhnau Junction Gleis 5",
          "name:ur": "\u0644\u06a9\u06be\u0646\u0624 \u062c\u0646\u06a9\u0634\u0646",
          "public_transport": "stop_position",
          "railway": "stop",
          "ref": "5",
          "train": "yes"
        }
      },
      {
        "type": "node",
        "id": 8429904749,
        "lat": 26.8317473,
        "lon": 80.9215122,
        "tags": {
          "name": "Lucknow Junction",
          "name:de": "Lakhnau Junction Gleis 4",
          "name:ur": "\u0644\u06a9\u06be\u0646\u0624 \u062c\u0646\u06a9\u0634\u0646",
          "public_transport": "stop_position",
          "railway": "stop",
          "ref": "4",
          "train": "yes"
        }
      },
      {
        "type": "node",
        "id": 8429904750,
        "lat": 26.831784,
        "lon": 80.9215138,
        "tags": {
          "name": "Lucknow Junction",
          "name:de": "Lakhnau Junction Gleis 3",
          "name:ur": "\u0644\u06a9\u06be\u0646\u0624 \u062c\u0646\u06a9\u0634\u0646",
          "public_transport": "stop_position",
          "railway": "stop",
          "ref": "3",
          "train": "yes"
        }
      },
      {
        "type": "node",
        "id": 8429904751,
        "lat": 26.8319396,
        "lon": 80.9215177,
        "tags": {
          "name": "Lucknow Junction",
          "name:de": "Lakhnau Junction Gleis 2",
          "name:ur": "\u0644\u06a9\u06be\u0646\u0624 \u062c\u0646\u06a9\u0634\u0646",
          "public_transport": "stop_position",
          "railway": "stop",
          "ref": "2",
          "train": "yes"
        }
      },
      {
        "type": "node",
        "id": 8429904752,
        "lat": 26.8320053,
        "lon": 80.9215123,
        "tags": {
          "name": "Lucknow Junction",
          "name:de": "Lakhnau Junction Gleis 1",
          "name:ur": "\u0644\u06a9\u06be\u0646\u0624 \u062c\u0646\u06a9\u0634\u0646",
          "public_transport": "stop_position",
          "railway": "stop",
          "ref": "1",
          "train": "yes"
        }
      },
      {
        "type": "node",
        "id": 10899849036,
        "lat": 26.7990009,
        "lon": 80.9140059,
        "tags": {
          "amenity": "fuel",
          "brand": "Bharat Petroleum",
          "brand:wikidata": "Q854826",
          "fuel:diesel": "yes",
          "fuel:petroleum": "yes",
          "name": "Bharat Petroleum"
        }
      }
    ]
  }
}