{
  "pois_1km": {
    "version": 0.6,
    "generator": "Overpass API 0.7.62.8 e802775f",
    "osm3s": {
      "timestamp_osm_base": "2025-09-07T14:29:30Z",
      "copyright": "The data included in this document is from www.openstreetmap.org. The data is made available under ODbL."
    },
    "elements": [
      {
        "type": "node",
        "id": 7510640716,
        "lat": 26.7507776,
        "lon": 80.9503758,
        "tags": {
          "addr:district": "Lucknow",
          "addr:full": "Raibareli Road, Sanjay Gandhi Postgraduate Institute Of Medical Sciences, Vrindavan Colony, Lucknow",
          "addr:postcode": "226014",
          "addr:state": "Uttar Pradesh",
          "amenity": "hospital",
          "name": "Oxford Hospital",
          "source": "Local Knowledge"
        }
      },
      {
        "type": "node",
        "id": 7510640727,
        "lat": 26.7489984,
        "lon": 80.9494975,
        "tags": {
          "addr:district": "Lucknow",
          "addr:full": "Raibareli Road, Above Suvidha Diagnostics, Haibat Mau Mawaiya, Lucknow",
          "addr:postcode": "226014",
          "addr:state": "Uttar Pradesh",
          "amenity": "hospital",
          "name": "Mother Care Children Hospital",
          "source": "Local Knowledge"
        }
      }
    ]
  },
  "pois_2_5km": {
    "version": 0.6,
    "generator": "Overpass API 0.7.62.8 e802775f",
    "osm3s": {
      "timestamp_osm_base": "2025-09-07T14:29:30Z",
      "copyright": "The data included in this document is from www.openstreetmap.org. The data is made available under ODbL."
    },
    "elements": [
      {
        "type": "node",
        "id": 7597064038,
        "lat": 26.7633752,
        "lon": 80.9742674,
        "tags": {
          "name": "Utrahtia",
          "network": "IR",
          "operator": "NR",
          "public_transport": "station",
          "railway": "station",
          "ref": "UTR",
          "train": "yes",
          "wikidata": "Q63370868"
        }
      }
    ]
  }
}