{
  "pois_1km": {
    "version": 0.6,
    "generator": "Overpass API 0.7.62.8 e802775f",
    "osm3s": {
      "timestamp_osm_base": "2025-09-07T14:25:31Z",
      "copyright": "The data included in this document is from www.openstreetmap.org. The data is made available under ODbL."
    },
    "elements": [
      {
        "type": "node",
        "id": 4283773589,
        "lat": 26.8508309,
        "lon": 80.9648847,
        "tags": {
          "amenity": "fast_food",
          "cuisine": "ice_cream",
          "name": "Parag"
        }
      },
      {
        "type": "node",
        "id": 7025215055,
        "lat": 26.8468326,
        "lon": 80.9612767,
        "tags": {
          "addr:district": "Lucknow",
          "addr:full": "2 Lucknow Cancer Institute, 1 Manas Nagar, Jaimau",
          "addr:postcode": "226001",
          "addr:state": "Uttar Pradesh",
          "amenity": "hospital",
          "name": "Raj Scanning Ltd and Lucknow Cancer Institute",
          "source": "OpenGovernmentData"
        }
      },
      {
        "type": "node",
        "id": 7030703294,
        "lat": 26.8505198,
        "lon": 80.959961,
        "tags": {
          "addr:district": "Lucknow",
          "addr:full": "Dalibagh Enclave Road, Pinki Apartment, Near Ganna Sansthan",
          "addr:postcode": "226001",
          "addr:state": "Uttar Pradesh",
          "amenity": "clinic",
          "name": "Dr Begs Child Care",
          "source": "OpenGovernmentData"
        }
      }
    ]
  },
  "pois_2_5km": {
    "version": 0.6,
    "generator": "Overpass API 0.7.62.8 e802775f",
    "osm3s": {
      "timestamp_osm_base": "2025-09-07T14:25:31Z",
      "copyright": "The data included in this document is from www.openstreetmap.org. The data is made available under ODbL."
    },
    "elements": [
      {
        "type": "node",
        "id": 2214748503,
        "lat": 26.856771,
        "lon": 80.9729819,
        "tags": {
          "amenity": "fuel",
          "brand": "Bharat Petroleum"
        }
      },
      {
        "type": "node",
        "id": 4292019389,
        "lat": 26.8478371,
        "lon": 80.9472678,
        "tags": {
          "addr:postcode": "226001",
          "addr:street": "Ashok Marg",
          "amenity": "fuel",
          "name": "Sarkar Petrol Pump "
        }
      },
      {
        "type": "node",
        "id": 6223289522,
        "lat": 26.8579165,
        "lon": 80.98439,
        "tags": {
          "amenity": "theatre",
          "theatre:type": "amphi"
        }
      },
      {
        "type": "node",
        "id": 6445132136,
        "lat": 26.8500472,
        "lon": 80.9416143,
        "tags": {
          "name": "Hazratganj",
          "name:hi": "\u0939\u091c\u093c\u0930\u0924\u0917\u0902\u091c",
          "network": "Lucknow Metro",
          "note": "Contributors are requested to not edit the \"network\" and the \"operator\" tags. (2023/11/08)",
          "operator": "Lucknow Metro Rail Corporation Limited",
          "public_transport": "stop_position",
          "subway": "yes"
        }
      },
      {
        "type": "node",
        "id": 6621697166,
        "lat": 26.8453548,
        "lon": 80.9455528,
        "tags": {
          "amenity": "fuel",
          "brand": "Bharat Petroleum",
          "fuel:diesel": "yes",
          "opening_hours": "24/7"
        }
      },
      {
        "type": "node",
        "id": 6627215625,
        "lat": 26.8554808,
        "lon": 80.973177,
        "tags": {
          "amenity": "theatre",
          "level": "1",
          "name": "Sant Gadge Ji Maharaj Auditorium",
          "name:hi": "\u0938\u0928\u094d\u0924 \u0917\u093e\u0921\u0917\u0947 \u091c\u0940 \u092e\u0939\u093e\u0930\u093e\u091c \u092a\u094d\u0930\u0947\u0915\u094d\u0937\u093e\u0917\u0943\u0939"
        }
      },
      {
        "type": "node",
        "id": 6627215626,
        "lat": 26.8555677,
        "lon": 80.9732368,
        "tags": {
          "amenity": "theatre",
          "level": "0",
          "name": "Valmiki Rangshala",
          "name:hi": "\u0935\u093e\u0932\u094d\u092e\u0940\u0915\u093f \u0930\u0902\u0917\u0936\u093e\u0932\u093e"
        }
      },
      {
        "type": "node",
        "id": 9655708801,
        "lat": 26.8500335,
        "lon": 80.9415944,
        "tags": {
          "name": "Hazratganj",
          "name:hi": "\u0939\u091c\u093c\u0930\u0924\u0917\u0902\u091c",
          "network": "Lucknow Metro",
          "note": "Contributors are requested to not edit the \"network\" and the \"operator\" tags. (2023/11/08)",
          "operator": "Lucknow Metro Rail Corporation Limited",
          "public_transport": "station",
          "railway": "station",
          "station": "subway",
          "subway": "yes"
        }
      },
      {
        "type": "node",
        "id": 9655728299,
        "lat": 26.8500069,
        "lon": 80.9415821,
        "tags": {
          "name": "Hazratganj",
          "name:hi": "\u0939\u091c\u093c\u0930\u0924\u0917\u0902\u091c",
          "network": "Lucknow Metro",
          "note": "Contributors are requested to not edit the \"network\" and the \"operator\" tags. (2023/11/08)",
          "operator": "Lucknow Metro Rail Corporation Limited",
          "public_transport": "stop_position",
          "subway": "yes"
        }
      }
    ]
  }
}