{
  "pois_1km": {
    "version": 0.6,
    "generator": "Overpass API 0.7.62.8 e802775f",
    "osm3s": {
      "timestamp_osm_base": "2025-09-07T14:14:15Z",
      "copyright": "The data included in this document is from www.openstreetmap.org. The data is made available under ODbL."
    },
    "elements": [
      {
        "type": "node",
        "id": 7024791011,
        "lat": 26.7920502,
        "lon": 80.8907247,
        "tags": {
          "addr:district": "Lucknow",
          "addr:full": "Baldikhera, Kanpur Road",
          "addr:postcode": "226001",
          "addr:state": "Uttar Pradesh",
          "amenity": "clinic",
          "name": "Dr. Rama Bhatnagar Nursing Home",
          "source": "OpenGovernmentData"
        }
      },
      {
        "type": "node",
        "id": 7028065727,
        "lat": 26.7973043,
        "lon": 80.8852771,
        "tags": {
          "addr:district": "Lucknow",
          "addr:full": "M-62 Indra Lok Khishna Nagar",
          "addr:postcode": "226021",
          "addr:state": "Uttar Pradesh",
          "amenity": "clinic",
          "name": "Chandra Prabha Nursing Home",
          "source": "OpenGovernmentData"
        }
      },
      {
        "type": "node",
        "id": 7030903305,
        "lat": 26.7922704,
        "lon": 80.8899697,
        "tags": {
          "addr:district": "Lucknow",
          "addr:full": "Vijai Nagar , Kanpur Road",
          "addr:postcode": "226023",
          "addr:state": "Uttar Pradesh",
          "amenity": "hospital",
          "name": "Gupta Hospital - Lucknow",
          "source": "OpenGovernmentData"
        }
      },
      {
        "type": "node",
        "id": 7031760176,
        "lat": 26.7954518,
        "lon": 80.8906576,
        "tags": {
          "addr:district": "Lucknow",
          "addr:full": "Kanpur Road Behind Krishna Nagar Police Station",
          "addr:postcode": "226023",
          "addr:state": "Uttar Pradesh",
          "amenity": "hospital",
          "name": "Lucknow Hospital",
          "source": "OpenGovernmentData"
        }
      },
      {
        "type": "node",
        "id": 7034986685,
        "lat": 26.7965639,
        "lon": 80.8925807,
        "tags": {
          "addr:district": "Lucknow",
          "addr:full": "Krishna Nagar, Kanpur Road",
          "addr:postcode": "226023",
          "addr:state": "Uttar Pradesh",
          "amenity": "hospital",
          "name": "Lal Hospital and Research Centre",
          "source": "OpenGovernmentData"
        }
      },
      {
        "type": "node",
        "id": 7510640744,
        "lat": 26.7858387,
        "lon": 80.8855539,
        "tags": {
          "addr:district": "Lucknow",
          "addr:full": "Overhead Water Tank, Vijay Nagar Colony, Alambagh, Lucknow",
          "addr:postcode": "226023",
          "addr:state": "Uttar Pradesh",
          "amenity": "hospital",
          "name": "ESIC Hospital",
          "source": "Local Knowledge"
        }
      },
      {
        "type": "node",
        "id": 7510640749,
        "lat": 26.7977709,
        "lon": 80.8869151,
        "tags": {
          "addr:district": "Lucknow",
          "addr:full": "Gopal Nagar, Krishna Nagar, Alambagh, Lucknow",
          "addr:postcode": "226023",
          "addr:state": "Uttar Pradesh",
          "amenity": "hospital",
          "name": "Silverline Hospital",
          "source": "Local Knowledge"
        }
      },
      {
        "type": "node",
        "id": 7510640765,
        "lat": 26.7913344,
        "lon": 80.8897137,
        "tags": {
          "addr:district": "Lucknow",
          "addr:full": "Station Road, Cipet College, Gindan Khera, Lucknow",
          "addr:postcode": "226008",
          "addr:state": "Uttar Pradesh",
          "amenity": "hospital",
          "name": "Saina Charitable Hospital",
          "source": "Local Knowledge"
        }
      },
      {
        "type": "node",
        "id": 7510640766,
        "lat": 26.7935391,
        "lon": 80.888399,
        "tags": {
          "addr:district": "Lucknow",
          "addr:full": "Manokanika Road, Vijay Nagar Colony, Krishna Nagar, Alambagh, Lucknow",
          "addr:postcode": "226005",
          "addr:state": "Uttar Pradesh",
          "amenity": "hospital",
          "name": "Eye Q Super Speciality Eye Hospital",
          "source": "Local Knowledge"
        }
      },
      {
        "type": "node",
        "id": 7510640779,
        "lat": 26.7954249,
        "lon": 80.8933345,
        "tags": {
          "addr:district": "Lucknow",
          "addr:full": "Bargawan, L.D.A Turn (Community), Kanpur Road, Lucknow",
          "addr:postcode": "226012",
          "addr:state": "Uttar Pradesh",
          "amenity": "hospital",
          "name": "Balaji Hospital & Eye Centre",
          "source": "Local Knowledge"
        }
      },
      {
        "type": "node",
        "id": 7510640785,
        "lat": 26.7928072,
        "lon": 80.8891023,
        "tags": {
          "addr:district": "Lucknow",
          "addr:full": "Vijay Nagar Colony, Krishna Nagar, Alambagh, Lucknow",
          "addr:postcode": "226023",
          "addr:state": "Uttar Pradesh",
          "amenity": "hospital",
          "name": "CMC Medical Centre",
          "source": "Local Knowledge"
        }
      },
      {
        "type": "node",
        "id": 7510640799,
        "lat": 26.7980243,
        "lon": 80.8858923,
        "tags": {
          "addr:district": "Lucknow",
          "addr:full": "Indralok Market, Indralok Colony, Krishna Nagar, Alambagh, Lucknow",
          "addr:postcode": "226012",
          "addr:state": "Uttar Pradesh",
          "amenity": "hospital",
          "name": "Dr.Manju Pankaj Tripathi Diagnostics and Multi Speciality Hospital",
          "source": "Local Knowledge"
        }
      }
    ]
  },
  "pois_2_5km": {
    "version": 0.6,
    "generator": "Overpass API 0.7.62.8 e802775f",
    "osm3s": {
      "timestamp_osm_base": "2025-09-07T14:14:15Z",
      "copyright": "The data included in this document is from www.openstreetmap.org. The data is made available under ODbL."
    },
    "elements": [
      {
        "type": "node",
        "id": 3097223409,
        "lat": 26.7988392,
        "lon": 80.8968316,
        "tags": {
          "amenity": "cinema",
          "brand": "PVR Cinemas",
          "brand:wikidata": "Q3359908",
          "name": "PVR Cinemas",
          "opening_hours": "Mo-Su 10:00-22:00",
          "short_name": "PVR"
        }
      },
      {
        "type": "node",
        "id": 3997322402,
        "lat": 26.794391,
        "lon": 80.891762,
        "tags": {
          "name": "Krishna Nagar",
          "name:hi": "\u0915\u0943\u0937\u094d\u0923\u093e \u0928\u0917\u0930",
          "network": "Lucknow Metro",
          "note": "Contributors are requested to not edit the \"network\" and the \"operator\" tags. (2023/11/08)",
          "operator": "Lucknow Metro Rail Corporation Limited",
          "public_transport": "station",
          "railway": "station",
          "station": "subway",
          "subway": "yes"
        }
      },
      {
        "type": "node",
        "id": 3997322776,
        "lat": 26.8030998,
        "lon": 80.8964272,
        "tags": {
          "name": "Singar Nagar",
          "name:hi": "\u0938\u093f\u0902\u0917\u093e\u0930 \u0928\u0917\u0930",
          "network": "Lucknow Metro",
          "note": "Contributors are requested to not edit the \"network\" and the \"operator\" tags. (2023/11/08)",
          "operator": "Lucknow Metro Rail Corporation Limited",
          "public_transport": "station",
          "railway": "station",
          "station": "subway",
          "subway": "yes",
          "wheelchair": "yes"
        }
      },
      {
        "type": "node",
        "id": 3997322777,
        "lat": 26.7781141,
        "lon": 80.8828258,
        "tags": {
          "name": "Transport Nagar",
          "name:hi": "\u091f\u094d\u0930\u093e\u0902\u0938\u092a\u094b\u0930\u094d\u091f \u0928\u0917\u0930",
          "network": "Lucknow Metro",
          "note": "Contributors are requested to not edit the \"network\" and the \"operator\" tags. (2023/11/08)",
          "operator": "Lucknow Metro Rail Corporation Limited",
          "public_transport": "stop_position",
          "railway": "stop",
          "subway": "yes"
        }
      },
      {
        "type": "node",
        "id": 5777576804,
        "lat": 26.7776382,
        "lon": 80.8824633,
        "tags": {
          "name": "Transport Nagar",
          "name:hi": "\u091f\u094d\u0930\u093e\u0902\u0938\u092a\u094b\u0930\u094d\u091f \u0928\u0917\u0930",
          "network": "Lucknow Metro",
          "note": "Contributors are requested to not edit the \"network\" and the \"operator\" tags. (2023/11/08)",
          "operator": "Lucknow Metro Rail Corporation Limited",
          "public_transport": "stop_position",
          "railway": "stop",
          "subway": "yes"
        }
      },
      {
        "type": "node",
        "id": 5777576805,
        "lat": 26.7944007,
        "lon": 80.8917436,
        "tags": {
          "name": "Krishna Nagar",
          "name:hi": "\u0915\u0943\u0937\u094d\u0923\u093e \u0928\u0917\u0930",
          "network": "Lucknow Metro",
          "note": "Contributors are requested to not edit the \"network\" and the \"operator\" tags. (2023/11/08)",
          "operator": "Lucknow Metro Rail Corporation Limited",
          "public_transport": "stop_position",
          "subway": "yes"
        }
      },
      {
        "type": "node",
        "id": 5777576806,
        "lat": 26.8030987,
        "lon": 80.8964109,
        "tags": {
          "name": "Singar Nagar",
          "name:hi": "\u0938\u093f\u0902\u0917\u093e\u0930 \u0928\u0917\u0930",
          "network": "Lucknow Metro",
          "note": "Contributors are requested to not edit the \"network\" and the \"operator\" tags. (2023/11/08)",
          "operator": "Lucknow Metro Rail Corporation Limited",
          "public_transport": "stop_position",
          "railway": "stop",
          "subway": "yes"
        }
      },
      {
        "type": "node",
        "id": 7716995066,
        "lat": 26.8106778,
        "lon": 80.8909379,
        "tags": {
          "name": "Manak Nagar",
          "operator": "NR",
          "public_transport": "station",
          "railway": "station",
          "ref": "MKG",
          "train": "yes",
          "wikidata": "Q24949466",
          "wikipedia": "en:Manak Nagar railway station"
        }
      },
      {
        "type": "node",
        "id": 8006089159,
        "lat": 26.8030829,
        "lon": 80.8964507,
        "tags": {
          "name": "Singar Nagar",
          "name:hi": "\u0938\u093f\u0902\u0917\u093e\u0930 \u0928\u0917\u0930",
          "network": "Lucknow Metro",
          "note": "Contributors are requested to not edit the \"network\" and the \"operator\" tags. (2023/11/08)",
          "operator": "Lucknow Metro Rail Corporation Limited",
          "public_transport": "stop_position",
          "subway": "yes"
        }
      },
      {
        "type": "node",
        "id": 8006089160,
        "lat": 26.7943833,
        "lon": 80.8917825,
        "tags": {
          "name": "Krishna Nagar",
          "name:hi": "\u0915\u0943\u0937\u094d\u0923\u093e \u0928\u0917\u0930",
          "network": "Lucknow Metro",
          "note": "Contributors are requested to not edit the \"network\" and the \"operator\" tags. (2023/11/08)",
          "operator": "Lucknow Metro Rail Corporation Limited",
          "public_transport": "stop_position",
          "subway": "yes"
        }
      },
      {
        "type": "node",
        "id": 8006089161,
        "lat": 26.777877,
        "lon": 80.8826512,
        "tags": {
          "name": "Transport Nagar",
          "name:hi": "\u091f\u094d\u0930\u093e\u0902\u0938\u092a\u094b\u0930\u094d\u091f \u0928\u0917\u0930",
          "network": "Lucknow Metro",
          "note": "Contributors are requested to not edit the \"network\" and the \"operator\" tags. (2023/11/08)",
          "operator": "Lucknow Metro Rail Corporation Limited",
          "public_transport": "station",
          "railway": "station",
          "station": "subway",
          "subway": "yes",
          "wikidata": "Q17123999",
          "wikipedia": "en:Transport Nagar metro station"
        }
      }
    ]
  }
}