{
  "pois_1km": {
    "version": 0.6,
    "generator": "Overpass API 0.7.62.8 e802775f",
    "osm3s": {
      "timestamp_osm_base": "2025-09-07T14:02:01Z",
      "copyright": "The data included in this document is from www.openstreetmap.org. The data is made available under ODbL."
    },
    "elements": [
      {
        "type": "node",
        "id": 3664092940,
        "lat": 26.8444615,
        "lon": 80.945768,
        "tags": {
          "addr:city": "lucknow",
          "addr:housenumber": "234",
          "addr:postcode": "226010",
          "amenity": "fast_food",
          "cuisine": "pizza",
          "name": "Telepizza"
        }
      },
      {
        "type": "node",
        "id": 4968712021,
        "lat": 26.8475668,
        "lon": 80.9447975,
        "tags": {
          "addr:housenumber": "75",
          "addr:street": "Hazratganj",
          "amenity": "restaurant",
          "name:en": "Moti Mahal"
        }
      },
      {
        "type": "node",
        "id": 6123271785,
        "lat": 26.8418171,
        "lon": 80.9303929,
        "tags": {
          "amenity": "bank",
          "name:en": "ICICI Bank Aminabad"
        }
      },
      {
        "type": "node",
        "id": 6621697160,
        "lat": 26.8409331,
        "lon": 80.9373503,
        "tags": {
          "amenity": "bank",
          "atm": "yes",
          "brand": "Karnataka Bank"
        }
      },
      {
        "type": "node",
        "id": 6621697162,
        "lat": 26.8409489,
        "lon": 80.9374359,
        "tags": {
          "amenity": "bank",
          "atm": "yes",
          "brand": "Bank of Maharashtra"
        }
      },
      {
        "type": "node",
        "id": 6621697164,
        "lat": 26.8418872,
        "lon": 80.9399218,
        "tags": {
          "addr:district": "Lucknow",
          "addr:full": "#57/53, Vidhan Sabha Marg,Opposite Akashvani",
          "addr:postcode": "226001",
          "addr:state": "Uttar Pradesh",
          "amenity": "hospital",
          "healthcare": "hospital",
          "name": "Mansarovar Eye Hospital",
          "name:hi": "\u092e\u093e\u0928\u0938\u0930\u094b\u0935\u0930 \u0928\u0947\u0924\u094d\u0930 \u091a\u093f\u0915\u093f\u0924\u094d\u0938\u093e\u0932\u092f",
          "source": "OpenGovernmentData"
        }
      },
      {
        "type": "node",
        "id": 6621697167,
        "lat": 26.8406815,
        "lon": 80.9368733,
        "tags": {
          "amenity": "bank",
          "atm": "yes",
          "brand": "Dena Bank"
        }
      },
      {
        "type": "node",
        "id": 6635065566,
        "lat": 26.848115,
        "lon": 80.9400898,
        "tags": {
          "amenity": "cafe",
          "brand": "Cafe Coffee Day",
          "cuisine": "coffee_shop",
          "name": "Cafe Coffee Day",
          "takeaway": "yes"
        }
      },
      {
        "type": "node",
        "id": 6635065568,
        "lat": 26.8480668,
        "lon": 80.9398469,
        "tags": {
          "amenity": "bank",
          "atm": "yes",
          "branch": "Lucknow Main",
          "brand": "Union Bank"
        }
      },
      {
        "type": "node",
        "id": 6635065570,
        "lat": 26.8475673,
        "lon": 80.9407262,
        "tags": {
          "amenity": "atm",
          "brand": "IndusInd Bank",
          "opening_hours": "24/7"
        }
      },
      {
        "type": "node",
        "id": 6635147754,
        "lat": 26.8484634,
        "lon": 80.9394726,
        "tags": {
          "amenity": "atm",
          "brand": "State Bank of India"
        }
      },
      {
        "type": "node",
        "id": 6635147755,
        "lat": 26.8481534,
        "lon": 80.9394783,
        "tags": {
          "amenity": "atm",
          "brand": "ICICI Bank"
        }
      },
      {
        "type": "node",
        "id": 6635147756,
        "lat": 26.8484675,
        "lon": 80.9395378,
        "tags": {
          "amenity": "bank",
          "branch": "Nagar Mahapalika",
          "brand": "State Bank of India"
        }
      },
      {
        "type": "node",
        "id": 6635438738,
        "lat": 26.8473949,
        "lon": 80.9418664,
        "tags": {
          "amenity": "atm",
          "brand": "State Bank of India",
          "wheelchair": "no"
        }
      },
      {
        "type": "node",
        "id": 6635438739,
        "lat": 26.8401573,
        "lon": 80.9369633,
        "tags": {
          "amenity": "bank",
          "atm": "yes",
          "branch": "Hussainganj",
          "brand": "Allahabad Bank"
        }
      },
      {
        "type": "node",
        "id": 6635438743,
        "lat": 26.8463948,
        "lon": 80.9455284,
        "tags": {
          "amenity": "atm",
          "brand": "Indian Overseas Bank",
          "opening_hours": "24/7",
          "wheelchair": "no"
        }
      },
      {
        "type": "node",
        "id": 6635438751,
        "lat": 26.8488047,
        "lon": 80.9406972,
        "tags": {
          "amenity": "bank",
          "atm": "yes",
          "brand": "Punjab and Sind Bank"
        }
      },
      {
        "type": "node",
        "id": 6792803219,
        "lat": 26.851626,
        "lon": 80.9365486,
        "tags": {
          "addr:city": "Lucknow",
          "addr:housenumber": "GF-113, Ground Floor,",
          "addr:postcode": "226001",
          "addr:street": "Ansal City Centre, Hazratganj,",
          "amenity": "bank",
          "drive_through": "yes",
          "name": "Customised Capital Care",
          "operator": "Loan Agency"
        }
      },
      {
        "type": "node",
        "id": 7018564257,
        "lat": 26.8504049,
        "lon": 80.936254,
        "tags": {
          "addr:district": "Lucknow",
          "addr:full": "3, J. C. Bose Marg, Lal Bagh",
          "addr:postcode": "226001",
          "addr:state": "Uttar Pradesh",
          "amenity": "hospital",
          "name": "Nishat Hospital",
          "source": "OpenGovernmentData"
        }
      },
      {
        "type": "node",
        "id": 7028033833,
        "lat": 26.8479776,
        "lon": 80.9360737,
        "tags": {
          "addr:district": "Lucknow",
          "addr:full": "Kaiserbagh Officer's Colony, Lalbagh",
          "addr:postcode": "226001",
          "addr:state": "Uttar Pradesh",
          "amenity": "clinic",
          "name": "Nur Manzil Psychiatric Centre",
          "source": "OpenGovernmentData"
        }
      },
      {
        "type": "node",
        "id": 7028172591,
        "lat": 26.8508471,
        "lon": 80.9325202,
        "tags": {
          "addr:district": "Lucknow",
          "addr:full": "1, B.N. Road, Kaiserbagh",
          "addr:postcode": "226001",
          "addr:state": "Uttar Pradesh",
          "amenity": "hospital",
          "name": "Indira Gandhi Eye Hospital And Research Centre",
          "name:etymology:wikidata": "Q1149",
          "source": "OpenGovernmentData"
        }
      },
      {
        "type": "node",
        "id": 7028758422,
        "lat": 26.8420895,
        "lon": 80.9369887,
        "tags": {
          "addr:district": "Lucknow",
          "addr:full": "# 37, Cantt. Road, Near Burlington Crossing, Hussain Ganj",
          "addr:postcode": "226001",
          "addr:state": "Uttar Pradesh",
          "amenity": "hospital",
          "name": "F.I. Hosptial",
          "source": "OpenGovernmentData"
        }
      },
      {
        "type": "node",
        "id": 7031207670,
        "lat": 26.8398841,
        "lon": 80.9426891,
        "tags": {
          "addr:district": "Lucknow",
          "addr:full": "4-A, Fawnbrake Avenue, Near Yogana Bhawan,Sarojini Naidu Marg",
          "addr:postcode": "226001",
          "addr:state": "Uttar Pradesh",
          "amenity": "hospital",
          "name": "Handa Hospital, Lucknow",
          "source": "OpenGovernmentData"
        }
      },
      {
        "type": "node",
        "id": 7205453350,
        "lat": 26.8460131,
        "lon": 80.9452862,
        "tags": {
          "addr:district": "Lucknow",
          "addr:full": "Major, Infront of Statue of Mahatma Gandhi Hazratganj lucknow, Hazratganj Lucknow, Veerangana Jhalkaribai Mahila Hospital,",
          "addr:state": "Uttar Pradesh",
          "amenity": "hospital",
          "description": "District Hospital",
          "name": "JHALKARI BAI MAHILA HOSPITALS",
          "source": "OpenGovernmentData"
        }
      },
      {
        "type": "node",
        "id": 7510640720,
        "lat": 26.8401445,
        "lon": 80.9285055,
        "tags": {
          "addr:district": "Lucknow",
          "addr:full": "Ram Gopal Vidyant Road, Lalkuan, Lucknow",
          "addr:postcode": "226001",
          "addr:state": "Uttar Pradesh",
          "amenity": "hospital",
          "name": "Nayab Hospital",
          "source": "Local Knowledge"
        }
      },
      {
        "type": "node",
        "id": 7510640734,
        "lat": 26.84184,
        "lon": 80.9369666,
        "tags": {
          "addr:district": "Lucknow",
          "addr:full": "Burlington Crossing, 37, Cantonment Road, Lucknow",
          "addr:postcode": "226001",
          "addr:state": "Uttar Pradesh",
          "amenity": "hospital",
          "name": "Medwell Hospital",
          "source": "Local Knowledge"
        }
      },
      {
        "type": "node",
        "id": 9035161918,
        "lat": 26.8483271,
        "lon": 80.9437858,
        "tags": {
          "addr:street": "Hazratganj",
          "amenity": "cafe",
          "name:en": "Royal Cafe"
        }
      },
      {
        "type": "node",
        "id": 11230374367,
        "lat": 26.8418087,
        "lon": 80.9296937,
        "tags": {
          "amenity": "fast_food",
          "level": "-1",
          "name": "Rattilal's",
          "opening_hours": "PH,Mo-Su 05:30-17:00"
        }
      },
      {
        "type": "node",
        "id": 11993536236,
        "lat": 26.8383467,
        "lon": 80.9345706,
        "tags": {
          "addr:street": "Station Road",
          "amenity": "restaurant",
          "name": "Golden Tulip Hotel"
        }
      },
      {
        "type": "node",
        "id": 12748201976,
        "lat": 26.8477535,
        "lon": 80.9406863,
        "tags": {
          "amenity": "cafe",
          "cuisine": "tea",
          "name": "Sharma ji ki Chai",
          "name:hi": "\u0936\u0930\u094d\u092e\u093e \u091c\u0940 \u0915\u0940 \u091a\u093e\u092f"
        }
      },
      {
        "type": "node",
        "id": 12751688688,
        "lat": 26.8482304,
        "lon": 80.9405469,
        "tags": {
          "amenity": "cafe",
          "cuisine": "Tea",
          "name": "Shivneri Chai"
        }
      },
      {
        "type": "node",
        "id": 13036561537,
        "lat": 26.8495884,
        "lon": 80.9430039,
        "tags": {
          "amenity": "fast_food",
          "check_date": "2025-07-30",
          "name": "Shukla Tea Stall"
        }
      },
      {
        "type": "node",
        "id": 13036561538,
        "lat": 26.8497155,
        "lon": 80.942816,
        "tags": {
          "amenity": "fast_food",
          "check_date": "2025-07-30",
          "name": "Shukla Chat House"
        }
      },
      {
        "type": "node",
        "id": 13042903805,
        "lat": 26.8504201,
        "lon": 80.9409029,
        "tags": {
          "amenity": "restaurant"
        }
      },
      {
        "type": "node",
        "id": 13124608727,
        "lat": 26.8427594,
        "lon": 80.9277711,
        "tags": {
          "amenity": "fast_food",
          "name:en": "Shri Durga Khasta Corner",
          "name:hi": "\u0936\u094d\u0930\u0940 \u0926\u0941\u0930\u094d\u0917\u093e \u0916\u0938\u094d\u0924\u093e \u0915\u0949\u0930\u094d\u0928\u0930"
        }
      }
    ]
  },
  "pois_2_5km": {
    "version": 0.6,
    "generator": "Overpass API 0.7.62.8 e802775f",
    "osm3s": {
      "timestamp_osm_base": "2025-09-07T14:03:01Z",
      "copyright": "The data included in this document is from www.openstreetmap.org. The data is made available under ODbL."
    },
    "elements": [
      {
        "type": "node",
        "id": 564713410,
        "lat": 26.8305073,
        "lon": 80.9244154,
        "tags": {
          "name": "Lucknow Charbagh",
          "name:de": "Lucknow Charbagh",
          "name:ur": "\u0644\u06a9\u06be\u0646\u0624 \u0686\u0627\u0631\u0628\u0627\u063a",
          "public_transport": "stop_position",
          "railway": "stop",
          "train": "yes"
        }
      },
      {
        "type": "node",
        "id": 564718427,
        "lat": 26.8311583,
        "lon": 80.9243609,
        "tags": {
          "addr:city": "Lucknow",
          "ele": "123.5",
          "internet_access": "wlan",
          "name": "Lucknow Charbagh",
          "name:de": "Lucknow Charbagh",
          "name:en": "Lucknow Charbagh",
          "name:hi": "\u0932\u0916\u0928\u090a \u091a\u093e\u0930\u092c\u093e\u0917\u093c",
          "name:ur": "\u0644\u06a9\u06be\u0646\u0624 \u0686\u0627\u0631\u0628\u0627\u063a",
          "network": "IR",
          "operator": "NR",
          "public_transport": "station",
          "railway": "station",
          "ref": "LKO",
          "train": "yes",
          "wheelchair": "yes",
          "wikidata": "Q3633969",
          "wikimedia_commons": "File:Lucknow Charbagh Railway Station 3.jpg",
          "wikipedia": "en:Lucknow Charbagh railway station"
        }
      },
      {
        "type": "node",
        "id": 2207518133,
        "lat": 26.8370396,
        "lon": 80.9213257,
        "tags": {
          "bus": "yes",
          "highway": "bus_stop",
          "name": "Lucknow Main Hotel ANR",
          "public_transport": "stop_position"
        }
      },
      {
        "type": "node",
        "id": 2213444018,
        "lat": 26.8532581,
        "lon": 80.9164529,
        "tags": {
          "operator": "NER",
          "railway": "station"
        }
      },
      {
        "type": "node",
        "id": 2226248382,
        "lat": 26.8479918,
        "lon": 80.9394268,
        "tags": {
          "amenity": "cinema"
        }
      },
      {
        "type": "node",
        "id": 3305357099,
        "lat": 26.8374521,
        "lon": 80.9200495,
        "tags": {
          "amenity": "fuel",
          "name": "Bharath Petroleum Station"
        }
      },
      {
        "type": "node",
        "id": 4170031601,
        "lat": 26.8315101,
        "lon": 80.9222977,
        "tags": {
          "addr:city": "Lucknow",
          "ele": "126",
          "name": "Lucknow Junction",
          "name:de": "Lakhnau Junction",
          "name:hi": "\u0932\u0916\u0928\u090a \u091c\u0902\u0915\u094d\u0936\u0928",
          "name:ur": "\u0644\u06a9\u06be\u0646\u0624 \u062c\u0646\u06a9\u0634\u0646",
          "network": "Indian Railways",
          "operator": "Northern Railway",
          "public_transport": "station",
          "railway": "station",
          "ref": "LJN",
          "train": "yes",
          "wheelchair": "limited",
          "wikidata": "Q17151999",
          "wikipedia": "en:Lucknow Junction railway station"
        }
      },
      {
        "type": "node",
        "id": 4244207702,
        "lat": 26.8324023,
        "lon": 80.9231133,
        "tags": {
          "name": "Charbagh Railway Station",
          "name:hi": "\u091a\u093e\u0930\u092c\u093e\u0917\u093c \u0930\u0947\u0932\u0935\u0947 \u0938\u094d\u091f\u0947\u0936\u0928",
          "name:ur": "\u0644\u06a9\u06be\u0646\u0624 \u0686\u0627\u0631\u0628\u0627\u063a \u0627\u0633\u0679\u06cc\u0634\u0646",
          "network": "Lucknow Metro",
          "note": "Contributors are requested to not edit the \"network\" and the \"operator\" tags. (2023/11/08)",
          "operator": "Lucknow Metro Rail Corporation Limited",
          "public_transport": "station",
          "railway": "station",
          "station": "subway",
          "subway": "yes",
          "wheelchair": "yes"
        }
      },
      {
        "type": "node",
        "id": 4244207703,
        "lat": 26.8320029,
        "lon": 80.9154077,
        "tags": {
          "name": "Durgapuri",
          "name:hi": "\u0926\u0941\u0930\u094d\u0917\u093e\u092a\u0941\u0930\u0940",
          "network": "Lucknow Metro",
          "note": "Contributors are requested to not edit the \"network\" and the \"operator\" tags. (2023/11/08)",
          "operator": "Lucknow Metro Rail Corporation Limited",
          "public_transport": "station",
          "railway": "station",
          "ref": "DGPI",
          "station": "subway",
          "subway": "yes"
        }
      },
      {
        "type": "node",
        "id": 4244207745,
        "lat": 26.8415965,
        "lon": 80.9399056,
        "tags": {
          "name": "Sachivalaya",
          "name:hi": "\u0938\u091a\u093f\u0935\u093e\u0932\u092f",
          "network": "Lucknow Metro",
          "note": "Contributors are requested to not edit the \"network\" and the \"operator\" tags. (2023/11/08)",
          "operator": "Lucknow Metro Rail Corporation Limited",
          "public_transport": "station",
          "railway": "station",
          "station": "subway",
          "subway": "yes"
        }
      },
      {
        "type": "node",
        "id": 4292019389,
        "lat": 26.8478371,
        "lon": 80.9472678,
        "tags": {
          "addr:postcode": "226001",
          "addr:street": "Ashok Marg",
          "amenity": "fuel",
          "name": "Sarkar Petrol Pump "
        }
      },
      {
        "type": "node",
        "id": 4977535798,
        "lat": 26.8539423,
        "lon": 80.9368471,
        "tags": {
          "name": "KD Singh Babu Stadium",
          "name:hi": "\u0915\u0947\u0921\u0940 \u0938\u093f\u0902\u0939 \u092c\u093e\u092c\u0942 \u0938\u094d\u091f\u0947\u0921\u093f\u092f\u092e",
          "network": "Lucknow Metro",
          "note": "Contributors are requested to not edit the \"network\" and the \"operator\" tags. (2023/11/08)",
          "operator": "Lucknow Metro Rail Corporation Limited",
          "public_transport": "stop_position",
          "subway": "yes"
        }
      },
      {
        "type": "node",
        "id": 5195189621,
        "lat": 26.8388944,
        "lon": 80.9345356,
        "tags": {
          "amenity": "fuel",
          "brand": "Bharat Petroleum",
          "brand:wikidata": "Q854826",
          "name": "Bharat Petroleum",
          "name:en": "Bharat Petroleum"
        }
      },
      {
        "type": "node",
        "id": 5777575720,
        "lat": 26.8416132,
        "lon": 80.939897,
        "tags": {
          "name": "Sachivalaya",
          "name:hi": "\u0938\u091a\u093f\u0935\u093e\u0932\u092f",
          "network": "Lucknow Metro",
          "note": "Contributors are requested to not edit the \"network\" and the \"operator\" tags. (2023/11/08)",
          "operator": "Lucknow Metro Rail Corporation Limited",
          "public_transport": "stop_position",
          "subway": "yes"
        }
      },
      {
        "type": "node",
        "id": 5777576802,
        "lat": 26.83242,
        "lon": 80.9231122,
        "tags": {
          "name": "Charbagh Railway Station",
          "name:hi": "\u091a\u093e\u0930\u092c\u093e\u0917\u093c \u0930\u0947\u0932\u0935\u0947 \u0938\u094d\u091f\u0947\u0936\u0928",
          "name:ur": "\u0644\u06a9\u06be\u0646\u0624 \u0686\u0627\u0631\u0628\u0627\u063a \u0627\u0633\u0679\u06cc\u0634\u0646",
          "network": "Lucknow Metro",
          "note": "Contributors are requested to not edit the \"network\" and the \"operator\" tags. (2023/11/08)",
          "operator": "Lucknow Metro Rail Corporation Limited",
          "public_transport": "stop_position",
          "railway": "stop",
          "subway": "yes"
        }
      },
      {
        "type": "node",
        "id": 5777576810,
        "lat": 26.8320186,
        "lon": 80.915408,
        "tags": {
          "name": "Durgapuri",
          "name:hi": "\u0926\u0941\u0930\u094d\u0917\u093e\u092a\u0941\u0930\u0940",
          "network": "Lucknow Metro",
          "note": "Contributors are requested to not edit the \"network\" and the \"operator\" tags. (2023/11/08)",
          "operator": "Lucknow Metro Rail Corporation Limited",
          "public_transport": "stop_position",
          "ref": "DGPI",
          "subway": "yes"
        }
      },
      {
        "type": "node",
        "id": 5790401044,
        "lat": 26.8392677,
        "lon": 80.9335726,
        "tags": {
          "bus": "yes",
          "highway": "bus_stop",
          "name": "Lucknow Main 221 KTM Bike",
          "public_transport": "stop_position"
        }
      },
      {
        "type": "node",
        "id": 5790401045,
        "lat": 26.8390031,
        "lon": 80.9295848,
        "tags": {
          "bus": "yes",
          "highway": "bus_stop",
          "name": "Lucknow Main 221",
          "public_transport": "stop_position"
        }
      },
      {
        "type": "node",
        "id": 5790401046,
        "lat": 26.8374784,
        "lon": 80.9263134,
        "tags": {
          "bus": "yes",
          "highway": "bus_stop",
          "name": "Lucknow Main 221",
          "public_transport": "stop_position"
        }
      },
      {
        "type": "node",
        "id": 5790401047,
        "lat": 26.837286,
        "lon": 80.9243269,
        "tags": {
          "bus": "yes",
          "highway": "bus_stop",
          "name": "Lucknow Main",
          "public_transport": "stop_position"
        }
      },
      {
        "type": "node",
        "id": 5790401048,
        "lat": 26.8370973,
        "lon": 80.9231744,
        "tags": {
          "bus": "yes",
          "highway": "bus_stop",
          "name": "Lucknow Main",
          "public_transport": "stop_position"
        }
      },
      {
        "type": "node",
        "id": 6445132136,
        "lat": 26.8500472,
        "lon": 80.9416143,
        "tags": {
          "name": "Hazratganj",
          "name:hi": "\u0939\u091c\u093c\u0930\u0924\u0917\u0902\u091c",
          "network": "Lucknow Metro",
          "note": "Contributors are requested to not edit the \"network\" and the \"operator\" tags. (2023/11/08)",
          "operator": "Lucknow Metro Rail Corporation Limited",
          "public_transport": "stop_position",
          "subway": "yes"
        }
      },
      {
        "type": "node",
        "id": 6445132137,
        "lat": 26.8384284,
        "lon": 80.93433,
        "tags": {
          "name": "Hussainganj",
          "name:hi": "\u0939\u0941\u0938\u0948\u0928\u0917\u0902\u091c",
          "network": "Lucknow Metro",
          "note": "Contributors are requested to not edit the \"network\" and the \"operator\" tags. (2023/11/08)",
          "operator": "Lucknow Metro Rail Corporation Limited",
          "public_transport": "station",
          "railway": "station",
          "station": "subway",
          "subway": "yes"
        }
      },
      {
        "type": "node",
        "id": 6621697158,
        "lat": 26.8422387,
        "lon": 80.940551,
        "tags": {
          "amenity": "fuel",
          "brand": "Hindustan Petroleum"
        }
      },
      {
        "type": "node",
        "id": 6621697161,
        "lat": 26.8411158,
        "lon": 80.9395115,
        "tags": {
          "amenity": "fuel",
          "brand": "Hindustan Petroleum"
        }
      },
      {
        "type": "node",
        "id": 6621697166,
        "lat": 26.8453548,
        "lon": 80.9455528,
        "tags": {
          "amenity": "fuel",
          "brand": "Bharat Petroleum",
          "fuel:diesel": "yes",
          "opening_hours": "24/7"
        }
      },
      {
        "type": "node",
        "id": 6635065569,
        "lat": 26.8481427,
        "lon": 80.9399566,
        "tags": {
          "amenity": "cinema",
          "name": "Novelty MGS Cinemas"
        }
      },
      {
        "type": "node",
        "id": 7620685578,
        "lat": 26.8300322,
        "lon": 80.9244101,
        "tags": {
          "name": "Lucknow Charbagh",
          "name:de": "Lucknow Charbagh",
          "name:ur": "\u0644\u06a9\u06be\u0646\u0624 \u0686\u0627\u0631\u0628\u0627\u063a",
          "public_transport": "stop_position",
          "railway": "stop",
          "train": "yes"
        }
      },
      {
        "type": "node",
        "id": 7620685579,
        "lat": 26.8302051,
        "lon": 80.92439,
        "tags": {
          "name": "Lucknow Charbagh",
          "name:de": "Lucknow Charbagh",
          "name:ur": "\u0644\u06a9\u06be\u0646\u0624 \u0686\u0627\u0631\u0628\u0627\u063a",
          "public_transport": "stop_position",
          "railway": "stop",
          "train": "yes"
        }
      },
      {
        "type": "node",
        "id": 7620685580,
        "lat": 26.8302437,
        "lon": 80.9243891,
        "tags": {
          "name": "Lucknow Charbagh",
          "name:de": "Lucknow Charbagh",
          "name:ur": "\u0644\u06a9\u06be\u0646\u0624 \u0686\u0627\u0631\u0628\u0627\u063a",
          "public_transport": "stop_position",
          "railway": "stop",
          "train": "yes"
        }
      },
      {
        "type": "node",
        "id": 7620685581,
        "lat": 26.8307654,
        "lon": 80.9243676,
        "tags": {
          "name": "Lucknow Charbagh",
          "name:de": "Lucknow Charbagh",
          "name:ur": "\u0644\u06a9\u06be\u0646\u0624 \u0686\u0627\u0631\u0628\u0627\u063a",
          "public_transport": "stop_position",
          "railway": "stop",
          "train": "yes"
        }
      },
      {
        "type": "node",
        "id": 7620685582,
        "lat": 26.8306811,
        "lon": 80.9243746,
        "tags": {
          "name": "Lucknow Charbagh",
          "name:de": "Lucknow Charbagh",
          "name:ur": "\u0644\u06a9\u06be\u0646\u0624 \u0686\u0627\u0631\u0628\u0627\u063a",
          "public_transport": "stop_position",
          "railway": "stop",
          "train": "yes"
        }
      },
      {
        "type": "node",
        "id": 7620685583,
        "lat": 26.8304265,
        "lon": 80.924412,
        "tags": {
          "name": "Lucknow Charbagh",
          "name:ur": "\u0644\u06a9\u06be\u0646\u0624 \u0686\u0627\u0631\u0628\u0627\u063a",
          "public_transport": "stop_position",
          "railway": "stop",
          "train": "yes"
        }
      },
      {
        "type": "node",
        "id": 8006089152,
        "lat": 26.8415797,
        "lon": 80.9399191,
        "tags": {
          "name": "Sachivalaya",
          "name:hi": "\u0938\u091a\u093f\u0935\u093e\u0932\u092f",
          "network": "Lucknow Metro",
          "note": "Contributors are requested to not edit the \"network\" and the \"operator\" tags. (2023/11/08)",
          "operator": "Lucknow Metro Rail Corporation Limited",
          "public_transport": "stop_position",
          "subway": "yes"
        }
      },
      {
        "type": "node",
        "id": 8006089153,
        "lat": 26.8384239,
        "lon": 80.9343499,
        "tags": {
          "name": "Hussainganj",
          "name:hi": "\u0939\u0941\u0938\u0948\u0928\u0917\u0902\u091c",
          "network": "Lucknow Metro",
          "note": "Contributors are requested to not edit the \"network\" and the \"operator\" tags. (2023/11/08)",
          "operator": "Lucknow Metro Rail Corporation Limited",
          "public_transport": "stop_position",
          "railway": "stop",
          "subway": "yes"
        }
      },
      {
        "type": "node",
        "id": 8006089154,
        "lat": 26.8323812,
        "lon": 80.9231145,
        "tags": {
          "name": "Charbagh Railway Station",
          "name:hi": "\u091a\u093e\u0930\u092c\u093e\u0917\u093c \u0930\u0947\u0932\u0935\u0947 \u0938\u094d\u091f\u0947\u0936\u0928",
          "name:ur": "\u0644\u06a9\u06be\u0646\u0624 \u0686\u0627\u0631\u0628\u0627\u063a \u0627\u0633\u0679\u06cc\u0634\u0646",
          "network": "Lucknow Metro",
          "note": "Contributors are requested to not edit the \"network\" and the \"operator\" tags. (2023/11/08)",
          "operator": "Lucknow Metro Rail Corporation Limited",
          "public_transport": "stop_position",
          "subway": "yes"
        }
      },
      {
        "type": "node",
        "id": 8006089155,
        "lat": 26.8319799,
        "lon": 80.9154112,
        "tags": {
          "name": "Durgapuri",
          "name:hi": "\u0926\u0941\u0930\u094d\u0917\u093e\u092a\u0941\u0930\u0940",
          "network": "Lucknow Metro",
          "note": "Contributors are requested to not edit the \"network\" and the \"operator\" tags. (2023/11/08)",
          "operator": "Lucknow Metro Rail Corporation Limited",
          "public_transport": "stop_position",
          "ref": "DGPI",
          "subway": "yes"
        }
      },
      {
        "type": "node",
        "id": 8006089163,
        "lat": 26.8384335,
        "lon": 80.934311,
        "tags": {
          "name": "Hussainganj",
          "name:hi": "\u0939\u0941\u0938\u0948\u0928\u0917\u0902\u091c",
          "network": "Lucknow Metro",
          "note": "Contributors are requested to not edit the \"network\" and the \"operator\" tags. (2023/11/08)",
          "operator": "Lucknow Metro Rail Corporation Limited",
          "public_transport": "stop_position",
          "railway": "stop",
          "subway": "yes"
        }
      },
      {
        "type": "node",
        "id": 8429904747,
        "lat": 26.8315435,
        "lon": 80.9215211,
        "tags": {
          "name": "Lucknow Junction",
          "name:de": "Lakhnau Junction Gleis 6",
          "name:ur": "\u0644\u06a9\u06be\u0646\u0624 \u062c\u0646\u06a9\u0634\u0646",
          "public_transport": "stop_position",
          "railway": "stop",
          "ref": "6",
          "train": "yes"
        }
      },
      {
        "type": "node",
        "id": 8429904748,
        "lat": 26.8316258,
        "lon": 80.9215193,
        "tags": {
          "name": "Lucknow Junction",
          "name:de": "Lakhnau Junction Gleis 5",
          "name:ur": "\u0644\u06a9\u06be\u0646\u0624 \u062c\u0646\u06a9\u0634\u0646",
          "public_transport": "stop_position",
          "railway": "stop",
          "ref": "5",
          "train": "yes"
        }
      },
      {
        "type": "node",
        "id": 8429904749,
        "lat": 26.8317473,
        "lon": 80.9215122,
        "tags": {
          "name": "Lucknow Junction",
          "name:de": "Lakhnau Junction Gleis 4",
          "name:ur": "\u0644\u06a9\u06be\u0646\u0624 \u062c\u0646\u06a9\u0634\u0646",
          "public_transport": "stop_position",
          "railway": "stop",
          "ref": "4",
          "train": "yes"
        }
      },
      {
        "type": "node",
        "id": 8429904750,
        "lat": 26.831784,
        "lon": 80.9215138,
        "tags": {
          "name": "Lucknow Junction",
          "name:de": "Lakhnau Junction Gleis 3",
          "name:ur": "\u0644\u06a9\u06be\u0646\u0624 \u062c\u0646\u06a9\u0634\u0646",
          "public_transport": "stop_position",
          "railway": "stop",
          "ref": "3",
          "train": "yes"
        }
      },
      {
        "type": "node",
        "id": 8429904751,
        "lat": 26.8319396,
        "lon": 80.9215177,
        "tags": {
          "name": "Lucknow Junction",
          "name:de": "Lakhnau Junction Gleis 2",
          "name:ur": "\u0644\u06a9\u06be\u0646\u0624 \u062c\u0646\u06a9\u0634\u0646",
          "public_transport": "stop_position",
          "railway": "stop",
          "ref": "2",
          "train": "yes"
        }
      },
      {
        "type": "node",
        "id": 8429904752,
        "lat": 26.8320053,
        "lon": 80.9215123,
        "tags": {
          "name": "Lucknow Junction",
          "name:de": "Lakhnau Junction Gleis 1",
          "name:ur": "\u0644\u06a9\u06be\u0646\u0624 \u062c\u0646\u06a9\u0634\u0646",
          "public_transport": "stop_position",
          "railway": "stop",
          "ref": "1",
          "train": "yes"
        }
      },
      {
        "type": "node",
        "id": 9655708800,
        "lat": 26.8539449,
        "lon": 80.9368084,
        "tags": {
          "name": "KD Singh Babu Stadium",
          "name:hi": "\u0915\u0947\u0921\u0940 \u0938\u093f\u0902\u0939 \u092c\u093e\u092c\u0942 \u0938\u094d\u091f\u0947\u0921\u093f\u092f\u092e",
          "network": "Lucknow Metro",
          "note": "Contributors are requested to not edit the \"network\" and the \"operator\" tags. (2023/11/08)",
          "operator": "Lucknow Metro Rail Corporation Limited",
          "public_transport": "station",
          "railway": "station",
          "station": "subway",
          "subway": "yes"
        }
      },
      {
        "type": "node",
        "id": 9655708801,
        "lat": 26.8500335,
        "lon": 80.9415944,
        "tags": {
          "name": "Hazratganj",
          "name:hi": "\u0939\u091c\u093c\u0930\u0924\u0917\u0902\u091c",
          "network": "Lucknow Metro",
          "note": "Contributors are requested to not edit the \"network\" and the \"operator\" tags. (2023/11/08)",
          "operator": "Lucknow Metro Rail Corporation Limited",
          "public_transport": "station",
          "railway": "station",
          "station": "subway",
          "subway": "yes"
        }
      },
      {
        "type": "node",
        "id": 9655728294,
        "lat": 26.8539129,
        "lon": 80.9368026,
        "tags": {
          "name": "KD Singh Babu Stadium",
          "name:hi": "\u0915\u0947\u0921\u0940 \u0938\u093f\u0902\u0939 \u092c\u093e\u092c\u0942 \u0938\u094d\u091f\u0947\u0921\u093f\u092f\u092e",
          "network": "Lucknow Metro",
          "note": "Contributors are requested to not edit the \"network\" and the \"operator\" tags. (2023/11/08)",
          "operator": "Lucknow Metro Rail Corporation Limited",
          "public_transport": "stop_position",
          "subway": "yes"
        }
      },
      {
        "type": "node",
        "id": 9655728299,
        "lat": 26.8500069,
        "lon": 80.9415821,
        "tags": {
          "name": "Hazratganj",
          "name:hi": "\u0939\u091c\u093c\u0930\u0924\u0917\u0902\u091c",
          "network": "Lucknow Metro",
          "note": "Contributors are requested to not edit the \"network\" and the \"operator\" tags. (2023/11/08)",
          "operator": "Lucknow Metro Rail Corporation Limited",
          "public_transport": "stop_position",
          "subway": "yes"
        }
      }
    ]
  }
}