{
  "pois_1km": {
    "version": 0.6,
    "generator": "Overpass API 0.7.62.8 e802775f",
    "osm3s": {
      "timestamp_osm_base": "2025-09-07T14:19:15Z",
      "copyright": "The data included in this document is from www.openstreetmap.org. The data is made available under ODbL."
    },
    "elements": [
      {
        "type": "node",
        "id": 1666774735,
        "lat": 26.8533985,
        "lon": 80.939496,
        "tags": {
          "amenity": "bank",
          "atm": "yes",
          "brand:wikidata": "Q1340361",
          "name": "State Bank of India",
          "short_name": "SBI"
        }
      },
      {
        "type": "node",
        "id": 3664092940,
        "lat": 26.8444615,
        "lon": 80.945768,
        "tags": {
          "addr:city": "lucknow",
          "addr:housenumber": "234",
          "addr:postcode": "226010",
          "amenity": "fast_food",
          "cuisine": "pizza",
          "name": "Telepizza"
        }
      },
      {
        "type": "node",
        "id": 3941230269,
        "lat": 26.8470252,
        "lon": 80.9461409,
        "tags": {
          "addr:street": "Hazratganj",
          "amenity": "cafe",
          "cuisine": "coffee_shop",
          "name": "Cafe Coffee Day",
          "opening_hours": "Mo-Su 09:00-01:00"
        }
      },
      {
        "type": "node",
        "id": 4076350289,
        "lat": 26.85522,
        "lon": 80.945581,
        "tags": {
          "addr:city": "Lucknow",
          "addr:postcode": "226001",
          "addr:street": "Shahnajaf Road",
          "amenity": "fast_food",
          "brand": "McDonald's",
          "brand:pa": "\u0a2e\u0a48\u0a15\u0a21\u0a4b\u0a28\u0a32\u0a21\u2019\u0a1c\u0a3c",
          "brand:ur": "\u0645\u06a9\u0688\u0648\u0646\u0644\u0688\u0632",
          "brand:wikidata": "Q38076",
          "brand:wikipedia": "en:McDonald's",
          "brand:wikipedia:pa": "\u0a2e\u0a48\u0a15\u0a21\u0a4b\u0a28\u0a32\u0a21\u2019\u0a1c\u0a3c",
          "brand:wikipedia:ur": "\u0645\u06a9\u0688\u0648\u0646\u0644\u0688\u0632",
          "cuisine": "burger",
          "internet_access": "wlan",
          "name": "McDonald's",
          "name:pa": "\u0a2e\u0a48\u0a15\u0a21\u0a4b\u0a28\u0a32\u0a21\u2019\u0a1c\u0a3c",
          "name:ur": "\u0645\u06a9\u0688\u0648\u0646\u0644\u0688\u0632",
          "takeaway": "yes"
        }
      },
      {
        "type": "node",
        "id": 4169354656,
        "lat": 26.8554202,
        "lon": 80.9456181,
        "tags": {
          "addr:city": "Lucknow",
          "addr:postcode": "226001",
          "addr:street": "Shahnajaf Road",
          "amenity": "fast_food",
          "brand": "KFC",
          "brand:pa": "\u0a15\u0a47\u0a10\u0a2b\u0a38\u0a40",
          "brand:ur": "\u06a9\u06cc\u0646\u0679\u06a9\u06cc \u0641\u0631\u0627\u0626\u06cc\u0688 \u0686\u06a9\u0646",
          "brand:wikidata": "Q524757",
          "brand:wikipedia": "en:KFC",
          "brand:wikipedia:pa": "\u0a15\u0a47\u0a10\u0a2b\u0a38\u0a40",
          "brand:wikipedia:ur": "\u06a9\u06cc\u0646\u0679\u06a9\u06cc \u0641\u0631\u0627\u0626\u06cc\u0688 \u0686\u06a9\u0646",
          "cuisine": "chicken",
          "name": "KFC",
          "name:pa": "\u0a15\u0a47\u0a10\u0a2b\u0a38\u0a40",
          "name:ur": "\u06a9\u06cc\u0646\u0679\u06a9\u06cc \u0641\u0631\u0627\u0626\u06cc\u0688 \u0686\u06a9\u0646",
          "takeaway": "yes"
        }
      },
      {
        "type": "node",
        "id": 4968712021,
        "lat": 26.8475668,
        "lon": 80.9447975,
        "tags": {
          "addr:housenumber": "75",
          "addr:street": "Hazratganj",
          "amenity": "restaurant",
          "name:en": "Moti Mahal"
        }
      },
      {
        "type": "node",
        "id": 6005264685,
        "lat": 26.8474755,
        "lon": 80.9465305,
        "tags": {
          "addr:street": "Ashok Marg",
          "amenity": "cafe",
          "name:en": "Indian Coffee House",
          "phone": "+914872335275",
          "website": "http://indiancoffeehouse.com"
        }
      },
      {
        "type": "node",
        "id": 6012504085,
        "lat": 26.8516664,
        "lon": 80.9415761,
        "tags": {
          "amenity": "cafe",
          "cuisine": "coffee_shop;pasta;breakfast",
          "name:en": "Caf\u00e9 Cherry Tree"
        }
      },
      {
        "type": "node",
        "id": 6621697159,
        "lat": 26.845277,
        "lon": 80.9480991,
        "tags": {
          "amenity": "atm",
          "brand": "Bank of Baroda",
          "opening_hours": "24/7"
        }
      },
      {
        "type": "node",
        "id": 6621697165,
        "lat": 26.8453238,
        "lon": 80.9480471,
        "tags": {
          "amenity": "bank",
          "brand": "Bank of Baroda"
        }
      },
      {
        "type": "node",
        "id": 6635065566,
        "lat": 26.848115,
        "lon": 80.9400898,
        "tags": {
          "amenity": "cafe",
          "brand": "Cafe Coffee Day",
          "cuisine": "coffee_shop",
          "name": "Cafe Coffee Day",
          "takeaway": "yes"
        }
      },
      {
        "type": "node",
        "id": 6635065570,
        "lat": 26.8475673,
        "lon": 80.9407262,
        "tags": {
          "amenity": "atm",
          "brand": "IndusInd Bank",
          "opening_hours": "24/7"
        }
      },
      {
        "type": "node",
        "id": 6635438738,
        "lat": 26.8473949,
        "lon": 80.9418664,
        "tags": {
          "amenity": "atm",
          "brand": "State Bank of India",
          "wheelchair": "no"
        }
      },
      {
        "type": "node",
        "id": 6635438743,
        "lat": 26.8463948,
        "lon": 80.9455284,
        "tags": {
          "amenity": "atm",
          "brand": "Indian Overseas Bank",
          "opening_hours": "24/7",
          "wheelchair": "no"
        }
      },
      {
        "type": "node",
        "id": 6635438751,
        "lat": 26.8488047,
        "lon": 80.9406972,
        "tags": {
          "amenity": "bank",
          "atm": "yes",
          "brand": "Punjab and Sind Bank"
        }
      },
      {
        "type": "node",
        "id": 7018564216,
        "lat": 26.8446682,
        "lon": 80.9489809,
        "tags": {
          "addr:district": "Lucknow",
          "addr:full": "Park Rd,Hazratgunj",
          "addr:postcode": "226001",
          "addr:state": "Uttar Pradesh",
          "amenity": "hospital",
          "name": "Dr.Shyama Prasad Mukherjee (Civil) Hospital",
          "source": "OpenGovernmentData"
        }
      },
      {
        "type": "node",
        "id": 7025739665,
        "lat": 26.8578047,
        "lon": 80.9424175,
        "tags": {
          "addr:district": "Lucknow",
          "addr:full": "No. 21/31, 3C Tilak Marg (Off Rana Pratap Marg),Hazratganj",
          "addr:postcode": "226001",
          "addr:state": "Uttar Pradesh",
          "amenity": "hospital",
          "name": "Dr Subodh Agrawal Memorial (SAM) Eye Hospital",
          "source": "OpenGovernmentData"
        }
      },
      {
        "type": "node",
        "id": 7039962696,
        "lat": 26.8488382,
        "lon": 80.9460801,
        "tags": {
          "addr:district": "Lucknow",
          "addr:full": "Kala Bhwan, 6 Newul Kishore Road",
          "addr:postcode": "226001",
          "addr:state": "Uttar Pradesh",
          "amenity": "clinic",
          "name": "Brahmaesh Orthopaedic And Taruma Centre",
          "source": "OpenGovernmentData"
        }
      },
      {
        "type": "node",
        "id": 7205453350,
        "lat": 26.8460131,
        "lon": 80.9452862,
        "tags": {
          "addr:district": "Lucknow",
          "addr:full": "Major, Infront of Statue of Mahatma Gandhi Hazratganj lucknow, Hazratganj Lucknow, Veerangana Jhalkaribai Mahila Hospital,",
          "addr:state": "Uttar Pradesh",
          "amenity": "hospital",
          "description": "District Hospital",
          "name": "JHALKARI BAI MAHILA HOSPITALS",
          "source": "OpenGovernmentData"
        }
      },
      {
        "type": "node",
        "id": 7510640775,
        "lat": 26.8472761,
        "lon": 80.9460149,
        "tags": {
          "addr:district": "Lucknow",
          "addr:full": "Ashok Marg, Block E, Narhi, Hazratganj, Lucknow",
          "addr:postcode": "226001",
          "addr:state": "Uttar Pradesh",
          "amenity": "hospital",
          "name": "Mariyam Hospital",
          "source": "Local Knowledge"
        }
      },
      {
        "type": "node",
        "id": 9035161918,
        "lat": 26.8483271,
        "lon": 80.9437858,
        "tags": {
          "addr:street": "Hazratganj",
          "amenity": "cafe",
          "name:en": "Royal Cafe"
        }
      },
      {
        "type": "node",
        "id": 12748201976,
        "lat": 26.8477535,
        "lon": 80.9406863,
        "tags": {
          "amenity": "cafe",
          "cuisine": "tea",
          "name": "Sharma ji ki Chai",
          "name:hi": "\u0936\u0930\u094d\u092e\u093e \u091c\u0940 \u0915\u0940 \u091a\u093e\u092f"
        }
      },
      {
        "type": "node",
        "id": 12751688688,
        "lat": 26.8482304,
        "lon": 80.9405469,
        "tags": {
          "amenity": "cafe",
          "cuisine": "Tea",
          "name": "Shivneri Chai"
        }
      },
      {
        "type": "node",
        "id": 12751717518,
        "lat": 26.8437136,
        "lon": 80.9469722,
        "tags": {
          "amenity": "restaurant",
          "name": "Tanatan"
        }
      },
      {
        "type": "node",
        "id": 12751882300,
        "lat": 26.8437278,
        "lon": 80.9469897,
        "tags": {
          "amenity": "restaurant",
          "level": "0;1",
          "name": "Tanatan",
          "wheelchair": "no"
        }
      },
      {
        "type": "node",
        "id": 13036561537,
        "lat": 26.8495884,
        "lon": 80.9430039,
        "tags": {
          "amenity": "fast_food",
          "check_date": "2025-07-30",
          "name": "Shukla Tea Stall"
        }
      },
      {
        "type": "node",
        "id": 13036561538,
        "lat": 26.8497155,
        "lon": 80.942816,
        "tags": {
          "amenity": "fast_food",
          "check_date": "2025-07-30",
          "name": "Shukla Chat House"
        }
      },
      {
        "type": "node",
        "id": 13042903805,
        "lat": 26.8504201,
        "lon": 80.9409029,
        "tags": {
          "amenity": "restaurant"
        }
      },
      {
        "type": "node",
        "id": 13045341758,
        "lat": 26.8474472,
        "lon": 80.9455297,
        "tags": {
          "amenity": "restaurant",
          "name": "Curry Leaf",
          "panoramax": "cfb94745-b00e-4452-a098-2f07ef138844"
        }
      },
      {
        "type": "node",
        "id": 13056242651,
        "lat": 26.8491703,
        "lon": 80.9445735,
        "tags": {
          "amenity": "atm",
          "atm": "yes",
          "brand": "Canara Bank",
          "brand:en": "Canara Bank",
          "brand:hi": "\u0915\u0947\u0928\u0930\u093e \u092c\u0948\u0902\u0915",
          "brand:kn": "\u0c95\u0cc6\u0ca8\u0cb0\u0cbe \u0cac\u0ccd\u0caf\u0cbe\u0c82\u0c95\u0ccd",
          "brand:pa": "\u0a15\u0a47\u0a28\u0a30\u0a3e \u0a2c\u0a48\u0a02\u0a15",
          "brand:pnb": "\u06a9\u06cc\u0646\u0631\u0627 \u0628\u06cc\u0646\u06a9",
          "brand:ur": "\u06a9\u06cc\u0646\u0631\u0627 \u0628\u06cc\u0646\u06a9",
          "brand:wikidata": "Q2003777",
          "covered": "yes",
          "level": "0",
          "operator": "Canara Bank",
          "operator:wikidata": "Q2003777",
          "wheelchair": "no"
        }
      },
      {
        "type": "node",
        "id": 13056242652,
        "lat": 26.8492319,
        "lon": 80.9444926,
        "tags": {
          "amenity": "atm",
          "brand": "Canara Bank",
          "brand:en": "Canara Bank",
          "brand:hi": "\u0915\u0947\u0928\u0930\u093e \u092c\u0948\u0902\u0915",
          "brand:kn": "\u0c95\u0cc6\u0ca8\u0cb0\u0cbe \u0cac\u0ccd\u0caf\u0cbe\u0c82\u0c95\u0ccd",
          "brand:pa": "\u0a15\u0a47\u0a28\u0a30\u0a3e \u0a2c\u0a48\u0a02\u0a15",
          "brand:pnb": "\u06a9\u06cc\u0646\u0631\u0627 \u0628\u06cc\u0646\u06a9",
          "brand:ur": "\u06a9\u06cc\u0646\u0631\u0627 \u0628\u06cc\u0646\u06a9",
          "brand:wikidata": "Q2003777",
          "indoor": "yes",
          "operator": "Canara Bank",
          "operator:wikidata": "Q2003777",
          "wheelchair": "no"
        }
      }
    ]
  },
  "pois_2_5km": {
    "version": 0.6,
    "generator": "Overpass API 0.7.62.8 e802775f",
    "osm3s": {
      "timestamp_osm_base": "2025-09-07T14:19:15Z",
      "copyright": "The data included in this document is from www.openstreetmap.org. The data is made available under ODbL."
    },
    "elements": [
      {
        "type": "node",
        "id": 2213443829,
        "lat": 26.8689884,
        "lon": 80.9614569,
        "tags": {
          "name": "Badshahnagar",
          "network": "IR",
          "operator": "NER",
          "public_transport": "station",
          "railway": "station",
          "ref": "BNZ",
          "wikidata": "Q12441382",
          "wikipedia": "en:Badshahnagar railway station"
        }
      },
      {
        "type": "node",
        "id": 2214748503,
        "lat": 26.856771,
        "lon": 80.9729819,
        "tags": {
          "amenity": "fuel",
          "brand": "Bharat Petroleum"
        }
      },
      {
        "type": "node",
        "id": 2217075733,
        "lat": 26.8711954,
        "lon": 80.9584756,
        "tags": {
          "amenity": "cinema",
          "name": "Umrao Cineplex"
        }
      },
      {
        "type": "node",
        "id": 2226248382,
        "lat": 26.8479918,
        "lon": 80.9394268,
        "tags": {
          "amenity": "cinema"
        }
      },
      {
        "type": "node",
        "id": 4244207745,
        "lat": 26.8415965,
        "lon": 80.9399056,
        "tags": {
          "name": "Sachivalaya",
          "name:hi": "\u0938\u091a\u093f\u0935\u093e\u0932\u092f",
          "network": "Lucknow Metro",
          "note": "Contributors are requested to not edit the \"network\" and the \"operator\" tags. (2023/11/08)",
          "operator": "Lucknow Metro Rail Corporation Limited",
          "public_transport": "station",
          "railway": "station",
          "station": "subway",
          "subway": "yes"
        }
      },
      {
        "type": "node",
        "id": 4292019389,
        "lat": 26.8478371,
        "lon": 80.9472678,
        "tags": {
          "addr:postcode": "226001",
          "addr:street": "Ashok Marg",
          "amenity": "fuel",
          "name": "Sarkar Petrol Pump "
        }
      },
      {
        "type": "node",
        "id": 4977535798,
        "lat": 26.8539423,
        "lon": 80.9368471,
        "tags": {
          "name": "KD Singh Babu Stadium",
          "name:hi": "\u0915\u0947\u0921\u0940 \u0938\u093f\u0902\u0939 \u092c\u093e\u092c\u0942 \u0938\u094d\u091f\u0947\u0921\u093f\u092f\u092e",
          "network": "Lucknow Metro",
          "note": "Contributors are requested to not edit the \"network\" and the \"operator\" tags. (2023/11/08)",
          "operator": "Lucknow Metro Rail Corporation Limited",
          "public_transport": "stop_position",
          "subway": "yes"
        }
      },
      {
        "type": "node",
        "id": 4977535810,
        "lat": 26.8654923,
        "lon": 80.9395636,
        "tags": {
          "name": "Vishwavidyalaya",
          "name:hi": "\u0935\u093f\u0936\u094d\u0935\u0935\u093f\u0926\u094d\u092f\u093e\u0932\u092f",
          "network": "Lucknow Metro",
          "note": "Contributors are requested to not edit the \"network\" and the \"operator\" tags. (2023/11/08)",
          "operator": "Lucknow Metro Rail Corporation Limited",
          "public_transport": "stop_position",
          "subway": "yes"
        }
      },
      {
        "type": "node",
        "id": 4977535820,
        "lat": 26.8706788,
        "lon": 80.9610675,
        "tags": {
          "name": "Badshah Nagar",
          "name:hi": "\u092c\u093e\u0926\u0936\u093e\u0939 \u0928\u0917\u0930",
          "network": "Lucknow Metro",
          "note": "Contributors are requested to not edit the \"network\" and the \"operator\" tags. (2023/11/08)",
          "operator": "Lucknow Metro Rail Corporation Limited",
          "public_transport": "stop_position",
          "subway": "yes"
        }
      },
      {
        "type": "node",
        "id": 5195189621,
        "lat": 26.8388944,
        "lon": 80.9345356,
        "tags": {
          "amenity": "fuel",
          "brand": "Bharat Petroleum",
          "brand:wikidata": "Q854826",
          "name": "Bharat Petroleum",
          "name:en": "Bharat Petroleum"
        }
      },
      {
        "type": "node",
        "id": 5777575720,
        "lat": 26.8416132,
        "lon": 80.939897,
        "tags": {
          "name": "Sachivalaya",
          "name:hi": "\u0938\u091a\u093f\u0935\u093e\u0932\u092f",
          "network": "Lucknow Metro",
          "note": "Contributors are requested to not edit the \"network\" and the \"operator\" tags. (2023/11/08)",
          "operator": "Lucknow Metro Rail Corporation Limited",
          "public_transport": "stop_position",
          "subway": "yes"
        }
      },
      {
        "type": "node",
        "id": 5790401044,
        "lat": 26.8392677,
        "lon": 80.9335726,
        "tags": {
          "bus": "yes",
          "highway": "bus_stop",
          "name": "Lucknow Main 221 KTM Bike",
          "public_transport": "stop_position"
        }
      },
      {
        "type": "node",
        "id": 5790401045,
        "lat": 26.8390031,
        "lon": 80.9295848,
        "tags": {
          "bus": "yes",
          "highway": "bus_stop",
          "name": "Lucknow Main 221",
          "public_transport": "stop_position"
        }
      },
      {
        "type": "node",
        "id": 6444506695,
        "lat": 26.8710043,
        "lon": 80.945608,
        "tags": {
          "name": "IT College",
          "name:hi": "\u0906\u0908\u091f\u0940 \u0915\u0949\u0932\u0947\u091c",
          "network": "Lucknow Metro",
          "note": "Contributors are requested to not edit the \"network\" and the \"operator\" tags. (2023/11/08)",
          "operator": "Lucknow Metro Rail Corporation Limited",
          "public_transport": "stop_position",
          "subway": "yes"
        }
      },
      {
        "type": "node",
        "id": 6445132136,
        "lat": 26.8500472,
        "lon": 80.9416143,
        "tags": {
          "name": "Hazratganj",
          "name:hi": "\u0939\u091c\u093c\u0930\u0924\u0917\u0902\u091c",
          "network": "Lucknow Metro",
          "note": "Contributors are requested to not edit the \"network\" and the \"operator\" tags. (2023/11/08)",
          "operator": "Lucknow Metro Rail Corporation Limited",
          "public_transport": "stop_position",
          "subway": "yes"
        }
      },
      {
        "type": "node",
        "id": 6445132137,
        "lat": 26.8384284,
        "lon": 80.93433,
        "tags": {
          "name": "Hussainganj",
          "name:hi": "\u0939\u0941\u0938\u0948\u0928\u0917\u0902\u091c",
          "network": "Lucknow Metro",
          "note": "Contributors are requested to not edit the \"network\" and the \"operator\" tags. (2023/11/08)",
          "operator": "Lucknow Metro Rail Corporation Limited",
          "public_transport": "station",
          "railway": "station",
          "station": "subway",
          "subway": "yes"
        }
      },
      {
        "type": "node",
        "id": 6621697158,
        "lat": 26.8422387,
        "lon": 80.940551,
        "tags": {
          "amenity": "fuel",
          "brand": "Hindustan Petroleum"
        }
      },
      {
        "type": "node",
        "id": 6621697161,
        "lat": 26.8411158,
        "lon": 80.9395115,
        "tags": {
          "amenity": "fuel",
          "brand": "Hindustan Petroleum"
        }
      },
      {
        "type": "node",
        "id": 6621697166,
        "lat": 26.8453548,
        "lon": 80.9455528,
        "tags": {
          "amenity": "fuel",
          "brand": "Bharat Petroleum",
          "fuel:diesel": "yes",
          "opening_hours": "24/7"
        }
      },
      {
        "type": "node",
        "id": 6627215625,
        "lat": 26.8554808,
        "lon": 80.973177,
        "tags": {
          "amenity": "theatre",
          "level": "1",
          "name": "Sant Gadge Ji Maharaj Auditorium",
          "name:hi": "\u0938\u0928\u094d\u0924 \u0917\u093e\u0921\u0917\u0947 \u091c\u0940 \u092e\u0939\u093e\u0930\u093e\u091c \u092a\u094d\u0930\u0947\u0915\u094d\u0937\u093e\u0917\u0943\u0939"
        }
      },
      {
        "type": "node",
        "id": 6627215626,
        "lat": 26.8555677,
        "lon": 80.9732368,
        "tags": {
          "amenity": "theatre",
          "level": "0",
          "name": "Valmiki Rangshala",
          "name:hi": "\u0935\u093e\u0932\u094d\u092e\u0940\u0915\u093f \u0930\u0902\u0917\u0936\u093e\u0932\u093e"
        }
      },
      {
        "type": "node",
        "id": 6634933375,
        "lat": 26.8709347,
        "lon": 80.9405916,
        "tags": {
          "amenity": "fuel",
          "brand": "Hindustan Petroleum",
          "fuel:diesel": "yes"
        }
      },
      {
        "type": "node",
        "id": 6635065569,
        "lat": 26.8481427,
        "lon": 80.9399566,
        "tags": {
          "amenity": "cinema",
          "name": "Novelty MGS Cinemas"
        }
      },
      {
        "type": "node",
        "id": 8006089152,
        "lat": 26.8415797,
        "lon": 80.9399191,
        "tags": {
          "name": "Sachivalaya",
          "name:hi": "\u0938\u091a\u093f\u0935\u093e\u0932\u092f",
          "network": "Lucknow Metro",
          "note": "Contributors are requested to not edit the \"network\" and the \"operator\" tags. (2023/11/08)",
          "operator": "Lucknow Metro Rail Corporation Limited",
          "public_transport": "stop_position",
          "subway": "yes"
        }
      },
      {
        "type": "node",
        "id": 8006089153,
        "lat": 26.8384239,
        "lon": 80.9343499,
        "tags": {
          "name": "Hussainganj",
          "name:hi": "\u0939\u0941\u0938\u0948\u0928\u0917\u0902\u091c",
          "network": "Lucknow Metro",
          "note": "Contributors are requested to not edit the \"network\" and the \"operator\" tags. (2023/11/08)",
          "operator": "Lucknow Metro Rail Corporation Limited",
          "public_transport": "stop_position",
          "railway": "stop",
          "subway": "yes"
        }
      },
      {
        "type": "node",
        "id": 8006089163,
        "lat": 26.8384335,
        "lon": 80.934311,
        "tags": {
          "name": "Hussainganj",
          "name:hi": "\u0939\u0941\u0938\u0948\u0928\u0917\u0902\u091c",
          "network": "Lucknow Metro",
          "note": "Contributors are requested to not edit the \"network\" and the \"operator\" tags. (2023/11/08)",
          "operator": "Lucknow Metro Rail Corporation Limited",
          "public_transport": "stop_position",
          "railway": "stop",
          "subway": "yes"
        }
      },
      {
        "type": "node",
        "id": 9655708797,
        "lat": 26.8706977,
        "lon": 80.9610133,
        "tags": {
          "name": "Badshah Nagar",
          "name:hi": "\u092c\u093e\u0926\u0936\u093e\u0939 \u0928\u0917\u0930",
          "network": "Lucknow Metro",
          "note": "Contributors are requested to not edit the \"network\" and the \"operator\" tags. (2023/11/08)",
          "operator": "Lucknow Metro Rail Corporation Limited",
          "public_transport": "station",
          "railway": "station",
          "station": "subway",
          "subway": "yes"
        }
      },
      {
        "type": "node",
        "id": 9655708798,
        "lat": 26.8710268,
        "lon": 80.9456475,
        "tags": {
          "name": "IT College",
          "name:hi": "\u0906\u0908\u091f\u0940 \u0915\u0949\u0932\u0947\u091c",
          "network": "Lucknow Metro",
          "note": "Contributors are requested to not edit the \"network\" and the \"operator\" tags. (2023/11/08)",
          "operator": "Lucknow Metro Rail Corporation Limited",
          "public_transport": "station",
          "railway": "station",
          "station": "subway",
          "subway": "yes"
        }
      },
      {
        "type": "node",
        "id": 9655708799,
        "lat": 26.865529,
        "lon": 80.9395458,
        "tags": {
          "name": "Vishwavidyalaya",
          "name:hi": "\u0935\u093f\u0936\u094d\u0935\u0935\u093f\u0926\u094d\u092f\u093e\u0932\u092f",
          "network": "Lucknow Metro",
          "note": "Contributors are requested to not edit the \"network\" and the \"operator\" tags. (2023/11/08)",
          "operator": "Lucknow Metro Rail Corporation Limited",
          "public_transport": "station",
          "railway": "station",
          "station": "subway",
          "subway": "yes"
        }
      },
      {
        "type": "node",
        "id": 9655708800,
        "lat": 26.8539449,
        "lon": 80.9368084,
        "tags": {
          "name": "KD Singh Babu Stadium",
          "name:hi": "\u0915\u0947\u0921\u0940 \u0938\u093f\u0902\u0939 \u092c\u093e\u092c\u0942 \u0938\u094d\u091f\u0947\u0921\u093f\u092f\u092e",
          "network": "Lucknow Metro",
          "note": "Contributors are requested to not edit the \"network\" and the \"operator\" tags. (2023/11/08)",
          "operator": "Lucknow Metro Rail Corporation Limited",
          "public_transport": "station",
          "railway": "station",
          "station": "subway",
          "subway": "yes"
        }
      },
      {
        "type": "node",
        "id": 9655708801,
        "lat": 26.8500335,
        "lon": 80.9415944,
        "tags": {
          "name": "Hazratganj",
          "name:hi": "\u0939\u091c\u093c\u0930\u0924\u0917\u0902\u091c",
          "network": "Lucknow Metro",
          "note": "Contributors are requested to not edit the \"network\" and the \"operator\" tags. (2023/11/08)",
          "operator": "Lucknow Metro Rail Corporation Limited",
          "public_transport": "station",
          "railway": "station",
          "station": "subway",
          "subway": "yes"
        }
      },
      {
        "type": "node",
        "id": 9655728244,
        "lat": 26.870728,
        "lon": 80.9610619,
        "tags": {
          "name": "Badshah Nagar",
          "name:hi": "\u092c\u093e\u0926\u0936\u093e\u0939 \u0928\u0917\u0930",
          "network": "Lucknow Metro",
          "note": "Contributors are requested to not edit the \"network\" and the \"operator\" tags. (2023/11/08)",
          "operator": "Lucknow Metro Rail Corporation Limited",
          "public_transport": "stop_position",
          "subway": "yes"
        }
      },
      {
        "type": "node",
        "id": 9655728255,
        "lat": 26.8710537,
        "lon": 80.94561,
        "tags": {
          "name": "IT College",
          "name:hi": "\u0906\u0908\u091f\u0940 \u0915\u0949\u0932\u0947\u091c",
          "network": "Lucknow Metro",
          "note": "Contributors are requested to not edit the \"network\" and the \"operator\" tags. (2023/11/08)",
          "operator": "Lucknow Metro Rail Corporation Limited",
          "public_transport": "stop_position",
          "subway": "yes"
        }
      },
      {
        "type": "node",
        "id": 9655728269,
        "lat": 26.8655077,
        "lon": 80.939511,
        "tags": {
          "name": "Vishwavidyalaya",
          "name:hi": "\u0935\u093f\u0936\u094d\u0935\u0935\u093f\u0926\u094d\u092f\u093e\u0932\u092f",
          "network": "Lucknow Metro",
          "note": "Contributors are requested to not edit the \"network\" and the \"operator\" tags. (2023/11/08)",
          "operator": "Lucknow Metro Rail Corporation Limited",
          "public_transport": "stop_position",
          "subway": "yes"
        }
      },
      {
        "type": "node",
        "id": 9655728294,
        "lat": 26.8539129,
        "lon": 80.9368026,
        "tags": {
          "name": "KD Singh Babu Stadium",
          "name:hi": "\u0915\u0947\u0921\u0940 \u0938\u093f\u0902\u0939 \u092c\u093e\u092c\u0942 \u0938\u094d\u091f\u0947\u0921\u093f\u092f\u092e",
          "network": "Lucknow Metro",
          "note": "Contributors are requested to not edit the \"network\" and the \"operator\" tags. (2023/11/08)",
          "operator": "Lucknow Metro Rail Corporation Limited",
          "public_transport": "stop_position",
          "subway": "yes"
        }
      },
      {
        "type": "node",
        "id": 9655728299,
        "lat": 26.8500069,
        "lon": 80.9415821,
        "tags": {
          "name": "Hazratganj",
          "name:hi": "\u0939\u091c\u093c\u0930\u0924\u0917\u0902\u091c",
          "network": "Lucknow Metro",
          "note": "Contributors are requested to not edit the \"network\" and the \"operator\" tags. (2023/11/08)",
          "operator": "Lucknow Metro Rail Corporation Limited",
          "public_transport": "stop_position",
          "subway": "yes"
        }
      }
    ]
  }
}