{
  "pois_1km": {
    "version": 0.6,
    "generator": "Overpass API 0.7.62.8 e802775f",
    "osm3s": {
      "timestamp_osm_base": "2025-09-07T14:36:45Z",
      "copyright": "The data included in this document is from www.openstreetmap.org. The data is made available under ODbL."
    },
    "elements": [
      {
        "type": "node",
        "id": 4727509133,
        "lat": 26.7949494,
        "lon": 80.9106601,
        "tags": {
          "amenity": "atm"
        }
      },
      {
        "type": "node",
        "id": 4727512743,
        "lat": 26.7941789,
        "lon": 80.9120734,
        "tags": {
          "amenity": "atm",
          "name": "pnb"
        }
      },
      {
        "type": "node",
        "id": 4727513800,
        "lat": 26.7938601,
        "lon": 80.9130086,
        "tags": {
          "amenity": "bank",
          "brand:wikidata": "Q2003611",
          "name": "Indian Overseas Bank",
          "name:en": "Indian Overseas Bank",
          "short_name": "IOB",
          "website": "https://www.iob.in"
        }
      },
      {
        "type": "node",
        "id": 4727513801,
        "lat": 26.7921199,
        "lon": 80.9199123,
        "tags": {
          "amenity": "bank",
          "brand:wikidata": "Q1340361",
          "name": "State Bank of India",
          "short_name": "SBI",
          "website": "https://www.sbi.co.in"
        }
      },
      {
        "type": "node",
        "id": 7018011404,
        "lat": 26.7902712,
        "lon": 80.913268,
        "tags": {
          "addr:district": "Lucknow",
          "addr:full": "K-956-961, Aashiana Colony",
          "addr:postcode": "226012",
          "addr:state": "Uttar Pradesh",
          "amenity": "hospital",
          "name": "Vaishali Maternity and Infertility Centre",
          "source": "OpenGovernmentData"
        }
      },
      {
        "type": "node",
        "id": 7018108331,
        "lat": 26.799298,
        "lon": 80.9056827,
        "tags": {
          "addr:district": "Lucknow",
          "addr:full": "4 And 8, Damodar Nagar, V I P Road, Alanbagh",
          "addr:postcode": "226005",
          "addr:state": "Uttar Pradesh",
          "amenity": "hospital",
          "name": "Raj Chandra Hospital And Research Centre",
          "source": "OpenGovernmentData"
        }
      },
      {
        "type": "node",
        "id": 7018809789,
        "lat": 26.7951291,
        "lon": 80.9165476,
        "tags": {
          "addr:district": "Lucknow",
          "addr:full": "Sec-1, LDA Colony, (Near Khazana Market), Kanpur-Lucknow Road",
          "addr:postcode": "226012",
          "addr:state": "Uttar Pradesh",
          "amenity": "hospital",
          "name": "Surya Hospital",
          "source": "OpenGovernmentData",
          "website": "suryahospital.co.in"
        }
      },
      {
        "type": "node",
        "id": 7510640712,
        "lat": 26.7903108,
        "lon": 80.9100492,
        "tags": {
          "addr:district": "Lucknow",
          "addr:full": "Sector H, Lda Colony, Lucknow",
          "addr:postcode": "226012",
          "addr:state": "Uttar Pradesh",
          "amenity": "hospital",
          "name": "Kiran Hospital and Maternity Home",
          "source": "Local Knowledge"
        }
      },
      {
        "type": "node",
        "id": 7510640745,
        "lat": 26.8030319,
        "lon": 80.9128033,
        "tags": {
          "addr:district": "Lucknow",
          "addr:full": "Sanjay Gandhi Marg, Pakri Ka Pul, Ramprasad Bismil Nagar, Alambagh, Lucknow",
          "addr:postcode": "226005",
          "addr:state": "Uttar Pradesh",
          "amenity": "hospital",
          "name": "Rajpoot Hospital",
          "source": "Local Knowledge"
        }
      },
      {
        "type": "node",
        "id": 7510640802,
        "lat": 26.8053968,
        "lon": 80.9108482,
        "tags": {
          "addr:district": "Lucknow",
          "addr:full": "Near Badi Masjid, Azad Nagar, Madhuban Nagar, Alambagh, Lucknow",
          "addr:postcode": "226005",
          "addr:state": "Uttar Pradesh",
          "amenity": "hospital",
          "name": "Medshine Hospital",
          "source": "Local Knowledge"
        }
      },
      {
        "type": "node",
        "id": 10896553227,
        "lat": 26.7963383,
        "lon": 80.907648,
        "tags": {
          "addr:city": "lunknow",
          "amenity": "food_court",
          "internet_access": "no",
          "opening_hours": "Mo-Su 09:00-21:00"
        }
      }
    ]
  },
  "pois_2_5km": {
    "version": 0.6,
    "generator": "Overpass API 0.7.62.8 e802775f",
    "osm3s": {
      "timestamp_osm_base": "2025-09-07T14:36:45Z",
      "copyright": "The data included in this document is from www.openstreetmap.org. The data is made available under ODbL."
    },
    "elements": [
      {
        "type": "node",
        "id": 3097223409,
        "lat": 26.7988392,
        "lon": 80.8968316,
        "tags": {
          "amenity": "cinema",
          "brand": "PVR Cinemas",
          "brand:wikidata": "Q3359908",
          "name": "PVR Cinemas",
          "opening_hours": "Mo-Su 10:00-22:00",
          "short_name": "PVR"
        }
      },
      {
        "type": "node",
        "id": 3997322400,
        "lat": 26.8184732,
        "lon": 80.9072927,
        "tags": {
          "name": "Alambagh Bus Station",
          "name:hi": "\u0906\u0932\u092e\u092c\u093e\u0917 \u092c\u0938 \u0938\u094d\u091f\u0947\u0936\u0928",
          "network": "Lucknow Metro",
          "note": "Contributors are requested to not edit the \"network\" and the \"operator\" tags. (2023/11/08)",
          "operator": "Lucknow Metro Rail Corporation Limited",
          "public_transport": "station",
          "railway": "station",
          "station": "subway",
          "subway": "yes",
          "wikidata": "Q18109514",
          "wikipedia": "en:Alambagh ISBT metro station"
        }
      },
      {
        "type": "node",
        "id": 3997322401,
        "lat": 26.8140101,
        "lon": 80.9025123,
        "tags": {
          "name": "Alambagh",
          "name:hi": "\u0906\u0932\u092e\u092c\u093e\u0917\u093c",
          "network": "Lucknow Metro",
          "note": "Contributors are requested to not edit the \"network\" and the \"operator\" tags. (2023/11/08)",
          "operator": "Lucknow Metro Rail Corporation Limited",
          "public_transport": "station",
          "railway": "station",
          "station": "subway",
          "subway": "yes",
          "wikidata": "Q17049199"
        }
      },
      {
        "type": "node",
        "id": 3997322402,
        "lat": 26.794391,
        "lon": 80.891762,
        "tags": {
          "name": "Krishna Nagar",
          "name:hi": "\u0915\u0943\u0937\u094d\u0923\u093e \u0928\u0917\u0930",
          "network": "Lucknow Metro",
          "note": "Contributors are requested to not edit the \"network\" and the \"operator\" tags. (2023/11/08)",
          "operator": "Lucknow Metro Rail Corporation Limited",
          "public_transport": "station",
          "railway": "station",
          "station": "subway",
          "subway": "yes"
        }
      },
      {
        "type": "node",
        "id": 3997322776,
        "lat": 26.8030998,
        "lon": 80.8964272,
        "tags": {
          "name": "Singar Nagar",
          "name:hi": "\u0938\u093f\u0902\u0917\u093e\u0930 \u0928\u0917\u0930",
          "network": "Lucknow Metro",
          "note": "Contributors are requested to not edit the \"network\" and the \"operator\" tags. (2023/11/08)",
          "operator": "Lucknow Metro Rail Corporation Limited",
          "public_transport": "station",
          "railway": "station",
          "station": "subway",
          "subway": "yes",
          "wheelchair": "yes"
        }
      },
      {
        "type": "node",
        "id": 4727514579,
        "lat": 26.7905004,
        "lon": 80.9252067,
        "tags": {
          "amenity": "fuel"
        }
      },
      {
        "type": "node",
        "id": 5372681324,
        "lat": 26.8148264,
        "lon": 80.9047645,
        "tags": {
          "amenity": "cinema",
          "name": "carnival cinema"
        }
      },
      {
        "type": "node",
        "id": 5777576805,
        "lat": 26.7944007,
        "lon": 80.8917436,
        "tags": {
          "name": "Krishna Nagar",
          "name:hi": "\u0915\u0943\u0937\u094d\u0923\u093e \u0928\u0917\u0930",
          "network": "Lucknow Metro",
          "note": "Contributors are requested to not edit the \"network\" and the \"operator\" tags. (2023/11/08)",
          "operator": "Lucknow Metro Rail Corporation Limited",
          "public_transport": "stop_position",
          "subway": "yes"
        }
      },
      {
        "type": "node",
        "id": 5777576806,
        "lat": 26.8030987,
        "lon": 80.8964109,
        "tags": {
          "name": "Singar Nagar",
          "name:hi": "\u0938\u093f\u0902\u0917\u093e\u0930 \u0928\u0917\u0930",
          "network": "Lucknow Metro",
          "note": "Contributors are requested to not edit the \"network\" and the \"operator\" tags. (2023/11/08)",
          "operator": "Lucknow Metro Rail Corporation Limited",
          "public_transport": "stop_position",
          "railway": "stop",
          "subway": "yes"
        }
      },
      {
        "type": "node",
        "id": 5777576807,
        "lat": 26.814023,
        "lon": 80.9024999,
        "tags": {
          "name": "Alambagh",
          "name:hi": "\u0906\u0932\u092e\u092c\u093e\u0917\u093c",
          "network": "Lucknow Metro",
          "note": "Contributors are requested to not edit the \"network\" and the \"operator\" tags. (2023/11/08)",
          "operator": "Lucknow Metro Rail Corporation Limited",
          "public_transport": "stop_position",
          "subway": "yes"
        }
      },
      {
        "type": "node",
        "id": 5777576808,
        "lat": 26.8184851,
        "lon": 80.9072782,
        "tags": {
          "name": "Alambagh Bus Station",
          "name:hi": "\u0906\u0932\u092e\u092c\u093e\u0917 \u092c\u0938 \u0938\u094d\u091f\u0947\u0936\u0928",
          "network": "Lucknow Metro",
          "note": "Contributors are requested to not edit the \"network\" and the \"operator\" tags. (2023/11/08)",
          "operator": "Lucknow Metro Rail Corporation Limited",
          "public_transport": "stop_position",
          "subway": "yes"
        }
      },
      {
        "type": "node",
        "id": 8006089157,
        "lat": 26.8184598,
        "lon": 80.9073112,
        "tags": {
          "name": "Alambagh Bus Station",
          "name:hi": "\u0906\u0932\u092e\u092c\u093e\u0917 \u092c\u0938 \u0938\u094d\u091f\u0947\u0936\u0928",
          "network": "Lucknow Metro",
          "note": "Contributors are requested to not edit the \"network\" and the \"operator\" tags. (2023/11/08)",
          "operator": "Lucknow Metro Rail Corporation Limited",
          "public_transport": "stop_position",
          "subway": "yes"
        }
      },
      {
        "type": "node",
        "id": 8006089158,
        "lat": 26.8139957,
        "lon": 80.9025308,
        "tags": {
          "name": "Alambagh",
          "name:hi": "\u0906\u0932\u092e\u092c\u093e\u0917\u093c",
          "network": "Lucknow Metro",
          "note": "Contributors are requested to not edit the \"network\" and the \"operator\" tags. (2023/11/08)",
          "operator": "Lucknow Metro Rail Corporation Limited",
          "public_transport": "stop_position",
          "subway": "yes"
        }
      },
      {
        "type": "node",
        "id": 8006089159,
        "lat": 26.8030829,
        "lon": 80.8964507,
        "tags": {
          "name": "Singar Nagar",
          "name:hi": "\u0938\u093f\u0902\u0917\u093e\u0930 \u0928\u0917\u0930",
          "network": "Lucknow Metro",
          "note": "Contributors are requested to not edit the \"network\" and the \"operator\" tags. (2023/11/08)",
          "operator": "Lucknow Metro Rail Corporation Limited",
          "public_transport": "stop_position",
          "subway": "yes"
        }
      },
      {
        "type": "node",
        "id": 8006089160,
        "lat": 26.7943833,
        "lon": 80.8917825,
        "tags": {
          "name": "Krishna Nagar",
          "name:hi": "\u0915\u0943\u0937\u094d\u0923\u093e \u0928\u0917\u0930",
          "network": "Lucknow Metro",
          "note": "Contributors are requested to not edit the \"network\" and the \"operator\" tags. (2023/11/08)",
          "operator": "Lucknow Metro Rail Corporation Limited",
          "public_transport": "stop_position",
          "subway": "yes"
        }
      },
      {
        "type": "node",
        "id": 10899849036,
        "lat": 26.7990009,
        "lon": 80.9140059,
        "tags": {
          "amenity": "fuel",
          "brand": "Bharat Petroleum",
          "brand:wikidata": "Q854826",
          "fuel:diesel": "yes",
          "fuel:petroleum": "yes",
          "name": "Bharat Petroleum"
        }
      },
      {
        "type": "node",
        "id": 10899869144,
        "lat": 26.7873466,
        "lon": 80.9120308,
        "tags": {
          "amenity": "fuel",
          "brand": "Indian Oil Petrol Pump",
          "brand:wikidata": "Q1289348",
          "fuel:diesel": "yes",
          "fuel:petrol": "yes",
          "name": "Indian Oil Petrol Pump"
        }
      }
    ]
  }
}