{
  "pois_1km": {
    "version": 0.6,
    "generator": "Overpass API 0.7.62.8 e802775f",
    "osm3s": {
      "timestamp_osm_base": "2025-09-07T14:02:01Z",
      "copyright": "The data included in this document is from www.openstreetmap.org. The data is made available under ODbL."
    },
    "elements": [
      {
        "type": "node",
        "id": 1666781713,
        "lat": 26.8586095,
        "lon": 80.9762733,
        "tags": {
          "addr:city": "Lucknow",
          "addr:street": "Lohia Path",
          "level": "0;1",
          "name": "Spencer's",
          "organic": "yes",
          "payment:cards": "yes",
          "payment:cash": "yes",
          "payment:coins": "yes",
          "payment:credit_cards": "yes",
          "payment:debit_cards": "yes",
          "payment:mastercard": "yes",
          "payment:visa": "yes",
          "shop": "supermarket",
          "website": "https://www.spencers.in/"
        }
      },
      {
        "type": "node",
        "id": 4283773589,
        "lat": 26.8508309,
        "lon": 80.9648847,
        "tags": {
          "amenity": "fast_food",
          "cuisine": "ice_cream",
          "name": "Parag"
        }
      },
      {
        "type": "node",
        "id": 5485625142,
        "lat": 26.8510175,
        "lon": 80.9776298,
        "tags": {
          "amenity": "cafe",
          "name": "Sheroe's Hangout Cafe"
        }
      },
      {
        "type": "node",
        "id": 6624530409,
        "lat": 26.8580232,
        "lon": 80.9760878,
        "tags": {
          "amenity": "fast_food",
          "brand": "McDonald's",
          "brand:pa": "\u0a2e\u0a48\u0a15\u0a21\u0a4b\u0a28\u0a32\u0a21\u2019\u0a1c\u0a3c",
          "brand:ur": "\u0645\u06a9\u0688\u0648\u0646\u0644\u0688\u0632",
          "brand:wikidata": "Q38076",
          "brand:wikipedia": "en:McDonald's",
          "brand:wikipedia:pa": "\u0a2e\u0a48\u0a15\u0a21\u0a4b\u0a28\u0a32\u0a21\u2019\u0a1c\u0a3c",
          "brand:wikipedia:ur": "\u0645\u06a9\u0688\u0648\u0646\u0644\u0688\u0632",
          "cuisine": "burger",
          "level": "0",
          "name": "McDonald's",
          "name:pa": "\u0a2e\u0a48\u0a15\u0a21\u0a4b\u0a28\u0a32\u0a21\u2019\u0a1c\u0a3c",
          "name:ur": "\u0645\u06a9\u0688\u0648\u0646\u0644\u0688\u0632",
          "takeaway": "yes"
        }
      },
      {
        "type": "node",
        "id": 6624530410,
        "lat": 26.8576943,
        "lon": 80.9760402,
        "tags": {
          "amenity": "atm",
          "brand": "State Bank of India",
          "level": "0",
          "wheelchair": "no"
        }
      },
      {
        "type": "node",
        "id": 6631591733,
        "lat": 26.8576597,
        "lon": 80.9760894,
        "tags": {
          "amenity": "cafe",
          "brand": "Cafe Coffee Day",
          "cuisine": "coffee_shop",
          "level": "0",
          "name": "Cafe Coffee Day",
          "operator": "Coffee Day Global Limited",
          "takeaway": "yes"
        }
      },
      {
        "type": "node",
        "id": 6631591737,
        "lat": 26.8576987,
        "lon": 80.9763996,
        "tags": {
          "level": "0",
          "name": "Market 99",
          "shop": "supermarket"
        }
      },
      {
        "type": "node",
        "id": 10607550935,
        "lat": 26.8530234,
        "lon": 80.973265,
        "tags": {
          "name": "Inox Riverside Mall",
          "operator": "Inox",
          "shop": "mall"
        }
      }
    ]
  },
  "pois_2_5km": {
    "version": 0.6,
    "generator": "Overpass API 0.7.62.8 e802775f",
    "osm3s": {
      "timestamp_osm_base": "2025-09-07T14:02:01Z",
      "copyright": "The data included in this document is from www.openstreetmap.org. The data is made available under ODbL."
    },
    "elements": [
      {
        "type": "node",
        "id": 534852993,
        "lat": 26.8707127,
        "lon": 80.9630368,
        "tags": {
          "amenity": "fuel",
          "name": "IOCL",
          "operator": "IOCL"
        }
      },
      {
        "type": "node",
        "id": 2213443829,
        "lat": 26.8689884,
        "lon": 80.9614569,
        "tags": {
          "name": "Badshahnagar",
          "network": "IR",
          "operator": "NER",
          "public_transport": "station",
          "railway": "station",
          "ref": "BNZ",
          "wikidata": "Q12441382",
          "wikipedia": "en:Badshahnagar railway station"
        }
      },
      {
        "type": "node",
        "id": 2214748503,
        "lat": 26.856771,
        "lon": 80.9729819,
        "tags": {
          "amenity": "fuel",
          "brand": "Bharat Petroleum"
        }
      },
      {
        "type": "node",
        "id": 4977535811,
        "lat": 26.8708981,
        "lon": 80.9739102,
        "tags": {
          "name": "Lekhraj Market",
          "name:hi": "\u0932\u0947\u0916\u0930\u093e\u091c \u092e\u093e\u0930\u094d\u0915\u0947\u091f",
          "network": "Lucknow Metro",
          "note": "Contributors are requested to not edit the \"network\" and the \"operator\" tags. (2023/11/08)",
          "operator": "Lucknow Metro Rail Corporation Limited",
          "public_transport": "stop_position",
          "railway": "stop",
          "subway": "yes"
        }
      },
      {
        "type": "node",
        "id": 4977535820,
        "lat": 26.8706788,
        "lon": 80.9610675,
        "tags": {
          "name": "Badshah Nagar",
          "name:hi": "\u092c\u093e\u0926\u0936\u093e\u0939 \u0928\u0917\u0930",
          "network": "Lucknow Metro",
          "note": "Contributors are requested to not edit the \"network\" and the \"operator\" tags. (2023/11/08)",
          "operator": "Lucknow Metro Rail Corporation Limited",
          "public_transport": "stop_position",
          "subway": "yes"
        }
      },
      {
        "type": "node",
        "id": 6223289522,
        "lat": 26.8579165,
        "lon": 80.98439,
        "tags": {
          "amenity": "theatre",
          "theatre:type": "amphi"
        }
      },
      {
        "type": "node",
        "id": 6445132135,
        "lat": 26.8722077,
        "lon": 80.9823048,
        "tags": {
          "name": "Bhootnath Market",
          "name:hi": "\u092d\u0942\u0924\u0928\u093e\u0925 \u092e\u093e\u0930\u094d\u0915\u0947\u091f",
          "network": "Lucknow Metro",
          "note": "Contributors are requested to not edit the \"network\" and the \"operator\" tags. (2023/11/08)",
          "operator": "Lucknow Metro Rail Corporation Limited",
          "public_transport": "stop_position",
          "railway": "stop",
          "subway": "yes"
        }
      },
      {
        "type": "node",
        "id": 6627215625,
        "lat": 26.8554808,
        "lon": 80.973177,
        "tags": {
          "amenity": "theatre",
          "level": "1",
          "name": "Sant Gadge Ji Maharaj Auditorium",
          "name:hi": "\u0938\u0928\u094d\u0924 \u0917\u093e\u0921\u0917\u0947 \u091c\u0940 \u092e\u0939\u093e\u0930\u093e\u091c \u092a\u094d\u0930\u0947\u0915\u094d\u0937\u093e\u0917\u0943\u0939"
        }
      },
      {
        "type": "node",
        "id": 6627215626,
        "lat": 26.8555677,
        "lon": 80.9732368,
        "tags": {
          "amenity": "theatre",
          "level": "0",
          "name": "Valmiki Rangshala",
          "name:hi": "\u0935\u093e\u0932\u094d\u092e\u0940\u0915\u093f \u0930\u0902\u0917\u0936\u093e\u0932\u093e"
        }
      },
      {
        "type": "node",
        "id": 9655708793,
        "lat": 26.8709686,
        "lon": 80.9738961,
        "tags": {
          "name": "Lekhraj Market",
          "name:hi": "\u0932\u0947\u0916\u0930\u093e\u091c \u092e\u093e\u0930\u094d\u0915\u0947\u091f",
          "network": "Lucknow Metro",
          "note": "Contributors are requested to not edit the \"network\" and the \"operator\" tags. (2023/11/08)",
          "operator": "Lucknow Metro Rail Corporation Limited",
          "public_transport": "station",
          "railway": "station",
          "station": "subway",
          "subway": "yes"
        }
      },
      {
        "type": "node",
        "id": 9655708796,
        "lat": 26.8722368,
        "lon": 80.9823474,
        "tags": {
          "name": "Bhootnath Market",
          "name:hi": "\u092d\u0942\u0924\u0928\u093e\u0925 \u092e\u093e\u0930\u094d\u0915\u0947\u091f",
          "network": "Lucknow Metro",
          "note": "Contributors are requested to not edit the \"network\" and the \"operator\" tags. (2023/11/08)",
          "operator": "Lucknow Metro Rail Corporation Limited",
          "public_transport": "station",
          "railway": "station",
          "station": "subway",
          "subway": "yes"
        }
      },
      {
        "type": "node",
        "id": 9655708797,
        "lat": 26.8706977,
        "lon": 80.9610133,
        "tags": {
          "name": "Badshah Nagar",
          "name:hi": "\u092c\u093e\u0926\u0936\u093e\u0939 \u0928\u0917\u0930",
          "network": "Lucknow Metro",
          "note": "Contributors are requested to not edit the \"network\" and the \"operator\" tags. (2023/11/08)",
          "operator": "Lucknow Metro Rail Corporation Limited",
          "public_transport": "station",
          "railway": "station",
          "station": "subway",
          "subway": "yes"
        }
      },
      {
        "type": "node",
        "id": 9655728224,
        "lat": 26.8722671,
        "lon": 80.9823039,
        "tags": {
          "name": "Bhootnath Market",
          "name:hi": "\u092d\u0942\u0924\u0928\u093e\u0925 \u092e\u093e\u0930\u094d\u0915\u0947\u091f",
          "network": "Lucknow Metro",
          "note": "Contributors are requested to not edit the \"network\" and the \"operator\" tags. (2023/11/08)",
          "operator": "Lucknow Metro Rail Corporation Limited",
          "public_transport": "stop_position",
          "railway": "stop",
          "subway": "yes"
        }
      },
      {
        "type": "node",
        "id": 9655728230,
        "lat": 26.8709474,
        "lon": 80.973895,
        "tags": {
          "name": "Lekhraj Market",
          "name:hi": "\u0932\u0947\u0916\u0930\u093e\u091c \u092e\u093e\u0930\u094d\u0915\u0947\u091f",
          "network": "Lucknow Metro",
          "note": "Contributors are requested to not edit the \"network\" and the \"operator\" tags. (2023/11/08)",
          "operator": "Lucknow Metro Rail Corporation Limited",
          "public_transport": "stop_position",
          "railway": "stop",
          "subway": "yes"
        }
      },
      {
        "type": "node",
        "id": 9655728244,
        "lat": 26.870728,
        "lon": 80.9610619,
        "tags": {
          "name": "Badshah Nagar",
          "name:hi": "\u092c\u093e\u0926\u0936\u093e\u0939 \u0928\u0917\u0930",
          "network": "Lucknow Metro",
          "note": "Contributors are requested to not edit the \"network\" and the \"operator\" tags. (2023/11/08)",
          "operator": "Lucknow Metro Rail Corporation Limited",
          "public_transport": "stop_position",
          "subway": "yes"
        }
      }
    ]
  }
}