{
  "pois_1km": {
    "version": 0.6,
    "generator": "Overpass API 0.7.62.8 e802775f",
    "osm3s": {
      "timestamp_osm_base": "2025-09-07T14:52:00Z",
      "copyright": "The data included in this document is from www.openstreetmap.org. The data is made available under ODbL."
    },
    "elements": [
      {
        "type": "node",
        "id": 1666771538,
        "lat": 26.8530707,
        "lon": 80.9275896,
        "tags": {
          "amenity": "atm",
          "operator": "Axis Bank"
        }
      },
      {
        "type": "node",
        "id": 1666774735,
        "lat": 26.8533985,
        "lon": 80.939496,
        "tags": {
          "amenity": "bank",
          "atm": "yes",
          "brand:wikidata": "Q1340361",
          "name": "State Bank of India",
          "short_name": "SBI"
        }
      },
      {
        "type": "node",
        "id": 4076350289,
        "lat": 26.85522,
        "lon": 80.945581,
        "tags": {
          "addr:city": "Lucknow",
          "addr:postcode": "226001",
          "addr:street": "Shahnajaf Road",
          "amenity": "fast_food",
          "brand": "McDonald's",
          "brand:pa": "\u0a2e\u0a48\u0a15\u0a21\u0a4b\u0a28\u0a32\u0a21\u2019\u0a1c\u0a3c",
          "brand:ur": "\u0645\u06a9\u0688\u0648\u0646\u0644\u0688\u0632",
          "brand:wikidata": "Q38076",
          "brand:wikipedia": "en:McDonald's",
          "brand:wikipedia:pa": "\u0a2e\u0a48\u0a15\u0a21\u0a4b\u0a28\u0a32\u0a21\u2019\u0a1c\u0a3c",
          "brand:wikipedia:ur": "\u0645\u06a9\u0688\u0648\u0646\u0644\u0688\u0632",
          "cuisine": "burger",
          "internet_access": "wlan",
          "name": "McDonald's",
          "name:pa": "\u0a2e\u0a48\u0a15\u0a21\u0a4b\u0a28\u0a32\u0a21\u2019\u0a1c\u0a3c",
          "name:ur": "\u0645\u06a9\u0688\u0648\u0646\u0644\u0688\u0632",
          "takeaway": "yes"
        }
      },
      {
        "type": "node",
        "id": 4169354656,
        "lat": 26.8554202,
        "lon": 80.9456181,
        "tags": {
          "addr:city": "Lucknow",
          "addr:postcode": "226001",
          "addr:street": "Shahnajaf Road",
          "amenity": "fast_food",
          "brand": "KFC",
          "brand:pa": "\u0a15\u0a47\u0a10\u0a2b\u0a38\u0a40",
          "brand:ur": "\u06a9\u06cc\u0646\u0679\u06a9\u06cc \u0641\u0631\u0627\u0626\u06cc\u0688 \u0686\u06a9\u0646",
          "brand:wikidata": "Q524757",
          "brand:wikipedia": "en:KFC",
          "brand:wikipedia:pa": "\u0a15\u0a47\u0a10\u0a2b\u0a38\u0a40",
          "brand:wikipedia:ur": "\u06a9\u06cc\u0646\u0679\u06a9\u06cc \u0641\u0631\u0627\u0626\u06cc\u0688 \u0686\u06a9\u0646",
          "cuisine": "chicken",
          "name": "KFC",
          "name:pa": "\u0a15\u0a47\u0a10\u0a2b\u0a38\u0a40",
          "name:ur": "\u06a9\u06cc\u0646\u0679\u06a9\u06cc \u0641\u0631\u0627\u0626\u06cc\u0688 \u0686\u06a9\u0646",
          "takeaway": "yes"
        }
      },
      {
        "type": "node",
        "id": 4968712021,
        "lat": 26.8475668,
        "lon": 80.9447975,
        "tags": {
          "addr:housenumber": "75",
          "addr:street": "Hazratganj",
          "amenity": "restaurant",
          "name:en": "Moti Mahal"
        }
      },
      {
        "type": "node",
        "id": 6005194985,
        "lat": 26.8528888,
        "lon": 80.9346608,
        "tags": {
          "addr:street": "Quaiserbagh Circle",
          "amenity": "restaurant",
          "name:en": "Sakhawat",
          "phone": "+919565020202",
          "website": "http://sakhawatrestaurant.com"
        }
      },
      {
        "type": "node",
        "id": 6012504085,
        "lat": 26.8516664,
        "lon": 80.9415761,
        "tags": {
          "amenity": "cafe",
          "cuisine": "coffee_shop;pasta;breakfast",
          "name:en": "Caf\u00e9 Cherry Tree"
        }
      },
      {
        "type": "node",
        "id": 6635065566,
        "lat": 26.848115,
        "lon": 80.9400898,
        "tags": {
          "amenity": "cafe",
          "brand": "Cafe Coffee Day",
          "cuisine": "coffee_shop",
          "name": "Cafe Coffee Day",
          "takeaway": "yes"
        }
      },
      {
        "type": "node",
        "id": 6635065568,
        "lat": 26.8480668,
        "lon": 80.9398469,
        "tags": {
          "amenity": "bank",
          "atm": "yes",
          "branch": "Lucknow Main",
          "brand": "Union Bank"
        }
      },
      {
        "type": "node",
        "id": 6635065570,
        "lat": 26.8475673,
        "lon": 80.9407262,
        "tags": {
          "amenity": "atm",
          "brand": "IndusInd Bank",
          "opening_hours": "24/7"
        }
      },
      {
        "type": "node",
        "id": 6635147754,
        "lat": 26.8484634,
        "lon": 80.9394726,
        "tags": {
          "amenity": "atm",
          "brand": "State Bank of India"
        }
      },
      {
        "type": "node",
        "id": 6635147755,
        "lat": 26.8481534,
        "lon": 80.9394783,
        "tags": {
          "amenity": "atm",
          "brand": "ICICI Bank"
        }
      },
      {
        "type": "node",
        "id": 6635147756,
        "lat": 26.8484675,
        "lon": 80.9395378,
        "tags": {
          "amenity": "bank",
          "branch": "Nagar Mahapalika",
          "brand": "State Bank of India"
        }
      },
      {
        "type": "node",
        "id": 6635438738,
        "lat": 26.8473949,
        "lon": 80.9418664,
        "tags": {
          "amenity": "atm",
          "brand": "State Bank of India",
          "wheelchair": "no"
        }
      },
      {
        "type": "node",
        "id": 6635438751,
        "lat": 26.8488047,
        "lon": 80.9406972,
        "tags": {
          "amenity": "bank",
          "atm": "yes",
          "brand": "Punjab and Sind Bank"
        }
      },
      {
        "type": "node",
        "id": 6792803219,
        "lat": 26.851626,
        "lon": 80.9365486,
        "tags": {
          "addr:city": "Lucknow",
          "addr:housenumber": "GF-113, Ground Floor,",
          "addr:postcode": "226001",
          "addr:street": "Ansal City Centre, Hazratganj,",
          "amenity": "bank",
          "drive_through": "yes",
          "name": "Customised Capital Care",
          "operator": "Loan Agency"
        }
      },
      {
        "type": "node",
        "id": 7018564257,
        "lat": 26.8504049,
        "lon": 80.936254,
        "tags": {
          "addr:district": "Lucknow",
          "addr:full": "3, J. C. Bose Marg, Lal Bagh",
          "addr:postcode": "226001",
          "addr:state": "Uttar Pradesh",
          "amenity": "hospital",
          "name": "Nishat Hospital",
          "source": "OpenGovernmentData"
        }
      },
      {
        "type": "node",
        "id": 7025739665,
        "lat": 26.8578047,
        "lon": 80.9424175,
        "tags": {
          "addr:district": "Lucknow",
          "addr:full": "No. 21/31, 3C Tilak Marg (Off Rana Pratap Marg),Hazratganj",
          "addr:postcode": "226001",
          "addr:state": "Uttar Pradesh",
          "amenity": "hospital",
          "name": "Dr Subodh Agrawal Memorial (SAM) Eye Hospital",
          "source": "OpenGovernmentData"
        }
      },
      {
        "type": "node",
        "id": 7028033833,
        "lat": 26.8479776,
        "lon": 80.9360737,
        "tags": {
          "addr:district": "Lucknow",
          "addr:full": "Kaiserbagh Officer's Colony, Lalbagh",
          "addr:postcode": "226001",
          "addr:state": "Uttar Pradesh",
          "amenity": "clinic",
          "name": "Nur Manzil Psychiatric Centre",
          "source": "OpenGovernmentData"
        }
      },
      {
        "type": "node",
        "id": 7028172591,
        "lat": 26.8508471,
        "lon": 80.9325202,
        "tags": {
          "addr:district": "Lucknow",
          "addr:full": "1, B.N. Road, Kaiserbagh",
          "addr:postcode": "226001",
          "addr:state": "Uttar Pradesh",
          "amenity": "hospital",
          "name": "Indira Gandhi Eye Hospital And Research Centre",
          "name:etymology:wikidata": "Q1149",
          "source": "OpenGovernmentData"
        }
      },
      {
        "type": "node",
        "id": 9035161918,
        "lat": 26.8483271,
        "lon": 80.9437858,
        "tags": {
          "addr:street": "Hazratganj",
          "amenity": "cafe",
          "name:en": "Royal Cafe"
        }
      },
      {
        "type": "node",
        "id": 12748201976,
        "lat": 26.8477535,
        "lon": 80.9406863,
        "tags": {
          "amenity": "cafe",
          "cuisine": "tea",
          "name": "Sharma ji ki Chai",
          "name:hi": "\u0936\u0930\u094d\u092e\u093e \u091c\u0940 \u0915\u0940 \u091a\u093e\u092f"
        }
      },
      {
        "type": "node",
        "id": 12751688688,
        "lat": 26.8482304,
        "lon": 80.9405469,
        "tags": {
          "amenity": "cafe",
          "cuisine": "Tea",
          "name": "Shivneri Chai"
        }
      },
      {
        "type": "node",
        "id": 13036561537,
        "lat": 26.8495884,
        "lon": 80.9430039,
        "tags": {
          "amenity": "fast_food",
          "check_date": "2025-07-30",
          "name": "Shukla Tea Stall"
        }
      },
      {
        "type": "node",
        "id": 13036561538,
        "lat": 26.8497155,
        "lon": 80.942816,
        "tags": {
          "amenity": "fast_food",
          "check_date": "2025-07-30",
          "name": "Shukla Chat House"
        }
      },
      {
        "type": "node",
        "id": 13042903805,
        "lat": 26.8504201,
        "lon": 80.9409029,
        "tags": {
          "amenity": "restaurant"
        }
      },
      {
        "type": "node",
        "id": 13056242651,
        "lat": 26.8491703,
        "lon": 80.9445735,
        "tags": {
          "amenity": "atm",
          "atm": "yes",
          "brand": "Canara Bank",
          "brand:en": "Canara Bank",
          "brand:hi": "\u0915\u0947\u0928\u0930\u093e \u092c\u0948\u0902\u0915",
          "brand:kn": "\u0c95\u0cc6\u0ca8\u0cb0\u0cbe \u0cac\u0ccd\u0caf\u0cbe\u0c82\u0c95\u0ccd",
          "brand:pa": "\u0a15\u0a47\u0a28\u0a30\u0a3e \u0a2c\u0a48\u0a02\u0a15",
          "brand:pnb": "\u06a9\u06cc\u0646\u0631\u0627 \u0628\u06cc\u0646\u06a9",
          "brand:ur": "\u06a9\u06cc\u0646\u0631\u0627 \u0628\u06cc\u0646\u06a9",
          "brand:wikidata": "Q2003777",
          "covered": "yes",
          "level": "0",
          "operator": "Canara Bank",
          "operator:wikidata": "Q2003777",
          "wheelchair": "no"
        }
      },
      {
        "type": "node",
        "id": 13056242652,
        "lat": 26.8492319,
        "lon": 80.9444926,
        "tags": {
          "amenity": "atm",
          "brand": "Canara Bank",
          "brand:en": "Canara Bank",
          "brand:hi": "\u0915\u0947\u0928\u0930\u093e \u092c\u0948\u0902\u0915",
          "brand:kn": "\u0c95\u0cc6\u0ca8\u0cb0\u0cbe \u0cac\u0ccd\u0caf\u0cbe\u0c82\u0c95\u0ccd",
          "brand:pa": "\u0a15\u0a47\u0a28\u0a30\u0a3e \u0a2c\u0a48\u0a02\u0a15",
          "brand:pnb": "\u06a9\u06cc\u0646\u0631\u0627 \u0628\u06cc\u0646\u06a9",
          "brand:ur": "\u06a9\u06cc\u0646\u0631\u0627 \u0628\u06cc\u0646\u06a9",
          "brand:wikidata": "Q2003777",
          "indoor": "yes",
          "operator": "Canara Bank",
          "operator:wikidata": "Q2003777",
          "wheelchair": "no"
        }
      }
    ]
  },
  "pois_2_5km": {
    "version": 0.6,
    "generator": "Overpass API 0.7.62.8 e802775f",
    "osm3s": {
      "timestamp_osm_base": "2025-09-07T14:52:00Z",
      "copyright": "The data included in this document is from www.openstreetmap.org. The data is made available under ODbL."
    },
    "elements": [
      {
        "type": "node",
        "id": 564718469,
        "lat": 26.8593065,
        "lon": 80.9180893,
        "tags": {
          "name": "Lucknow City",
          "network": "IR",
          "operator": "NER",
          "public_transport": "station",
          "railway": "station",
          "ref": "LC",
          "wikidata": "Q12450935"
        }
      },
      {
        "type": "node",
        "id": 2207518133,
        "lat": 26.8370396,
        "lon": 80.9213257,
        "tags": {
          "bus": "yes",
          "highway": "bus_stop",
          "name": "Lucknow Main Hotel ANR",
          "public_transport": "stop_position"
        }
      },
      {
        "type": "node",
        "id": 2213444018,
        "lat": 26.8532581,
        "lon": 80.9164529,
        "tags": {
          "operator": "NER",
          "railway": "station"
        }
      },
      {
        "type": "node",
        "id": 2226248382,
        "lat": 26.8479918,
        "lon": 80.9394268,
        "tags": {
          "amenity": "cinema"
        }
      },
      {
        "type": "node",
        "id": 3305357099,
        "lat": 26.8374521,
        "lon": 80.9200495,
        "tags": {
          "amenity": "fuel",
          "name": "Bharath Petroleum Station"
        }
      },
      {
        "type": "node",
        "id": 4244207745,
        "lat": 26.8415965,
        "lon": 80.9399056,
        "tags": {
          "name": "Sachivalaya",
          "name:hi": "\u0938\u091a\u093f\u0935\u093e\u0932\u092f",
          "network": "Lucknow Metro",
          "note": "Contributors are requested to not edit the \"network\" and the \"operator\" tags. (2023/11/08)",
          "operator": "Lucknow Metro Rail Corporation Limited",
          "public_transport": "station",
          "railway": "station",
          "station": "subway",
          "subway": "yes"
        }
      },
      {
        "type": "node",
        "id": 4292019389,
        "lat": 26.8478371,
        "lon": 80.9472678,
        "tags": {
          "addr:postcode": "226001",
          "addr:street": "Ashok Marg",
          "amenity": "fuel",
          "name": "Sarkar Petrol Pump "
        }
      },
      {
        "type": "node",
        "id": 4977535798,
        "lat": 26.8539423,
        "lon": 80.9368471,
        "tags": {
          "name": "KD Singh Babu Stadium",
          "name:hi": "\u0915\u0947\u0921\u0940 \u0938\u093f\u0902\u0939 \u092c\u093e\u092c\u0942 \u0938\u094d\u091f\u0947\u0921\u093f\u092f\u092e",
          "network": "Lucknow Metro",
          "note": "Contributors are requested to not edit the \"network\" and the \"operator\" tags. (2023/11/08)",
          "operator": "Lucknow Metro Rail Corporation Limited",
          "public_transport": "stop_position",
          "subway": "yes"
        }
      },
      {
        "type": "node",
        "id": 4977535810,
        "lat": 26.8654923,
        "lon": 80.9395636,
        "tags": {
          "name": "Vishwavidyalaya",
          "name:hi": "\u0935\u093f\u0936\u094d\u0935\u0935\u093f\u0926\u094d\u092f\u093e\u0932\u092f",
          "network": "Lucknow Metro",
          "note": "Contributors are requested to not edit the \"network\" and the \"operator\" tags. (2023/11/08)",
          "operator": "Lucknow Metro Rail Corporation Limited",
          "public_transport": "stop_position",
          "subway": "yes"
        }
      },
      {
        "type": "node",
        "id": 5195189621,
        "lat": 26.8388944,
        "lon": 80.9345356,
        "tags": {
          "amenity": "fuel",
          "brand": "Bharat Petroleum",
          "brand:wikidata": "Q854826",
          "name": "Bharat Petroleum",
          "name:en": "Bharat Petroleum"
        }
      },
      {
        "type": "node",
        "id": 5777575720,
        "lat": 26.8416132,
        "lon": 80.939897,
        "tags": {
          "name": "Sachivalaya",
          "name:hi": "\u0938\u091a\u093f\u0935\u093e\u0932\u092f",
          "network": "Lucknow Metro",
          "note": "Contributors are requested to not edit the \"network\" and the \"operator\" tags. (2023/11/08)",
          "operator": "Lucknow Metro Rail Corporation Limited",
          "public_transport": "stop_position",
          "subway": "yes"
        }
      },
      {
        "type": "node",
        "id": 5790401044,
        "lat": 26.8392677,
        "lon": 80.9335726,
        "tags": {
          "bus": "yes",
          "highway": "bus_stop",
          "name": "Lucknow Main 221 KTM Bike",
          "public_transport": "stop_position"
        }
      },
      {
        "type": "node",
        "id": 5790401045,
        "lat": 26.8390031,
        "lon": 80.9295848,
        "tags": {
          "bus": "yes",
          "highway": "bus_stop",
          "name": "Lucknow Main 221",
          "public_transport": "stop_position"
        }
      },
      {
        "type": "node",
        "id": 5790401046,
        "lat": 26.8374784,
        "lon": 80.9263134,
        "tags": {
          "bus": "yes",
          "highway": "bus_stop",
          "name": "Lucknow Main 221",
          "public_transport": "stop_position"
        }
      },
      {
        "type": "node",
        "id": 5790401047,
        "lat": 26.837286,
        "lon": 80.9243269,
        "tags": {
          "bus": "yes",
          "highway": "bus_stop",
          "name": "Lucknow Main",
          "public_transport": "stop_position"
        }
      },
      {
        "type": "node",
        "id": 5790401048,
        "lat": 26.8370973,
        "lon": 80.9231744,
        "tags": {
          "bus": "yes",
          "highway": "bus_stop",
          "name": "Lucknow Main",
          "public_transport": "stop_position"
        }
      },
      {
        "type": "node",
        "id": 6444506695,
        "lat": 26.8710043,
        "lon": 80.945608,
        "tags": {
          "name": "IT College",
          "name:hi": "\u0906\u0908\u091f\u0940 \u0915\u0949\u0932\u0947\u091c",
          "network": "Lucknow Metro",
          "note": "Contributors are requested to not edit the \"network\" and the \"operator\" tags. (2023/11/08)",
          "operator": "Lucknow Metro Rail Corporation Limited",
          "public_transport": "stop_position",
          "subway": "yes"
        }
      },
      {
        "type": "node",
        "id": 6445132136,
        "lat": 26.8500472,
        "lon": 80.9416143,
        "tags": {
          "name": "Hazratganj",
          "name:hi": "\u0939\u091c\u093c\u0930\u0924\u0917\u0902\u091c",
          "network": "Lucknow Metro",
          "note": "Contributors are requested to not edit the \"network\" and the \"operator\" tags. (2023/11/08)",
          "operator": "Lucknow Metro Rail Corporation Limited",
          "public_transport": "stop_position",
          "subway": "yes"
        }
      },
      {
        "type": "node",
        "id": 6445132137,
        "lat": 26.8384284,
        "lon": 80.93433,
        "tags": {
          "name": "Hussainganj",
          "name:hi": "\u0939\u0941\u0938\u0948\u0928\u0917\u0902\u091c",
          "network": "Lucknow Metro",
          "note": "Contributors are requested to not edit the \"network\" and the \"operator\" tags. (2023/11/08)",
          "operator": "Lucknow Metro Rail Corporation Limited",
          "public_transport": "station",
          "railway": "station",
          "station": "subway",
          "subway": "yes"
        }
      },
      {
        "type": "node",
        "id": 6621697158,
        "lat": 26.8422387,
        "lon": 80.940551,
        "tags": {
          "amenity": "fuel",
          "brand": "Hindustan Petroleum"
        }
      },
      {
        "type": "node",
        "id": 6621697161,
        "lat": 26.8411158,
        "lon": 80.9395115,
        "tags": {
          "amenity": "fuel",
          "brand": "Hindustan Petroleum"
        }
      },
      {
        "type": "node",
        "id": 6621697166,
        "lat": 26.8453548,
        "lon": 80.9455528,
        "tags": {
          "amenity": "fuel",
          "brand": "Bharat Petroleum",
          "fuel:diesel": "yes",
          "opening_hours": "24/7"
        }
      },
      {
        "type": "node",
        "id": 6634933375,
        "lat": 26.8709347,
        "lon": 80.9405916,
        "tags": {
          "amenity": "fuel",
          "brand": "Hindustan Petroleum",
          "fuel:diesel": "yes"
        }
      },
      {
        "type": "node",
        "id": 6635065569,
        "lat": 26.8481427,
        "lon": 80.9399566,
        "tags": {
          "amenity": "cinema",
          "name": "Novelty MGS Cinemas"
        }
      },
      {
        "type": "node",
        "id": 6635130652,
        "lat": 26.8672342,
        "lon": 80.9223085,
        "tags": {
          "amenity": "fuel",
          "brand": "Indian Oil"
        }
      },
      {
        "type": "node",
        "id": 8006089152,
        "lat": 26.8415797,
        "lon": 80.9399191,
        "tags": {
          "name": "Sachivalaya",
          "name:hi": "\u0938\u091a\u093f\u0935\u093e\u0932\u092f",
          "network": "Lucknow Metro",
          "note": "Contributors are requested to not edit the \"network\" and the \"operator\" tags. (2023/11/08)",
          "operator": "Lucknow Metro Rail Corporation Limited",
          "public_transport": "stop_position",
          "subway": "yes"
        }
      },
      {
        "type": "node",
        "id": 8006089153,
        "lat": 26.8384239,
        "lon": 80.9343499,
        "tags": {
          "name": "Hussainganj",
          "name:hi": "\u0939\u0941\u0938\u0948\u0928\u0917\u0902\u091c",
          "network": "Lucknow Metro",
          "note": "Contributors are requested to not edit the \"network\" and the \"operator\" tags. (2023/11/08)",
          "operator": "Lucknow Metro Rail Corporation Limited",
          "public_transport": "stop_position",
          "railway": "stop",
          "subway": "yes"
        }
      },
      {
        "type": "node",
        "id": 8006089163,
        "lat": 26.8384335,
        "lon": 80.934311,
        "tags": {
          "name": "Hussainganj",
          "name:hi": "\u0939\u0941\u0938\u0948\u0928\u0917\u0902\u091c",
          "network": "Lucknow Metro",
          "note": "Contributors are requested to not edit the \"network\" and the \"operator\" tags. (2023/11/08)",
          "operator": "Lucknow Metro Rail Corporation Limited",
          "public_transport": "stop_position",
          "railway": "stop",
          "subway": "yes"
        }
      },
      {
        "type": "node",
        "id": 9655708798,
        "lat": 26.8710268,
        "lon": 80.9456475,
        "tags": {
          "name": "IT College",
          "name:hi": "\u0906\u0908\u091f\u0940 \u0915\u0949\u0932\u0947\u091c",
          "network": "Lucknow Metro",
          "note": "Contributors are requested to not edit the \"network\" and the \"operator\" tags. (2023/11/08)",
          "operator": "Lucknow Metro Rail Corporation Limited",
          "public_transport": "station",
          "railway": "station",
          "station": "subway",
          "subway": "yes"
        }
      },
      {
        "type": "node",
        "id": 9655708799,
        "lat": 26.865529,
        "lon": 80.9395458,
        "tags": {
          "name": "Vishwavidyalaya",
          "name:hi": "\u0935\u093f\u0936\u094d\u0935\u0935\u093f\u0926\u094d\u092f\u093e\u0932\u092f",
          "network": "Lucknow Metro",
          "note": "Contributors are requested to not edit the \"network\" and the \"operator\" tags. (2023/11/08)",
          "operator": "Lucknow Metro Rail Corporation Limited",
          "public_transport": "station",
          "railway": "station",
          "station": "subway",
          "subway": "yes"
        }
      },
      {
        "type": "node",
        "id": 9655708800,
        "lat": 26.8539449,
        "lon": 80.9368084,
        "tags": {
          "name": "KD Singh Babu Stadium",
          "name:hi": "\u0915\u0947\u0921\u0940 \u0938\u093f\u0902\u0939 \u092c\u093e\u092c\u0942 \u0938\u094d\u091f\u0947\u0921\u093f\u092f\u092e",
          "network": "Lucknow Metro",
          "note": "Contributors are requested to not edit the \"network\" and the \"operator\" tags. (2023/11/08)",
          "operator": "Lucknow Metro Rail Corporation Limited",
          "public_transport": "station",
          "railway": "station",
          "station": "subway",
          "subway": "yes"
        }
      },
      {
        "type": "node",
        "id": 9655708801,
        "lat": 26.8500335,
        "lon": 80.9415944,
        "tags": {
          "name": "Hazratganj",
          "name:hi": "\u0939\u091c\u093c\u0930\u0924\u0917\u0902\u091c",
          "network": "Lucknow Metro",
          "note": "Contributors are requested to not edit the \"network\" and the \"operator\" tags. (2023/11/08)",
          "operator": "Lucknow Metro Rail Corporation Limited",
          "public_transport": "station",
          "railway": "station",
          "station": "subway",
          "subway": "yes"
        }
      },
      {
        "type": "node",
        "id": 9655728255,
        "lat": 26.8710537,
        "lon": 80.94561,
        "tags": {
          "name": "IT College",
          "name:hi": "\u0906\u0908\u091f\u0940 \u0915\u0949\u0932\u0947\u091c",
          "network": "Lucknow Metro",
          "note": "Contributors are requested to not edit the \"network\" and the \"operator\" tags. (2023/11/08)",
          "operator": "Lucknow Metro Rail Corporation Limited",
          "public_transport": "stop_position",
          "subway": "yes"
        }
      },
      {
        "type": "node",
        "id": 9655728269,
        "lat": 26.8655077,
        "lon": 80.939511,
        "tags": {
          "name": "Vishwavidyalaya",
          "name:hi": "\u0935\u093f\u0936\u094d\u0935\u0935\u093f\u0926\u094d\u092f\u093e\u0932\u092f",
          "network": "Lucknow Metro",
          "note": "Contributors are requested to not edit the \"network\" and the \"operator\" tags. (2023/11/08)",
          "operator": "Lucknow Metro Rail Corporation Limited",
          "public_transport": "stop_position",
          "subway": "yes"
        }
      },
      {
        "type": "node",
        "id": 9655728294,
        "lat": 26.8539129,
        "lon": 80.9368026,
        "tags": {
          "name": "KD Singh Babu Stadium",
          "name:hi": "\u0915\u0947\u0921\u0940 \u0938\u093f\u0902\u0939 \u092c\u093e\u092c\u0942 \u0938\u094d\u091f\u0947\u0921\u093f\u092f\u092e",
          "network": "Lucknow Metro",
          "note": "Contributors are requested to not edit the \"network\" and the \"operator\" tags. (2023/11/08)",
          "operator": "Lucknow Metro Rail Corporation Limited",
          "public_transport": "stop_position",
          "subway": "yes"
        }
      },
      {
        "type": "node",
        "id": 9655728299,
        "lat": 26.8500069,
        "lon": 80.9415821,
        "tags": {
          "name": "Hazratganj",
          "name:hi": "\u0939\u091c\u093c\u0930\u0924\u0917\u0902\u091c",
          "network": "Lucknow Metro",
          "note": "Contributors are requested to not edit the \"network\" and the \"operator\" tags. (2023/11/08)",
          "operator": "Lucknow Metro Rail Corporation Limited",
          "public_transport": "stop_position",
          "subway": "yes"
        }
      }
    ]
  }
}