{
  "pois_1km": {
    "version": 0.6,
    "generator": "Overpass API 0.7.62.8 e802775f",
    "osm3s": {
      "timestamp_osm_base": "2025-09-07T14:47:00Z",
      "copyright": "The data included in this document is from www.openstreetmap.org. The data is made available under ODbL."
    },
    "elements": [
      {
        "type": "node",
        "id": 3305357100,
        "lat": 26.8375742,
        "lon": 80.9200656,
        "tags": {
          "amenity": "bank",
          "brand": "ICICI",
          "brand:wikidata": "Q1653258",
          "name": "ICICI Bank",
          "name:en": "ICICI Bank",
          "short_name": "ICICI",
          "website": "https://www.icicibank.com",
          "wikidata": "Q1653258",
          "wikipedia": "en:ICICI Bank"
        }
      },
      {
        "type": "node",
        "id": 3305357101,
        "lat": 26.8375431,
        "lon": 80.9201139,
        "tags": {
          "amenity": "atm",
          "name": "ICICI Bank ATM"
        }
      },
      {
        "type": "node",
        "id": 7025223724,
        "lat": 26.8407611,
        "lon": 80.9179697,
        "tags": {
          "addr:district": "Lucknow",
          "addr:full": "74, Rajendra Nagar",
          "addr:postcode": "226002",
          "addr:state": "Uttar Pradesh",
          "amenity": "hospital",
          "name": "Rajendra Nagar Hospital",
          "source": "OpenGovernmentData"
        }
      },
      {
        "type": "node",
        "id": 7028096718,
        "lat": 26.8411505,
        "lon": 80.9260262,
        "tags": {
          "addr:district": "Lucknow",
          "addr:full": "80-B, Gautam Budh Marg, Opposite shree Geeta Bhawan",
          "addr:postcode": "226001",
          "addr:state": "Uttar Pradesh",
          "amenity": "hospital",
          "name": "Kamla Devi Memorial Hospital And Fertility Centre",
          "source": "OpenGovernmentData",
          "website": "https://www.kamladeviivf.com/"
        }
      },
      {
        "type": "node",
        "id": 7035803370,
        "lat": 26.8379372,
        "lon": 80.9277794,
        "tags": {
          "addr:district": "Lucknow",
          "addr:full": "82/40, Lalkuwan, Guru Govind Singh Marg",
          "addr:postcode": "226019",
          "addr:state": "Uttar Pradesh",
          "amenity": "hospital",
          "name": "Lucknow Eye Hospital",
          "source": "OpenGovernmentData"
        }
      },
      {
        "type": "node",
        "id": 7510640720,
        "lat": 26.8401445,
        "lon": 80.9285055,
        "tags": {
          "addr:district": "Lucknow",
          "addr:full": "Ram Gopal Vidyant Road, Lalkuan, Lucknow",
          "addr:postcode": "226001",
          "addr:state": "Uttar Pradesh",
          "amenity": "hospital",
          "name": "Nayab Hospital",
          "source": "Local Knowledge"
        }
      },
      {
        "type": "node",
        "id": 7510640788,
        "lat": 26.8340056,
        "lon": 80.9296976,
        "tags": {
          "addr:district": "Lucknow",
          "addr:full": "Ap Sen Marg, Cash And Pay Colony, Charbagh, Lucknow",
          "addr:postcode": "226001",
          "addr:state": "Uttar Pradesh",
          "amenity": "hospital",
          "name": "Hope Hospital",
          "source": "Local Knowledge"
        }
      },
      {
        "type": "node",
        "id": 8848509880,
        "lat": 26.8328312,
        "lon": 80.9272905,
        "tags": {
          "amenity": "atm",
          "check_date": "2023-10-01",
          "name": "UCO"
        }
      },
      {
        "type": "node",
        "id": 11235402724,
        "lat": 26.8315171,
        "lon": 80.9239938,
        "tags": {
          "amenity": "restaurant",
          "level": "0",
          "name": "Rail Coach Restaurant",
          "toilets:wheelchair": "no"
        }
      },
      {
        "type": "node",
        "id": 12751882258,
        "lat": 26.8310133,
        "lon": 80.9239663,
        "tags": {
          "air_conditioning": "yes",
          "amenity": "restaurant",
          "level": "0",
          "name": "Sendha",
          "name:hi": "\u0938\u0947\u0902\u0927\u093e",
          "opening_hours": "24/7",
          "toilets": "yes"
        }
      },
      {
        "type": "node",
        "id": 13124599319,
        "lat": 26.8394282,
        "lon": 80.924898,
        "tags": {
          "amenity": "bank",
          "atm": "yes",
          "brand": "Union Bank of India",
          "brand:wikidata": "Q2004078",
          "name": "Union Bank of India"
        }
      }
    ]
  },
  "pois_2_5km": {
    "version": 0.6,
    "generator": "Overpass API 0.7.62.8 e802775f",
    "osm3s": {
      "timestamp_osm_base": "2025-09-07T14:47:00Z",
      "copyright": "The data included in this document is from www.openstreetmap.org. The data is made available under ODbL."
    },
    "elements": [
      {
        "type": "node",
        "id": 564713410,
        "lat": 26.8305073,
        "lon": 80.9244154,
        "tags": {
          "name": "Lucknow Charbagh",
          "name:de": "Lucknow Charbagh",
          "name:ur": "\u0644\u06a9\u06be\u0646\u0624 \u0686\u0627\u0631\u0628\u0627\u063a",
          "public_transport": "stop_position",
          "railway": "stop",
          "train": "yes"
        }
      },
      {
        "type": "node",
        "id": 564718427,
        "lat": 26.8311583,
        "lon": 80.9243609,
        "tags": {
          "addr:city": "Lucknow",
          "ele": "123.5",
          "internet_access": "wlan",
          "name": "Lucknow Charbagh",
          "name:de": "Lucknow Charbagh",
          "name:en": "Lucknow Charbagh",
          "name:hi": "\u0932\u0916\u0928\u090a \u091a\u093e\u0930\u092c\u093e\u0917\u093c",
          "name:ur": "\u0644\u06a9\u06be\u0646\u0624 \u0686\u0627\u0631\u0628\u0627\u063a",
          "network": "IR",
          "operator": "NR",
          "public_transport": "station",
          "railway": "station",
          "ref": "LKO",
          "train": "yes",
          "wheelchair": "yes",
          "wikidata": "Q3633969",
          "wikimedia_commons": "File:Lucknow Charbagh Railway Station 3.jpg",
          "wikipedia": "en:Lucknow Charbagh railway station"
        }
      },
      {
        "type": "node",
        "id": 2207518133,
        "lat": 26.8370396,
        "lon": 80.9213257,
        "tags": {
          "bus": "yes",
          "highway": "bus_stop",
          "name": "Lucknow Main Hotel ANR",
          "public_transport": "stop_position"
        }
      },
      {
        "type": "node",
        "id": 2213444018,
        "lat": 26.8532581,
        "lon": 80.9164529,
        "tags": {
          "operator": "NER",
          "railway": "station"
        }
      },
      {
        "type": "node",
        "id": 2226248382,
        "lat": 26.8479918,
        "lon": 80.9394268,
        "tags": {
          "amenity": "cinema"
        }
      },
      {
        "type": "node",
        "id": 3305357099,
        "lat": 26.8374521,
        "lon": 80.9200495,
        "tags": {
          "amenity": "fuel",
          "name": "Bharath Petroleum Station"
        }
      },
      {
        "type": "node",
        "id": 3997322400,
        "lat": 26.8184732,
        "lon": 80.9072927,
        "tags": {
          "name": "Alambagh Bus Station",
          "name:hi": "\u0906\u0932\u092e\u092c\u093e\u0917 \u092c\u0938 \u0938\u094d\u091f\u0947\u0936\u0928",
          "network": "Lucknow Metro",
          "note": "Contributors are requested to not edit the \"network\" and the \"operator\" tags. (2023/11/08)",
          "operator": "Lucknow Metro Rail Corporation Limited",
          "public_transport": "station",
          "railway": "station",
          "station": "subway",
          "subway": "yes",
          "wikidata": "Q18109514",
          "wikipedia": "en:Alambagh ISBT metro station"
        }
      },
      {
        "type": "node",
        "id": 3997322403,
        "lat": 26.8253101,
        "lon": 80.9098575,
        "tags": {
          "name": "Mawaiya",
          "name:hi": "\u092e\u0935\u0908\u092f\u093e",
          "network": "Lucknow Metro",
          "note": "Contributors are requested to not edit the \"network\" and the \"operator\" tags. (2023/11/08)",
          "operator": "Lucknow Metro Rail Corporation Limited",
          "public_transport": "station",
          "railway": "station",
          "station": "subway",
          "subway": "yes"
        }
      },
      {
        "type": "node",
        "id": 4170031601,
        "lat": 26.8315101,
        "lon": 80.9222977,
        "tags": {
          "addr:city": "Lucknow",
          "ele": "126",
          "name": "Lucknow Junction",
          "name:de": "Lakhnau Junction",
          "name:hi": "\u0932\u0916\u0928\u090a \u091c\u0902\u0915\u094d\u0936\u0928",
          "name:ur": "\u0644\u06a9\u06be\u0646\u0624 \u062c\u0646\u06a9\u0634\u0646",
          "network": "Indian Railways",
          "operator": "Northern Railway",
          "public_transport": "station",
          "railway": "station",
          "ref": "LJN",
          "train": "yes",
          "wheelchair": "limited",
          "wikidata": "Q17151999",
          "wikipedia": "en:Lucknow Junction railway station"
        }
      },
      {
        "type": "node",
        "id": 4244207702,
        "lat": 26.8324023,
        "lon": 80.9231133,
        "tags": {
          "name": "Charbagh Railway Station",
          "name:hi": "\u091a\u093e\u0930\u092c\u093e\u0917\u093c \u0930\u0947\u0932\u0935\u0947 \u0938\u094d\u091f\u0947\u0936\u0928",
          "name:ur": "\u0644\u06a9\u06be\u0646\u0624 \u0686\u0627\u0631\u0628\u0627\u063a \u0627\u0633\u0679\u06cc\u0634\u0646",
          "network": "Lucknow Metro",
          "note": "Contributors are requested to not edit the \"network\" and the \"operator\" tags. (2023/11/08)",
          "operator": "Lucknow Metro Rail Corporation Limited",
          "public_transport": "station",
          "railway": "station",
          "station": "subway",
          "subway": "yes",
          "wheelchair": "yes"
        }
      },
      {
        "type": "node",
        "id": 4244207703,
        "lat": 26.8320029,
        "lon": 80.9154077,
        "tags": {
          "name": "Durgapuri",
          "name:hi": "\u0926\u0941\u0930\u094d\u0917\u093e\u092a\u0941\u0930\u0940",
          "network": "Lucknow Metro",
          "note": "Contributors are requested to not edit the \"network\" and the \"operator\" tags. (2023/11/08)",
          "operator": "Lucknow Metro Rail Corporation Limited",
          "public_transport": "station",
          "railway": "station",
          "ref": "DGPI",
          "station": "subway",
          "subway": "yes"
        }
      },
      {
        "type": "node",
        "id": 4244207745,
        "lat": 26.8415965,
        "lon": 80.9399056,
        "tags": {
          "name": "Sachivalaya",
          "name:hi": "\u0938\u091a\u093f\u0935\u093e\u0932\u092f",
          "network": "Lucknow Metro",
          "note": "Contributors are requested to not edit the \"network\" and the \"operator\" tags. (2023/11/08)",
          "operator": "Lucknow Metro Rail Corporation Limited",
          "public_transport": "station",
          "railway": "station",
          "station": "subway",
          "subway": "yes"
        }
      },
      {
        "type": "node",
        "id": 5195189621,
        "lat": 26.8388944,
        "lon": 80.9345356,
        "tags": {
          "amenity": "fuel",
          "brand": "Bharat Petroleum",
          "brand:wikidata": "Q854826",
          "name": "Bharat Petroleum",
          "name:en": "Bharat Petroleum"
        }
      },
      {
        "type": "node",
        "id": 5777575720,
        "lat": 26.8416132,
        "lon": 80.939897,
        "tags": {
          "name": "Sachivalaya",
          "name:hi": "\u0938\u091a\u093f\u0935\u093e\u0932\u092f",
          "network": "Lucknow Metro",
          "note": "Contributors are requested to not edit the \"network\" and the \"operator\" tags. (2023/11/08)",
          "operator": "Lucknow Metro Rail Corporation Limited",
          "public_transport": "stop_position",
          "subway": "yes"
        }
      },
      {
        "type": "node",
        "id": 5777576802,
        "lat": 26.83242,
        "lon": 80.9231122,
        "tags": {
          "name": "Charbagh Railway Station",
          "name:hi": "\u091a\u093e\u0930\u092c\u093e\u0917\u093c \u0930\u0947\u0932\u0935\u0947 \u0938\u094d\u091f\u0947\u0936\u0928",
          "name:ur": "\u0644\u06a9\u06be\u0646\u0624 \u0686\u0627\u0631\u0628\u0627\u063a \u0627\u0633\u0679\u06cc\u0634\u0646",
          "network": "Lucknow Metro",
          "note": "Contributors are requested to not edit the \"network\" and the \"operator\" tags. (2023/11/08)",
          "operator": "Lucknow Metro Rail Corporation Limited",
          "public_transport": "stop_position",
          "railway": "stop",
          "subway": "yes"
        }
      },
      {
        "type": "node",
        "id": 5777576808,
        "lat": 26.8184851,
        "lon": 80.9072782,
        "tags": {
          "name": "Alambagh Bus Station",
          "name:hi": "\u0906\u0932\u092e\u092c\u093e\u0917 \u092c\u0938 \u0938\u094d\u091f\u0947\u0936\u0928",
          "network": "Lucknow Metro",
          "note": "Contributors are requested to not edit the \"network\" and the \"operator\" tags. (2023/11/08)",
          "operator": "Lucknow Metro Rail Corporation Limited",
          "public_transport": "stop_position",
          "subway": "yes"
        }
      },
      {
        "type": "node",
        "id": 5777576809,
        "lat": 26.825311,
        "lon": 80.909837,
        "tags": {
          "name": "Mawaiya",
          "name:hi": "\u092e\u0935\u0908\u092f\u093e",
          "network": "Lucknow Metro",
          "note": "Contributors are requested to not edit the \"network\" and the \"operator\" tags. (2023/11/08)",
          "operator": "Lucknow Metro Rail Corporation Limited",
          "public_transport": "stop_position",
          "subway": "yes"
        }
      },
      {
        "type": "node",
        "id": 5777576810,
        "lat": 26.8320186,
        "lon": 80.915408,
        "tags": {
          "name": "Durgapuri",
          "name:hi": "\u0926\u0941\u0930\u094d\u0917\u093e\u092a\u0941\u0930\u0940",
          "network": "Lucknow Metro",
          "note": "Contributors are requested to not edit the \"network\" and the \"operator\" tags. (2023/11/08)",
          "operator": "Lucknow Metro Rail Corporation Limited",
          "public_transport": "stop_position",
          "ref": "DGPI",
          "subway": "yes"
        }
      },
      {
        "type": "node",
        "id": 5790401044,
        "lat": 26.8392677,
        "lon": 80.9335726,
        "tags": {
          "bus": "yes",
          "highway": "bus_stop",
          "name": "Lucknow Main 221 KTM Bike",
          "public_transport": "stop_position"
        }
      },
      {
        "type": "node",
        "id": 5790401045,
        "lat": 26.8390031,
        "lon": 80.9295848,
        "tags": {
          "bus": "yes",
          "highway": "bus_stop",
          "name": "Lucknow Main 221",
          "public_transport": "stop_position"
        }
      },
      {
        "type": "node",
        "id": 5790401046,
        "lat": 26.8374784,
        "lon": 80.9263134,
        "tags": {
          "bus": "yes",
          "highway": "bus_stop",
          "name": "Lucknow Main 221",
          "public_transport": "stop_position"
        }
      },
      {
        "type": "node",
        "id": 5790401047,
        "lat": 26.837286,
        "lon": 80.9243269,
        "tags": {
          "bus": "yes",
          "highway": "bus_stop",
          "name": "Lucknow Main",
          "public_transport": "stop_position"
        }
      },
      {
        "type": "node",
        "id": 5790401048,
        "lat": 26.8370973,
        "lon": 80.9231744,
        "tags": {
          "bus": "yes",
          "highway": "bus_stop",
          "name": "Lucknow Main",
          "public_transport": "stop_position"
        }
      },
      {
        "type": "node",
        "id": 6445132137,
        "lat": 26.8384284,
        "lon": 80.93433,
        "tags": {
          "name": "Hussainganj",
          "name:hi": "\u0939\u0941\u0938\u0948\u0928\u0917\u0902\u091c",
          "network": "Lucknow Metro",
          "note": "Contributors are requested to not edit the \"network\" and the \"operator\" tags. (2023/11/08)",
          "operator": "Lucknow Metro Rail Corporation Limited",
          "public_transport": "station",
          "railway": "station",
          "station": "subway",
          "subway": "yes"
        }
      },
      {
        "type": "node",
        "id": 6621697158,
        "lat": 26.8422387,
        "lon": 80.940551,
        "tags": {
          "amenity": "fuel",
          "brand": "Hindustan Petroleum"
        }
      },
      {
        "type": "node",
        "id": 6621697161,
        "lat": 26.8411158,
        "lon": 80.9395115,
        "tags": {
          "amenity": "fuel",
          "brand": "Hindustan Petroleum"
        }
      },
      {
        "type": "node",
        "id": 6635065569,
        "lat": 26.8481427,
        "lon": 80.9399566,
        "tags": {
          "amenity": "cinema",
          "name": "Novelty MGS Cinemas"
        }
      },
      {
        "type": "node",
        "id": 7605969608,
        "lat": 26.837359,
        "lon": 80.9097954,
        "tags": {
          "name": "Aishbagh",
          "name:hi": "\u0910\u0936\u092c\u093e\u0917",
          "network": "IR",
          "operator": "NER",
          "public_transport": "station",
          "railway": "station",
          "ref": "ASH",
          "train": "yes",
          "wikidata": "Q15645574",
          "wikipedia": "en:Aishbagh railway station"
        }
      },
      {
        "type": "node",
        "id": 7620685578,
        "lat": 26.8300322,
        "lon": 80.9244101,
        "tags": {
          "name": "Lucknow Charbagh",
          "name:de": "Lucknow Charbagh",
          "name:ur": "\u0644\u06a9\u06be\u0646\u0624 \u0686\u0627\u0631\u0628\u0627\u063a",
          "public_transport": "stop_position",
          "railway": "stop",
          "train": "yes"
        }
      },
      {
        "type": "node",
        "id": 7620685579,
        "lat": 26.8302051,
        "lon": 80.92439,
        "tags": {
          "name": "Lucknow Charbagh",
          "name:de": "Lucknow Charbagh",
          "name:ur": "\u0644\u06a9\u06be\u0646\u0624 \u0686\u0627\u0631\u0628\u0627\u063a",
          "public_transport": "stop_position",
          "railway": "stop",
          "train": "yes"
        }
      },
      {
        "type": "node",
        "id": 7620685580,
        "lat": 26.8302437,
        "lon": 80.9243891,
        "tags": {
          "name": "Lucknow Charbagh",
          "name:de": "Lucknow Charbagh",
          "name:ur": "\u0644\u06a9\u06be\u0646\u0624 \u0686\u0627\u0631\u0628\u0627\u063a",
          "public_transport": "stop_position",
          "railway": "stop",
          "train": "yes"
        }
      },
      {
        "type": "node",
        "id": 7620685581,
        "lat": 26.8307654,
        "lon": 80.9243676,
        "tags": {
          "name": "Lucknow Charbagh",
          "name:de": "Lucknow Charbagh",
          "name:ur": "\u0644\u06a9\u06be\u0646\u0624 \u0686\u0627\u0631\u0628\u0627\u063a",
          "public_transport": "stop_position",
          "railway": "stop",
          "train": "yes"
        }
      },
      {
        "type": "node",
        "id": 7620685582,
        "lat": 26.8306811,
        "lon": 80.9243746,
        "tags": {
          "name": "Lucknow Charbagh",
          "name:de": "Lucknow Charbagh",
          "name:ur": "\u0644\u06a9\u06be\u0646\u0624 \u0686\u0627\u0631\u0628\u0627\u063a",
          "public_transport": "stop_position",
          "railway": "stop",
          "train": "yes"
        }
      },
      {
        "type": "node",
        "id": 7620685583,
        "lat": 26.8304265,
        "lon": 80.924412,
        "tags": {
          "name": "Lucknow Charbagh",
          "name:ur": "\u0644\u06a9\u06be\u0646\u0624 \u0686\u0627\u0631\u0628\u0627\u063a",
          "public_transport": "stop_position",
          "railway": "stop",
          "train": "yes"
        }
      },
      {
        "type": "node",
        "id": 8006089152,
        "lat": 26.8415797,
        "lon": 80.9399191,
        "tags": {
          "name": "Sachivalaya",
          "name:hi": "\u0938\u091a\u093f\u0935\u093e\u0932\u092f",
          "network": "Lucknow Metro",
          "note": "Contributors are requested to not edit the \"network\" and the \"operator\" tags. (2023/11/08)",
          "operator": "Lucknow Metro Rail Corporation Limited",
          "public_transport": "stop_position",
          "subway": "yes"
        }
      },
      {
        "type": "node",
        "id": 8006089153,
        "lat": 26.8384239,
        "lon": 80.9343499,
        "tags": {
          "name": "Hussainganj",
          "name:hi": "\u0939\u0941\u0938\u0948\u0928\u0917\u0902\u091c",
          "network": "Lucknow Metro",
          "note": "Contributors are requested to not edit the \"network\" and the \"operator\" tags. (2023/11/08)",
          "operator": "Lucknow Metro Rail Corporation Limited",
          "public_transport": "stop_position",
          "railway": "stop",
          "subway": "yes"
        }
      },
      {
        "type": "node",
        "id": 8006089154,
        "lat": 26.8323812,
        "lon": 80.9231145,
        "tags": {
          "name": "Charbagh Railway Station",
          "name:hi": "\u091a\u093e\u0930\u092c\u093e\u0917\u093c \u0930\u0947\u0932\u0935\u0947 \u0938\u094d\u091f\u0947\u0936\u0928",
          "name:ur": "\u0644\u06a9\u06be\u0646\u0624 \u0686\u0627\u0631\u0628\u0627\u063a \u0627\u0633\u0679\u06cc\u0634\u0646",
          "network": "Lucknow Metro",
          "note": "Contributors are requested to not edit the \"network\" and the \"operator\" tags. (2023/11/08)",
          "operator": "Lucknow Metro Rail Corporation Limited",
          "public_transport": "stop_position",
          "subway": "yes"
        }
      },
      {
        "type": "node",
        "id": 8006089155,
        "lat": 26.8319799,
        "lon": 80.9154112,
        "tags": {
          "name": "Durgapuri",
          "name:hi": "\u0926\u0941\u0930\u094d\u0917\u093e\u092a\u0941\u0930\u0940",
          "network": "Lucknow Metro",
          "note": "Contributors are requested to not edit the \"network\" and the \"operator\" tags. (2023/11/08)",
          "operator": "Lucknow Metro Rail Corporation Limited",
          "public_transport": "stop_position",
          "ref": "DGPI",
          "subway": "yes"
        }
      },
      {
        "type": "node",
        "id": 8006089156,
        "lat": 26.8253033,
        "lon": 80.9098797,
        "tags": {
          "name": "Mawaiya",
          "name:hi": "\u092e\u0935\u0908\u092f\u093e",
          "network": "Lucknow Metro",
          "note": "Contributors are requested to not edit the \"network\" and the \"operator\" tags. (2023/11/08)",
          "operator": "Lucknow Metro Rail Corporation Limited",
          "public_transport": "stop_position",
          "subway": "yes"
        }
      },
      {
        "type": "node",
        "id": 8006089157,
        "lat": 26.8184598,
        "lon": 80.9073112,
        "tags": {
          "name": "Alambagh Bus Station",
          "name:hi": "\u0906\u0932\u092e\u092c\u093e\u0917 \u092c\u0938 \u0938\u094d\u091f\u0947\u0936\u0928",
          "network": "Lucknow Metro",
          "note": "Contributors are requested to not edit the \"network\" and the \"operator\" tags. (2023/11/08)",
          "operator": "Lucknow Metro Rail Corporation Limited",
          "public_transport": "stop_position",
          "subway": "yes"
        }
      },
      {
        "type": "node",
        "id": 8006089163,
        "lat": 26.8384335,
        "lon": 80.934311,
        "tags": {
          "name": "Hussainganj",
          "name:hi": "\u0939\u0941\u0938\u0948\u0928\u0917\u0902\u091c",
          "network": "Lucknow Metro",
          "note": "Contributors are requested to not edit the \"network\" and the \"operator\" tags. (2023/11/08)",
          "operator": "Lucknow Metro Rail Corporation Limited",
          "public_transport": "stop_position",
          "railway": "stop",
          "subway": "yes"
        }
      },
      {
        "type": "node",
        "id": 8429904747,
        "lat": 26.8315435,
        "lon": 80.9215211,
        "tags": {
          "name": "Lucknow Junction",
          "name:de": "Lakhnau Junction Gleis 6",
          "name:ur": "\u0644\u06a9\u06be\u0646\u0624 \u062c\u0646\u06a9\u0634\u0646",
          "public_transport": "stop_position",
          "railway": "stop",
          "ref": "6",
          "train": "yes"
        }
      },
      {
        "type": "node",
        "id": 8429904748,
        "lat": 26.8316258,
        "lon": 80.9215193,
        "tags": {
          "name": "Lucknow Junction",
          "name:de": "Lakhnau Junction Gleis 5",
          "name:ur": "\u0644\u06a9\u06be\u0646\u0624 \u062c\u0646\u06a9\u0634\u0646",
          "public_transport": "stop_position",
          "railway": "stop",
          "ref": "5",
          "train": "yes"
        }
      },
      {
        "type": "node",
        "id": 8429904749,
        "lat": 26.8317473,
        "lon": 80.9215122,
        "tags": {
          "name": "Lucknow Junction",
          "name:de": "Lakhnau Junction Gleis 4",
          "name:ur": "\u0644\u06a9\u06be\u0646\u0624 \u062c\u0646\u06a9\u0634\u0646",
          "public_transport": "stop_position",
          "railway": "stop",
          "ref": "4",
          "train": "yes"
        }
      },
      {
        "type": "node",
        "id": 8429904750,
        "lat": 26.831784,
        "lon": 80.9215138,
        "tags": {
          "name": "Lucknow Junction",
          "name:de": "Lakhnau Junction Gleis 3",
          "name:ur": "\u0644\u06a9\u06be\u0646\u0624 \u062c\u0646\u06a9\u0634\u0646",
          "public_transport": "stop_position",
          "railway": "stop",
          "ref": "3",
          "train": "yes"
        }
      },
      {
        "type": "node",
        "id": 8429904751,
        "lat": 26.8319396,
        "lon": 80.9215177,
        "tags": {
          "name": "Lucknow Junction",
          "name:de": "Lakhnau Junction Gleis 2",
          "name:ur": "\u0644\u06a9\u06be\u0646\u0624 \u062c\u0646\u06a9\u0634\u0646",
          "public_transport": "stop_position",
          "railway": "stop",
          "ref": "2",
          "train": "yes"
        }
      },
      {
        "type": "node",
        "id": 8429904752,
        "lat": 26.8320053,
        "lon": 80.9215123,
        "tags": {
          "name": "Lucknow Junction",
          "name:de": "Lakhnau Junction Gleis 1",
          "name:ur": "\u0644\u06a9\u06be\u0646\u0624 \u062c\u0646\u06a9\u0634\u0646",
          "public_transport": "stop_position",
          "railway": "stop",
          "ref": "1",
          "train": "yes"
        }
      }
    ]
  }
}