{
  "pois_1km": {
    "version": 0.6,
    "generator": "Overpass API 0.7.62.8 e802775f",
    "osm3s": {
      "timestamp_osm_base": "2025-09-07T13:34:15Z",
      "copyright": "The data included in this document is from www.openstreetmap.org. The data is made available under ODbL."
    },
    "elements": [
      {
        "type": "node",
        "id": 7027783622,
        "lat": 26.8784928,
        "lon": 75.7792993,
        "tags": {
          "addr:district": "Jaipur",
          "addr:full": "60 Feet Rd, C-Block,Mahesh Nagar",
          "addr:postcode": "302015",
          "addr:state": "Rajasthan",
          "amenity": "hospital",
          "name": "Health Hospital",
          "source": "OpenGovernmentData"
        }
      },
      {
        "type": "node",
        "id": 7030319499,
        "lat": 26.8744478,
        "lon": 75.7761308,
        "tags": {
          "amenity": "bank",
          "name": "ICICI Bank"
        }
      },
      {
        "type": "node",
        "id": 7039433534,
        "lat": 26.8811209,
        "lon": 75.7815757,
        "tags": {
          "addr:district": "Jaipur",
          "addr:full": "B-494, 80 Feet Road, Mahesh Nagar, Jaipur",
          "addr:postcode": "302005",
          "addr:state": "Rajasthan",
          "amenity": "hospital",
          "healthcare": "hospital",
          "name": "Atal Hospital and Reseach Center",
          "source": "OpenGovernmentData"
        }
      },
      {
        "type": "node",
        "id": 7040171028,
        "lat": 26.8794587,
        "lon": 75.7739865,
        "tags": {
          "addr:district": "Jaipur",
          "addr:full": "277, Shri Gopal Nagar, 80 Feet Road, Gopal Pura, Byepass Road",
          "addr:postcode": "302019",
          "addr:state": "Rajasthan",
          "amenity": "hospital",
          "name": "Somani Hospital",
          "source": "OpenGovernmentData"
        }
      },
      {
        "type": "node",
        "id": 7698135328,
        "lat": 26.8768087,
        "lon": 75.7764404,
        "tags": {
          "addr:district": "Jaipur",
          "addr:full": "Surya Nagar, Gopal Pura, Jaipur",
          "addr:postcode": "302015",
          "addr:state": "Rajasthan",
          "amenity": "clinic",
          "name": "Upasna Homoeo Clinic",
          "source": "Local Knowledge"
        }
      },
      {
        "type": "node",
        "id": 7698135380,
        "lat": 26.8758195,
        "lon": 75.7748874,
        "tags": {
          "addr:district": "Jaipur",
          "addr:full": "Mahesh Nagar",
          "addr:postcode": "302015",
          "addr:state": "Rajasthan",
          "amenity": "clinic",
          "name": "Dr. Mahesh Gupta Child Clinic",
          "source": "Local Knowledge"
        }
      },
      {
        "type": "node",
        "id": 7698409980,
        "lat": 26.8850429,
        "lon": 75.7851221,
        "tags": {
          "addr:district": "Jaipur",
          "addr:full": "Adarsh Krishna Nagar, Kartarpur",
          "addr:postcode": "302015",
          "addr:state": "Rajasthan",
          "amenity": "hospital",
          "name": "Metrocity Hospital",
          "source": "Local Knowledge"
        }
      },
      {
        "type": "node",
        "id": 7698409984,
        "lat": 26.8850899,
        "lon": 75.78478,
        "tags": {
          "addr:district": "Jaipur",
          "addr:full": "Adarsh Krishna Nagar, Bhagwati Nagar, Gopal Pura Mode",
          "addr:postcode": "302006",
          "addr:state": "Rajasthan",
          "amenity": "hospital",
          "name": "Kartarpura General Dental Hospital",
          "source": "Local Knowledge"
        }
      },
      {
        "type": "node",
        "id": 7698409987,
        "lat": 26.8842353,
        "lon": 75.7842014,
        "tags": {
          "addr:district": "Jaipur",
          "addr:full": "Kartarpur, Gopal Pura Mode",
          "addr:postcode": "302007",
          "addr:state": "Rajasthan",
          "amenity": "clinic",
          "name": "Vinayak Homoeopathic Clinic",
          "source": "Local Knowledge"
        }
      },
      {
        "type": "node",
        "id": 7698409998,
        "lat": 26.8850918,
        "lon": 75.7860461,
        "tags": {
          "addr:district": "Jaipur",
          "addr:full": "Adarsh Krishna Nagar, Bhagwati Nagar",
          "addr:postcode": "302006",
          "addr:state": "Rajasthan",
          "amenity": "clinic",
          "name": "Ankit Clinic",
          "source": "Local Knowledge"
        }
      },
      {
        "type": "node",
        "id": 8088655798,
        "lat": 26.8735628,
        "lon": 75.7761313,
        "tags": {
          "addr:street": "Gopalpura Bypass",
          "amenity": "fast_food",
          "cuisine": "juice",
          "name": "Gulnar Juice"
        }
      },
      {
        "type": "node",
        "id": 11691490689,
        "lat": 26.8851445,
        "lon": 75.7838085,
        "tags": {
          "leisure": "park"
        }
      },
      {
        "type": "node",
        "id": 11691562993,
        "lat": 26.8851533,
        "lon": 75.7847666,
        "tags": {
          "amenity": "hospital",
          "healthcare": "hospital"
        }
      },
      {
        "type": "node",
        "id": 11691564010,
        "lat": 26.8850236,
        "lon": 75.7847113,
        "tags": {
          "amenity": "pharmacy",
          "healthcare": "pharmacy"
        }
      },
      {
        "type": "node",
        "id": 11691566599,
        "lat": 26.88513,
        "lon": 75.7846474,
        "tags": {
          "amenity": "atm"
        }
      },
      {
        "type": "node",
        "id": 11691569246,
        "lat": 26.8813523,
        "lon": 75.7812358,
        "tags": {
          "leisure": "park",
          "name": "gate"
        }
      }
    ]
  },
  "pois_2_5km": {
    "version": 0.6,
    "generator": "Overpass API 0.7.62.8 e802775f",
    "osm3s": {
      "timestamp_osm_base": "2025-09-07T13:34:15Z",
      "copyright": "The data included in this document is from www.openstreetmap.org. The data is made available under ODbL."
    },
    "elements": [
      {
        "type": "node",
        "id": 1753726590,
        "lat": 26.8728017,
        "lon": 75.7992199,
        "tags": {
          "internet_access": "no",
          "name": "Gandhi Nagar Jaipur",
          "name:de": "Gandhinagar Jaipur",
          "network": "Indian Railways",
          "operator": "North Western Railway",
          "public_transport": "station",
          "railway": "station",
          "ref": "GADJ",
          "train": "yes",
          "wikidata": "Q5520716",
          "wikipedia": "en:Gandhinagar Jaipur railway station"
        }
      },
      {
        "type": "node",
        "id": 3083894235,
        "lat": 26.8798892,
        "lon": 75.758088,
        "tags": {
          "amenity": "fuel",
          "brand": "Indian Oil",
          "name": "Ganga Jamuna"
        }
      },
      {
        "type": "node",
        "id": 3083894236,
        "lat": 26.8797346,
        "lon": 75.7639391,
        "tags": {
          "amenity": "fuel",
          "brand": "HP"
        }
      },
      {
        "type": "node",
        "id": 3083894834,
        "lat": 26.8726037,
        "lon": 75.7971444,
        "tags": {
          "amenity": "fuel",
          "brand": "Indian Oil",
          "brand:wikidata": "Q1289348",
          "brand:wikipedia": "en:Indian Oil Corporation",
          "name": "Indian Oil"
        }
      },
      {
        "type": "node",
        "id": 3139920401,
        "lat": 26.9017699,
        "lon": 75.7746219,
        "tags": {
          "layer": "1",
          "name": "Ram Nagar",
          "name:hi": "\u0930\u093e\u092e \u0928\u0917\u0930",
          "network": "Jaipur Metro",
          "note": "Contributors are requested to not edit the \"network\" and the \"operator\" tags. (2023/11/08)",
          "operator": "Jaipur Metro Rail Corporation Limited",
          "public_transport": "stop_position",
          "public_transport:version": "2",
          "railway": "stop",
          "ref": "RMNR",
          "subway": "yes"
        }
      },
      {
        "type": "node",
        "id": 3139920402,
        "lat": 26.8964858,
        "lon": 75.7706033,
        "tags": {
          "name": "Shyam Nagar",
          "name:hi": "\u0936\u094d\u092f\u093e\u092e \u0928\u0917\u0930",
          "network": "Jaipur Metro",
          "note": "Contributors are requested to not edit the \"network\" and the \"operator\" tags. (2023/11/08)",
          "operator": "Jaipur Metro Rail Corporation Limited",
          "public_transport": "stop_position",
          "public_transport:version": "2",
          "railway": "stop",
          "ref": "SMNR",
          "subway": "yes"
        }
      },
      {
        "type": "node",
        "id": 3139920403,
        "lat": 26.8884622,
        "lon": 75.7683818,
        "tags": {
          "name": "Vivek Vihar",
          "name:hi": "\u0935\u093f\u0935\u0947\u0915 \u0935\u093f\u0939\u093e\u0930",
          "network": "Jaipur Metro",
          "note": "Contributors are requested to not edit the \"network\" and the \"operator\" tags. (2023/11/08)",
          "operator": "Jaipur Metro Rail Corporation Limited",
          "public_transport": "stop_position",
          "public_transport:version": "2",
          "railway": "stop",
          "ref": "VKVR",
          "subway": "yes"
        }
      },
      {
        "type": "node",
        "id": 3566139322,
        "lat": 26.8801786,
        "lon": 75.764461,
        "tags": {
          "name": "New Aatish Market",
          "name:hi": "\u0928\u092f\u093e \u0906\u0924\u093f\u0936 \u092e\u093e\u0930\u094d\u0915\u0947\u091f",
          "network": "Jaipur Metro",
          "note": "Contributors are requested to not edit the \"network\" and the \"operator\" tags. (2023/11/08)",
          "operator": "Jaipur Metro Rail Corporation Limited",
          "public_transport": "stop_position",
          "public_transport:version": "2",
          "railway": "stop",
          "ref": "NAMT",
          "subway": "yes"
        }
      },
      {
        "type": "node",
        "id": 4466634254,
        "lat": 26.901561,
        "lon": 75.7827,
        "tags": {
          "amenity": "fuel"
        }
      },
      {
        "type": "node",
        "id": 6968230712,
        "lat": 26.9004314,
        "lon": 75.7691078,
        "tags": {
          "amenity": "fuel",
          "brand": "Hindustan Petroleum",
          "brand:wikidata": "Q1619375",
          "name": "HP",
          "official_name": "Hindustan Petroleum"
        }
      },
      {
        "type": "node",
        "id": 6968230713,
        "lat": 26.901353,
        "lon": 75.7709911,
        "tags": {
          "amenity": "fuel",
          "brand": "Indian Oil",
          "brand:wikidata": "Q1289348",
          "name": "Indian Oil"
        }
      },
      {
        "type": "node",
        "id": 8042098373,
        "lat": 26.9017572,
        "lon": 75.7746732,
        "tags": {
          "layer": "1",
          "name": "Ram Nagar",
          "name:hi": "\u0930\u093e\u092e \u0928\u0917\u0930",
          "network": "Jaipur Metro",
          "note": "Contributors are requested to not edit the \"network\" and the \"operator\" tags. (2023/11/08)",
          "operator": "Jaipur Metro Rail Corporation Limited",
          "public_transport": "stop_position",
          "public_transport:version": "2",
          "railway": "stop",
          "ref": "RMNR",
          "subway": "yes"
        }
      },
      {
        "type": "node",
        "id": 8042107918,
        "lat": 26.880132,
        "lon": 75.7644774,
        "tags": {
          "name": "New Aatish Market",
          "name:hi": "\u0928\u092f\u093e \u0906\u0924\u093f\u0936 \u092e\u093e\u0930\u094d\u0915\u0947\u091f",
          "network": "Jaipur Metro",
          "note": "Contributors are requested to not edit the \"network\" and the \"operator\" tags. (2023/11/08)",
          "operator": "Jaipur Metro Rail Corporation Limited",
          "public_transport": "stop_position",
          "public_transport:version": "2",
          "railway": "stop",
          "ref": "NAMT",
          "subway": "yes"
        }
      },
      {
        "type": "node",
        "id": 8042595542,
        "lat": 26.8884508,
        "lon": 75.7684353,
        "tags": {
          "name": "Vivek Vihar",
          "name:hi": "\u0935\u093f\u0935\u0947\u0915 \u0935\u093f\u0939\u093e\u0930",
          "network": "Jaipur Metro",
          "note": "Contributors are requested to not edit the \"network\" and the \"operator\" tags. (2023/11/08)",
          "operator": "Jaipur Metro Rail Corporation Limited",
          "public_transport": "stop_position",
          "public_transport:version": "2",
          "railway": "stop",
          "ref": "VKVR",
          "subway": "yes"
        }
      },
      {
        "type": "node",
        "id": 8042602063,
        "lat": 26.8964694,
        "lon": 75.7706558,
        "tags": {
          "name": "Shyam Nagar",
          "name:hi": "\u0936\u094d\u092f\u093e\u092e \u0928\u0917\u0930",
          "network": "Jaipur Metro",
          "note": "Contributors are requested to not edit the \"network\" and the \"operator\" tags. (2023/11/08)",
          "operator": "Jaipur Metro Rail Corporation Limited",
          "public_transport": "stop_position",
          "public_transport:version": "2",
          "railway": "stop",
          "ref": "SMNR",
          "subway": "yes"
        }
      },
      {
        "type": "node",
        "id": 8149193787,
        "lat": 26.8964768,
        "lon": 75.7706279,
        "tags": {
          "name": "Shyam Nagar",
          "name:hi": "\u0936\u094d\u092f\u093e\u092e \u0928\u0917\u0930",
          "network": "Jaipur Metro",
          "note": "Contributors are requested to not edit the \"network\" and the \"operator\" tags. (2023/11/08)",
          "operator": "Jaipur Metro Rail Corporation Limited",
          "public_transport": "station",
          "public_transport:version": "2",
          "railway": "station",
          "ref": "SMNR",
          "shelter": "yes",
          "station": "subway",
          "subway": "yes",
          "wheelchair": "yes",
          "wikidata": "Q28180421",
          "wikipedia": "en:Shyam Nagar metro station"
        }
      },
      {
        "type": "node",
        "id": 8149193788,
        "lat": 26.8884539,
        "lon": 75.768407,
        "tags": {
          "name": "Vivek Vihar",
          "name:hi": "\u0935\u093f\u0935\u0947\u0915 \u0935\u093f\u0939\u093e\u0930",
          "network": "Jaipur Metro",
          "note": "Contributors are requested to not edit the \"network\" and the \"operator\" tags. (2023/11/08)",
          "operator": "Jaipur Metro Rail Corporation Limited",
          "public_transport": "station",
          "public_transport:version": "2",
          "railway": "station",
          "ref": "VKVR",
          "shelter": "yes",
          "station": "subway",
          "subway": "yes",
          "wheelchair": "yes",
          "wikidata": "Q28180413",
          "wikipedia": "en:Vivek Vihar metro station"
        }
      },
      {
        "type": "node",
        "id": 8149193789,
        "lat": 26.880154,
        "lon": 75.764466,
        "tags": {
          "name": "New Aatish Market",
          "name:hi": "\u0928\u092f\u093e \u0906\u0924\u093f\u0936 \u092e\u093e\u0930\u094d\u0915\u0947\u091f",
          "network": "Jaipur Metro",
          "note": "Contributors are requested to not edit the \"network\" and the \"operator\" tags. (2023/11/08)",
          "operator": "Jaipur Metro Rail Corporation Limited",
          "public_transport": "station",
          "public_transport:version": "2",
          "railway": "station",
          "ref": "NAMT",
          "shelter": "yes",
          "station": "subway",
          "subway": "yes",
          "wheelchair": "yes",
          "wikidata": "Q28180408",
          "wikipedia": "en:New Aatish Market metro station"
        }
      },
      {
        "type": "node",
        "id": 8457296102,
        "lat": 26.8734837,
        "lon": 75.7990968,
        "tags": {
          "name": "Gandhi Nagar Jaipur",
          "name:de": "Gandhinagar Jaipur Gleis 1",
          "operator": "Ministry of Railway",
          "public_transport": "stop_position",
          "railway": "stop",
          "ref": "1",
          "train": "yes"
        }
      },
      {
        "type": "node",
        "id": 8457296104,
        "lat": 26.872581,
        "lon": 75.7992029,
        "tags": {
          "name": "Gandhi Nagar Jaipur",
          "name:de": "Gandhinagar Jaipur Gleis 2",
          "public_transport": "stop_position",
          "railway": "stop",
          "ref": "2",
          "train": "yes"
        }
      },
      {
        "type": "node",
        "id": 11765686547,
        "lat": 26.9017025,
        "lon": 75.7825909,
        "tags": {
          "amenity": "fuel",
          "brand": "Indian Oil",
          "brand:wikidata": "Q1289348",
          "name": "Indian Oil"
        }
      },
      {
        "type": "node",
        "id": 11765964116,
        "lat": 26.8988076,
        "lon": 75.7935498,
        "tags": {
          "amenity": "fuel",
          "brand": "Indian Oil",
          "brand:wikidata": "Q1289348",
          "name": "Indian Oil"
        }
      }
    ]
  }
}