{
  "pois_1km": {
    "version": 0.6,
    "generator": "Overpass API 0.7.62.8 e802775f",
    "osm3s": {
      "timestamp_osm_base": "2025-09-07T13:26:00Z",
      "copyright": "The data included in this document is from www.openstreetmap.org. The data is made available under ODbL."
    },
    "elements": [
      {
        "type": "node",
        "id": 4585639090,
        "lat": 26.8733395,
        "lon": 75.7494024,
        "tags": {
          "amenity": "atm"
        }
      },
      {
        "type": "node",
        "id": 7037696459,
        "lat": 26.8823278,
        "lon": 75.7471061,
        "tags": {
          "addr:district": "Jaipur",
          "addr:full": "52,Udai Nagar - A, Near Kissan Dharamkanta,Gopalpura Byepass",
          "addr:postcode": "302019",
          "addr:state": "Rajasthan",
          "amenity": "hospital",
          "name": "Kshitij Hospital and Medical Research Centre",
          "source": "OpenGovernmentData"
        }
      },
      {
        "type": "node",
        "id": 7698135286,
        "lat": 26.8859533,
        "lon": 75.7437192,
        "tags": {
          "addr:district": "Jaipur",
          "addr:full": "Janpath",
          "addr:postcode": "302019",
          "addr:state": "Rajasthan",
          "amenity": "clinic",
          "name": "Agrawal Clinic",
          "source": "Local Knowledge"
        }
      },
      {
        "type": "node",
        "id": 7698135288,
        "lat": 26.8773898,
        "lon": 75.7501535,
        "tags": {
          "addr:district": "Jaipur",
          "addr:full": "Bhrigu Path, Sector 21, Mansarovar",
          "addr:postcode": "302020",
          "addr:state": "Rajasthan",
          "amenity": "hospital",
          "name": "Utkarsh Hospital",
          "source": "Local Knowledge"
        }
      },
      {
        "type": "node",
        "id": 7698135302,
        "lat": 26.8804078,
        "lon": 75.7453399,
        "tags": {
          "addr:district": "Jaipur",
          "addr:full": "Nirman Nagar, Brijlalpura, Jaipur",
          "addr:postcode": "302019",
          "addr:state": "Rajasthan",
          "amenity": "hospital",
          "name": "Kshitij Hospital",
          "source": "Local Knowledge"
        }
      },
      {
        "type": "node",
        "id": 7698135307,
        "lat": 26.8855662,
        "lon": 75.7451024,
        "tags": {
          "addr:district": "Jaipur",
          "addr:full": "Rani Sati Nagar, Brijlalpura, Jaipur",
          "addr:postcode": "302019",
          "addr:state": "Rajasthan",
          "amenity": "hospital",
          "name": "Jain Fertility & Mother Care",
          "source": "Local Knowledge"
        }
      },
      {
        "type": "node",
        "id": 7698135316,
        "lat": 26.8744533,
        "lon": 75.7464214,
        "tags": {
          "addr:district": "Jaipur",
          "addr:full": "Manyawas Road, Mansarovar",
          "addr:postcode": "302020",
          "addr:state": "Rajasthan",
          "amenity": "clinic",
          "name": "Dr. Pawan Saini's Physiotherapy Clinic",
          "source": "Local Knowledge"
        }
      },
      {
        "type": "node",
        "id": 7698135319,
        "lat": 26.8780554,
        "lon": 75.7414518,
        "tags": {
          "addr:district": "Jaipur",
          "addr:full": "Kumbha Marg, Sanganer, Pratap Nagar",
          "addr:postcode": "302033",
          "addr:state": "Rajasthan",
          "amenity": "hospital",
          "name": "Shubhayush Hospital",
          "source": "Local Knowledge"
        }
      },
      {
        "type": "node",
        "id": 7698135321,
        "lat": 26.88477,
        "lon": 75.7523577,
        "tags": {
          "addr:district": "Jaipur",
          "addr:full": "Shiv Shakti Nagar, Brijlalpura",
          "addr:postcode": "302019",
          "addr:state": "Rajasthan",
          "amenity": "hospital",
          "name": "R N Multispeciality Hospital",
          "source": "Local Knowledge"
        }
      },
      {
        "type": "node",
        "id": 7698135327,
        "lat": 26.8779972,
        "lon": 75.7414491,
        "tags": {
          "addr:district": "Jaipur",
          "addr:full": "Near Mansarovar Metro Station",
          "addr:postcode": "302020",
          "addr:state": "Rajasthan",
          "amenity": "clinic",
          "name": "Anurag Ayurveda Clinic",
          "source": "Local Knowledge"
        }
      },
      {
        "type": "node",
        "id": 7698135331,
        "lat": 26.8794861,
        "lon": 75.7404167,
        "tags": {
          "addr:district": "Jaipur",
          "addr:full": "Manyawas, Mohru Nagar, Jaipur",
          "addr:postcode": "303604",
          "addr:state": "Rajasthan",
          "amenity": "clinic",
          "name": "Namo Clinic",
          "source": "Local Knowledge"
        }
      },
      {
        "type": "node",
        "id": 7698135361,
        "lat": 26.881491,
        "lon": 75.752095,
        "tags": {
          "addr:district": "Jaipur",
          "addr:full": "Shiv Shakti Nagar, Brijlalpura, Jaipur",
          "addr:postcode": "302019",
          "addr:state": "Rajasthan",
          "amenity": "doctors",
          "name": "Dr BS Sharma",
          "source": "Local Knowledge"
        }
      },
      {
        "type": "node",
        "id": 7698135385,
        "lat": 26.871132,
        "lon": 75.744141,
        "tags": {
          "addr:district": "Jaipur",
          "addr:full": "80 Feet Road, Mohan Nagar",
          "addr:postcode": "302020",
          "addr:state": "Rajasthan",
          "amenity": "clinic",
          "name": "PBM Multispeciality Clinic",
          "source": "Local Knowledge"
        }
      },
      {
        "type": "node",
        "id": 10903150996,
        "lat": 26.8856505,
        "lon": 75.7496964,
        "tags": {
          "amenity": "bank",
          "name": "ICICI Bank"
        }
      }
    ]
  },
  "pois_2_5km": {
    "version": 0.6,
    "generator": "Overpass API 0.7.62.8 e802775f",
    "osm3s": {
      "timestamp_osm_base": "2025-09-07T13:26:00Z",
      "copyright": "The data included in this document is from www.openstreetmap.org. The data is made available under ODbL."
    },
    "elements": [
      {
        "type": "node",
        "id": 1064270794,
        "lat": 26.8794602,
        "lon": 75.7502129,
        "tags": {
          "name": "Manasarovar",
          "name:hi": "\u092e\u093e\u0928\u0938\u0930\u094b\u0935\u0930",
          "network": "Jaipur Metro",
          "note": "Contributors are requested to not edit the \"network\" and the \"operator\" tags. (2023/11/08)",
          "operator": "Jaipur Metro Rail Corporation Limited",
          "public_transport": "stop_position",
          "public_transport:version": "2",
          "railway": "stop",
          "ref": "MSOR",
          "subway": "yes"
        }
      },
      {
        "type": "node",
        "id": 3083894234,
        "lat": 26.8599941,
        "lon": 75.7560724,
        "tags": {
          "amenity": "fuel",
          "brand": "Hindustan Petroleum",
          "brand:wikidata": "Q1619375",
          "name": "HP",
          "official_name": "Hindustan Petroleum"
        }
      },
      {
        "type": "node",
        "id": 3083894235,
        "lat": 26.8798892,
        "lon": 75.758088,
        "tags": {
          "amenity": "fuel",
          "brand": "Indian Oil",
          "name": "Ganga Jamuna"
        }
      },
      {
        "type": "node",
        "id": 3083894236,
        "lat": 26.8797346,
        "lon": 75.7639391,
        "tags": {
          "amenity": "fuel",
          "brand": "HP"
        }
      },
      {
        "type": "node",
        "id": 3566139322,
        "lat": 26.8801786,
        "lon": 75.764461,
        "tags": {
          "name": "New Aatish Market",
          "name:hi": "\u0928\u092f\u093e \u0906\u0924\u093f\u0936 \u092e\u093e\u0930\u094d\u0915\u0947\u091f",
          "network": "Jaipur Metro",
          "note": "Contributors are requested to not edit the \"network\" and the \"operator\" tags. (2023/11/08)",
          "operator": "Jaipur Metro Rail Corporation Limited",
          "public_transport": "stop_position",
          "public_transport:version": "2",
          "railway": "stop",
          "ref": "NAMT",
          "subway": "yes"
        }
      },
      {
        "type": "node",
        "id": 6938645049,
        "lat": 26.8954164,
        "lon": 75.7486286,
        "tags": {
          "addr:city": "Jaipur",
          "addr:postcode": "302021",
          "addr:street": "Ajmer Road",
          "air_conditioning": "yes",
          "amenity": "cinema",
          "name": "Inox Movies Cinema",
          "payment:cards": "yes",
          "payment:cash": "yes",
          "payment:online_booking": "yes",
          "screen": "2"
        }
      },
      {
        "type": "node",
        "id": 6968230711,
        "lat": 26.897245,
        "lon": 75.7532693,
        "tags": {
          "amenity": "fuel",
          "brand": "Hindustan Petroleum",
          "brand:wikidata": "Q1619375",
          "name": "HP",
          "official_name": "Hindustan Petroleum"
        }
      },
      {
        "type": "node",
        "id": 8042107918,
        "lat": 26.880132,
        "lon": 75.7644774,
        "tags": {
          "name": "New Aatish Market",
          "name:hi": "\u0928\u092f\u093e \u0906\u0924\u093f\u0936 \u092e\u093e\u0930\u094d\u0915\u0947\u091f",
          "network": "Jaipur Metro",
          "note": "Contributors are requested to not edit the \"network\" and the \"operator\" tags. (2023/11/08)",
          "operator": "Jaipur Metro Rail Corporation Limited",
          "public_transport": "stop_position",
          "public_transport:version": "2",
          "railway": "stop",
          "ref": "NAMT",
          "subway": "yes"
        }
      },
      {
        "type": "node",
        "id": 8042602051,
        "lat": 26.8794171,
        "lon": 75.7502156,
        "tags": {
          "name": "Manasarovar",
          "name:hi": "\u092e\u093e\u0928\u0938\u0930\u094b\u0935\u0930",
          "network": "Jaipur Metro",
          "note": "Contributors are requested to not edit the \"network\" and the \"operator\" tags. (2023/11/08)",
          "operator": "Jaipur Metro Rail Corporation Limited",
          "public_transport": "stop_position",
          "public_transport:version": "2",
          "railway": "stop",
          "ref": "MSOR",
          "subway": "yes"
        }
      },
      {
        "type": "node",
        "id": 8140108469,
        "lat": 26.8794402,
        "lon": 75.7502389,
        "tags": {
          "name": "Manasarovar",
          "name:hi": "\u092e\u093e\u0928\u0938\u0930\u094b\u0935\u0930",
          "network": "Jaipur Metro",
          "note": "Contributors are requested to not edit the \"network\" and the \"operator\" tags. (2023/11/08)",
          "operator": "Jaipur Metro Rail Corporation Limited",
          "public_transport": "station",
          "public_transport:version": "2",
          "railway": "station",
          "ref": "MSOR",
          "shelter": "yes",
          "station": "subway",
          "subway": "yes",
          "wheelchair": "yes",
          "wikidata": "Q28180399",
          "wikipedia": "en:Mansarovar metro station"
        }
      },
      {
        "type": "node",
        "id": 8149193789,
        "lat": 26.880154,
        "lon": 75.764466,
        "tags": {
          "name": "New Aatish Market",
          "name:hi": "\u0928\u092f\u093e \u0906\u0924\u093f\u0936 \u092e\u093e\u0930\u094d\u0915\u0947\u091f",
          "network": "Jaipur Metro",
          "note": "Contributors are requested to not edit the \"network\" and the \"operator\" tags. (2023/11/08)",
          "operator": "Jaipur Metro Rail Corporation Limited",
          "public_transport": "station",
          "public_transport:version": "2",
          "railway": "station",
          "ref": "NAMT",
          "shelter": "yes",
          "station": "subway",
          "subway": "yes",
          "wheelchair": "yes",
          "wikidata": "Q28180408",
          "wikipedia": "en:New Aatish Market metro station"
        }
      }
    ]
  }
}