{
  "pois_1km": {
    "version": 0.6,
    "generator": "Overpass API 0.7.62.8 e802775f",
    "osm3s": {
      "timestamp_osm_base": "2025-09-07T13:20:50Z",
      "copyright": "The data included in this document is from www.openstreetmap.org. The data is made available under ODbL."
    },
    "elements": [
      {
        "type": "node",
        "id": 4226415489,
        "lat": 26.8547506,
        "lon": 75.8252712,
        "tags": {
          "addr:district": "Jaipur",
          "addr:full": "Sp-6, Malviya Industrial Area, Malviya Nagar, Apex Circle",
          "addr:postcode": "302017",
          "addr:state": "Rajasthan",
          "amenity": "hospital",
          "name": "Apex Hospitals Pvt Ltd",
          "source": "OpenGovernmentData",
          "website": "https://www.apexhospitals.com/"
        }
      },
      {
        "type": "node",
        "id": 6978739444,
        "lat": 26.8546188,
        "lon": 75.8246264,
        "tags": {
          "amenity": "atm",
          "operator": "Bank Of India"
        }
      },
      {
        "type": "node",
        "id": 7030626395,
        "lat": 26.8559437,
        "lon": 75.8222223,
        "tags": {
          "addr:district": "Jaipur",
          "addr:full": "Malviya Nagar",
          "addr:postcode": "302017",
          "addr:state": "Rajasthan",
          "amenity": "hospital",
          "name": "Jaipur Calgary Eye Hospital"
        }
      },
      {
        "type": "node",
        "id": 7040013480,
        "lat": 26.8546041,
        "lon": 75.8248325,
        "tags": {
          "addr:district": "Jaipur",
          "addr:full": "Sp-3 Central Road, Malviya Industrial Area, Near Calgary Eye Hospital Malviya Nagar",
          "addr:postcode": "302017",
          "addr:state": "Rajasthan",
          "amenity": "hospital",
          "name": "Agrawal Hospital",
          "source": "OpenGovernmentData"
        }
      },
      {
        "type": "node",
        "id": 7066248860,
        "lat": 26.8515986,
        "lon": 75.8250266,
        "tags": {
          "amenity": "atm",
          "name": "Icici atm"
        }
      },
      {
        "type": "node",
        "id": 7695122996,
        "lat": 26.8569793,
        "lon": 75.8195345,
        "tags": {
          "addr:district": "Jaipur",
          "addr:full": "Calgiri Marg, Jhalana Gram, Malviya Nagar, Jaipur",
          "addr:postcode": "302017",
          "addr:state": "Rajasthan",
          "amenity": "clinic",
          "name": "Raj Poly Clinic",
          "source": "Local Knowledge"
        }
      },
      {
        "type": "node",
        "id": 7695123016,
        "lat": 26.857452,
        "lon": 75.820414,
        "tags": {
          "addr:district": "Jaipur",
          "addr:full": "Malviya Nagar, Jaipur",
          "addr:postcode": "302017",
          "addr:state": "Rajasthan",
          "amenity": "clinic",
          "name": "Alka Clinic Lab",
          "source": "Local Knowledge"
        }
      },
      {
        "type": "node",
        "id": 7695123038,
        "lat": 26.8564305,
        "lon": 75.8191605,
        "tags": {
          "addr:district": "Jaipur",
          "addr:full": "Jhalana Gram, Malviya Nagar, Jaipur",
          "addr:postcode": "302017",
          "addr:state": "Rajasthan",
          "amenity": "clinic",
          "name": "Shailaja Clinic",
          "source": "Local Knowledge"
        }
      },
      {
        "type": "node",
        "id": 7695123039,
        "lat": 26.855061,
        "lon": 75.822584,
        "tags": {
          "addr:district": "Jaipur",
          "addr:full": "Malviya Nagar, Jaipur",
          "addr:postcode": "302017",
          "addr:state": "Rajasthan",
          "amenity": "hospital",
          "name": "Baheti Hospital",
          "source": "Local Knowledge"
        }
      },
      {
        "type": "node",
        "id": 10904677033,
        "lat": 26.8495456,
        "lon": 75.826321,
        "tags": {
          "addr:city": "jaipur",
          "addr:street": "balaji circle",
          "brand": "DMart",
          "brand:wikidata": "Q5203271",
          "name": "DMart",
          "shop": "supermarket"
        }
      },
      {
        "type": "node",
        "id": 13120379386,
        "lat": 26.8588867,
        "lon": 75.8154322,
        "tags": {
          "addr:city": "Jaipur",
          "addr:district": "Jaipur",
          "addr:housenumber": "amma ki thadi mnit jaipur",
          "addr:postcode": "302017",
          "addr:street": "mnit back gate road",
          "amenity": "fast_food",
          "cuisine": "paranthe;maggi;chai;coffee;packaged_food;omellete;egg_fry;half_fry;egg_bhurji",
          "diet:local": "yes",
          "drive_through": "no",
          "name": "thadi",
          "opening_hours": "Mo-Su 12:00-04:00",
          "operator": "prakash chand"
        }
      }
    ]
  },
  "pois_2_5km": {
    "version": 0.6,
    "generator": "Overpass API 0.7.62.8 e802775f",
    "osm3s": {
      "timestamp_osm_base": "2025-09-07T13:20:50Z",
      "copyright": "The data included in this document is from www.openstreetmap.org. The data is made available under ODbL."
    },
    "elements": [
      {
        "type": "node",
        "id": 316673866,
        "lat": 26.837001,
        "lon": 75.8320226,
        "tags": {
          "addr:postcode": "302017",
          "internet_access": "no",
          "name": "Getor Jagatpura",
          "name:de": "Gator Jaradpura",
          "network": "IR",
          "operator": "NWR",
          "public_transport": "station",
          "railway": "station",
          "ref": "GTJT",
          "train": "yes",
          "wikidata": "Q24949506",
          "wikipedia": "en:Getor Jagatpura railway station"
        }
      },
      {
        "type": "node",
        "id": 3083894733,
        "lat": 26.8470878,
        "lon": 75.8084963,
        "tags": {
          "addr:city": "Jaipur",
          "addr:country": "IN",
          "addr:state": "Rajasthan",
          "amenity": "fuel",
          "brand": "Hindustan Petroleum",
          "brand:wikidata": "Q1619375",
          "brand:wikipedia": "en:Hindustan Petroleum",
          "name": "Shaheed Amit Bharadwaj Petrol Pump",
          "official_name": "Hindustan Petroleum"
        }
      },
      {
        "type": "node",
        "id": 4226406191,
        "lat": 26.8503126,
        "lon": 75.8256551,
        "tags": {
          "addr:postcode": "302018",
          "amenity": "fuel",
          "name": "Reliance Petrol Pump",
          "self_service": "no"
        }
      },
      {
        "type": "node",
        "id": 4226410891,
        "lat": 26.8726988,
        "lon": 75.8209348,
        "tags": {
          "amenity": "fuel",
          "name": "Shaheed Basti Ram Petrol Pump"
        }
      },
      {
        "type": "node",
        "id": 4226413890,
        "lat": 26.8595478,
        "lon": 75.8088895,
        "tags": {
          "amenity": "fuel",
          "brand": "Bharat Petroleum",
          "brand:wikidata": "Q854826",
          "brand:wikipedia": "en:Bharat Petroleum",
          "name": "Bharat Petroleum"
        }
      },
      {
        "type": "node",
        "id": 4226415289,
        "lat": 26.8528358,
        "lon": 75.8243583,
        "tags": {
          "amenity": "fuel",
          "brand": "Indian Oil",
          "brand:wikidata": "Q1289348",
          "brand:wikipedia": "en:Indian Oil Corporation",
          "name": "Indian Oil Petrol Pump"
        }
      },
      {
        "type": "node",
        "id": 6979547432,
        "lat": 26.8408583,
        "lon": 75.8072035,
        "tags": {
          "amenity": "fuel",
          "brand": "Indian Oil",
          "brand:wikidata": "Q1289348",
          "name": "Indian Oil"
        }
      },
      {
        "type": "node",
        "id": 8457296098,
        "lat": 26.8369742,
        "lon": 75.8315703,
        "tags": {
          "name": "Getor Jagatpura",
          "name:de": "Gator Jaradpura Gleis 1",
          "public_transport": "stop_position",
          "railway": "stop",
          "ref": "1",
          "train": "yes"
        }
      },
      {
        "type": "node",
        "id": 8457296099,
        "lat": 26.837024,
        "lon": 75.8315808,
        "tags": {
          "name": "Getor Jagatpura",
          "name:de": "Gator Jaradpura Gleis 2",
          "public_transport": "stop_position",
          "railway": "stop",
          "ref": "2",
          "train": "yes"
        }
      },
      {
        "type": "node",
        "id": 9526153814,
        "lat": 26.8375343,
        "lon": 75.8337205,
        "tags": {
          "amenity": "cinema",
          "brand": "INOX Leisure",
          "brand:wikidata": "Q5972349",
          "brand:wikipedia": "en:INOX Leisure Limited",
          "name": "INOX Leisure",
          "short_name": "INOX"
        }
      },
      {
        "type": "node",
        "id": 10904677039,
        "lat": 26.8375559,
        "lon": 75.8337198,
        "tags": {
          "amenity": "cinema",
          "brand": "INOX Leisure",
          "brand:wikidata": "Q5972349",
          "name": "INOX Leisure",
          "short_name": "INOX"
        }
      }
    ]
  }
}