{
  "pois_1km": {
    "version": 0.6,
    "generator": "Overpass API 0.7.62.8 e802775f",
    "osm3s": {
      "timestamp_osm_base": "2025-09-07T13:37:15Z",
      "copyright": "The data included in this document is from www.openstreetmap.org. The data is made available under ODbL."
    },
    "elements": [
      {
        "type": "node",
        "id": 4226415589,
        "lat": 26.8228017,
        "lon": 75.8482272,
        "tags": {
          "addr:postcode": "302017",
          "amenity": "hospital",
          "name": "Krishna Ram Charitable Hospital"
        }
      },
      {
        "type": "node",
        "id": 7695123040,
        "lat": 26.8248986,
        "lon": 75.8474328,
        "tags": {
          "addr:district": "Jaipur",
          "addr:full": "Jagatpura",
          "addr:postcode": "302017",
          "addr:state": "Rajasthan",
          "amenity": "hospital",
          "name": "Jaipur Eye and Dental Hospital",
          "source": "Local Knowledge"
        }
      },
      {
        "type": "node",
        "id": 7695123053,
        "lat": 26.8247648,
        "lon": 75.8473899,
        "tags": {
          "addr:district": "Jaipur",
          "addr:full": "Rohini Nagar, Vidhyadhar Nagar, Keshar Vihar, Jagatpura",
          "addr:postcode": "302017",
          "addr:state": "Rajasthan",
          "amenity": "clinic",
          "name": "Maheshwari Child Clinic",
          "source": "Local Knowledge"
        }
      },
      {
        "type": "node",
        "id": 8882615136,
        "lat": 26.8243157,
        "lon": 75.8475471,
        "tags": {
          "addr:postcode": "302017",
          "addr:street": "Mahal Road",
          "amenity": "bank",
          "name": "HDFC Bank"
        }
      },
      {
        "type": "node",
        "id": 10904677017,
        "lat": 26.8287677,
        "lon": 75.8484394,
        "tags": {
          "addr:city": "jaipur",
          "addr:street": "income tax colony 1st ,jagatpura",
          "leisure": "park",
          "name": "Rupal park"
        }
      },
      {
        "type": "node",
        "id": 10904677035,
        "lat": 26.8277721,
        "lon": 75.8477985,
        "tags": {
          "addr:city": "jaipur",
          "addr:street": "Ram Nagariya Road",
          "amenity": "fast_food",
          "cuisine": "regional;burger;coffee_shop;pizza;sandwich;indian",
          "diet:vegetarian": "yes",
          "name": "Dream Cafe"
        }
      },
      {
        "type": "node",
        "id": 10904677037,
        "lat": 26.8265338,
        "lon": 75.8492276,
        "tags": {
          "amenity": "restaurant",
          "cuisine": "indian;punjabi",
          "diet:vegetarian": "yes",
          "name": "Punjab Rasoi Restaurant"
        }
      },
      {
        "type": "node",
        "id": 10904677048,
        "lat": 26.8302623,
        "lon": 75.8495723,
        "tags": {
          "addr:street": "C-96A, Road No 7, CBI Fatak Road, Chandragupta Nagar, Jagatpura, Jaipur, Rajasthan 302017",
          "amenity": "cafe",
          "cuisine": "coffee_shop",
          "name": "Chai Aashram"
        }
      },
      {
        "type": "node",
        "id": 10904677049,
        "lat": 26.8266309,
        "lon": 75.8496289,
        "tags": {
          "addr:street": "C-27,Kusum Vihar, Ram Nagariya Rd, Railway Colony, Jagatpura, Jaipur, Rajasthan 302017",
          "amenity": "clinic",
          "healthcare": "clinic",
          "name": "Panwar Medical & Provision Store"
        }
      }
    ]
  },
  "pois_2_5km": {
    "version": 0.6,
    "generator": "Overpass API 0.7.62.8 e802775f",
    "osm3s": {
      "timestamp_osm_base": "2025-09-07T13:37:15Z",
      "copyright": "The data included in this document is from www.openstreetmap.org. The data is made available under ODbL."
    },
    "elements": [
      {
        "type": "node",
        "id": 8883763422,
        "lat": 26.8032504,
        "lon": 75.8598257,
        "tags": {
          "amenity": "fuel",
          "name": "Bharat Petrol Pump"
        }
      },
      {
        "type": "node",
        "id": 9526153814,
        "lat": 26.8375343,
        "lon": 75.8337205,
        "tags": {
          "amenity": "cinema",
          "brand": "INOX Leisure",
          "brand:wikidata": "Q5972349",
          "brand:wikipedia": "en:INOX Leisure Limited",
          "name": "INOX Leisure",
          "short_name": "INOX"
        }
      },
      {
        "type": "node",
        "id": 10904677039,
        "lat": 26.8375559,
        "lon": 75.8337198,
        "tags": {
          "amenity": "cinema",
          "brand": "INOX Leisure",
          "brand:wikidata": "Q5972349",
          "name": "INOX Leisure",
          "short_name": "INOX"
        }
      },
      {
        "type": "node",
        "id": 11773201162,
        "lat": 26.8173467,
        "lon": 75.8632763,
        "tags": {
          "amenity": "fuel",
          "brand": "Bharat Petroleum",
          "brand:wikidata": "Q854826",
          "name": "Bharat Petroleum"
        }
      },
      {
        "type": "node",
        "id": 11919671025,
        "lat": 26.8359784,
        "lon": 75.8534224,
        "tags": {
          "amenity": "fuel",
          "brand": "Hindustan Petroleum",
          "brand:wikidata": "Q1619375",
          "name": "HP",
          "official_name": "Hindustan Petroleum"
        }
      }
    ]
  }
}