{
  "pois_1km": {
    "version": 0.6,
    "generator": "Overpass API 0.7.62.8 e802775f",
    "osm3s": {
      "timestamp_osm_base": "2025-09-07T13:41:30Z",
      "copyright": "The data included in this document is from www.openstreetmap.org. The data is made available under ODbL."
    },
    "elements": [
      {
        "type": "node",
        "id": 4226406593,
        "lat": 26.8219982,
        "lon": 75.8109285,
        "tags": {
          "amenity": "restaurant",
          "name": "Cheel Gadi, Sanganer"
        }
      },
      {
        "type": "node",
        "id": 5419597998,
        "lat": 26.8279302,
        "lon": 75.8062494,
        "tags": {
          "amenity": "restaurant",
          "description": "First Floor",
          "level": "1",
          "name": "CIP Lounge Airport Jaipur"
        }
      },
      {
        "type": "node",
        "id": 5419597999,
        "lat": 26.8277778,
        "lon": 75.8061437,
        "tags": {
          "amenity": "cafe",
          "name": "Airr Toast"
        }
      },
      {
        "type": "node",
        "id": 7695123006,
        "lat": 26.8177776,
        "lon": 75.8137989,
        "tags": {
          "addr:district": "Jaipur",
          "addr:full": "Budhsinghpura, Pratap Nagar, Jaipur",
          "addr:postcode": "302029",
          "addr:state": "Rajasthan",
          "amenity": "clinic",
          "name": "Jaipur Health Clinic",
          "source": "Local Knowledge"
        }
      },
      {
        "type": "node",
        "id": 7695123010,
        "lat": 26.8132752,
        "lon": 75.8117827,
        "tags": {
          "addr:district": "Jaipur",
          "addr:full": "Sheopur Road, Sanganer, Jaipur",
          "addr:postcode": "302033",
          "addr:state": "Rajasthan",
          "amenity": "clinic",
          "name": "Gitanjli Clinic",
          "source": "Local Knowledge"
        }
      },
      {
        "type": "node",
        "id": 7695123047,
        "lat": 26.8209574,
        "lon": 75.8046149,
        "tags": {
          "addr:district": "Jaipur",
          "addr:full": "Janakpuri, Maruti Nagar",
          "addr:postcode": "302029",
          "addr:state": "Rajasthan",
          "amenity": "clinic",
          "name": "Garg Clinic",
          "source": "Local Knowledge"
        }
      }
    ]
  },
  "pois_2_5km": {
    "version": 0.6,
    "generator": "Overpass API 0.7.62.8 e802775f",
    "osm3s": {
      "timestamp_osm_base": "2025-09-07T13:41:30Z",
      "copyright": "The data included in this document is from www.openstreetmap.org. The data is made available under ODbL."
    },
    "elements": [
      {
        "type": "node",
        "id": 1064270892,
        "lat": 26.8355542,
        "lon": 75.7936432,
        "tags": {
          "construction": "station",
          "disused": "yes",
          "name": "Durgapura Metro (u/c)",
          "network": "Jaipur Metro",
          "operator": "NWR",
          "railway": "station",
          "station": "subway"
        }
      },
      {
        "type": "node",
        "id": 6979547432,
        "lat": 26.8408583,
        "lon": 75.8072035,
        "tags": {
          "amenity": "fuel",
          "brand": "Indian Oil",
          "brand:wikidata": "Q1289348",
          "name": "Indian Oil"
        }
      },
      {
        "type": "node",
        "id": 11762982185,
        "lat": 26.8359403,
        "lon": 75.793404,
        "tags": {
          "amenity": "fuel",
          "brand": "Hindustan Petroleum",
          "brand:wikidata": "Q1619375",
          "name": "HP",
          "official_name": "Hindustan Petroleum"
        }
      }
    ]
  }
}