{
  "pois_1km": {
    "version": 0.6,
    "generator": "Overpass API 0.7.62.8 e802775f",
    "osm3s": {
      "timestamp_osm_base": "2025-09-07T13:25:00Z",
      "copyright": "The data included in this document is from www.openstreetmap.org. The data is made available under ODbL."
    },
    "elements": [
      {
        "type": "node",
        "id": 4466634118,
        "lat": 26.8951673,
        "lon": 75.8149318,
        "tags": {
          "amenity": "hospital",
          "healthcare": "hospital",
          "name": "soni hospital"
        }
      },
      {
        "type": "node",
        "id": 4706796989,
        "lat": 26.8978763,
        "lon": 75.8147386,
        "tags": {
          "amenity": "restaurant",
          "name:en": "Bar palladio"
        }
      },
      {
        "type": "node",
        "id": 4793756921,
        "lat": 26.9063113,
        "lon": 75.8150111,
        "tags": {
          "amenity": "hospital",
          "healthcare": "hospital"
        }
      },
      {
        "type": "node",
        "id": 4793756922,
        "lat": 26.9060159,
        "lon": 75.8161049,
        "tags": {
          "addr:district": "Jaipur",
          "addr:full": "Jawahar Lal Nehru Marg,Jaipur",
          "addr:postcode": "302004",
          "addr:state": "Rajasthan",
          "amenity": "hospital",
          "contact:nodal_officer_email": "drbhartimalhotra@gmail.com",
          "contact:nodal_officer_mobile": "9414042040",
          "contact:phone": "+91-0141 256 0291",
          "emergency": "yes",
          "healthcare": "hospital",
          "name": "Sawai Man Singh Hospital, Jaipur",
          "name:en": "SMS Hospital",
          "name:etymology:wikidata": "Q3634394",
          "source": "OpenGovernmentData"
        }
      },
      {
        "type": "node",
        "id": 4798048721,
        "lat": 26.90734,
        "lon": 75.8146282,
        "tags": {
          "amenity": "hospital",
          "healthcare": "hospital",
          "healthcare:speciality": "emergency",
          "name": "SMS Trauma Center"
        }
      },
      {
        "type": "node",
        "id": 5249142721,
        "lat": 26.8951343,
        "lon": 75.8290109,
        "tags": {
          "amenity": "restaurant",
          "name:en": "Nand\u2019s and Chawla\u2019s"
        }
      },
      {
        "type": "node",
        "id": 7024889676,
        "lat": 26.9068181,
        "lon": 75.8245965,
        "tags": {
          "addr:district": "Jaipur",
          "addr:full": "C-17, Deepak Marg, Adarsh Nagar",
          "addr:postcode": "302004",
          "addr:state": "Rajasthan",
          "amenity": "hospital",
          "healthcare": "hospital",
          "name": "Sharma Hospital, Jaipur",
          "source": "OpenGovernmentData"
        }
      },
      {
        "type": "node",
        "id": 7025038083,
        "lat": 26.8953299,
        "lon": 75.8208033,
        "tags": {
          "addr:district": "Jaipur",
          "addr:full": "B-2, Dhruv Marg, Tilak Nagar",
          "addr:postcode": "302004",
          "addr:state": "Rajasthan",
          "amenity": "hospital",
          "healthcare": "hospital",
          "name": "K.M.S.Hospital",
          "source": "OpenGovernmentData"
        }
      },
      {
        "type": "node",
        "id": 7025196557,
        "lat": 26.9075955,
        "lon": 75.8238333,
        "tags": {
          "addr:district": "Jaipur",
          "addr:full": "C 13, Deepak Marg, Moti Dungri Road",
          "addr:postcode": "302004",
          "addr:state": "Rajasthan",
          "amenity": "hospital",
          "healthcare": "hospital",
          "name": "Anil Hospital",
          "source": "OpenGovernmentData"
        }
      },
      {
        "type": "node",
        "id": 7027685279,
        "lat": 26.9014055,
        "lon": 75.8177174,
        "tags": {
          "addr:district": "Jaipur",
          "addr:full": "Adarsh Nagar",
          "addr:postcode": "302004",
          "addr:state": "Rajasthan",
          "amenity": "hospital",
          "healthcare": "hospital",
          "name": "J. K. Loan Hospital",
          "source": "OpenGovernmentData"
        }
      },
      {
        "type": "node",
        "id": 7027743300,
        "lat": 26.8935881,
        "lon": 75.8243215,
        "tags": {
          "addr:district": "Jaipur",
          "addr:full": "337/5, Vyas Marg,Prabhu Marg, Opp A/C Market, Jaipur",
          "addr:postcode": "302004",
          "addr:state": "Rajasthan",
          "amenity": "hospital",
          "healthcare": "hospital",
          "name": "Holy Family Hospital, Jaipur",
          "source": "OpenGovernmentData",
          "website": "https://holyfamilyhospitaljaipur.in/"
        }
      },
      {
        "type": "node",
        "id": 7027786380,
        "lat": 26.8979427,
        "lon": 75.8178108,
        "tags": {
          "addr:district": "Jaipur",
          "addr:full": "20 Uniara Garden, J.N.L. Road",
          "addr:postcode": "302004",
          "addr:state": "Rajasthan",
          "amenity": "hospital",
          "healthcare": "hospital",
          "name": "Uniara Hospital",
          "source": "OpenGovernmentData"
        }
      },
      {
        "type": "node",
        "id": 7030319486,
        "lat": 26.8954188,
        "lon": 75.8150476,
        "tags": {
          "amenity": "atm",
          "brand": "State Bank of India",
          "brand:en": "State Bank of India",
          "brand:wikidata": "Q1340361",
          "currency:INR": "yes",
          "drive_through": "no",
          "indoor": "yes",
          "name": "SBI",
          "note": "Contributors are requested to not edit the \"brand\", \"brand:en\", \"brand:wikidata\", \"operator\", \"operator:en\" and \"operator:wikidata\" tags. (2025/03/03)",
          "opening_hours": "24/7",
          "operator": "State Bank of India",
          "operator:en": "State Bank of India",
          "operator:wikidata": "Q1340361",
          "short_name": "SBI"
        }
      },
      {
        "type": "node",
        "id": 7030319488,
        "lat": 26.902255,
        "lon": 75.8167071,
        "tags": {
          "addr:district": "Jaipur",
          "addr:full": "J.L.N Marg Jaipur",
          "addr:postcode": "302017",
          "addr:state": "Rajasthan",
          "amenity": "clinic",
          "healthcare": "hospital",
          "name": "Getwell Poly Clinic and Hospital",
          "source": "OpenGovernmentData"
        }
      },
      {
        "type": "node",
        "id": 7030410093,
        "lat": 26.9025702,
        "lon": 75.8257002,
        "tags": {
          "addr:district": "Jaipur",
          "addr:full": "434, Adarsh Nagar",
          "addr:postcode": "302004",
          "addr:state": "Rajasthan",
          "amenity": "hospital",
          "healthcare": "hospital",
          "healthcare:speciality": "ophthalmology",
          "name": "Bhiwani Eye Care Centre",
          "source": "OpenGovernmentData"
        }
      },
      {
        "type": "node",
        "id": 7030551132,
        "lat": 26.9009951,
        "lon": 75.8267596,
        "tags": {
          "addr:district": "Jaipur",
          "addr:full": "471, Adarsh Nagar",
          "addr:postcode": "302004",
          "addr:state": "Rajasthan",
          "amenity": "hospital",
          "healthcare": "hospital",
          "name": "Carewell Hospital",
          "source": "OpenGovernmentData"
        }
      },
      {
        "type": "node",
        "id": 7030706660,
        "lat": 26.9090904,
        "lon": 75.8244556,
        "tags": {
          "addr:district": "Jaipur",
          "addr:full": "K-4A, Fatehtiba, Adarsh Nagar Road",
          "addr:postcode": "302004",
          "addr:state": "Rajasthan",
          "amenity": "clinic",
          "healthcare": "clinic",
          "name": "Jain Eye Clinic and Hospital",
          "source": "OpenGovernmentData",
          "website": "mrj-jaineye.com"
        }
      },
      {
        "type": "node",
        "id": 7030952427,
        "lat": 26.8976523,
        "lon": 75.8240989,
        "tags": {
          "addr:district": "Jaipur",
          "addr:full": "Near Parnami Mandir, Raja Park, Adarsh Nagar",
          "addr:postcode": "302004",
          "addr:state": "Rajasthan",
          "amenity": "hospital",
          "healthcare": "hospital",
          "name": "Madan Parnami Memorial Hospital",
          "source": "OpenGovernmentData"
        }
      },
      {
        "type": "node",
        "id": 7034856996,
        "lat": 26.898218,
        "lon": 75.8236563,
        "tags": {
          "addr:district": "Jaipur",
          "addr:full": "No. B-9 (D), Govind Marg,Adarsh Nagar",
          "addr:postcode": "302004",
          "addr:state": "Rajasthan",
          "amenity": "hospital",
          "healthcare": "hospital",
          "name": "Vasundhra Hospital",
          "source": "OpenGovernmentData",
          "website": "https://www.drjollyarora.com/"
        }
      },
      {
        "type": "node",
        "id": 7035249224,
        "lat": 26.8957806,
        "lon": 75.8146733,
        "tags": {
          "addr:district": "Jaipur",
          "addr:full": "38, Kanota Bagh, J.L.N.Marg",
          "addr:postcode": "302004",
          "addr:state": "Rajasthan",
          "amenity": "hospital",
          "healthcare": "hospital",
          "name": "Soni Hospital",
          "source": "OpenGovernmentData"
        }
      },
      {
        "type": "node",
        "id": 7037488089,
        "lat": 26.89272,
        "lon": 75.8242251,
        "tags": {
          "addr:district": "Jaipur",
          "addr:full": "C-17, Bhagat Singh Marg, Near Lbs College, Tilak Nagarm",
          "addr:postcode": "302004",
          "addr:state": "Rajasthan",
          "amenity": "hospital",
          "healthcare": "hospital",
          "name": "Ram Avtar Eye Hospital and Glaucoma Pavilion",
          "source": "OpenGovernmentData"
        }
      },
      {
        "type": "node",
        "id": 7037598709,
        "lat": 26.8967648,
        "lon": 75.8207528,
        "tags": {
          "addr:district": "Jaipur",
          "addr:full": "C- 52, Near Parnami Mandir, Raja Park, Near Ganesh Temple",
          "addr:postcode": "302004",
          "addr:state": "Rajasthan",
          "amenity": "clinic",
          "healthcare": "clinic",
          "name": "Dr.Mehta's Dignostic Clinic",
          "source": "OpenGovernmentData"
        }
      },
      {
        "type": "node",
        "id": 7037606522,
        "lat": 26.8970829,
        "lon": 75.8233532,
        "tags": {
          "addr:district": "Jaipur",
          "addr:full": "264, Near Parnami Mandir, Raja Park",
          "addr:postcode": "302004",
          "addr:state": "Rajasthan",
          "amenity": "hospital",
          "healthcare": "hospital",
          "name": "Dr.Mamodias Proctology and IRC Centre",
          "phone": "9414060257",
          "source": "OpenGovernmentData",
          "website": "pilescenter.com"
        }
      },
      {
        "type": "node",
        "id": 7038464449,
        "lat": 26.8972528,
        "lon": 75.8260462,
        "tags": {
          "addr:district": "Jaipur",
          "addr:full": "B-14/D Govind Marg, Adarsh Nagar",
          "addr:postcode": "302004",
          "addr:state": "Rajasthan",
          "amenity": "hospital",
          "healthcare": "hospital",
          "name": "Raj Khurana Memorial Hospital",
          "source": "OpenGovernmentData"
        }
      },
      {
        "type": "node",
        "id": 7039479669,
        "lat": 26.9003923,
        "lon": 75.8190637,
        "tags": {
          "addr:district": "Jaipur",
          "addr:full": "24, Chetak Marg Near J.K. Lon Hospital, J.L.N. Marg",
          "addr:postcode": "302017",
          "addr:state": "Rajasthan",
          "amenity": "hospital",
          "healthcare": "hospital",
          "name": "Arya Hospital- Jaipur",
          "source": "OpenGovernmentData"
        }
      },
      {
        "type": "node",
        "id": 7039990476,
        "lat": 26.8959216,
        "lon": 75.8198114,
        "tags": {
          "addr:district": "Jaipur",
          "addr:full": "Bhabha Marg, Moti Dungri",
          "addr:postcode": "302005",
          "addr:state": "Rajasthan",
          "amenity": "hospital",
          "healthcare": "hospital",
          "name": "Sahai Hospital and Research Centre",
          "source": "OpenGovernmentData"
        }
      },
      {
        "type": "node",
        "id": 7040227986,
        "lat": 26.905334,
        "lon": 75.8132896,
        "tags": {
          "addr:district": "Jaipur",
          "addr:full": "B-6(F)Adinath Marg,C-Scheme",
          "addr:postcode": "302001",
          "addr:state": "Rajasthan",
          "amenity": "clinic",
          "healthcare": "clinic",
          "healthcare:speciality": "otolaryngology",
          "name": "Dr. K.C. KASLIWAL Ear,Nose and Throat Centre",
          "source": "OpenGovernmentData"
        }
      },
      {
        "type": "node",
        "id": 7113996999,
        "lat": 26.8978764,
        "lon": 75.8150251,
        "tags": {
          "amenity": "restaurant",
          "name:en": "Shikaar Bagh"
        }
      },
      {
        "type": "node",
        "id": 7698578012,
        "lat": 26.8995994,
        "lon": 75.8245468,
        "tags": {
          "addr:district": "Jaipur",
          "addr:full": "Anand Puri, Adarsh Nagar",
          "addr:postcode": "302004",
          "addr:state": "Rajasthan",
          "amenity": "hospital",
          "healthcare": "hospital",
          "name": "Mahaveer Charitable Hospital",
          "source": "Local Knowledge"
        }
      },
      {
        "type": "node",
        "id": 7698578020,
        "lat": 26.8942846,
        "lon": 75.8273157,
        "tags": {
          "addr:district": "Jaipur",
          "addr:full": "Raja Park, Jaipur",
          "addr:postcode": "302004",
          "addr:state": "Rajasthan",
          "amenity": "clinic",
          "healthcare": "clinic",
          "name": "Bagga Clinic",
          "source": "Local Knowledge"
        }
      },
      {
        "type": "node",
        "id": 7698578023,
        "lat": 26.9020539,
        "lon": 75.8261836,
        "tags": {
          "addr:district": "Jaipur",
          "addr:full": "Adarsh Nagar",
          "addr:postcode": "302004",
          "addr:state": "Rajasthan",
          "amenity": "hospital",
          "healthcare": "hospital",
          "name": "Health Aid Hospital",
          "source": "Local Knowledge"
        }
      },
      {
        "type": "node",
        "id": 7698578026,
        "lat": 26.9035633,
        "lon": 75.8222385,
        "tags": {
          "addr:district": "Jaipur",
          "addr:full": "Anand Puri, Fateh Tibba, Adarsh Nagar",
          "addr:postcode": "302004",
          "addr:state": "Rajasthan",
          "amenity": "hospital",
          "healthcare": "hospital",
          "name": "Child Care Hospital",
          "source": "Local Knowledge"
        }
      },
      {
        "type": "node",
        "id": 7698578027,
        "lat": 26.9025327,
        "lon": 75.8211928,
        "tags": {
          "addr:district": "Jaipur",
          "addr:full": "Adarsh Nagar, Alwar",
          "addr:postcode": "302004",
          "addr:state": "Rajasthan",
          "amenity": "hospital",
          "healthcare": "hospital",
          "name": "MDM Hospital",
          "source": "Local Knowledge"
        }
      },
      {
        "type": "node",
        "id": 7698578029,
        "lat": 26.8949388,
        "lon": 75.8162226,
        "tags": {
          "addr:district": "Jaipur",
          "addr:full": "Moti Doongri Road, Tilak Nagar",
          "addr:postcode": "302004",
          "addr:state": "Rajasthan",
          "amenity": "clinic",
          "healthcare": "clinic",
          "name": "Baldwa Clinic",
          "source": "Local Knowledge"
        }
      },
      {
        "type": "node",
        "id": 7698578030,
        "lat": 26.901026,
        "lon": 75.825743,
        "tags": {
          "addr:district": "Jaipur",
          "addr:full": "Bhag Singh Road, Adarsh Nagar",
          "addr:postcode": "302004",
          "addr:state": "Rajasthan",
          "amenity": "hospital",
          "healthcare": "hospital",
          "name": "Mahaveer Jain Hospital",
          "source": "Local Knowledge"
        }
      },
      {
        "type": "node",
        "id": 7698578039,
        "lat": 26.8941953,
        "lon": 75.8216096,
        "tags": {
          "addr:district": "Jaipur",
          "addr:full": "Tilak Nagar",
          "addr:postcode": "302004",
          "addr:state": "Rajasthan",
          "amenity": "clinic",
          "healthcare": "clinic",
          "name": "Amritam Heart Care",
          "source": "Local Knowledge"
        }
      },
      {
        "type": "node",
        "id": 7698578040,
        "lat": 26.9023693,
        "lon": 75.8259113,
        "tags": {
          "addr:district": "Jaipur",
          "addr:full": "Adarsh Nagar Road, Anand Puri, Adarsh Nagar",
          "addr:postcode": "302004",
          "addr:state": "Rajasthan",
          "amenity": "clinic",
          "healthcare": "clinic",
          "name": "Adarsh Clinic",
          "source": "Local Knowledge"
        }
      },
      {
        "type": "node",
        "id": 7698578043,
        "lat": 26.8946804,
        "lon": 75.8273968,
        "tags": {
          "addr:district": "Jaipur",
          "addr:full": "Raja Park, Jaipur",
          "addr:postcode": "302004",
          "addr:state": "Rajasthan",
          "amenity": "clinic",
          "healthcare": "clinic",
          "name": "Shibali Health Clinic",
          "source": "Local Knowledge"
        }
      },
      {
        "type": "node",
        "id": 7698578045,
        "lat": 26.8921005,
        "lon": 75.8189267,
        "tags": {
          "addr:district": "Jaipur",
          "addr:full": "Vijay Path, Tilak Nagar, Jaipur",
          "addr:postcode": "302004",
          "addr:state": "Rajasthan",
          "amenity": "hospital",
          "healthcare": "hospital",
          "name": "Vijay Hospital",
          "source": "Local Knowledge"
        }
      },
      {
        "type": "node",
        "id": 7698578055,
        "lat": 26.8958902,
        "lon": 75.8203134,
        "tags": {
          "addr:district": "Jaipur",
          "addr:full": "Vijay Path, Junction",
          "addr:postcode": "302004",
          "addr:state": "Rajasthan",
          "amenity": "hospital",
          "healthcare": "hospital",
          "name": "Sahai Hospital",
          "source": "Local Knowledge"
        }
      },
      {
        "type": "node",
        "id": 7698578057,
        "lat": 26.8990777,
        "lon": 75.824377,
        "tags": {
          "addr:district": "Jaipur",
          "addr:full": "Shyama Prasad Mukherji Marg, Adarsh Nagar",
          "addr:postcode": "302004",
          "addr:state": "Rajasthan",
          "amenity": "hospital",
          "healthcare": "hospital",
          "name": "Suraj Hospial",
          "source": "Local Knowledge"
        }
      },
      {
        "type": "node",
        "id": 7698578063,
        "lat": 26.8962704,
        "lon": 75.8265197,
        "tags": {
          "addr:district": "Jaipur",
          "addr:full": "Gurunanakpura, Tilak Nagar",
          "addr:postcode": "302004",
          "addr:state": "Rajasthan",
          "amenity": "clinic",
          "healthcare": "clinic",
          "name": "Tilak Clinic & Nursing Home",
          "source": "Local Knowledge"
        }
      },
      {
        "type": "node",
        "id": 7698578069,
        "lat": 26.9022358,
        "lon": 75.8265664,
        "tags": {
          "addr:district": "Jaipur",
          "addr:full": "Raja Park, Adarsh Nagar",
          "addr:postcode": "302004",
          "addr:state": "Rajasthan",
          "amenity": "clinic",
          "healthcare": "clinic",
          "name": "S.K.D.M. Clinic",
          "source": "Local Knowledge"
        }
      },
      {
        "type": "node",
        "id": 7698578075,
        "lat": 26.9021006,
        "lon": 75.8160988,
        "tags": {
          "addr:district": "Jaipur",
          "addr:full": "Sangram Colony, Ashok Nagar",
          "addr:postcode": "302004",
          "addr:state": "Rajasthan",
          "amenity": "clinic",
          "healthcare": "clinic",
          "name": "Dr.Sudrania Clinic",
          "source": "Local Knowledge"
        }
      },
      {
        "type": "node",
        "id": 7698578077,
        "lat": 26.9058687,
        "lon": 75.82576,
        "tags": {
          "addr:district": "Jaipur",
          "addr:full": "Jawahar Nagar, Adarsh Nagar",
          "addr:postcode": "302004",
          "addr:state": "Rajasthan",
          "amenity": "clinic",
          "healthcare": "clinic",
          "name": "Vinod Clinic",
          "source": "Local Knowledge"
        }
      },
      {
        "type": "node",
        "id": 7698578081,
        "lat": 26.8961491,
        "lon": 75.8192599,
        "tags": {
          "addr:district": "Jaipur",
          "addr:full": "Jawahar Nagar, Jaipur",
          "addr:postcode": "302004",
          "addr:state": "Rajasthan",
          "amenity": "doctors",
          "healthcare": "doctor",
          "name": "Dr. Ritu Joshi",
          "source": "Local Knowledge"
        }
      },
      {
        "type": "node",
        "id": 7698578091,
        "lat": 26.9033511,
        "lon": 75.8227348,
        "tags": {
          "addr:district": "Jaipur",
          "addr:full": "Moti Doongri Road",
          "addr:postcode": "302004",
          "addr:state": "Rajasthan",
          "amenity": "clinic",
          "healthcare": "clinic",
          "name": "Dr. N M Jain Clinic",
          "source": "Local Knowledge"
        }
      },
      {
        "type": "node",
        "id": 7698578094,
        "lat": 26.897601,
        "lon": 75.821265,
        "tags": {
          "addr:district": "Jaipur",
          "addr:full": "Tilak Nagar, Raja Park, Jaipur",
          "addr:postcode": "302201",
          "addr:state": "Rajasthan",
          "amenity": "clinic",
          "healthcare": "clinic",
          "name": "Saans Chest Clinic",
          "source": "Local Knowledge"
        }
      },
      {
        "type": "node",
        "id": 7698578095,
        "lat": 26.9038941,
        "lon": 75.8277814,
        "tags": {
          "addr:district": "Jaipur",
          "addr:full": "Jaipur",
          "addr:postcode": "302004",
          "addr:state": "Rajasthan",
          "amenity": "clinic",
          "healthcare": "clinic",
          "name": "Aditya Health Clinic",
          "source": "Local Knowledge"
        }
      },
      {
        "type": "node",
        "id": 7698578096,
        "lat": 26.902597,
        "lon": 75.825447,
        "tags": {
          "addr:district": "Jaipur",
          "addr:full": "Fateh Tibba, Adarsh Nagar",
          "addr:postcode": "302004",
          "addr:state": "Rajasthan",
          "amenity": "doctors",
          "healthcare": "doctor",
          "name": "Dr. Ved Prakash",
          "source": "Local Knowledge"
        }
      },
      {
        "type": "node",
        "id": 7698578099,
        "lat": 26.9004328,
        "lon": 75.8188149,
        "tags": {
          "addr:district": "Jaipur",
          "addr:full": "Gangawal Park, Adarsh Nagar, Jaipur",
          "addr:postcode": "302004",
          "addr:state": "Rajasthan",
          "amenity": "clinic",
          "healthcare": "clinic",
          "name": "Dr. R.M. Mathur Clinic",
          "source": "Local Knowledge"
        }
      },
      {
        "type": "node",
        "id": 7698578101,
        "lat": 26.9025481,
        "lon": 75.8245281,
        "tags": {
          "addr:district": "Jaipur",
          "addr:full": "Adarsh Nagar Road, Anand Puri, Fateh Tibba, Adarsh Nagar",
          "addr:postcode": "302004",
          "addr:state": "Rajasthan",
          "amenity": "clinic",
          "healthcare": "clinic",
          "healthcare:speciality": "homeopathy",
          "name": "Shiv Shakti Homoeo Clinic",
          "source": "Local Knowledge"
        }
      },
      {
        "type": "node",
        "id": 7698578109,
        "lat": 26.8963636,
        "lon": 75.8252004,
        "tags": {
          "addr:district": "Jaipur",
          "addr:full": "Gurunanakpura, Raja Park, Jaipur",
          "addr:postcode": "302004",
          "addr:state": "Rajasthan",
          "amenity": "clinic",
          "healthcare": "clinic",
          "name": "Ganda Homeo Clinic",
          "source": "Local Knowledge"
        }
      },
      {
        "type": "node",
        "id": 7698578111,
        "lat": 26.9026409,
        "lon": 75.8252586,
        "tags": {
          "addr:district": "Jaipur",
          "addr:full": "Anand Puri, Adarsh Nagar, Jaipur",
          "addr:postcode": "302004",
          "addr:state": "Rajasthan",
          "amenity": "clinic",
          "healthcare": "clinic",
          "name": "Ganda Clinic",
          "source": "Local Knowledge"
        }
      },
      {
        "type": "node",
        "id": 8137399270,
        "lat": 26.9075297,
        "lon": 75.815063,
        "tags": {
          "amenity": "cafe",
          "outdoor_seating": "yes"
        }
      },
      {
        "type": "node",
        "id": 8624888436,
        "lat": 26.9061335,
        "lon": 75.822165,
        "tags": {
          "amenity": "restaurant",
          "name": "Black Pizza"
        }
      }
    ]
  },
  "pois_2_5km": {
    "version": 0.6,
    "generator": "Overpass API 0.7.62.8 e802775f",
    "osm3s": {
      "timestamp_osm_base": "2025-09-07T13:25:00Z",
      "copyright": "The data included in this document is from www.openstreetmap.org. The data is made available under ODbL."
    },
    "elements": [
      {
        "type": "node",
        "id": 316944108,
        "lat": 26.9069868,
        "lon": 75.8410928,
        "tags": {
          "bus": "yes",
          "bus_routes": "3, 14, 27, 32",
          "name": "Transport Nagar",
          "public_transport": "stop_position"
        }
      },
      {
        "type": "node",
        "id": 3083894933,
        "lat": 26.9169424,
        "lon": 75.8169212,
        "tags": {
          "amenity": "fuel",
          "brand": "Hindustan Petroleum",
          "brand:wikidata": "Q1619375",
          "name": "HP",
          "official_name": "Hindustan Petroleum"
        }
      },
      {
        "type": "node",
        "id": 3677353031,
        "lat": 26.9169156,
        "lon": 75.8063152,
        "tags": {
          "amenity": "fuel",
          "brand": "Hindustan Petroleum",
          "brand:wikidata": "Q1619375",
          "name": "HP",
          "official_name": "Hindustan Petroleum"
        }
      },
      {
        "type": "node",
        "id": 4466633240,
        "lat": 26.9137147,
        "lon": 75.8294774,
        "tags": {
          "amenity": "fuel"
        }
      },
      {
        "type": "node",
        "id": 6976254817,
        "lat": 26.8994995,
        "lon": 75.8132041,
        "tags": {
          "amenity": "bus_station",
          "bus": "yes",
          "name": "RSRTC/Roadways Bus Stand",
          "public_transport": "station"
        }
      },
      {
        "type": "node",
        "id": 7079400604,
        "lat": 26.8998345,
        "lon": 75.8129319,
        "tags": {
          "amenity": "bus_station",
          "bus": "yes",
          "name": "Volvo Stand",
          "operator": "RSRTC",
          "public_transport": "station"
        }
      },
      {
        "type": "node",
        "id": 8125607612,
        "lat": 26.9027315,
        "lon": 75.8362208,
        "tags": {
          "amenity": "cinema",
          "brand": "INOX Leisure",
          "brand:wikidata": "Q5972349",
          "name": "Inox - Pink Sqaure Mall",
          "short_name": "INOX"
        }
      },
      {
        "type": "node",
        "id": 8125619141,
        "lat": 26.9062009,
        "lon": 75.8426994,
        "tags": {
          "amenity": "fuel",
          "brand": "Indian Oil",
          "brand:wikidata": "Q1289348",
          "brand:wikipedia": "en:Indian Oil Corporation",
          "name": "Indian Oil"
        }
      },
      {
        "type": "node",
        "id": 8137399290,
        "lat": 26.9013887,
        "lon": 75.8440142,
        "tags": {
          "amenity": "fuel"
        }
      },
      {
        "type": "node",
        "id": 8980629772,
        "lat": 26.9049054,
        "lon": 75.8446913,
        "tags": {
          "construction": "yes",
          "name": "Transport Nagar (u/c) , JAIPUR",
          "network": "Jaipur Metro",
          "note": "Contributors are requested to not edit the \"network\" and the \"operator\" tags. (2023/11/08)",
          "operator": "Jaipur Metro Rail Corporation Limited",
          "public_transport": "stop_position",
          "railway": "stop",
          "subway": "yes"
        }
      },
      {
        "type": "node",
        "id": 10904794879,
        "lat": 26.9154253,
        "lon": 75.8100827,
        "tags": {
          "addr:housenumber": "C-16, Bhagwan Das Rd, Panch Batti, C Scheme, Ashok Nagar, Jaipur, Rajasthan 302001",
          "amenity": "cinema",
          "name": "raj mandir cinemas"
        }
      },
      {
        "type": "node",
        "id": 10936787897,
        "lat": 26.9167126,
        "lon": 75.8048644,
        "tags": {
          "amenity": "fuel",
          "brand": "Hindustan Petroleum",
          "brand:wikidata": "Q1619375",
          "name": "HP",
          "official_name": "Hindustan Petroleum"
        }
      },
      {
        "type": "node",
        "id": 10936813194,
        "lat": 26.9136157,
        "lon": 75.8310726,
        "tags": {
          "amenity": "fuel",
          "brand": "Indian Oil",
          "brand:wikidata": "Q1289348",
          "name": "Indian Oil",
          "operator": "Indian Oil"
        }
      },
      {
        "type": "node",
        "id": 10936829402,
        "lat": 26.9130655,
        "lon": 75.8344291,
        "tags": {
          "amenity": "fuel"
        }
      },
      {
        "type": "node",
        "id": 11586819554,
        "lat": 26.8959825,
        "lon": 75.8093318,
        "tags": {
          "amenity": "fuel",
          "brand": "Hindustan Petroleum",
          "brand:wikidata": "Q1619375",
          "name": "HP",
          "official_name": "Hindustan Petroleum"
        }
      },
      {
        "type": "node",
        "id": 11763619972,
        "lat": 26.8892423,
        "lon": 75.8043641,
        "tags": {
          "amenity": "fuel",
          "brand": "Bharat Petroleum",
          "brand:wikidata": "Q854826",
          "name": "Bharat Petroleum"
        }
      }
    ]
  }
}