{
  "pois_1km": {
    "version": 0.6,
    "generator": "Overpass API 0.7.62.8 e802775f",
    "osm3s": {
      "timestamp_osm_base": "2025-09-07T13:41:30Z",
      "copyright": "The data included in this document is from www.openstreetmap.org. The data is made available under ODbL."
    },
    "elements": [
      {
        "type": "node",
        "id": 5419597998,
        "lat": 26.8279302,
        "lon": 75.8062494,
        "tags": {
          "amenity": "restaurant",
          "description": "First Floor",
          "level": "1",
          "name": "CIP Lounge Airport Jaipur"
        }
      },
      {
        "type": "node",
        "id": 5419597999,
        "lat": 26.8277778,
        "lon": 75.8061437,
        "tags": {
          "amenity": "cafe",
          "name": "Airr Toast"
        }
      },
      {
        "type": "node",
        "id": 6341259416,
        "lat": 26.8401687,
        "lon": 75.8058755,
        "tags": {
          "amenity": "hospital",
          "emergency": "yes",
          "healthcare": "hospital",
          "name": "Eternal Heart Care Center"
        }
      },
      {
        "type": "node",
        "id": 7695123045,
        "lat": 26.83726,
        "lon": 75.820289,
        "tags": {
          "addr:district": "Jaipur",
          "addr:full": "Nandpuri Colony",
          "addr:postcode": "302017",
          "addr:state": "Rajasthan",
          "amenity": "clinic",
          "name": "Shahari Swasthya Kendra",
          "source": "Local Knowledge"
        }
      }
    ]
  },
  "pois_2_5km": {
    "version": 0.6,
    "generator": "Overpass API 0.7.62.8 e802775f",
    "osm3s": {
      "timestamp_osm_base": "2025-09-07T13:42:30Z",
      "copyright": "The data included in this document is from www.openstreetmap.org. The data is made available under ODbL."
    },
    "elements": [
      {
        "type": "node",
        "id": 316673866,
        "lat": 26.837001,
        "lon": 75.8320226,
        "tags": {
          "addr:postcode": "302017",
          "internet_access": "no",
          "name": "Getor Jagatpura",
          "name:de": "Gator Jaradpura",
          "network": "IR",
          "operator": "NWR",
          "public_transport": "station",
          "railway": "station",
          "ref": "GTJT",
          "train": "yes",
          "wikidata": "Q24949506",
          "wikipedia": "en:Getor Jagatpura railway station"
        }
      },
      {
        "type": "node",
        "id": 1064270892,
        "lat": 26.8355542,
        "lon": 75.7936432,
        "tags": {
          "construction": "station",
          "disused": "yes",
          "name": "Durgapura Metro (u/c)",
          "network": "Jaipur Metro",
          "operator": "NWR",
          "railway": "station",
          "station": "subway"
        }
      },
      {
        "type": "node",
        "id": 3083894733,
        "lat": 26.8470878,
        "lon": 75.8084963,
        "tags": {
          "addr:city": "Jaipur",
          "addr:country": "IN",
          "addr:state": "Rajasthan",
          "amenity": "fuel",
          "brand": "Hindustan Petroleum",
          "brand:wikidata": "Q1619375",
          "brand:wikipedia": "en:Hindustan Petroleum",
          "name": "Shaheed Amit Bharadwaj Petrol Pump",
          "official_name": "Hindustan Petroleum"
        }
      },
      {
        "type": "node",
        "id": 4226406191,
        "lat": 26.8503126,
        "lon": 75.8256551,
        "tags": {
          "addr:postcode": "302018",
          "amenity": "fuel",
          "name": "Reliance Petrol Pump",
          "self_service": "no"
        }
      },
      {
        "type": "node",
        "id": 4226415289,
        "lat": 26.8528358,
        "lon": 75.8243583,
        "tags": {
          "amenity": "fuel",
          "brand": "Indian Oil",
          "brand:wikidata": "Q1289348",
          "brand:wikipedia": "en:Indian Oil Corporation",
          "name": "Indian Oil Petrol Pump"
        }
      },
      {
        "type": "node",
        "id": 6979547432,
        "lat": 26.8408583,
        "lon": 75.8072035,
        "tags": {
          "amenity": "fuel",
          "brand": "Indian Oil",
          "brand:wikidata": "Q1289348",
          "name": "Indian Oil"
        }
      },
      {
        "type": "node",
        "id": 8457296098,
        "lat": 26.8369742,
        "lon": 75.8315703,
        "tags": {
          "name": "Getor Jagatpura",
          "name:de": "Gator Jaradpura Gleis 1",
          "public_transport": "stop_position",
          "railway": "stop",
          "ref": "1",
          "train": "yes"
        }
      },
      {
        "type": "node",
        "id": 8457296099,
        "lat": 26.837024,
        "lon": 75.8315808,
        "tags": {
          "name": "Getor Jagatpura",
          "name:de": "Gator Jaradpura Gleis 2",
          "public_transport": "stop_position",
          "railway": "stop",
          "ref": "2",
          "train": "yes"
        }
      },
      {
        "type": "node",
        "id": 9526153814,
        "lat": 26.8375343,
        "lon": 75.8337205,
        "tags": {
          "amenity": "cinema",
          "brand": "INOX Leisure",
          "brand:wikidata": "Q5972349",
          "brand:wikipedia": "en:INOX Leisure Limited",
          "name": "INOX Leisure",
          "short_name": "INOX"
        }
      },
      {
        "type": "node",
        "id": 10904677039,
        "lat": 26.8375559,
        "lon": 75.8337198,
        "tags": {
          "amenity": "cinema",
          "brand": "INOX Leisure",
          "brand:wikidata": "Q5972349",
          "name": "INOX Leisure",
          "short_name": "INOX"
        }
      },
      {
        "type": "node",
        "id": 11762982185,
        "lat": 26.8359403,
        "lon": 75.793404,
        "tags": {
          "amenity": "fuel",
          "brand": "Hindustan Petroleum",
          "brand:wikidata": "Q1619375",
          "name": "HP",
          "official_name": "Hindustan Petroleum"
        }
      }
    ]
  }
}