{
  "pois_1km": {
    "version": 0.6,
    "generator": "Overpass API 0.7.62.8 e802775f",
    "osm3s": {
      "timestamp_osm_base": "2025-09-07T13:29:01Z",
      "copyright": "The data included in this document is from www.openstreetmap.org. The data is made available under ODbL."
    },
    "elements": [
      {
        "type": "node",
        "id": 2394723956,
        "lat": 26.8556371,
        "lon": 75.8065846,
        "tags": {
          "addr:city": "Jaipur",
          "addr:postcode": "302017",
          "name": "Gaurav Tower I",
          "shop": "mall"
        }
      },
      {
        "type": "node",
        "id": 2394724345,
        "lat": 26.855521,
        "lon": 75.8072377,
        "tags": {
          "addr:city": "Jaipur",
          "addr:postcode": "302017",
          "name": "Gaurav Tower II",
          "shop": "mall"
        }
      },
      {
        "type": "node",
        "id": 3076015859,
        "lat": 26.8534541,
        "lon": 75.8049509,
        "tags": {
          "name": "\u0935\u0930\u094d\u0932\u094d\u0921 \u091f\u094d\u0930\u0947\u0921 \u092a\u093e\u0930\u094d\u0915",
          "name:en": "World Trade Park",
          "opening_hours": "sunrise-sunset",
          "shop": "mall"
        }
      },
      {
        "type": "node",
        "id": 3476216925,
        "lat": 26.8569226,
        "lon": 75.8009531,
        "tags": {
          "addr:city": "Jaipur",
          "addr:full": "Jaipur",
          "addr:postcode": "302005",
          "addr:state": "Rajasthan",
          "addr:street": "Basant Vihar, Bajaj Nagar",
          "amenity": "hospital",
          "emergency": "yes",
          "name": "Goverment Rukmani Devi Japuria Hospital",
          "operator:type": "government",
          "source": "OpenGovernmentData"
        }
      },
      {
        "type": "node",
        "id": 3476221910,
        "lat": 26.8544337,
        "lon": 75.8082444,
        "tags": {
          "amenity": "restaurant",
          "capacity": "100",
          "cuisine": "regional",
          "name": "Kanha",
          "smoking": "no",
          "takeaway": "no"
        }
      },
      {
        "type": "node",
        "id": 5533496172,
        "lat": 26.8589685,
        "lon": 75.8086772,
        "tags": {
          "addr:city": "Jaipur",
          "addr:housenumber": "202, 2nd Floor, SDC Building, Opposite Bharat Petrol Pump, Moji Colony",
          "addr:postcode": "302017",
          "addr:street": "Calgary Road",
          "amenity": "hospital",
          "email": "facekraftclinicofficial@gmail.com",
          "emergency": "yes",
          "healthcare": "hospital",
          "healthcare:speciality": "dental_oral_maxillo_facial_surgery;dentist;dental_surgery;dental;tooth_whitening",
          "name": "Face kraft - Centre for advanced dentistry",
          "operator": "Dr. Prateek Jain",
          "phone": "+917023271994",
          "start_date": "7-Dec-12"
        }
      },
      {
        "type": "node",
        "id": 6815869704,
        "lat": 26.8545195,
        "lon": 75.8052136,
        "tags": {
          "amenity": "atm",
          "name": "ATM"
        }
      },
      {
        "type": "node",
        "id": 6815891298,
        "lat": 26.8549744,
        "lon": 75.8054398,
        "tags": {
          "amenity": "cafe",
          "name": "Amarnath Caf\u00e9"
        }
      },
      {
        "type": "node",
        "id": 7024897100,
        "lat": 26.8525438,
        "lon": 75.8017749,
        "tags": {
          "addr:district": "Jaipur",
          "addr:full": "N86,Adinath Nagar,J.L.N Marg",
          "addr:postcode": "302015",
          "addr:state": "Rajasthan",
          "amenity": "hospital",
          "name": "R.G.S Eye Centre and Retina Foundation",
          "source": "OpenGovernmentData",
          "website": "rgseyecentre.com"
        }
      },
      {
        "type": "node",
        "id": 7025156650,
        "lat": 26.8479288,
        "lon": 75.8053221,
        "tags": {
          "addr:district": "Jaipur",
          "addr:full": "29, Girdhar Marg, Sunder Nagar Opposite Hotel Clarks Amer",
          "addr:postcode": "302017",
          "addr:state": "Rajasthan",
          "amenity": "hospital",
          "name": "Anita Maternity Home",
          "source": "OpenGovernmentData"
        }
      },
      {
        "type": "node",
        "id": 7030589195,
        "lat": 26.8593131,
        "lon": 75.8081784,
        "tags": {
          "addr:district": "Jaipur",
          "addr:full": "Centre for Sight, Malviya Nagar Main Road, Opposite Petrol Pump",
          "addr:postcode": "302017",
          "addr:state": "Rajasthan",
          "amenity": "hospital",
          "email": "infojaipur@centreforsight.net",
          "name": "Centre For Sight",
          "operator:type": "private",
          "source": "OpenGovernmentData",
          "website": "https://www.centreforsight.net/"
        }
      },
      {
        "type": "node",
        "id": 7036731239,
        "lat": 26.8467981,
        "lon": 75.8101729,
        "tags": {
          "addr:district": "Jaipur",
          "addr:full": "68, Siddharth Nagar E-Block, Sector 12 Main Road",
          "addr:postcode": "302017",
          "addr:state": "Rajasthan",
          "amenity": "hospital",
          "name": "Ghiya Hospital",
          "source": "OpenGovernmentData"
        }
      },
      {
        "type": "node",
        "id": 7040020566,
        "lat": 26.8521418,
        "lon": 75.8103311,
        "tags": {
          "addr:district": "Jaipur",
          "addr:full": "Brain - Tower, D-358, Malviyanagar, Near Gaurav Tower",
          "addr:postcode": "302017",
          "addr:state": "Rajasthan",
          "amenity": "hospital",
          "name": "Advanced Neurology and Superspeciality Hospital",
          "source": "OpenGovernmentData",
          "website": "https://www.thebraintower.com/"
        }
      },
      {
        "type": "node",
        "id": 7040117130,
        "lat": 26.8471475,
        "lon": 75.8087178,
        "tags": {
          "addr:district": "Jaipur",
          "addr:full": "Main Road, Sector 9, Malviya Nagar",
          "addr:postcode": "302018",
          "addr:state": "Rajasthan",
          "amenity": "hospital",
          "name": "Solomon Hospital",
          "source": "OpenGovernmentData"
        }
      },
      {
        "type": "node",
        "id": 7040181512,
        "lat": 26.8511271,
        "lon": 75.8070253,
        "tags": {
          "addr:district": "Jaipur",
          "addr:full": "C-401, Malviya Nagar",
          "addr:postcode": "302017",
          "addr:state": "Rajasthan",
          "amenity": "hospital",
          "name": "Eye Surgery and Laser Centre",
          "source": "OpenGovernmentData"
        }
      },
      {
        "type": "node",
        "id": 7698135283,
        "lat": 26.853253,
        "lon": 75.7963388,
        "tags": {
          "addr:district": "Jaipur",
          "addr:full": "Jai Jawan Colony, Jaipur",
          "addr:postcode": "302018",
          "addr:state": "Rajasthan",
          "amenity": "clinic",
          "name": "Dr. Hemant Bhartiya Clinic",
          "source": "Local Knowledge"
        }
      },
      {
        "type": "node",
        "id": 7698135318,
        "lat": 26.8525412,
        "lon": 75.7957147,
        "tags": {
          "addr:district": "Jaipur",
          "addr:full": "Milap Nagar, Jaipur",
          "addr:postcode": "302018",
          "addr:state": "Rajasthan",
          "amenity": "doctors",
          "name": "Dr. S.K. Pareek",
          "source": "Local Knowledge"
        }
      },
      {
        "type": "node",
        "id": 7698135338,
        "lat": 26.8524747,
        "lon": 75.7959925,
        "tags": {
          "addr:district": "Jaipur",
          "addr:full": "Milap Nagar, Jaipur",
          "addr:postcode": "302018",
          "addr:state": "Rajasthan",
          "amenity": "clinic",
          "name": "Deep Usha Clinic",
          "source": "Local Knowledge"
        }
      },
      {
        "type": "node",
        "id": 7698135352,
        "lat": 26.8559982,
        "lon": 75.799849,
        "tags": {
          "addr:district": "Jaipur",
          "addr:full": "Kailash Puri Colony, Milap Nagar",
          "addr:postcode": "302018",
          "addr:state": "Rajasthan",
          "amenity": "doctors",
          "name": "Dr. Sharad Sharma",
          "source": "Local Knowledge"
        }
      },
      {
        "type": "node",
        "id": 7698135371,
        "lat": 26.8501473,
        "lon": 75.7962052,
        "tags": {
          "addr:district": "Jaipur",
          "addr:full": "Durgapura, Jaipur",
          "addr:postcode": "302018",
          "addr:state": "Rajasthan",
          "amenity": "hospital",
          "name": "Aanch Hospital",
          "source": "Local Knowledge"
        }
      },
      {
        "type": "node",
        "id": 7969344386,
        "lat": 26.8436065,
        "lon": 75.8024609,
        "tags": {
          "addr:floor": "8",
          "addr:full": "8th floor, Corporate Tower, Jawahar Circle, Sector 8, Malviya Nagar, Jaipur",
          "amenity": "restaurant",
          "cuisine": "thali",
          "name": "Sri Motu Ram Prasadam"
        }
      },
      {
        "type": "node",
        "id": 8068694095,
        "lat": 26.8594642,
        "lon": 75.8091873,
        "tags": {
          "amenity": "atm",
          "operator": "Canara Bank"
        }
      },
      {
        "type": "node",
        "id": 8068694114,
        "lat": 26.8596866,
        "lon": 75.8087573,
        "tags": {
          "amenity": "atm",
          "brand": "State Bank of India",
          "brand:en": "State Bank of India",
          "brand:wikidata": "Q1340361",
          "currency:INR": "yes",
          "drive_through": "no",
          "indoor": "yes",
          "note": "Contributors are requested to not edit the \"brand\", \"brand:en\", \"brand:wikidata\", \"operator\", \"operator:en\" and \"operator:wikidata\" tags. (2025/03/03)",
          "opening_hours": "24/7",
          "operator": "State Bank of India",
          "operator:en": "State Bank of India",
          "operator:wikidata": "Q1340361",
          "short_name": "SBI"
        }
      },
      {
        "type": "node",
        "id": 8068694159,
        "lat": 26.8593503,
        "lon": 75.8083773,
        "tags": {
          "addr:housenumber": "Ground Floor",
          "addr:street": "Calgiri Road",
          "amenity": "cafe",
          "brand": "Cafe Coffee Day",
          "brand:wikidata": "Q5017235",
          "brand:wikipedia": "en:Caf\u00e9 Coffee Day",
          "cuisine": "coffee_shop",
          "name": "Cafe Coffee Day",
          "outdoor_seating": "no",
          "takeaway": "yes"
        }
      },
      {
        "type": "node",
        "id": 8068694161,
        "lat": 26.8593223,
        "lon": 75.8084734,
        "tags": {
          "addr:street": "Calgiri Road",
          "amenity": "bank",
          "atm": "yes",
          "brand": "HDFC Bank",
          "brand:wikidata": "Q631047",
          "brand:wikipedia": "en:HDFC Bank",
          "name": "HDFC Bank"
        }
      },
      {
        "type": "node",
        "id": 8068694206,
        "lat": 26.8590826,
        "lon": 75.8090294,
        "tags": {
          "amenity": "bank",
          "brand": "Federal Bank",
          "brand:wikidata": "Q2044983",
          "brand:wikipedia": "en:Federal Bank",
          "name": "Federal Bank"
        }
      },
      {
        "type": "node",
        "id": 9022607657,
        "lat": 26.8445554,
        "lon": 75.8012169,
        "tags": {
          "addr:city": "Jaipur",
          "addr:housenumber": "S-21",
          "addr:postcode": "302018",
          "addr:street": "Annamikas, 1st Avanue,lal bahadur nagar",
          "description": "Best online Shopping Store for Women's Dresses.",
          "name": "Trendswheel",
          "opening_hours": "Mo-Su 09:00-21:00",
          "payment:cash": "yes",
          "shop": "supermarket",
          "website": "https://www.trendswheel4u.com"
        }
      },
      {
        "type": "node",
        "id": 9727755056,
        "lat": 26.8466716,
        "lon": 75.8093538,
        "tags": {
          "amenity": "bank",
          "description": "This has both Bank and ATM",
          "name": "IDFC FIRST BANK"
        }
      },
      {
        "type": "node",
        "id": 10020311919,
        "lat": 26.8512734,
        "lon": 75.8104302,
        "tags": {
          "amenity": "cafe",
          "internet_access": "wlan",
          "name:en": "Ministry of Roasters",
          "opening_hours": "Mo-Su 10:00-22:00"
        }
      }
    ]
  },
  "pois_2_5km": {
    "version": 0.6,
    "generator": "Overpass API 0.7.62.8 e802775f",
    "osm3s": {
      "timestamp_osm_base": "2025-09-07T13:29:01Z",
      "copyright": "The data included in this document is from www.openstreetmap.org. The data is made available under ODbL."
    },
    "elements": [
      {
        "type": "node",
        "id": 1064270892,
        "lat": 26.8355542,
        "lon": 75.7936432,
        "tags": {
          "construction": "station",
          "disused": "yes",
          "name": "Durgapura Metro (u/c)",
          "network": "Jaipur Metro",
          "operator": "NWR",
          "railway": "station",
          "station": "subway"
        }
      },
      {
        "type": "node",
        "id": 1753726590,
        "lat": 26.8728017,
        "lon": 75.7992199,
        "tags": {
          "internet_access": "no",
          "name": "Gandhi Nagar Jaipur",
          "name:de": "Gandhinagar Jaipur",
          "network": "Indian Railways",
          "operator": "North Western Railway",
          "public_transport": "station",
          "railway": "station",
          "ref": "GADJ",
          "train": "yes",
          "wikidata": "Q5520716",
          "wikipedia": "en:Gandhinagar Jaipur railway station"
        }
      },
      {
        "type": "node",
        "id": 2188691233,
        "lat": 26.855093,
        "lon": 75.7870163,
        "tags": {
          "internet_access": "no",
          "name": "Durgapura",
          "network": "IR",
          "operator": "NWR",
          "public_transport": "station",
          "railway": "station",
          "ref": "DPA",
          "train": "yes",
          "wikidata": "Q17052166",
          "wikipedia": "en:Durgapura railway station"
        }
      },
      {
        "type": "node",
        "id": 3083894733,
        "lat": 26.8470878,
        "lon": 75.8084963,
        "tags": {
          "addr:city": "Jaipur",
          "addr:country": "IN",
          "addr:state": "Rajasthan",
          "amenity": "fuel",
          "brand": "Hindustan Petroleum",
          "brand:wikidata": "Q1619375",
          "brand:wikipedia": "en:Hindustan Petroleum",
          "name": "Shaheed Amit Bharadwaj Petrol Pump",
          "official_name": "Hindustan Petroleum"
        }
      },
      {
        "type": "node",
        "id": 3083894833,
        "lat": 26.864811,
        "lon": 75.796631,
        "tags": {
          "amenity": "fuel",
          "brand": "Indian Oil",
          "brand:wikidata": "Q1289348",
          "name": "Indian Oil"
        }
      },
      {
        "type": "node",
        "id": 3083894834,
        "lat": 26.8726037,
        "lon": 75.7971444,
        "tags": {
          "amenity": "fuel",
          "brand": "Indian Oil",
          "brand:wikidata": "Q1289348",
          "brand:wikipedia": "en:Indian Oil Corporation",
          "name": "Indian Oil"
        }
      },
      {
        "type": "node",
        "id": 4226406191,
        "lat": 26.8503126,
        "lon": 75.8256551,
        "tags": {
          "addr:postcode": "302018",
          "amenity": "fuel",
          "name": "Reliance Petrol Pump",
          "self_service": "no"
        }
      },
      {
        "type": "node",
        "id": 4226413890,
        "lat": 26.8595478,
        "lon": 75.8088895,
        "tags": {
          "amenity": "fuel",
          "brand": "Bharat Petroleum",
          "brand:wikidata": "Q854826",
          "brand:wikipedia": "en:Bharat Petroleum",
          "name": "Bharat Petroleum"
        }
      },
      {
        "type": "node",
        "id": 4226415289,
        "lat": 26.8528358,
        "lon": 75.8243583,
        "tags": {
          "amenity": "fuel",
          "brand": "Indian Oil",
          "brand:wikidata": "Q1289348",
          "brand:wikipedia": "en:Indian Oil Corporation",
          "name": "Indian Oil Petrol Pump"
        }
      },
      {
        "type": "node",
        "id": 6979547432,
        "lat": 26.8408583,
        "lon": 75.8072035,
        "tags": {
          "amenity": "fuel",
          "brand": "Indian Oil",
          "brand:wikidata": "Q1289348",
          "name": "Indian Oil"
        }
      },
      {
        "type": "node",
        "id": 8457296102,
        "lat": 26.8734837,
        "lon": 75.7990968,
        "tags": {
          "name": "Gandhi Nagar Jaipur",
          "name:de": "Gandhinagar Jaipur Gleis 1",
          "operator": "Ministry of Railway",
          "public_transport": "stop_position",
          "railway": "stop",
          "ref": "1",
          "train": "yes"
        }
      },
      {
        "type": "node",
        "id": 8457296104,
        "lat": 26.872581,
        "lon": 75.7992029,
        "tags": {
          "name": "Gandhi Nagar Jaipur",
          "name:de": "Gandhinagar Jaipur Gleis 2",
          "public_transport": "stop_position",
          "railway": "stop",
          "ref": "2",
          "train": "yes"
        }
      },
      {
        "type": "node",
        "id": 11762982185,
        "lat": 26.8359403,
        "lon": 75.793404,
        "tags": {
          "amenity": "fuel",
          "brand": "Hindustan Petroleum",
          "brand:wikidata": "Q1619375",
          "name": "HP",
          "official_name": "Hindustan Petroleum"
        }
      }
    ]
  }
}