{
  "pois_1km": {
    "version": 0.6,
    "generator": "Overpass API 0.7.62.8 e802775f",
    "osm3s": {
      "timestamp_osm_base": "2025-09-07T13:24:00Z",
      "copyright": "The data included in this document is from www.openstreetmap.org. The data is made available under ODbL."
    },
    "elements": [
      {
        "type": "node",
        "id": 7025429713,
        "lat": 26.9021049,
        "lon": 75.8416218,
        "tags": {
          "addr:district": "Jaipur",
          "addr:full": "Sethi Colony",
          "addr:postcode": "302004",
          "addr:state": "Rajasthan",
          "amenity": "hospital",
          "healthcare": "hospital",
          "name": "Satellite Hospital, Sethi Colony , JAIPUR",
          "source": "OpenGovernmentData"
        }
      },
      {
        "type": "node",
        "id": 7030653289,
        "lat": 26.8968605,
        "lon": 75.8372819,
        "tags": {
          "addr:district": "Jaipur",
          "addr:full": "605-606,Shanti Path, Sindhi Colony, Raja Park",
          "addr:postcode": "302004",
          "addr:state": "Rajasthan",
          "amenity": "hospital",
          "healthcare": "hospital",
          "name": "Jain Hospital, Jaipur",
          "source": "OpenGovernmentData"
        }
      },
      {
        "type": "node",
        "id": 7035249243,
        "lat": 26.899285,
        "lon": 75.8339544,
        "tags": {
          "addr:district": "Jaipur",
          "addr:full": "B-15, Govind Marg Opp Ice Factory Adarsh Nagar",
          "addr:postcode": "302004",
          "addr:state": "Rajasthan",
          "amenity": "hospital",
          "healthcare": "hospital",
          "name": "Royal Eye Care and Research Centre",
          "source": "OpenGovernmentData"
        }
      },
      {
        "type": "node",
        "id": 7035250092,
        "lat": 26.8995779,
        "lon": 75.8318694,
        "tags": {
          "addr:district": "Jaipur",
          "addr:full": "692,Frontier Colony,Adarsh Nagar,Near Baraf Khana Pani Ki Tanki",
          "addr:postcode": "302004",
          "addr:state": "Rajasthan",
          "amenity": "hospital",
          "healthcare": "hospital",
          "name": "Chawla Hospital and Laparoscopy Centre",
          "source": "OpenGovernmentData"
        }
      },
      {
        "type": "node",
        "id": 7038990174,
        "lat": 26.9032106,
        "lon": 75.8354983,
        "tags": {
          "addr:district": "Jaipur",
          "addr:full": "B-10, Janta Colony , Jaipur",
          "addr:postcode": "302004",
          "addr:state": "Rajasthan",
          "amenity": "hospital",
          "healthcare": "hospital",
          "name": "Pragati Orthopaedic and General Hospital",
          "source": "OpenGovernmentData"
        }
      },
      {
        "type": "node",
        "id": 7279102587,
        "lat": 26.903108,
        "lon": 75.838214,
        "tags": {
          "addr:district": "Jaipur",
          "addr:full": "Opposite Pink Square Mall, Rajapark Road, Sethi Colony, Jaipur",
          "addr:postcode": "302004",
          "addr:state": "Rajasthan",
          "amenity": "hospital",
          "healthcare": "hospital",
          "name": "Government Hospital",
          "source": "OpenGovernmentData"
        }
      },
      {
        "type": "node",
        "id": 7698578047,
        "lat": 26.9064303,
        "lon": 75.8347373,
        "tags": {
          "addr:district": "Jaipur",
          "addr:full": "Dicazo Road, Jaipur",
          "addr:postcode": "302007",
          "addr:state": "Rajasthan",
          "amenity": "clinic",
          "healthcare": "clinic",
          "name": "Dr. Dinesh Gupta Wisdom Clinic",
          "source": "Local Knowledge"
        }
      },
      {
        "type": "node",
        "id": 7698578050,
        "lat": 26.8988531,
        "lon": 75.8339104,
        "tags": {
          "addr:district": "Jaipur",
          "addr:full": "Adarsh Nagar",
          "addr:postcode": "302004",
          "addr:state": "Rajasthan",
          "amenity": "hospital",
          "healthcare": "hospital",
          "name": "Mangalam Hospital",
          "source": "Local Knowledge"
        }
      },
      {
        "type": "node",
        "id": 7698578059,
        "lat": 26.9038394,
        "lon": 75.8419883,
        "tags": {
          "addr:district": "Jaipur",
          "addr:full": "Sethi Colony, Jaipur",
          "addr:postcode": "302004",
          "addr:state": "Rajasthan",
          "amenity": "clinic",
          "healthcare": "clinic",
          "name": "Dr. Sanjay Kanodia's Skin Clinic",
          "source": "Local Knowledge"
        }
      },
      {
        "type": "node",
        "id": 7698578065,
        "lat": 26.9077102,
        "lon": 75.8299074,
        "tags": {
          "addr:district": "Jaipur",
          "addr:full": "Adarsh Nagar, Jaipur",
          "addr:postcode": "302007",
          "addr:state": "Rajasthan",
          "amenity": "hospital",
          "healthcare": "hospital",
          "name": "Health Line Hospital",
          "source": "Local Knowledge"
        }
      },
      {
        "type": "node",
        "id": 7698578070,
        "lat": 26.9090859,
        "lon": 75.8332479,
        "tags": {
          "addr:district": "Jaipur",
          "addr:full": "Janata Colony, Jaipur",
          "addr:postcode": "302004",
          "addr:state": "Rajasthan",
          "amenity": "clinic",
          "healthcare": "clinic",
          "name": "Goyalsa Homeo Clinic",
          "source": "Local Knowledge"
        }
      },
      {
        "type": "node",
        "id": 7698578090,
        "lat": 26.9029257,
        "lon": 75.8412089,
        "tags": {
          "addr:district": "Jaipur",
          "addr:full": "Sethi Colony",
          "addr:postcode": "302004",
          "addr:state": "Rajasthan",
          "amenity": "clinic",
          "healthcare": "clinic",
          "name": "Rathi's ENT and Women's Clinic",
          "source": "Local Knowledge"
        }
      },
      {
        "type": "node",
        "id": 8125607613,
        "lat": 26.9031,
        "lon": 75.8365725,
        "tags": {
          "amenity": "cafe",
          "brand": "Cafe Coffee Day",
          "brand:wikidata": "Q5017235",
          "brand:wikipedia": "en:Caf\u00e9 Coffee Day",
          "cuisine": "coffee_shop",
          "name": "Cafe Coffee Day",
          "takeaway": "yes"
        }
      },
      {
        "type": "node",
        "id": 8125618821,
        "lat": 26.9031105,
        "lon": 75.8366548,
        "tags": {
          "amenity": "fast_food",
          "cuisine": "juice",
          "name": "Juicy Fruity"
        }
      },
      {
        "type": "node",
        "id": 8125618822,
        "lat": 26.903362,
        "lon": 75.8368928,
        "tags": {
          "amenity": "food_court",
          "name": "The Food Court"
        }
      },
      {
        "type": "node",
        "id": 8125618823,
        "lat": 26.9032441,
        "lon": 75.8368135,
        "tags": {
          "brand": "Big Bazaar",
          "brand:wikidata": "Q3631008",
          "brand:wikipedia": "en:Big Bazaar",
          "name": "Big Bazaar",
          "shop": "supermarket"
        }
      },
      {
        "type": "node",
        "id": 8125618824,
        "lat": 26.9033096,
        "lon": 75.8368752,
        "tags": {
          "amenity": "fast_food",
          "brand": "Domino's",
          "brand:ks": "\u0688\u0648\u0645\u06cc\u0646\u0648\u0632",
          "brand:pa": "\u0a21\u0a4b\u0a2e\u0a40\u0a28\u0a4b\u0a1c\u0a3c",
          "brand:ur": "\u0688\u0648\u0645\u06cc\u0646\u0648\u0632",
          "brand:wikidata": "Q839466",
          "brand:wikipedia": "en:Domino's Pizza",
          "cuisine": "pizza",
          "name": "Domino's",
          "name:ks": "\u0688\u0648\u0645\u06cc\u0646\u0648\u0632",
          "name:pa": "\u0a21\u0a4b\u0a2e\u0a40\u0a28\u0a4b\u0a1c\u0a3c",
          "name:ur": "\u0688\u0648\u0645\u06cc\u0646\u0648\u0632",
          "takeaway": "yes"
        }
      },
      {
        "type": "node",
        "id": 8125618825,
        "lat": 26.9033299,
        "lon": 75.836829,
        "tags": {
          "amenity": "fast_food",
          "name": "American Grill"
        }
      }
    ]
  },
  "pois_2_5km": {
    "version": 0.6,
    "generator": "Overpass API 0.7.62.8 e802775f",
    "osm3s": {
      "timestamp_osm_base": "2025-09-07T13:24:00Z",
      "copyright": "The data included in this document is from www.openstreetmap.org. The data is made available under ODbL."
    },
    "elements": [
      {
        "type": "node",
        "id": 316944108,
        "lat": 26.9069868,
        "lon": 75.8410928,
        "tags": {
          "bus": "yes",
          "bus_routes": "3, 14, 27, 32",
          "name": "Transport Nagar",
          "public_transport": "stop_position"
        }
      },
      {
        "type": "node",
        "id": 4466633240,
        "lat": 26.9137147,
        "lon": 75.8294774,
        "tags": {
          "amenity": "fuel"
        }
      },
      {
        "type": "node",
        "id": 8035756429,
        "lat": 26.9229693,
        "lon": 75.8267752,
        "tags": {
          "name": "Badi Chaupar",
          "name:hi": "\u092c\u0921\u093c\u0940 \u091a\u094c\u092a\u0921\u093c",
          "network": "Jaipur Metro",
          "note": "Contributors are requested to not edit the \"network\" and the \"operator\" tags. (2023/11/08)",
          "operator": "Jaipur Metro Rail Corporation Limited",
          "public_transport": "stop_position",
          "public_transport:version": "2",
          "railway": "stop",
          "subway": "yes",
          "wikimedia_commons": "Category:Badi Chaupar metro station"
        }
      },
      {
        "type": "node",
        "id": 8044083223,
        "lat": 26.9229585,
        "lon": 75.8268223,
        "tags": {
          "name": "Badi Chaupar",
          "name:hi": "\u092c\u0921\u093c\u0940 \u091a\u094c\u092a\u0921\u093c",
          "network": "Jaipur Metro",
          "note": "Contributors are requested to not edit the \"network\" and the \"operator\" tags. (2023/11/08)",
          "operator": "Jaipur Metro Rail Corporation Limited",
          "public_transport": "station",
          "public_transport:version": "2",
          "railway": "station",
          "shelter": "yes",
          "station": "subway",
          "subway": "yes",
          "wheelchair": "yes",
          "wikidata": "Q20311991",
          "wikipedia": "en:Badi Chaupar metro station"
        }
      },
      {
        "type": "node",
        "id": 8125607612,
        "lat": 26.9027315,
        "lon": 75.8362208,
        "tags": {
          "amenity": "cinema",
          "brand": "INOX Leisure",
          "brand:wikidata": "Q5972349",
          "name": "Inox - Pink Sqaure Mall",
          "short_name": "INOX"
        }
      },
      {
        "type": "node",
        "id": 8125619141,
        "lat": 26.9062009,
        "lon": 75.8426994,
        "tags": {
          "amenity": "fuel",
          "brand": "Indian Oil",
          "brand:wikidata": "Q1289348",
          "brand:wikipedia": "en:Indian Oil Corporation",
          "name": "Indian Oil"
        }
      },
      {
        "type": "node",
        "id": 8137399290,
        "lat": 26.9013887,
        "lon": 75.8440142,
        "tags": {
          "amenity": "fuel"
        }
      },
      {
        "type": "node",
        "id": 8199431307,
        "lat": 26.8976113,
        "lon": 75.8606938,
        "tags": {
          "amenity": "fuel"
        }
      },
      {
        "type": "node",
        "id": 8980629772,
        "lat": 26.9049054,
        "lon": 75.8446913,
        "tags": {
          "construction": "yes",
          "name": "Transport Nagar (u/c) , JAIPUR",
          "network": "Jaipur Metro",
          "note": "Contributors are requested to not edit the \"network\" and the \"operator\" tags. (2023/11/08)",
          "operator": "Jaipur Metro Rail Corporation Limited",
          "public_transport": "stop_position",
          "railway": "stop",
          "subway": "yes"
        }
      },
      {
        "type": "node",
        "id": 10936813194,
        "lat": 26.9136157,
        "lon": 75.8310726,
        "tags": {
          "amenity": "fuel",
          "brand": "Indian Oil",
          "brand:wikidata": "Q1289348",
          "name": "Indian Oil",
          "operator": "Indian Oil"
        }
      },
      {
        "type": "node",
        "id": 10936829402,
        "lat": 26.9130655,
        "lon": 75.8344291,
        "tags": {
          "amenity": "fuel"
        }
      }
    ]
  }
}