{
  "pois_1km": {
    "version": 0.6,
    "generator": "Overpass API 0.7.62.8 e802775f",
    "osm3s": {
      "timestamp_osm_base": "2025-09-07T13:02:36Z",
      "copyright": "The data included in this document is from www.openstreetmap.org. The data is made available under ODbL."
    },
    "elements": [
      {
        "type": "node",
        "id": 5074575922,
        "lat": 26.9237826,
        "lon": 75.820574,
        "tags": {
          "amenity": "restaurant",
          "capacity": "50",
          "cuisine": "regional",
          "name": "Midtown Multicuisine Restaurant",
          "name:en": "Midtown multi cuisine restaurant"
        }
      },
      {
        "type": "node",
        "id": 5344204721,
        "lat": 26.925004,
        "lon": 75.8159025,
        "tags": {
          "amenity": "fast_food",
          "name": "Street food and chai corner"
        }
      },
      {
        "type": "node",
        "id": 5579575445,
        "lat": 26.9342829,
        "lon": 75.8253191,
        "tags": {
          "amenity": "cafe",
          "name:en": "Nice Cafe (it's the name)"
        }
      },
      {
        "type": "node",
        "id": 5579575531,
        "lat": 26.930591,
        "lon": 75.8278325,
        "tags": {
          "amenity": "restaurant",
          "cuisine": "chinese;indian",
          "name:en": "Venus Restaurant"
        }
      },
      {
        "type": "node",
        "id": 6262869885,
        "lat": 26.9263484,
        "lon": 75.8276354,
        "tags": {
          "addr:housenumber": "97",
          "addr:street": "Hawa Mahal Road",
          "amenity": "restaurant",
          "cuisine": "chinese",
          "name:en": "Marky Momos",
          "phone": "+919783640555",
          "website": "https://www.markymomos.in/"
        }
      },
      {
        "type": "node",
        "id": 6780596585,
        "lat": 26.9214409,
        "lon": 75.8192213,
        "tags": {
          "amenity": "fast_food",
          "name": "Tasty King",
          "name:en": "Tasty King (cheap, quick and delicious)"
        }
      },
      {
        "type": "node",
        "id": 6955659685,
        "lat": 26.9321254,
        "lon": 75.8177146,
        "tags": {
          "amenity": "atm"
        }
      },
      {
        "type": "node",
        "id": 6955659785,
        "lat": 26.9322611,
        "lon": 75.8168737,
        "tags": {
          "amenity": "atm",
          "opening_hours": "Mo-Su 08:00-22:00",
          "operator": "SBI Bank"
        }
      },
      {
        "type": "node",
        "id": 7025306774,
        "lat": 26.9204054,
        "lon": 75.821414,
        "tags": {
          "addr:district": "Jaipur",
          "addr:full": "4-J-5, Jawahar Nagar, Choura Rasta",
          "addr:postcode": "302003",
          "addr:state": "Rajasthan",
          "amenity": "hospital",
          "healthcare": "hospital",
          "name": "Amar Jain Hospital",
          "source": "OpenGovernmentData"
        }
      },
      {
        "type": "node",
        "id": 7035294692,
        "lat": 26.9303934,
        "lon": 75.8203457,
        "tags": {
          "addr:district": "Jaipur",
          "addr:full": "Near Chaugan Stadium, Tripolia Bazar, Gangori Bazaar",
          "addr:postcode": "302001",
          "addr:state": "Rajasthan",
          "addr:subdistrict": "Jaipur",
          "amenity": "hospital",
          "name": "Gangori Hospital",
          "source": "OpenGovernmentData"
        }
      },
      {
        "type": "node",
        "id": 7040054427,
        "lat": 26.9310577,
        "lon": 75.8198824,
        "tags": {
          "addr:district": "Jaipur",
          "addr:full": "Gangori Bazar",
          "addr:postcode": "302001",
          "addr:state": "Rajasthan",
          "amenity": "clinic",
          "name": "Malpani Nursing Home",
          "source": "OpenGovernmentData"
        }
      },
      {
        "type": "node",
        "id": 7086493586,
        "lat": 26.9289947,
        "lon": 75.8252613,
        "tags": {
          "addr:full": "Near GovindTemple, Jalebi Chowk, Badi Chopad, J.D.A. Market, Jaipur",
          "amenity": "restaurant",
          "check_date": "2024-01-07",
          "cuisine": "indian",
          "diet:vegetarian": "yes",
          "name:en": "Govindam Retreat",
          "phone": "+91 99299 49258"
        }
      },
      {
        "type": "node",
        "id": 7159785285,
        "lat": 26.921071,
        "lon": 75.822143,
        "tags": {
          "amenity": "restaurant",
          "name": "Samrat street food"
        }
      },
      {
        "type": "node",
        "id": 7250139186,
        "lat": 26.9266184,
        "lon": 75.8269278,
        "tags": {
          "addr:postcode": "302002",
          "addr:street": "Kabutro ka chowk",
          "amenity": "restaurant",
          "cuisine": "indian;international",
          "email": "r@jaipurecovillage.com",
          "internet_access": "wlan",
          "name": "Blue door Cafe  , Jaipur",
          "name:en": "Blue Door Cafe",
          "name:fr": "Caf\u00e9 Veda",
          "opening_hours": "Su,Sa,Fr,Th,Tu-We,Mo 09:30-22:00",
          "phone": "+91 97841 04113"
        }
      },
      {
        "type": "node",
        "id": 7698578013,
        "lat": 26.9246508,
        "lon": 75.8115029,
        "tags": {
          "addr:district": "Jaipur",
          "addr:postcode": "302001",
          "addr:state": "Rajasthan",
          "amenity": "clinic",
          "healthcare": "clinic",
          "name": "Korani Clinic",
          "source": "Local Knowledge"
        }
      },
      {
        "type": "node",
        "id": 7698578016,
        "lat": 26.9222666,
        "lon": 75.8130558,
        "tags": {
          "addr:district": "Jaipur",
          "addr:full": "Chandpole Bazar, Chandpole",
          "addr:postcode": "302001",
          "addr:state": "Rajasthan",
          "amenity": "clinic",
          "healthcare": "clinic",
          "name": "Shree Homoeo Clinic",
          "source": "Local Knowledge"
        }
      },
      {
        "type": "node",
        "id": 7698578022,
        "lat": 26.9251063,
        "lon": 75.8112535,
        "tags": {
          "addr:district": "Jaipur",
          "addr:full": "Chandpole",
          "addr:postcode": "302001",
          "addr:state": "Rajasthan",
          "amenity": "hospital",
          "healthcare": "hospital",
          "name": "Pink City Fracture & General Hospital",
          "source": "Local Knowledge"
        }
      },
      {
        "type": "node",
        "id": 7698578025,
        "lat": 26.924617,
        "lon": 75.810301,
        "tags": {
          "addr:district": "Jaipur",
          "addr:full": "Chandpol Bazar, Chandpole",
          "addr:postcode": "302001",
          "addr:state": "Rajasthan",
          "amenity": "clinic",
          "healthcare": "clinic",
          "name": "Shifa Health Clinic",
          "source": "Local Knowledge"
        }
      },
      {
        "type": "node",
        "id": 7698578032,
        "lat": 26.9254445,
        "lon": 75.8102949,
        "tags": {
          "addr:district": "Jaipur",
          "addr:full": "Chandpole Bazar, Chandpole, Pink City",
          "addr:postcode": "302001",
          "addr:state": "Rajasthan",
          "amenity": "hospital",
          "healthcare": "hospital",
          "name": "New life Hospital",
          "source": "Local Knowledge"
        }
      },
      {
        "type": "node",
        "id": 7698578033,
        "lat": 26.9208197,
        "lon": 75.8222971,
        "tags": {
          "addr:district": "Jaipur",
          "addr:full": "Vishwesharji",
          "addr:postcode": "302003",
          "addr:state": "Rajasthan",
          "amenity": "clinic",
          "healthcare": "clinic",
          "name": "Shiva Homeo Clinic",
          "source": "Local Knowledge"
        }
      },
      {
        "type": "node",
        "id": 7698578061,
        "lat": 26.9230178,
        "lon": 75.8164908,
        "tags": {
          "addr:district": "Jaipur",
          "addr:full": "Chandpole Bazar, Chandpole",
          "addr:postcode": "302001",
          "addr:state": "Rajasthan",
          "amenity": "clinic",
          "healthcare": "clinic",
          "name": "Mital Clinic",
          "source": "Local Knowledge"
        }
      },
      {
        "type": "node",
        "id": 7698578067,
        "lat": 26.9272446,
        "lon": 75.819232,
        "tags": {
          "addr:district": "Jaipur",
          "addr:full": "Gangori Bazaar",
          "addr:postcode": "302002",
          "addr:state": "Rajasthan",
          "amenity": "hospital",
          "name": "Solanki Hospital",
          "source": "Local Knowledge"
        }
      },
      {
        "type": "node",
        "id": 7698578068,
        "lat": 26.9260291,
        "lon": 75.8171084,
        "tags": {
          "addr:district": "Jaipur",
          "addr:full": "Ramganj",
          "addr:postcode": "302003",
          "addr:state": "Rajasthan",
          "amenity": "clinic",
          "name": "Dr. Sitaram Clinic",
          "source": "Local Knowledge"
        }
      },
      {
        "type": "node",
        "id": 7698578074,
        "lat": 26.9225169,
        "lon": 75.8106177,
        "tags": {
          "addr:district": "Jaipur",
          "addr:full": "Chandpole, Jalupura",
          "addr:postcode": "302001",
          "addr:state": "Rajasthan",
          "amenity": "clinic",
          "healthcare": "clinic",
          "name": "Rajdhani Dental & General Clinic",
          "source": "Local Knowledge"
        }
      },
      {
        "type": "node",
        "id": 7698578076,
        "lat": 26.920188,
        "lon": 75.821831,
        "tags": {
          "addr:district": "Jaipur",
          "addr:full": "Tripoliya Market, Chaura Rasta",
          "addr:postcode": "302002",
          "addr:state": "Rajasthan",
          "amenity": "clinic",
          "healthcare": "clinic",
          "name": "Sri Bhardwaj Clinic",
          "source": "Local Knowledge"
        }
      },
      {
        "type": "node",
        "id": 7698578079,
        "lat": 26.9257317,
        "lon": 75.8170342,
        "tags": {
          "addr:district": "Jaipur",
          "addr:full": "Chandpole, Jaipur",
          "addr:postcode": "302001",
          "addr:state": "Rajasthan",
          "amenity": "clinic",
          "name": "Care Clinic",
          "source": "Local Knowledge"
        }
      },
      {
        "type": "node",
        "id": 7698578082,
        "lat": 26.927028,
        "lon": 75.8161567,
        "tags": {
          "addr:district": "Jaipur",
          "addr:full": "Chandpole Bazar, Jaipur",
          "addr:postcode": "302001",
          "addr:state": "Rajasthan",
          "amenity": "clinic",
          "name": "Jaju Clinic",
          "source": "Local Knowledge"
        }
      },
      {
        "type": "node",
        "id": 7698578084,
        "lat": 26.9313725,
        "lon": 75.8186596,
        "tags": {
          "addr:district": "Jaipur",
          "addr:full": "Gangori Bazar, Jaipur",
          "addr:postcode": "302001",
          "addr:state": "Rajasthan",
          "amenity": "doctors",
          "name": "Dr. Riya Jain",
          "source": "Local Knowledge"
        }
      },
      {
        "type": "node",
        "id": 7698578100,
        "lat": 26.9212243,
        "lon": 75.8137107,
        "tags": {
          "addr:district": "Jaipur",
          "addr:full": "Chandpole, Jalupura",
          "addr:postcode": "302001",
          "addr:state": "Rajasthan",
          "amenity": "clinic",
          "healthcare": "clinic",
          "name": "Manohar Clinic",
          "source": "Local Knowledge"
        }
      },
      {
        "type": "node",
        "id": 10574350310,
        "lat": 26.9223469,
        "lon": 75.8223161,
        "tags": {
          "amenity": "restaurant",
          "cuisine": "local",
          "name:en": "Shree Gopi Bhojnalaya (Cheap and good Vegetarian Food)"
        }
      },
      {
        "type": "node",
        "id": 10936840309,
        "lat": 26.9313498,
        "lon": 75.8249067,
        "tags": {
          "leisure": "playground"
        }
      },
      {
        "type": "node",
        "id": 11533709369,
        "lat": 26.9239758,
        "lon": 75.8155246,
        "tags": {
          "amenity": "cafe",
          "name:en": "The Pizza Unlimited"
        }
      },
      {
        "type": "node",
        "id": 11693203801,
        "lat": 26.923939,
        "lon": 75.8230288,
        "tags": {
          "amenity": "atm",
          "brand": "ICICI Bank",
          "brand:en": "ICICI Bank",
          "brand:wikidata": "Q1653258",
          "currency:INR": "yes",
          "drive_through": "no",
          "indoor": "yes",
          "note": "Contributors are requested to not edit the \"brand\", \"brand:en\", \"brand:wikidata\", \"operator\", \"operator:en\" and \"operator:wikidata\" tags. (2025/03/03)",
          "opening_hours": "24/7",
          "operator": "ICICI Bank",
          "operator:en": "ICICI Bank",
          "operator:wikidata": "Q1653258",
          "short_name": "ICICI"
        }
      },
      {
        "type": "node",
        "id": 11722176171,
        "lat": 26.9266401,
        "lon": 75.8088945,
        "tags": {
          "amenity": "food_court",
          "cuisine": "Rajasthani",
          "diet:vegetarian": "only",
          "level": "0",
          "name": "Sharma Kachori Wallaz",
          "wheelchair": "no"
        }
      },
      {
        "type": "node",
        "id": 11763678169,
        "lat": 26.9238475,
        "lon": 75.824011,
        "tags": {
          "addr:housenumber": "125",
          "addr:street": "Tripolia Bazaar",
          "amenity": "cafe",
          "cuisine": "cake;coffee_shop",
          "internet_access": "wlan",
          "name": "NOTHING BEFORE COFFEE"
        }
      },
      {
        "type": "node",
        "id": 12361795404,
        "lat": 26.9241837,
        "lon": 75.8203002,
        "tags": {
          "amenity": "cafe",
          "name": "chai"
        }
      },
      {
        "type": "node",
        "id": 12361795408,
        "lat": 26.9277497,
        "lon": 75.8280203,
        "tags": {
          "amenity": "fast_food",
          "name": "Samosa"
        }
      },
      {
        "type": "node",
        "id": 12361795503,
        "lat": 26.9248476,
        "lon": 75.8167048,
        "tags": {
          "amenity": "restaurant"
        }
      },
      {
        "type": "node",
        "id": 12361795505,
        "lat": 26.9264938,
        "lon": 75.827716,
        "tags": {
          "amenity": "cafe",
          "name": "Crazy mood Coffee"
        }
      },
      {
        "type": "node",
        "id": 12361796101,
        "lat": 26.9249215,
        "lon": 75.8261454,
        "tags": {
          "amenity": "atm",
          "brand": "ICICI Bank",
          "brand:en": "ICICI Bank",
          "brand:wikidata": "Q1653258",
          "currency:INR": "yes",
          "drive_through": "no",
          "indoor": "yes",
          "note": "Contributors are requested to not edit the \"brand\", \"brand:en\", \"brand:wikidata\", \"operator\", \"operator:en\" and \"operator:wikidata\" tags. (2025/03/03)",
          "opening_hours": "24/7",
          "operator": "ICICI Bank",
          "operator:en": "ICICI Bank",
          "operator:wikidata": "Q1653258",
          "short_name": "ICICI"
        }
      },
      {
        "type": "node",
        "id": 12365120007,
        "lat": 26.9343608,
        "lon": 75.817633,
        "tags": {
          "amenity": "fast_food"
        }
      },
      {
        "type": "node",
        "id": 12365223602,
        "lat": 26.9321609,
        "lon": 75.810348,
        "tags": {
          "amenity": "pharmacy"
        }
      }
    ]
  },
  "pois_2_5km": {
    "version": 0.6,
    "generator": "Overpass API 0.7.62.8 e802775f",
    "osm3s": {
      "timestamp_osm_base": "2025-09-07T13:02:36Z",
      "copyright": "The data included in this document is from www.openstreetmap.org. The data is made available under ODbL."
    },
    "elements": [
      {
        "type": "node",
        "id": 1064270823,
        "lat": 26.9225949,
        "lon": 75.7999012,
        "tags": {
          "name": "Sindhi Camp",
          "name:hi": "\u0938\u093f\u0928\u094d\u0927\u0940 \u0915\u0948\u0902\u092a",
          "network": "Jaipur Metro",
          "note": "Contributors are requested to not edit the \"network\" and the \"operator\" tags. (2023/11/08)",
          "operator": "Jaipur Metro Rail Corporation Limited",
          "public_transport": "stop_position",
          "public_transport:version": "2",
          "railway": "stop",
          "ref": "SICP",
          "shelter": "yes",
          "subway": "yes",
          "wheelchair": "yes"
        }
      },
      {
        "type": "node",
        "id": 1064270856,
        "lat": 26.9235814,
        "lon": 75.8005946,
        "tags": {
          "amenity": "bus_station",
          "bus": "yes",
          "name": "Sindhi Camp",
          "name:en": "Jaipur Main Bus station",
          "operator": "RSRTC",
          "public_transport": "station"
        }
      },
      {
        "type": "node",
        "id": 1064270915,
        "lat": 26.9265583,
        "lon": 75.8079145,
        "tags": {
          "name": "Chandpole",
          "name:hi": "\u091a\u093e\u0902\u0926\u092a\u094b\u0932",
          "network": "Jaipur Metro",
          "note": "Contributors are requested to not edit the \"network\" and the \"operator\" tags. (2023/11/08)",
          "operator": "Jaipur Metro Rail Corporation Limited",
          "public_transport": "stop_position",
          "public_transport:version": "2",
          "railway": "stop",
          "ref": "CDPE",
          "shelter": "yes",
          "subway": "yes",
          "wheelchair": "yes"
        }
      },
      {
        "type": "node",
        "id": 3083894933,
        "lat": 26.9169424,
        "lon": 75.8169212,
        "tags": {
          "amenity": "fuel",
          "brand": "Hindustan Petroleum",
          "brand:wikidata": "Q1619375",
          "name": "HP",
          "official_name": "Hindustan Petroleum"
        }
      },
      {
        "type": "node",
        "id": 3139919925,
        "lat": 26.924666,
        "lon": 75.8184914,
        "tags": {
          "elevator": "yes",
          "name": "Choti Chaupar",
          "name:hi": "\u091b\u094b\u091f\u0940 \u091a\u094c\u092a\u0921\u093c",
          "network": "Jaipur Metro",
          "note": "Contributors are requested to not edit the \"network\" and the \"operator\" tags. (2023/11/08)",
          "operator": "Jaipur Metro Rail Corporation Limited",
          "public_transport": "stop_position",
          "public_transport:version": "2",
          "railway": "stop",
          "ref": "CDPE",
          "shelter": "yes",
          "subway": "yes",
          "wheelchair": "yes"
        }
      },
      {
        "type": "node",
        "id": 3677353031,
        "lat": 26.9169156,
        "lon": 75.8063152,
        "tags": {
          "amenity": "fuel",
          "brand": "Hindustan Petroleum",
          "brand:wikidata": "Q1619375",
          "name": "HP",
          "official_name": "Hindustan Petroleum"
        }
      },
      {
        "type": "node",
        "id": 4466633240,
        "lat": 26.9137147,
        "lon": 75.8294774,
        "tags": {
          "amenity": "fuel"
        }
      },
      {
        "type": "node",
        "id": 5391526672,
        "lat": 26.9226849,
        "lon": 75.7998222,
        "tags": {
          "name": "Sindhi Camp",
          "name:hi": "\u0938\u093f\u0928\u094d\u0927\u0940 \u0915\u0948\u0902\u092a",
          "network": "Jaipur Metro",
          "note": "Contributors are requested to not edit the \"network\" and the \"operator\" tags. (2023/11/08)",
          "operator": "Jaipur Metro Rail Corporation Limited",
          "public_transport": "station",
          "public_transport:version": "2",
          "railway": "station",
          "ref": "SICP",
          "shelter": "yes",
          "station": "subway",
          "subway": "yes",
          "wheelchair": "yes",
          "wikidata": "Q28180440",
          "wikipedia": "en:Sindhi Camp metro station"
        }
      },
      {
        "type": "node",
        "id": 5436562222,
        "lat": 26.9331132,
        "lon": 75.7963001,
        "tags": {
          "amenity": "fuel",
          "brand": "Hindustan Petroleum",
          "brand:wikidata": "Q1619375",
          "name": "HP",
          "name:en": "HP",
          "official_name": "Hindustan Petroleum"
        }
      },
      {
        "type": "node",
        "id": 6133852985,
        "lat": 26.923305,
        "lon": 75.8006345,
        "tags": {
          "addr:postcode": "302006",
          "amenity": "bus_station",
          "bus": "yes",
          "name": "Sindhi Camp Bus Stand",
          "public_transport": "station"
        }
      },
      {
        "type": "node",
        "id": 6630557586,
        "lat": 26.9231668,
        "lon": 75.7937215,
        "tags": {
          "amenity": "fuel",
          "brand": "Bharat Petroleum",
          "brand:wikidata": "Q854826",
          "name": "Bharat Petroleum",
          "name:en": "Bharat Petroleum"
        }
      },
      {
        "type": "node",
        "id": 6781585323,
        "lat": 26.9225493,
        "lon": 75.7999247,
        "tags": {
          "name": "Sindhi Camp",
          "name:hi": "\u0938\u093f\u0928\u094d\u0927\u0940 \u0915\u0948\u0902\u092a",
          "network": "Jaipur Metro",
          "note": "Contributors are requested to not edit the \"network\" and the \"operator\" tags. (2023/11/08)",
          "operator": "Jaipur Metro Rail Corporation Limited",
          "public_transport": "stop_position",
          "public_transport:version": "2",
          "railway": "stop",
          "ref": "SICP",
          "shelter": "yes",
          "subway": "yes",
          "wheelchair": "yes"
        }
      },
      {
        "type": "node",
        "id": 8035756429,
        "lat": 26.9229693,
        "lon": 75.8267752,
        "tags": {
          "name": "Badi Chaupar",
          "name:hi": "\u092c\u0921\u093c\u0940 \u091a\u094c\u092a\u0921\u093c",
          "network": "Jaipur Metro",
          "note": "Contributors are requested to not edit the \"network\" and the \"operator\" tags. (2023/11/08)",
          "operator": "Jaipur Metro Rail Corporation Limited",
          "public_transport": "stop_position",
          "public_transport:version": "2",
          "railway": "stop",
          "subway": "yes",
          "wikimedia_commons": "Category:Badi Chaupar metro station"
        }
      },
      {
        "type": "node",
        "id": 8044083221,
        "lat": 26.9266005,
        "lon": 75.807892,
        "tags": {
          "name": "Chandpole",
          "name:hi": "\u091a\u093e\u0902\u0926\u092a\u094b\u0932",
          "network": "Jaipur Metro",
          "note": "Contributors are requested to not edit the \"network\" and the \"operator\" tags. (2023/11/08)",
          "operator": "Jaipur Metro Rail Corporation Limited",
          "public_transport": "station",
          "public_transport:version": "2",
          "railway": "station",
          "ref": "CDPE",
          "shelter": "yes",
          "station": "subway",
          "subway": "yes",
          "wheelchair": "yes",
          "wikidata": "Q28180449",
          "wikipedia": "en:Chandpole metro station"
        }
      },
      {
        "type": "node",
        "id": 8044083222,
        "lat": 26.9247317,
        "lon": 75.8184589,
        "tags": {
          "name": "Choti Chaupar",
          "name:hi": "\u091b\u094b\u091f\u0940 \u091a\u094c\u092a\u0921\u093c",
          "network": "Jaipur Metro",
          "note": "Contributors are requested to not edit the \"network\" and the \"operator\" tags. (2023/11/08)",
          "operator": "Jaipur Metro Rail Corporation Limited",
          "public_transport": "station",
          "public_transport:version": "2",
          "railway": "station",
          "ref": "CDPE",
          "shelter": "yes",
          "station": "subway",
          "subway": "yes",
          "wheelchair": "yes",
          "wikidata": "Q20717371",
          "wikipedia": "en:Chhoti Chaupar metro station"
        }
      },
      {
        "type": "node",
        "id": 8044083223,
        "lat": 26.9229585,
        "lon": 75.8268223,
        "tags": {
          "name": "Badi Chaupar",
          "name:hi": "\u092c\u0921\u093c\u0940 \u091a\u094c\u092a\u0921\u093c",
          "network": "Jaipur Metro",
          "note": "Contributors are requested to not edit the \"network\" and the \"operator\" tags. (2023/11/08)",
          "operator": "Jaipur Metro Rail Corporation Limited",
          "public_transport": "station",
          "public_transport:version": "2",
          "railway": "station",
          "shelter": "yes",
          "station": "subway",
          "subway": "yes",
          "wheelchair": "yes",
          "wikidata": "Q20311991",
          "wikipedia": "en:Badi Chaupar metro station"
        }
      },
      {
        "type": "node",
        "id": 8075691873,
        "lat": 26.9188762,
        "lon": 75.7982521,
        "tags": {
          "bus": "yes",
          "highway": "bus_stop",
          "name": "Ganpati plaza",
          "public_transport": "stop_position"
        }
      },
      {
        "type": "node",
        "id": 8075691874,
        "lat": 26.9189549,
        "lon": 75.7983159,
        "tags": {
          "bus": "yes",
          "highway": "bus_stop",
          "name": "Ganpati plaza",
          "public_transport": "stop_position"
        }
      },
      {
        "type": "node",
        "id": 8665176577,
        "lat": 26.91708,
        "lon": 75.8006737,
        "tags": {
          "amenity": "fuel"
        }
      },
      {
        "type": "node",
        "id": 10904794879,
        "lat": 26.9154253,
        "lon": 75.8100827,
        "tags": {
          "addr:housenumber": "C-16, Bhagwan Das Rd, Panch Batti, C Scheme, Ashok Nagar, Jaipur, Rajasthan 302001",
          "amenity": "cinema",
          "name": "raj mandir cinemas"
        }
      },
      {
        "type": "node",
        "id": 10936787897,
        "lat": 26.9167126,
        "lon": 75.8048644,
        "tags": {
          "amenity": "fuel",
          "brand": "Hindustan Petroleum",
          "brand:wikidata": "Q1619375",
          "name": "HP",
          "official_name": "Hindustan Petroleum"
        }
      },
      {
        "type": "node",
        "id": 10936795789,
        "lat": 26.9321131,
        "lon": 75.832446,
        "tags": {
          "amenity": "fuel",
          "brand": "BP"
        }
      },
      {
        "type": "node",
        "id": 10936810154,
        "lat": 26.93144,
        "lon": 75.8321956,
        "tags": {
          "amenity": "fuel",
          "brand": "HP"
        }
      },
      {
        "type": "node",
        "id": 10936813194,
        "lat": 26.9136157,
        "lon": 75.8310726,
        "tags": {
          "amenity": "fuel",
          "brand": "Indian Oil",
          "brand:wikidata": "Q1289348",
          "name": "Indian Oil",
          "operator": "Indian Oil"
        }
      },
      {
        "type": "node",
        "id": 10936829402,
        "lat": 26.9130655,
        "lon": 75.8344291,
        "tags": {
          "amenity": "fuel"
        }
      },
      {
        "type": "node",
        "id": 11590790757,
        "lat": 26.9341212,
        "lon": 75.7954262,
        "tags": {
          "amenity": "fuel",
          "brand": "Indian Oil",
          "brand:wikidata": "Q1289348",
          "name": "Indian Oil"
        }
      }
    ]
  }
}