{
  "pois_1km": {
    "version": 0.6,
    "generator": "Overpass API 0.7.62.8 e802775f",
    "osm3s": {
      "timestamp_osm_base": "2025-09-07T13:41:30Z",
      "copyright": "The data included in this document is from www.openstreetmap.org. The data is made available under ODbL."
    },
    "elements": [
      {
        "type": "node",
        "id": 7035008372,
        "lat": 26.8019159,
        "lon": 75.8131447,
        "tags": {
          "addr:district": "Jaipur",
          "addr:full": "Sector-8, Pratapnagar, Sanganer",
          "addr:postcode": "302033",
          "addr:state": "Rajasthan",
          "amenity": "hospital",
          "name": "Gopinath Hospital",
          "source": "OpenGovernmentData"
        }
      },
      {
        "type": "node",
        "id": 7040094579,
        "lat": 26.7949954,
        "lon": 75.8241633,
        "tags": {
          "addr:district": "Jaipur",
          "addr:full": "Sector-28, Khumba Marg,Pratap Nagar, Sanganager",
          "addr:postcode": "302033",
          "addr:state": "Rajasthan",
          "amenity": "hospital",
          "emergency": "yes",
          "healthcare": "hospital",
          "name": "Narayana Multispeciality Hospital",
          "source": "OpenGovernmentData"
        }
      },
      {
        "type": "node",
        "id": 7694995601,
        "lat": 26.7904461,
        "lon": 75.8156187,
        "tags": {
          "addr:district": "Jaipur",
          "addr:full": "Govardhan Nagar, Jaipur",
          "addr:postcode": "302022",
          "addr:state": "Rajasthan",
          "amenity": "clinic",
          "name": "Balaji Clinic",
          "source": "Local Knowledge"
        }
      },
      {
        "type": "node",
        "id": 7694995644,
        "lat": 26.7892332,
        "lon": 75.8117096,
        "tags": {
          "addr:district": "Jaipur",
          "addr:full": "Krashi Nagar, Govardhan Nagar",
          "addr:postcode": "303906",
          "addr:state": "Rajasthan",
          "amenity": "clinic",
          "name": "Raj Clinic",
          "source": "Local Knowledge"
        }
      },
      {
        "type": "node",
        "id": 7694995648,
        "lat": 26.7916353,
        "lon": 75.8171825,
        "tags": {
          "addr:district": "Jaipur",
          "addr:full": "Goverdhan Nagar, Tonk Road, Jaipur",
          "addr:postcode": "302018",
          "addr:state": "Rajasthan",
          "amenity": "clinic",
          "name": "Janta Clinics",
          "source": "Local Knowledge"
        }
      },
      {
        "type": "node",
        "id": 7695122976,
        "lat": 26.8030007,
        "lon": 75.8146164,
        "tags": {
          "addr:district": "Jaipur",
          "addr:full": "Pratap Nagar",
          "addr:postcode": "302033",
          "addr:state": "Rajasthan",
          "amenity": "doctors",
          "name": "Dr. Pradyumn Sharma",
          "source": "Local Knowledge"
        }
      },
      {
        "type": "node",
        "id": 7695123046,
        "lat": 26.8017121,
        "lon": 75.8226299,
        "tags": {
          "addr:district": "Jaipur",
          "addr:full": "Sanganer, Sector 8, Pratap Nagar",
          "addr:postcode": "302033",
          "addr:state": "Rajasthan",
          "amenity": "hospital",
          "name": "Balaji ENT Hospital",
          "source": "Local Knowledge"
        }
      }
    ]
  },
  "pois_2_5km": {
    "version": 0.6,
    "generator": "Overpass API 0.7.62.8 e802775f",
    "osm3s": {
      "timestamp_osm_base": "2025-09-07T13:41:30Z",
      "copyright": "The data included in this document is from www.openstreetmap.org. The data is made available under ODbL."
    },
    "elements": [
      {
        "type": "node",
        "id": 8044543831,
        "lat": 26.782162,
        "lon": 75.83293,
        "tags": {
          "amenity": "fuel",
          "brand": "Hindustan Petroleum",
          "brand:wikidata": "Q1619375",
          "brand:wikipedia": "en:Hindustan Petroleum",
          "name": "HP",
          "official_name": "Hindustan Petroleum"
        }
      }
    ]
  }
}