{
  "pois_1km": {
    "version": 0.6,
    "generator": "Overpass API 0.7.62.8 e802775f",
    "osm3s": {
      "timestamp_osm_base": "2025-09-07T13:43:30Z",
      "copyright": "The data included in this document is from www.openstreetmap.org. The data is made available under ODbL."
    },
    "elements": [
      {
        "type": "node",
        "id": 7035008372,
        "lat": 26.8019159,
        "lon": 75.8131447,
        "tags": {
          "addr:district": "Jaipur",
          "addr:full": "Sector-8, Pratapnagar, Sanganer",
          "addr:postcode": "302033",
          "addr:state": "Rajasthan",
          "amenity": "hospital",
          "name": "Gopinath Hospital",
          "source": "OpenGovernmentData"
        }
      },
      {
        "type": "node",
        "id": 7039989682,
        "lat": 26.8042285,
        "lon": 75.8093964,
        "tags": {
          "addr:district": "Jaipur",
          "addr:full": "Sector-6, Zone -68 Pratap Nagar Sanganer",
          "addr:postcode": "302033",
          "addr:state": "Rajasthan",
          "amenity": "hospital",
          "name": "Prakash Mother and Child Hospital",
          "source": "OpenGovernmentData"
        }
      },
      {
        "type": "node",
        "id": 7040325916,
        "lat": 26.8025515,
        "lon": 75.8086145,
        "tags": {
          "addr:district": "Jaipur",
          "addr:full": "Sector 5, Tork Road, Pratap Nagar, Sanganer",
          "addr:postcode": "302005",
          "addr:state": "Rajasthan",
          "amenity": "hospital",
          "name": "Star Women and General Hospital",
          "source": "OpenGovernmentData"
        }
      },
      {
        "type": "node",
        "id": 7695122976,
        "lat": 26.8030007,
        "lon": 75.8146164,
        "tags": {
          "addr:district": "Jaipur",
          "addr:full": "Pratap Nagar",
          "addr:postcode": "302033",
          "addr:state": "Rajasthan",
          "amenity": "doctors",
          "name": "Dr. Pradyumn Sharma",
          "source": "Local Knowledge"
        }
      },
      {
        "type": "node",
        "id": 7695122993,
        "lat": 26.8065013,
        "lon": 75.8036489,
        "tags": {
          "addr:district": "Jaipur",
          "addr:full": "Sanganer, Pratap Nagar",
          "addr:postcode": "302033",
          "addr:state": "Rajasthan",
          "amenity": "clinic",
          "name": "Take Care Clinic",
          "source": "Local Knowledge"
        }
      },
      {
        "type": "node",
        "id": 7695122995,
        "lat": 26.8049023,
        "lon": 75.811702,
        "tags": {
          "addr:district": "Jaipur",
          "addr:full": "Haldighati Marg, Sanganer, Pratap Nagar, Jaipur",
          "addr:postcode": "302015",
          "addr:state": "Rajasthan",
          "amenity": "hospital",
          "name": "Vishwanath Hospital",
          "source": "Local Knowledge"
        }
      },
      {
        "type": "node",
        "id": 7695123010,
        "lat": 26.8132752,
        "lon": 75.8117827,
        "tags": {
          "addr:district": "Jaipur",
          "addr:full": "Sheopur Road, Sanganer, Jaipur",
          "addr:postcode": "302033",
          "addr:state": "Rajasthan",
          "amenity": "clinic",
          "name": "Gitanjli Clinic",
          "source": "Local Knowledge"
        }
      },
      {
        "type": "node",
        "id": 7695123015,
        "lat": 26.8099882,
        "lon": 75.8149584,
        "tags": {
          "addr:district": "Jaipur",
          "addr:full": "Sanganer, Pratap Nagar",
          "addr:postcode": "302033",
          "addr:state": "Rajasthan",
          "amenity": "clinic",
          "name": "Daisy Aura Health Clinic",
          "source": "Local Knowledge"
        }
      },
      {
        "type": "node",
        "id": 7695123025,
        "lat": 26.8049589,
        "lon": 75.8062208,
        "tags": {
          "addr:district": "Jaipur",
          "addr:full": "Sanganer, Pratap Nagar, Jaipur",
          "addr:postcode": "302033",
          "addr:state": "Rajasthan",
          "amenity": "hospital",
          "name": "Siddhi Vinayak ENT Hospital",
          "source": "Local Knowledge"
        }
      },
      {
        "type": "node",
        "id": 7695123032,
        "lat": 26.808431,
        "lon": 75.8145514,
        "tags": {
          "addr:district": "Jaipur",
          "addr:full": "Sheopur Road, Pratap Nagar",
          "addr:postcode": "302029",
          "addr:state": "Rajasthan",
          "amenity": "clinic",
          "name": "Neeraj Clinic",
          "source": "Local Knowledge"
        }
      },
      {
        "type": "node",
        "id": 7695123057,
        "lat": 26.802624,
        "lon": 75.807926,
        "tags": {
          "addr:district": "Jaipur",
          "addr:full": "Pratap Nagar",
          "addr:postcode": "302030",
          "addr:state": "Rajasthan",
          "amenity": "clinic",
          "name": "Bambala Clinic",
          "source": "Local Knowledge"
        }
      },
      {
        "type": "node",
        "id": 7695123061,
        "lat": 26.8026132,
        "lon": 75.8037184,
        "tags": {
          "addr:district": "Jaipur",
          "addr:full": "Sanganer, Pratap Nagar, Jaipur",
          "addr:postcode": "302033",
          "addr:state": "Rajasthan",
          "amenity": "hospital",
          "name": "Mathur Mahila and General Hospital",
          "source": "Local Knowledge"
        }
      },
      {
        "type": "node",
        "id": 8043763874,
        "lat": 26.8097868,
        "lon": 75.8090785,
        "tags": {
          "amenity": "hospital",
          "emergency": "no",
          "healthcare": "hospital",
          "name": "Pratap Nagar Sector 6 Dispensary",
          "operator": "Goverment",
          "operator:type": "government"
        }
      }
    ]
  },
  "pois_2_5km": {
    "version": 0.6,
    "generator": "Overpass API 0.7.62.8 e802775f",
    "osm3s": {
      "timestamp_osm_base": "2025-09-07T13:43:30Z",
      "copyright": "The data included in this document is from www.openstreetmap.org. The data is made available under ODbL."
    },
    "elements": []
  }
}