{
  "pois_1km": {
    "version": 0.6,
    "generator": "Overpass API 0.7.62.8 e802775f",
    "osm3s": {
      "timestamp_osm_base": "2025-09-07T13:03:38Z",
      "copyright": "The data included in this document is from www.openstreetmap.org. The data is made available under ODbL."
    },
    "elements": [
      {
        "type": "node",
        "id": 4351104821,
        "lat": 26.8907248,
        "lon": 75.7728969,
        "tags": {
          "name": "Palika Bazaar",
          "shop": "mall"
        }
      },
      {
        "type": "node",
        "id": 4351104822,
        "lat": 26.8906866,
        "lon": 75.7724248,
        "tags": {
          "name": "Big Bazaar",
          "shop": "mall"
        }
      },
      {
        "type": "node",
        "id": 4623697391,
        "lat": 26.8933272,
        "lon": 75.7694168,
        "tags": {
          "amenity": "pharmacy"
        }
      },
      {
        "type": "node",
        "id": 4759741309,
        "lat": 26.89131,
        "lon": 75.7590683,
        "tags": {
          "amenity": "restaurant",
          "cuisine": "indian;local",
          "diet:vegetarian": "yes",
          "name:en": "Green Chili",
          "name:fr": "Green Chili"
        }
      },
      {
        "type": "node",
        "id": 5144800321,
        "lat": 26.8945386,
        "lon": 75.7683878,
        "tags": {
          "addr:street": "Janpath",
          "amenity": "restaurant",
          "name:en": "Food court Indian/Belgium"
        }
      },
      {
        "type": "node",
        "id": 7024812754,
        "lat": 26.8944983,
        "lon": 75.7640308,
        "tags": {
          "addr:district": "Jaipur",
          "addr:full": "B 36 Shyam Nagar Sodala",
          "addr:postcode": "302019",
          "addr:state": "Rajasthan",
          "amenity": "hospital",
          "name": "Sharad Hospital",
          "source": "OpenGovernmentData"
        }
      },
      {
        "type": "node",
        "id": 7027768952,
        "lat": 26.8940283,
        "lon": 75.7694166,
        "tags": {
          "addr:district": "Jaipur",
          "addr:full": "D-27, Shyam Nagar, New Sanganer Road, Sodala",
          "addr:postcode": "302019",
          "addr:state": "Rajasthan",
          "amenity": "hospital",
          "name": "Vardhman Hospital, Jaipur",
          "source": "OpenGovernmentData"
        }
      },
      {
        "type": "node",
        "id": 7038146063,
        "lat": 26.8982742,
        "lon": 75.765447,
        "tags": {
          "addr:district": "Jaipur",
          "addr:full": "S-9, Ajmer Road, Shyam Nagar, Near Vipul Motors, Sodala",
          "addr:postcode": "302003",
          "addr:state": "Rajasthan",
          "amenity": "hospital",
          "name": "Dwarka Orthopaedic and Trauma Hospital",
          "source": "OpenGovernmentData"
        }
      },
      {
        "type": "node",
        "id": 7038167921,
        "lat": 26.9012953,
        "lon": 75.7702173,
        "tags": {
          "addr:district": "Jaipur",
          "addr:full": "Sodala, Ajmer Road",
          "addr:postcode": "302006",
          "addr:state": "Rajasthan",
          "amenity": "hospital",
          "name": "Sevayatan Hospital",
          "source": "OpenGovernmentData"
        }
      },
      {
        "type": "node",
        "id": 7039387654,
        "lat": 26.8974788,
        "lon": 75.7717301,
        "tags": {
          "addr:district": "Jaipur",
          "addr:full": "18-19, Kailash Puri - A, New Sanganer Road, Opposite Bank Of Baroda, Sodala",
          "addr:postcode": "302019",
          "addr:state": "Rajasthan",
          "amenity": "hospital",
          "name": "Atulya Hospital",
          "source": "OpenGovernmentData"
        }
      },
      {
        "type": "node",
        "id": 7040017904,
        "lat": 26.886207,
        "lon": 75.764979,
        "tags": {
          "addr:district": "Jaipur",
          "addr:full": "76, Devi Nagar, New Sanganer Road, Sadola",
          "addr:postcode": "302019",
          "addr:state": "Rajasthan",
          "amenity": "hospital",
          "name": "Agrasen Hospital",
          "source": "OpenGovernmentData"
        }
      },
      {
        "type": "node",
        "id": 7040129019,
        "lat": 26.8979859,
        "lon": 75.7679924,
        "tags": {
          "addr:district": "Jaipur",
          "addr:full": "A-1-A Shyam Nagar Sodala",
          "addr:postcode": "302019",
          "addr:state": "Rajasthan",
          "amenity": "hospital",
          "name": "Manu Hospital and Research Center",
          "source": "OpenGovernmentData"
        }
      },
      {
        "type": "node",
        "id": 7040147102,
        "lat": 26.893209,
        "lon": 75.7630987,
        "tags": {
          "addr:district": "Jaipur",
          "addr:full": "B, 106, Janpath, Shyam Nagar",
          "addr:postcode": "302019",
          "addr:state": "Rajasthan",
          "amenity": "hospital",
          "name": "Bansal Hospital,Jaipur",
          "source": "OpenGovernmentData"
        }
      },
      {
        "type": "node",
        "id": 7040217320,
        "lat": 26.8941293,
        "lon": 75.7708476,
        "tags": {
          "addr:district": "Jaipur",
          "addr:full": "D-135, Jawpath, New Sanganer Road",
          "addr:postcode": "302019",
          "addr:state": "Rajasthan",
          "amenity": "hospital",
          "name": "Dr. Goyal's Path Lab and Imaging Centre",
          "source": "OpenGovernmentData"
        }
      },
      {
        "type": "node",
        "id": 7040396609,
        "lat": 26.8863068,
        "lon": 75.7681916,
        "tags": {
          "addr:district": "Jaipur",
          "addr:full": "4, Vishwa Nagar, New Sanganer Road, Sodala",
          "addr:postcode": "302019",
          "addr:state": "Rajasthan",
          "amenity": "hospital",
          "name": "Jee Hospital and Research Centre",
          "source": "OpenGovernmentData"
        }
      },
      {
        "type": "node",
        "id": 7040424595,
        "lat": 26.8860078,
        "lon": 75.7655959,
        "tags": {
          "addr:district": "Jaipur",
          "addr:full": "413, Vivek Vihar, New Sanganer Road",
          "addr:postcode": "302019",
          "addr:state": "Rajasthan",
          "amenity": "hospital",
          "name": "Neha Maternity and Ent Hospital",
          "source": "OpenGovernmentData"
        }
      },
      {
        "type": "node",
        "id": 7698135308,
        "lat": 26.8858605,
        "lon": 75.7658158,
        "tags": {
          "addr:district": "Jaipur",
          "addr:full": "Sodala",
          "addr:postcode": "302019",
          "addr:state": "Rajasthan",
          "amenity": "hospital",
          "name": "Chanda Devi Memorial Hospital",
          "source": "Local Knowledge"
        }
      },
      {
        "type": "node",
        "id": 7698135311,
        "lat": 26.8850757,
        "lon": 75.7670814,
        "tags": {
          "addr:district": "Jaipur",
          "addr:full": "Sanganer Road",
          "addr:postcode": "302019",
          "addr:state": "Rajasthan",
          "amenity": "hospital",
          "name": "Jaipur Doorbeen Hospital",
          "source": "Local Knowledge"
        }
      },
      {
        "type": "node",
        "id": 7698135315,
        "lat": 26.885999,
        "lon": 75.7658738,
        "tags": {
          "addr:district": "Jaipur",
          "addr:full": "Vivek Vihar, Shyam Nagar",
          "addr:postcode": "302019",
          "addr:state": "Rajasthan",
          "amenity": "clinic",
          "name": "Gupta Clinic",
          "source": "Local Knowledge"
        }
      },
      {
        "type": "node",
        "id": 7698135323,
        "lat": 26.8867775,
        "lon": 75.7620583,
        "tags": {
          "addr:district": "Jaipur",
          "addr:full": "Katewa Nagar, Devi Nagar, Shyam Nagar",
          "addr:postcode": "302019",
          "addr:state": "Rajasthan",
          "amenity": "clinic",
          "name": "Shreeji Homeopathic Clinic",
          "source": "Local Knowledge"
        }
      },
      {
        "type": "node",
        "id": 7698135342,
        "lat": 26.8942626,
        "lon": 75.7642069,
        "tags": {
          "addr:district": "Jaipur",
          "addr:full": "Ajmer Road, Sodala, Jaipur",
          "addr:postcode": "302019",
          "addr:state": "Rajasthan",
          "amenity": "hospital",
          "name": "Dwarka Hospital",
          "source": "Local Knowledge"
        }
      },
      {
        "type": "node",
        "id": 7698135372,
        "lat": 26.8894168,
        "lon": 75.7621419,
        "tags": {
          "addr:district": "Jaipur",
          "addr:full": "Vivek Vihar, Shyam Nagar",
          "addr:postcode": "302019",
          "addr:state": "Rajasthan",
          "amenity": "doctors",
          "name": "Dr. Rajkumar Jain",
          "source": "Local Knowledge"
        }
      }
    ]
  },
  "pois_2_5km": {
    "version": 0.6,
    "generator": "Overpass API 0.7.62.8 e802775f",
    "osm3s": {
      "timestamp_osm_base": "2025-09-07T13:03:38Z",
      "copyright": "The data included in this document is from www.openstreetmap.org. The data is made available under ODbL."
    },
    "elements": [
      {
        "type": "node",
        "id": 1064270794,
        "lat": 26.8794602,
        "lon": 75.7502129,
        "tags": {
          "name": "Manasarovar",
          "name:hi": "\u092e\u093e\u0928\u0938\u0930\u094b\u0935\u0930",
          "network": "Jaipur Metro",
          "note": "Contributors are requested to not edit the \"network\" and the \"operator\" tags. (2023/11/08)",
          "operator": "Jaipur Metro Rail Corporation Limited",
          "public_transport": "stop_position",
          "public_transport:version": "2",
          "railway": "stop",
          "ref": "MSOR",
          "subway": "yes"
        }
      },
      {
        "type": "node",
        "id": 1946919383,
        "lat": 26.9017919,
        "lon": 75.7895065,
        "tags": {
          "internet_access": "no",
          "name": "Bais Godam",
          "network": "IR",
          "operator": "NWR",
          "public_transport": "station",
          "railway": "station",
          "ref": "BSGD",
          "train": "no",
          "wikidata": "Q24949515",
          "wikipedia": "en:Bais Godam railway station"
        }
      },
      {
        "type": "node",
        "id": 3083894235,
        "lat": 26.8798892,
        "lon": 75.758088,
        "tags": {
          "amenity": "fuel",
          "brand": "Indian Oil",
          "name": "Ganga Jamuna"
        }
      },
      {
        "type": "node",
        "id": 3083894236,
        "lat": 26.8797346,
        "lon": 75.7639391,
        "tags": {
          "amenity": "fuel",
          "brand": "HP"
        }
      },
      {
        "type": "node",
        "id": 3139919926,
        "lat": 26.9094527,
        "lon": 75.7811364,
        "tags": {
          "name": "Civil Lines",
          "name:hi": "\u0938\u093f\u0935\u093f\u0932 \u0932\u093e\u0907\u0928\u094d\u0938",
          "network": "Jaipur Metro",
          "note": "Contributors are requested to not edit the \"network\" and the \"operator\" tags. (2023/11/08)",
          "operator": "Jaipur Metro Rail Corporation Limited",
          "public_transport": "stop_position",
          "public_transport:version": "2",
          "railway": "stop",
          "ref": "CLJP",
          "shelter": "yes",
          "subway": "yes",
          "wheelchair": "yes"
        }
      },
      {
        "type": "node",
        "id": 3139920401,
        "lat": 26.9017699,
        "lon": 75.7746219,
        "tags": {
          "layer": "1",
          "name": "Ram Nagar",
          "name:hi": "\u0930\u093e\u092e \u0928\u0917\u0930",
          "network": "Jaipur Metro",
          "note": "Contributors are requested to not edit the \"network\" and the \"operator\" tags. (2023/11/08)",
          "operator": "Jaipur Metro Rail Corporation Limited",
          "public_transport": "stop_position",
          "public_transport:version": "2",
          "railway": "stop",
          "ref": "RMNR",
          "subway": "yes"
        }
      },
      {
        "type": "node",
        "id": 3139920402,
        "lat": 26.8964858,
        "lon": 75.7706033,
        "tags": {
          "name": "Shyam Nagar",
          "name:hi": "\u0936\u094d\u092f\u093e\u092e \u0928\u0917\u0930",
          "network": "Jaipur Metro",
          "note": "Contributors are requested to not edit the \"network\" and the \"operator\" tags. (2023/11/08)",
          "operator": "Jaipur Metro Rail Corporation Limited",
          "public_transport": "stop_position",
          "public_transport:version": "2",
          "railway": "stop",
          "ref": "SMNR",
          "subway": "yes"
        }
      },
      {
        "type": "node",
        "id": 3139920403,
        "lat": 26.8884622,
        "lon": 75.7683818,
        "tags": {
          "name": "Vivek Vihar",
          "name:hi": "\u0935\u093f\u0935\u0947\u0915 \u0935\u093f\u0939\u093e\u0930",
          "network": "Jaipur Metro",
          "note": "Contributors are requested to not edit the \"network\" and the \"operator\" tags. (2023/11/08)",
          "operator": "Jaipur Metro Rail Corporation Limited",
          "public_transport": "stop_position",
          "public_transport:version": "2",
          "railway": "stop",
          "ref": "VKVR",
          "subway": "yes"
        }
      },
      {
        "type": "node",
        "id": 3566139322,
        "lat": 26.8801786,
        "lon": 75.764461,
        "tags": {
          "name": "New Aatish Market",
          "name:hi": "\u0928\u092f\u093e \u0906\u0924\u093f\u0936 \u092e\u093e\u0930\u094d\u0915\u0947\u091f",
          "network": "Jaipur Metro",
          "note": "Contributors are requested to not edit the \"network\" and the \"operator\" tags. (2023/11/08)",
          "operator": "Jaipur Metro Rail Corporation Limited",
          "public_transport": "stop_position",
          "public_transport:version": "2",
          "railway": "stop",
          "ref": "NAMT",
          "subway": "yes"
        }
      },
      {
        "type": "node",
        "id": 4466634254,
        "lat": 26.901561,
        "lon": 75.7827,
        "tags": {
          "amenity": "fuel"
        }
      },
      {
        "type": "node",
        "id": 6783208321,
        "lat": 26.9096783,
        "lon": 75.7812494,
        "tags": {
          "name": "Civil Lines",
          "name:hi": "\u0938\u093f\u0935\u093f\u0932 \u0932\u093e\u0907\u0928\u094d\u0938",
          "network": "Jaipur Metro",
          "note": "Contributors are requested to not edit the \"network\" and the \"operator\" tags. (2023/11/08)",
          "operator": "Jaipur Metro Rail Corporation Limited",
          "public_transport": "station",
          "public_transport:version": "2",
          "railway": "station",
          "ref": "CLJP",
          "shelter": "yes",
          "station": "subway",
          "subway": "yes",
          "wheelchair": "yes",
          "wikidata": "Q28180430",
          "wikipedia": "en:Civil Lines metro station (Jaipur)"
        }
      },
      {
        "type": "node",
        "id": 6938645049,
        "lat": 26.8954164,
        "lon": 75.7486286,
        "tags": {
          "addr:city": "Jaipur",
          "addr:postcode": "302021",
          "addr:street": "Ajmer Road",
          "air_conditioning": "yes",
          "amenity": "cinema",
          "name": "Inox Movies Cinema",
          "payment:cards": "yes",
          "payment:cash": "yes",
          "payment:online_booking": "yes",
          "screen": "2"
        }
      },
      {
        "type": "node",
        "id": 6968230709,
        "lat": 26.9059908,
        "lon": 75.7519889,
        "tags": {
          "amenity": "fuel",
          "brand": "Hindustan Petroleum",
          "brand:wikidata": "Q1619375",
          "brand:wikipedia": "en:Hindustan Petroleum",
          "name": "HP - GURU JAMBESHWAR PETRO SERVICES",
          "official_name": "Hindustan Petroleum"
        }
      },
      {
        "type": "node",
        "id": 6968230711,
        "lat": 26.897245,
        "lon": 75.7532693,
        "tags": {
          "amenity": "fuel",
          "brand": "Hindustan Petroleum",
          "brand:wikidata": "Q1619375",
          "name": "HP",
          "official_name": "Hindustan Petroleum"
        }
      },
      {
        "type": "node",
        "id": 6968230712,
        "lat": 26.9004314,
        "lon": 75.7691078,
        "tags": {
          "amenity": "fuel",
          "brand": "Hindustan Petroleum",
          "brand:wikidata": "Q1619375",
          "name": "HP",
          "official_name": "Hindustan Petroleum"
        }
      },
      {
        "type": "node",
        "id": 6968230713,
        "lat": 26.901353,
        "lon": 75.7709911,
        "tags": {
          "amenity": "fuel",
          "brand": "Indian Oil",
          "brand:wikidata": "Q1289348",
          "name": "Indian Oil"
        }
      },
      {
        "type": "node",
        "id": 8042098373,
        "lat": 26.9017572,
        "lon": 75.7746732,
        "tags": {
          "layer": "1",
          "name": "Ram Nagar",
          "name:hi": "\u0930\u093e\u092e \u0928\u0917\u0930",
          "network": "Jaipur Metro",
          "note": "Contributors are requested to not edit the \"network\" and the \"operator\" tags. (2023/11/08)",
          "operator": "Jaipur Metro Rail Corporation Limited",
          "public_transport": "stop_position",
          "public_transport:version": "2",
          "railway": "stop",
          "ref": "RMNR",
          "subway": "yes"
        }
      },
      {
        "type": "node",
        "id": 8042107918,
        "lat": 26.880132,
        "lon": 75.7644774,
        "tags": {
          "name": "New Aatish Market",
          "name:hi": "\u0928\u092f\u093e \u0906\u0924\u093f\u0936 \u092e\u093e\u0930\u094d\u0915\u0947\u091f",
          "network": "Jaipur Metro",
          "note": "Contributors are requested to not edit the \"network\" and the \"operator\" tags. (2023/11/08)",
          "operator": "Jaipur Metro Rail Corporation Limited",
          "public_transport": "stop_position",
          "public_transport:version": "2",
          "railway": "stop",
          "ref": "NAMT",
          "subway": "yes"
        }
      },
      {
        "type": "node",
        "id": 8042595542,
        "lat": 26.8884508,
        "lon": 75.7684353,
        "tags": {
          "name": "Vivek Vihar",
          "name:hi": "\u0935\u093f\u0935\u0947\u0915 \u0935\u093f\u0939\u093e\u0930",
          "network": "Jaipur Metro",
          "note": "Contributors are requested to not edit the \"network\" and the \"operator\" tags. (2023/11/08)",
          "operator": "Jaipur Metro Rail Corporation Limited",
          "public_transport": "stop_position",
          "public_transport:version": "2",
          "railway": "stop",
          "ref": "VKVR",
          "subway": "yes"
        }
      },
      {
        "type": "node",
        "id": 8042595579,
        "lat": 26.9094099,
        "lon": 75.7811653,
        "tags": {
          "name": "Civil Lines",
          "name:hi": "\u0938\u093f\u0935\u093f\u0932 \u0932\u093e\u0907\u0928\u094d\u0938",
          "network": "Jaipur Metro",
          "note": "Contributors are requested to not edit the \"network\" and the \"operator\" tags. (2023/11/08)",
          "operator": "Jaipur Metro Rail Corporation Limited",
          "public_transport": "stop_position",
          "public_transport:version": "2",
          "railway": "stop",
          "ref": "CLJP",
          "shelter": "yes",
          "subway": "yes",
          "wheelchair": "yes"
        }
      },
      {
        "type": "node",
        "id": 8042602051,
        "lat": 26.8794171,
        "lon": 75.7502156,
        "tags": {
          "name": "Manasarovar",
          "name:hi": "\u092e\u093e\u0928\u0938\u0930\u094b\u0935\u0930",
          "network": "Jaipur Metro",
          "note": "Contributors are requested to not edit the \"network\" and the \"operator\" tags. (2023/11/08)",
          "operator": "Jaipur Metro Rail Corporation Limited",
          "public_transport": "stop_position",
          "public_transport:version": "2",
          "railway": "stop",
          "ref": "MSOR",
          "subway": "yes"
        }
      },
      {
        "type": "node",
        "id": 8042602063,
        "lat": 26.8964694,
        "lon": 75.7706558,
        "tags": {
          "name": "Shyam Nagar",
          "name:hi": "\u0936\u094d\u092f\u093e\u092e \u0928\u0917\u0930",
          "network": "Jaipur Metro",
          "note": "Contributors are requested to not edit the \"network\" and the \"operator\" tags. (2023/11/08)",
          "operator": "Jaipur Metro Rail Corporation Limited",
          "public_transport": "stop_position",
          "public_transport:version": "2",
          "railway": "stop",
          "ref": "SMNR",
          "subway": "yes"
        }
      },
      {
        "type": "node",
        "id": 8140108469,
        "lat": 26.8794402,
        "lon": 75.7502389,
        "tags": {
          "name": "Manasarovar",
          "name:hi": "\u092e\u093e\u0928\u0938\u0930\u094b\u0935\u0930",
          "network": "Jaipur Metro",
          "note": "Contributors are requested to not edit the \"network\" and the \"operator\" tags. (2023/11/08)",
          "operator": "Jaipur Metro Rail Corporation Limited",
          "public_transport": "station",
          "public_transport:version": "2",
          "railway": "station",
          "ref": "MSOR",
          "shelter": "yes",
          "station": "subway",
          "subway": "yes",
          "wheelchair": "yes",
          "wikidata": "Q28180399",
          "wikipedia": "en:Mansarovar metro station"
        }
      },
      {
        "type": "node",
        "id": 8149193787,
        "lat": 26.8964768,
        "lon": 75.7706279,
        "tags": {
          "name": "Shyam Nagar",
          "name:hi": "\u0936\u094d\u092f\u093e\u092e \u0928\u0917\u0930",
          "network": "Jaipur Metro",
          "note": "Contributors are requested to not edit the \"network\" and the \"operator\" tags. (2023/11/08)",
          "operator": "Jaipur Metro Rail Corporation Limited",
          "public_transport": "station",
          "public_transport:version": "2",
          "railway": "station",
          "ref": "SMNR",
          "shelter": "yes",
          "station": "subway",
          "subway": "yes",
          "wheelchair": "yes",
          "wikidata": "Q28180421",
          "wikipedia": "en:Shyam Nagar metro station"
        }
      },
      {
        "type": "node",
        "id": 8149193788,
        "lat": 26.8884539,
        "lon": 75.768407,
        "tags": {
          "name": "Vivek Vihar",
          "name:hi": "\u0935\u093f\u0935\u0947\u0915 \u0935\u093f\u0939\u093e\u0930",
          "network": "Jaipur Metro",
          "note": "Contributors are requested to not edit the \"network\" and the \"operator\" tags. (2023/11/08)",
          "operator": "Jaipur Metro Rail Corporation Limited",
          "public_transport": "station",
          "public_transport:version": "2",
          "railway": "station",
          "ref": "VKVR",
          "shelter": "yes",
          "station": "subway",
          "subway": "yes",
          "wheelchair": "yes",
          "wikidata": "Q28180413",
          "wikipedia": "en:Vivek Vihar metro station"
        }
      },
      {
        "type": "node",
        "id": 8149193789,
        "lat": 26.880154,
        "lon": 75.764466,
        "tags": {
          "name": "New Aatish Market",
          "name:hi": "\u0928\u092f\u093e \u0906\u0924\u093f\u0936 \u092e\u093e\u0930\u094d\u0915\u0947\u091f",
          "network": "Jaipur Metro",
          "note": "Contributors are requested to not edit the \"network\" and the \"operator\" tags. (2023/11/08)",
          "operator": "Jaipur Metro Rail Corporation Limited",
          "public_transport": "station",
          "public_transport:version": "2",
          "railway": "station",
          "ref": "NAMT",
          "shelter": "yes",
          "station": "subway",
          "subway": "yes",
          "wheelchair": "yes",
          "wikidata": "Q28180408",
          "wikipedia": "en:New Aatish Market metro station"
        }
      },
      {
        "type": "node",
        "id": 11747573469,
        "lat": 26.9035483,
        "lon": 75.7887016,
        "tags": {
          "amenity": "fuel",
          "name:en": "BPCL BAIS GODAM PETROL PUMP"
        }
      },
      {
        "type": "node",
        "id": 11765686547,
        "lat": 26.9017025,
        "lon": 75.7825909,
        "tags": {
          "amenity": "fuel",
          "brand": "Indian Oil",
          "brand:wikidata": "Q1289348",
          "name": "Indian Oil"
        }
      }
    ]
  }
}