{
  "pois_1km": {
    "version": 0.6,
    "generator": "Overpass API 0.7.62.8 e802775f",
    "osm3s": {
      "timestamp_osm_base": "2025-09-07T13:03:38Z",
      "copyright": "The data included in this document is from www.openstreetmap.org. The data is made available under ODbL."
    },
    "elements": [
      {
        "type": "node",
        "id": 3830464221,
        "lat": 26.9311763,
        "lon": 75.8004455,
        "tags": {
          "addr:city": "Jaipur",
          "addr:postcode": "302016",
          "addr:street": "Meera Marg",
          "amenity": "fast_food",
          "name": "Shree Ganesh Namkeen Bhandar"
        }
      },
      {
        "type": "node",
        "id": 5756676422,
        "lat": 26.931796,
        "lon": 75.7918159,
        "tags": {
          "amenity": "hospital",
          "healthcare": "hospital",
          "name": "Sanjavani hospital",
          "name:en": "Sanjavani hospital"
        }
      },
      {
        "type": "node",
        "id": 7030599187,
        "lat": 26.9378,
        "lon": 75.7929099,
        "tags": {
          "addr:district": "Jaipur",
          "addr:full": "Shastri Nagar",
          "addr:postcode": "302013",
          "addr:state": "Rajasthan",
          "amenity": "hospital",
          "healthcare": "hospital",
          "name": "Government Dental College and Hospital, Jaipur",
          "operator:type": "government",
          "source": "OpenGovernmentData"
        }
      },
      {
        "type": "node",
        "id": 7030617003,
        "lat": 26.9354644,
        "lon": 75.7881075,
        "tags": {
          "addr:district": "Jaipur",
          "addr:full": "Bani Park, Jaipur",
          "addr:postcode": "302016",
          "addr:state": "Rajasthan",
          "amenity": "hospital",
          "healthcare": "hospital",
          "name": "Jaipur Fertility Centre",
          "source": "OpenGovernmentData"
        }
      },
      {
        "type": "node",
        "id": 7036743535,
        "lat": 26.9434696,
        "lon": 75.803289,
        "tags": {
          "addr:district": "Jaipur",
          "addr:full": "1- A- 110 Shiv Shakti Colony , Opposite P&T Quarters, Near Khandelwal College, Shastri Nagar",
          "addr:postcode": "302016",
          "addr:state": "Rajasthan",
          "amenity": "hospital",
          "name": "Gupta Hospital",
          "source": "OpenGovernmentData"
        }
      },
      {
        "type": "node",
        "id": 7036765142,
        "lat": 26.9379927,
        "lon": 75.8008106,
        "tags": {
          "addr:district": "Jaipur",
          "addr:full": "A-1, Pani Ki Tanki Circle,Shastri Nagar",
          "addr:postcode": "302016",
          "addr:state": "Rajasthan",
          "amenity": "hospital",
          "name": "Goyal Hospital, Jaipur",
          "source": "OpenGovernmentData"
        }
      },
      {
        "type": "node",
        "id": 7037755802,
        "lat": 26.9455749,
        "lon": 75.7971467,
        "tags": {
          "addr:district": "Jaipur",
          "addr:full": "B-11, Major Shaitan Singh Colony, Shastri Nagar",
          "addr:postcode": "302016",
          "addr:state": "Rajasthan",
          "amenity": "clinic",
          "name": "Krishna Clinic and Nursing Home",
          "source": "OpenGovernmentData"
        }
      },
      {
        "type": "node",
        "id": 7037995243,
        "lat": 26.9372945,
        "lon": 75.7896405,
        "tags": {
          "addr:district": "Jaipur",
          "addr:full": "Plot No. 145, Indra Colony, Jhotwara Road",
          "addr:postcode": "302016",
          "addr:state": "Rajasthan",
          "amenity": "hospital",
          "healthcare": "hospital",
          "healthcare:speciality": "orthopaedics",
          "name": "Diwakar Orthopedic and General Hospital",
          "source": "OpenGovernmentData"
        }
      },
      {
        "type": "node",
        "id": 7040112739,
        "lat": 26.929878,
        "lon": 75.8011875,
        "tags": {
          "addr:district": "Jaipur",
          "addr:full": "Kartavya, B-13 Shiv Marg,Bani Park Jaipur",
          "addr:postcode": "302016",
          "addr:state": "Rajasthan",
          "amenity": "hospital",
          "healthcare": "hospital",
          "name": "Meera Hospital, Jaipur",
          "source": "OpenGovernmentData"
        }
      },
      {
        "type": "node",
        "id": 7040117143,
        "lat": 26.9359662,
        "lon": 75.7957385,
        "tags": {
          "addr:district": "Jaipur",
          "addr:full": "103, Shastri Nagar Road Near Pital Factory",
          "addr:postcode": "302016",
          "addr:state": "Rajasthan",
          "amenity": "hospital",
          "healthcare": "hospital",
          "name": "Maharshi Child Hospital",
          "source": "OpenGovernmentData"
        }
      },
      {
        "type": "node",
        "id": 7040142166,
        "lat": 26.928861,
        "lon": 75.7972808,
        "tags": {
          "addr:district": "Jaipur",
          "addr:full": "B-5,Shiv Marg,Bani Park",
          "addr:postcode": "302016",
          "addr:state": "Rajasthan",
          "amenity": "hospital",
          "healthcare": "hospital",
          "name": "Satellite Hospital, Jaipur",
          "source": "OpenGovernmentData"
        }
      },
      {
        "type": "node",
        "id": 7040387295,
        "lat": 26.9318006,
        "lon": 75.793002,
        "tags": {
          "addr:district": "Jaipur",
          "addr:full": "D-78 Ghiya Marg, Bani Park",
          "addr:postcode": "302016",
          "addr:state": "Rajasthan",
          "amenity": "hospital",
          "healthcare": "hospital",
          "name": "Dr Sardar Singh Memorial Hospital(Managed By M/S Kamal Clinic and Nursing Home)",
          "source": "OpenGovernmentData"
        }
      },
      {
        "type": "node",
        "id": 7040432235,
        "lat": 26.9344657,
        "lon": 75.7975852,
        "tags": {
          "addr:district": "Jaipur",
          "addr:full": "37, Shopping Centre Shastri Nagar Road Near Peetal Factory",
          "addr:postcode": "302016",
          "addr:state": "Rajasthan",
          "amenity": "hospital",
          "healthcare": "hospital",
          "name": "Dr Atuls Child Hospital",
          "source": "OpenGovernmentData"
        }
      },
      {
        "type": "node",
        "id": 7040985055,
        "lat": 26.9342445,
        "lon": 75.7985401,
        "tags": {
          "addr:district": "Jaipur",
          "addr:full": "A-7, Mukherjee Colony Shastri Nagar",
          "addr:postcode": "302016",
          "addr:state": "Rajasthan",
          "amenity": "hospital",
          "healthcare": "hospital",
          "name": "Dugra Devi Memorial Hospital",
          "source": "OpenGovernmentData"
        }
      },
      {
        "type": "node",
        "id": 7042863528,
        "lat": 26.9322525,
        "lon": 75.7918172,
        "tags": {
          "addr:district": "Jaipur",
          "addr:full": "F-58, Kalidas Marg, Bani Park",
          "addr:postcode": "302016",
          "addr:state": "Rajasthan",
          "amenity": "hospital",
          "healthcare": "hospital",
          "name": "Dr. Panicker's Sanjeevani Hospital Pvt. Ltd.",
          "source": "OpenGovernmentData"
        }
      },
      {
        "type": "node",
        "id": 7042869534,
        "lat": 26.9372802,
        "lon": 75.795701,
        "tags": {
          "addr:district": "Jaipur",
          "addr:full": "Subhash Nagar Jhotwara",
          "addr:postcode": "303103",
          "addr:state": "Rajasthan",
          "amenity": "hospital",
          "healthcare": "hospital",
          "name": "T.B. Cenetorium",
          "source": "OpenGovernmentData"
        }
      },
      {
        "type": "node",
        "id": 7042872255,
        "lat": 26.93543,
        "lon": 75.7980855,
        "tags": {
          "addr:district": "Jaipur",
          "addr:full": "Shastri Nagar Jaipur",
          "addr:postcode": "302016",
          "addr:state": "Rajasthan",
          "amenity": "hospital",
          "healthcare": "hospital",
          "name": "Dr.M.R.Grewal Memorial Hospital",
          "source": "OpenGovernmentData"
        }
      },
      {
        "type": "node",
        "id": 7279062535,
        "lat": 26.9379473,
        "lon": 75.7948581,
        "tags": {
          "addr:district": "Jaipur",
          "addr:full": "Near Shastri Nagar, Jaipur",
          "addr:postcode": "302016",
          "addr:state": "Rajasthan",
          "amenity": "hospital",
          "healthcare": "hospital",
          "name": "TB Hospital",
          "source": "OpenGovernmentData"
        }
      },
      {
        "type": "node",
        "id": 7279062612,
        "lat": 26.928678,
        "lon": 75.7972582,
        "tags": {
          "addr:district": "Jaipur",
          "addr:full": "Todarmal Marg, Near Shiv Circle, Bani Park, Jaipur",
          "addr:postcode": "302016",
          "addr:state": "Rajasthan",
          "addr:subdistrict": "Jaipur",
          "amenity": "hospital",
          "healthcare": "hospital",
          "name": "Government Satellite Hospital, Banipark  , Jaipur",
          "source": "OpenGovernmentData"
        }
      },
      {
        "type": "node",
        "id": 7698486518,
        "lat": 26.9370421,
        "lon": 75.7888509,
        "tags": {
          "addr:district": "Jaipur",
          "addr:full": "Indra Colony",
          "addr:postcode": "302016",
          "addr:state": "Rajasthan",
          "amenity": "clinic",
          "healthcare": "clinic",
          "healthcare:speciality": "gastroenterology",
          "name": "Dr. Vijay Sharma Gastroenterology Clinic",
          "source": "Local Knowledge"
        }
      },
      {
        "type": "node",
        "id": 7698486524,
        "lat": 26.9364659,
        "lon": 75.7893222,
        "tags": {
          "addr:district": "Jaipur",
          "addr:full": "Indra Colony, Bani Park",
          "addr:postcode": "302016",
          "addr:state": "Rajasthan",
          "amenity": "doctors",
          "healthcare": "doctor",
          "name": "Dr. Vaishali Mathur",
          "source": "Local Knowledge"
        }
      },
      {
        "type": "node",
        "id": 7698486532,
        "lat": 26.9360211,
        "lon": 75.7884758,
        "tags": {
          "addr:district": "Jaipur",
          "addr:full": "Sindhi Colony",
          "addr:postcode": "302016",
          "addr:state": "Rajasthan",
          "amenity": "hospital",
          "healthcare": "hospital",
          "name": "Lekhra Hospital",
          "source": "Local Knowledge"
        }
      },
      {
        "type": "node",
        "id": 7698486538,
        "lat": 26.934081,
        "lon": 75.7918152,
        "tags": {
          "addr:district": "Jaipur",
          "addr:full": "Sindhi Colony, Bani Park, Jaipur",
          "addr:postcode": "302016",
          "addr:state": "Rajasthan",
          "amenity": "clinic",
          "healthcare": "clinic",
          "name": "Chelani's Clinic",
          "source": "Local Knowledge"
        }
      },
      {
        "type": "node",
        "id": 7698486541,
        "lat": 26.9339705,
        "lon": 75.792258,
        "tags": {
          "addr:district": "Jaipur",
          "addr:full": "Bani Park",
          "addr:postcode": "302016",
          "addr:state": "Rajasthan",
          "amenity": "doctors",
          "healthcare": "doctor",
          "name": "Dr. Rajesh Khandelwal",
          "source": "Local Knowledge"
        }
      },
      {
        "type": "node",
        "id": 7698486549,
        "lat": 26.9343462,
        "lon": 75.7904621,
        "tags": {
          "addr:district": "Jaipur",
          "addr:full": "Janta Colony, Sindhi Colony, Bani Park",
          "addr:postcode": "302016",
          "addr:state": "Rajasthan",
          "amenity": "hospital",
          "healthcare": "hospital",
          "name": "Raisinghani Hospital",
          "source": "Local Knowledge"
        }
      },
      {
        "type": "node",
        "id": 7698486555,
        "lat": 26.9373079,
        "lon": 75.7950457,
        "tags": {
          "addr:district": "Jaipur",
          "addr:full": "Shastri Nagar",
          "addr:postcode": "302016",
          "addr:state": "Rajasthan",
          "amenity": "clinic",
          "healthcare": "clinic",
          "name": "Jain Chest Care Centre",
          "source": "Local Knowledge"
        }
      },
      {
        "type": "node",
        "id": 7698486558,
        "lat": 26.9370975,
        "lon": 75.7891693,
        "tags": {
          "addr:district": "Jaipur",
          "addr:full": "Indira Colony, Banipark",
          "addr:postcode": "302016",
          "addr:state": "Rajasthan",
          "amenity": "doctors",
          "healthcare": "doctor",
          "name": "Dr. Raturi Bharat Mohan",
          "source": "Local Knowledge"
        }
      },
      {
        "type": "node",
        "id": 7698486583,
        "lat": 26.936608,
        "lon": 75.789924,
        "tags": {
          "addr:district": "Jaipur",
          "addr:full": "Bani Park, Jaipur",
          "addr:postcode": "302016",
          "addr:state": "Rajasthan",
          "amenity": "hospital",
          "healthcare": "hospital",
          "name": "Soni Nursing Home",
          "source": "Local Knowledge"
        }
      },
      {
        "type": "node",
        "id": 12361057202,
        "lat": 26.9295695,
        "lon": 75.796776,
        "tags": {
          "amenity": "pharmacy",
          "name": "Somani Mediserve"
        }
      },
      {
        "type": "node",
        "id": 12361795401,
        "lat": 26.9344284,
        "lon": 75.7948812,
        "tags": {
          "amenity": "hospital",
          "name": "Maxwell"
        }
      },
      {
        "type": "node",
        "id": 12361795501,
        "lat": 26.9332444,
        "lon": 75.7969411,
        "tags": {
          "amenity": "bank",
          "name": "HDFC"
        }
      },
      {
        "type": "node",
        "id": 12365223408,
        "lat": 26.9325229,
        "lon": 75.8039255,
        "tags": {
          "amenity": "pharmacy"
        }
      },
      {
        "type": "node",
        "id": 12365224502,
        "lat": 26.9335828,
        "lon": 75.8043705,
        "tags": {
          "amenity": "pharmacy"
        }
      },
      {
        "type": "node",
        "id": 12365225001,
        "lat": 26.9332474,
        "lon": 75.8045387,
        "tags": {
          "amenity": "restaurant",
          "name": "fried chicken"
        }
      },
      {
        "type": "node",
        "id": 12365225002,
        "lat": 26.9318209,
        "lon": 75.803455,
        "tags": {
          "amenity": "pharmacy"
        }
      },
      {
        "type": "node",
        "id": 12595806171,
        "lat": 26.9415681,
        "lon": 75.7882639,
        "tags": {
          "leisure": "park",
          "name": "Green Park"
        }
      },
      {
        "type": "node",
        "id": 12595806172,
        "lat": 26.941585,
        "lon": 75.7874029,
        "tags": {
          "amenity": "cafe",
          "name": "Sonis Cafe"
        }
      },
      {
        "type": "node",
        "id": 12595806173,
        "lat": 26.9421064,
        "lon": 75.7885138,
        "tags": {
          "amenity": "fast_food",
          "name": "Burger Queen"
        }
      },
      {
        "type": "node",
        "id": 12595806174,
        "lat": 26.9424986,
        "lon": 75.7906837,
        "tags": {
          "leisure": "park",
          "name": "AB Ground"
        }
      },
      {
        "type": "node",
        "id": 12595820788,
        "lat": 26.942512,
        "lon": 75.7930364,
        "tags": {
          "leisure": "park",
          "name": "aaka"
        }
      }
    ]
  },
  "pois_2_5km": {
    "version": 0.6,
    "generator": "Overpass API 0.7.62.8 e802775f",
    "osm3s": {
      "timestamp_osm_base": "2025-09-07T13:03:38Z",
      "copyright": "The data included in this document is from www.openstreetmap.org. The data is made available under ODbL."
    },
    "elements": [
      {
        "type": "node",
        "id": 317370580,
        "lat": 26.9404658,
        "lon": 75.7722817,
        "tags": {
          "bus": "yes",
          "name": "Chomu Pulia",
          "network": "JCTSL",
          "public_transport": "stop_position"
        }
      },
      {
        "type": "node",
        "id": 1064270823,
        "lat": 26.9225949,
        "lon": 75.7999012,
        "tags": {
          "name": "Sindhi Camp",
          "name:hi": "\u0938\u093f\u0928\u094d\u0927\u0940 \u0915\u0948\u0902\u092a",
          "network": "Jaipur Metro",
          "note": "Contributors are requested to not edit the \"network\" and the \"operator\" tags. (2023/11/08)",
          "operator": "Jaipur Metro Rail Corporation Limited",
          "public_transport": "stop_position",
          "public_transport:version": "2",
          "railway": "stop",
          "ref": "SICP",
          "shelter": "yes",
          "subway": "yes",
          "wheelchair": "yes"
        }
      },
      {
        "type": "node",
        "id": 1064270856,
        "lat": 26.9235814,
        "lon": 75.8005946,
        "tags": {
          "amenity": "bus_station",
          "bus": "yes",
          "name": "Sindhi Camp",
          "name:en": "Jaipur Main Bus station",
          "operator": "RSRTC",
          "public_transport": "station"
        }
      },
      {
        "type": "node",
        "id": 1064270915,
        "lat": 26.9265583,
        "lon": 75.8079145,
        "tags": {
          "name": "Chandpole",
          "name:hi": "\u091a\u093e\u0902\u0926\u092a\u094b\u0932",
          "network": "Jaipur Metro",
          "note": "Contributors are requested to not edit the \"network\" and the \"operator\" tags. (2023/11/08)",
          "operator": "Jaipur Metro Rail Corporation Limited",
          "public_transport": "stop_position",
          "public_transport:version": "2",
          "railway": "stop",
          "ref": "CDPE",
          "shelter": "yes",
          "subway": "yes",
          "wheelchair": "yes"
        }
      },
      {
        "type": "node",
        "id": 1064270917,
        "lat": 26.9397287,
        "lon": 75.7777965,
        "tags": {
          "construction": "station",
          "disused:railway": "station",
          "name": "Ambabadi Metro (u/c)",
          "network": "Jaipur Metro",
          "note": "Contributors are requested to not edit the \"network\" and the \"operator\" tags. (2023/11/08)",
          "operator": "Jaipur Metro Rail Corporation Limited",
          "public_transport": "station",
          "railway": "station",
          "station": "subway",
          "subway": "yes"
        }
      },
      {
        "type": "node",
        "id": 2669084994,
        "lat": 26.9207888,
        "lon": 75.7866539,
        "tags": {
          "internet_access": "wlan",
          "name": "Jaipur Junction",
          "network": "IR",
          "operator": "NWR",
          "public_transport": "station",
          "railway": "station",
          "ref": "JP",
          "train": "yes",
          "wheelchair": "yes",
          "wikidata": "Q6124154",
          "wikipedia": "en:Jaipur Junction railway station"
        }
      },
      {
        "type": "node",
        "id": 3139920400,
        "lat": 26.9180833,
        "lon": 75.7900798,
        "tags": {
          "name": "Railway Station",
          "name:hi": "\u0930\u0947\u0932\u0935\u0947 \u0938\u094d\u091f\u0947\u0936\u0928",
          "network": "Jaipur Metro",
          "note": "Contributors are requested to not edit the \"network\" and the \"operator\" tags. (2023/11/08)",
          "operator": "Jaipur Metro Rail Corporation Limited",
          "public_transport": "stop_position",
          "public_transport:version": "2",
          "railway": "stop",
          "ref": "MRSN",
          "shelter": "yes",
          "subway": "yes",
          "wheelchair": "yes"
        }
      },
      {
        "type": "node",
        "id": 3677353031,
        "lat": 26.9169156,
        "lon": 75.8063152,
        "tags": {
          "amenity": "fuel",
          "brand": "Hindustan Petroleum",
          "brand:wikidata": "Q1619375",
          "name": "HP",
          "official_name": "Hindustan Petroleum"
        }
      },
      {
        "type": "node",
        "id": 5284145023,
        "lat": 26.917631,
        "lon": 75.7902938,
        "tags": {
          "addr:street": "Hasanpura Road",
          "amenity": "bus_station",
          "bus": "yes",
          "name:en": "Kalpana Chembar, near Hasanapura Puliya railway st.",
          "public_transport": "station"
        }
      },
      {
        "type": "node",
        "id": 5391526672,
        "lat": 26.9226849,
        "lon": 75.7998222,
        "tags": {
          "name": "Sindhi Camp",
          "name:hi": "\u0938\u093f\u0928\u094d\u0927\u0940 \u0915\u0948\u0902\u092a",
          "network": "Jaipur Metro",
          "note": "Contributors are requested to not edit the \"network\" and the \"operator\" tags. (2023/11/08)",
          "operator": "Jaipur Metro Rail Corporation Limited",
          "public_transport": "station",
          "public_transport:version": "2",
          "railway": "station",
          "ref": "SICP",
          "shelter": "yes",
          "station": "subway",
          "subway": "yes",
          "wheelchair": "yes",
          "wikidata": "Q28180440",
          "wikipedia": "en:Sindhi Camp metro station"
        }
      },
      {
        "type": "node",
        "id": 5391527174,
        "lat": 26.9181132,
        "lon": 75.790129,
        "tags": {
          "name": "Railway Station",
          "name:hi": "\u0930\u0947\u0932\u0935\u0947 \u0938\u094d\u091f\u0947\u0936\u0928",
          "network": "Jaipur Metro",
          "note": "Contributors are requested to not edit the \"network\" and the \"operator\" tags. (2023/11/08)",
          "operator": "Jaipur Metro Rail Corporation Limited",
          "public_transport": "station",
          "public_transport:version": "2",
          "railway": "station",
          "ref": "MRSN",
          "shelter": "yes",
          "station": "subway",
          "subway": "yes",
          "wheelchair": "yes",
          "wikidata": "Q28180437",
          "wikipedia": "en:Railway Station metro station"
        }
      },
      {
        "type": "node",
        "id": 5436562222,
        "lat": 26.9331132,
        "lon": 75.7963001,
        "tags": {
          "amenity": "fuel",
          "brand": "Hindustan Petroleum",
          "brand:wikidata": "Q1619375",
          "name": "HP",
          "name:en": "HP",
          "official_name": "Hindustan Petroleum"
        }
      },
      {
        "type": "node",
        "id": 5482287830,
        "lat": 26.9401313,
        "lon": 75.773181,
        "tags": {
          "bus": "yes",
          "bus_routes": "6A, 10B, 14, 18, AC 2",
          "name": "Chomu Pulia",
          "name:hi": "Chomu pulia Circle",
          "public_transport": "stop_position",
          "shelter": "yes"
        }
      },
      {
        "type": "node",
        "id": 6133852985,
        "lat": 26.923305,
        "lon": 75.8006345,
        "tags": {
          "addr:postcode": "302006",
          "amenity": "bus_station",
          "bus": "yes",
          "name": "Sindhi Camp Bus Stand",
          "public_transport": "station"
        }
      },
      {
        "type": "node",
        "id": 6630557586,
        "lat": 26.9231668,
        "lon": 75.7937215,
        "tags": {
          "amenity": "fuel",
          "brand": "Bharat Petroleum",
          "brand:wikidata": "Q854826",
          "name": "Bharat Petroleum",
          "name:en": "Bharat Petroleum"
        }
      },
      {
        "type": "node",
        "id": 6781585323,
        "lat": 26.9225493,
        "lon": 75.7999247,
        "tags": {
          "name": "Sindhi Camp",
          "name:hi": "\u0938\u093f\u0928\u094d\u0927\u0940 \u0915\u0948\u0902\u092a",
          "network": "Jaipur Metro",
          "note": "Contributors are requested to not edit the \"network\" and the \"operator\" tags. (2023/11/08)",
          "operator": "Jaipur Metro Rail Corporation Limited",
          "public_transport": "stop_position",
          "public_transport:version": "2",
          "railway": "stop",
          "ref": "SICP",
          "shelter": "yes",
          "subway": "yes",
          "wheelchair": "yes"
        }
      },
      {
        "type": "node",
        "id": 7043371087,
        "lat": 26.9377151,
        "lon": 75.7854078,
        "tags": {
          "amenity": "fuel",
          "brand": "Bharat Petroleum",
          "brand:wikidata": "Q854826",
          "name": "MK Filling Station - Bharat petroleum"
        }
      },
      {
        "type": "node",
        "id": 7043371092,
        "lat": 26.9393253,
        "lon": 75.7809441,
        "tags": {
          "amenity": "fuel",
          "brand": "Indian Oil",
          "brand:wikidata": "Q1289348",
          "name": "Indian Oil"
        }
      },
      {
        "type": "node",
        "id": 7043371112,
        "lat": 26.9418055,
        "lon": 75.7734224,
        "tags": {
          "amenity": "bus_station",
          "bus": "yes",
          "name": "Chomu Pulia",
          "public_transport": "station"
        }
      },
      {
        "type": "node",
        "id": 7049512594,
        "lat": 26.9411015,
        "lon": 75.7713651,
        "tags": {
          "addr:city": "Jaipur",
          "addr:street": "Jhotwara Road",
          "amenity": "cinema",
          "brand": "Cin\u00e9polis",
          "brand:wikidata": "Q5686673",
          "name": "Cinepolis"
        }
      },
      {
        "type": "node",
        "id": 7707870458,
        "lat": 26.9202441,
        "lon": 75.7863643,
        "tags": {
          "name": "Jaipur Junction",
          "name:de": "Jaipur Junction Gleis 5",
          "public_transport": "stop_position",
          "railway": "stop",
          "ref": "5",
          "train": "yes"
        }
      },
      {
        "type": "node",
        "id": 7707870459,
        "lat": 26.9203278,
        "lon": 75.786465,
        "tags": {
          "name": "Jaipur Junction",
          "name:de": "Jaipur Junction Gleis 4",
          "public_transport": "stop_position",
          "railway": "stop",
          "ref": "4",
          "train": "yes"
        }
      },
      {
        "type": "node",
        "id": 7707870460,
        "lat": 26.9203604,
        "lon": 75.7865017,
        "tags": {
          "name": "Jaipur Junction",
          "name:de": "Jaipur Junction Gleis 3",
          "public_transport": "stop_position",
          "railway": "stop",
          "ref": "3",
          "train": "yes"
        }
      },
      {
        "type": "node",
        "id": 7707870461,
        "lat": 26.9204689,
        "lon": 75.7866071,
        "tags": {
          "name": "Jaipur Junction",
          "name:de": "Jaipur Junction Gleis 2",
          "public_transport": "stop_position",
          "railway": "stop",
          "ref": "2",
          "train": "yes"
        }
      },
      {
        "type": "node",
        "id": 7707870462,
        "lat": 26.9204954,
        "lon": 75.7866329,
        "tags": {
          "name": "Jaipur Junction",
          "name:de": "Jaipur Junction Gleis 1",
          "public_transport": "stop_position",
          "railway": "stop",
          "ref": "1",
          "train": "yes"
        }
      },
      {
        "type": "node",
        "id": 8041984445,
        "lat": 26.9356052,
        "lon": 75.7918151,
        "tags": {
          "addr:city": "Jaipur",
          "addr:housenumber": "City Plaza, Pani Pech",
          "addr:street": "Meera Marg",
          "amenity": "cinema",
          "brand": "INOX Leisure",
          "brand:wikidata": "Q5972349",
          "name": "Inox City Plaza - Space Cinemas",
          "short_name": "INOX"
        }
      },
      {
        "type": "node",
        "id": 8042601995,
        "lat": 26.9180968,
        "lon": 75.7901165,
        "tags": {
          "name": "Railway Station",
          "name:hi": "\u0930\u0947\u0932\u0935\u0947 \u0938\u094d\u091f\u0947\u0936\u0928",
          "network": "Jaipur Metro",
          "note": "Contributors are requested to not edit the \"network\" and the \"operator\" tags. (2023/11/08)",
          "operator": "Jaipur Metro Rail Corporation Limited",
          "public_transport": "stop_position",
          "public_transport:version": "2",
          "railway": "stop",
          "ref": "MRSN",
          "shelter": "yes",
          "subway": "yes",
          "wheelchair": "yes"
        }
      },
      {
        "type": "node",
        "id": 8044083221,
        "lat": 26.9266005,
        "lon": 75.807892,
        "tags": {
          "name": "Chandpole",
          "name:hi": "\u091a\u093e\u0902\u0926\u092a\u094b\u0932",
          "network": "Jaipur Metro",
          "note": "Contributors are requested to not edit the \"network\" and the \"operator\" tags. (2023/11/08)",
          "operator": "Jaipur Metro Rail Corporation Limited",
          "public_transport": "station",
          "public_transport:version": "2",
          "railway": "station",
          "ref": "CDPE",
          "shelter": "yes",
          "station": "subway",
          "subway": "yes",
          "wheelchair": "yes",
          "wikidata": "Q28180449",
          "wikipedia": "en:Chandpole metro station"
        }
      },
      {
        "type": "node",
        "id": 8075691873,
        "lat": 26.9188762,
        "lon": 75.7982521,
        "tags": {
          "bus": "yes",
          "highway": "bus_stop",
          "name": "Ganpati plaza",
          "public_transport": "stop_position"
        }
      },
      {
        "type": "node",
        "id": 8075691874,
        "lat": 26.9189549,
        "lon": 75.7983159,
        "tags": {
          "bus": "yes",
          "highway": "bus_stop",
          "name": "Ganpati plaza",
          "public_transport": "stop_position"
        }
      },
      {
        "type": "node",
        "id": 8665176577,
        "lat": 26.91708,
        "lon": 75.8006737,
        "tags": {
          "amenity": "fuel"
        }
      },
      {
        "type": "node",
        "id": 10936787897,
        "lat": 26.9167126,
        "lon": 75.8048644,
        "tags": {
          "amenity": "fuel",
          "brand": "Hindustan Petroleum",
          "brand:wikidata": "Q1619375",
          "name": "HP",
          "official_name": "Hindustan Petroleum"
        }
      },
      {
        "type": "node",
        "id": 11590666267,
        "lat": 26.9361625,
        "lon": 75.792179,
        "tags": {
          "amenity": "fuel",
          "brand": "Hindustan Petroleum",
          "brand:wikidata": "Q1619375",
          "name": "HP",
          "official_name": "Hindustan Petroleum"
        }
      },
      {
        "type": "node",
        "id": 11590790757,
        "lat": 26.9341212,
        "lon": 75.7954262,
        "tags": {
          "amenity": "fuel",
          "brand": "Indian Oil",
          "brand:wikidata": "Q1289348",
          "name": "Indian Oil"
        }
      }
    ]
  }
}