{
  "pois_1km": {
    "version": 0.6,
    "generator": "Overpass API 0.7.62.8 e802775f",
    "osm3s": {
      "timestamp_osm_base": "2025-09-07T13:24:00Z",
      "copyright": "The data included in this document is from www.openstreetmap.org. The data is made available under ODbL."
    },
    "elements": [
      {
        "type": "node",
        "id": 6938645048,
        "lat": 26.8949234,
        "lon": 75.7484689,
        "tags": {
          "addr:city": "Jaipur",
          "addr:postcode": "302021",
          "addr:street": "Ajmer Road",
          "amenity": "fast_food",
          "brand": "McDonald's",
          "brand:pa": "\u0a2e\u0a48\u0a15\u0a21\u0a4b\u0a28\u0a32\u0a21\u2019\u0a1c\u0a3c",
          "brand:ur": "\u0645\u06a9\u0688\u0648\u0646\u0644\u0688\u0632",
          "brand:wikidata": "Q38076",
          "brand:wikipedia": "en:McDonald's",
          "brand:wikipedia:pa": "\u0a2e\u0a48\u0a15\u0a21\u0a4b\u0a28\u0a32\u0a21\u2019\u0a1c\u0a3c",
          "brand:wikipedia:ur": "\u0645\u06a9\u0688\u0648\u0646\u0644\u0688\u0632",
          "cuisine": "burger",
          "drive_through": "yes",
          "name": "McDonald's",
          "name:pa": "\u0a2e\u0a48\u0a15\u0a21\u0a4b\u0a28\u0a32\u0a21\u2019\u0a1c\u0a3c",
          "name:ur": "\u0645\u06a9\u0688\u0648\u0646\u0644\u0688\u0632",
          "takeaway": "yes"
        }
      },
      {
        "type": "node",
        "id": 6968230707,
        "lat": 26.9034635,
        "lon": 75.7531462,
        "tags": {
          "amenity": "restaurant",
          "name": "Kanha Restaurant"
        }
      },
      {
        "type": "node",
        "id": 6968230708,
        "lat": 26.9044357,
        "lon": 75.7529725,
        "tags": {
          "amenity": "bank",
          "atm": "yes",
          "brand": "State Bank of India",
          "brand:wikidata": "Q1340361",
          "name": "State Bank of India",
          "short_name": "SBI"
        }
      },
      {
        "type": "node",
        "id": 7027800130,
        "lat": 26.9003251,
        "lon": 75.7516079,
        "tags": {
          "addr:district": "Jaipur",
          "addr:full": "A -100, Bhan Nagar, Main Vidhut Nagar, Queens Roads",
          "addr:postcode": "302021",
          "addr:state": "Rajasthan",
          "amenity": "hospital",
          "name": "Tyagi Eye Hospital",
          "source": "OpenGovernmentData",
          "website": "https://tyagieyehospital.com/"
        }
      },
      {
        "type": "node",
        "id": 7035005280,
        "lat": 26.8972552,
        "lon": 75.7522546,
        "tags": {
          "addr:district": "Jaipur",
          "addr:full": "A-35, Vidhyut Nagar, Ajmer Road,Purani Chungi",
          "addr:postcode": "302021",
          "addr:state": "Rajasthan",
          "amenity": "hospital",
          "name": "Shubh Hospital",
          "source": "OpenGovernmentData"
        }
      },
      {
        "type": "node",
        "id": 7035102789,
        "lat": 26.897425,
        "lon": 75.7516202,
        "tags": {
          "addr:district": "Jaipur",
          "addr:full": "27,Vidhyut Nagar-A,Ajmer Road",
          "addr:postcode": "302021",
          "addr:state": "Rajasthan",
          "amenity": "hospital",
          "name": "Shri Niddan Hospital and Hope Fertility Centre",
          "source": "OpenGovernmentData"
        }
      },
      {
        "type": "node",
        "id": 7040062370,
        "lat": 26.9057163,
        "lon": 75.7493268,
        "tags": {
          "addr:district": "Jaipur",
          "addr:full": "195, Gandhi Path , Queens Road",
          "addr:postcode": "302001",
          "addr:state": "Rajasthan",
          "amenity": "hospital",
          "healthcare": "hospital",
          "name": "Aarogya Hospital, Jaipur",
          "source": "OpenGovernmentData"
        }
      },
      {
        "type": "node",
        "id": 7040598132,
        "lat": 26.8967008,
        "lon": 75.7520065,
        "tags": {
          "addr:district": "Jaipur",
          "addr:full": "11, Vidhyut Nagar, Ajmer Road",
          "addr:postcode": "302019",
          "addr:state": "Rajasthan",
          "amenity": "hospital",
          "name": "Deenbandhu Hospital",
          "source": "OpenGovernmentData"
        }
      },
      {
        "type": "node",
        "id": 7041677429,
        "lat": 26.8968558,
        "lon": 75.7519657,
        "tags": {
          "addr:city": "Jaipur",
          "addr:postcode": "302021",
          "addr:street": "Prince Road",
          "amenity": "restaurant",
          "cuisine": "south_indian;indian",
          "name": "Sankalp"
        }
      },
      {
        "type": "node",
        "id": 7066230345,
        "lat": 26.9017925,
        "lon": 75.7426909,
        "tags": {
          "amenity": "atm",
          "name": "Sbi atm"
        }
      },
      {
        "type": "node",
        "id": 7066234974,
        "lat": 26.9060023,
        "lon": 75.7521435,
        "tags": {
          "amenity": "atm",
          "brand": "State Bank of India",
          "brand:en": "State Bank of India",
          "brand:wikidata": "Q1340361",
          "currency:INR": "yes",
          "drive_through": "no",
          "indoor": "yes",
          "name": "Sbi atm",
          "note": "Contributors are requested to not edit the \"brand\", \"brand:en\", \"brand:wikidata\", \"operator\", \"operator:en\" and \"operator:wikidata\" tags. (2025/03/03)",
          "opening_hours": "24/7",
          "operator": "State Bank of India",
          "operator:en": "State Bank of India",
          "operator:wikidata": "Q1340361",
          "short_name": "SBI"
        }
      },
      {
        "type": "node",
        "id": 7098288589,
        "lat": 26.8970678,
        "lon": 75.751882,
        "tags": {
          "amenity": "bank",
          "brand": "Punjab & Sind Bank",
          "brand:pa": "\u0a2a\u0a70\u0a1c\u0a3e\u0a2c \u0a10\u0a02\u0a21 \u0a38\u0a3f\u0a70\u0a27 \u0a2c\u0a48\u0a02\u0a15",
          "brand:ur": "\u067e\u0646\u062c\u0627\u0628 \u0627\u06cc\u0646\u0688 \u0633\u0646\u062f\u06be \u0628\u06cc\u0646\u06a9",
          "brand:website": "https://punjabandsindbank.co.in/",
          "brand:wikidata": "Q2003302",
          "name": "Punjab & Sind Bank",
          "name:pa": "\u0a2a\u0a70\u0a1c\u0a3e\u0a2c \u0a10\u0a02\u0a21 \u0a38\u0a3f\u0a70\u0a27 \u0a2c\u0a48\u0a02\u0a15",
          "name:ur": "\u067e\u0646\u062c\u0627\u0628 \u0627\u06cc\u0646\u0688 \u0633\u0646\u062f\u06be \u0628\u06cc\u0646\u06a9"
        }
      },
      {
        "type": "node",
        "id": 7698135293,
        "lat": 26.9035844,
        "lon": 75.7493901,
        "tags": {
          "addr:district": "Jaipur",
          "addr:full": "Moti Nagar, Nityanand Nagar, Vaishali Nagar",
          "addr:postcode": "302015",
          "addr:state": "Rajasthan",
          "amenity": "clinic",
          "healthcare": "clinic",
          "name": "Agrawal Clinic",
          "source": "Local Knowledge"
        }
      },
      {
        "type": "node",
        "id": 7698135294,
        "lat": 26.9043929,
        "lon": 75.7524121,
        "tags": {
          "addr:district": "Jaipur",
          "addr:full": "Gandhipath, Vaishali Nagar",
          "addr:postcode": "302021",
          "addr:state": "Rajasthan",
          "amenity": "clinic",
          "healthcare": "clinic",
          "name": "Kasliwal Heart Clinic",
          "source": "Local Knowledge"
        }
      },
      {
        "type": "node",
        "id": 7698135303,
        "lat": 26.9023725,
        "lon": 75.7430105,
        "tags": {
          "addr:district": "Jaipur",
          "addr:full": "Vaishali Nagar",
          "addr:postcode": "302021",
          "addr:state": "Rajasthan",
          "amenity": "clinic",
          "name": "City Family Clinic",
          "source": "Local Knowledge"
        }
      },
      {
        "type": "node",
        "id": 7698135343,
        "lat": 26.9019575,
        "lon": 75.7456864,
        "tags": {
          "addr:district": "Jaipur",
          "addr:full": "Queens Road, Moti Nagar, Bhan Nagar",
          "addr:postcode": "302015",
          "addr:state": "Rajasthan",
          "amenity": "clinic",
          "name": "Raj Clinic",
          "source": "Local Knowledge"
        }
      },
      {
        "type": "node",
        "id": 7698135345,
        "lat": 26.904354,
        "lon": 75.7499481,
        "tags": {
          "addr:district": "Jaipur",
          "addr:full": "Nityanand Nagar, Vidhyut Nagar",
          "addr:postcode": "302021",
          "addr:state": "Rajasthan",
          "amenity": "doctors",
          "healthcare": "doctor",
          "name": "Dr. Prashant Modi",
          "source": "Local Knowledge"
        }
      },
      {
        "type": "node",
        "id": 7698135356,
        "lat": 26.9041518,
        "lon": 75.7469535,
        "tags": {
          "addr:district": "Jaipur",
          "addr:full": "Jaipur",
          "addr:postcode": "302021",
          "addr:state": "Rajasthan",
          "amenity": "clinic",
          "healthcare": "clinic",
          "healthcare:speciality": "physiotherapy",
          "name": "Jain Physiotherapy Clinic",
          "source": "Local Knowledge"
        }
      },
      {
        "type": "node",
        "id": 7698135359,
        "lat": 26.8988402,
        "lon": 75.7507882,
        "tags": {
          "addr:district": "Jaipur",
          "addr:full": "Ajmer Road, Vidhyut Nagar, Jaipur",
          "addr:postcode": "302021",
          "addr:state": "Rajasthan",
          "amenity": "hospital",
          "name": "Kothari Hospital",
          "source": "Local Knowledge"
        }
      },
      {
        "type": "node",
        "id": 7698135373,
        "lat": 26.900815,
        "lon": 75.7517516,
        "tags": {
          "addr:district": "Jaipur",
          "addr:full": "Sarthi Marg, Bhan Nagar",
          "addr:postcode": "302021",
          "addr:state": "Rajasthan",
          "amenity": "clinic",
          "name": "Vivanta Clinics",
          "source": "Local Knowledge"
        }
      },
      {
        "type": "node",
        "id": 7698135379,
        "lat": 26.904083,
        "lon": 75.7444526,
        "tags": {
          "addr:district": "Jaipur",
          "addr:full": "Vaishali Nagar",
          "addr:postcode": "302021",
          "addr:state": "Rajasthan",
          "amenity": "clinic",
          "healthcare": "clinic",
          "name": "Dr. Payal Physiotherapy Clinic",
          "source": "Local Knowledge"
        }
      },
      {
        "type": "node",
        "id": 8903968898,
        "lat": 26.9035157,
        "lon": 75.7530934,
        "tags": {
          "amenity": "restaurant",
          "name": "Tan-Sukh"
        }
      },
      {
        "type": "node",
        "id": 12133985361,
        "lat": 26.9054769,
        "lon": 75.7481873,
        "tags": {
          "addr:city": "Jaipur, Rajasthan",
          "addr:district": "Jaipur",
          "addr:housenumber": "A235",
          "addr:postcode": "302021",
          "addr:street": "Guru Jhambeshwar Nagar A, Queens Road, opposite Narayan Gajak, Gandhi Path W, Vaishali Nagar,",
          "amenity": "hospital",
          "description": "Physio Healer is a leading physiotherapy clinic in Jaipur dedicated to providing personalized care and effective treatment solutions. Our experienced team of physiotherapists specializes in pain relief, injury rehabilitation, and improving mobility.",
          "email": "physiohealer26@gmail.com",
          "healthcare": "hospital",
          "healthcare:speciality": "physiotherapy;osteopathy",
          "mobile": "+917610993879",
          "name": "Physio Healer",
          "operator": "Physio Healer",
          "operator:type": "private",
          "website": "https://www.physiohealer.com/"
        }
      }
    ]
  },
  "pois_2_5km": {
    "version": 0.6,
    "generator": "Overpass API 0.7.62.8 e802775f",
    "osm3s": {
      "timestamp_osm_base": "2025-09-07T13:24:00Z",
      "copyright": "The data included in this document is from www.openstreetmap.org. The data is made available under ODbL."
    },
    "elements": [
      {
        "type": "node",
        "id": 3139920401,
        "lat": 26.9017699,
        "lon": 75.7746219,
        "tags": {
          "layer": "1",
          "name": "Ram Nagar",
          "name:hi": "\u0930\u093e\u092e \u0928\u0917\u0930",
          "network": "Jaipur Metro",
          "note": "Contributors are requested to not edit the \"network\" and the \"operator\" tags. (2023/11/08)",
          "operator": "Jaipur Metro Rail Corporation Limited",
          "public_transport": "stop_position",
          "public_transport:version": "2",
          "railway": "stop",
          "ref": "RMNR",
          "subway": "yes"
        }
      },
      {
        "type": "node",
        "id": 3139920402,
        "lat": 26.8964858,
        "lon": 75.7706033,
        "tags": {
          "name": "Shyam Nagar",
          "name:hi": "\u0936\u094d\u092f\u093e\u092e \u0928\u0917\u0930",
          "network": "Jaipur Metro",
          "note": "Contributors are requested to not edit the \"network\" and the \"operator\" tags. (2023/11/08)",
          "operator": "Jaipur Metro Rail Corporation Limited",
          "public_transport": "stop_position",
          "public_transport:version": "2",
          "railway": "stop",
          "ref": "SMNR",
          "subway": "yes"
        }
      },
      {
        "type": "node",
        "id": 3139920403,
        "lat": 26.8884622,
        "lon": 75.7683818,
        "tags": {
          "name": "Vivek Vihar",
          "name:hi": "\u0935\u093f\u0935\u0947\u0915 \u0935\u093f\u0939\u093e\u0930",
          "network": "Jaipur Metro",
          "note": "Contributors are requested to not edit the \"network\" and the \"operator\" tags. (2023/11/08)",
          "operator": "Jaipur Metro Rail Corporation Limited",
          "public_transport": "stop_position",
          "public_transport:version": "2",
          "railway": "stop",
          "ref": "VKVR",
          "subway": "yes"
        }
      },
      {
        "type": "node",
        "id": 6938645049,
        "lat": 26.8954164,
        "lon": 75.7486286,
        "tags": {
          "addr:city": "Jaipur",
          "addr:postcode": "302021",
          "addr:street": "Ajmer Road",
          "air_conditioning": "yes",
          "amenity": "cinema",
          "name": "Inox Movies Cinema",
          "payment:cards": "yes",
          "payment:cash": "yes",
          "payment:online_booking": "yes",
          "screen": "2"
        }
      },
      {
        "type": "node",
        "id": 6966530613,
        "lat": 26.912806,
        "lon": 75.7434174,
        "tags": {
          "air_conditioning": "yes",
          "amenity": "cinema",
          "brand": "INOX Leisure",
          "brand:wikidata": "Q5972349",
          "name": "Inox Cinemas Vaibhav Tower",
          "payment:cards": "yes",
          "payment:cash": "yes",
          "screen": "2",
          "short_name": "INOX"
        }
      },
      {
        "type": "node",
        "id": 6968230709,
        "lat": 26.9059908,
        "lon": 75.7519889,
        "tags": {
          "amenity": "fuel",
          "brand": "Hindustan Petroleum",
          "brand:wikidata": "Q1619375",
          "brand:wikipedia": "en:Hindustan Petroleum",
          "name": "HP - GURU JAMBESHWAR PETRO SERVICES",
          "official_name": "Hindustan Petroleum"
        }
      },
      {
        "type": "node",
        "id": 6968230710,
        "lat": 26.914146,
        "lon": 75.7528759,
        "tags": {
          "amenity": "fuel",
          "brand": "Hindustan Petroleum",
          "brand:wikidata": "Q1619375",
          "name": "HP",
          "official_name": "Hindustan Petroleum"
        }
      },
      {
        "type": "node",
        "id": 6968230711,
        "lat": 26.897245,
        "lon": 75.7532693,
        "tags": {
          "amenity": "fuel",
          "brand": "Hindustan Petroleum",
          "brand:wikidata": "Q1619375",
          "name": "HP",
          "official_name": "Hindustan Petroleum"
        }
      },
      {
        "type": "node",
        "id": 6968230712,
        "lat": 26.9004314,
        "lon": 75.7691078,
        "tags": {
          "amenity": "fuel",
          "brand": "Hindustan Petroleum",
          "brand:wikidata": "Q1619375",
          "name": "HP",
          "official_name": "Hindustan Petroleum"
        }
      },
      {
        "type": "node",
        "id": 6968230713,
        "lat": 26.901353,
        "lon": 75.7709911,
        "tags": {
          "amenity": "fuel",
          "brand": "Indian Oil",
          "brand:wikidata": "Q1289348",
          "name": "Indian Oil"
        }
      },
      {
        "type": "node",
        "id": 8042098373,
        "lat": 26.9017572,
        "lon": 75.7746732,
        "tags": {
          "layer": "1",
          "name": "Ram Nagar",
          "name:hi": "\u0930\u093e\u092e \u0928\u0917\u0930",
          "network": "Jaipur Metro",
          "note": "Contributors are requested to not edit the \"network\" and the \"operator\" tags. (2023/11/08)",
          "operator": "Jaipur Metro Rail Corporation Limited",
          "public_transport": "stop_position",
          "public_transport:version": "2",
          "railway": "stop",
          "ref": "RMNR",
          "subway": "yes"
        }
      },
      {
        "type": "node",
        "id": 8042595542,
        "lat": 26.8884508,
        "lon": 75.7684353,
        "tags": {
          "name": "Vivek Vihar",
          "name:hi": "\u0935\u093f\u0935\u0947\u0915 \u0935\u093f\u0939\u093e\u0930",
          "network": "Jaipur Metro",
          "note": "Contributors are requested to not edit the \"network\" and the \"operator\" tags. (2023/11/08)",
          "operator": "Jaipur Metro Rail Corporation Limited",
          "public_transport": "stop_position",
          "public_transport:version": "2",
          "railway": "stop",
          "ref": "VKVR",
          "subway": "yes"
        }
      },
      {
        "type": "node",
        "id": 8042602063,
        "lat": 26.8964694,
        "lon": 75.7706558,
        "tags": {
          "name": "Shyam Nagar",
          "name:hi": "\u0936\u094d\u092f\u093e\u092e \u0928\u0917\u0930",
          "network": "Jaipur Metro",
          "note": "Contributors are requested to not edit the \"network\" and the \"operator\" tags. (2023/11/08)",
          "operator": "Jaipur Metro Rail Corporation Limited",
          "public_transport": "stop_position",
          "public_transport:version": "2",
          "railway": "stop",
          "ref": "SMNR",
          "subway": "yes"
        }
      },
      {
        "type": "node",
        "id": 8149193787,
        "lat": 26.8964768,
        "lon": 75.7706279,
        "tags": {
          "name": "Shyam Nagar",
          "name:hi": "\u0936\u094d\u092f\u093e\u092e \u0928\u0917\u0930",
          "network": "Jaipur Metro",
          "note": "Contributors are requested to not edit the \"network\" and the \"operator\" tags. (2023/11/08)",
          "operator": "Jaipur Metro Rail Corporation Limited",
          "public_transport": "station",
          "public_transport:version": "2",
          "railway": "station",
          "ref": "SMNR",
          "shelter": "yes",
          "station": "subway",
          "subway": "yes",
          "wheelchair": "yes",
          "wikidata": "Q28180421",
          "wikipedia": "en:Shyam Nagar metro station"
        }
      },
      {
        "type": "node",
        "id": 8149193788,
        "lat": 26.8884539,
        "lon": 75.768407,
        "tags": {
          "name": "Vivek Vihar",
          "name:hi": "\u0935\u093f\u0935\u0947\u0915 \u0935\u093f\u0939\u093e\u0930",
          "network": "Jaipur Metro",
          "note": "Contributors are requested to not edit the \"network\" and the \"operator\" tags. (2023/11/08)",
          "operator": "Jaipur Metro Rail Corporation Limited",
          "public_transport": "station",
          "public_transport:version": "2",
          "railway": "station",
          "ref": "VKVR",
          "shelter": "yes",
          "station": "subway",
          "subway": "yes",
          "wheelchair": "yes",
          "wikidata": "Q28180413",
          "wikipedia": "en:Vivek Vihar metro station"
        }
      }
    ]
  }
}