{
  "pois_1km": {
    "version": 0.6,
    "generator": "Overpass API 0.7.62.8 e802775f",
    "osm3s": {
      "timestamp_osm_base": "2025-09-07T13:39:21Z",
      "copyright": "The data included in this document is from www.openstreetmap.org. The data is made available under ODbL."
    },
    "elements": [
      {
        "type": "node",
        "id": 7038735480,
        "lat": 26.8007644,
        "lon": 75.8619395,
        "tags": {
          "addr:district": "Jaipur",
          "addr:full": "Jeevan Rehka Marg,S-24,Mahal Yojna,Jagatpura",
          "addr:postcode": "302025",
          "addr:state": "Rajasthan",
          "amenity": "hospital",
          "name": "Jeevan Rekha Critical Care and Trauma Hospital",
          "source": "OpenGovernmentData"
        }
      },
      {
        "type": "node",
        "id": 7695122998,
        "lat": 26.8031836,
        "lon": 75.8555926,
        "tags": {
          "addr:district": "Jaipur",
          "addr:full": "Jagatpura",
          "addr:postcode": "302017",
          "addr:state": "Rajasthan",
          "amenity": "hospital",
          "name": "Ramanji Hospital",
          "source": "Local Knowledge"
        }
      },
      {
        "type": "node",
        "id": 7695123004,
        "lat": 26.8060065,
        "lon": 75.8457503,
        "tags": {
          "addr:district": "Jaipur",
          "addr:full": "Pratap Nagar",
          "addr:postcode": "302033",
          "addr:state": "Rajasthan",
          "amenity": "hospital",
          "name": "Harmony National Homeopathy Hospital",
          "source": "Local Knowledge"
        }
      }
    ]
  },
  "pois_2_5km": {
    "version": 0.6,
    "generator": "Overpass API 0.7.62.8 e802775f",
    "osm3s": {
      "timestamp_osm_base": "2025-09-07T13:39:21Z",
      "copyright": "The data included in this document is from www.openstreetmap.org. The data is made available under ODbL."
    },
    "elements": [
      {
        "type": "node",
        "id": 8883763422,
        "lat": 26.8032504,
        "lon": 75.8598257,
        "tags": {
          "amenity": "fuel",
          "name": "Bharat Petrol Pump"
        }
      },
      {
        "type": "node",
        "id": 11773201162,
        "lat": 26.8173467,
        "lon": 75.8632763,
        "tags": {
          "amenity": "fuel",
          "brand": "Bharat Petroleum",
          "brand:wikidata": "Q854826",
          "name": "Bharat Petroleum"
        }
      }
    ]
  }
}