{
  "pois_1km": {
    "version": 0.6,
    "generator": "Overpass API 0.7.62.8 e802775f",
    "osm3s": {
      "timestamp_osm_base": "2025-09-07T13:12:45Z",
      "copyright": "The data included in this document is from www.openstreetmap.org. The data is made available under ODbL."
    },
    "elements": [
      {
        "type": "node",
        "id": 691261875,
        "lat": 26.9106803,
        "lon": 75.7985655,
        "tags": {
          "amenity": "restaurant",
          "name": "Anokhi Cafe"
        }
      },
      {
        "type": "node",
        "id": 1466911301,
        "lat": 26.9163399,
        "lon": 75.807437,
        "tags": {
          "amenity": "atm"
        }
      },
      {
        "type": "node",
        "id": 1466911306,
        "lat": 26.9152206,
        "lon": 75.8099046,
        "tags": {
          "amenity": "fast_food"
        }
      },
      {
        "type": "node",
        "id": 2130274953,
        "lat": 26.9149,
        "lon": 75.7947041,
        "tags": {
          "addr:housenumber": "1",
          "addr:street": "Gopal Bari, Ajmer Road",
          "amenity": "doctors",
          "healthcare": "doctor",
          "name": "Dental Care Centre 2"
        }
      },
      {
        "type": "node",
        "id": 2777043235,
        "lat": 26.9173942,
        "lon": 75.8046009,
        "tags": {
          "amenity": "restaurant",
          "name": "Old Green Tandori Dhaba"
        }
      },
      {
        "type": "node",
        "id": 3258246837,
        "lat": 26.917067,
        "lon": 75.8004209,
        "tags": {
          "addr:city": "Jaipur",
          "addr:housenumber": "Plot No, 1, Elevated Ajmer Rd, opposite Government hostel, Gopalbari, Jaipur, Rajasthan 302006",
          "addr:street": "Ajmer Road",
          "name": "Vishal",
          "shop": "supermarket"
        }
      },
      {
        "type": "node",
        "id": 3677351613,
        "lat": 26.9177877,
        "lon": 75.7998401,
        "tags": {
          "amenity": "atm",
          "name": "Indian State Bank"
        }
      },
      {
        "type": "node",
        "id": 3677353029,
        "lat": 26.91869,
        "lon": 75.7985653,
        "tags": {
          "amenity": "atm",
          "brand": "Karnataka Bank",
          "brand:wikidata": "Q2042632",
          "name": "Karnataka Bank",
          "operator": "Karnataka Bank",
          "operator:wikidata": "Q2042632"
        }
      },
      {
        "type": "node",
        "id": 3677353030,
        "lat": 26.9181265,
        "lon": 75.7996745,
        "tags": {
          "amenity": "atm",
          "brand": "ICICI Bank",
          "brand:en": "ICICI Bank",
          "brand:wikidata": "Q1653258",
          "currency:INR": "yes",
          "drive_through": "no",
          "indoor": "yes",
          "name": "Icici Bank",
          "note": "Contributors are requested to not edit the \"brand\", \"brand:en\", \"brand:wikidata\", \"operator\", \"operator:en\" and \"operator:wikidata\" tags. (2025/03/03)",
          "opening_hours": "24/7",
          "operator": "ICICI Bank",
          "operator:en": "ICICI Bank",
          "operator:wikidata": "Q1653258",
          "short_name": "ICICI"
        }
      },
      {
        "type": "node",
        "id": 3677355516,
        "lat": 26.9183265,
        "lon": 75.7995141,
        "tags": {
          "amenity": "atm",
          "brand": "Indian Overseas Bank",
          "brand:wikidata": "Q2003611",
          "name": "Indian Overseas Bank",
          "operator": "Indian Overseas Bank",
          "operator:wikidata": "Q2003611"
        }
      },
      {
        "type": "node",
        "id": 3685074340,
        "lat": 26.9173922,
        "lon": 75.7951707,
        "tags": {
          "amenity": "pharmacy",
          "healthcare": "pharmacy"
        }
      },
      {
        "type": "node",
        "id": 3685074595,
        "lat": 26.9174637,
        "lon": 75.797276,
        "tags": {
          "amenity": "pharmacy",
          "healthcare": "pharmacy"
        }
      },
      {
        "type": "node",
        "id": 3685074596,
        "lat": 26.915555,
        "lon": 75.7949393,
        "tags": {
          "amenity": "cafe",
          "check_date": "2023-10-23",
          "name": "Nibs",
          "payment:credit_cards": "yes",
          "payment:debit_cards": "yes"
        }
      },
      {
        "type": "node",
        "id": 3685075825,
        "lat": 26.9194775,
        "lon": 75.7996659,
        "tags": {
          "addr:housenumber": "109",
          "addr:street": "M. I. Road",
          "amenity": "restaurant",
          "brand": "Pizza Hut",
          "brand:wikidata": "Q191615",
          "cuisine": "pizza",
          "name": "Pizza Hut"
        }
      },
      {
        "type": "node",
        "id": 3781906926,
        "lat": 26.9159839,
        "lon": 75.8098987,
        "tags": {
          "amenity": "fast_food",
          "brand": "McDonald's",
          "brand:pa": "\u0a2e\u0a48\u0a15\u0a21\u0a4b\u0a28\u0a32\u0a21\u2019\u0a1c\u0a3c",
          "brand:ur": "\u0645\u06a9\u0688\u0648\u0646\u0644\u0688\u0632",
          "brand:wikidata": "Q38076",
          "brand:wikipedia": "en:McDonald's",
          "brand:wikipedia:pa": "\u0a2e\u0a48\u0a15\u0a21\u0a4b\u0a28\u0a32\u0a21\u2019\u0a1c\u0a3c",
          "brand:wikipedia:ur": "\u0645\u06a9\u0688\u0648\u0646\u0644\u0688\u0632",
          "cuisine": "burger",
          "name": "McDonald's",
          "name:pa": "\u0a2e\u0a48\u0a15\u0a21\u0a4b\u0a28\u0a32\u0a21\u2019\u0a1c\u0a3c",
          "name:ur": "\u0645\u06a9\u0688\u0648\u0646\u0644\u0688\u0632",
          "takeaway": "yes"
        }
      },
      {
        "type": "node",
        "id": 3806705156,
        "lat": 26.9160946,
        "lon": 75.8101221,
        "tags": {
          "amenity": "bank",
          "atm": "yes",
          "brand": "Allahabad Bank",
          "brand:wikidata": "Q2018840",
          "name": "Allahabad Bank",
          "name:en": "Allahabad Bank",
          "website": "https://www.allahabadbank.in"
        }
      },
      {
        "type": "node",
        "id": 3842336539,
        "lat": 26.9142639,
        "lon": 75.8084565,
        "tags": {
          "amenity": "bank",
          "name": "Rajasthan Urban Co-Operative Bank"
        }
      },
      {
        "type": "node",
        "id": 3842344275,
        "lat": 26.9165159,
        "lon": 75.8093164,
        "tags": {
          "amenity": "atm",
          "brand": "Axis Bank",
          "brand:wikidata": "Q2003549",
          "name": "Axis Bank",
          "operator": "Axis Bank",
          "operator:wikidata": "Q2003549"
        }
      },
      {
        "type": "node",
        "id": 3842344276,
        "lat": 26.9164285,
        "lon": 75.8094487,
        "tags": {
          "addr:housenumber": "D-183, Mahesh Marg, D-Block, Sector 4, Malviya Nagar, Jaipur, Rajasthan 302017",
          "amenity": "restaurant",
          "cuisine": "chinese",
          "name": "Yo China"
        }
      },
      {
        "type": "node",
        "id": 3842353310,
        "lat": 26.9164011,
        "lon": 75.807356,
        "tags": {
          "amenity": "bank",
          "atm": "yes",
          "brand": "Standard Chartered",
          "brand:wikidata": "Q548278",
          "name": "Standard Chartered"
        }
      },
      {
        "type": "node",
        "id": 3842353311,
        "lat": 26.9163608,
        "lon": 75.8077409,
        "tags": {
          "amenity": "bank",
          "atm": "yes",
          "brand": "ICICI Bank",
          "brand:wikidata": "Q1653258",
          "name": "ICICI Bank",
          "name:en": "ICICI Bank",
          "short_name": "ICICI",
          "website": "https://www.icicibank.com"
        }
      },
      {
        "type": "node",
        "id": 3842381184,
        "lat": 26.9162514,
        "lon": 75.8086879,
        "tags": {
          "addr:housenumber": "C-16, Bhagwan Das Rd, Panch Batti, C Scheme, Ashok Nagar, Jaipur, Rajasthan 302001",
          "amenity": "bank",
          "brand": "Punjab National Bank",
          "brand:wikidata": "Q2743499",
          "brand:wikipedia": "en:Punjab National Bank",
          "name": "Punjab National Bank",
          "name:en": "Punjab National Bank",
          "short_name": "PNB",
          "website": "https://www.pnbindia.in"
        }
      },
      {
        "type": "node",
        "id": 4015018939,
        "lat": 26.9060748,
        "lon": 75.7970467,
        "tags": {
          "addr:city": "Jaipur",
          "addr:housenumber": "R-14",
          "addr:postcode": "302001",
          "addr:street": "Yudhishthir Marg",
          "amenity": "cafe",
          "brand": "Cafe Coffee Day",
          "brand:wikidata": "Q5017235",
          "brand:wikipedia": "en:Caf\u00e9 Coffee Day",
          "cuisine": "coffee_shop",
          "internet_access": "no",
          "level": "0",
          "name": "Cafe Coffee Day",
          "opening_hours": "11:00-23:00",
          "phone": "+911414048647",
          "smoking": "outside",
          "takeaway": "yes",
          "website": "https://www.cafecoffeeday.com/",
          "wheelchair": "limited"
        }
      },
      {
        "type": "node",
        "id": 4460472108,
        "lat": 26.9151335,
        "lon": 75.8099213,
        "tags": {
          "amenity": "fast_food",
          "brand": "Domino's",
          "brand:ks": "\u0688\u0648\u0645\u06cc\u0646\u0648\u0632",
          "brand:pa": "\u0a21\u0a4b\u0a2e\u0a40\u0a28\u0a4b\u0a1c\u0a3c",
          "brand:ur": "\u0688\u0648\u0645\u06cc\u0646\u0648\u0632",
          "brand:wikidata": "Q839466",
          "brand:wikipedia": "en:Domino's Pizza",
          "cuisine": "pizza",
          "name": "Domino's",
          "name:ks": "\u0688\u0648\u0645\u06cc\u0646\u0648\u0632",
          "name:pa": "\u0a21\u0a4b\u0a2e\u0a40\u0a28\u0a4b\u0a1c\u0a3c",
          "name:ur": "\u0688\u0648\u0645\u06cc\u0646\u0648\u0632",
          "takeaway": "yes"
        }
      },
      {
        "type": "node",
        "id": 4579745989,
        "lat": 26.9163329,
        "lon": 75.7956078,
        "tags": {
          "amenity": "restaurant",
          "cuisine": "chinese;indian;italian",
          "internet_access": "wlan",
          "name": "Peacock rooftop restaurant",
          "opening_hours": "Mo-Su 07:30-23:30"
        }
      },
      {
        "type": "node",
        "id": 4703268090,
        "lat": 26.9146995,
        "lon": 75.7996987,
        "tags": {
          "amenity": "atm",
          "brand": "State Bank of India",
          "brand:en": "State Bank of India",
          "brand:wikidata": "Q1340361",
          "currency:INR": "yes",
          "drive_through": "no",
          "indoor": "yes",
          "note": "Contributors are requested to not edit the \"brand\", \"brand:en\", \"brand:wikidata\", \"operator\", \"operator:en\" and \"operator:wikidata\" tags. (2025/03/03)",
          "opening_hours": "24/7",
          "operator": "State Bank of India",
          "operator:en": "State Bank of India",
          "operator:wikidata": "Q1340361",
          "short_name": "SBI"
        }
      },
      {
        "type": "node",
        "id": 4703287189,
        "lat": 26.9139188,
        "lon": 75.799137,
        "tags": {
          "amenity": "atm",
          "opening_hours": "24/7",
          "operator": "India Post ATM"
        }
      },
      {
        "type": "node",
        "id": 4703287289,
        "lat": 26.9147271,
        "lon": 75.7997268,
        "tags": {
          "amenity": "atm",
          "opening_hours": "24/7",
          "operator": "IndusInd Bank ATM"
        }
      },
      {
        "type": "node",
        "id": 4743392521,
        "lat": 26.9157551,
        "lon": 75.8101207,
        "tags": {
          "amenity": "restaurant",
          "cuisine": "chinese;ice_cream;pizza;indian;local",
          "name:de": "The Door's Restaurant",
          "name:en": "The Door's Restaurant",
          "phone": "+911414024597"
        }
      },
      {
        "type": "node",
        "id": 4744578221,
        "lat": 26.9164507,
        "lon": 75.7991333,
        "tags": {
          "amenity": "cafe",
          "name": "coffey Day"
        }
      },
      {
        "type": "node",
        "id": 4763765421,
        "lat": 26.9173574,
        "lon": 75.7994798,
        "tags": {
          "amenity": "atm",
          "brand": "Bank of India",
          "brand:wikidata": "Q2004439",
          "operator": "Bank of India",
          "operator:wikidata": "Q2004439"
        }
      },
      {
        "type": "node",
        "id": 4795736622,
        "lat": 26.9122319,
        "lon": 75.8037901,
        "tags": {
          "amenity": "restaurant",
          "name:en": "Mughal Rasoi Restaurant"
        }
      },
      {
        "type": "node",
        "id": 4826369122,
        "lat": 26.9120381,
        "lon": 75.7920659,
        "tags": {
          "amenity": "restaurant",
          "name": "Cheap food places",
          "name:hi": "Cheap food places"
        }
      },
      {
        "type": "node",
        "id": 4830934021,
        "lat": 26.9063152,
        "lon": 75.7966924,
        "tags": {
          "amenity": "restaurant",
          "name": "Dhaba",
          "name:hi": "Dhaba"
        }
      },
      {
        "type": "node",
        "id": 4900113521,
        "lat": 26.9170712,
        "lon": 75.8047235,
        "tags": {
          "amenity": "restaurant",
          "diet:vegetarian": "only",
          "name": "Green Restaurant Pure Vegetarian"
        }
      },
      {
        "type": "node",
        "id": 4959496421,
        "lat": 26.9169731,
        "lon": 75.80407,
        "tags": {
          "addr:street": "Mirza Ismail Road",
          "amenity": "restaurant",
          "cuisine": "indian;asian",
          "diet:vegetarian": "yes",
          "name": "Copper Chimney",
          "name:en": "Copper Chimney",
          "opening_hours": "Mo-Su 18:30-23:00"
        }
      },
      {
        "type": "node",
        "id": 5144379721,
        "lat": 26.9050829,
        "lon": 75.7946411,
        "tags": {
          "addr:housenumber": "E-145 First",
          "addr:postcode": "302001",
          "addr:street": "Ramesh Marg",
          "amenity": "cafe",
          "internet_access": "wlan",
          "name:en": "Poppin Organic Caf\u00e9",
          "opening_hours": "Mo-Su 11:00-22:00",
          "phone": "+91 97996 28666",
          "website": "https://poppin-organic-cafe.business.site/"
        }
      },
      {
        "type": "node",
        "id": 5147754221,
        "lat": 26.9060714,
        "lon": 75.795372,
        "tags": {
          "amenity": "restaurant",
          "name:en": "Thank god it's healthy"
        }
      },
      {
        "type": "node",
        "id": 5158187422,
        "lat": 26.9192779,
        "lon": 75.7994243,
        "tags": {
          "name:en": "Ganpati Plaza",
          "shop": "supermarket"
        }
      },
      {
        "type": "node",
        "id": 5249183922,
        "lat": 26.9194326,
        "lon": 75.7997638,
        "tags": {
          "addr:city": "Jaipur",
          "addr:street": "Mirza Ismail Road",
          "amenity": "cafe",
          "cuisine": "bun_samosa;tea",
          "name": "Gulab Ji Chai",
          "opening_hours": "Mo-Su 06:00-20:00"
        }
      },
      {
        "type": "node",
        "id": 5393075823,
        "lat": 26.9169628,
        "lon": 75.8053859,
        "tags": {
          "addr:housenumber": "151",
          "addr:street": "Mirza Ismail Road",
          "amenity": "restaurant",
          "name:en": "Old Kebab Shop",
          "opening_hours": "Mo-Su 16:00-23:00"
        }
      },
      {
        "type": "node",
        "id": 5422169221,
        "lat": 26.9042168,
        "lon": 75.7969605,
        "tags": {
          "amenity": "cafe",
          "name": "Curious Life Coffee Roasters"
        }
      },
      {
        "type": "node",
        "id": 5435708321,
        "lat": 26.9023809,
        "lon": 75.8015211,
        "tags": {
          "amenity": "fast_food",
          "name:en": "Street Thali"
        }
      },
      {
        "type": "node",
        "id": 5940047485,
        "lat": 26.9157256,
        "lon": 75.7963116,
        "tags": {
          "addr:housenumber": "64",
          "addr:postcode": "302001",
          "addr:street": "64 \u0939\u0930\u093f\u0915\u093f\u0936\u0928 \u0938\u094b\u092e\u093e\u0928\u0940 \u092e\u093e\u0930\u094d\u0917 \u0939\u0948\u0925\u094d\u0930\u0908 \u0915\u093f\u0932\u093e \u0905\u091c\u092e\u0947\u0930 \u0930\u094b\u0921 \u091c\u092f\u092a\u0941\u0930",
          "amenity": "restaurant",
          "internet_access": "wlan",
          "name:en": "Chillout Jaipur",
          "phone": "+9191161111146",
          "website": "http://www.hathroi.com"
        }
      },
      {
        "type": "node",
        "id": 5953407587,
        "lat": 26.9140104,
        "lon": 75.7987636,
        "tags": {
          "amenity": "restaurant",
          "name": "Jaipur modern"
        }
      },
      {
        "type": "node",
        "id": 6249028885,
        "lat": 26.9162022,
        "lon": 75.7958659,
        "tags": {
          "addr:housenumber": "59 hathroi fort",
          "addr:postcode": "302001",
          "addr:street": "Hari Kisham Somani Marg",
          "amenity": "restaurant",
          "cuisine": "italian_pizza;crepe;noodles;asian;pancake;italian;sandwich;curry;ice_cream;local;mediterranean;chinese;tea;fine_dining;pizza;pasta;indian",
          "email": "hotelkalyan@gmail.com",
          "internet_access": "wlan",
          "name": "Kalyan Rooftop Restaurant",
          "opening_hours": "Mo-Su 07:00-23:50",
          "operator": "Manoj Gupta",
          "phone": "9314501591",
          "website": "https://www.hotelkalyan.com/dining"
        }
      },
      {
        "type": "node",
        "id": 6477759985,
        "lat": 26.9163003,
        "lon": 75.8080015,
        "tags": {
          "amenity": "restaurant",
          "cuisine": "indian",
          "name": "dasaprakash",
          "name:en": "dasaprakash"
        }
      },
      {
        "type": "node",
        "id": 6908274785,
        "lat": 26.9053917,
        "lon": 75.7943144,
        "tags": {
          "amenity": "cafe",
          "name": "Brown Bites bakes and cafe"
        }
      },
      {
        "type": "node",
        "id": 7000754687,
        "lat": 26.9165311,
        "lon": 75.8095597,
        "tags": {
          "amenity": "restaurant",
          "name:en": "Barbeque Nation - 1st floor"
        }
      },
      {
        "type": "node",
        "id": 7025222996,
        "lat": 26.9081588,
        "lon": 75.7963179,
        "tags": {
          "addr:district": "Jaipur",
          "addr:full": "21,Near Bagadia Bhawan, Jamna Lal Bajaj Marg, C-Scheme, Jaipur",
          "addr:postcode": "302005",
          "addr:state": "Rajasthan",
          "amenity": "hospital",
          "name": "Anand Eye Hospital",
          "source": "OpenGovernmentData",
          "website": "https://anandeyehospital.com/"
        }
      },
      {
        "type": "node",
        "id": 7027765939,
        "lat": 26.9086623,
        "lon": 75.8108716,
        "tags": {
          "addr:district": "Jaipur",
          "addr:full": "7, Vivekanand Marg, C-Scheme",
          "addr:postcode": "302001",
          "addr:state": "Rajasthan",
          "amenity": "hospital",
          "name": "Heart and General Hospital",
          "source": "OpenGovernmentData",
          "website": "https://heartandgeneralhospital.com/"
        }
      },
      {
        "type": "node",
        "id": 7034765952,
        "lat": 26.9136622,
        "lon": 75.8025286,
        "tags": {
          "addr:district": "Jaipur",
          "addr:full": "K-20, Malan Ka Chauraha, Malviya Marg, C Scheme",
          "addr:postcode": "302001",
          "addr:state": "Rajasthan",
          "amenity": "hospital",
          "healthcare": "hospital",
          "name": "K.C. Memorial Eye Hospital",
          "source": "OpenGovernmentData",
          "website": "kcmemorial.com"
        }
      },
      {
        "type": "node",
        "id": 7038417547,
        "lat": 26.9098833,
        "lon": 75.8023066,
        "tags": {
          "addr:district": "Jaipur",
          "addr:full": "J-62 Krishna Marg, C-Scheme",
          "addr:postcode": "302005",
          "addr:state": "Rajasthan",
          "amenity": "hospital",
          "name": "Nirmala Hospital and Research Center",
          "source": "OpenGovernmentData"
        }
      },
      {
        "type": "node",
        "id": 7039556018,
        "lat": 26.9128574,
        "lon": 75.7970139,
        "tags": {
          "addr:district": "Jaipur",
          "addr:full": "R 8/A, Yudhishtar Marg Behind Ashok Nagar Police Station",
          "addr:postcode": "302001",
          "addr:state": "Rajasthan",
          "amenity": "hospital",
          "healthcare": "hospital",
          "name": "Sr Kalla Memorial Gastro and General Hospital",
          "source": "OpenGovernmentData"
        }
      },
      {
        "type": "node",
        "id": 7039567318,
        "lat": 26.9139408,
        "lon": 75.7984489,
        "tags": {
          "addr:district": "Jaipur",
          "addr:full": "50,Dhuleshwar Bagh, C-Scheme",
          "addr:postcode": "302001",
          "addr:state": "Rajasthan",
          "amenity": "hospital",
          "healthcare": "hospital",
          "name": "Dhuleshwar Hospital and Laser Skin Centre",
          "source": "OpenGovernmentData"
        }
      },
      {
        "type": "node",
        "id": 7039684189,
        "lat": 26.9147732,
        "lon": 75.7955489,
        "tags": {
          "addr:district": "Jaipur",
          "addr:full": "15-16, Hathroi Market, Ajmer Road",
          "addr:postcode": "302001",
          "addr:state": "Rajasthan",
          "amenity": "clinic",
          "healthcare": "clinic",
          "name": "Welfare Clinic, Jaipur",
          "source": "OpenGovernmentData"
        }
      },
      {
        "type": "node",
        "id": 7039702397,
        "lat": 26.9144575,
        "lon": 75.7962348,
        "tags": {
          "addr:district": "Jaipur",
          "addr:full": "62-A,Dhuleshwar Garden,C-Scheme",
          "addr:postcode": "302001",
          "addr:state": "Rajasthan",
          "amenity": "hospital",
          "healthcare": "hospital",
          "name": "Vivekanand Hospital and Fertility Centre",
          "source": "OpenGovernmentData",
          "website": "https://www.vivekanandfertility.com"
        }
      },
      {
        "type": "node",
        "id": 7042869527,
        "lat": 26.9116018,
        "lon": 75.8070669,
        "tags": {
          "addr:district": "Jaipur",
          "addr:full": "C-30, Bhagwandas Road, C- Scheme",
          "addr:housenumber": "Sahabhagita Road, Krishi Nagar Vistar, Beelwa, Sukhdeopura Nohara, Jaipur, Rajasthan 302905",
          "addr:postcode": "302001",
          "addr:state": "Rajasthan",
          "amenity": "clinic",
          "name": "Rajdhani Clinic and Nursing Home",
          "source": "OpenGovernmentData"
        }
      },
      {
        "type": "node",
        "id": 7190468085,
        "lat": 26.9113009,
        "lon": 75.8017201,
        "tags": {
          "amenity": "cafe",
          "name": "Molly Moo"
        }
      },
      {
        "type": "node",
        "id": 7232291585,
        "lat": 26.9132795,
        "lon": 75.7940823,
        "tags": {
          "addr:housenumber": "18",
          "addr:street": "Ajmer pulia",
          "amenity": "cafe",
          "cuisine": "breakfast;indian",
          "diet:vegetarian": "yes",
          "name": "Charis cafe",
          "name:ru": "\u0427\u0430\u0440\u0438\u0441 \u043a\u0430\u0444\u0435",
          "opening_hours": "Mo-Su 09:00-21:00",
          "phone": "+9190251 55906",
          "website": "https://charis-cafe-cafe.business.site"
        }
      },
      {
        "type": "node",
        "id": 7248042885,
        "lat": 26.9053514,
        "lon": 75.7949791,
        "tags": {
          "amenity": "restaurant",
          "cuisine": "indian",
          "name:en": "Deststahn - Homemade Desi Food"
        }
      },
      {
        "type": "node",
        "id": 7306107985,
        "lat": 26.9165819,
        "lon": 75.8096329,
        "tags": {
          "amenity": "fast_food",
          "cuisine": "burger",
          "diet:vegetarian": "yes",
          "name": "burger singh",
          "name:en": "Burger Singh",
          "opening_hours": "Mo-Su 11:00-22:00"
        }
      },
      {
        "type": "node",
        "id": 7698486534,
        "lat": 26.9119478,
        "lon": 75.7956561,
        "tags": {
          "addr:district": "Jaipur",
          "addr:full": "Panch Batti, Hathroi, Jaipur",
          "addr:postcode": "302007",
          "addr:state": "Rajasthan",
          "amenity": "doctors",
          "name": "Dr. G C. Bothra",
          "source": "Local Knowledge"
        }
      },
      {
        "type": "node",
        "id": 7698486537,
        "lat": 26.9170977,
        "lon": 75.7952368,
        "tags": {
          "addr:district": "Jaipur",
          "addr:full": "Sanjay Marg, Ajmer Road",
          "addr:postcode": "302006",
          "addr:state": "Rajasthan",
          "amenity": "hospital",
          "healthcare": "hospital",
          "name": "Triveni Hospital",
          "source": "Local Knowledge"
        }
      },
      {
        "type": "node",
        "id": 7698486559,
        "lat": 26.917293,
        "lon": 75.795258,
        "tags": {
          "addr:district": "Jaipur",
          "addr:full": "Gopalbari",
          "addr:postcode": "302001",
          "addr:state": "Rajasthan",
          "amenity": "doctors",
          "healthcare": "doctor",
          "name": "Dr R K Sureka",
          "source": "Local Knowledge"
        }
      },
      {
        "type": "node",
        "id": 7698486575,
        "lat": 26.9061939,
        "lon": 75.7962708,
        "tags": {
          "addr:district": "Jaipur",
          "addr:full": "Ashok Nagar",
          "addr:postcode": "302001",
          "addr:state": "Rajasthan",
          "amenity": "clinic",
          "healthcare": "clinic",
          "name": "ITS Clinic",
          "source": "Local Knowledge"
        }
      },
      {
        "type": "node",
        "id": 7698578014,
        "lat": 26.914966,
        "lon": 75.809544,
        "tags": {
          "addr:district": "Jaipur",
          "addr:full": "Vaishali Nagar",
          "addr:housenumber": "plot no c, JTN Anukampa Plaza, Ground Floor & First Floor, 20-A, Bhagwan Das Rd, Jaipur, Rajasthan 302001",
          "addr:postcode": "302007",
          "addr:state": "Rajasthan",
          "amenity": "hospital",
          "healthcare": "hospital",
          "name": "ASG Eye Hospital",
          "source": "Local Knowledge"
        }
      },
      {
        "type": "node",
        "id": 9249525420,
        "lat": 26.9107569,
        "lon": 75.7952415,
        "tags": {
          "addr:city": "Jaipur",
          "addr:housenumber": "A-5, Suryavanshi Pearl",
          "addr:postcode": "302007",
          "addr:street": "Chomu House Circle",
          "amenity": "cafe",
          "brand": "Starbucks",
          "brand:pa": "\u0a38\u0a1f\u0a3e\u0a30\u0a2c\u0a15\u0a38",
          "brand:ur": "\u0627\u0633\u0679\u0627\u0631\u0628\u06a9\u0633",
          "brand:wikidata": "Q37158",
          "brand:wikipedia": "en:Starbucks",
          "cuisine": "coffee_shop;coffee",
          "internet_access": "wlan",
          "internet_access:fee": "customers",
          "name": "Starbucks",
          "name:pa": "\u0a38\u0a1f\u0a3e\u0a30\u0a2c\u0a15\u0a38",
          "name:ur": "\u0627\u0633\u0679\u0627\u0631\u0628\u06a9\u0633",
          "official_name": "Starbucks Coffee",
          "official_name:pa": "\u0a38\u0a1f\u0a3e\u0a30\u0a2c\u0a15\u0a38 \u0a15\u0a4c\u0a2b\u0a40",
          "official_name:ur": "\u0627\u0633\u0679\u0627\u0631\u0628\u06a9\u0633 \u06a9\u0627\u0641\u06cc",
          "opening_hours": "Mo-Su 09:00-22:00",
          "website": "https://www.starbucks.in/"
        }
      },
      {
        "type": "node",
        "id": 10013086817,
        "lat": 26.9053547,
        "lon": 75.794676,
        "tags": {
          "amenity": "cafe",
          "internet_access": "wlan",
          "name:en": "Coffee Sutra"
        }
      },
      {
        "type": "node",
        "id": 10013473818,
        "lat": 26.9109569,
        "lon": 75.805667,
        "tags": {
          "addr:housenumber": "1st floor plot no, C 46, Sarojini Marg, Panch Batti, C Scheme, Ashok Nagar, Jaipur, Rajasthan 302001",
          "amenity": "restaurant",
          "cuisine": "indian",
          "name": "thali and more",
          "name:en": "Thali & more"
        }
      },
      {
        "type": "node",
        "id": 10015685917,
        "lat": 26.9103022,
        "lon": 75.8035336,
        "tags": {
          "amenity": "cafe",
          "name:en": "Cafe Earnest"
        }
      },
      {
        "type": "node",
        "id": 10015695217,
        "lat": 26.9154568,
        "lon": 75.8015928,
        "tags": {
          "addr:city": "Jaipur",
          "addr:housenumber": "9th Floor, International Business Centre, Malviya Marg, C Scheme, Jaipur, Rajasthan 302001",
          "addr:street": "Ashok Marg",
          "amenity": "restaurant",
          "internet_access": "wlan",
          "name:en": "Matti Indian Cafe House"
        }
      },
      {
        "type": "node",
        "id": 10904661341,
        "lat": 26.91579,
        "lon": 75.81012,
        "tags": {
          "addr:housenumber": "WR86+73P Khandaka Mansion, Mirza Ismail Rd, near Rajmandir Cinema, Panch Batti, C Scheme, Ashok Nagar, Jaipur, Rajasthan 302001",
          "amenity": "restaurant",
          "name": "the doors restaurant"
        }
      },
      {
        "type": "node",
        "id": 10904661667,
        "lat": 26.9160713,
        "lon": 75.8015668,
        "tags": {
          "addr:housenumber": "9th Floor, International Business Centre, Malviya Marg, C Scheme, Jaipur, Rajasthan 302001",
          "amenity": "cafe",
          "name": "matti indian cafe house"
        }
      },
      {
        "type": "node",
        "id": 10904668786,
        "lat": 26.9151658,
        "lon": 75.8099241,
        "tags": {
          "addr:housenumber": "Silver Square Mall, Shop No. 15,16,17, C-18, Cinema Bhagwandas Marg, near Raj Mandir, C Scheme, Jaipur, Rajasthan 302001",
          "amenity": "cafe"
        }
      },
      {
        "type": "node",
        "id": 10904714955,
        "lat": 26.9113372,
        "lon": 75.8118529,
        "tags": {
          "amenity": "fast_food",
          "name": "salon"
        }
      },
      {
        "type": "node",
        "id": 10904714959,
        "lat": 26.9134489,
        "lon": 75.8110688,
        "tags": {
          "leisure": "park",
          "name": "Farm land"
        }
      },
      {
        "type": "node",
        "id": 11162418128,
        "lat": 26.9073957,
        "lon": 75.7954528,
        "tags": {
          "addr:city": "Jaipur",
          "addr:district": "Jaipur",
          "addr:housenumber": "F-31",
          "addr:postcode": "302001",
          "addr:street": "Azad Marg",
          "air_conditioning": "yes",
          "amenity": "cafe",
          "cuisine": "coffee_shop;sandwich;american;cake",
          "description": "Freshly roasted Indian Specialty Coffee Shop and Roastery. Experience Farm to Cup.",
          "email": "info@halflightcoffee.com",
          "highchair": "yes",
          "internet_access": "wlan",
          "internet_access:fee": "customers",
          "name": "Half Light Coffee Roasters",
          "opening_hours": "08:00-22:00",
          "outdoor_seating": "yes",
          "phone": "+919602602849",
          "takeaway": "yes",
          "website": "https://halflightcoffee.com/",
          "website:menu": "https://fudr.in/welcome/1162000"
        }
      },
      {
        "type": "node",
        "id": 11260402237,
        "lat": 26.9073874,
        "lon": 75.7954138,
        "tags": {
          "addr:housenumber": "F 31",
          "addr:postcode": "302001",
          "addr:street": "Azad Marg",
          "amenity": "cafe",
          "cuisine": "american;coffee_shop;international",
          "internet_access": "wlan",
          "name:en": "Half Light Coffee Roasters",
          "opening_hours": "Su-Sa 08:00-22:00",
          "phone": "9602602849",
          "website": "https://halflightcoffee.com/"
        }
      },
      {
        "type": "node",
        "id": 11764154269,
        "lat": 26.9148703,
        "lon": 75.8047591,
        "tags": {
          "amenity": "restaurant",
          "cuisine": "indian",
          "name": "Annpoornam"
        }
      },
      {
        "type": "node",
        "id": 12379232202,
        "lat": 26.9193192,
        "lon": 75.7997258,
        "tags": {
          "amenity": "fast_food"
        }
      },
      {
        "type": "node",
        "id": 12379232203,
        "lat": 26.9184451,
        "lon": 75.799315,
        "tags": {
          "amenity": "restaurant",
          "name": "Shahar"
        }
      },
      {
        "type": "node",
        "id": 12379232204,
        "lat": 26.9183132,
        "lon": 75.7997591,
        "tags": {
          "amenity": "bank",
          "name": "Unity"
        }
      },
      {
        "type": "node",
        "id": 12379232701,
        "lat": 26.9194052,
        "lon": 75.7997562,
        "tags": {
          "amenity": "fast_food"
        }
      },
      {
        "type": "node",
        "id": 12379294402,
        "lat": 26.9156131,
        "lon": 75.795923,
        "tags": {
          "amenity": "cafe",
          "name": "The Little French Home"
        }
      },
      {
        "type": "node",
        "id": 12379294501,
        "lat": 26.9161718,
        "lon": 75.7959976,
        "tags": {
          "amenity": "cafe",
          "name": "rooftop"
        }
      },
      {
        "type": "node",
        "id": 12379294701,
        "lat": 26.9156803,
        "lon": 75.7959173,
        "tags": {
          "amenity": "cafe",
          "name": "rooftop"
        }
      },
      {
        "type": "node",
        "id": 12734119470,
        "lat": 26.9154952,
        "lon": 75.8064548,
        "tags": {
          "addr:city": "Jaipur",
          "amenity": "restaurant",
          "brewery": "yes;various",
          "changing_table": "no",
          "level": "8, Rooftop",
          "microbrewery": "yes",
          "name": "Retreat",
          "reservation": "yes",
          "smoking": "outside",
          "toilets": "yes"
        }
      }
    ]
  },
  "pois_2_5km": {
    "version": 0.6,
    "generator": "Overpass API 0.7.62.8 e802775f",
    "osm3s": {
      "timestamp_osm_base": "2025-09-07T13:12:45Z",
      "copyright": "The data included in this document is from www.openstreetmap.org. The data is made available under ODbL."
    },
    "elements": [
      {
        "type": "node",
        "id": 1064270823,
        "lat": 26.9225949,
        "lon": 75.7999012,
        "tags": {
          "name": "Sindhi Camp",
          "name:hi": "\u0938\u093f\u0928\u094d\u0927\u0940 \u0915\u0948\u0902\u092a",
          "network": "Jaipur Metro",
          "note": "Contributors are requested to not edit the \"network\" and the \"operator\" tags. (2023/11/08)",
          "operator": "Jaipur Metro Rail Corporation Limited",
          "public_transport": "stop_position",
          "public_transport:version": "2",
          "railway": "stop",
          "ref": "SICP",
          "shelter": "yes",
          "subway": "yes",
          "wheelchair": "yes"
        }
      },
      {
        "type": "node",
        "id": 1064270856,
        "lat": 26.9235814,
        "lon": 75.8005946,
        "tags": {
          "amenity": "bus_station",
          "bus": "yes",
          "name": "Sindhi Camp",
          "name:en": "Jaipur Main Bus station",
          "operator": "RSRTC",
          "public_transport": "station"
        }
      },
      {
        "type": "node",
        "id": 1064270915,
        "lat": 26.9265583,
        "lon": 75.8079145,
        "tags": {
          "name": "Chandpole",
          "name:hi": "\u091a\u093e\u0902\u0926\u092a\u094b\u0932",
          "network": "Jaipur Metro",
          "note": "Contributors are requested to not edit the \"network\" and the \"operator\" tags. (2023/11/08)",
          "operator": "Jaipur Metro Rail Corporation Limited",
          "public_transport": "stop_position",
          "public_transport:version": "2",
          "railway": "stop",
          "ref": "CDPE",
          "shelter": "yes",
          "subway": "yes",
          "wheelchair": "yes"
        }
      },
      {
        "type": "node",
        "id": 1946919383,
        "lat": 26.9017919,
        "lon": 75.7895065,
        "tags": {
          "internet_access": "no",
          "name": "Bais Godam",
          "network": "IR",
          "operator": "NWR",
          "public_transport": "station",
          "railway": "station",
          "ref": "BSGD",
          "train": "no",
          "wikidata": "Q24949515",
          "wikipedia": "en:Bais Godam railway station"
        }
      },
      {
        "type": "node",
        "id": 2669084994,
        "lat": 26.9207888,
        "lon": 75.7866539,
        "tags": {
          "internet_access": "wlan",
          "name": "Jaipur Junction",
          "network": "IR",
          "operator": "NWR",
          "public_transport": "station",
          "railway": "station",
          "ref": "JP",
          "train": "yes",
          "wheelchair": "yes",
          "wikidata": "Q6124154",
          "wikipedia": "en:Jaipur Junction railway station"
        }
      },
      {
        "type": "node",
        "id": 2690970281,
        "lat": 26.9026493,
        "lon": 75.7923721,
        "tags": {
          "amenity": "fuel",
          "brand": "Hindustan Petroleum",
          "brand:wikidata": "Q1619375",
          "name": "HP",
          "official_name": "Hindustan Petroleum"
        }
      },
      {
        "type": "node",
        "id": 3083894933,
        "lat": 26.9169424,
        "lon": 75.8169212,
        "tags": {
          "amenity": "fuel",
          "brand": "Hindustan Petroleum",
          "brand:wikidata": "Q1619375",
          "name": "HP",
          "official_name": "Hindustan Petroleum"
        }
      },
      {
        "type": "node",
        "id": 3139919925,
        "lat": 26.924666,
        "lon": 75.8184914,
        "tags": {
          "elevator": "yes",
          "name": "Choti Chaupar",
          "name:hi": "\u091b\u094b\u091f\u0940 \u091a\u094c\u092a\u0921\u093c",
          "network": "Jaipur Metro",
          "note": "Contributors are requested to not edit the \"network\" and the \"operator\" tags. (2023/11/08)",
          "operator": "Jaipur Metro Rail Corporation Limited",
          "public_transport": "stop_position",
          "public_transport:version": "2",
          "railway": "stop",
          "ref": "CDPE",
          "shelter": "yes",
          "subway": "yes",
          "wheelchair": "yes"
        }
      },
      {
        "type": "node",
        "id": 3139919926,
        "lat": 26.9094527,
        "lon": 75.7811364,
        "tags": {
          "name": "Civil Lines",
          "name:hi": "\u0938\u093f\u0935\u093f\u0932 \u0932\u093e\u0907\u0928\u094d\u0938",
          "network": "Jaipur Metro",
          "note": "Contributors are requested to not edit the \"network\" and the \"operator\" tags. (2023/11/08)",
          "operator": "Jaipur Metro Rail Corporation Limited",
          "public_transport": "stop_position",
          "public_transport:version": "2",
          "railway": "stop",
          "ref": "CLJP",
          "shelter": "yes",
          "subway": "yes",
          "wheelchair": "yes"
        }
      },
      {
        "type": "node",
        "id": 3139920400,
        "lat": 26.9180833,
        "lon": 75.7900798,
        "tags": {
          "name": "Railway Station",
          "name:hi": "\u0930\u0947\u0932\u0935\u0947 \u0938\u094d\u091f\u0947\u0936\u0928",
          "network": "Jaipur Metro",
          "note": "Contributors are requested to not edit the \"network\" and the \"operator\" tags. (2023/11/08)",
          "operator": "Jaipur Metro Rail Corporation Limited",
          "public_transport": "stop_position",
          "public_transport:version": "2",
          "railway": "stop",
          "ref": "MRSN",
          "shelter": "yes",
          "subway": "yes",
          "wheelchair": "yes"
        }
      },
      {
        "type": "node",
        "id": 3677353031,
        "lat": 26.9169156,
        "lon": 75.8063152,
        "tags": {
          "amenity": "fuel",
          "brand": "Hindustan Petroleum",
          "brand:wikidata": "Q1619375",
          "name": "HP",
          "official_name": "Hindustan Petroleum"
        }
      },
      {
        "type": "node",
        "id": 3862442972,
        "lat": 26.9033655,
        "lon": 75.7924281,
        "tags": {
          "amenity": "cinema",
          "brand": "INOX Leisure",
          "brand:wikidata": "Q5972349",
          "name": "Inox",
          "short_name": "INOX"
        }
      },
      {
        "type": "node",
        "id": 4466634254,
        "lat": 26.901561,
        "lon": 75.7827,
        "tags": {
          "amenity": "fuel"
        }
      },
      {
        "type": "node",
        "id": 5284145023,
        "lat": 26.917631,
        "lon": 75.7902938,
        "tags": {
          "addr:street": "Hasanpura Road",
          "amenity": "bus_station",
          "bus": "yes",
          "name:en": "Kalpana Chembar, near Hasanapura Puliya railway st.",
          "public_transport": "station"
        }
      },
      {
        "type": "node",
        "id": 5391526672,
        "lat": 26.9226849,
        "lon": 75.7998222,
        "tags": {
          "name": "Sindhi Camp",
          "name:hi": "\u0938\u093f\u0928\u094d\u0927\u0940 \u0915\u0948\u0902\u092a",
          "network": "Jaipur Metro",
          "note": "Contributors are requested to not edit the \"network\" and the \"operator\" tags. (2023/11/08)",
          "operator": "Jaipur Metro Rail Corporation Limited",
          "public_transport": "station",
          "public_transport:version": "2",
          "railway": "station",
          "ref": "SICP",
          "shelter": "yes",
          "station": "subway",
          "subway": "yes",
          "wheelchair": "yes",
          "wikidata": "Q28180440",
          "wikipedia": "en:Sindhi Camp metro station"
        }
      },
      {
        "type": "node",
        "id": 5391527174,
        "lat": 26.9181132,
        "lon": 75.790129,
        "tags": {
          "name": "Railway Station",
          "name:hi": "\u0930\u0947\u0932\u0935\u0947 \u0938\u094d\u091f\u0947\u0936\u0928",
          "network": "Jaipur Metro",
          "note": "Contributors are requested to not edit the \"network\" and the \"operator\" tags. (2023/11/08)",
          "operator": "Jaipur Metro Rail Corporation Limited",
          "public_transport": "station",
          "public_transport:version": "2",
          "railway": "station",
          "ref": "MRSN",
          "shelter": "yes",
          "station": "subway",
          "subway": "yes",
          "wheelchair": "yes",
          "wikidata": "Q28180437",
          "wikipedia": "en:Railway Station metro station"
        }
      },
      {
        "type": "node",
        "id": 6133852985,
        "lat": 26.923305,
        "lon": 75.8006345,
        "tags": {
          "addr:postcode": "302006",
          "amenity": "bus_station",
          "bus": "yes",
          "name": "Sindhi Camp Bus Stand",
          "public_transport": "station"
        }
      },
      {
        "type": "node",
        "id": 6630557586,
        "lat": 26.9231668,
        "lon": 75.7937215,
        "tags": {
          "amenity": "fuel",
          "brand": "Bharat Petroleum",
          "brand:wikidata": "Q854826",
          "name": "Bharat Petroleum",
          "name:en": "Bharat Petroleum"
        }
      },
      {
        "type": "node",
        "id": 6781585323,
        "lat": 26.9225493,
        "lon": 75.7999247,
        "tags": {
          "name": "Sindhi Camp",
          "name:hi": "\u0938\u093f\u0928\u094d\u0927\u0940 \u0915\u0948\u0902\u092a",
          "network": "Jaipur Metro",
          "note": "Contributors are requested to not edit the \"network\" and the \"operator\" tags. (2023/11/08)",
          "operator": "Jaipur Metro Rail Corporation Limited",
          "public_transport": "stop_position",
          "public_transport:version": "2",
          "railway": "stop",
          "ref": "SICP",
          "shelter": "yes",
          "subway": "yes",
          "wheelchair": "yes"
        }
      },
      {
        "type": "node",
        "id": 6783208321,
        "lat": 26.9096783,
        "lon": 75.7812494,
        "tags": {
          "name": "Civil Lines",
          "name:hi": "\u0938\u093f\u0935\u093f\u0932 \u0932\u093e\u0907\u0928\u094d\u0938",
          "network": "Jaipur Metro",
          "note": "Contributors are requested to not edit the \"network\" and the \"operator\" tags. (2023/11/08)",
          "operator": "Jaipur Metro Rail Corporation Limited",
          "public_transport": "station",
          "public_transport:version": "2",
          "railway": "station",
          "ref": "CLJP",
          "shelter": "yes",
          "station": "subway",
          "subway": "yes",
          "wheelchair": "yes",
          "wikidata": "Q28180430",
          "wikipedia": "en:Civil Lines metro station (Jaipur)"
        }
      },
      {
        "type": "node",
        "id": 6976254817,
        "lat": 26.8994995,
        "lon": 75.8132041,
        "tags": {
          "amenity": "bus_station",
          "bus": "yes",
          "name": "RSRTC/Roadways Bus Stand",
          "public_transport": "station"
        }
      },
      {
        "type": "node",
        "id": 7079400604,
        "lat": 26.8998345,
        "lon": 75.8129319,
        "tags": {
          "amenity": "bus_station",
          "bus": "yes",
          "name": "Volvo Stand",
          "operator": "RSRTC",
          "public_transport": "station"
        }
      },
      {
        "type": "node",
        "id": 7707870458,
        "lat": 26.9202441,
        "lon": 75.7863643,
        "tags": {
          "name": "Jaipur Junction",
          "name:de": "Jaipur Junction Gleis 5",
          "public_transport": "stop_position",
          "railway": "stop",
          "ref": "5",
          "train": "yes"
        }
      },
      {
        "type": "node",
        "id": 7707870459,
        "lat": 26.9203278,
        "lon": 75.786465,
        "tags": {
          "name": "Jaipur Junction",
          "name:de": "Jaipur Junction Gleis 4",
          "public_transport": "stop_position",
          "railway": "stop",
          "ref": "4",
          "train": "yes"
        }
      },
      {
        "type": "node",
        "id": 7707870460,
        "lat": 26.9203604,
        "lon": 75.7865017,
        "tags": {
          "name": "Jaipur Junction",
          "name:de": "Jaipur Junction Gleis 3",
          "public_transport": "stop_position",
          "railway": "stop",
          "ref": "3",
          "train": "yes"
        }
      },
      {
        "type": "node",
        "id": 7707870461,
        "lat": 26.9204689,
        "lon": 75.7866071,
        "tags": {
          "name": "Jaipur Junction",
          "name:de": "Jaipur Junction Gleis 2",
          "public_transport": "stop_position",
          "railway": "stop",
          "ref": "2",
          "train": "yes"
        }
      },
      {
        "type": "node",
        "id": 7707870462,
        "lat": 26.9204954,
        "lon": 75.7866329,
        "tags": {
          "name": "Jaipur Junction",
          "name:de": "Jaipur Junction Gleis 1",
          "public_transport": "stop_position",
          "railway": "stop",
          "ref": "1",
          "train": "yes"
        }
      },
      {
        "type": "node",
        "id": 8042595579,
        "lat": 26.9094099,
        "lon": 75.7811653,
        "tags": {
          "name": "Civil Lines",
          "name:hi": "\u0938\u093f\u0935\u093f\u0932 \u0932\u093e\u0907\u0928\u094d\u0938",
          "network": "Jaipur Metro",
          "note": "Contributors are requested to not edit the \"network\" and the \"operator\" tags. (2023/11/08)",
          "operator": "Jaipur Metro Rail Corporation Limited",
          "public_transport": "stop_position",
          "public_transport:version": "2",
          "railway": "stop",
          "ref": "CLJP",
          "shelter": "yes",
          "subway": "yes",
          "wheelchair": "yes"
        }
      },
      {
        "type": "node",
        "id": 8042601995,
        "lat": 26.9180968,
        "lon": 75.7901165,
        "tags": {
          "name": "Railway Station",
          "name:hi": "\u0930\u0947\u0932\u0935\u0947 \u0938\u094d\u091f\u0947\u0936\u0928",
          "network": "Jaipur Metro",
          "note": "Contributors are requested to not edit the \"network\" and the \"operator\" tags. (2023/11/08)",
          "operator": "Jaipur Metro Rail Corporation Limited",
          "public_transport": "stop_position",
          "public_transport:version": "2",
          "railway": "stop",
          "ref": "MRSN",
          "shelter": "yes",
          "subway": "yes",
          "wheelchair": "yes"
        }
      },
      {
        "type": "node",
        "id": 8044083221,
        "lat": 26.9266005,
        "lon": 75.807892,
        "tags": {
          "name": "Chandpole",
          "name:hi": "\u091a\u093e\u0902\u0926\u092a\u094b\u0932",
          "network": "Jaipur Metro",
          "note": "Contributors are requested to not edit the \"network\" and the \"operator\" tags. (2023/11/08)",
          "operator": "Jaipur Metro Rail Corporation Limited",
          "public_transport": "station",
          "public_transport:version": "2",
          "railway": "station",
          "ref": "CDPE",
          "shelter": "yes",
          "station": "subway",
          "subway": "yes",
          "wheelchair": "yes",
          "wikidata": "Q28180449",
          "wikipedia": "en:Chandpole metro station"
        }
      },
      {
        "type": "node",
        "id": 8044083222,
        "lat": 26.9247317,
        "lon": 75.8184589,
        "tags": {
          "name": "Choti Chaupar",
          "name:hi": "\u091b\u094b\u091f\u0940 \u091a\u094c\u092a\u0921\u093c",
          "network": "Jaipur Metro",
          "note": "Contributors are requested to not edit the \"network\" and the \"operator\" tags. (2023/11/08)",
          "operator": "Jaipur Metro Rail Corporation Limited",
          "public_transport": "station",
          "public_transport:version": "2",
          "railway": "station",
          "ref": "CDPE",
          "shelter": "yes",
          "station": "subway",
          "subway": "yes",
          "wheelchair": "yes",
          "wikidata": "Q20717371",
          "wikipedia": "en:Chhoti Chaupar metro station"
        }
      },
      {
        "type": "node",
        "id": 8075691873,
        "lat": 26.9188762,
        "lon": 75.7982521,
        "tags": {
          "bus": "yes",
          "highway": "bus_stop",
          "name": "Ganpati plaza",
          "public_transport": "stop_position"
        }
      },
      {
        "type": "node",
        "id": 8075691874,
        "lat": 26.9189549,
        "lon": 75.7983159,
        "tags": {
          "bus": "yes",
          "highway": "bus_stop",
          "name": "Ganpati plaza",
          "public_transport": "stop_position"
        }
      },
      {
        "type": "node",
        "id": 8084157103,
        "lat": 26.9020437,
        "lon": 75.7930168,
        "tags": {
          "amenity": "bus_station",
          "bus": "yes",
          "name": "22 Godam Public Bus Stop",
          "public_transport": "station"
        }
      },
      {
        "type": "node",
        "id": 8167940763,
        "lat": 26.9115355,
        "lon": 75.7850152,
        "tags": {
          "amenity": "fuel",
          "brand": "Bharat Petroleum",
          "brand:wikidata": "Q854826",
          "brand:wikipedia": "en:Bharat Petroleum",
          "name": "Bharat Petroleum"
        }
      },
      {
        "type": "node",
        "id": 8665176577,
        "lat": 26.91708,
        "lon": 75.8006737,
        "tags": {
          "amenity": "fuel"
        }
      },
      {
        "type": "node",
        "id": 9249518832,
        "lat": 26.9128924,
        "lon": 75.7916301,
        "tags": {
          "amenity": "bus_station",
          "bus": "yes",
          "name": "RSRTC Bus Depot",
          "operator": "RSRTC",
          "public_transport": "station"
        }
      },
      {
        "type": "node",
        "id": 10904794879,
        "lat": 26.9154253,
        "lon": 75.8100827,
        "tags": {
          "addr:housenumber": "C-16, Bhagwan Das Rd, Panch Batti, C Scheme, Ashok Nagar, Jaipur, Rajasthan 302001",
          "amenity": "cinema",
          "name": "raj mandir cinemas"
        }
      },
      {
        "type": "node",
        "id": 10936787897,
        "lat": 26.9167126,
        "lon": 75.8048644,
        "tags": {
          "amenity": "fuel",
          "brand": "Hindustan Petroleum",
          "brand:wikidata": "Q1619375",
          "name": "HP",
          "official_name": "Hindustan Petroleum"
        }
      },
      {
        "type": "node",
        "id": 11586819554,
        "lat": 26.8959825,
        "lon": 75.8093318,
        "tags": {
          "amenity": "fuel",
          "brand": "Hindustan Petroleum",
          "brand:wikidata": "Q1619375",
          "name": "HP",
          "official_name": "Hindustan Petroleum"
        }
      },
      {
        "type": "node",
        "id": 11747571769,
        "lat": 26.9027002,
        "lon": 75.7903837,
        "tags": {
          "amenity": "fuel",
          "name:en": "BPCL BAIS GODAM PETROL PUMP"
        }
      },
      {
        "type": "node",
        "id": 11747573469,
        "lat": 26.9035483,
        "lon": 75.7887016,
        "tags": {
          "amenity": "fuel",
          "name:en": "BPCL BAIS GODAM PETROL PUMP"
        }
      },
      {
        "type": "node",
        "id": 11763619972,
        "lat": 26.8892423,
        "lon": 75.8043641,
        "tags": {
          "amenity": "fuel",
          "brand": "Bharat Petroleum",
          "brand:wikidata": "Q854826",
          "name": "Bharat Petroleum"
        }
      },
      {
        "type": "node",
        "id": 11765686547,
        "lat": 26.9017025,
        "lon": 75.7825909,
        "tags": {
          "amenity": "fuel",
          "brand": "Indian Oil",
          "brand:wikidata": "Q1289348",
          "name": "Indian Oil"
        }
      },
      {
        "type": "node",
        "id": 11765964116,
        "lat": 26.8988076,
        "lon": 75.7935498,
        "tags": {
          "amenity": "fuel",
          "brand": "Indian Oil",
          "brand:wikidata": "Q1289348",
          "name": "Indian Oil"
        }
      }
    ]
  }
}