{
  "pois_1km": {
    "version": 0.6,
    "generator": "Overpass API 0.7.62.8 e802775f",
    "osm3s": {
      "timestamp_osm_base": "2025-09-07T13:20:50Z",
      "copyright": "The data included in this document is from www.openstreetmap.org. The data is made available under ODbL."
    },
    "elements": [
      {
        "type": "node",
        "id": 3875761989,
        "lat": 26.9170881,
        "lon": 75.743631,
        "tags": {
          "amenity": "cafe",
          "name": "Corner 10"
        }
      },
      {
        "type": "node",
        "id": 3875761990,
        "lat": 26.9170983,
        "lon": 75.7433527,
        "tags": {
          "amenity": "bank",
          "atm": "yes",
          "brand": "State Bank of India",
          "brand:wikidata": "Q1340361",
          "name": "State Bank of India",
          "short_name": "SBI",
          "website": "https://www.sbi.co.in"
        }
      },
      {
        "type": "node",
        "id": 7027565979,
        "lat": 26.9215199,
        "lon": 75.7426026,
        "tags": {
          "addr:district": "Jaipur",
          "addr:full": "B-6, Hanuman Nagar, Main Sirsi Road , Khatipura",
          "addr:postcode": "302021",
          "addr:state": "Rajasthan",
          "amenity": "hospital",
          "healthcare": "hospital",
          "name": "R.K.Yadav Memorial Hospital",
          "source": "OpenGovernmentData"
        }
      },
      {
        "type": "node",
        "id": 7027700037,
        "lat": 26.9194554,
        "lon": 75.743105,
        "tags": {
          "addr:district": "Jaipur",
          "addr:full": "B-52, Gautam Marg, Near Vaishali Circle, Hanuman Nagar, Khatipura",
          "addr:postcode": "302021",
          "addr:state": "Rajasthan",
          "amenity": "hospital",
          "healthcare": "hospital",
          "name": "J. N. Mishra Memorial Hospital",
          "source": "OpenGovernmentData"
        }
      },
      {
        "type": "node",
        "id": 7034998849,
        "lat": 26.9225486,
        "lon": 75.7534271,
        "tags": {
          "addr:district": "Jaipur",
          "addr:full": "Jharkhand Moad, Khati Pura Road",
          "addr:postcode": "302012",
          "addr:state": "Rajasthan",
          "amenity": "hospital",
          "healthcare": "hospital",
          "name": "Sadhana Hospital Pvt. Ltd.",
          "source": "OpenGovernmentData"
        }
      },
      {
        "type": "node",
        "id": 7037481103,
        "lat": 26.9269572,
        "lon": 75.7463547,
        "tags": {
          "addr:district": "Jaipur",
          "addr:full": "A-93, Singh Bhoomi Khatipura",
          "addr:postcode": "302003",
          "addr:state": "Rajasthan",
          "amenity": "hospital",
          "healthcare": "hospital",
          "name": "Marudhar Hospital",
          "source": "OpenGovernmentData"
        }
      },
      {
        "type": "node",
        "id": 7040172653,
        "lat": 26.9212879,
        "lon": 75.7412669,
        "tags": {
          "addr:district": "Jaipur",
          "addr:full": "No. 203, Officers Campus,Sirsi Road,Khatipura",
          "addr:postcode": "302021",
          "addr:state": "Rajasthan",
          "amenity": "hospital",
          "healthcare": "hospital",
          "name": "Metro Hospital and Research Centre",
          "source": "OpenGovernmentData"
        }
      },
      {
        "type": "node",
        "id": 7040552833,
        "lat": 26.9212045,
        "lon": 75.7422278,
        "tags": {
          "addr:district": "Jaipur",
          "addr:full": "B-67, Main Road",
          "addr:postcode": "302012",
          "addr:state": "Rajasthan",
          "amenity": "hospital",
          "healthcare": "hospital",
          "name": "Thar Hospital Pvt. Ltd.",
          "source": "OpenGovernmentData"
        }
      },
      {
        "type": "node",
        "id": 7085549777,
        "lat": 26.9209197,
        "lon": 75.7533318,
        "tags": {
          "amenity": "restaurant",
          "name": "The Royal Ship"
        }
      },
      {
        "type": "node",
        "id": 7085549985,
        "lat": 26.9238925,
        "lon": 75.7455491,
        "tags": {
          "addr:street": "Khatipura Road",
          "brand": "Reliance Fresh",
          "brand:wikidata": "Q7311014",
          "name": "Reliance Fresh",
          "shop": "supermarket"
        }
      },
      {
        "type": "node",
        "id": 7698409959,
        "lat": 26.921774,
        "lon": 75.745466,
        "tags": {
          "addr:district": "Jaipur",
          "addr:full": "Dashrath Marg, Hanuman Nagar",
          "addr:postcode": "302021",
          "addr:state": "Rajasthan",
          "amenity": "hospital",
          "healthcare": "hospital",
          "name": "Usha Hospital",
          "source": "Local Knowledge"
        }
      },
      {
        "type": "node",
        "id": 7698409968,
        "lat": 26.9213529,
        "lon": 75.741565,
        "tags": {
          "addr:district": "Jaipur",
          "addr:full": "Khatipura",
          "addr:postcode": "302012",
          "addr:state": "Rajasthan",
          "amenity": "clinic",
          "healthcare": "clinic",
          "name": "Matrix Heart & Skin Clinic",
          "source": "Local Knowledge"
        }
      },
      {
        "type": "node",
        "id": 7698409981,
        "lat": 26.923371,
        "lon": 75.7414152,
        "tags": {
          "addr:district": "Jaipur",
          "addr:full": "Jaipur",
          "addr:postcode": "302002",
          "addr:state": "Rajasthan",
          "amenity": "clinic",
          "healthcare": "clinic",
          "name": "Prasannam Clinic",
          "source": "Local Knowledge"
        }
      },
      {
        "type": "node",
        "id": 7698409986,
        "lat": 26.9184598,
        "lon": 75.7502987,
        "tags": {
          "addr:district": "Jaipur",
          "addr:full": "Veer Vihar, Hanuman Nagar",
          "addr:postcode": "302021",
          "addr:state": "Rajasthan",
          "amenity": "hospital",
          "healthcare": "hospital",
          "name": "SMS Hospital",
          "source": "Local Knowledge"
        }
      },
      {
        "type": "node",
        "id": 7698409988,
        "lat": 26.9221716,
        "lon": 75.7494306,
        "tags": {
          "addr:district": "Jaipur",
          "addr:full": "Chand Bihari Nagar, Hanuman Nagar",
          "addr:postcode": "302012",
          "addr:state": "Rajasthan",
          "amenity": "clinic",
          "healthcare": "clinic",
          "name": "Dr. Praveen Joshi Clinic",
          "source": "Local Knowledge"
        }
      },
      {
        "type": "node",
        "id": 7698410038,
        "lat": 26.9165013,
        "lon": 75.7470773,
        "tags": {
          "addr:district": "Jaipur",
          "addr:full": "Valmiki Marg",
          "addr:postcode": "302021",
          "addr:state": "Rajasthan",
          "amenity": "hospital",
          "healthcare": "hospital",
          "name": "Unique Hospital",
          "source": "Local Knowledge"
        }
      },
      {
        "type": "node",
        "id": 7698410040,
        "lat": 26.9249981,
        "lon": 75.7428092,
        "tags": {
          "addr:district": "Jaipur",
          "addr:full": "Singh Bhoomi, Khatipura",
          "addr:postcode": "302012",
          "addr:state": "Rajasthan",
          "amenity": "hospital",
          "healthcare": "hospital",
          "name": "Aarti Zenana Hospital",
          "source": "Local Knowledge"
        }
      }
    ]
  },
  "pois_2_5km": {
    "version": 0.6,
    "generator": "Overpass API 0.7.62.8 e802775f",
    "osm3s": {
      "timestamp_osm_base": "2025-09-07T13:20:50Z",
      "copyright": "The data included in this document is from www.openstreetmap.org. The data is made available under ODbL."
    },
    "elements": [
      {
        "type": "node",
        "id": 3784311886,
        "lat": 26.9208765,
        "lon": 75.7300553,
        "tags": {
          "bus": "yes",
          "name": "Panchawala Pulia",
          "network": "JCTSL",
          "public_transport": "stop_position"
        }
      },
      {
        "type": "node",
        "id": 6966530613,
        "lat": 26.912806,
        "lon": 75.7434174,
        "tags": {
          "air_conditioning": "yes",
          "amenity": "cinema",
          "brand": "INOX Leisure",
          "brand:wikidata": "Q5972349",
          "name": "Inox Cinemas Vaibhav Tower",
          "payment:cards": "yes",
          "payment:cash": "yes",
          "screen": "2",
          "short_name": "INOX"
        }
      },
      {
        "type": "node",
        "id": 6968230709,
        "lat": 26.9059908,
        "lon": 75.7519889,
        "tags": {
          "amenity": "fuel",
          "brand": "Hindustan Petroleum",
          "brand:wikidata": "Q1619375",
          "brand:wikipedia": "en:Hindustan Petroleum",
          "name": "HP - GURU JAMBESHWAR PETRO SERVICES",
          "official_name": "Hindustan Petroleum"
        }
      },
      {
        "type": "node",
        "id": 6968230710,
        "lat": 26.914146,
        "lon": 75.7528759,
        "tags": {
          "amenity": "fuel",
          "brand": "Hindustan Petroleum",
          "brand:wikidata": "Q1619375",
          "name": "HP",
          "official_name": "Hindustan Petroleum"
        }
      },
      {
        "type": "node",
        "id": 6978725498,
        "lat": 26.9204544,
        "lon": 75.7305273,
        "tags": {
          "bus": "yes",
          "bus_routes": "7",
          "name": "Panchawala Pulia",
          "operator": "JCTSL",
          "public_transport": "stop_position"
        }
      }
    ]
  }
}