{
  "pois_1km": {
    "version": 0.6,
    "generator": "Overpass API 0.7.62.8 e802775f",
    "osm3s": {
      "timestamp_osm_base": "2025-09-07T13:35:15Z",
      "copyright": "The data included in this document is from www.openstreetmap.org. The data is made available under ODbL."
    },
    "elements": [
      {
        "type": "node",
        "id": 2777043235,
        "lat": 26.9173942,
        "lon": 75.8046009,
        "tags": {
          "amenity": "restaurant",
          "name": "Old Green Tandori Dhaba"
        }
      },
      {
        "type": "node",
        "id": 3209386497,
        "lat": 26.9206156,
        "lon": 75.8041948,
        "tags": {
          "amenity": "cafe",
          "description": "Inside Hotel Arya Niwas",
          "name": "Chitra Caf\u00e9"
        }
      },
      {
        "type": "node",
        "id": 3258246837,
        "lat": 26.917067,
        "lon": 75.8004209,
        "tags": {
          "addr:city": "Jaipur",
          "addr:housenumber": "Plot No, 1, Elevated Ajmer Rd, opposite Government hostel, Gopalbari, Jaipur, Rajasthan 302006",
          "addr:street": "Ajmer Road",
          "name": "Vishal",
          "shop": "supermarket"
        }
      },
      {
        "type": "node",
        "id": 3677351613,
        "lat": 26.9177877,
        "lon": 75.7998401,
        "tags": {
          "amenity": "atm",
          "name": "Indian State Bank"
        }
      },
      {
        "type": "node",
        "id": 3677353029,
        "lat": 26.91869,
        "lon": 75.7985653,
        "tags": {
          "amenity": "atm",
          "brand": "Karnataka Bank",
          "brand:wikidata": "Q2042632",
          "name": "Karnataka Bank",
          "operator": "Karnataka Bank",
          "operator:wikidata": "Q2042632"
        }
      },
      {
        "type": "node",
        "id": 3677353030,
        "lat": 26.9181265,
        "lon": 75.7996745,
        "tags": {
          "amenity": "atm",
          "brand": "ICICI Bank",
          "brand:en": "ICICI Bank",
          "brand:wikidata": "Q1653258",
          "currency:INR": "yes",
          "drive_through": "no",
          "indoor": "yes",
          "name": "Icici Bank",
          "note": "Contributors are requested to not edit the \"brand\", \"brand:en\", \"brand:wikidata\", \"operator\", \"operator:en\" and \"operator:wikidata\" tags. (2025/03/03)",
          "opening_hours": "24/7",
          "operator": "ICICI Bank",
          "operator:en": "ICICI Bank",
          "operator:wikidata": "Q1653258",
          "short_name": "ICICI"
        }
      },
      {
        "type": "node",
        "id": 3677355516,
        "lat": 26.9183265,
        "lon": 75.7995141,
        "tags": {
          "amenity": "atm",
          "brand": "Indian Overseas Bank",
          "brand:wikidata": "Q2003611",
          "name": "Indian Overseas Bank",
          "operator": "Indian Overseas Bank",
          "operator:wikidata": "Q2003611"
        }
      },
      {
        "type": "node",
        "id": 3685074341,
        "lat": 26.9194143,
        "lon": 75.7986345,
        "tags": {
          "amenity": "atm",
          "brand": "Indian Bank",
          "brand:wikidata": "Q2003789",
          "name": "Indian Bank",
          "operator": "Indian Bank",
          "operator:wikidata": "Q2003789"
        }
      },
      {
        "type": "node",
        "id": 3685074595,
        "lat": 26.9174637,
        "lon": 75.797276,
        "tags": {
          "amenity": "pharmacy",
          "healthcare": "pharmacy"
        }
      },
      {
        "type": "node",
        "id": 3685075825,
        "lat": 26.9194775,
        "lon": 75.7996659,
        "tags": {
          "addr:housenumber": "109",
          "addr:street": "M. I. Road",
          "amenity": "restaurant",
          "brand": "Pizza Hut",
          "brand:wikidata": "Q191615",
          "cuisine": "pizza",
          "name": "Pizza Hut"
        }
      },
      {
        "type": "node",
        "id": 3685076425,
        "lat": 26.9195736,
        "lon": 75.7986796,
        "tags": {
          "amenity": "atm",
          "brand": "CSB Bank",
          "brand:wikidata": "Q5053244",
          "name": "Catholic Syrian Bank",
          "official_name": "Catholic Syrian Bank",
          "operator": "CSB Bank",
          "operator:wikidata": "Q5053244"
        }
      },
      {
        "type": "node",
        "id": 3806491204,
        "lat": 26.9270858,
        "lon": 75.7950165,
        "tags": {
          "amenity": "bank",
          "atm": "yes",
          "brand": "State Bank of India",
          "brand:wikidata": "Q1340361",
          "name": "State Bank of India",
          "short_name": "SBI"
        }
      },
      {
        "type": "node",
        "id": 3830464221,
        "lat": 26.9311763,
        "lon": 75.8004455,
        "tags": {
          "addr:city": "Jaipur",
          "addr:postcode": "302016",
          "addr:street": "Meera Marg",
          "amenity": "fast_food",
          "name": "Shree Ganesh Namkeen Bhandar"
        }
      },
      {
        "type": "node",
        "id": 3912110531,
        "lat": 26.9216983,
        "lon": 75.7968445,
        "tags": {
          "addr:postcode": "302001",
          "addr:street": "Station Road",
          "amenity": "restaurant",
          "name": "Kanyi Restaurant"
        }
      },
      {
        "type": "node",
        "id": 4348672497,
        "lat": 26.9198945,
        "lon": 75.7987261,
        "tags": {
          "amenity": "restaurant",
          "name": "Mohan Restaurant"
        }
      },
      {
        "type": "node",
        "id": 4486242089,
        "lat": 26.9209467,
        "lon": 75.8039761,
        "tags": {
          "amenity": "restaurant",
          "cuisine": "italian_pizza",
          "name": "bella italia",
          "name:en": "Bella Italia"
        }
      },
      {
        "type": "node",
        "id": 4562817902,
        "lat": 26.921112,
        "lon": 75.796593,
        "tags": {
          "addr:postcode": "302001",
          "addr:street": "Station Road",
          "amenity": "cafe",
          "name:en": "Rawat Misthan Bhandar",
          "opening_hours": "Mo-Su 11:00-23:00"
        }
      },
      {
        "type": "node",
        "id": 4744578221,
        "lat": 26.9164507,
        "lon": 75.7991333,
        "tags": {
          "amenity": "cafe",
          "name": "coffey Day"
        }
      },
      {
        "type": "node",
        "id": 4763765421,
        "lat": 26.9173574,
        "lon": 75.7994798,
        "tags": {
          "amenity": "atm",
          "brand": "Bank of India",
          "brand:wikidata": "Q2004439",
          "operator": "Bank of India",
          "operator:wikidata": "Q2004439"
        }
      },
      {
        "type": "node",
        "id": 4849657022,
        "lat": 26.9201285,
        "lon": 75.795381,
        "tags": {
          "amenity": "fast_food",
          "name:en": "Talk of the Town"
        }
      },
      {
        "type": "node",
        "id": 4900113521,
        "lat": 26.9170712,
        "lon": 75.8047235,
        "tags": {
          "amenity": "restaurant",
          "diet:vegetarian": "only",
          "name": "Green Restaurant Pure Vegetarian"
        }
      },
      {
        "type": "node",
        "id": 4959496421,
        "lat": 26.9169731,
        "lon": 75.80407,
        "tags": {
          "addr:street": "Mirza Ismail Road",
          "amenity": "restaurant",
          "cuisine": "indian;asian",
          "diet:vegetarian": "yes",
          "name": "Copper Chimney",
          "name:en": "Copper Chimney",
          "opening_hours": "Mo-Su 18:30-23:00"
        }
      },
      {
        "type": "node",
        "id": 5158187422,
        "lat": 26.9192779,
        "lon": 75.7994243,
        "tags": {
          "name:en": "Ganpati Plaza",
          "shop": "supermarket"
        }
      },
      {
        "type": "node",
        "id": 5226323124,
        "lat": 26.9212149,
        "lon": 75.7969429,
        "tags": {
          "amenity": "fast_food",
          "name:en": "Rawat Kachori"
        }
      },
      {
        "type": "node",
        "id": 5249183922,
        "lat": 26.9194326,
        "lon": 75.7997638,
        "tags": {
          "addr:city": "Jaipur",
          "addr:street": "Mirza Ismail Road",
          "amenity": "cafe",
          "cuisine": "bun_samosa;tea",
          "name": "Gulab Ji Chai",
          "opening_hours": "Mo-Su 06:00-20:00"
        }
      },
      {
        "type": "node",
        "id": 5286009222,
        "lat": 26.9187052,
        "lon": 75.8072877,
        "tags": {
          "amenity": "bank",
          "brand": "State Bank of India",
          "brand:wikidata": "Q1340361",
          "name": "State Bank of India",
          "name:en": "State Bank of India",
          "name:hi": "State Bank of India",
          "name:hu": "State Bank of India",
          "short_name": "SBI"
        }
      },
      {
        "type": "node",
        "id": 5717785320,
        "lat": 26.9284344,
        "lon": 75.7923832,
        "tags": {
          "amenity": "restaurant",
          "cuisine": "indian",
          "name": "Umaid Bhawan"
        }
      },
      {
        "type": "node",
        "id": 6509321886,
        "lat": 26.9253797,
        "lon": 75.7909073,
        "tags": {
          "addr:postcode": "302016",
          "addr:street": "Kabir Marg",
          "amenity": "restaurant",
          "cuisine": "italian_pizza;pasta;asian;italian;indian",
          "email": "atithiyacafe@gmail.com",
          "name": "Atithiya",
          "phone": "8290405434"
        }
      },
      {
        "type": "node",
        "id": 6633319187,
        "lat": 26.9294335,
        "lon": 75.8029083,
        "tags": {
          "amenity": "atm",
          "brand": "State Bank of India",
          "brand:en": "State Bank of India",
          "brand:wikidata": "Q1340361",
          "currency:INR": "yes",
          "drive_through": "no",
          "indoor": "yes",
          "note": "Contributors are requested to not edit the \"brand\", \"brand:en\", \"brand:wikidata\", \"operator\", \"operator:en\" and \"operator:wikidata\" tags. (2025/03/03)",
          "opening_hours": "24/7",
          "operator": "State Bank of India",
          "operator:en": "State Bank of India",
          "operator:wikidata": "Q1340361",
          "short_name": "SBI"
        }
      },
      {
        "type": "node",
        "id": 7006069585,
        "lat": 26.925404,
        "lon": 75.7928151,
        "tags": {
          "amenity": "atm",
          "brand": "State Bank of India",
          "brand:en": "State Bank of India",
          "brand:wikidata": "Q1340361",
          "currency:INR": "yes",
          "drive_through": "no",
          "indoor": "yes",
          "note": "Contributors are requested to not edit the \"brand\", \"brand:en\", \"brand:wikidata\", \"operator\", \"operator:en\" and \"operator:wikidata\" tags. (2025/03/03)",
          "opening_hours": "24/7",
          "operator": "State Bank of India",
          "operator:en": "State Bank of India",
          "operator:wikidata": "Q1340361",
          "short_name": "SBI"
        }
      },
      {
        "type": "node",
        "id": 7023771785,
        "lat": 26.9297256,
        "lon": 75.8025622,
        "tags": {
          "addr:housenumber": "28",
          "addr:street": "SC Rd",
          "amenity": "restaurant",
          "cuisine": "indian",
          "name:en": "Barng (Amazing thali only 70 rupees)"
        }
      },
      {
        "type": "node",
        "id": 7030621054,
        "lat": 26.9263698,
        "lon": 75.806627,
        "tags": {
          "addr:district": "Jaipur",
          "addr:full": "Chand-Pole Gate,Near Police Lines",
          "addr:postcode": "302001",
          "addr:state": "Rajasthan",
          "amenity": "hospital",
          "healthcare": "hospital",
          "name": "Zanana Hospital",
          "source": "OpenGovernmentData",
          "website": "health.rajasthan.gov.in"
        }
      },
      {
        "type": "node",
        "id": 7034781108,
        "lat": 26.9213178,
        "lon": 75.803289,
        "tags": {
          "addr:district": "Jaipur",
          "addr:full": "Opposite Amber Tower,Sansarchandra Rd",
          "addr:postcode": "302001",
          "addr:state": "Rajasthan",
          "amenity": "clinic",
          "healthcare": "clinic",
          "name": "Jyotiba Hospital",
          "source": "OpenGovernmentData"
        }
      },
      {
        "type": "node",
        "id": 7040112739,
        "lat": 26.929878,
        "lon": 75.8011875,
        "tags": {
          "addr:district": "Jaipur",
          "addr:full": "Kartavya, B-13 Shiv Marg,Bani Park Jaipur",
          "addr:postcode": "302016",
          "addr:state": "Rajasthan",
          "amenity": "hospital",
          "healthcare": "hospital",
          "name": "Meera Hospital, Jaipur",
          "source": "OpenGovernmentData"
        }
      },
      {
        "type": "node",
        "id": 7040142166,
        "lat": 26.928861,
        "lon": 75.7972808,
        "tags": {
          "addr:district": "Jaipur",
          "addr:full": "B-5,Shiv Marg,Bani Park",
          "addr:postcode": "302016",
          "addr:state": "Rajasthan",
          "amenity": "hospital",
          "healthcare": "hospital",
          "name": "Satellite Hospital, Jaipur",
          "source": "OpenGovernmentData"
        }
      },
      {
        "type": "node",
        "id": 7279062612,
        "lat": 26.928678,
        "lon": 75.7972582,
        "tags": {
          "addr:district": "Jaipur",
          "addr:full": "Todarmal Marg, Near Shiv Circle, Bani Park, Jaipur",
          "addr:postcode": "302016",
          "addr:state": "Rajasthan",
          "addr:subdistrict": "Jaipur",
          "amenity": "hospital",
          "healthcare": "hospital",
          "name": "Government Satellite Hospital, Banipark  , Jaipur",
          "source": "OpenGovernmentData"
        }
      },
      {
        "type": "node",
        "id": 7698486568,
        "lat": 26.925119,
        "lon": 75.7907122,
        "tags": {
          "addr:district": "Jaipur",
          "addr:full": "Bani Park, Kabir Marg",
          "addr:postcode": "302016",
          "addr:state": "Rajasthan",
          "amenity": "clinic",
          "healthcare": "clinic",
          "name": "Saha Clinic",
          "source": "Local Knowledge"
        }
      },
      {
        "type": "node",
        "id": 7698486579,
        "lat": 26.9249952,
        "lon": 75.7909322,
        "tags": {
          "addr:district": "Jaipur",
          "addr:full": "Kunj Niketan, Kabir Marg, Bani Park",
          "addr:postcode": "302016",
          "addr:state": "Rajasthan",
          "amenity": "doctors",
          "healthcare": "doctor",
          "name": "Dr. Vijay Saxena Clinic , Jaipur",
          "source": "Local Knowledge"
        }
      },
      {
        "type": "node",
        "id": 7698578019,
        "lat": 26.9226,
        "lon": 75.8076715,
        "tags": {
          "addr:district": "Jaipur",
          "addr:full": "Jayanti Market, Jalupura",
          "addr:housenumber": "WRF5+22P, Jayanti Market, Jalupura, Jaipur, Rajasthan 302001",
          "addr:postcode": "302001",
          "addr:state": "Rajasthan",
          "amenity": "clinic",
          "healthcare": "clinic",
          "name": "Sona Clinic",
          "source": "Local Knowledge"
        }
      },
      {
        "type": "node",
        "id": 7698578025,
        "lat": 26.924617,
        "lon": 75.810301,
        "tags": {
          "addr:district": "Jaipur",
          "addr:full": "Chandpol Bazar, Chandpole",
          "addr:postcode": "302001",
          "addr:state": "Rajasthan",
          "amenity": "clinic",
          "healthcare": "clinic",
          "name": "Shifa Health Clinic",
          "source": "Local Knowledge"
        }
      },
      {
        "type": "node",
        "id": 7698578032,
        "lat": 26.9254445,
        "lon": 75.8102949,
        "tags": {
          "addr:district": "Jaipur",
          "addr:full": "Chandpole Bazar, Chandpole, Pink City",
          "addr:postcode": "302001",
          "addr:state": "Rajasthan",
          "amenity": "hospital",
          "healthcare": "hospital",
          "name": "New life Hospital",
          "source": "Local Knowledge"
        }
      },
      {
        "type": "node",
        "id": 7698578054,
        "lat": 26.9228964,
        "lon": 75.8098726,
        "tags": {
          "addr:district": "Jaipur",
          "addr:full": "Chandpole",
          "addr:housenumber": "WRF5+5W5, Ninder Rao Ji ka Rasta, Chandpole Bazar, Chandpole, Chandpol, Jaipur, Rajasthan 302001",
          "addr:postcode": "302001",
          "addr:state": "Rajasthan",
          "amenity": "clinic",
          "healthcare": "clinic",
          "name": "Faiz Clinic",
          "source": "Local Knowledge"
        }
      },
      {
        "type": "node",
        "id": 7698578056,
        "lat": 26.9229133,
        "lon": 75.8089218,
        "tags": {
          "addr:district": "Jaipur",
          "addr:full": "Chandpole Bazar, Chandpole",
          "addr:housenumber": "WRF5+4HH, Topkhane Ka Rasta, Chandpole Bazar, Chandpole, Pink City, Jaipur, Rajasthan 302001",
          "addr:postcode": "302001",
          "addr:state": "Rajasthan",
          "amenity": "hospital",
          "healthcare": "hospital",
          "name": "Mahesh Hospital",
          "source": "Local Knowledge"
        }
      },
      {
        "type": "node",
        "id": 7698578083,
        "lat": 26.9213892,
        "lon": 75.8085079,
        "tags": {
          "addr:district": "Jaipur",
          "addr:full": "Jalupura, Jaipur",
          "addr:housenumber": "WRC5+H98, Chand Pol Bazar, Topkhane Ka Rasta, Jalupura, Jaipur, Rajasthan 302001",
          "addr:postcode": "302001",
          "addr:state": "Rajasthan",
          "amenity": "clinic",
          "healthcare": "clinic",
          "name": "Seva Poly Clinic",
          "source": "Local Knowledge"
        }
      },
      {
        "type": "node",
        "id": 7698578106,
        "lat": 26.9218969,
        "lon": 75.8095503,
        "tags": {
          "addr:district": "Jaipur",
          "addr:full": "Jalupura, Jaipur",
          "addr:postcode": "302001",
          "addr:state": "Rajasthan",
          "amenity": "clinic",
          "healthcare": "clinic",
          "name": "Health Clinic",
          "source": "Local Knowledge"
        }
      },
      {
        "type": "node",
        "id": 8119003882,
        "lat": 26.9209472,
        "lon": 75.7959054,
        "tags": {
          "amenity": "atm",
          "operator": "Punjab & Sindh Bank"
        }
      },
      {
        "type": "node",
        "id": 8119003883,
        "lat": 26.9209752,
        "lon": 75.7959552,
        "tags": {
          "amenity": "bank",
          "brand": "Punjab & Sind Bank",
          "brand:en": "Punjab & Sind Bank",
          "brand:hi": "\u092a\u0902\u091c\u093e\u092c \u090f\u0923\u094d\u0921 \u0938\u093f\u0902\u0927 \u092c\u0948\u0902\u0915",
          "brand:kn": "\u0caa\u0c82\u0c9c\u0cbe\u0cac\u0ccd \u0c86\u0c82\u0ca1\u0ccd \u0cb8\u0cbf\u0c82\u0ca7\u0ccd \u0cac\u0ccd\u0caf\u0cbe\u0c82\u0c95\u0ccd",
          "brand:ml": "\u0d2a\u0d1e\u0d4d\u0d1a\u0d3e\u0d2c\u0d4d & \u0d38\u0d3f\u0d28\u0d4d\u0d27\u0d4d \u0d2c\u0d3e\u0d19\u0d4d\u0d15\u0d4d",
          "brand:mr": "\u092a\u0902\u091c\u093e\u092c \u0905\u0901\u0921 \u0938\u093f\u0902\u0927 \u092c\u0901\u0915",
          "brand:pa": "\u0a2a\u0a70\u0a1c\u0a3e\u0a2c \u0a10\u0a02\u0a21 \u0a38\u0a3f\u0a70\u0a27 \u0a2c\u0a48\u0a02\u0a15",
          "brand:ta": "\u0baa\u0b9e\u0bcd\u0b9a\u0bbe\u0baa\u0bcd \u0bae\u0bb1\u0bcd\u0bb1\u0bc1\u0bae\u0bcd \u0b9a\u0bbf\u0ba8\u0bcd\u0ba4\u0bc1 \u0bb5\u0b99\u0bcd\u0b95\u0bbf",
          "brand:ur": "\u067e\u0646\u062c\u0627\u0628 \u0627\u06cc\u0646\u0688 \u0633\u0646\u062f\u06be \u0628\u06cc\u0646\u06a9",
          "brand:website": "https://punjabandsindbank.co.in",
          "brand:wikidata": "Q2003302",
          "name": "Punjab & Sind Bank",
          "name:en": "Punjab & Sind Bank",
          "name:hi": "\u092a\u0902\u091c\u093e\u092c \u090f\u0923\u094d\u0921 \u0938\u093f\u0902\u0927 \u092c\u0948\u0902\u0915",
          "name:kn": "\u0caa\u0c82\u0c9c\u0cbe\u0cac\u0ccd \u0c86\u0c82\u0ca1\u0ccd \u0cb8\u0cbf\u0c82\u0ca7\u0ccd \u0cac\u0ccd\u0caf\u0cbe\u0c82\u0c95\u0ccd",
          "name:ml": "\u0d2a\u0d1e\u0d4d\u0d1a\u0d3e\u0d2c\u0d4d & \u0d38\u0d3f\u0d28\u0d4d\u0d27\u0d4d \u0d2c\u0d3e\u0d19\u0d4d\u0d15\u0d4d",
          "name:mr": "\u092a\u0902\u091c\u093e\u092c \u0905\u0901\u0921 \u0938\u093f\u0902\u0927 \u092c\u0901\u0915",
          "name:pa": "\u0a2a\u0a70\u0a1c\u0a3e\u0a2c \u0a10\u0a02\u0a21 \u0a38\u0a3f\u0a70\u0a27 \u0a2c\u0a48\u0a02\u0a15",
          "name:ta": "\u0baa\u0b9e\u0bcd\u0b9a\u0bbe\u0baa\u0bcd \u0bae\u0bb1\u0bcd\u0bb1\u0bc1\u0bae\u0bcd \u0b9a\u0bbf\u0ba8\u0bcd\u0ba4\u0bc1 \u0bb5\u0b99\u0bcd\u0b95\u0bbf",
          "name:ur": "\u067e\u0646\u062c\u0627\u0628 \u0627\u06cc\u0646\u0688 \u0633\u0646\u062f\u06be \u0628\u06cc\u0646\u06a9"
        }
      },
      {
        "type": "node",
        "id": 10259447809,
        "lat": 26.9280901,
        "lon": 75.7970653,
        "tags": {
          "addr:housenumber": "B19",
          "addr:street": "Shiv Marg",
          "amenity": "restaurant",
          "name": "Vinay Restaurant",
          "name:en": "Jas kitchen",
          "opening_hours": "We-Mo 12:30-23:30"
        }
      },
      {
        "type": "node",
        "id": 11722176171,
        "lat": 26.9266401,
        "lon": 75.8088945,
        "tags": {
          "amenity": "food_court",
          "cuisine": "Rajasthani",
          "diet:vegetarian": "only",
          "level": "0",
          "name": "Sharma Kachori Wallaz",
          "wheelchair": "no"
        }
      },
      {
        "type": "node",
        "id": 12357787401,
        "lat": 26.9276065,
        "lon": 75.7980618,
        "tags": {
          "amenity": "bank",
          "brand": "HDFC Bank",
          "brand:wikidata": "Q631047",
          "name": "HDFC Bank",
          "short_name": "HDFC"
        }
      },
      {
        "type": "node",
        "id": 12358211501,
        "lat": 26.9275324,
        "lon": 75.7931445,
        "tags": {
          "amenity": "atm",
          "operator": "SBI"
        }
      },
      {
        "type": "node",
        "id": 12358212201,
        "lat": 26.9254591,
        "lon": 75.7912713,
        "tags": {
          "amenity": "fast_food",
          "name": "The Mama Bhanja's"
        }
      },
      {
        "type": "node",
        "id": 12361057201,
        "lat": 26.9279574,
        "lon": 75.794119,
        "tags": {
          "amenity": "bank",
          "name": "SBI"
        }
      },
      {
        "type": "node",
        "id": 12361057202,
        "lat": 26.9295695,
        "lon": 75.796776,
        "tags": {
          "amenity": "pharmacy",
          "name": "Somani Mediserve"
        }
      },
      {
        "type": "node",
        "id": 12361795417,
        "lat": 26.9256027,
        "lon": 75.7910741,
        "tags": {
          "amenity": "restaurant",
          "name": "Fresh Bites"
        }
      },
      {
        "type": "node",
        "id": 12361795501,
        "lat": 26.9332444,
        "lon": 75.7969411,
        "tags": {
          "amenity": "bank",
          "name": "HDFC"
        }
      },
      {
        "type": "node",
        "id": 12365223408,
        "lat": 26.9325229,
        "lon": 75.8039255,
        "tags": {
          "amenity": "pharmacy"
        }
      },
      {
        "type": "node",
        "id": 12365223802,
        "lat": 26.9325276,
        "lon": 75.8051602,
        "tags": {
          "amenity": "restaurant"
        }
      },
      {
        "type": "node",
        "id": 12365223803,
        "lat": 26.9326626,
        "lon": 75.805048,
        "tags": {
          "amenity": "fast_food"
        }
      },
      {
        "type": "node",
        "id": 12365224001,
        "lat": 26.9320583,
        "lon": 75.8059259,
        "tags": {
          "amenity": "restaurant"
        }
      },
      {
        "type": "node",
        "id": 12365224401,
        "lat": 26.9321653,
        "lon": 75.8054988,
        "tags": {
          "amenity": "pharmacy"
        }
      },
      {
        "type": "node",
        "id": 12365224502,
        "lat": 26.9335828,
        "lon": 75.8043705,
        "tags": {
          "amenity": "pharmacy"
        }
      },
      {
        "type": "node",
        "id": 12365225001,
        "lat": 26.9332474,
        "lon": 75.8045387,
        "tags": {
          "amenity": "restaurant",
          "name": "fried chicken"
        }
      },
      {
        "type": "node",
        "id": 12365225002,
        "lat": 26.9318209,
        "lon": 75.803455,
        "tags": {
          "amenity": "pharmacy"
        }
      },
      {
        "type": "node",
        "id": 12365225003,
        "lat": 26.9297136,
        "lon": 75.8023775,
        "tags": {
          "amenity": "atm",
          "brand": "ICICI Bank",
          "brand:en": "ICICI Bank",
          "brand:wikidata": "Q1653258",
          "currency:INR": "yes",
          "drive_through": "no",
          "indoor": "yes",
          "note": "Contributors are requested to not edit the \"brand\", \"brand:en\", \"brand:wikidata\", \"operator\", \"operator:en\" and \"operator:wikidata\" tags. (2025/03/03)",
          "opening_hours": "24/7",
          "operator": "ICICI Bank",
          "operator:en": "ICICI Bank",
          "operator:wikidata": "Q1653258",
          "short_name": "ICICI"
        }
      },
      {
        "type": "node",
        "id": 12367918004,
        "lat": 26.9231,
        "lon": 75.8004776,
        "tags": {
          "amenity": "fast_food"
        }
      },
      {
        "type": "node",
        "id": 12367918013,
        "lat": 26.9258601,
        "lon": 75.8070296,
        "tags": {
          "amenity": "pharmacy"
        }
      },
      {
        "type": "node",
        "id": 12367918014,
        "lat": 26.9257982,
        "lon": 75.8069498,
        "tags": {
          "amenity": "pharmacy"
        }
      },
      {
        "type": "node",
        "id": 12367918015,
        "lat": 26.9242817,
        "lon": 75.8038815,
        "tags": {
          "amenity": "bank",
          "name": "Axis"
        }
      },
      {
        "type": "node",
        "id": 12367921601,
        "lat": 26.9230523,
        "lon": 75.8003477,
        "tags": {
          "amenity": "fast_food"
        }
      },
      {
        "type": "node",
        "id": 12367921602,
        "lat": 26.9228362,
        "lon": 75.7999201,
        "tags": {
          "amenity": "restaurant",
          "name": "Rajasthan Craft Plaza Family Restaurant"
        }
      },
      {
        "type": "node",
        "id": 12367921608,
        "lat": 26.925909,
        "lon": 75.8071047,
        "tags": {
          "amenity": "pharmacy"
        }
      },
      {
        "type": "node",
        "id": 12367921609,
        "lat": 26.9257007,
        "lon": 75.8068303,
        "tags": {
          "amenity": "pharmacy"
        }
      },
      {
        "type": "node",
        "id": 12367921804,
        "lat": 26.9257561,
        "lon": 75.8068894,
        "tags": {
          "amenity": "pharmacy"
        }
      },
      {
        "type": "node",
        "id": 12373714202,
        "lat": 26.9257211,
        "lon": 75.8078159,
        "tags": {
          "amenity": "restaurant"
        }
      },
      {
        "type": "node",
        "id": 12373714204,
        "lat": 26.9228662,
        "lon": 75.8013105,
        "tags": {
          "amenity": "restaurant",
          "name": "Rajasthani Thali"
        }
      },
      {
        "type": "node",
        "id": 12373714205,
        "lat": 26.9225559,
        "lon": 75.7991003,
        "tags": {
          "amenity": "restaurant",
          "name": "Thali House"
        }
      },
      {
        "type": "node",
        "id": 12376556601,
        "lat": 26.9232521,
        "lon": 75.7973808,
        "tags": {
          "shop": "department_store"
        }
      },
      {
        "type": "node",
        "id": 12376556603,
        "lat": 26.9222337,
        "lon": 75.7982649,
        "tags": {
          "amenity": "restaurant"
        }
      },
      {
        "type": "node",
        "id": 12376556607,
        "lat": 26.9219071,
        "lon": 75.8005342,
        "tags": {
          "amenity": "pharmacy"
        }
      },
      {
        "type": "node",
        "id": 12376556608,
        "lat": 26.9219696,
        "lon": 75.8003686,
        "tags": {
          "amenity": "restaurant"
        }
      },
      {
        "type": "node",
        "id": 12376556609,
        "lat": 26.9219484,
        "lon": 75.7974906,
        "tags": {
          "amenity": "restaurant"
        }
      },
      {
        "type": "node",
        "id": 12376556614,
        "lat": 26.9241173,
        "lon": 75.7972538,
        "tags": {
          "amenity": "pharmacy"
        }
      },
      {
        "type": "node",
        "id": 12376557501,
        "lat": 26.9223187,
        "lon": 75.7984269,
        "tags": {
          "amenity": "bank",
          "name": "SBI"
        }
      },
      {
        "type": "node",
        "id": 12376557503,
        "lat": 26.9215381,
        "lon": 75.8006061,
        "tags": {
          "amenity": "pharmacy"
        }
      },
      {
        "type": "node",
        "id": 12376557505,
        "lat": 26.9218853,
        "lon": 75.7973434,
        "tags": {
          "amenity": "restaurant",
          "name": "Bikaner Bhojnalaya"
        }
      },
      {
        "type": "node",
        "id": 12376557507,
        "lat": 26.9222878,
        "lon": 75.7971062,
        "tags": {
          "amenity": "pharmacy"
        }
      },
      {
        "type": "node",
        "id": 12376558601,
        "lat": 26.9226018,
        "lon": 75.7994137,
        "tags": {
          "amenity": "restaurant",
          "name": "they offer Thali for 150inr and refill until you are full"
        }
      },
      {
        "type": "node",
        "id": 12379232202,
        "lat": 26.9193192,
        "lon": 75.7997258,
        "tags": {
          "amenity": "fast_food"
        }
      },
      {
        "type": "node",
        "id": 12379232203,
        "lat": 26.9184451,
        "lon": 75.799315,
        "tags": {
          "amenity": "restaurant",
          "name": "Shahar"
        }
      },
      {
        "type": "node",
        "id": 12379232204,
        "lat": 26.9183132,
        "lon": 75.7997591,
        "tags": {
          "amenity": "bank",
          "name": "Unity"
        }
      },
      {
        "type": "node",
        "id": 12379232701,
        "lat": 26.9194052,
        "lon": 75.7997562,
        "tags": {
          "amenity": "fast_food"
        }
      },
      {
        "type": "node",
        "id": 12603793910,
        "lat": 26.9239909,
        "lon": 75.8045158,
        "tags": {
          "access": "yes",
          "addr:city": "Jaipur",
          "addr:district": "jaipur",
          "addr:housenumber": "11",
          "addr:street": "Pareek College Road",
          "dog": "leashed",
          "leisure": "park",
          "name": "maidan",
          "name:en": "XYZ park",
          "opening_hours": "Mo-Su 08:00-20:00",
          "operator": "Local operator",
          "operator:type": "community",
          "smoking": "no"
        }
      }
    ]
  },
  "pois_2_5km": {
    "version": 0.6,
    "generator": "Overpass API 0.7.62.8 e802775f",
    "osm3s": {
      "timestamp_osm_base": "2025-09-07T13:35:15Z",
      "copyright": "The data included in this document is from www.openstreetmap.org. The data is made available under ODbL."
    },
    "elements": [
      {
        "type": "node",
        "id": 1064270823,
        "lat": 26.9225949,
        "lon": 75.7999012,
        "tags": {
          "name": "Sindhi Camp",
          "name:hi": "\u0938\u093f\u0928\u094d\u0927\u0940 \u0915\u0948\u0902\u092a",
          "network": "Jaipur Metro",
          "note": "Contributors are requested to not edit the \"network\" and the \"operator\" tags. (2023/11/08)",
          "operator": "Jaipur Metro Rail Corporation Limited",
          "public_transport": "stop_position",
          "public_transport:version": "2",
          "railway": "stop",
          "ref": "SICP",
          "shelter": "yes",
          "subway": "yes",
          "wheelchair": "yes"
        }
      },
      {
        "type": "node",
        "id": 1064270856,
        "lat": 26.9235814,
        "lon": 75.8005946,
        "tags": {
          "amenity": "bus_station",
          "bus": "yes",
          "name": "Sindhi Camp",
          "name:en": "Jaipur Main Bus station",
          "operator": "RSRTC",
          "public_transport": "station"
        }
      },
      {
        "type": "node",
        "id": 1064270915,
        "lat": 26.9265583,
        "lon": 75.8079145,
        "tags": {
          "name": "Chandpole",
          "name:hi": "\u091a\u093e\u0902\u0926\u092a\u094b\u0932",
          "network": "Jaipur Metro",
          "note": "Contributors are requested to not edit the \"network\" and the \"operator\" tags. (2023/11/08)",
          "operator": "Jaipur Metro Rail Corporation Limited",
          "public_transport": "stop_position",
          "public_transport:version": "2",
          "railway": "stop",
          "ref": "CDPE",
          "shelter": "yes",
          "subway": "yes",
          "wheelchair": "yes"
        }
      },
      {
        "type": "node",
        "id": 2669084994,
        "lat": 26.9207888,
        "lon": 75.7866539,
        "tags": {
          "internet_access": "wlan",
          "name": "Jaipur Junction",
          "network": "IR",
          "operator": "NWR",
          "public_transport": "station",
          "railway": "station",
          "ref": "JP",
          "train": "yes",
          "wheelchair": "yes",
          "wikidata": "Q6124154",
          "wikipedia": "en:Jaipur Junction railway station"
        }
      },
      {
        "type": "node",
        "id": 3083894933,
        "lat": 26.9169424,
        "lon": 75.8169212,
        "tags": {
          "amenity": "fuel",
          "brand": "Hindustan Petroleum",
          "brand:wikidata": "Q1619375",
          "name": "HP",
          "official_name": "Hindustan Petroleum"
        }
      },
      {
        "type": "node",
        "id": 3139919925,
        "lat": 26.924666,
        "lon": 75.8184914,
        "tags": {
          "elevator": "yes",
          "name": "Choti Chaupar",
          "name:hi": "\u091b\u094b\u091f\u0940 \u091a\u094c\u092a\u0921\u093c",
          "network": "Jaipur Metro",
          "note": "Contributors are requested to not edit the \"network\" and the \"operator\" tags. (2023/11/08)",
          "operator": "Jaipur Metro Rail Corporation Limited",
          "public_transport": "stop_position",
          "public_transport:version": "2",
          "railway": "stop",
          "ref": "CDPE",
          "shelter": "yes",
          "subway": "yes",
          "wheelchair": "yes"
        }
      },
      {
        "type": "node",
        "id": 3139920400,
        "lat": 26.9180833,
        "lon": 75.7900798,
        "tags": {
          "name": "Railway Station",
          "name:hi": "\u0930\u0947\u0932\u0935\u0947 \u0938\u094d\u091f\u0947\u0936\u0928",
          "network": "Jaipur Metro",
          "note": "Contributors are requested to not edit the \"network\" and the \"operator\" tags. (2023/11/08)",
          "operator": "Jaipur Metro Rail Corporation Limited",
          "public_transport": "stop_position",
          "public_transport:version": "2",
          "railway": "stop",
          "ref": "MRSN",
          "shelter": "yes",
          "subway": "yes",
          "wheelchair": "yes"
        }
      },
      {
        "type": "node",
        "id": 3677353031,
        "lat": 26.9169156,
        "lon": 75.8063152,
        "tags": {
          "amenity": "fuel",
          "brand": "Hindustan Petroleum",
          "brand:wikidata": "Q1619375",
          "name": "HP",
          "official_name": "Hindustan Petroleum"
        }
      },
      {
        "type": "node",
        "id": 5284145023,
        "lat": 26.917631,
        "lon": 75.7902938,
        "tags": {
          "addr:street": "Hasanpura Road",
          "amenity": "bus_station",
          "bus": "yes",
          "name:en": "Kalpana Chembar, near Hasanapura Puliya railway st.",
          "public_transport": "station"
        }
      },
      {
        "type": "node",
        "id": 5391526672,
        "lat": 26.9226849,
        "lon": 75.7998222,
        "tags": {
          "name": "Sindhi Camp",
          "name:hi": "\u0938\u093f\u0928\u094d\u0927\u0940 \u0915\u0948\u0902\u092a",
          "network": "Jaipur Metro",
          "note": "Contributors are requested to not edit the \"network\" and the \"operator\" tags. (2023/11/08)",
          "operator": "Jaipur Metro Rail Corporation Limited",
          "public_transport": "station",
          "public_transport:version": "2",
          "railway": "station",
          "ref": "SICP",
          "shelter": "yes",
          "station": "subway",
          "subway": "yes",
          "wheelchair": "yes",
          "wikidata": "Q28180440",
          "wikipedia": "en:Sindhi Camp metro station"
        }
      },
      {
        "type": "node",
        "id": 5391527174,
        "lat": 26.9181132,
        "lon": 75.790129,
        "tags": {
          "name": "Railway Station",
          "name:hi": "\u0930\u0947\u0932\u0935\u0947 \u0938\u094d\u091f\u0947\u0936\u0928",
          "network": "Jaipur Metro",
          "note": "Contributors are requested to not edit the \"network\" and the \"operator\" tags. (2023/11/08)",
          "operator": "Jaipur Metro Rail Corporation Limited",
          "public_transport": "station",
          "public_transport:version": "2",
          "railway": "station",
          "ref": "MRSN",
          "shelter": "yes",
          "station": "subway",
          "subway": "yes",
          "wheelchair": "yes",
          "wikidata": "Q28180437",
          "wikipedia": "en:Railway Station metro station"
        }
      },
      {
        "type": "node",
        "id": 5436562222,
        "lat": 26.9331132,
        "lon": 75.7963001,
        "tags": {
          "amenity": "fuel",
          "brand": "Hindustan Petroleum",
          "brand:wikidata": "Q1619375",
          "name": "HP",
          "name:en": "HP",
          "official_name": "Hindustan Petroleum"
        }
      },
      {
        "type": "node",
        "id": 6133852985,
        "lat": 26.923305,
        "lon": 75.8006345,
        "tags": {
          "addr:postcode": "302006",
          "amenity": "bus_station",
          "bus": "yes",
          "name": "Sindhi Camp Bus Stand",
          "public_transport": "station"
        }
      },
      {
        "type": "node",
        "id": 6630557586,
        "lat": 26.9231668,
        "lon": 75.7937215,
        "tags": {
          "amenity": "fuel",
          "brand": "Bharat Petroleum",
          "brand:wikidata": "Q854826",
          "name": "Bharat Petroleum",
          "name:en": "Bharat Petroleum"
        }
      },
      {
        "type": "node",
        "id": 6781585323,
        "lat": 26.9225493,
        "lon": 75.7999247,
        "tags": {
          "name": "Sindhi Camp",
          "name:hi": "\u0938\u093f\u0928\u094d\u0927\u0940 \u0915\u0948\u0902\u092a",
          "network": "Jaipur Metro",
          "note": "Contributors are requested to not edit the \"network\" and the \"operator\" tags. (2023/11/08)",
          "operator": "Jaipur Metro Rail Corporation Limited",
          "public_transport": "stop_position",
          "public_transport:version": "2",
          "railway": "stop",
          "ref": "SICP",
          "shelter": "yes",
          "subway": "yes",
          "wheelchair": "yes"
        }
      },
      {
        "type": "node",
        "id": 7043371087,
        "lat": 26.9377151,
        "lon": 75.7854078,
        "tags": {
          "amenity": "fuel",
          "brand": "Bharat Petroleum",
          "brand:wikidata": "Q854826",
          "name": "MK Filling Station - Bharat petroleum"
        }
      },
      {
        "type": "node",
        "id": 7707870458,
        "lat": 26.9202441,
        "lon": 75.7863643,
        "tags": {
          "name": "Jaipur Junction",
          "name:de": "Jaipur Junction Gleis 5",
          "public_transport": "stop_position",
          "railway": "stop",
          "ref": "5",
          "train": "yes"
        }
      },
      {
        "type": "node",
        "id": 7707870459,
        "lat": 26.9203278,
        "lon": 75.786465,
        "tags": {
          "name": "Jaipur Junction",
          "name:de": "Jaipur Junction Gleis 4",
          "public_transport": "stop_position",
          "railway": "stop",
          "ref": "4",
          "train": "yes"
        }
      },
      {
        "type": "node",
        "id": 7707870460,
        "lat": 26.9203604,
        "lon": 75.7865017,
        "tags": {
          "name": "Jaipur Junction",
          "name:de": "Jaipur Junction Gleis 3",
          "public_transport": "stop_position",
          "railway": "stop",
          "ref": "3",
          "train": "yes"
        }
      },
      {
        "type": "node",
        "id": 7707870461,
        "lat": 26.9204689,
        "lon": 75.7866071,
        "tags": {
          "name": "Jaipur Junction",
          "name:de": "Jaipur Junction Gleis 2",
          "public_transport": "stop_position",
          "railway": "stop",
          "ref": "2",
          "train": "yes"
        }
      },
      {
        "type": "node",
        "id": 7707870462,
        "lat": 26.9204954,
        "lon": 75.7866329,
        "tags": {
          "name": "Jaipur Junction",
          "name:de": "Jaipur Junction Gleis 1",
          "public_transport": "stop_position",
          "railway": "stop",
          "ref": "1",
          "train": "yes"
        }
      },
      {
        "type": "node",
        "id": 8041984445,
        "lat": 26.9356052,
        "lon": 75.7918151,
        "tags": {
          "addr:city": "Jaipur",
          "addr:housenumber": "City Plaza, Pani Pech",
          "addr:street": "Meera Marg",
          "amenity": "cinema",
          "brand": "INOX Leisure",
          "brand:wikidata": "Q5972349",
          "name": "Inox City Plaza - Space Cinemas",
          "short_name": "INOX"
        }
      },
      {
        "type": "node",
        "id": 8042601995,
        "lat": 26.9180968,
        "lon": 75.7901165,
        "tags": {
          "name": "Railway Station",
          "name:hi": "\u0930\u0947\u0932\u0935\u0947 \u0938\u094d\u091f\u0947\u0936\u0928",
          "network": "Jaipur Metro",
          "note": "Contributors are requested to not edit the \"network\" and the \"operator\" tags. (2023/11/08)",
          "operator": "Jaipur Metro Rail Corporation Limited",
          "public_transport": "stop_position",
          "public_transport:version": "2",
          "railway": "stop",
          "ref": "MRSN",
          "shelter": "yes",
          "subway": "yes",
          "wheelchair": "yes"
        }
      },
      {
        "type": "node",
        "id": 8044083221,
        "lat": 26.9266005,
        "lon": 75.807892,
        "tags": {
          "name": "Chandpole",
          "name:hi": "\u091a\u093e\u0902\u0926\u092a\u094b\u0932",
          "network": "Jaipur Metro",
          "note": "Contributors are requested to not edit the \"network\" and the \"operator\" tags. (2023/11/08)",
          "operator": "Jaipur Metro Rail Corporation Limited",
          "public_transport": "station",
          "public_transport:version": "2",
          "railway": "station",
          "ref": "CDPE",
          "shelter": "yes",
          "station": "subway",
          "subway": "yes",
          "wheelchair": "yes",
          "wikidata": "Q28180449",
          "wikipedia": "en:Chandpole metro station"
        }
      },
      {
        "type": "node",
        "id": 8044083222,
        "lat": 26.9247317,
        "lon": 75.8184589,
        "tags": {
          "name": "Choti Chaupar",
          "name:hi": "\u091b\u094b\u091f\u0940 \u091a\u094c\u092a\u0921\u093c",
          "network": "Jaipur Metro",
          "note": "Contributors are requested to not edit the \"network\" and the \"operator\" tags. (2023/11/08)",
          "operator": "Jaipur Metro Rail Corporation Limited",
          "public_transport": "station",
          "public_transport:version": "2",
          "railway": "station",
          "ref": "CDPE",
          "shelter": "yes",
          "station": "subway",
          "subway": "yes",
          "wheelchair": "yes",
          "wikidata": "Q20717371",
          "wikipedia": "en:Chhoti Chaupar metro station"
        }
      },
      {
        "type": "node",
        "id": 8075691873,
        "lat": 26.9188762,
        "lon": 75.7982521,
        "tags": {
          "bus": "yes",
          "highway": "bus_stop",
          "name": "Ganpati plaza",
          "public_transport": "stop_position"
        }
      },
      {
        "type": "node",
        "id": 8075691874,
        "lat": 26.9189549,
        "lon": 75.7983159,
        "tags": {
          "bus": "yes",
          "highway": "bus_stop",
          "name": "Ganpati plaza",
          "public_transport": "stop_position"
        }
      },
      {
        "type": "node",
        "id": 8167940763,
        "lat": 26.9115355,
        "lon": 75.7850152,
        "tags": {
          "amenity": "fuel",
          "brand": "Bharat Petroleum",
          "brand:wikidata": "Q854826",
          "brand:wikipedia": "en:Bharat Petroleum",
          "name": "Bharat Petroleum"
        }
      },
      {
        "type": "node",
        "id": 8665176577,
        "lat": 26.91708,
        "lon": 75.8006737,
        "tags": {
          "amenity": "fuel"
        }
      },
      {
        "type": "node",
        "id": 9249518832,
        "lat": 26.9128924,
        "lon": 75.7916301,
        "tags": {
          "amenity": "bus_station",
          "bus": "yes",
          "name": "RSRTC Bus Depot",
          "operator": "RSRTC",
          "public_transport": "station"
        }
      },
      {
        "type": "node",
        "id": 10904794879,
        "lat": 26.9154253,
        "lon": 75.8100827,
        "tags": {
          "addr:housenumber": "C-16, Bhagwan Das Rd, Panch Batti, C Scheme, Ashok Nagar, Jaipur, Rajasthan 302001",
          "amenity": "cinema",
          "name": "raj mandir cinemas"
        }
      },
      {
        "type": "node",
        "id": 10936787897,
        "lat": 26.9167126,
        "lon": 75.8048644,
        "tags": {
          "amenity": "fuel",
          "brand": "Hindustan Petroleum",
          "brand:wikidata": "Q1619375",
          "name": "HP",
          "official_name": "Hindustan Petroleum"
        }
      },
      {
        "type": "node",
        "id": 11590666267,
        "lat": 26.9361625,
        "lon": 75.792179,
        "tags": {
          "amenity": "fuel",
          "brand": "Hindustan Petroleum",
          "brand:wikidata": "Q1619375",
          "name": "HP",
          "official_name": "Hindustan Petroleum"
        }
      },
      {
        "type": "node",
        "id": 11590790757,
        "lat": 26.9341212,
        "lon": 75.7954262,
        "tags": {
          "amenity": "fuel",
          "brand": "Indian Oil",
          "brand:wikidata": "Q1289348",
          "name": "Indian Oil"
        }
      }
    ]
  }
}