{
  "pois_1km": {
    "version": 0.6,
    "generator": "Overpass API 0.7.62.8 e802775f",
    "osm3s": {
      "timestamp_osm_base": "2025-09-07T13:16:44Z",
      "copyright": "The data included in this document is from www.openstreetmap.org. The data is made available under ODbL."
    },
    "elements": [
      {
        "type": "node",
        "id": 2130274953,
        "lat": 26.9149,
        "lon": 75.7947041,
        "tags": {
          "addr:housenumber": "1",
          "addr:street": "Gopal Bari, Ajmer Road",
          "amenity": "doctors",
          "healthcare": "doctor",
          "name": "Dental Care Centre 2"
        }
      },
      {
        "type": "node",
        "id": 2684721077,
        "lat": 26.9108905,
        "lon": 75.7889678,
        "tags": {
          "addr:city": "Jaipur",
          "addr:street": "Achrol House, Civil Lines",
          "amenity": "restaurant",
          "name": "Spice Court"
        }
      },
      {
        "type": "node",
        "id": 3258246837,
        "lat": 26.917067,
        "lon": 75.8004209,
        "tags": {
          "addr:city": "Jaipur",
          "addr:housenumber": "Plot No, 1, Elevated Ajmer Rd, opposite Government hostel, Gopalbari, Jaipur, Rajasthan 302006",
          "addr:street": "Ajmer Road",
          "name": "Vishal",
          "shop": "supermarket"
        }
      },
      {
        "type": "node",
        "id": 3677351613,
        "lat": 26.9177877,
        "lon": 75.7998401,
        "tags": {
          "amenity": "atm",
          "name": "Indian State Bank"
        }
      },
      {
        "type": "node",
        "id": 3677353029,
        "lat": 26.91869,
        "lon": 75.7985653,
        "tags": {
          "amenity": "atm",
          "brand": "Karnataka Bank",
          "brand:wikidata": "Q2042632",
          "name": "Karnataka Bank",
          "operator": "Karnataka Bank",
          "operator:wikidata": "Q2042632"
        }
      },
      {
        "type": "node",
        "id": 3677353030,
        "lat": 26.9181265,
        "lon": 75.7996745,
        "tags": {
          "amenity": "atm",
          "brand": "ICICI Bank",
          "brand:en": "ICICI Bank",
          "brand:wikidata": "Q1653258",
          "currency:INR": "yes",
          "drive_through": "no",
          "indoor": "yes",
          "name": "Icici Bank",
          "note": "Contributors are requested to not edit the \"brand\", \"brand:en\", \"brand:wikidata\", \"operator\", \"operator:en\" and \"operator:wikidata\" tags. (2025/03/03)",
          "opening_hours": "24/7",
          "operator": "ICICI Bank",
          "operator:en": "ICICI Bank",
          "operator:wikidata": "Q1653258",
          "short_name": "ICICI"
        }
      },
      {
        "type": "node",
        "id": 3677355516,
        "lat": 26.9183265,
        "lon": 75.7995141,
        "tags": {
          "amenity": "atm",
          "brand": "Indian Overseas Bank",
          "brand:wikidata": "Q2003611",
          "name": "Indian Overseas Bank",
          "operator": "Indian Overseas Bank",
          "operator:wikidata": "Q2003611"
        }
      },
      {
        "type": "node",
        "id": 3685074340,
        "lat": 26.9173922,
        "lon": 75.7951707,
        "tags": {
          "amenity": "pharmacy",
          "healthcare": "pharmacy"
        }
      },
      {
        "type": "node",
        "id": 3685074341,
        "lat": 26.9194143,
        "lon": 75.7986345,
        "tags": {
          "amenity": "atm",
          "brand": "Indian Bank",
          "brand:wikidata": "Q2003789",
          "name": "Indian Bank",
          "operator": "Indian Bank",
          "operator:wikidata": "Q2003789"
        }
      },
      {
        "type": "node",
        "id": 3685074595,
        "lat": 26.9174637,
        "lon": 75.797276,
        "tags": {
          "amenity": "pharmacy",
          "healthcare": "pharmacy"
        }
      },
      {
        "type": "node",
        "id": 3685074596,
        "lat": 26.915555,
        "lon": 75.7949393,
        "tags": {
          "amenity": "cafe",
          "check_date": "2023-10-23",
          "name": "Nibs",
          "payment:credit_cards": "yes",
          "payment:debit_cards": "yes"
        }
      },
      {
        "type": "node",
        "id": 3685075825,
        "lat": 26.9194775,
        "lon": 75.7996659,
        "tags": {
          "addr:housenumber": "109",
          "addr:street": "M. I. Road",
          "amenity": "restaurant",
          "brand": "Pizza Hut",
          "brand:wikidata": "Q191615",
          "cuisine": "pizza",
          "name": "Pizza Hut"
        }
      },
      {
        "type": "node",
        "id": 3685076425,
        "lat": 26.9195736,
        "lon": 75.7986796,
        "tags": {
          "amenity": "atm",
          "brand": "CSB Bank",
          "brand:wikidata": "Q5053244",
          "name": "Catholic Syrian Bank",
          "official_name": "Catholic Syrian Bank",
          "operator": "CSB Bank",
          "operator:wikidata": "Q5053244"
        }
      },
      {
        "type": "node",
        "id": 3912110531,
        "lat": 26.9216983,
        "lon": 75.7968445,
        "tags": {
          "addr:postcode": "302001",
          "addr:street": "Station Road",
          "amenity": "restaurant",
          "name": "Kanyi Restaurant"
        }
      },
      {
        "type": "node",
        "id": 4348672497,
        "lat": 26.9198945,
        "lon": 75.7987261,
        "tags": {
          "amenity": "restaurant",
          "name": "Mohan Restaurant"
        }
      },
      {
        "type": "node",
        "id": 4562817902,
        "lat": 26.921112,
        "lon": 75.796593,
        "tags": {
          "addr:postcode": "302001",
          "addr:street": "Station Road",
          "amenity": "cafe",
          "name:en": "Rawat Misthan Bhandar",
          "opening_hours": "Mo-Su 11:00-23:00"
        }
      },
      {
        "type": "node",
        "id": 4579745989,
        "lat": 26.9163329,
        "lon": 75.7956078,
        "tags": {
          "amenity": "restaurant",
          "cuisine": "chinese;indian;italian",
          "internet_access": "wlan",
          "name": "Peacock rooftop restaurant",
          "opening_hours": "Mo-Su 07:30-23:30"
        }
      },
      {
        "type": "node",
        "id": 4703268090,
        "lat": 26.9146995,
        "lon": 75.7996987,
        "tags": {
          "amenity": "atm",
          "brand": "State Bank of India",
          "brand:en": "State Bank of India",
          "brand:wikidata": "Q1340361",
          "currency:INR": "yes",
          "drive_through": "no",
          "indoor": "yes",
          "note": "Contributors are requested to not edit the \"brand\", \"brand:en\", \"brand:wikidata\", \"operator\", \"operator:en\" and \"operator:wikidata\" tags. (2025/03/03)",
          "opening_hours": "24/7",
          "operator": "State Bank of India",
          "operator:en": "State Bank of India",
          "operator:wikidata": "Q1340361",
          "short_name": "SBI"
        }
      },
      {
        "type": "node",
        "id": 4703287189,
        "lat": 26.9139188,
        "lon": 75.799137,
        "tags": {
          "amenity": "atm",
          "opening_hours": "24/7",
          "operator": "India Post ATM"
        }
      },
      {
        "type": "node",
        "id": 4703287289,
        "lat": 26.9147271,
        "lon": 75.7997268,
        "tags": {
          "amenity": "atm",
          "opening_hours": "24/7",
          "operator": "IndusInd Bank ATM"
        }
      },
      {
        "type": "node",
        "id": 4706947494,
        "lat": 26.9196661,
        "lon": 75.7913021,
        "tags": {
          "amenity": "restaurant",
          "name:en": "Peshawri"
        }
      },
      {
        "type": "node",
        "id": 4744578221,
        "lat": 26.9164507,
        "lon": 75.7991333,
        "tags": {
          "amenity": "cafe",
          "name": "coffey Day"
        }
      },
      {
        "type": "node",
        "id": 4763765421,
        "lat": 26.9173574,
        "lon": 75.7994798,
        "tags": {
          "amenity": "atm",
          "brand": "Bank of India",
          "brand:wikidata": "Q2004439",
          "operator": "Bank of India",
          "operator:wikidata": "Q2004439"
        }
      },
      {
        "type": "node",
        "id": 4826369122,
        "lat": 26.9120381,
        "lon": 75.7920659,
        "tags": {
          "amenity": "restaurant",
          "name": "Cheap food places",
          "name:hi": "Cheap food places"
        }
      },
      {
        "type": "node",
        "id": 4849657022,
        "lat": 26.9201285,
        "lon": 75.795381,
        "tags": {
          "amenity": "fast_food",
          "name:en": "Talk of the Town"
        }
      },
      {
        "type": "node",
        "id": 4925893021,
        "lat": 26.9247396,
        "lon": 75.7895873,
        "tags": {
          "addr:housenumber": "D-160",
          "addr:postcode": "302016",
          "addr:street": "Kabir Marg",
          "amenity": "restaurant",
          "cuisine": "indian",
          "email": "chitchat7@hotmail.com",
          "name:en": "Chit Chat Restaurant",
          "phone": "+911412201899",
          "website": "http://www.chitchatjaipur.com"
        }
      },
      {
        "type": "node",
        "id": 4959451821,
        "lat": 26.9130736,
        "lon": 75.7853986,
        "tags": {
          "addr:street": "Jacob Road",
          "amenity": "restaurant",
          "cuisine": "italian_pizza;italian",
          "diet:vegan": "yes",
          "name:en": "Giardino",
          "opening_hours": "Mo-Su 07:00-23:00"
        }
      },
      {
        "type": "node",
        "id": 5158187422,
        "lat": 26.9192779,
        "lon": 75.7994243,
        "tags": {
          "name:en": "Ganpati Plaza",
          "shop": "supermarket"
        }
      },
      {
        "type": "node",
        "id": 5226323124,
        "lat": 26.9212149,
        "lon": 75.7969429,
        "tags": {
          "amenity": "fast_food",
          "name:en": "Rawat Kachori"
        }
      },
      {
        "type": "node",
        "id": 5249183922,
        "lat": 26.9194326,
        "lon": 75.7997638,
        "tags": {
          "addr:city": "Jaipur",
          "addr:street": "Mirza Ismail Road",
          "amenity": "cafe",
          "cuisine": "bun_samosa;tea",
          "name": "Gulab Ji Chai",
          "opening_hours": "Mo-Su 06:00-20:00"
        }
      },
      {
        "type": "node",
        "id": 5340747922,
        "lat": 26.9244566,
        "lon": 75.78773,
        "tags": {
          "amenity": "restaurant",
          "name": "Shama Bhojnyala"
        }
      },
      {
        "type": "node",
        "id": 5342932521,
        "lat": 26.9241359,
        "lon": 75.7897529,
        "tags": {
          "amenity": "restaurant",
          "name": "Maggie rooftop restaurant , Jaipur"
        }
      },
      {
        "type": "node",
        "id": 5344986724,
        "lat": 26.9214607,
        "lon": 75.790038,
        "tags": {
          "amenity": "fast_food",
          "name:ru": "\u0423\u043b\u0438\u0446\u0430 \u0420\u0435\u0441\u0442\u043e\u0440\u0430\u043d\u0447\u0438\u043a\u043e\u0432"
        }
      },
      {
        "type": "node",
        "id": 5628122223,
        "lat": 26.9207081,
        "lon": 75.7909211,
        "tags": {
          "shop": "supermarket"
        }
      },
      {
        "type": "node",
        "id": 5806062553,
        "lat": 26.9247436,
        "lon": 75.7906405,
        "tags": {
          "amenity": "restaurant",
          "name:en": "Shahi mumal restaurant"
        }
      },
      {
        "type": "node",
        "id": 5940047485,
        "lat": 26.9157256,
        "lon": 75.7963116,
        "tags": {
          "addr:housenumber": "64",
          "addr:postcode": "302001",
          "addr:street": "64 \u0939\u0930\u093f\u0915\u093f\u0936\u0928 \u0938\u094b\u092e\u093e\u0928\u0940 \u092e\u093e\u0930\u094d\u0917 \u0939\u0948\u0925\u094d\u0930\u0908 \u0915\u093f\u0932\u093e \u0905\u091c\u092e\u0947\u0930 \u0930\u094b\u0921 \u091c\u092f\u092a\u0941\u0930",
          "amenity": "restaurant",
          "internet_access": "wlan",
          "name:en": "Chillout Jaipur",
          "phone": "+9191161111146",
          "website": "http://www.hathroi.com"
        }
      },
      {
        "type": "node",
        "id": 5953407587,
        "lat": 26.9140104,
        "lon": 75.7987636,
        "tags": {
          "amenity": "restaurant",
          "name": "Jaipur modern"
        }
      },
      {
        "type": "node",
        "id": 6249028885,
        "lat": 26.9162022,
        "lon": 75.7958659,
        "tags": {
          "addr:housenumber": "59 hathroi fort",
          "addr:postcode": "302001",
          "addr:street": "Hari Kisham Somani Marg",
          "amenity": "restaurant",
          "cuisine": "italian_pizza;crepe;noodles;asian;pancake;italian;sandwich;curry;ice_cream;local;mediterranean;chinese;tea;fine_dining;pizza;pasta;indian",
          "email": "hotelkalyan@gmail.com",
          "internet_access": "wlan",
          "name": "Kalyan Rooftop Restaurant",
          "opening_hours": "Mo-Su 07:00-23:50",
          "operator": "Manoj Gupta",
          "phone": "9314501591",
          "website": "https://www.hotelkalyan.com/dining"
        }
      },
      {
        "type": "node",
        "id": 6479937688,
        "lat": 26.9242783,
        "lon": 75.7883111,
        "tags": {
          "amenity": "restaurant",
          "description": "Indian restaurant (meal 60-120R, chapati 6R, thali 80-140R)",
          "name": "Shri Krishna Restaurant"
        }
      },
      {
        "type": "node",
        "id": 6509321886,
        "lat": 26.9253797,
        "lon": 75.7909073,
        "tags": {
          "addr:postcode": "302016",
          "addr:street": "Kabir Marg",
          "amenity": "restaurant",
          "cuisine": "italian_pizza;pasta;asian;italian;indian",
          "email": "atithiyacafe@gmail.com",
          "name": "Atithiya",
          "phone": "8290405434"
        }
      },
      {
        "type": "node",
        "id": 7006069585,
        "lat": 26.925404,
        "lon": 75.7928151,
        "tags": {
          "amenity": "atm",
          "brand": "State Bank of India",
          "brand:en": "State Bank of India",
          "brand:wikidata": "Q1340361",
          "currency:INR": "yes",
          "drive_through": "no",
          "indoor": "yes",
          "note": "Contributors are requested to not edit the \"brand\", \"brand:en\", \"brand:wikidata\", \"operator\", \"operator:en\" and \"operator:wikidata\" tags. (2025/03/03)",
          "opening_hours": "24/7",
          "operator": "State Bank of India",
          "operator:en": "State Bank of India",
          "operator:wikidata": "Q1340361",
          "short_name": "SBI"
        }
      },
      {
        "type": "node",
        "id": 7025015210,
        "lat": 26.9245242,
        "lon": 75.788056,
        "tags": {
          "addr:district": "Jaipur",
          "addr:full": "D-9, Kabir Marg, Bani Park",
          "addr:postcode": "302016",
          "addr:state": "Rajasthan",
          "amenity": "hospital",
          "healthcare": "hospital",
          "name": "Bani Park Hospital",
          "source": "OpenGovernmentData"
        }
      },
      {
        "type": "node",
        "id": 7035107000,
        "lat": 26.9096883,
        "lon": 75.7899821,
        "tags": {
          "addr:district": "Jaipur",
          "addr:full": "1, Jacob Road, Civil Lines",
          "addr:postcode": "302006",
          "addr:state": "Rajasthan",
          "amenity": "hospital",
          "healthcare": "hospital",
          "name": "Gautam Hospital and Research Center",
          "source": "OpenGovernmentData"
        }
      },
      {
        "type": "node",
        "id": 7039515196,
        "lat": 26.9243777,
        "lon": 75.7892007,
        "tags": {
          "addr:district": "Jaipur",
          "addr:full": "Ke-3, Kabir Marg , Bani Park",
          "addr:postcode": "302001",
          "addr:state": "Rajasthan",
          "amenity": "hospital",
          "healthcare": "hospital",
          "name": "Shah Hospital, Jaipur",
          "source": "OpenGovernmentData"
        }
      },
      {
        "type": "node",
        "id": 7039556018,
        "lat": 26.9128574,
        "lon": 75.7970139,
        "tags": {
          "addr:district": "Jaipur",
          "addr:full": "R 8/A, Yudhishtar Marg Behind Ashok Nagar Police Station",
          "addr:postcode": "302001",
          "addr:state": "Rajasthan",
          "amenity": "hospital",
          "healthcare": "hospital",
          "name": "Sr Kalla Memorial Gastro and General Hospital",
          "source": "OpenGovernmentData"
        }
      },
      {
        "type": "node",
        "id": 7039567318,
        "lat": 26.9139408,
        "lon": 75.7984489,
        "tags": {
          "addr:district": "Jaipur",
          "addr:full": "50,Dhuleshwar Bagh, C-Scheme",
          "addr:postcode": "302001",
          "addr:state": "Rajasthan",
          "amenity": "hospital",
          "healthcare": "hospital",
          "name": "Dhuleshwar Hospital and Laser Skin Centre",
          "source": "OpenGovernmentData"
        }
      },
      {
        "type": "node",
        "id": 7039684189,
        "lat": 26.9147732,
        "lon": 75.7955489,
        "tags": {
          "addr:district": "Jaipur",
          "addr:full": "15-16, Hathroi Market, Ajmer Road",
          "addr:postcode": "302001",
          "addr:state": "Rajasthan",
          "amenity": "clinic",
          "healthcare": "clinic",
          "name": "Welfare Clinic, Jaipur",
          "source": "OpenGovernmentData"
        }
      },
      {
        "type": "node",
        "id": 7039702397,
        "lat": 26.9144575,
        "lon": 75.7962348,
        "tags": {
          "addr:district": "Jaipur",
          "addr:full": "62-A,Dhuleshwar Garden,C-Scheme",
          "addr:postcode": "302001",
          "addr:state": "Rajasthan",
          "amenity": "hospital",
          "healthcare": "hospital",
          "name": "Vivekanand Hospital and Fertility Centre",
          "source": "OpenGovernmentData",
          "website": "https://www.vivekanandfertility.com"
        }
      },
      {
        "type": "node",
        "id": 7043371159,
        "lat": 26.9154928,
        "lon": 75.7889389,
        "tags": {
          "leisure": "garden",
          "name": "Ganpati Nagar Ground"
        }
      },
      {
        "type": "node",
        "id": 7043371160,
        "lat": 26.9162526,
        "lon": 75.7866588,
        "tags": {
          "amenity": "hospital",
          "healthcare": "hospital",
          "name": "Railway Hospital",
          "name:hi": "\u0930\u0947\u0932\u0935\u0947 \u0939\u0949\u0938\u094d\u092a\u093f\u091f\u0932"
        }
      },
      {
        "type": "node",
        "id": 7232291585,
        "lat": 26.9132795,
        "lon": 75.7940823,
        "tags": {
          "addr:housenumber": "18",
          "addr:street": "Ajmer pulia",
          "amenity": "cafe",
          "cuisine": "breakfast;indian",
          "diet:vegetarian": "yes",
          "name": "Charis cafe",
          "name:ru": "\u0427\u0430\u0440\u0438\u0441 \u043a\u0430\u0444\u0435",
          "opening_hours": "Mo-Su 09:00-21:00",
          "phone": "+9190251 55906",
          "website": "https://charis-cafe-cafe.business.site"
        }
      },
      {
        "type": "node",
        "id": 7698486516,
        "lat": 26.9221332,
        "lon": 75.7901695,
        "tags": {
          "addr:district": "Jaipur",
          "addr:full": "Railway Station Road",
          "addr:postcode": "302016",
          "addr:state": "Rajasthan",
          "amenity": "clinic",
          "healthcare": "clinic",
          "name": "Shree Panchayati Homoeopathic Clinic",
          "source": "Local Knowledge"
        }
      },
      {
        "type": "node",
        "id": 7698486534,
        "lat": 26.9119478,
        "lon": 75.7956561,
        "tags": {
          "addr:district": "Jaipur",
          "addr:full": "Panch Batti, Hathroi, Jaipur",
          "addr:postcode": "302007",
          "addr:state": "Rajasthan",
          "amenity": "doctors",
          "name": "Dr. G C. Bothra",
          "source": "Local Knowledge"
        }
      },
      {
        "type": "node",
        "id": 7698486537,
        "lat": 26.9170977,
        "lon": 75.7952368,
        "tags": {
          "addr:district": "Jaipur",
          "addr:full": "Sanjay Marg, Ajmer Road",
          "addr:postcode": "302006",
          "addr:state": "Rajasthan",
          "amenity": "hospital",
          "healthcare": "hospital",
          "name": "Triveni Hospital",
          "source": "Local Knowledge"
        }
      },
      {
        "type": "node",
        "id": 7698486559,
        "lat": 26.917293,
        "lon": 75.795258,
        "tags": {
          "addr:district": "Jaipur",
          "addr:full": "Gopalbari",
          "addr:postcode": "302001",
          "addr:state": "Rajasthan",
          "amenity": "doctors",
          "healthcare": "doctor",
          "name": "Dr R K Sureka",
          "source": "Local Knowledge"
        }
      },
      {
        "type": "node",
        "id": 7698486562,
        "lat": 26.920699,
        "lon": 75.7918591,
        "tags": {
          "addr:district": "Jaipur",
          "addr:full": "Gopalbari",
          "addr:postcode": "302006",
          "addr:state": "Rajasthan",
          "amenity": "clinic",
          "healthcare": "clinic",
          "name": "Rajasthan Homeopathic Centre & Clinic , Jaipur",
          "source": "Local Knowledge"
        }
      },
      {
        "type": "node",
        "id": 7698486568,
        "lat": 26.925119,
        "lon": 75.7907122,
        "tags": {
          "addr:district": "Jaipur",
          "addr:full": "Bani Park, Kabir Marg",
          "addr:postcode": "302016",
          "addr:state": "Rajasthan",
          "amenity": "clinic",
          "healthcare": "clinic",
          "name": "Saha Clinic",
          "source": "Local Knowledge"
        }
      },
      {
        "type": "node",
        "id": 7698486579,
        "lat": 26.9249952,
        "lon": 75.7909322,
        "tags": {
          "addr:district": "Jaipur",
          "addr:full": "Kunj Niketan, Kabir Marg, Bani Park",
          "addr:postcode": "302016",
          "addr:state": "Rajasthan",
          "amenity": "doctors",
          "healthcare": "doctor",
          "name": "Dr. Vijay Saxena Clinic , Jaipur",
          "source": "Local Knowledge"
        }
      },
      {
        "type": "node",
        "id": 7698486584,
        "lat": 26.9206759,
        "lon": 75.789337,
        "tags": {
          "addr:district": "Jaipur",
          "addr:full": "Opposite Jaipur Railway Station",
          "addr:postcode": "302006",
          "addr:state": "Rajasthan",
          "amenity": "clinic",
          "healthcare": "clinic",
          "name": "Sun Clinic",
          "source": "Local Knowledge"
        }
      },
      {
        "type": "node",
        "id": 8119003882,
        "lat": 26.9209472,
        "lon": 75.7959054,
        "tags": {
          "amenity": "atm",
          "operator": "Punjab & Sindh Bank"
        }
      },
      {
        "type": "node",
        "id": 8119003883,
        "lat": 26.9209752,
        "lon": 75.7959552,
        "tags": {
          "amenity": "bank",
          "brand": "Punjab & Sind Bank",
          "brand:en": "Punjab & Sind Bank",
          "brand:hi": "\u092a\u0902\u091c\u093e\u092c \u090f\u0923\u094d\u0921 \u0938\u093f\u0902\u0927 \u092c\u0948\u0902\u0915",
          "brand:kn": "\u0caa\u0c82\u0c9c\u0cbe\u0cac\u0ccd \u0c86\u0c82\u0ca1\u0ccd \u0cb8\u0cbf\u0c82\u0ca7\u0ccd \u0cac\u0ccd\u0caf\u0cbe\u0c82\u0c95\u0ccd",
          "brand:ml": "\u0d2a\u0d1e\u0d4d\u0d1a\u0d3e\u0d2c\u0d4d & \u0d38\u0d3f\u0d28\u0d4d\u0d27\u0d4d \u0d2c\u0d3e\u0d19\u0d4d\u0d15\u0d4d",
          "brand:mr": "\u092a\u0902\u091c\u093e\u092c \u0905\u0901\u0921 \u0938\u093f\u0902\u0927 \u092c\u0901\u0915",
          "brand:pa": "\u0a2a\u0a70\u0a1c\u0a3e\u0a2c \u0a10\u0a02\u0a21 \u0a38\u0a3f\u0a70\u0a27 \u0a2c\u0a48\u0a02\u0a15",
          "brand:ta": "\u0baa\u0b9e\u0bcd\u0b9a\u0bbe\u0baa\u0bcd \u0bae\u0bb1\u0bcd\u0bb1\u0bc1\u0bae\u0bcd \u0b9a\u0bbf\u0ba8\u0bcd\u0ba4\u0bc1 \u0bb5\u0b99\u0bcd\u0b95\u0bbf",
          "brand:ur": "\u067e\u0646\u062c\u0627\u0628 \u0627\u06cc\u0646\u0688 \u0633\u0646\u062f\u06be \u0628\u06cc\u0646\u06a9",
          "brand:website": "https://punjabandsindbank.co.in",
          "brand:wikidata": "Q2003302",
          "name": "Punjab & Sind Bank",
          "name:en": "Punjab & Sind Bank",
          "name:hi": "\u092a\u0902\u091c\u093e\u092c \u090f\u0923\u094d\u0921 \u0938\u093f\u0902\u0927 \u092c\u0948\u0902\u0915",
          "name:kn": "\u0caa\u0c82\u0c9c\u0cbe\u0cac\u0ccd \u0c86\u0c82\u0ca1\u0ccd \u0cb8\u0cbf\u0c82\u0ca7\u0ccd \u0cac\u0ccd\u0caf\u0cbe\u0c82\u0c95\u0ccd",
          "name:ml": "\u0d2a\u0d1e\u0d4d\u0d1a\u0d3e\u0d2c\u0d4d & \u0d38\u0d3f\u0d28\u0d4d\u0d27\u0d4d \u0d2c\u0d3e\u0d19\u0d4d\u0d15\u0d4d",
          "name:mr": "\u092a\u0902\u091c\u093e\u092c \u0905\u0901\u0921 \u0938\u093f\u0902\u0927 \u092c\u0901\u0915",
          "name:pa": "\u0a2a\u0a70\u0a1c\u0a3e\u0a2c \u0a10\u0a02\u0a21 \u0a38\u0a3f\u0a70\u0a27 \u0a2c\u0a48\u0a02\u0a15",
          "name:ta": "\u0baa\u0b9e\u0bcd\u0b9a\u0bbe\u0baa\u0bcd \u0bae\u0bb1\u0bcd\u0bb1\u0bc1\u0bae\u0bcd \u0b9a\u0bbf\u0ba8\u0bcd\u0ba4\u0bc1 \u0bb5\u0b99\u0bcd\u0b95\u0bbf",
          "name:ur": "\u067e\u0646\u062c\u0627\u0628 \u0627\u06cc\u0646\u0688 \u0633\u0646\u062f\u06be \u0628\u06cc\u0646\u06a9"
        }
      },
      {
        "type": "node",
        "id": 9249525420,
        "lat": 26.9107569,
        "lon": 75.7952415,
        "tags": {
          "addr:city": "Jaipur",
          "addr:housenumber": "A-5, Suryavanshi Pearl",
          "addr:postcode": "302007",
          "addr:street": "Chomu House Circle",
          "amenity": "cafe",
          "brand": "Starbucks",
          "brand:pa": "\u0a38\u0a1f\u0a3e\u0a30\u0a2c\u0a15\u0a38",
          "brand:ur": "\u0627\u0633\u0679\u0627\u0631\u0628\u06a9\u0633",
          "brand:wikidata": "Q37158",
          "brand:wikipedia": "en:Starbucks",
          "cuisine": "coffee_shop;coffee",
          "internet_access": "wlan",
          "internet_access:fee": "customers",
          "name": "Starbucks",
          "name:pa": "\u0a38\u0a1f\u0a3e\u0a30\u0a2c\u0a15\u0a38",
          "name:ur": "\u0627\u0633\u0679\u0627\u0631\u0628\u06a9\u0633",
          "official_name": "Starbucks Coffee",
          "official_name:pa": "\u0a38\u0a1f\u0a3e\u0a30\u0a2c\u0a15\u0a38 \u0a15\u0a4c\u0a2b\u0a40",
          "official_name:ur": "\u0627\u0633\u0679\u0627\u0631\u0628\u06a9\u0633 \u06a9\u0627\u0641\u06cc",
          "opening_hours": "Mo-Su 09:00-22:00",
          "website": "https://www.starbucks.in/"
        }
      },
      {
        "type": "node",
        "id": 10015695217,
        "lat": 26.9154568,
        "lon": 75.8015928,
        "tags": {
          "addr:city": "Jaipur",
          "addr:housenumber": "9th Floor, International Business Centre, Malviya Marg, C Scheme, Jaipur, Rajasthan 302001",
          "addr:street": "Ashok Marg",
          "amenity": "restaurant",
          "internet_access": "wlan",
          "name:en": "Matti Indian Cafe House"
        }
      },
      {
        "type": "node",
        "id": 10904661667,
        "lat": 26.9160713,
        "lon": 75.8015668,
        "tags": {
          "addr:housenumber": "9th Floor, International Business Centre, Malviya Marg, C Scheme, Jaipur, Rajasthan 302001",
          "amenity": "cafe",
          "name": "matti indian cafe house"
        }
      },
      {
        "type": "node",
        "id": 11385049046,
        "lat": 26.9249947,
        "lon": 75.7904462,
        "tags": {
          "amenity": "bank",
          "brand": "HDFC Bank",
          "brand:wikidata": "Q631047",
          "name": "HDFC Bank",
          "short_name": "HDFC"
        }
      },
      {
        "type": "node",
        "id": 11385125171,
        "lat": 26.9249866,
        "lon": 75.7904018,
        "tags": {
          "amenity": "bank",
          "brand": "ICICI Bank",
          "brand:wikidata": "Q1653258",
          "name": "ICICI Bank",
          "short_name": "ICICI"
        }
      },
      {
        "type": "node",
        "id": 11725249801,
        "lat": 26.9196741,
        "lon": 75.7886132,
        "tags": {
          "amenity": "pharmacy",
          "healthcare": "pharmacy",
          "level": "0",
          "name": "Dawa Dost",
          "wheelchair": "yes"
        }
      },
      {
        "type": "node",
        "id": 11725249803,
        "lat": 26.92059,
        "lon": 75.7888677,
        "tags": {
          "amenity": "restaurant",
          "diet:vegetarian": "only",
          "level": "0",
          "name": "Roop Basant Pavitra Bhojanalaya",
          "opening_hours": "24/7",
          "takeaway": "yes",
          "toilets:access": "customers",
          "wheelchair": "no"
        }
      },
      {
        "type": "node",
        "id": 11725249804,
        "lat": 26.9205952,
        "lon": 75.7888436,
        "tags": {
          "amenity": "restaurant",
          "diet:vegetarian": "only",
          "level": "0",
          "name": "Khandelwal",
          "wheelchair": "no"
        }
      },
      {
        "type": "node",
        "id": 12358211503,
        "lat": 26.9247973,
        "lon": 75.7899824,
        "tags": {
          "amenity": "restaurant",
          "name": "Shree Sanwariya Sarkar"
        }
      },
      {
        "type": "node",
        "id": 12358211504,
        "lat": 26.9248809,
        "lon": 75.7901504,
        "tags": {
          "amenity": "pharmacy",
          "name": "medkart"
        }
      },
      {
        "type": "node",
        "id": 12358211505,
        "lat": 26.925014,
        "lon": 75.7905416,
        "tags": {
          "amenity": "fast_food"
        }
      },
      {
        "type": "node",
        "id": 12358211703,
        "lat": 26.924693,
        "lon": 75.7906604,
        "tags": {
          "amenity": "restaurant",
          "name": "Shri Shyam Pavitra Bhojnalaya"
        }
      },
      {
        "type": "node",
        "id": 12358211801,
        "lat": 26.9244746,
        "lon": 75.7891214,
        "tags": {
          "amenity": "fast_food",
          "name": "street food"
        }
      },
      {
        "type": "node",
        "id": 12358212002,
        "lat": 26.9244798,
        "lon": 75.7905539,
        "tags": {
          "amenity": "restaurant",
          "name": "Anjani"
        }
      },
      {
        "type": "node",
        "id": 12358212201,
        "lat": 26.9254591,
        "lon": 75.7912713,
        "tags": {
          "amenity": "fast_food",
          "name": "The Mama Bhanja's"
        }
      },
      {
        "type": "node",
        "id": 12361795410,
        "lat": 26.9197437,
        "lon": 75.7897154,
        "tags": {
          "amenity": "fast_food",
          "name": "Biryani"
        }
      },
      {
        "type": "node",
        "id": 12361795411,
        "lat": 26.9216613,
        "lon": 75.7900876,
        "tags": {
          "amenity": "fast_food"
        }
      },
      {
        "type": "node",
        "id": 12361795417,
        "lat": 26.9256027,
        "lon": 75.7910741,
        "tags": {
          "amenity": "restaurant",
          "name": "Fresh Bites"
        }
      },
      {
        "type": "node",
        "id": 12361795506,
        "lat": 26.9179347,
        "lon": 75.7903436,
        "tags": {
          "amenity": "restaurant",
          "name": "Krishna Bhojnalya"
        }
      },
      {
        "type": "node",
        "id": 12361795507,
        "lat": 26.9261497,
        "lon": 75.7906121,
        "tags": {
          "amenity": "pharmacy"
        }
      },
      {
        "type": "node",
        "id": 12361795803,
        "lat": 26.919879,
        "lon": 75.7894725,
        "tags": {
          "amenity": "fast_food",
          "name": "street food street"
        }
      },
      {
        "type": "node",
        "id": 12361796103,
        "lat": 26.924985,
        "lon": 75.7905473,
        "tags": {
          "amenity": "restaurant"
        }
      },
      {
        "type": "node",
        "id": 12361796202,
        "lat": 26.9177934,
        "lon": 75.7904291,
        "tags": {
          "amenity": "restaurant",
          "name": "Atithi"
        }
      },
      {
        "type": "node",
        "id": 12361796203,
        "lat": 26.9215478,
        "lon": 75.7900794,
        "tags": {
          "amenity": "restaurant"
        }
      },
      {
        "type": "node",
        "id": 12361796208,
        "lat": 26.9243215,
        "lon": 75.7905938,
        "tags": {
          "amenity": "pharmacy"
        }
      },
      {
        "type": "node",
        "id": 12361796302,
        "lat": 26.9215409,
        "lon": 75.7899902,
        "tags": {
          "amenity": "restaurant"
        }
      },
      {
        "type": "node",
        "id": 12361796303,
        "lat": 26.9216327,
        "lon": 75.7899951,
        "tags": {
          "amenity": "restaurant"
        }
      },
      {
        "type": "node",
        "id": 12361796304,
        "lat": 26.9217378,
        "lon": 75.790092,
        "tags": {
          "amenity": "fast_food"
        }
      },
      {
        "type": "node",
        "id": 12367921602,
        "lat": 26.9228362,
        "lon": 75.7999201,
        "tags": {
          "amenity": "restaurant",
          "name": "Rajasthan Craft Plaza Family Restaurant"
        }
      },
      {
        "type": "node",
        "id": 12369816604,
        "lat": 26.9228991,
        "lon": 75.7881135,
        "tags": {
          "amenity": "restaurant",
          "name": "J. K"
        }
      },
      {
        "type": "node",
        "id": 12369816605,
        "lat": 26.921957,
        "lon": 75.7874144,
        "tags": {
          "amenity": "restaurant"
        }
      },
      {
        "type": "node",
        "id": 12369816606,
        "lat": 26.9212518,
        "lon": 75.7877911,
        "tags": {
          "amenity": "restaurant"
        }
      },
      {
        "type": "node",
        "id": 12369816607,
        "lat": 26.920586,
        "lon": 75.7889612,
        "tags": {
          "amenity": "restaurant"
        }
      },
      {
        "type": "node",
        "id": 12369816608,
        "lat": 26.921734,
        "lon": 75.7899982,
        "tags": {
          "amenity": "restaurant"
        }
      },
      {
        "type": "node",
        "id": 12369822801,
        "lat": 26.9232995,
        "lon": 75.788432,
        "tags": {
          "amenity": "pharmacy"
        }
      },
      {
        "type": "node",
        "id": 12369822803,
        "lat": 26.9227264,
        "lon": 75.7879904,
        "tags": {
          "amenity": "restaurant"
        }
      },
      {
        "type": "node",
        "id": 12369822805,
        "lat": 26.9205585,
        "lon": 75.7894701,
        "tags": {
          "amenity": "restaurant"
        }
      },
      {
        "type": "node",
        "id": 12369822806,
        "lat": 26.9216858,
        "lon": 75.7899975,
        "tags": {
          "amenity": "restaurant"
        }
      },
      {
        "type": "node",
        "id": 12369822902,
        "lat": 26.9215132,
        "lon": 75.787464,
        "tags": {
          "amenity": "restaurant"
        }
      },
      {
        "type": "node",
        "id": 12369823002,
        "lat": 26.9205665,
        "lon": 75.7895717,
        "tags": {
          "amenity": "restaurant"
        }
      },
      {
        "type": "node",
        "id": 12369823003,
        "lat": 26.9202289,
        "lon": 75.7896248,
        "tags": {
          "amenity": "atm",
          "brand": "ICICI Bank",
          "brand:en": "ICICI Bank",
          "brand:wikidata": "Q1653258",
          "currency:INR": "yes",
          "drive_through": "no",
          "indoor": "yes",
          "note": "Contributors are requested to not edit the \"brand\", \"brand:en\", \"brand:wikidata\", \"operator\", \"operator:en\" and \"operator:wikidata\" tags. (2025/03/03)",
          "opening_hours": "24/7",
          "operator": "ICICI Bank",
          "operator:en": "ICICI Bank",
          "operator:wikidata": "Q1653258",
          "short_name": "ICICI"
        }
      },
      {
        "type": "node",
        "id": 12369823004,
        "lat": 26.9202667,
        "lon": 75.7897862,
        "tags": {
          "amenity": "restaurant"
        }
      },
      {
        "type": "node",
        "id": 12373714205,
        "lat": 26.9225559,
        "lon": 75.7991003,
        "tags": {
          "amenity": "restaurant",
          "name": "Thali House"
        }
      },
      {
        "type": "node",
        "id": 12376556601,
        "lat": 26.9232521,
        "lon": 75.7973808,
        "tags": {
          "shop": "department_store"
        }
      },
      {
        "type": "node",
        "id": 12376556603,
        "lat": 26.9222337,
        "lon": 75.7982649,
        "tags": {
          "amenity": "restaurant"
        }
      },
      {
        "type": "node",
        "id": 12376556607,
        "lat": 26.9219071,
        "lon": 75.8005342,
        "tags": {
          "amenity": "pharmacy"
        }
      },
      {
        "type": "node",
        "id": 12376556608,
        "lat": 26.9219696,
        "lon": 75.8003686,
        "tags": {
          "amenity": "restaurant"
        }
      },
      {
        "type": "node",
        "id": 12376556609,
        "lat": 26.9219484,
        "lon": 75.7974906,
        "tags": {
          "amenity": "restaurant"
        }
      },
      {
        "type": "node",
        "id": 12376556614,
        "lat": 26.9241173,
        "lon": 75.7972538,
        "tags": {
          "amenity": "pharmacy"
        }
      },
      {
        "type": "node",
        "id": 12376557501,
        "lat": 26.9223187,
        "lon": 75.7984269,
        "tags": {
          "amenity": "bank",
          "name": "SBI"
        }
      },
      {
        "type": "node",
        "id": 12376557503,
        "lat": 26.9215381,
        "lon": 75.8006061,
        "tags": {
          "amenity": "pharmacy"
        }
      },
      {
        "type": "node",
        "id": 12376557505,
        "lat": 26.9218853,
        "lon": 75.7973434,
        "tags": {
          "amenity": "restaurant",
          "name": "Bikaner Bhojnalaya"
        }
      },
      {
        "type": "node",
        "id": 12376557507,
        "lat": 26.9222878,
        "lon": 75.7971062,
        "tags": {
          "amenity": "pharmacy"
        }
      },
      {
        "type": "node",
        "id": 12376558601,
        "lat": 26.9226018,
        "lon": 75.7994137,
        "tags": {
          "amenity": "restaurant",
          "name": "they offer Thali for 150inr and refill until you are full"
        }
      },
      {
        "type": "node",
        "id": 12379232202,
        "lat": 26.9193192,
        "lon": 75.7997258,
        "tags": {
          "amenity": "fast_food"
        }
      },
      {
        "type": "node",
        "id": 12379232203,
        "lat": 26.9184451,
        "lon": 75.799315,
        "tags": {
          "amenity": "restaurant",
          "name": "Shahar"
        }
      },
      {
        "type": "node",
        "id": 12379232204,
        "lat": 26.9183132,
        "lon": 75.7997591,
        "tags": {
          "amenity": "bank",
          "name": "Unity"
        }
      },
      {
        "type": "node",
        "id": 12379232701,
        "lat": 26.9194052,
        "lon": 75.7997562,
        "tags": {
          "amenity": "fast_food"
        }
      },
      {
        "type": "node",
        "id": 12379294402,
        "lat": 26.9156131,
        "lon": 75.795923,
        "tags": {
          "amenity": "cafe",
          "name": "The Little French Home"
        }
      },
      {
        "type": "node",
        "id": 12379294501,
        "lat": 26.9161718,
        "lon": 75.7959976,
        "tags": {
          "amenity": "cafe",
          "name": "rooftop"
        }
      },
      {
        "type": "node",
        "id": 12379294701,
        "lat": 26.9156803,
        "lon": 75.7959173,
        "tags": {
          "amenity": "cafe",
          "name": "rooftop"
        }
      }
    ]
  },
  "pois_2_5km": {
    "version": 0.6,
    "generator": "Overpass API 0.7.62.8 e802775f",
    "osm3s": {
      "timestamp_osm_base": "2025-09-07T13:16:44Z",
      "copyright": "The data included in this document is from www.openstreetmap.org. The data is made available under ODbL."
    },
    "elements": [
      {
        "type": "node",
        "id": 1064270823,
        "lat": 26.9225949,
        "lon": 75.7999012,
        "tags": {
          "name": "Sindhi Camp",
          "name:hi": "\u0938\u093f\u0928\u094d\u0927\u0940 \u0915\u0948\u0902\u092a",
          "network": "Jaipur Metro",
          "note": "Contributors are requested to not edit the \"network\" and the \"operator\" tags. (2023/11/08)",
          "operator": "Jaipur Metro Rail Corporation Limited",
          "public_transport": "stop_position",
          "public_transport:version": "2",
          "railway": "stop",
          "ref": "SICP",
          "shelter": "yes",
          "subway": "yes",
          "wheelchair": "yes"
        }
      },
      {
        "type": "node",
        "id": 1064270856,
        "lat": 26.9235814,
        "lon": 75.8005946,
        "tags": {
          "amenity": "bus_station",
          "bus": "yes",
          "name": "Sindhi Camp",
          "name:en": "Jaipur Main Bus station",
          "operator": "RSRTC",
          "public_transport": "station"
        }
      },
      {
        "type": "node",
        "id": 1064270915,
        "lat": 26.9265583,
        "lon": 75.8079145,
        "tags": {
          "name": "Chandpole",
          "name:hi": "\u091a\u093e\u0902\u0926\u092a\u094b\u0932",
          "network": "Jaipur Metro",
          "note": "Contributors are requested to not edit the \"network\" and the \"operator\" tags. (2023/11/08)",
          "operator": "Jaipur Metro Rail Corporation Limited",
          "public_transport": "stop_position",
          "public_transport:version": "2",
          "railway": "stop",
          "ref": "CDPE",
          "shelter": "yes",
          "subway": "yes",
          "wheelchair": "yes"
        }
      },
      {
        "type": "node",
        "id": 1946919383,
        "lat": 26.9017919,
        "lon": 75.7895065,
        "tags": {
          "internet_access": "no",
          "name": "Bais Godam",
          "network": "IR",
          "operator": "NWR",
          "public_transport": "station",
          "railway": "station",
          "ref": "BSGD",
          "train": "no",
          "wikidata": "Q24949515",
          "wikipedia": "en:Bais Godam railway station"
        }
      },
      {
        "type": "node",
        "id": 2669084994,
        "lat": 26.9207888,
        "lon": 75.7866539,
        "tags": {
          "internet_access": "wlan",
          "name": "Jaipur Junction",
          "network": "IR",
          "operator": "NWR",
          "public_transport": "station",
          "railway": "station",
          "ref": "JP",
          "train": "yes",
          "wheelchair": "yes",
          "wikidata": "Q6124154",
          "wikipedia": "en:Jaipur Junction railway station"
        }
      },
      {
        "type": "node",
        "id": 2690970281,
        "lat": 26.9026493,
        "lon": 75.7923721,
        "tags": {
          "amenity": "fuel",
          "brand": "Hindustan Petroleum",
          "brand:wikidata": "Q1619375",
          "name": "HP",
          "official_name": "Hindustan Petroleum"
        }
      },
      {
        "type": "node",
        "id": 3083894933,
        "lat": 26.9169424,
        "lon": 75.8169212,
        "tags": {
          "amenity": "fuel",
          "brand": "Hindustan Petroleum",
          "brand:wikidata": "Q1619375",
          "name": "HP",
          "official_name": "Hindustan Petroleum"
        }
      },
      {
        "type": "node",
        "id": 3139919926,
        "lat": 26.9094527,
        "lon": 75.7811364,
        "tags": {
          "name": "Civil Lines",
          "name:hi": "\u0938\u093f\u0935\u093f\u0932 \u0932\u093e\u0907\u0928\u094d\u0938",
          "network": "Jaipur Metro",
          "note": "Contributors are requested to not edit the \"network\" and the \"operator\" tags. (2023/11/08)",
          "operator": "Jaipur Metro Rail Corporation Limited",
          "public_transport": "stop_position",
          "public_transport:version": "2",
          "railway": "stop",
          "ref": "CLJP",
          "shelter": "yes",
          "subway": "yes",
          "wheelchair": "yes"
        }
      },
      {
        "type": "node",
        "id": 3139920400,
        "lat": 26.9180833,
        "lon": 75.7900798,
        "tags": {
          "name": "Railway Station",
          "name:hi": "\u0930\u0947\u0932\u0935\u0947 \u0938\u094d\u091f\u0947\u0936\u0928",
          "network": "Jaipur Metro",
          "note": "Contributors are requested to not edit the \"network\" and the \"operator\" tags. (2023/11/08)",
          "operator": "Jaipur Metro Rail Corporation Limited",
          "public_transport": "stop_position",
          "public_transport:version": "2",
          "railway": "stop",
          "ref": "MRSN",
          "shelter": "yes",
          "subway": "yes",
          "wheelchair": "yes"
        }
      },
      {
        "type": "node",
        "id": 3139920401,
        "lat": 26.9017699,
        "lon": 75.7746219,
        "tags": {
          "layer": "1",
          "name": "Ram Nagar",
          "name:hi": "\u0930\u093e\u092e \u0928\u0917\u0930",
          "network": "Jaipur Metro",
          "note": "Contributors are requested to not edit the \"network\" and the \"operator\" tags. (2023/11/08)",
          "operator": "Jaipur Metro Rail Corporation Limited",
          "public_transport": "stop_position",
          "public_transport:version": "2",
          "railway": "stop",
          "ref": "RMNR",
          "subway": "yes"
        }
      },
      {
        "type": "node",
        "id": 3677353031,
        "lat": 26.9169156,
        "lon": 75.8063152,
        "tags": {
          "amenity": "fuel",
          "brand": "Hindustan Petroleum",
          "brand:wikidata": "Q1619375",
          "name": "HP",
          "official_name": "Hindustan Petroleum"
        }
      },
      {
        "type": "node",
        "id": 3862442972,
        "lat": 26.9033655,
        "lon": 75.7924281,
        "tags": {
          "amenity": "cinema",
          "brand": "INOX Leisure",
          "brand:wikidata": "Q5972349",
          "name": "Inox",
          "short_name": "INOX"
        }
      },
      {
        "type": "node",
        "id": 4466634254,
        "lat": 26.901561,
        "lon": 75.7827,
        "tags": {
          "amenity": "fuel"
        }
      },
      {
        "type": "node",
        "id": 5284145023,
        "lat": 26.917631,
        "lon": 75.7902938,
        "tags": {
          "addr:street": "Hasanpura Road",
          "amenity": "bus_station",
          "bus": "yes",
          "name:en": "Kalpana Chembar, near Hasanapura Puliya railway st.",
          "public_transport": "station"
        }
      },
      {
        "type": "node",
        "id": 5391526672,
        "lat": 26.9226849,
        "lon": 75.7998222,
        "tags": {
          "name": "Sindhi Camp",
          "name:hi": "\u0938\u093f\u0928\u094d\u0927\u0940 \u0915\u0948\u0902\u092a",
          "network": "Jaipur Metro",
          "note": "Contributors are requested to not edit the \"network\" and the \"operator\" tags. (2023/11/08)",
          "operator": "Jaipur Metro Rail Corporation Limited",
          "public_transport": "station",
          "public_transport:version": "2",
          "railway": "station",
          "ref": "SICP",
          "shelter": "yes",
          "station": "subway",
          "subway": "yes",
          "wheelchair": "yes",
          "wikidata": "Q28180440",
          "wikipedia": "en:Sindhi Camp metro station"
        }
      },
      {
        "type": "node",
        "id": 5391527174,
        "lat": 26.9181132,
        "lon": 75.790129,
        "tags": {
          "name": "Railway Station",
          "name:hi": "\u0930\u0947\u0932\u0935\u0947 \u0938\u094d\u091f\u0947\u0936\u0928",
          "network": "Jaipur Metro",
          "note": "Contributors are requested to not edit the \"network\" and the \"operator\" tags. (2023/11/08)",
          "operator": "Jaipur Metro Rail Corporation Limited",
          "public_transport": "station",
          "public_transport:version": "2",
          "railway": "station",
          "ref": "MRSN",
          "shelter": "yes",
          "station": "subway",
          "subway": "yes",
          "wheelchair": "yes",
          "wikidata": "Q28180437",
          "wikipedia": "en:Railway Station metro station"
        }
      },
      {
        "type": "node",
        "id": 5436562222,
        "lat": 26.9331132,
        "lon": 75.7963001,
        "tags": {
          "amenity": "fuel",
          "brand": "Hindustan Petroleum",
          "brand:wikidata": "Q1619375",
          "name": "HP",
          "name:en": "HP",
          "official_name": "Hindustan Petroleum"
        }
      },
      {
        "type": "node",
        "id": 6133852985,
        "lat": 26.923305,
        "lon": 75.8006345,
        "tags": {
          "addr:postcode": "302006",
          "amenity": "bus_station",
          "bus": "yes",
          "name": "Sindhi Camp Bus Stand",
          "public_transport": "station"
        }
      },
      {
        "type": "node",
        "id": 6630557586,
        "lat": 26.9231668,
        "lon": 75.7937215,
        "tags": {
          "amenity": "fuel",
          "brand": "Bharat Petroleum",
          "brand:wikidata": "Q854826",
          "name": "Bharat Petroleum",
          "name:en": "Bharat Petroleum"
        }
      },
      {
        "type": "node",
        "id": 6781585323,
        "lat": 26.9225493,
        "lon": 75.7999247,
        "tags": {
          "name": "Sindhi Camp",
          "name:hi": "\u0938\u093f\u0928\u094d\u0927\u0940 \u0915\u0948\u0902\u092a",
          "network": "Jaipur Metro",
          "note": "Contributors are requested to not edit the \"network\" and the \"operator\" tags. (2023/11/08)",
          "operator": "Jaipur Metro Rail Corporation Limited",
          "public_transport": "stop_position",
          "public_transport:version": "2",
          "railway": "stop",
          "ref": "SICP",
          "shelter": "yes",
          "subway": "yes",
          "wheelchair": "yes"
        }
      },
      {
        "type": "node",
        "id": 6783208321,
        "lat": 26.9096783,
        "lon": 75.7812494,
        "tags": {
          "name": "Civil Lines",
          "name:hi": "\u0938\u093f\u0935\u093f\u0932 \u0932\u093e\u0907\u0928\u094d\u0938",
          "network": "Jaipur Metro",
          "note": "Contributors are requested to not edit the \"network\" and the \"operator\" tags. (2023/11/08)",
          "operator": "Jaipur Metro Rail Corporation Limited",
          "public_transport": "station",
          "public_transport:version": "2",
          "railway": "station",
          "ref": "CLJP",
          "shelter": "yes",
          "station": "subway",
          "subway": "yes",
          "wheelchair": "yes",
          "wikidata": "Q28180430",
          "wikipedia": "en:Civil Lines metro station (Jaipur)"
        }
      },
      {
        "type": "node",
        "id": 7043371087,
        "lat": 26.9377151,
        "lon": 75.7854078,
        "tags": {
          "amenity": "fuel",
          "brand": "Bharat Petroleum",
          "brand:wikidata": "Q854826",
          "name": "MK Filling Station - Bharat petroleum"
        }
      },
      {
        "type": "node",
        "id": 7707870458,
        "lat": 26.9202441,
        "lon": 75.7863643,
        "tags": {
          "name": "Jaipur Junction",
          "name:de": "Jaipur Junction Gleis 5",
          "public_transport": "stop_position",
          "railway": "stop",
          "ref": "5",
          "train": "yes"
        }
      },
      {
        "type": "node",
        "id": 7707870459,
        "lat": 26.9203278,
        "lon": 75.786465,
        "tags": {
          "name": "Jaipur Junction",
          "name:de": "Jaipur Junction Gleis 4",
          "public_transport": "stop_position",
          "railway": "stop",
          "ref": "4",
          "train": "yes"
        }
      },
      {
        "type": "node",
        "id": 7707870460,
        "lat": 26.9203604,
        "lon": 75.7865017,
        "tags": {
          "name": "Jaipur Junction",
          "name:de": "Jaipur Junction Gleis 3",
          "public_transport": "stop_position",
          "railway": "stop",
          "ref": "3",
          "train": "yes"
        }
      },
      {
        "type": "node",
        "id": 7707870461,
        "lat": 26.9204689,
        "lon": 75.7866071,
        "tags": {
          "name": "Jaipur Junction",
          "name:de": "Jaipur Junction Gleis 2",
          "public_transport": "stop_position",
          "railway": "stop",
          "ref": "2",
          "train": "yes"
        }
      },
      {
        "type": "node",
        "id": 7707870462,
        "lat": 26.9204954,
        "lon": 75.7866329,
        "tags": {
          "name": "Jaipur Junction",
          "name:de": "Jaipur Junction Gleis 1",
          "public_transport": "stop_position",
          "railway": "stop",
          "ref": "1",
          "train": "yes"
        }
      },
      {
        "type": "node",
        "id": 8041984445,
        "lat": 26.9356052,
        "lon": 75.7918151,
        "tags": {
          "addr:city": "Jaipur",
          "addr:housenumber": "City Plaza, Pani Pech",
          "addr:street": "Meera Marg",
          "amenity": "cinema",
          "brand": "INOX Leisure",
          "brand:wikidata": "Q5972349",
          "name": "Inox City Plaza - Space Cinemas",
          "short_name": "INOX"
        }
      },
      {
        "type": "node",
        "id": 8042098373,
        "lat": 26.9017572,
        "lon": 75.7746732,
        "tags": {
          "layer": "1",
          "name": "Ram Nagar",
          "name:hi": "\u0930\u093e\u092e \u0928\u0917\u0930",
          "network": "Jaipur Metro",
          "note": "Contributors are requested to not edit the \"network\" and the \"operator\" tags. (2023/11/08)",
          "operator": "Jaipur Metro Rail Corporation Limited",
          "public_transport": "stop_position",
          "public_transport:version": "2",
          "railway": "stop",
          "ref": "RMNR",
          "subway": "yes"
        }
      },
      {
        "type": "node",
        "id": 8042595579,
        "lat": 26.9094099,
        "lon": 75.7811653,
        "tags": {
          "name": "Civil Lines",
          "name:hi": "\u0938\u093f\u0935\u093f\u0932 \u0932\u093e\u0907\u0928\u094d\u0938",
          "network": "Jaipur Metro",
          "note": "Contributors are requested to not edit the \"network\" and the \"operator\" tags. (2023/11/08)",
          "operator": "Jaipur Metro Rail Corporation Limited",
          "public_transport": "stop_position",
          "public_transport:version": "2",
          "railway": "stop",
          "ref": "CLJP",
          "shelter": "yes",
          "subway": "yes",
          "wheelchair": "yes"
        }
      },
      {
        "type": "node",
        "id": 8042601995,
        "lat": 26.9180968,
        "lon": 75.7901165,
        "tags": {
          "name": "Railway Station",
          "name:hi": "\u0930\u0947\u0932\u0935\u0947 \u0938\u094d\u091f\u0947\u0936\u0928",
          "network": "Jaipur Metro",
          "note": "Contributors are requested to not edit the \"network\" and the \"operator\" tags. (2023/11/08)",
          "operator": "Jaipur Metro Rail Corporation Limited",
          "public_transport": "stop_position",
          "public_transport:version": "2",
          "railway": "stop",
          "ref": "MRSN",
          "shelter": "yes",
          "subway": "yes",
          "wheelchair": "yes"
        }
      },
      {
        "type": "node",
        "id": 8044083221,
        "lat": 26.9266005,
        "lon": 75.807892,
        "tags": {
          "name": "Chandpole",
          "name:hi": "\u091a\u093e\u0902\u0926\u092a\u094b\u0932",
          "network": "Jaipur Metro",
          "note": "Contributors are requested to not edit the \"network\" and the \"operator\" tags. (2023/11/08)",
          "operator": "Jaipur Metro Rail Corporation Limited",
          "public_transport": "station",
          "public_transport:version": "2",
          "railway": "station",
          "ref": "CDPE",
          "shelter": "yes",
          "station": "subway",
          "subway": "yes",
          "wheelchair": "yes",
          "wikidata": "Q28180449",
          "wikipedia": "en:Chandpole metro station"
        }
      },
      {
        "type": "node",
        "id": 8075691873,
        "lat": 26.9188762,
        "lon": 75.7982521,
        "tags": {
          "bus": "yes",
          "highway": "bus_stop",
          "name": "Ganpati plaza",
          "public_transport": "stop_position"
        }
      },
      {
        "type": "node",
        "id": 8075691874,
        "lat": 26.9189549,
        "lon": 75.7983159,
        "tags": {
          "bus": "yes",
          "highway": "bus_stop",
          "name": "Ganpati plaza",
          "public_transport": "stop_position"
        }
      },
      {
        "type": "node",
        "id": 8084157103,
        "lat": 26.9020437,
        "lon": 75.7930168,
        "tags": {
          "amenity": "bus_station",
          "bus": "yes",
          "name": "22 Godam Public Bus Stop",
          "public_transport": "station"
        }
      },
      {
        "type": "node",
        "id": 8167940763,
        "lat": 26.9115355,
        "lon": 75.7850152,
        "tags": {
          "amenity": "fuel",
          "brand": "Bharat Petroleum",
          "brand:wikidata": "Q854826",
          "brand:wikipedia": "en:Bharat Petroleum",
          "name": "Bharat Petroleum"
        }
      },
      {
        "type": "node",
        "id": 8665176577,
        "lat": 26.91708,
        "lon": 75.8006737,
        "tags": {
          "amenity": "fuel"
        }
      },
      {
        "type": "node",
        "id": 9249518832,
        "lat": 26.9128924,
        "lon": 75.7916301,
        "tags": {
          "amenity": "bus_station",
          "bus": "yes",
          "name": "RSRTC Bus Depot",
          "operator": "RSRTC",
          "public_transport": "station"
        }
      },
      {
        "type": "node",
        "id": 10904794879,
        "lat": 26.9154253,
        "lon": 75.8100827,
        "tags": {
          "addr:housenumber": "C-16, Bhagwan Das Rd, Panch Batti, C Scheme, Ashok Nagar, Jaipur, Rajasthan 302001",
          "amenity": "cinema",
          "name": "raj mandir cinemas"
        }
      },
      {
        "type": "node",
        "id": 10936787897,
        "lat": 26.9167126,
        "lon": 75.8048644,
        "tags": {
          "amenity": "fuel",
          "brand": "Hindustan Petroleum",
          "brand:wikidata": "Q1619375",
          "name": "HP",
          "official_name": "Hindustan Petroleum"
        }
      },
      {
        "type": "node",
        "id": 11590666267,
        "lat": 26.9361625,
        "lon": 75.792179,
        "tags": {
          "amenity": "fuel",
          "brand": "Hindustan Petroleum",
          "brand:wikidata": "Q1619375",
          "name": "HP",
          "official_name": "Hindustan Petroleum"
        }
      },
      {
        "type": "node",
        "id": 11590790757,
        "lat": 26.9341212,
        "lon": 75.7954262,
        "tags": {
          "amenity": "fuel",
          "brand": "Indian Oil",
          "brand:wikidata": "Q1289348",
          "name": "Indian Oil"
        }
      },
      {
        "type": "node",
        "id": 11747571769,
        "lat": 26.9027002,
        "lon": 75.7903837,
        "tags": {
          "amenity": "fuel",
          "name:en": "BPCL BAIS GODAM PETROL PUMP"
        }
      },
      {
        "type": "node",
        "id": 11747573469,
        "lat": 26.9035483,
        "lon": 75.7887016,
        "tags": {
          "amenity": "fuel",
          "name:en": "BPCL BAIS GODAM PETROL PUMP"
        }
      },
      {
        "type": "node",
        "id": 11765686547,
        "lat": 26.9017025,
        "lon": 75.7825909,
        "tags": {
          "amenity": "fuel",
          "brand": "Indian Oil",
          "brand:wikidata": "Q1289348",
          "name": "Indian Oil"
        }
      },
      {
        "type": "node",
        "id": 11765964116,
        "lat": 26.8988076,
        "lon": 75.7935498,
        "tags": {
          "amenity": "fuel",
          "brand": "Indian Oil",
          "brand:wikidata": "Q1289348",
          "name": "Indian Oil"
        }
      }
    ]
  }
}