{
  "pois_1km": {
    "version": 0.6,
    "generator": "Overpass API 0.7.62.8 e802775f",
    "osm3s": {
      "timestamp_osm_base": "2025-09-07T13:16:44Z",
      "copyright": "The data included in this document is from www.openstreetmap.org. The data is made available under ODbL."
    },
    "elements": [
      {
        "type": "node",
        "id": 7694995662,
        "lat": 26.7854228,
        "lon": 75.8188922,
        "tags": {
          "addr:district": "Jaipur",
          "addr:full": "India Gate, Mahaveer Colony",
          "addr:postcode": "302017",
          "addr:state": "Rajasthan",
          "amenity": "clinic",
          "name": "Shree Om Laxmi Bangali Clinic",
          "source": "Local Knowledge"
        }
      },
      {
        "type": "node",
        "id": 12151385705,
        "lat": 26.784195,
        "lon": 75.8235447,
        "tags": {
          "amenity": "restaurant",
          "cuisine": "indian",
          "delivery": "no",
          "diet:vegan": "yes",
          "diet:vegetarian": "yes",
          "mobile": "+91 8824562810",
          "name": "Ganesh Resturent",
          "phone": "+91 9509848714"
        }
      }
    ]
  },
  "pois_2_5km": {
    "version": 0.6,
    "generator": "Overpass API 0.7.62.8 e802775f",
    "osm3s": {
      "timestamp_osm_base": "2025-09-07T13:16:44Z",
      "copyright": "The data included in this document is from www.openstreetmap.org. The data is made available under ODbL."
    },
    "elements": [
      {
        "type": "node",
        "id": 8044543831,
        "lat": 26.782162,
        "lon": 75.83293,
        "tags": {
          "amenity": "fuel",
          "brand": "Hindustan Petroleum",
          "brand:wikidata": "Q1619375",
          "brand:wikipedia": "en:Hindustan Petroleum",
          "name": "HP",
          "official_name": "Hindustan Petroleum"
        }
      }
    ]
  }
}