{
  "pois_1km": {
    "version": 0.6,
    "generator": "Overpass API 0.7.62.8 e802775f",
    "osm3s": {
      "timestamp_osm_base": "2025-09-07T13:06:44Z",
      "copyright": "The data included in this document is from www.openstreetmap.org. The data is made available under ODbL."
    },
    "elements": [
      {
        "type": "node",
        "id": 566815520,
        "lat": 26.9161855,
        "lon": 75.8109776,
        "tags": {
          "amenity": "restaurant",
          "diet:vegetarian": "only",
          "name": "Natraj vegetarian Restaurant"
        }
      },
      {
        "type": "node",
        "id": 1466911301,
        "lat": 26.9163399,
        "lon": 75.807437,
        "tags": {
          "amenity": "atm"
        }
      },
      {
        "type": "node",
        "id": 1466911306,
        "lat": 26.9152206,
        "lon": 75.8099046,
        "tags": {
          "amenity": "fast_food"
        }
      },
      {
        "type": "node",
        "id": 2583229954,
        "lat": 26.9168711,
        "lon": 75.8201955,
        "tags": {
          "amenity": "restaurant",
          "name": "Ganesh Restaurant"
        }
      },
      {
        "type": "node",
        "id": 2777043235,
        "lat": 26.9173942,
        "lon": 75.8046009,
        "tags": {
          "amenity": "restaurant",
          "name": "Old Green Tandori Dhaba"
        }
      },
      {
        "type": "node",
        "id": 3209386497,
        "lat": 26.9206156,
        "lon": 75.8041948,
        "tags": {
          "amenity": "cafe",
          "description": "Inside Hotel Arya Niwas",
          "name": "Chitra Caf\u00e9"
        }
      },
      {
        "type": "node",
        "id": 3781906926,
        "lat": 26.9159839,
        "lon": 75.8098987,
        "tags": {
          "amenity": "fast_food",
          "brand": "McDonald's",
          "brand:pa": "\u0a2e\u0a48\u0a15\u0a21\u0a4b\u0a28\u0a32\u0a21\u2019\u0a1c\u0a3c",
          "brand:ur": "\u0645\u06a9\u0688\u0648\u0646\u0644\u0688\u0632",
          "brand:wikidata": "Q38076",
          "brand:wikipedia": "en:McDonald's",
          "brand:wikipedia:pa": "\u0a2e\u0a48\u0a15\u0a21\u0a4b\u0a28\u0a32\u0a21\u2019\u0a1c\u0a3c",
          "brand:wikipedia:ur": "\u0645\u06a9\u0688\u0648\u0646\u0644\u0688\u0632",
          "cuisine": "burger",
          "name": "McDonald's",
          "name:pa": "\u0a2e\u0a48\u0a15\u0a21\u0a4b\u0a28\u0a32\u0a21\u2019\u0a1c\u0a3c",
          "name:ur": "\u0645\u06a9\u0688\u0648\u0646\u0644\u0688\u0632",
          "takeaway": "yes"
        }
      },
      {
        "type": "node",
        "id": 3806704620,
        "lat": 26.9161685,
        "lon": 75.8107981,
        "tags": {
          "amenity": "pharmacy",
          "healthcare": "pharmacy",
          "name": "Sanjay Medical Store",
          "shop": "chemist"
        }
      },
      {
        "type": "node",
        "id": 3806705156,
        "lat": 26.9160946,
        "lon": 75.8101221,
        "tags": {
          "amenity": "bank",
          "atm": "yes",
          "brand": "Allahabad Bank",
          "brand:wikidata": "Q2018840",
          "name": "Allahabad Bank",
          "name:en": "Allahabad Bank",
          "website": "https://www.allahabadbank.in"
        }
      },
      {
        "type": "node",
        "id": 3806705457,
        "lat": 26.9161083,
        "lon": 75.8102147,
        "tags": {
          "amenity": "bank",
          "atm": "yes",
          "name": "J&K Bank"
        }
      },
      {
        "type": "node",
        "id": 3842336539,
        "lat": 26.9142639,
        "lon": 75.8084565,
        "tags": {
          "amenity": "bank",
          "name": "Rajasthan Urban Co-Operative Bank"
        }
      },
      {
        "type": "node",
        "id": 3842344275,
        "lat": 26.9165159,
        "lon": 75.8093164,
        "tags": {
          "amenity": "atm",
          "brand": "Axis Bank",
          "brand:wikidata": "Q2003549",
          "name": "Axis Bank",
          "operator": "Axis Bank",
          "operator:wikidata": "Q2003549"
        }
      },
      {
        "type": "node",
        "id": 3842344276,
        "lat": 26.9164285,
        "lon": 75.8094487,
        "tags": {
          "addr:housenumber": "D-183, Mahesh Marg, D-Block, Sector 4, Malviya Nagar, Jaipur, Rajasthan 302017",
          "amenity": "restaurant",
          "cuisine": "chinese",
          "name": "Yo China"
        }
      },
      {
        "type": "node",
        "id": 3842353310,
        "lat": 26.9164011,
        "lon": 75.807356,
        "tags": {
          "amenity": "bank",
          "atm": "yes",
          "brand": "Standard Chartered",
          "brand:wikidata": "Q548278",
          "name": "Standard Chartered"
        }
      },
      {
        "type": "node",
        "id": 3842353311,
        "lat": 26.9163608,
        "lon": 75.8077409,
        "tags": {
          "amenity": "bank",
          "atm": "yes",
          "brand": "ICICI Bank",
          "brand:wikidata": "Q1653258",
          "name": "ICICI Bank",
          "name:en": "ICICI Bank",
          "short_name": "ICICI",
          "website": "https://www.icicibank.com"
        }
      },
      {
        "type": "node",
        "id": 3842381184,
        "lat": 26.9162514,
        "lon": 75.8086879,
        "tags": {
          "addr:housenumber": "C-16, Bhagwan Das Rd, Panch Batti, C Scheme, Ashok Nagar, Jaipur, Rajasthan 302001",
          "amenity": "bank",
          "brand": "Punjab National Bank",
          "brand:wikidata": "Q2743499",
          "brand:wikipedia": "en:Punjab National Bank",
          "name": "Punjab National Bank",
          "name:en": "Punjab National Bank",
          "short_name": "PNB",
          "website": "https://www.pnbindia.in"
        }
      },
      {
        "type": "node",
        "id": 4460472108,
        "lat": 26.9151335,
        "lon": 75.8099213,
        "tags": {
          "amenity": "fast_food",
          "brand": "Domino's",
          "brand:ks": "\u0688\u0648\u0645\u06cc\u0646\u0648\u0632",
          "brand:pa": "\u0a21\u0a4b\u0a2e\u0a40\u0a28\u0a4b\u0a1c\u0a3c",
          "brand:ur": "\u0688\u0648\u0645\u06cc\u0646\u0648\u0632",
          "brand:wikidata": "Q839466",
          "brand:wikipedia": "en:Domino's Pizza",
          "cuisine": "pizza",
          "name": "Domino's",
          "name:ks": "\u0688\u0648\u0645\u06cc\u0646\u0648\u0632",
          "name:pa": "\u0a21\u0a4b\u0a2e\u0a40\u0a28\u0a4b\u0a1c\u0a3c",
          "name:ur": "\u0688\u0648\u0645\u06cc\u0646\u0648\u0632",
          "takeaway": "yes"
        }
      },
      {
        "type": "node",
        "id": 4464789989,
        "lat": 26.9170942,
        "lon": 75.8200153,
        "tags": {
          "amenity": "restaurant",
          "name:en": "Sweet Dreams Hotel Rooftop Restaurant",
          "tourism": "hotel"
        }
      },
      {
        "type": "node",
        "id": 4486242089,
        "lat": 26.9209467,
        "lon": 75.8039761,
        "tags": {
          "amenity": "restaurant",
          "cuisine": "italian_pizza",
          "name": "bella italia",
          "name:en": "Bella Italia"
        }
      },
      {
        "type": "node",
        "id": 4621858291,
        "lat": 26.9185644,
        "lon": 75.8077715,
        "tags": {
          "addr:postcode": "302001",
          "addr:street": "9, Gopinath Marg, New Colony, Near Panch Batti",
          "amenity": "hospital",
          "email": "hospital@jaipurdentalhospital.com",
          "healthcare": "hospital",
          "internet_access": "wlan",
          "name": "jaipur dental hospital",
          "name:en": "Jaipur Dental Hospital",
          "opening_hours": "Mo-Su 10:00-20:00",
          "phone": "+91-141-2368183",
          "website": "https://jaipurdentalhospital.com/"
        }
      },
      {
        "type": "node",
        "id": 4743392521,
        "lat": 26.9157551,
        "lon": 75.8101207,
        "tags": {
          "amenity": "restaurant",
          "cuisine": "chinese;ice_cream;pizza;indian;local",
          "name:de": "The Door's Restaurant",
          "name:en": "The Door's Restaurant",
          "phone": "+911414024597"
        }
      },
      {
        "type": "node",
        "id": 4744500823,
        "lat": 26.9171606,
        "lon": 75.8145919,
        "tags": {
          "addr:street": "Mirza Ismail Road",
          "amenity": "cafe",
          "name": "India Coffe House",
          "name:en": "India Coffe Housepk look ii",
          "opening_hours": "Mo-Su 08:00-21:00",
          "operator": "ynwaphoto"
        }
      },
      {
        "type": "node",
        "id": 4793756923,
        "lat": 26.917149,
        "lon": 75.8145028,
        "tags": {
          "amenity": "cafe",
          "name:en": "indian coffe house"
        }
      },
      {
        "type": "node",
        "id": 4795736622,
        "lat": 26.9122319,
        "lon": 75.8037901,
        "tags": {
          "amenity": "restaurant",
          "name:en": "Mughal Rasoi Restaurant"
        }
      },
      {
        "type": "node",
        "id": 4811264442,
        "lat": 26.916173,
        "lon": 75.8106707,
        "tags": {
          "amenity": "cafe",
          "email": "v2cafelounge@gmail.com",
          "internet_access": "wlan",
          "name:en": "V2 Cafe Lounge"
        }
      },
      {
        "type": "node",
        "id": 4900113521,
        "lat": 26.9170712,
        "lon": 75.8047235,
        "tags": {
          "amenity": "restaurant",
          "diet:vegetarian": "only",
          "name": "Green Restaurant Pure Vegetarian"
        }
      },
      {
        "type": "node",
        "id": 4959496421,
        "lat": 26.9169731,
        "lon": 75.80407,
        "tags": {
          "addr:street": "Mirza Ismail Road",
          "amenity": "restaurant",
          "cuisine": "indian;asian",
          "diet:vegetarian": "yes",
          "name": "Copper Chimney",
          "name:en": "Copper Chimney",
          "opening_hours": "Mo-Su 18:30-23:00"
        }
      },
      {
        "type": "node",
        "id": 5286009221,
        "lat": 26.9185458,
        "lon": 75.8121333,
        "tags": {
          "amenity": "bank",
          "brand": "State Bank of India",
          "brand:wikidata": "Q1340361",
          "name": "State Bank of India",
          "name:en": "State Bank of India",
          "name:hi": "State Bank of India",
          "name:hu": "State Bank of India",
          "short_name": "SBI"
        }
      },
      {
        "type": "node",
        "id": 5286009222,
        "lat": 26.9187052,
        "lon": 75.8072877,
        "tags": {
          "amenity": "bank",
          "brand": "State Bank of India",
          "brand:wikidata": "Q1340361",
          "name": "State Bank of India",
          "name:en": "State Bank of India",
          "name:hi": "State Bank of India",
          "name:hu": "State Bank of India",
          "short_name": "SBI"
        }
      },
      {
        "type": "node",
        "id": 5344204721,
        "lat": 26.925004,
        "lon": 75.8159025,
        "tags": {
          "amenity": "fast_food",
          "name": "Street food and chai corner"
        }
      },
      {
        "type": "node",
        "id": 5393075823,
        "lat": 26.9169628,
        "lon": 75.8053859,
        "tags": {
          "addr:housenumber": "151",
          "addr:street": "Mirza Ismail Road",
          "amenity": "restaurant",
          "name:en": "Old Kebab Shop",
          "opening_hours": "Mo-Su 16:00-23:00"
        }
      },
      {
        "type": "node",
        "id": 6073914285,
        "lat": 26.9167178,
        "lon": 75.8162338,
        "tags": {
          "amenity": "atm",
          "brand": "Bank of Baroda",
          "brand:wikidata": "Q2003797",
          "operator": "Bank of Baroda",
          "operator:wikidata": "Q2003797"
        }
      },
      {
        "type": "node",
        "id": 6081535434,
        "lat": 26.9168307,
        "lon": 75.8098409,
        "tags": {
          "amenity": "bank",
          "name": "Fin growth Co-Operative Bank"
        }
      },
      {
        "type": "node",
        "id": 6132079085,
        "lat": 26.9164866,
        "lon": 75.8111981,
        "tags": {
          "amenity": "fast_food",
          "name": "Lassiwara"
        }
      },
      {
        "type": "node",
        "id": 6183444886,
        "lat": 26.9162394,
        "lon": 75.8112696,
        "tags": {
          "amenity": "restaurant",
          "cuisine": "indian",
          "name:en": "Surya Mahal Restaurant"
        }
      },
      {
        "type": "node",
        "id": 6364179589,
        "lat": 26.9176937,
        "lon": 75.8168949,
        "tags": {
          "amenity": "bank",
          "name:he": "\u05d7\u05e0\u05d5\u05ea \u05e6\u05d9\u05dc\u05d5\u05dd \u05de\u05d9\u05d4"
        }
      },
      {
        "type": "node",
        "id": 6477759985,
        "lat": 26.9163003,
        "lon": 75.8080015,
        "tags": {
          "amenity": "restaurant",
          "cuisine": "indian",
          "name": "dasaprakash",
          "name:en": "dasaprakash"
        }
      },
      {
        "type": "node",
        "id": 6718124385,
        "lat": 26.9183926,
        "lon": 75.8213095,
        "tags": {
          "amenity": "cafe",
          "name": "Sahu Ki Chai"
        }
      },
      {
        "type": "node",
        "id": 6780596585,
        "lat": 26.9214409,
        "lon": 75.8192213,
        "tags": {
          "amenity": "fast_food",
          "name": "Tasty King",
          "name:en": "Tasty King (cheap, quick and delicious)"
        }
      },
      {
        "type": "node",
        "id": 6855397988,
        "lat": 26.9174489,
        "lon": 75.8185448,
        "tags": {
          "amenity": "restaurant",
          "name:en": "Mohan Restaurant"
        }
      },
      {
        "type": "node",
        "id": 7000754687,
        "lat": 26.9165311,
        "lon": 75.8095597,
        "tags": {
          "amenity": "restaurant",
          "name:en": "Barbeque Nation - 1st floor"
        }
      },
      {
        "type": "node",
        "id": 7034781108,
        "lat": 26.9213178,
        "lon": 75.803289,
        "tags": {
          "addr:district": "Jaipur",
          "addr:full": "Opposite Amber Tower,Sansarchandra Rd",
          "addr:postcode": "302001",
          "addr:state": "Rajasthan",
          "amenity": "clinic",
          "healthcare": "clinic",
          "name": "Jyotiba Hospital",
          "source": "OpenGovernmentData"
        }
      },
      {
        "type": "node",
        "id": 7039514016,
        "lat": 26.9136323,
        "lon": 75.8127075,
        "tags": {
          "addr:district": "Jaipur",
          "addr:full": "J-2/37, Mahaveer Marg",
          "addr:postcode": "302004",
          "addr:state": "Rajasthan",
          "amenity": "hospital",
          "healthcare": "hospital",
          "healthcare:speciality": "surgery",
          "name": "Nova Specialty Surgery",
          "source": "OpenGovernmentData"
        }
      },
      {
        "type": "node",
        "id": 7042869527,
        "lat": 26.9116018,
        "lon": 75.8070669,
        "tags": {
          "addr:district": "Jaipur",
          "addr:full": "C-30, Bhagwandas Road, C- Scheme",
          "addr:housenumber": "Sahabhagita Road, Krishi Nagar Vistar, Beelwa, Sukhdeopura Nohara, Jaipur, Rajasthan 302905",
          "addr:postcode": "302001",
          "addr:state": "Rajasthan",
          "amenity": "clinic",
          "name": "Rajdhani Clinic and Nursing Home",
          "source": "OpenGovernmentData"
        }
      },
      {
        "type": "node",
        "id": 7306107985,
        "lat": 26.9165819,
        "lon": 75.8096329,
        "tags": {
          "amenity": "fast_food",
          "cuisine": "burger",
          "diet:vegetarian": "yes",
          "name": "burger singh",
          "name:en": "Burger Singh",
          "opening_hours": "Mo-Su 11:00-22:00"
        }
      },
      {
        "type": "node",
        "id": 7698578010,
        "lat": 26.9182145,
        "lon": 75.8138444,
        "tags": {
          "addr:district": "Jaipur",
          "addr:full": "Indira Bazar Road, Jayanti Market",
          "addr:postcode": "302001",
          "addr:state": "Rajasthan",
          "amenity": "clinic",
          "healthcare": "clinic",
          "name": "Shri Jain Divakar Homeopathic Clinic",
          "source": "Local Knowledge"
        }
      },
      {
        "type": "node",
        "id": 7698578013,
        "lat": 26.9246508,
        "lon": 75.8115029,
        "tags": {
          "addr:district": "Jaipur",
          "addr:postcode": "302001",
          "addr:state": "Rajasthan",
          "amenity": "clinic",
          "healthcare": "clinic",
          "name": "Korani Clinic",
          "source": "Local Knowledge"
        }
      },
      {
        "type": "node",
        "id": 7698578014,
        "lat": 26.914966,
        "lon": 75.809544,
        "tags": {
          "addr:district": "Jaipur",
          "addr:full": "Vaishali Nagar",
          "addr:housenumber": "plot no c, JTN Anukampa Plaza, Ground Floor & First Floor, 20-A, Bhagwan Das Rd, Jaipur, Rajasthan 302001",
          "addr:postcode": "302007",
          "addr:state": "Rajasthan",
          "amenity": "hospital",
          "healthcare": "hospital",
          "name": "ASG Eye Hospital",
          "source": "Local Knowledge"
        }
      },
      {
        "type": "node",
        "id": 7698578016,
        "lat": 26.9222666,
        "lon": 75.8130558,
        "tags": {
          "addr:district": "Jaipur",
          "addr:full": "Chandpole Bazar, Chandpole",
          "addr:postcode": "302001",
          "addr:state": "Rajasthan",
          "amenity": "clinic",
          "healthcare": "clinic",
          "name": "Shree Homoeo Clinic",
          "source": "Local Knowledge"
        }
      },
      {
        "type": "node",
        "id": 7698578017,
        "lat": 26.9187912,
        "lon": 75.8166265,
        "tags": {
          "addr:district": "Jaipur",
          "addr:postcode": "302001",
          "addr:state": "Rajasthan",
          "amenity": "clinic",
          "healthcare": "clinic",
          "name": "Ekta Clinic",
          "source": "Local Knowledge"
        }
      },
      {
        "type": "node",
        "id": 7698578019,
        "lat": 26.9226,
        "lon": 75.8076715,
        "tags": {
          "addr:district": "Jaipur",
          "addr:full": "Jayanti Market, Jalupura",
          "addr:housenumber": "WRF5+22P, Jayanti Market, Jalupura, Jaipur, Rajasthan 302001",
          "addr:postcode": "302001",
          "addr:state": "Rajasthan",
          "amenity": "clinic",
          "healthcare": "clinic",
          "name": "Sona Clinic",
          "source": "Local Knowledge"
        }
      },
      {
        "type": "node",
        "id": 7698578022,
        "lat": 26.9251063,
        "lon": 75.8112535,
        "tags": {
          "addr:district": "Jaipur",
          "addr:full": "Chandpole",
          "addr:postcode": "302001",
          "addr:state": "Rajasthan",
          "amenity": "hospital",
          "healthcare": "hospital",
          "name": "Pink City Fracture & General Hospital",
          "source": "Local Knowledge"
        }
      },
      {
        "type": "node",
        "id": 7698578025,
        "lat": 26.924617,
        "lon": 75.810301,
        "tags": {
          "addr:district": "Jaipur",
          "addr:full": "Chandpol Bazar, Chandpole",
          "addr:postcode": "302001",
          "addr:state": "Rajasthan",
          "amenity": "clinic",
          "healthcare": "clinic",
          "name": "Shifa Health Clinic",
          "source": "Local Knowledge"
        }
      },
      {
        "type": "node",
        "id": 7698578032,
        "lat": 26.9254445,
        "lon": 75.8102949,
        "tags": {
          "addr:district": "Jaipur",
          "addr:full": "Chandpole Bazar, Chandpole, Pink City",
          "addr:postcode": "302001",
          "addr:state": "Rajasthan",
          "amenity": "hospital",
          "healthcare": "hospital",
          "name": "New life Hospital",
          "source": "Local Knowledge"
        }
      },
      {
        "type": "node",
        "id": 7698578051,
        "lat": 26.9181729,
        "lon": 75.8104544,
        "tags": {
          "addr:district": "Jaipur",
          "addr:full": "Jayanti Market",
          "addr:housenumber": "WRJM+R3M, Subhash Chowk, New, Amer Rd, Jaipur, Rajasthan 302002",
          "addr:postcode": "302001",
          "addr:state": "Rajasthan",
          "amenity": "clinic",
          "healthcare": "clinic",
          "name": "Prakas Clinic",
          "source": "Local Knowledge"
        }
      },
      {
        "type": "node",
        "id": 7698578054,
        "lat": 26.9228964,
        "lon": 75.8098726,
        "tags": {
          "addr:district": "Jaipur",
          "addr:full": "Chandpole",
          "addr:housenumber": "WRF5+5W5, Ninder Rao Ji ka Rasta, Chandpole Bazar, Chandpole, Chandpol, Jaipur, Rajasthan 302001",
          "addr:postcode": "302001",
          "addr:state": "Rajasthan",
          "amenity": "clinic",
          "healthcare": "clinic",
          "name": "Faiz Clinic",
          "source": "Local Knowledge"
        }
      },
      {
        "type": "node",
        "id": 7698578056,
        "lat": 26.9229133,
        "lon": 75.8089218,
        "tags": {
          "addr:district": "Jaipur",
          "addr:full": "Chandpole Bazar, Chandpole",
          "addr:housenumber": "WRF5+4HH, Topkhane Ka Rasta, Chandpole Bazar, Chandpole, Pink City, Jaipur, Rajasthan 302001",
          "addr:postcode": "302001",
          "addr:state": "Rajasthan",
          "amenity": "hospital",
          "healthcare": "hospital",
          "name": "Mahesh Hospital",
          "source": "Local Knowledge"
        }
      },
      {
        "type": "node",
        "id": 7698578061,
        "lat": 26.9230178,
        "lon": 75.8164908,
        "tags": {
          "addr:district": "Jaipur",
          "addr:full": "Chandpole Bazar, Chandpole",
          "addr:postcode": "302001",
          "addr:state": "Rajasthan",
          "amenity": "clinic",
          "healthcare": "clinic",
          "name": "Mital Clinic",
          "source": "Local Knowledge"
        }
      },
      {
        "type": "node",
        "id": 7698578064,
        "lat": 26.9166982,
        "lon": 75.8151552,
        "tags": {
          "addr:district": "Jaipur",
          "addr:full": "Jayanti Market, Ashok Nagar",
          "addr:postcode": "302001",
          "addr:state": "Rajasthan",
          "amenity": "clinic",
          "healthcare": "clinic",
          "name": "Shifa Clinic",
          "source": "Local Knowledge"
        }
      },
      {
        "type": "node",
        "id": 7698578066,
        "lat": 26.9186623,
        "lon": 75.8214178,
        "tags": {
          "addr:district": "Jaipur",
          "addr:full": "Telepara",
          "addr:postcode": "302001",
          "addr:state": "Rajasthan",
          "amenity": "hospital",
          "healthcare": "hospital",
          "name": "Goyal Hospital",
          "source": "Local Knowledge"
        }
      },
      {
        "type": "node",
        "id": 7698578074,
        "lat": 26.9225169,
        "lon": 75.8106177,
        "tags": {
          "addr:district": "Jaipur",
          "addr:full": "Chandpole, Jalupura",
          "addr:postcode": "302001",
          "addr:state": "Rajasthan",
          "amenity": "clinic",
          "healthcare": "clinic",
          "name": "Rajdhani Dental & General Clinic",
          "source": "Local Knowledge"
        }
      },
      {
        "type": "node",
        "id": 7698578083,
        "lat": 26.9213892,
        "lon": 75.8085079,
        "tags": {
          "addr:district": "Jaipur",
          "addr:full": "Jalupura, Jaipur",
          "addr:housenumber": "WRC5+H98, Chand Pol Bazar, Topkhane Ka Rasta, Jalupura, Jaipur, Rajasthan 302001",
          "addr:postcode": "302001",
          "addr:state": "Rajasthan",
          "amenity": "clinic",
          "healthcare": "clinic",
          "name": "Seva Poly Clinic",
          "source": "Local Knowledge"
        }
      },
      {
        "type": "node",
        "id": 7698578100,
        "lat": 26.9212243,
        "lon": 75.8137107,
        "tags": {
          "addr:district": "Jaipur",
          "addr:full": "Chandpole, Jalupura",
          "addr:postcode": "302001",
          "addr:state": "Rajasthan",
          "amenity": "clinic",
          "healthcare": "clinic",
          "name": "Manohar Clinic",
          "source": "Local Knowledge"
        }
      },
      {
        "type": "node",
        "id": 7698578104,
        "lat": 26.9181348,
        "lon": 75.816914,
        "tags": {
          "addr:district": "Jaipur",
          "addr:full": "Modikhana",
          "addr:postcode": "302001",
          "addr:state": "Rajasthan",
          "amenity": "clinic",
          "healthcare": "clinic",
          "name": "Sameer Clinic",
          "source": "Local Knowledge"
        }
      },
      {
        "type": "node",
        "id": 7698578106,
        "lat": 26.9218969,
        "lon": 75.8095503,
        "tags": {
          "addr:district": "Jaipur",
          "addr:full": "Jalupura, Jaipur",
          "addr:postcode": "302001",
          "addr:state": "Rajasthan",
          "amenity": "clinic",
          "healthcare": "clinic",
          "name": "Health Clinic",
          "source": "Local Knowledge"
        }
      },
      {
        "type": "node",
        "id": 7698578108,
        "lat": 26.9192023,
        "lon": 75.8167578,
        "tags": {
          "addr:district": "Jaipur",
          "addr:full": "Chandpole Bazar, Indira Bazar",
          "addr:postcode": "302007",
          "addr:state": "Rajasthan",
          "amenity": "hospital",
          "healthcare": "hospital",
          "name": "Jai Hospital & Research Centre",
          "source": "Local Knowledge"
        }
      },
      {
        "type": "node",
        "id": 10013473818,
        "lat": 26.9109569,
        "lon": 75.805667,
        "tags": {
          "addr:housenumber": "1st floor plot no, C 46, Sarojini Marg, Panch Batti, C Scheme, Ashok Nagar, Jaipur, Rajasthan 302001",
          "amenity": "restaurant",
          "cuisine": "indian",
          "name": "thali and more",
          "name:en": "Thali & more"
        }
      },
      {
        "type": "node",
        "id": 10075161117,
        "lat": 26.9170949,
        "lon": 75.8192314,
        "tags": {
          "amenity": "cafe",
          "name:en": "Lassi Kachori"
        }
      },
      {
        "type": "node",
        "id": 10904661341,
        "lat": 26.91579,
        "lon": 75.81012,
        "tags": {
          "addr:housenumber": "WR86+73P Khandaka Mansion, Mirza Ismail Rd, near Rajmandir Cinema, Panch Batti, C Scheme, Ashok Nagar, Jaipur, Rajasthan 302001",
          "amenity": "restaurant",
          "name": "the doors restaurant"
        }
      },
      {
        "type": "node",
        "id": 10904668786,
        "lat": 26.9151658,
        "lon": 75.8099241,
        "tags": {
          "addr:housenumber": "Silver Square Mall, Shop No. 15,16,17, C-18, Cinema Bhagwandas Marg, near Raj Mandir, C Scheme, Jaipur, Rajasthan 302001",
          "amenity": "cafe"
        }
      },
      {
        "type": "node",
        "id": 10904714951,
        "lat": 26.9119686,
        "lon": 75.8121705,
        "tags": {
          "name": "city mart",
          "shop": "supermarket"
        }
      },
      {
        "type": "node",
        "id": 10904714954,
        "lat": 26.9111229,
        "lon": 75.8126082,
        "tags": {
          "addr:housenumber": "82-83, Sector 3, Malviya Nagar, Jaipur, Rajasthan 302017",
          "name": "jio mart",
          "shop": "supermarket"
        }
      },
      {
        "type": "node",
        "id": 10904714955,
        "lat": 26.9113372,
        "lon": 75.8118529,
        "tags": {
          "amenity": "fast_food",
          "name": "salon"
        }
      },
      {
        "type": "node",
        "id": 10904714956,
        "lat": 26.9107173,
        "lon": 75.8124237,
        "tags": {
          "addr:housenumber": "PN D 9 ,Saket Colony Govind Marg, Adarsh Nagar Nr Pink Square Mall, Jaipur, Rajasthan 302004",
          "amenity": "bank",
          "name": "hdfc bank , JAIPUR",
          "not:brand:wikidata": "Q631047"
        }
      },
      {
        "type": "node",
        "id": 10904714959,
        "lat": 26.9134489,
        "lon": 75.8110688,
        "tags": {
          "leisure": "park",
          "name": "Farm land"
        }
      },
      {
        "type": "node",
        "id": 11533709369,
        "lat": 26.9239758,
        "lon": 75.8155246,
        "tags": {
          "amenity": "cafe",
          "name:en": "The Pizza Unlimited"
        }
      },
      {
        "type": "node",
        "id": 11556672755,
        "lat": 26.9162948,
        "lon": 75.811478,
        "tags": {
          "amenity": "restaurant",
          "name": "Niros",
          "url": "https://nirosindia.com/"
        }
      },
      {
        "type": "node",
        "id": 11609578469,
        "lat": 26.9175489,
        "lon": 75.8169087,
        "tags": {
          "amenity": "cafe",
          "cuisine": "asian",
          "name": "\u041a\u0430\u0444\u0435",
          "name:en": "Dev Hotel",
          "opening_hours": "Mo-Su 09:00-22:00"
        }
      },
      {
        "type": "node",
        "id": 11764154269,
        "lat": 26.9148703,
        "lon": 75.8047591,
        "tags": {
          "amenity": "restaurant",
          "cuisine": "indian",
          "name": "Annpoornam"
        }
      },
      {
        "type": "node",
        "id": 12361795503,
        "lat": 26.9248476,
        "lon": 75.8167048,
        "tags": {
          "amenity": "restaurant"
        }
      },
      {
        "type": "node",
        "id": 12373714202,
        "lat": 26.9257211,
        "lon": 75.8078159,
        "tags": {
          "amenity": "restaurant"
        }
      },
      {
        "type": "node",
        "id": 12603793910,
        "lat": 26.9239909,
        "lon": 75.8045158,
        "tags": {
          "access": "yes",
          "addr:city": "Jaipur",
          "addr:district": "jaipur",
          "addr:housenumber": "11",
          "addr:street": "Pareek College Road",
          "dog": "leashed",
          "leisure": "park",
          "name": "maidan",
          "name:en": "XYZ park",
          "opening_hours": "Mo-Su 08:00-20:00",
          "operator": "Local operator",
          "operator:type": "community",
          "smoking": "no"
        }
      },
      {
        "type": "node",
        "id": 12734119470,
        "lat": 26.9154952,
        "lon": 75.8064548,
        "tags": {
          "addr:city": "Jaipur",
          "amenity": "restaurant",
          "brewery": "yes;various",
          "changing_table": "no",
          "level": "8, Rooftop",
          "microbrewery": "yes",
          "name": "Retreat",
          "reservation": "yes",
          "smoking": "outside",
          "toilets": "yes"
        }
      }
    ]
  },
  "pois_2_5km": {
    "version": 0.6,
    "generator": "Overpass API 0.7.62.8 e802775f",
    "osm3s": {
      "timestamp_osm_base": "2025-09-07T13:06:44Z",
      "copyright": "The data included in this document is from www.openstreetmap.org. The data is made available under ODbL."
    },
    "elements": [
      {
        "type": "node",
        "id": 1064270823,
        "lat": 26.9225949,
        "lon": 75.7999012,
        "tags": {
          "name": "Sindhi Camp",
          "name:hi": "\u0938\u093f\u0928\u094d\u0927\u0940 \u0915\u0948\u0902\u092a",
          "network": "Jaipur Metro",
          "note": "Contributors are requested to not edit the \"network\" and the \"operator\" tags. (2023/11/08)",
          "operator": "Jaipur Metro Rail Corporation Limited",
          "public_transport": "stop_position",
          "public_transport:version": "2",
          "railway": "stop",
          "ref": "SICP",
          "shelter": "yes",
          "subway": "yes",
          "wheelchair": "yes"
        }
      },
      {
        "type": "node",
        "id": 1064270856,
        "lat": 26.9235814,
        "lon": 75.8005946,
        "tags": {
          "amenity": "bus_station",
          "bus": "yes",
          "name": "Sindhi Camp",
          "name:en": "Jaipur Main Bus station",
          "operator": "RSRTC",
          "public_transport": "station"
        }
      },
      {
        "type": "node",
        "id": 1064270915,
        "lat": 26.9265583,
        "lon": 75.8079145,
        "tags": {
          "name": "Chandpole",
          "name:hi": "\u091a\u093e\u0902\u0926\u092a\u094b\u0932",
          "network": "Jaipur Metro",
          "note": "Contributors are requested to not edit the \"network\" and the \"operator\" tags. (2023/11/08)",
          "operator": "Jaipur Metro Rail Corporation Limited",
          "public_transport": "stop_position",
          "public_transport:version": "2",
          "railway": "stop",
          "ref": "CDPE",
          "shelter": "yes",
          "subway": "yes",
          "wheelchair": "yes"
        }
      },
      {
        "type": "node",
        "id": 3083894933,
        "lat": 26.9169424,
        "lon": 75.8169212,
        "tags": {
          "amenity": "fuel",
          "brand": "Hindustan Petroleum",
          "brand:wikidata": "Q1619375",
          "name": "HP",
          "official_name": "Hindustan Petroleum"
        }
      },
      {
        "type": "node",
        "id": 3139919925,
        "lat": 26.924666,
        "lon": 75.8184914,
        "tags": {
          "elevator": "yes",
          "name": "Choti Chaupar",
          "name:hi": "\u091b\u094b\u091f\u0940 \u091a\u094c\u092a\u0921\u093c",
          "network": "Jaipur Metro",
          "note": "Contributors are requested to not edit the \"network\" and the \"operator\" tags. (2023/11/08)",
          "operator": "Jaipur Metro Rail Corporation Limited",
          "public_transport": "stop_position",
          "public_transport:version": "2",
          "railway": "stop",
          "ref": "CDPE",
          "shelter": "yes",
          "subway": "yes",
          "wheelchair": "yes"
        }
      },
      {
        "type": "node",
        "id": 3139920400,
        "lat": 26.9180833,
        "lon": 75.7900798,
        "tags": {
          "name": "Railway Station",
          "name:hi": "\u0930\u0947\u0932\u0935\u0947 \u0938\u094d\u091f\u0947\u0936\u0928",
          "network": "Jaipur Metro",
          "note": "Contributors are requested to not edit the \"network\" and the \"operator\" tags. (2023/11/08)",
          "operator": "Jaipur Metro Rail Corporation Limited",
          "public_transport": "stop_position",
          "public_transport:version": "2",
          "railway": "stop",
          "ref": "MRSN",
          "shelter": "yes",
          "subway": "yes",
          "wheelchair": "yes"
        }
      },
      {
        "type": "node",
        "id": 3677353031,
        "lat": 26.9169156,
        "lon": 75.8063152,
        "tags": {
          "amenity": "fuel",
          "brand": "Hindustan Petroleum",
          "brand:wikidata": "Q1619375",
          "name": "HP",
          "official_name": "Hindustan Petroleum"
        }
      },
      {
        "type": "node",
        "id": 3862442972,
        "lat": 26.9033655,
        "lon": 75.7924281,
        "tags": {
          "amenity": "cinema",
          "brand": "INOX Leisure",
          "brand:wikidata": "Q5972349",
          "name": "Inox",
          "short_name": "INOX"
        }
      },
      {
        "type": "node",
        "id": 4466633240,
        "lat": 26.9137147,
        "lon": 75.8294774,
        "tags": {
          "amenity": "fuel"
        }
      },
      {
        "type": "node",
        "id": 5284145023,
        "lat": 26.917631,
        "lon": 75.7902938,
        "tags": {
          "addr:street": "Hasanpura Road",
          "amenity": "bus_station",
          "bus": "yes",
          "name:en": "Kalpana Chembar, near Hasanapura Puliya railway st.",
          "public_transport": "station"
        }
      },
      {
        "type": "node",
        "id": 5391526672,
        "lat": 26.9226849,
        "lon": 75.7998222,
        "tags": {
          "name": "Sindhi Camp",
          "name:hi": "\u0938\u093f\u0928\u094d\u0927\u0940 \u0915\u0948\u0902\u092a",
          "network": "Jaipur Metro",
          "note": "Contributors are requested to not edit the \"network\" and the \"operator\" tags. (2023/11/08)",
          "operator": "Jaipur Metro Rail Corporation Limited",
          "public_transport": "station",
          "public_transport:version": "2",
          "railway": "station",
          "ref": "SICP",
          "shelter": "yes",
          "station": "subway",
          "subway": "yes",
          "wheelchair": "yes",
          "wikidata": "Q28180440",
          "wikipedia": "en:Sindhi Camp metro station"
        }
      },
      {
        "type": "node",
        "id": 5391527174,
        "lat": 26.9181132,
        "lon": 75.790129,
        "tags": {
          "name": "Railway Station",
          "name:hi": "\u0930\u0947\u0932\u0935\u0947 \u0938\u094d\u091f\u0947\u0936\u0928",
          "network": "Jaipur Metro",
          "note": "Contributors are requested to not edit the \"network\" and the \"operator\" tags. (2023/11/08)",
          "operator": "Jaipur Metro Rail Corporation Limited",
          "public_transport": "station",
          "public_transport:version": "2",
          "railway": "station",
          "ref": "MRSN",
          "shelter": "yes",
          "station": "subway",
          "subway": "yes",
          "wheelchair": "yes",
          "wikidata": "Q28180437",
          "wikipedia": "en:Railway Station metro station"
        }
      },
      {
        "type": "node",
        "id": 5436562222,
        "lat": 26.9331132,
        "lon": 75.7963001,
        "tags": {
          "amenity": "fuel",
          "brand": "Hindustan Petroleum",
          "brand:wikidata": "Q1619375",
          "name": "HP",
          "name:en": "HP",
          "official_name": "Hindustan Petroleum"
        }
      },
      {
        "type": "node",
        "id": 6133852985,
        "lat": 26.923305,
        "lon": 75.8006345,
        "tags": {
          "addr:postcode": "302006",
          "amenity": "bus_station",
          "bus": "yes",
          "name": "Sindhi Camp Bus Stand",
          "public_transport": "station"
        }
      },
      {
        "type": "node",
        "id": 6630557586,
        "lat": 26.9231668,
        "lon": 75.7937215,
        "tags": {
          "amenity": "fuel",
          "brand": "Bharat Petroleum",
          "brand:wikidata": "Q854826",
          "name": "Bharat Petroleum",
          "name:en": "Bharat Petroleum"
        }
      },
      {
        "type": "node",
        "id": 6781585323,
        "lat": 26.9225493,
        "lon": 75.7999247,
        "tags": {
          "name": "Sindhi Camp",
          "name:hi": "\u0938\u093f\u0928\u094d\u0927\u0940 \u0915\u0948\u0902\u092a",
          "network": "Jaipur Metro",
          "note": "Contributors are requested to not edit the \"network\" and the \"operator\" tags. (2023/11/08)",
          "operator": "Jaipur Metro Rail Corporation Limited",
          "public_transport": "stop_position",
          "public_transport:version": "2",
          "railway": "stop",
          "ref": "SICP",
          "shelter": "yes",
          "subway": "yes",
          "wheelchair": "yes"
        }
      },
      {
        "type": "node",
        "id": 6976254817,
        "lat": 26.8994995,
        "lon": 75.8132041,
        "tags": {
          "amenity": "bus_station",
          "bus": "yes",
          "name": "RSRTC/Roadways Bus Stand",
          "public_transport": "station"
        }
      },
      {
        "type": "node",
        "id": 7079400604,
        "lat": 26.8998345,
        "lon": 75.8129319,
        "tags": {
          "amenity": "bus_station",
          "bus": "yes",
          "name": "Volvo Stand",
          "operator": "RSRTC",
          "public_transport": "station"
        }
      },
      {
        "type": "node",
        "id": 7707870462,
        "lat": 26.9204954,
        "lon": 75.7866329,
        "tags": {
          "name": "Jaipur Junction",
          "name:de": "Jaipur Junction Gleis 1",
          "public_transport": "stop_position",
          "railway": "stop",
          "ref": "1",
          "train": "yes"
        }
      },
      {
        "type": "node",
        "id": 8035756429,
        "lat": 26.9229693,
        "lon": 75.8267752,
        "tags": {
          "name": "Badi Chaupar",
          "name:hi": "\u092c\u0921\u093c\u0940 \u091a\u094c\u092a\u0921\u093c",
          "network": "Jaipur Metro",
          "note": "Contributors are requested to not edit the \"network\" and the \"operator\" tags. (2023/11/08)",
          "operator": "Jaipur Metro Rail Corporation Limited",
          "public_transport": "stop_position",
          "public_transport:version": "2",
          "railway": "stop",
          "subway": "yes",
          "wikimedia_commons": "Category:Badi Chaupar metro station"
        }
      },
      {
        "type": "node",
        "id": 8042601995,
        "lat": 26.9180968,
        "lon": 75.7901165,
        "tags": {
          "name": "Railway Station",
          "name:hi": "\u0930\u0947\u0932\u0935\u0947 \u0938\u094d\u091f\u0947\u0936\u0928",
          "network": "Jaipur Metro",
          "note": "Contributors are requested to not edit the \"network\" and the \"operator\" tags. (2023/11/08)",
          "operator": "Jaipur Metro Rail Corporation Limited",
          "public_transport": "stop_position",
          "public_transport:version": "2",
          "railway": "stop",
          "ref": "MRSN",
          "shelter": "yes",
          "subway": "yes",
          "wheelchair": "yes"
        }
      },
      {
        "type": "node",
        "id": 8044083221,
        "lat": 26.9266005,
        "lon": 75.807892,
        "tags": {
          "name": "Chandpole",
          "name:hi": "\u091a\u093e\u0902\u0926\u092a\u094b\u0932",
          "network": "Jaipur Metro",
          "note": "Contributors are requested to not edit the \"network\" and the \"operator\" tags. (2023/11/08)",
          "operator": "Jaipur Metro Rail Corporation Limited",
          "public_transport": "station",
          "public_transport:version": "2",
          "railway": "station",
          "ref": "CDPE",
          "shelter": "yes",
          "station": "subway",
          "subway": "yes",
          "wheelchair": "yes",
          "wikidata": "Q28180449",
          "wikipedia": "en:Chandpole metro station"
        }
      },
      {
        "type": "node",
        "id": 8044083222,
        "lat": 26.9247317,
        "lon": 75.8184589,
        "tags": {
          "name": "Choti Chaupar",
          "name:hi": "\u091b\u094b\u091f\u0940 \u091a\u094c\u092a\u0921\u093c",
          "network": "Jaipur Metro",
          "note": "Contributors are requested to not edit the \"network\" and the \"operator\" tags. (2023/11/08)",
          "operator": "Jaipur Metro Rail Corporation Limited",
          "public_transport": "station",
          "public_transport:version": "2",
          "railway": "station",
          "ref": "CDPE",
          "shelter": "yes",
          "station": "subway",
          "subway": "yes",
          "wheelchair": "yes",
          "wikidata": "Q20717371",
          "wikipedia": "en:Chhoti Chaupar metro station"
        }
      },
      {
        "type": "node",
        "id": 8044083223,
        "lat": 26.9229585,
        "lon": 75.8268223,
        "tags": {
          "name": "Badi Chaupar",
          "name:hi": "\u092c\u0921\u093c\u0940 \u091a\u094c\u092a\u0921\u093c",
          "network": "Jaipur Metro",
          "note": "Contributors are requested to not edit the \"network\" and the \"operator\" tags. (2023/11/08)",
          "operator": "Jaipur Metro Rail Corporation Limited",
          "public_transport": "station",
          "public_transport:version": "2",
          "railway": "station",
          "shelter": "yes",
          "station": "subway",
          "subway": "yes",
          "wheelchair": "yes",
          "wikidata": "Q20311991",
          "wikipedia": "en:Badi Chaupar metro station"
        }
      },
      {
        "type": "node",
        "id": 8075691873,
        "lat": 26.9188762,
        "lon": 75.7982521,
        "tags": {
          "bus": "yes",
          "highway": "bus_stop",
          "name": "Ganpati plaza",
          "public_transport": "stop_position"
        }
      },
      {
        "type": "node",
        "id": 8075691874,
        "lat": 26.9189549,
        "lon": 75.7983159,
        "tags": {
          "bus": "yes",
          "highway": "bus_stop",
          "name": "Ganpati plaza",
          "public_transport": "stop_position"
        }
      },
      {
        "type": "node",
        "id": 8665176577,
        "lat": 26.91708,
        "lon": 75.8006737,
        "tags": {
          "amenity": "fuel"
        }
      },
      {
        "type": "node",
        "id": 9249518832,
        "lat": 26.9128924,
        "lon": 75.7916301,
        "tags": {
          "amenity": "bus_station",
          "bus": "yes",
          "name": "RSRTC Bus Depot",
          "operator": "RSRTC",
          "public_transport": "station"
        }
      },
      {
        "type": "node",
        "id": 10904794879,
        "lat": 26.9154253,
        "lon": 75.8100827,
        "tags": {
          "addr:housenumber": "C-16, Bhagwan Das Rd, Panch Batti, C Scheme, Ashok Nagar, Jaipur, Rajasthan 302001",
          "amenity": "cinema",
          "name": "raj mandir cinemas"
        }
      },
      {
        "type": "node",
        "id": 10936787897,
        "lat": 26.9167126,
        "lon": 75.8048644,
        "tags": {
          "amenity": "fuel",
          "brand": "Hindustan Petroleum",
          "brand:wikidata": "Q1619375",
          "name": "HP",
          "official_name": "Hindustan Petroleum"
        }
      },
      {
        "type": "node",
        "id": 10936813194,
        "lat": 26.9136157,
        "lon": 75.8310726,
        "tags": {
          "amenity": "fuel",
          "brand": "Indian Oil",
          "brand:wikidata": "Q1289348",
          "name": "Indian Oil",
          "operator": "Indian Oil"
        }
      },
      {
        "type": "node",
        "id": 10936829402,
        "lat": 26.9130655,
        "lon": 75.8344291,
        "tags": {
          "amenity": "fuel"
        }
      },
      {
        "type": "node",
        "id": 11586819554,
        "lat": 26.8959825,
        "lon": 75.8093318,
        "tags": {
          "amenity": "fuel",
          "brand": "Hindustan Petroleum",
          "brand:wikidata": "Q1619375",
          "name": "HP",
          "official_name": "Hindustan Petroleum"
        }
      },
      {
        "type": "node",
        "id": 11590790757,
        "lat": 26.9341212,
        "lon": 75.7954262,
        "tags": {
          "amenity": "fuel",
          "brand": "Indian Oil",
          "brand:wikidata": "Q1289348",
          "name": "Indian Oil"
        }
      }
    ]
  }
}