{
  "pois_1km": {
    "version": 0.6,
    "generator": "Overpass API 0.7.62.8 e802775f",
    "osm3s": {
      "timestamp_osm_base": "2025-09-07T13:36:15Z",
      "copyright": "The data included in this document is from www.openstreetmap.org. The data is made available under ODbL."
    },
    "elements": [
      {
        "type": "node",
        "id": 7025072866,
        "lat": 26.8189131,
        "lon": 75.7986467,
        "tags": {
          "addr:district": "Jaipur",
          "addr:full": "26-27, Shiv Colony, Airport Road, Thana Cirlce,Sanganer",
          "addr:postcode": "302015",
          "addr:state": "Rajasthan",
          "amenity": "hospital",
          "name": "Archana Hospital",
          "source": "OpenGovernmentData"
        }
      },
      {
        "type": "node",
        "id": 7695123001,
        "lat": 26.8179761,
        "lon": 75.7884907,
        "tags": {
          "addr:district": "Jaipur",
          "addr:full": "Sanganer Road, Dada Gurudev Nagar, Jaipur",
          "addr:postcode": "302029",
          "addr:state": "Rajasthan",
          "amenity": "clinic",
          "name": "Sanjeevani Poly Clinic",
          "source": "Local Knowledge"
        }
      },
      {
        "type": "node",
        "id": 7695123002,
        "lat": 26.8182725,
        "lon": 75.7958861,
        "tags": {
          "addr:district": "Jaipur",
          "addr:full": "Chitrakoot Colony, Sanganer",
          "addr:postcode": "302029",
          "addr:state": "Rajasthan",
          "amenity": "clinic",
          "name": "Laxmi Homoeo Clinic",
          "source": "Local Knowledge"
        }
      },
      {
        "type": "node",
        "id": 7695123020,
        "lat": 26.8184353,
        "lon": 75.7958982,
        "tags": {
          "addr:district": "Jaipur",
          "addr:full": "Sanganer, Jaipur",
          "addr:postcode": "302029",
          "addr:state": "Rajasthan",
          "amenity": "clinic",
          "name": "Akta Clinic",
          "source": "Local Knowledge"
        }
      },
      {
        "type": "node",
        "id": 7695123024,
        "lat": 26.8186642,
        "lon": 75.7949691,
        "tags": {
          "addr:district": "Jaipur",
          "addr:full": "Sanganer",
          "addr:postcode": "302029",
          "addr:state": "Rajasthan",
          "amenity": "clinic",
          "name": "Bharadwaj Clinic",
          "source": "Local Knowledge"
        }
      },
      {
        "type": "node",
        "id": 7695123036,
        "lat": 26.8186083,
        "lon": 75.7953321,
        "tags": {
          "addr:district": "Jaipur",
          "addr:full": "Jagatpura",
          "addr:postcode": "302029",
          "addr:state": "Rajasthan",
          "amenity": "clinic",
          "name": "Rajshree Clinic",
          "source": "Local Knowledge"
        }
      },
      {
        "type": "node",
        "id": 7695123043,
        "lat": 26.8186449,
        "lon": 75.7947646,
        "tags": {
          "addr:district": "Jaipur",
          "addr:full": "Sanganer, Jagatpura",
          "addr:postcode": "302029",
          "addr:state": "Rajasthan",
          "amenity": "clinic",
          "name": "Jain Clinic",
          "source": "Local Knowledge"
        }
      },
      {
        "type": "node",
        "id": 7695123058,
        "lat": 26.816623,
        "lon": 75.8001451,
        "tags": {
          "addr:district": "Jaipur",
          "addr:full": "Sanganer Pulia, Jaipur",
          "addr:postcode": "302029",
          "addr:state": "Rajasthan",
          "amenity": "clinic",
          "name": "Vashisth Clinic",
          "source": "Local Knowledge"
        }
      }
    ]
  },
  "pois_2_5km": {
    "version": 0.6,
    "generator": "Overpass API 0.7.62.8 e802775f",
    "osm3s": {
      "timestamp_osm_base": "2025-09-07T13:37:15Z",
      "copyright": "The data included in this document is from www.openstreetmap.org. The data is made available under ODbL."
    },
    "elements": [
      {
        "type": "node",
        "id": 1064270892,
        "lat": 26.8355542,
        "lon": 75.7936432,
        "tags": {
          "construction": "station",
          "disused": "yes",
          "name": "Durgapura Metro (u/c)",
          "network": "Jaipur Metro",
          "operator": "NWR",
          "railway": "station",
          "station": "subway"
        }
      },
      {
        "type": "node",
        "id": 2188691283,
        "lat": 26.8146217,
        "lon": 75.7731874,
        "tags": {
          "internet_access": "no",
          "name": "Sanganer",
          "network": "IR",
          "operator": "NWR",
          "public_transport": "station",
          "railway": "station",
          "ref": "SNGN",
          "train": "yes",
          "wikidata": "Q63371819"
        }
      },
      {
        "type": "node",
        "id": 3078037353,
        "lat": 26.8361321,
        "lon": 75.7782433,
        "tags": {
          "addr:city": "Jaipur",
          "addr:country": "IN",
          "addr:district": "Jaipur",
          "addr:state": "Rajasthan",
          "amenity": "cinema",
          "name": "Galaxy Cinema"
        }
      },
      {
        "type": "node",
        "id": 6979547432,
        "lat": 26.8408583,
        "lon": 75.8072035,
        "tags": {
          "amenity": "fuel",
          "brand": "Indian Oil",
          "brand:wikidata": "Q1289348",
          "name": "Indian Oil"
        }
      },
      {
        "type": "node",
        "id": 11762982185,
        "lat": 26.8359403,
        "lon": 75.793404,
        "tags": {
          "amenity": "fuel",
          "brand": "Hindustan Petroleum",
          "brand:wikidata": "Q1619375",
          "name": "HP",
          "official_name": "Hindustan Petroleum"
        }
      },
      {
        "type": "node",
        "id": 12596432689,
        "lat": 26.8150426,
        "lon": 75.7733027,
        "tags": {
          "public_transport": "station",
          "railway": "station",
          "train": "yes"
        }
      },
      {
        "type": "node",
        "id": 12596446121,
        "lat": 26.8358795,
        "lon": 75.7783902,
        "tags": {
          "amenity": "cinema"
        }
      }
    ]
  }
}