{
  "pois_1km": {
    "version": 0.6,
    "generator": "Overpass API 0.7.62.8 e802775f",
    "osm3s": {
      "timestamp_osm_base": "2025-09-07T13:14:45Z",
      "copyright": "The data included in this document is from www.openstreetmap.org. The data is made available under ODbL."
    },
    "elements": [
      {
        "type": "node",
        "id": 7694995602,
        "lat": 26.8846023,
        "lon": 75.8836511,
        "tags": {
          "addr:district": "Jaipur",
          "addr:full": "Khandelwal Nagar, Prem Nagar",
          "addr:postcode": "302031",
          "addr:state": "Rajasthan",
          "amenity": "clinic",
          "name": "Kedawat Homoeopathy",
          "source": "Local Knowledge"
        }
      },
      {
        "type": "node",
        "id": 7694995628,
        "lat": 26.88289,
        "lon": 75.880733,
        "tags": {
          "addr:district": "Jaipur",
          "addr:full": "New Khandelwal Nagar, Paldi Meena",
          "addr:postcode": "303012",
          "addr:state": "Rajasthan",
          "amenity": "clinic",
          "name": "Life Care Clinic",
          "source": "Local Knowledge"
        }
      }
    ]
  },
  "pois_2_5km": {
    "version": 0.6,
    "generator": "Overpass API 0.7.62.8 e802775f",
    "osm3s": {
      "timestamp_osm_base": "2025-09-07T13:15:46Z",
      "copyright": "The data included in this document is from www.openstreetmap.org. The data is made available under ODbL."
    },
    "elements": [
      {
        "type": "node",
        "id": 8124683557,
        "lat": 26.8926071,
        "lon": 75.867086,
        "tags": {
          "amenity": "fuel",
          "brand": "Indian Oil",
          "brand:wikidata": "Q1289348",
          "brand:wikipedia": "en:Indian Oil Corporation",
          "name": "Indian Oil"
        }
      },
      {
        "type": "node",
        "id": 11612831335,
        "lat": 26.8708846,
        "lon": 75.8853936,
        "tags": {
          "amenity": "fuel",
          "brand": "Indian Oil Petrol Pump",
          "brand:wikidata": "Q1289348",
          "name": "Indian Oil Petrol Pump"
        }
      }
    ]
  }
}