{
  "pois_1km": {
    "version": 0.6,
    "generator": "Overpass API 0.7.62.8 e802775f",
    "osm3s": {
      "timestamp_osm_base": "2025-09-07T13:21:56Z",
      "copyright": "The data included in this document is from www.openstreetmap.org. The data is made available under ODbL."
    },
    "elements": [
      {
        "type": "node",
        "id": 7025042980,
        "lat": 27.0590751,
        "lon": 75.7532983,
        "tags": {
          "addr:district": "Jaipur",
          "addr:full": "Sikar Road Village Rajawas",
          "addr:postcode": "302032",
          "addr:state": "Rajasthan",
          "amenity": "hospital",
          "name": "K.S Chaudhary Hospital",
          "source": "OpenGovernmentData"
        }
      }
    ]
  },
  "pois_2_5km": {
    "version": 0.6,
    "generator": "Overpass API 0.7.62.8 e802775f",
    "osm3s": {
      "timestamp_osm_base": "2025-09-07T13:21:56Z",
      "copyright": "The data included in this document is from www.openstreetmap.org. The data is made available under ODbL."
    },
    "elements": [
      {
        "type": "node",
        "id": 10778891006,
        "lat": 27.0427148,
        "lon": 75.7604861,
        "tags": {
          "addr:street": "Sikar Road, Rajasthan",
          "amenity": "fuel",
          "brand": "Indian Oil",
          "brand:wikidata": "Q1289348",
          "name": "Indian Oil",
          "name:en": "Indian Oil Petrol/CNG Pump"
        }
      }
    ]
  }
}