{
  "pois_1km": {
    "version": 0.6,
    "generator": "Overpass API 0.7.62.8 e802775f",
    "osm3s": {
      "timestamp_osm_base": "2025-09-07T13:48:36Z",
      "copyright": "The data included in this document is from www.openstreetmap.org. The data is made available under ODbL."
    },
    "elements": [
      {
        "type": "node",
        "id": 7030524543,
        "lat": 26.9388918,
        "lon": 75.7810803,
        "tags": {
          "addr:district": "Jaipur",
          "addr:full": "43, Ashok Vihar, Ambabari Bridge, Behind Petrol Pump, Jhotwara",
          "addr:postcode": "302012",
          "addr:state": "Rajasthan",
          "amenity": "hospital",
          "healthcare": "hospital",
          "name": "C.B.L. Memorial Holy Family Hospital",
          "source": "OpenGovernmentData"
        }
      },
      {
        "type": "node",
        "id": 7030617003,
        "lat": 26.9354644,
        "lon": 75.7881075,
        "tags": {
          "addr:district": "Jaipur",
          "addr:full": "Bani Park, Jaipur",
          "addr:postcode": "302016",
          "addr:state": "Rajasthan",
          "amenity": "hospital",
          "healthcare": "hospital",
          "name": "Jaipur Fertility Centre",
          "source": "OpenGovernmentData"
        }
      },
      {
        "type": "node",
        "id": 7035096937,
        "lat": 26.9412715,
        "lon": 75.7741056,
        "tags": {
          "addr:district": "Jaipur",
          "addr:full": "Ambabari",
          "addr:postcode": "302012",
          "addr:state": "Rajasthan",
          "amenity": "clinic",
          "healthcare": "clinic",
          "name": "Gem Nursing Home",
          "source": "OpenGovernmentData"
        }
      },
      {
        "type": "node",
        "id": 7037995243,
        "lat": 26.9372945,
        "lon": 75.7896405,
        "tags": {
          "addr:district": "Jaipur",
          "addr:full": "Plot No. 145, Indra Colony, Jhotwara Road",
          "addr:postcode": "302016",
          "addr:state": "Rajasthan",
          "amenity": "hospital",
          "healthcare": "hospital",
          "healthcare:speciality": "orthopaedics",
          "name": "Diwakar Orthopedic and General Hospital",
          "source": "OpenGovernmentData"
        }
      },
      {
        "type": "node",
        "id": 7040401357,
        "lat": 26.9390102,
        "lon": 75.7809287,
        "tags": {
          "addr:district": "Jaipur",
          "addr:full": "Near Ambawari Bridge Jhotwara Road",
          "addr:postcode": "302012",
          "addr:state": "Rajasthan",
          "amenity": "hospital",
          "healthcare": "hospital",
          "name": "Dr.Chauhan Orthopadic centre",
          "source": "OpenGovernmentData"
        }
      },
      {
        "type": "node",
        "id": 7043371100,
        "lat": 26.9409778,
        "lon": 75.7777917,
        "tags": {
          "amenity": "atm",
          "operator": "Central Bank of india ATM"
        }
      },
      {
        "type": "node",
        "id": 7698486517,
        "lat": 26.946624,
        "lon": 75.777618,
        "tags": {
          "addr:district": "Jaipur",
          "addr:full": "Ambabari, Vidyadhar Nagar",
          "addr:postcode": "302001",
          "addr:state": "Rajasthan",
          "amenity": "hospital",
          "name": "Pandia Eye Dental and General Hospital",
          "source": "Local Knowledge"
        }
      },
      {
        "type": "node",
        "id": 7698486518,
        "lat": 26.9370421,
        "lon": 75.7888509,
        "tags": {
          "addr:district": "Jaipur",
          "addr:full": "Indra Colony",
          "addr:postcode": "302016",
          "addr:state": "Rajasthan",
          "amenity": "clinic",
          "healthcare": "clinic",
          "healthcare:speciality": "gastroenterology",
          "name": "Dr. Vijay Sharma Gastroenterology Clinic",
          "source": "Local Knowledge"
        }
      },
      {
        "type": "node",
        "id": 7698486524,
        "lat": 26.9364659,
        "lon": 75.7893222,
        "tags": {
          "addr:district": "Jaipur",
          "addr:full": "Indra Colony, Bani Park",
          "addr:postcode": "302016",
          "addr:state": "Rajasthan",
          "amenity": "doctors",
          "healthcare": "doctor",
          "name": "Dr. Vaishali Mathur",
          "source": "Local Knowledge"
        }
      },
      {
        "type": "node",
        "id": 7698486532,
        "lat": 26.9360211,
        "lon": 75.7884758,
        "tags": {
          "addr:district": "Jaipur",
          "addr:full": "Sindhi Colony",
          "addr:postcode": "302016",
          "addr:state": "Rajasthan",
          "amenity": "hospital",
          "healthcare": "hospital",
          "name": "Lekhra Hospital",
          "source": "Local Knowledge"
        }
      },
      {
        "type": "node",
        "id": 7698486539,
        "lat": 26.9418884,
        "lon": 75.7777625,
        "tags": {
          "addr:district": "Jaipur",
          "addr:full": "Ambabari, Vidyadhar Nagar",
          "addr:postcode": "302001",
          "addr:state": "Rajasthan",
          "amenity": "clinic",
          "healthcare": "clinic",
          "name": "Pulse Clinic",
          "source": "Local Knowledge"
        }
      },
      {
        "type": "node",
        "id": 7698486556,
        "lat": 26.9406615,
        "lon": 75.7769725,
        "tags": {
          "addr:district": "Jaipur",
          "addr:full": "Ambabari, Vidyadhar Nagar",
          "addr:postcode": "302001",
          "addr:state": "Rajasthan",
          "amenity": "clinic",
          "healthcare": "clinic",
          "name": "Amba Clinic",
          "source": "Local Knowledge"
        }
      },
      {
        "type": "node",
        "id": 7698486558,
        "lat": 26.9370975,
        "lon": 75.7891693,
        "tags": {
          "addr:district": "Jaipur",
          "addr:full": "Indira Colony, Banipark",
          "addr:postcode": "302016",
          "addr:state": "Rajasthan",
          "amenity": "doctors",
          "healthcare": "doctor",
          "name": "Dr. Raturi Bharat Mohan",
          "source": "Local Knowledge"
        }
      },
      {
        "type": "node",
        "id": 7698486580,
        "lat": 26.9470587,
        "lon": 75.7788512,
        "tags": {
          "addr:district": "Jaipur",
          "addr:full": "Ambabari",
          "addr:postcode": "302001",
          "addr:state": "Rajasthan",
          "amenity": "hospital",
          "name": "V.N.S. Homoeopathy Hospital",
          "source": "Local Knowledge"
        }
      },
      {
        "type": "node",
        "id": 7698486583,
        "lat": 26.936608,
        "lon": 75.789924,
        "tags": {
          "addr:district": "Jaipur",
          "addr:full": "Bani Park, Jaipur",
          "addr:postcode": "302016",
          "addr:state": "Rajasthan",
          "amenity": "hospital",
          "healthcare": "hospital",
          "name": "Soni Nursing Home",
          "source": "Local Knowledge"
        }
      },
      {
        "type": "node",
        "id": 12595806171,
        "lat": 26.9415681,
        "lon": 75.7882639,
        "tags": {
          "leisure": "park",
          "name": "Green Park"
        }
      },
      {
        "type": "node",
        "id": 12595806172,
        "lat": 26.941585,
        "lon": 75.7874029,
        "tags": {
          "amenity": "cafe",
          "name": "Sonis Cafe"
        }
      },
      {
        "type": "node",
        "id": 12595806173,
        "lat": 26.9421064,
        "lon": 75.7885138,
        "tags": {
          "amenity": "fast_food",
          "name": "Burger Queen"
        }
      },
      {
        "type": "node",
        "id": 12595806174,
        "lat": 26.9424986,
        "lon": 75.7906837,
        "tags": {
          "leisure": "park",
          "name": "AB Ground"
        }
      },
      {
        "type": "node",
        "id": 12595806175,
        "lat": 26.9417889,
        "lon": 75.7863113,
        "tags": {
          "amenity": "bank",
          "name": "CICI bank"
        }
      },
      {
        "type": "node",
        "id": 12595806176,
        "lat": 26.9419515,
        "lon": 75.7860979,
        "tags": {
          "amenity": "hospital",
          "healthcare": "hospital",
          "name": "KIUOLA"
        }
      },
      {
        "type": "node",
        "id": 12595806178,
        "lat": 26.9425367,
        "lon": 75.7864334,
        "tags": {
          "name": "NV Mart",
          "shop": "supermarket"
        }
      },
      {
        "type": "node",
        "id": 12595806181,
        "lat": 26.9421854,
        "lon": 75.7851044,
        "tags": {
          "shop": "supermarket"
        }
      },
      {
        "type": "node",
        "id": 12595817012,
        "lat": 26.9454126,
        "lon": 75.7848535,
        "tags": {
          "leisure": "park",
          "name": "VDN playground"
        }
      },
      {
        "type": "node",
        "id": 12595819569,
        "lat": 26.9465456,
        "lon": 75.7856852,
        "tags": {
          "amenity": "hospital",
          "healthcare": "hospital",
          "name": "Maxwell Hospital"
        }
      },
      {
        "type": "node",
        "id": 12595820857,
        "lat": 26.9452269,
        "lon": 75.7828657,
        "tags": {
          "name": "DK Mart",
          "shop": "supermarket"
        }
      },
      {
        "type": "node",
        "id": 12595828603,
        "lat": 26.945714,
        "lon": 75.7830221,
        "tags": {
          "leisure": "park",
          "name": "Girdhar Park"
        }
      },
      {
        "type": "node",
        "id": 12595878945,
        "lat": 26.9343312,
        "lon": 75.7847819,
        "tags": {
          "amenity": "hospital",
          "healthcare": "hospital",
          "name": "HOspital Kavatai"
        }
      }
    ]
  },
  "pois_2_5km": {
    "version": 0.6,
    "generator": "Overpass API 0.7.62.8 e802775f",
    "osm3s": {
      "timestamp_osm_base": "2025-09-07T13:48:36Z",
      "copyright": "The data included in this document is from www.openstreetmap.org. The data is made available under ODbL."
    },
    "elements": [
      {
        "type": "node",
        "id": 316681502,
        "lat": 26.9445145,
        "lon": 75.766114,
        "tags": {
          "internet_access": "no",
          "name": "Dahar-Ka-Balaji",
          "network": "IR",
          "operator": "NWR",
          "public_transport": "station",
          "railway": "station",
          "ref": "DKBJ",
          "train": "yes",
          "wikidata": "Q24949507",
          "wikipedia": "en:Dahar Ka Balaji railway station"
        }
      },
      {
        "type": "node",
        "id": 317370580,
        "lat": 26.9404658,
        "lon": 75.7722817,
        "tags": {
          "bus": "yes",
          "name": "Chomu Pulia",
          "network": "JCTSL",
          "public_transport": "stop_position"
        }
      },
      {
        "type": "node",
        "id": 1064270917,
        "lat": 26.9397287,
        "lon": 75.7777965,
        "tags": {
          "construction": "station",
          "disused:railway": "station",
          "name": "Ambabadi Metro (u/c)",
          "network": "Jaipur Metro",
          "note": "Contributors are requested to not edit the \"network\" and the \"operator\" tags. (2023/11/08)",
          "operator": "Jaipur Metro Rail Corporation Limited",
          "public_transport": "station",
          "railway": "station",
          "station": "subway",
          "subway": "yes"
        }
      },
      {
        "type": "node",
        "id": 2669084994,
        "lat": 26.9207888,
        "lon": 75.7866539,
        "tags": {
          "internet_access": "wlan",
          "name": "Jaipur Junction",
          "network": "IR",
          "operator": "NWR",
          "public_transport": "station",
          "railway": "station",
          "ref": "JP",
          "train": "yes",
          "wheelchair": "yes",
          "wikidata": "Q6124154",
          "wikipedia": "en:Jaipur Junction railway station"
        }
      },
      {
        "type": "node",
        "id": 5436562222,
        "lat": 26.9331132,
        "lon": 75.7963001,
        "tags": {
          "amenity": "fuel",
          "brand": "Hindustan Petroleum",
          "brand:wikidata": "Q1619375",
          "name": "HP",
          "name:en": "HP",
          "official_name": "Hindustan Petroleum"
        }
      },
      {
        "type": "node",
        "id": 5482287830,
        "lat": 26.9401313,
        "lon": 75.773181,
        "tags": {
          "bus": "yes",
          "bus_routes": "6A, 10B, 14, 18, AC 2",
          "name": "Chomu Pulia",
          "name:hi": "Chomu pulia Circle",
          "public_transport": "stop_position",
          "shelter": "yes"
        }
      },
      {
        "type": "node",
        "id": 6630557586,
        "lat": 26.9231668,
        "lon": 75.7937215,
        "tags": {
          "amenity": "fuel",
          "brand": "Bharat Petroleum",
          "brand:wikidata": "Q854826",
          "name": "Bharat Petroleum",
          "name:en": "Bharat Petroleum"
        }
      },
      {
        "type": "node",
        "id": 7043371087,
        "lat": 26.9377151,
        "lon": 75.7854078,
        "tags": {
          "amenity": "fuel",
          "brand": "Bharat Petroleum",
          "brand:wikidata": "Q854826",
          "name": "MK Filling Station - Bharat petroleum"
        }
      },
      {
        "type": "node",
        "id": 7043371092,
        "lat": 26.9393253,
        "lon": 75.7809441,
        "tags": {
          "amenity": "fuel",
          "brand": "Indian Oil",
          "brand:wikidata": "Q1289348",
          "name": "Indian Oil"
        }
      },
      {
        "type": "node",
        "id": 7043371112,
        "lat": 26.9418055,
        "lon": 75.7734224,
        "tags": {
          "amenity": "bus_station",
          "bus": "yes",
          "name": "Chomu Pulia",
          "public_transport": "station"
        }
      },
      {
        "type": "node",
        "id": 7049512594,
        "lat": 26.9411015,
        "lon": 75.7713651,
        "tags": {
          "addr:city": "Jaipur",
          "addr:street": "Jhotwara Road",
          "amenity": "cinema",
          "brand": "Cin\u00e9polis",
          "brand:wikidata": "Q5686673",
          "name": "Cinepolis"
        }
      },
      {
        "type": "node",
        "id": 7707870458,
        "lat": 26.9202441,
        "lon": 75.7863643,
        "tags": {
          "name": "Jaipur Junction",
          "name:de": "Jaipur Junction Gleis 5",
          "public_transport": "stop_position",
          "railway": "stop",
          "ref": "5",
          "train": "yes"
        }
      },
      {
        "type": "node",
        "id": 7707870459,
        "lat": 26.9203278,
        "lon": 75.786465,
        "tags": {
          "name": "Jaipur Junction",
          "name:de": "Jaipur Junction Gleis 4",
          "public_transport": "stop_position",
          "railway": "stop",
          "ref": "4",
          "train": "yes"
        }
      },
      {
        "type": "node",
        "id": 7707870460,
        "lat": 26.9203604,
        "lon": 75.7865017,
        "tags": {
          "name": "Jaipur Junction",
          "name:de": "Jaipur Junction Gleis 3",
          "public_transport": "stop_position",
          "railway": "stop",
          "ref": "3",
          "train": "yes"
        }
      },
      {
        "type": "node",
        "id": 7707870461,
        "lat": 26.9204689,
        "lon": 75.7866071,
        "tags": {
          "name": "Jaipur Junction",
          "name:de": "Jaipur Junction Gleis 2",
          "public_transport": "stop_position",
          "railway": "stop",
          "ref": "2",
          "train": "yes"
        }
      },
      {
        "type": "node",
        "id": 7707870462,
        "lat": 26.9204954,
        "lon": 75.7866329,
        "tags": {
          "name": "Jaipur Junction",
          "name:de": "Jaipur Junction Gleis 1",
          "public_transport": "stop_position",
          "railway": "stop",
          "ref": "1",
          "train": "yes"
        }
      },
      {
        "type": "node",
        "id": 8041984445,
        "lat": 26.9356052,
        "lon": 75.7918151,
        "tags": {
          "addr:city": "Jaipur",
          "addr:housenumber": "City Plaza, Pani Pech",
          "addr:street": "Meera Marg",
          "amenity": "cinema",
          "brand": "INOX Leisure",
          "brand:wikidata": "Q5972349",
          "name": "Inox City Plaza - Space Cinemas",
          "short_name": "INOX"
        }
      },
      {
        "type": "node",
        "id": 11590666267,
        "lat": 26.9361625,
        "lon": 75.792179,
        "tags": {
          "amenity": "fuel",
          "brand": "Hindustan Petroleum",
          "brand:wikidata": "Q1619375",
          "name": "HP",
          "official_name": "Hindustan Petroleum"
        }
      },
      {
        "type": "node",
        "id": 11590790757,
        "lat": 26.9341212,
        "lon": 75.7954262,
        "tags": {
          "amenity": "fuel",
          "brand": "Indian Oil",
          "brand:wikidata": "Q1289348",
          "name": "Indian Oil"
        }
      },
      {
        "type": "node",
        "id": 12669173981,
        "lat": 26.9484692,
        "lon": 75.7628409,
        "tags": {
          "amenity": "fuel",
          "name": "Indian Oil Petrol Pump"
        }
      }
    ]
  }
}