{
  "pois_1km": {
    "version": 0.6,
    "generator": "Overpass API 0.7.62.8 e802775f",
    "osm3s": {
      "timestamp_osm_base": "2025-09-07T13:00:35Z",
      "copyright": "The data included in this document is from www.openstreetmap.org. The data is made available under ODbL."
    },
    "elements": [
      {
        "type": "node",
        "id": 7035250093,
        "lat": 26.8832814,
        "lon": 75.7549212,
        "tags": {
          "addr:district": "Jaipur",
          "addr:full": "46, Everest Vihar, King's Road Nirman Nagar",
          "addr:postcode": "302019",
          "addr:state": "Rajasthan",
          "amenity": "clinic",
          "name": "Sarvgya Nursing Home",
          "source": "OpenGovernmentData"
        }
      },
      {
        "type": "node",
        "id": 7039412914,
        "lat": 26.8860287,
        "lon": 75.7525188,
        "tags": {
          "addr:district": "Jaipur",
          "addr:full": "34, Shiv Shakti Mnagar, Nirman Nagar",
          "addr:postcode": "302019",
          "addr:state": "Rajasthan",
          "amenity": "hospital",
          "name": "Ayush Hospital",
          "source": "OpenGovernmentData"
        }
      },
      {
        "type": "node",
        "id": 7040017904,
        "lat": 26.886207,
        "lon": 75.764979,
        "tags": {
          "addr:district": "Jaipur",
          "addr:full": "76, Devi Nagar, New Sanganer Road, Sadola",
          "addr:postcode": "302019",
          "addr:state": "Rajasthan",
          "amenity": "hospital",
          "name": "Agrasen Hospital",
          "source": "OpenGovernmentData"
        }
      },
      {
        "type": "node",
        "id": 7040058512,
        "lat": 26.8785299,
        "lon": 75.7667412,
        "tags": {
          "addr:district": "Jaipur",
          "addr:full": "4, Moti Nagar, Gurjar Ki Thadi, New Sanganer Road",
          "addr:postcode": "302019",
          "addr:state": "Rajasthan",
          "amenity": "hospital",
          "name": "Swasthya Mangalam Family Health Centre",
          "source": "OpenGovernmentData"
        }
      },
      {
        "type": "node",
        "id": 7040178950,
        "lat": 26.8798062,
        "lon": 75.7574882,
        "tags": {
          "addr:district": "Jaipur",
          "addr:full": "377, Shri Gopal Nagar, Gujjar Ki Thadi, Gopalpura Bypass",
          "addr:postcode": "302019",
          "addr:state": "Rajasthan",
          "amenity": "hospital",
          "name": "Siddham E N T Center",
          "source": "OpenGovernmentData"
        }
      },
      {
        "type": "node",
        "id": 7040424595,
        "lat": 26.8860078,
        "lon": 75.7655959,
        "tags": {
          "addr:district": "Jaipur",
          "addr:full": "413, Vivek Vihar, New Sanganer Road",
          "addr:postcode": "302019",
          "addr:state": "Rajasthan",
          "amenity": "hospital",
          "name": "Neha Maternity and Ent Hospital",
          "source": "OpenGovernmentData"
        }
      },
      {
        "type": "node",
        "id": 7698135280,
        "lat": 26.87854,
        "lon": 75.76678,
        "tags": {
          "addr:district": "Jaipur",
          "addr:full": "Shanthi Nagar, Mansarovar",
          "addr:postcode": "302020",
          "addr:state": "Rajasthan",
          "amenity": "clinic",
          "name": "Pathak Clinic",
          "source": "Local Knowledge"
        }
      },
      {
        "type": "node",
        "id": 7698135288,
        "lat": 26.8773898,
        "lon": 75.7501535,
        "tags": {
          "addr:district": "Jaipur",
          "addr:full": "Bhrigu Path, Sector 21, Mansarovar",
          "addr:postcode": "302020",
          "addr:state": "Rajasthan",
          "amenity": "hospital",
          "name": "Utkarsh Hospital",
          "source": "Local Knowledge"
        }
      },
      {
        "type": "node",
        "id": 7698135308,
        "lat": 26.8858605,
        "lon": 75.7658158,
        "tags": {
          "addr:district": "Jaipur",
          "addr:full": "Sodala",
          "addr:postcode": "302019",
          "addr:state": "Rajasthan",
          "amenity": "hospital",
          "name": "Chanda Devi Memorial Hospital",
          "source": "Local Knowledge"
        }
      },
      {
        "type": "node",
        "id": 7698135315,
        "lat": 26.885999,
        "lon": 75.7658738,
        "tags": {
          "addr:district": "Jaipur",
          "addr:full": "Vivek Vihar, Shyam Nagar",
          "addr:postcode": "302019",
          "addr:state": "Rajasthan",
          "amenity": "clinic",
          "name": "Gupta Clinic",
          "source": "Local Knowledge"
        }
      },
      {
        "type": "node",
        "id": 7698135321,
        "lat": 26.88477,
        "lon": 75.7523577,
        "tags": {
          "addr:district": "Jaipur",
          "addr:full": "Shiv Shakti Nagar, Brijlalpura",
          "addr:postcode": "302019",
          "addr:state": "Rajasthan",
          "amenity": "hospital",
          "name": "R N Multispeciality Hospital",
          "source": "Local Knowledge"
        }
      },
      {
        "type": "node",
        "id": 7698135323,
        "lat": 26.8867775,
        "lon": 75.7620583,
        "tags": {
          "addr:district": "Jaipur",
          "addr:full": "Katewa Nagar, Devi Nagar, Shyam Nagar",
          "addr:postcode": "302019",
          "addr:state": "Rajasthan",
          "amenity": "clinic",
          "name": "Shreeji Homeopathic Clinic",
          "source": "Local Knowledge"
        }
      },
      {
        "type": "node",
        "id": 7698135332,
        "lat": 26.8789703,
        "lon": 75.7663621,
        "tags": {
          "addr:district": "Jaipur",
          "addr:full": "Shanthi Nagar, Shyam Nagar",
          "addr:postcode": "302019",
          "addr:state": "Rajasthan",
          "amenity": "clinic",
          "name": "Jindal Homeo Clinic",
          "source": "Local Knowledge"
        }
      },
      {
        "type": "node",
        "id": 7698135361,
        "lat": 26.881491,
        "lon": 75.752095,
        "tags": {
          "addr:district": "Jaipur",
          "addr:full": "Shiv Shakti Nagar, Brijlalpura, Jaipur",
          "addr:postcode": "302019",
          "addr:state": "Rajasthan",
          "amenity": "doctors",
          "name": "Dr BS Sharma",
          "source": "Local Knowledge"
        }
      },
      {
        "type": "node",
        "id": 7698135367,
        "lat": 26.8828095,
        "lon": 75.7552802,
        "tags": {
          "addr:district": "Jaipur",
          "addr:full": "Padmavti Colony, Shiv Shakti Nagar, Brijlalpura",
          "addr:postcode": "302019",
          "addr:state": "Rajasthan",
          "amenity": "clinic",
          "name": "Neo Clinic",
          "source": "Local Knowledge"
        }
      }
    ]
  },
  "pois_2_5km": {
    "version": 0.6,
    "generator": "Overpass API 0.7.62.8 e802775f",
    "osm3s": {
      "timestamp_osm_base": "2025-09-07T13:00:35Z",
      "copyright": "The data included in this document is from www.openstreetmap.org. The data is made available under ODbL."
    },
    "elements": [
      {
        "type": "node",
        "id": 1064270794,
        "lat": 26.8794602,
        "lon": 75.7502129,
        "tags": {
          "name": "Manasarovar",
          "name:hi": "\u092e\u093e\u0928\u0938\u0930\u094b\u0935\u0930",
          "network": "Jaipur Metro",
          "note": "Contributors are requested to not edit the \"network\" and the \"operator\" tags. (2023/11/08)",
          "operator": "Jaipur Metro Rail Corporation Limited",
          "public_transport": "stop_position",
          "public_transport:version": "2",
          "railway": "stop",
          "ref": "MSOR",
          "subway": "yes"
        }
      },
      {
        "type": "node",
        "id": 3083894234,
        "lat": 26.8599941,
        "lon": 75.7560724,
        "tags": {
          "amenity": "fuel",
          "brand": "Hindustan Petroleum",
          "brand:wikidata": "Q1619375",
          "name": "HP",
          "official_name": "Hindustan Petroleum"
        }
      },
      {
        "type": "node",
        "id": 3083894235,
        "lat": 26.8798892,
        "lon": 75.758088,
        "tags": {
          "amenity": "fuel",
          "brand": "Indian Oil",
          "name": "Ganga Jamuna"
        }
      },
      {
        "type": "node",
        "id": 3083894236,
        "lat": 26.8797346,
        "lon": 75.7639391,
        "tags": {
          "amenity": "fuel",
          "brand": "HP"
        }
      },
      {
        "type": "node",
        "id": 3083894333,
        "lat": 26.8613433,
        "lon": 75.7647718,
        "tags": {
          "amenity": "fuel",
          "brand": "Indian Oil",
          "brand:wikidata": "Q1289348",
          "name": "Indian Oil"
        }
      },
      {
        "type": "node",
        "id": 3139920402,
        "lat": 26.8964858,
        "lon": 75.7706033,
        "tags": {
          "name": "Shyam Nagar",
          "name:hi": "\u0936\u094d\u092f\u093e\u092e \u0928\u0917\u0930",
          "network": "Jaipur Metro",
          "note": "Contributors are requested to not edit the \"network\" and the \"operator\" tags. (2023/11/08)",
          "operator": "Jaipur Metro Rail Corporation Limited",
          "public_transport": "stop_position",
          "public_transport:version": "2",
          "railway": "stop",
          "ref": "SMNR",
          "subway": "yes"
        }
      },
      {
        "type": "node",
        "id": 3139920403,
        "lat": 26.8884622,
        "lon": 75.7683818,
        "tags": {
          "name": "Vivek Vihar",
          "name:hi": "\u0935\u093f\u0935\u0947\u0915 \u0935\u093f\u0939\u093e\u0930",
          "network": "Jaipur Metro",
          "note": "Contributors are requested to not edit the \"network\" and the \"operator\" tags. (2023/11/08)",
          "operator": "Jaipur Metro Rail Corporation Limited",
          "public_transport": "stop_position",
          "public_transport:version": "2",
          "railway": "stop",
          "ref": "VKVR",
          "subway": "yes"
        }
      },
      {
        "type": "node",
        "id": 3566139322,
        "lat": 26.8801786,
        "lon": 75.764461,
        "tags": {
          "name": "New Aatish Market",
          "name:hi": "\u0928\u092f\u093e \u0906\u0924\u093f\u0936 \u092e\u093e\u0930\u094d\u0915\u0947\u091f",
          "network": "Jaipur Metro",
          "note": "Contributors are requested to not edit the \"network\" and the \"operator\" tags. (2023/11/08)",
          "operator": "Jaipur Metro Rail Corporation Limited",
          "public_transport": "stop_position",
          "public_transport:version": "2",
          "railway": "stop",
          "ref": "NAMT",
          "subway": "yes"
        }
      },
      {
        "type": "node",
        "id": 6938645049,
        "lat": 26.8954164,
        "lon": 75.7486286,
        "tags": {
          "addr:city": "Jaipur",
          "addr:postcode": "302021",
          "addr:street": "Ajmer Road",
          "air_conditioning": "yes",
          "amenity": "cinema",
          "name": "Inox Movies Cinema",
          "payment:cards": "yes",
          "payment:cash": "yes",
          "payment:online_booking": "yes",
          "screen": "2"
        }
      },
      {
        "type": "node",
        "id": 6968230711,
        "lat": 26.897245,
        "lon": 75.7532693,
        "tags": {
          "amenity": "fuel",
          "brand": "Hindustan Petroleum",
          "brand:wikidata": "Q1619375",
          "name": "HP",
          "official_name": "Hindustan Petroleum"
        }
      },
      {
        "type": "node",
        "id": 6968230712,
        "lat": 26.9004314,
        "lon": 75.7691078,
        "tags": {
          "amenity": "fuel",
          "brand": "Hindustan Petroleum",
          "brand:wikidata": "Q1619375",
          "name": "HP",
          "official_name": "Hindustan Petroleum"
        }
      },
      {
        "type": "node",
        "id": 8042107918,
        "lat": 26.880132,
        "lon": 75.7644774,
        "tags": {
          "name": "New Aatish Market",
          "name:hi": "\u0928\u092f\u093e \u0906\u0924\u093f\u0936 \u092e\u093e\u0930\u094d\u0915\u0947\u091f",
          "network": "Jaipur Metro",
          "note": "Contributors are requested to not edit the \"network\" and the \"operator\" tags. (2023/11/08)",
          "operator": "Jaipur Metro Rail Corporation Limited",
          "public_transport": "stop_position",
          "public_transport:version": "2",
          "railway": "stop",
          "ref": "NAMT",
          "subway": "yes"
        }
      },
      {
        "type": "node",
        "id": 8042595542,
        "lat": 26.8884508,
        "lon": 75.7684353,
        "tags": {
          "name": "Vivek Vihar",
          "name:hi": "\u0935\u093f\u0935\u0947\u0915 \u0935\u093f\u0939\u093e\u0930",
          "network": "Jaipur Metro",
          "note": "Contributors are requested to not edit the \"network\" and the \"operator\" tags. (2023/11/08)",
          "operator": "Jaipur Metro Rail Corporation Limited",
          "public_transport": "stop_position",
          "public_transport:version": "2",
          "railway": "stop",
          "ref": "VKVR",
          "subway": "yes"
        }
      },
      {
        "type": "node",
        "id": 8042602051,
        "lat": 26.8794171,
        "lon": 75.7502156,
        "tags": {
          "name": "Manasarovar",
          "name:hi": "\u092e\u093e\u0928\u0938\u0930\u094b\u0935\u0930",
          "network": "Jaipur Metro",
          "note": "Contributors are requested to not edit the \"network\" and the \"operator\" tags. (2023/11/08)",
          "operator": "Jaipur Metro Rail Corporation Limited",
          "public_transport": "stop_position",
          "public_transport:version": "2",
          "railway": "stop",
          "ref": "MSOR",
          "subway": "yes"
        }
      },
      {
        "type": "node",
        "id": 8042602063,
        "lat": 26.8964694,
        "lon": 75.7706558,
        "tags": {
          "name": "Shyam Nagar",
          "name:hi": "\u0936\u094d\u092f\u093e\u092e \u0928\u0917\u0930",
          "network": "Jaipur Metro",
          "note": "Contributors are requested to not edit the \"network\" and the \"operator\" tags. (2023/11/08)",
          "operator": "Jaipur Metro Rail Corporation Limited",
          "public_transport": "stop_position",
          "public_transport:version": "2",
          "railway": "stop",
          "ref": "SMNR",
          "subway": "yes"
        }
      },
      {
        "type": "node",
        "id": 8140108469,
        "lat": 26.8794402,
        "lon": 75.7502389,
        "tags": {
          "name": "Manasarovar",
          "name:hi": "\u092e\u093e\u0928\u0938\u0930\u094b\u0935\u0930",
          "network": "Jaipur Metro",
          "note": "Contributors are requested to not edit the \"network\" and the \"operator\" tags. (2023/11/08)",
          "operator": "Jaipur Metro Rail Corporation Limited",
          "public_transport": "station",
          "public_transport:version": "2",
          "railway": "station",
          "ref": "MSOR",
          "shelter": "yes",
          "station": "subway",
          "subway": "yes",
          "wheelchair": "yes",
          "wikidata": "Q28180399",
          "wikipedia": "en:Mansarovar metro station"
        }
      },
      {
        "type": "node",
        "id": 8149193787,
        "lat": 26.8964768,
        "lon": 75.7706279,
        "tags": {
          "name": "Shyam Nagar",
          "name:hi": "\u0936\u094d\u092f\u093e\u092e \u0928\u0917\u0930",
          "network": "Jaipur Metro",
          "note": "Contributors are requested to not edit the \"network\" and the \"operator\" tags. (2023/11/08)",
          "operator": "Jaipur Metro Rail Corporation Limited",
          "public_transport": "station",
          "public_transport:version": "2",
          "railway": "station",
          "ref": "SMNR",
          "shelter": "yes",
          "station": "subway",
          "subway": "yes",
          "wheelchair": "yes",
          "wikidata": "Q28180421",
          "wikipedia": "en:Shyam Nagar metro station"
        }
      },
      {
        "type": "node",
        "id": 8149193788,
        "lat": 26.8884539,
        "lon": 75.768407,
        "tags": {
          "name": "Vivek Vihar",
          "name:hi": "\u0935\u093f\u0935\u0947\u0915 \u0935\u093f\u0939\u093e\u0930",
          "network": "Jaipur Metro",
          "note": "Contributors are requested to not edit the \"network\" and the \"operator\" tags. (2023/11/08)",
          "operator": "Jaipur Metro Rail Corporation Limited",
          "public_transport": "station",
          "public_transport:version": "2",
          "railway": "station",
          "ref": "VKVR",
          "shelter": "yes",
          "station": "subway",
          "subway": "yes",
          "wheelchair": "yes",
          "wikidata": "Q28180413",
          "wikipedia": "en:Vivek Vihar metro station"
        }
      },
      {
        "type": "node",
        "id": 8149193789,
        "lat": 26.880154,
        "lon": 75.764466,
        "tags": {
          "name": "New Aatish Market",
          "name:hi": "\u0928\u092f\u093e \u0906\u0924\u093f\u0936 \u092e\u093e\u0930\u094d\u0915\u0947\u091f",
          "network": "Jaipur Metro",
          "note": "Contributors are requested to not edit the \"network\" and the \"operator\" tags. (2023/11/08)",
          "operator": "Jaipur Metro Rail Corporation Limited",
          "public_transport": "station",
          "public_transport:version": "2",
          "railway": "station",
          "ref": "NAMT",
          "shelter": "yes",
          "station": "subway",
          "subway": "yes",
          "wheelchair": "yes",
          "wikidata": "Q28180408",
          "wikipedia": "en:New Aatish Market metro station"
        }
      }
    ]
  }
}