{
  "pois_1km": {
    "version": 0.6,
    "generator": "Overpass API 0.7.62.8 e802775f",
    "osm3s": {
      "timestamp_osm_base": "2025-09-07T13:18:45Z",
      "copyright": "The data included in this document is from www.openstreetmap.org. The data is made available under ODbL."
    },
    "elements": [
      {
        "type": "node",
        "id": 4537269090,
        "lat": 26.8930025,
        "lon": 75.8320808,
        "tags": {
          "amenity": "restaurant",
          "cuisine": "indian",
          "name:en": "Harishankar"
        }
      },
      {
        "type": "node",
        "id": 4761202095,
        "lat": 26.8914085,
        "lon": 75.8240665,
        "tags": {
          "leisure": "park",
          "name": "Tilak Market Park"
        }
      },
      {
        "type": "node",
        "id": 5249142721,
        "lat": 26.8951343,
        "lon": 75.8290109,
        "tags": {
          "amenity": "restaurant",
          "name:en": "Nand\u2019s and Chawla\u2019s"
        }
      },
      {
        "type": "node",
        "id": 7024823966,
        "lat": 26.8880586,
        "lon": 75.8305617,
        "tags": {
          "addr:district": "Jaipur",
          "addr:full": "5- Tha- 8, Jawahar Nagar, Opposite Vivekanand School",
          "addr:postcode": "302001",
          "addr:state": "Rajasthan",
          "amenity": "hospital",
          "healthcare": "hospital",
          "name": "R.P. Memorial Hospital",
          "source": "OpenGovernmentData"
        }
      },
      {
        "type": "node",
        "id": 7025038083,
        "lat": 26.8953299,
        "lon": 75.8208033,
        "tags": {
          "addr:district": "Jaipur",
          "addr:full": "B-2, Dhruv Marg, Tilak Nagar",
          "addr:postcode": "302004",
          "addr:state": "Rajasthan",
          "amenity": "hospital",
          "healthcare": "hospital",
          "name": "K.M.S.Hospital",
          "source": "OpenGovernmentData"
        }
      },
      {
        "type": "node",
        "id": 7025285294,
        "lat": 26.8977635,
        "lon": 75.8322018,
        "tags": {
          "addr:district": "Jaipur",
          "addr:full": "Raja Park,Govind Marg",
          "addr:postcode": "302004",
          "addr:state": "Rajasthan",
          "amenity": "hospital",
          "healthcare": "hospital",
          "name": "Amodh Hospital",
          "source": "OpenGovernmentData"
        }
      },
      {
        "type": "node",
        "id": 7027743300,
        "lat": 26.8935881,
        "lon": 75.8243215,
        "tags": {
          "addr:district": "Jaipur",
          "addr:full": "337/5, Vyas Marg,Prabhu Marg, Opp A/C Market, Jaipur",
          "addr:postcode": "302004",
          "addr:state": "Rajasthan",
          "amenity": "hospital",
          "healthcare": "hospital",
          "name": "Holy Family Hospital, Jaipur",
          "source": "OpenGovernmentData",
          "website": "https://holyfamilyhospitaljaipur.in/"
        }
      },
      {
        "type": "node",
        "id": 7030410093,
        "lat": 26.9025702,
        "lon": 75.8257002,
        "tags": {
          "addr:district": "Jaipur",
          "addr:full": "434, Adarsh Nagar",
          "addr:postcode": "302004",
          "addr:state": "Rajasthan",
          "amenity": "hospital",
          "healthcare": "hospital",
          "healthcare:speciality": "ophthalmology",
          "name": "Bhiwani Eye Care Centre",
          "source": "OpenGovernmentData"
        }
      },
      {
        "type": "node",
        "id": 7030551132,
        "lat": 26.9009951,
        "lon": 75.8267596,
        "tags": {
          "addr:district": "Jaipur",
          "addr:full": "471, Adarsh Nagar",
          "addr:postcode": "302004",
          "addr:state": "Rajasthan",
          "amenity": "hospital",
          "healthcare": "hospital",
          "name": "Carewell Hospital",
          "source": "OpenGovernmentData"
        }
      },
      {
        "type": "node",
        "id": 7030653289,
        "lat": 26.8968605,
        "lon": 75.8372819,
        "tags": {
          "addr:district": "Jaipur",
          "addr:full": "605-606,Shanti Path, Sindhi Colony, Raja Park",
          "addr:postcode": "302004",
          "addr:state": "Rajasthan",
          "amenity": "hospital",
          "healthcare": "hospital",
          "name": "Jain Hospital, Jaipur",
          "source": "OpenGovernmentData"
        }
      },
      {
        "type": "node",
        "id": 7030952427,
        "lat": 26.8976523,
        "lon": 75.8240989,
        "tags": {
          "addr:district": "Jaipur",
          "addr:full": "Near Parnami Mandir, Raja Park, Adarsh Nagar",
          "addr:postcode": "302004",
          "addr:state": "Rajasthan",
          "amenity": "hospital",
          "healthcare": "hospital",
          "name": "Madan Parnami Memorial Hospital",
          "source": "OpenGovernmentData"
        }
      },
      {
        "type": "node",
        "id": 7034856996,
        "lat": 26.898218,
        "lon": 75.8236563,
        "tags": {
          "addr:district": "Jaipur",
          "addr:full": "No. B-9 (D), Govind Marg,Adarsh Nagar",
          "addr:postcode": "302004",
          "addr:state": "Rajasthan",
          "amenity": "hospital",
          "healthcare": "hospital",
          "name": "Vasundhra Hospital",
          "source": "OpenGovernmentData",
          "website": "https://www.drjollyarora.com/"
        }
      },
      {
        "type": "node",
        "id": 7035249243,
        "lat": 26.899285,
        "lon": 75.8339544,
        "tags": {
          "addr:district": "Jaipur",
          "addr:full": "B-15, Govind Marg Opp Ice Factory Adarsh Nagar",
          "addr:postcode": "302004",
          "addr:state": "Rajasthan",
          "amenity": "hospital",
          "healthcare": "hospital",
          "name": "Royal Eye Care and Research Centre",
          "source": "OpenGovernmentData"
        }
      },
      {
        "type": "node",
        "id": 7035250092,
        "lat": 26.8995779,
        "lon": 75.8318694,
        "tags": {
          "addr:district": "Jaipur",
          "addr:full": "692,Frontier Colony,Adarsh Nagar,Near Baraf Khana Pani Ki Tanki",
          "addr:postcode": "302004",
          "addr:state": "Rajasthan",
          "amenity": "hospital",
          "healthcare": "hospital",
          "name": "Chawla Hospital and Laparoscopy Centre",
          "source": "OpenGovernmentData"
        }
      },
      {
        "type": "node",
        "id": 7037488089,
        "lat": 26.89272,
        "lon": 75.8242251,
        "tags": {
          "addr:district": "Jaipur",
          "addr:full": "C-17, Bhagat Singh Marg, Near Lbs College, Tilak Nagarm",
          "addr:postcode": "302004",
          "addr:state": "Rajasthan",
          "amenity": "hospital",
          "healthcare": "hospital",
          "name": "Ram Avtar Eye Hospital and Glaucoma Pavilion",
          "source": "OpenGovernmentData"
        }
      },
      {
        "type": "node",
        "id": 7037598709,
        "lat": 26.8967648,
        "lon": 75.8207528,
        "tags": {
          "addr:district": "Jaipur",
          "addr:full": "C- 52, Near Parnami Mandir, Raja Park, Near Ganesh Temple",
          "addr:postcode": "302004",
          "addr:state": "Rajasthan",
          "amenity": "clinic",
          "healthcare": "clinic",
          "name": "Dr.Mehta's Dignostic Clinic",
          "source": "OpenGovernmentData"
        }
      },
      {
        "type": "node",
        "id": 7037606522,
        "lat": 26.8970829,
        "lon": 75.8233532,
        "tags": {
          "addr:district": "Jaipur",
          "addr:full": "264, Near Parnami Mandir, Raja Park",
          "addr:postcode": "302004",
          "addr:state": "Rajasthan",
          "amenity": "hospital",
          "healthcare": "hospital",
          "name": "Dr.Mamodias Proctology and IRC Centre",
          "phone": "9414060257",
          "source": "OpenGovernmentData",
          "website": "pilescenter.com"
        }
      },
      {
        "type": "node",
        "id": 7038464449,
        "lat": 26.8972528,
        "lon": 75.8260462,
        "tags": {
          "addr:district": "Jaipur",
          "addr:full": "B-14/D Govind Marg, Adarsh Nagar",
          "addr:postcode": "302004",
          "addr:state": "Rajasthan",
          "amenity": "hospital",
          "healthcare": "hospital",
          "name": "Raj Khurana Memorial Hospital",
          "source": "OpenGovernmentData"
        }
      },
      {
        "type": "node",
        "id": 7039990476,
        "lat": 26.8959216,
        "lon": 75.8198114,
        "tags": {
          "addr:district": "Jaipur",
          "addr:full": "Bhabha Marg, Moti Dungri",
          "addr:postcode": "302005",
          "addr:state": "Rajasthan",
          "amenity": "hospital",
          "healthcare": "hospital",
          "name": "Sahai Hospital and Research Centre",
          "source": "OpenGovernmentData"
        }
      },
      {
        "type": "node",
        "id": 7698578012,
        "lat": 26.8995994,
        "lon": 75.8245468,
        "tags": {
          "addr:district": "Jaipur",
          "addr:full": "Anand Puri, Adarsh Nagar",
          "addr:postcode": "302004",
          "addr:state": "Rajasthan",
          "amenity": "hospital",
          "healthcare": "hospital",
          "name": "Mahaveer Charitable Hospital",
          "source": "Local Knowledge"
        }
      },
      {
        "type": "node",
        "id": 7698578020,
        "lat": 26.8942846,
        "lon": 75.8273157,
        "tags": {
          "addr:district": "Jaipur",
          "addr:full": "Raja Park, Jaipur",
          "addr:postcode": "302004",
          "addr:state": "Rajasthan",
          "amenity": "clinic",
          "healthcare": "clinic",
          "name": "Bagga Clinic",
          "source": "Local Knowledge"
        }
      },
      {
        "type": "node",
        "id": 7698578023,
        "lat": 26.9020539,
        "lon": 75.8261836,
        "tags": {
          "addr:district": "Jaipur",
          "addr:full": "Adarsh Nagar",
          "addr:postcode": "302004",
          "addr:state": "Rajasthan",
          "amenity": "hospital",
          "healthcare": "hospital",
          "name": "Health Aid Hospital",
          "source": "Local Knowledge"
        }
      },
      {
        "type": "node",
        "id": 7698578030,
        "lat": 26.901026,
        "lon": 75.825743,
        "tags": {
          "addr:district": "Jaipur",
          "addr:full": "Bhag Singh Road, Adarsh Nagar",
          "addr:postcode": "302004",
          "addr:state": "Rajasthan",
          "amenity": "hospital",
          "healthcare": "hospital",
          "name": "Mahaveer Jain Hospital",
          "source": "Local Knowledge"
        }
      },
      {
        "type": "node",
        "id": 7698578039,
        "lat": 26.8941953,
        "lon": 75.8216096,
        "tags": {
          "addr:district": "Jaipur",
          "addr:full": "Tilak Nagar",
          "addr:postcode": "302004",
          "addr:state": "Rajasthan",
          "amenity": "clinic",
          "healthcare": "clinic",
          "name": "Amritam Heart Care",
          "source": "Local Knowledge"
        }
      },
      {
        "type": "node",
        "id": 7698578040,
        "lat": 26.9023693,
        "lon": 75.8259113,
        "tags": {
          "addr:district": "Jaipur",
          "addr:full": "Adarsh Nagar Road, Anand Puri, Adarsh Nagar",
          "addr:postcode": "302004",
          "addr:state": "Rajasthan",
          "amenity": "clinic",
          "healthcare": "clinic",
          "name": "Adarsh Clinic",
          "source": "Local Knowledge"
        }
      },
      {
        "type": "node",
        "id": 7698578043,
        "lat": 26.8946804,
        "lon": 75.8273968,
        "tags": {
          "addr:district": "Jaipur",
          "addr:full": "Raja Park, Jaipur",
          "addr:postcode": "302004",
          "addr:state": "Rajasthan",
          "amenity": "clinic",
          "healthcare": "clinic",
          "name": "Shibali Health Clinic",
          "source": "Local Knowledge"
        }
      },
      {
        "type": "node",
        "id": 7698578048,
        "lat": 26.892574,
        "lon": 75.8294717,
        "tags": {
          "addr:district": "Jaipur",
          "addr:full": "Dhruv Marg, Raja Park, Jaipur",
          "addr:postcode": "302004",
          "addr:state": "Rajasthan",
          "amenity": "clinic",
          "healthcare": "clinic",
          "name": "Arihant Homeo Clinic",
          "source": "Local Knowledge"
        }
      },
      {
        "type": "node",
        "id": 7698578050,
        "lat": 26.8988531,
        "lon": 75.8339104,
        "tags": {
          "addr:district": "Jaipur",
          "addr:full": "Adarsh Nagar",
          "addr:postcode": "302004",
          "addr:state": "Rajasthan",
          "amenity": "hospital",
          "healthcare": "hospital",
          "name": "Mangalam Hospital",
          "source": "Local Knowledge"
        }
      },
      {
        "type": "node",
        "id": 7698578052,
        "lat": 26.8938114,
        "lon": 75.8295247,
        "tags": {
          "addr:district": "Jaipur",
          "addr:full": "Nagmany Colony, Sanganer",
          "addr:postcode": "302004",
          "addr:state": "Rajasthan",
          "amenity": "doctors",
          "healthcare": "doctor",
          "name": "Dr. S.L. Tolani",
          "source": "Local Knowledge"
        }
      },
      {
        "type": "node",
        "id": 7698578055,
        "lat": 26.8958902,
        "lon": 75.8203134,
        "tags": {
          "addr:district": "Jaipur",
          "addr:full": "Vijay Path, Junction",
          "addr:postcode": "302004",
          "addr:state": "Rajasthan",
          "amenity": "hospital",
          "healthcare": "hospital",
          "name": "Sahai Hospital",
          "source": "Local Knowledge"
        }
      },
      {
        "type": "node",
        "id": 7698578057,
        "lat": 26.8990777,
        "lon": 75.824377,
        "tags": {
          "addr:district": "Jaipur",
          "addr:full": "Shyama Prasad Mukherji Marg, Adarsh Nagar",
          "addr:postcode": "302004",
          "addr:state": "Rajasthan",
          "amenity": "hospital",
          "healthcare": "hospital",
          "name": "Suraj Hospial",
          "source": "Local Knowledge"
        }
      },
      {
        "type": "node",
        "id": 7698578062,
        "lat": 26.8926262,
        "lon": 75.8290786,
        "tags": {
          "addr:district": "Jaipur",
          "addr:full": "Vyas Marg, Raja Park, Jaipur",
          "addr:postcode": "302004",
          "addr:state": "Rajasthan",
          "amenity": "clinic",
          "healthcare": "clinic",
          "name": "Shree Ram Homoeo & Clinic",
          "source": "Local Knowledge"
        }
      },
      {
        "type": "node",
        "id": 7698578063,
        "lat": 26.8962704,
        "lon": 75.8265197,
        "tags": {
          "addr:district": "Jaipur",
          "addr:full": "Gurunanakpura, Tilak Nagar",
          "addr:postcode": "302004",
          "addr:state": "Rajasthan",
          "amenity": "clinic",
          "healthcare": "clinic",
          "name": "Tilak Clinic & Nursing Home",
          "source": "Local Knowledge"
        }
      },
      {
        "type": "node",
        "id": 7698578069,
        "lat": 26.9022358,
        "lon": 75.8265664,
        "tags": {
          "addr:district": "Jaipur",
          "addr:full": "Raja Park, Adarsh Nagar",
          "addr:postcode": "302004",
          "addr:state": "Rajasthan",
          "amenity": "clinic",
          "healthcare": "clinic",
          "name": "S.K.D.M. Clinic",
          "source": "Local Knowledge"
        }
      },
      {
        "type": "node",
        "id": 7698578081,
        "lat": 26.8961491,
        "lon": 75.8192599,
        "tags": {
          "addr:district": "Jaipur",
          "addr:full": "Jawahar Nagar, Jaipur",
          "addr:postcode": "302004",
          "addr:state": "Rajasthan",
          "amenity": "doctors",
          "healthcare": "doctor",
          "name": "Dr. Ritu Joshi",
          "source": "Local Knowledge"
        }
      },
      {
        "type": "node",
        "id": 7698578086,
        "lat": 26.8915481,
        "lon": 75.8265711,
        "tags": {
          "addr:district": "Jaipur",
          "addr:full": "Udai Marg, Tilak Nagar",
          "addr:postcode": "302004",
          "addr:state": "Rajasthan",
          "amenity": "hospital",
          "healthcare": "hospital",
          "healthcare:speciality": "otolaryngology",
          "name": "Adinath ENT & General Hospital",
          "source": "Local Knowledge"
        }
      },
      {
        "type": "node",
        "id": 7698578094,
        "lat": 26.897601,
        "lon": 75.821265,
        "tags": {
          "addr:district": "Jaipur",
          "addr:full": "Tilak Nagar, Raja Park, Jaipur",
          "addr:postcode": "302201",
          "addr:state": "Rajasthan",
          "amenity": "clinic",
          "healthcare": "clinic",
          "name": "Saans Chest Clinic",
          "source": "Local Knowledge"
        }
      },
      {
        "type": "node",
        "id": 7698578095,
        "lat": 26.9038941,
        "lon": 75.8277814,
        "tags": {
          "addr:district": "Jaipur",
          "addr:full": "Jaipur",
          "addr:postcode": "302004",
          "addr:state": "Rajasthan",
          "amenity": "clinic",
          "healthcare": "clinic",
          "name": "Aditya Health Clinic",
          "source": "Local Knowledge"
        }
      },
      {
        "type": "node",
        "id": 7698578096,
        "lat": 26.902597,
        "lon": 75.825447,
        "tags": {
          "addr:district": "Jaipur",
          "addr:full": "Fateh Tibba, Adarsh Nagar",
          "addr:postcode": "302004",
          "addr:state": "Rajasthan",
          "amenity": "doctors",
          "healthcare": "doctor",
          "name": "Dr. Ved Prakash",
          "source": "Local Knowledge"
        }
      },
      {
        "type": "node",
        "id": 7698578101,
        "lat": 26.9025481,
        "lon": 75.8245281,
        "tags": {
          "addr:district": "Jaipur",
          "addr:full": "Adarsh Nagar Road, Anand Puri, Fateh Tibba, Adarsh Nagar",
          "addr:postcode": "302004",
          "addr:state": "Rajasthan",
          "amenity": "clinic",
          "healthcare": "clinic",
          "healthcare:speciality": "homeopathy",
          "name": "Shiv Shakti Homoeo Clinic",
          "source": "Local Knowledge"
        }
      },
      {
        "type": "node",
        "id": 7698578109,
        "lat": 26.8963636,
        "lon": 75.8252004,
        "tags": {
          "addr:district": "Jaipur",
          "addr:full": "Gurunanakpura, Raja Park, Jaipur",
          "addr:postcode": "302004",
          "addr:state": "Rajasthan",
          "amenity": "clinic",
          "healthcare": "clinic",
          "name": "Ganda Homeo Clinic",
          "source": "Local Knowledge"
        }
      },
      {
        "type": "node",
        "id": 7698578111,
        "lat": 26.9026409,
        "lon": 75.8252586,
        "tags": {
          "addr:district": "Jaipur",
          "addr:full": "Anand Puri, Adarsh Nagar, Jaipur",
          "addr:postcode": "302004",
          "addr:state": "Rajasthan",
          "amenity": "clinic",
          "healthcare": "clinic",
          "name": "Ganda Clinic",
          "source": "Local Knowledge"
        }
      }
    ]
  },
  "pois_2_5km": {
    "version": 0.6,
    "generator": "Overpass API 0.7.62.8 e802775f",
    "osm3s": {
      "timestamp_osm_base": "2025-09-07T13:19:46Z",
      "copyright": "The data included in this document is from www.openstreetmap.org. The data is made available under ODbL."
    },
    "elements": [
      {
        "type": "node",
        "id": 316944108,
        "lat": 26.9069868,
        "lon": 75.8410928,
        "tags": {
          "bus": "yes",
          "bus_routes": "3, 14, 27, 32",
          "name": "Transport Nagar",
          "public_transport": "stop_position"
        }
      },
      {
        "type": "node",
        "id": 4466633240,
        "lat": 26.9137147,
        "lon": 75.8294774,
        "tags": {
          "amenity": "fuel"
        }
      },
      {
        "type": "node",
        "id": 6976254817,
        "lat": 26.8994995,
        "lon": 75.8132041,
        "tags": {
          "amenity": "bus_station",
          "bus": "yes",
          "name": "RSRTC/Roadways Bus Stand",
          "public_transport": "station"
        }
      },
      {
        "type": "node",
        "id": 7079400604,
        "lat": 26.8998345,
        "lon": 75.8129319,
        "tags": {
          "amenity": "bus_station",
          "bus": "yes",
          "name": "Volvo Stand",
          "operator": "RSRTC",
          "public_transport": "station"
        }
      },
      {
        "type": "node",
        "id": 8125607612,
        "lat": 26.9027315,
        "lon": 75.8362208,
        "tags": {
          "amenity": "cinema",
          "brand": "INOX Leisure",
          "brand:wikidata": "Q5972349",
          "name": "Inox - Pink Sqaure Mall",
          "short_name": "INOX"
        }
      },
      {
        "type": "node",
        "id": 8125619141,
        "lat": 26.9062009,
        "lon": 75.8426994,
        "tags": {
          "amenity": "fuel",
          "brand": "Indian Oil",
          "brand:wikidata": "Q1289348",
          "brand:wikipedia": "en:Indian Oil Corporation",
          "name": "Indian Oil"
        }
      },
      {
        "type": "node",
        "id": 8137399290,
        "lat": 26.9013887,
        "lon": 75.8440142,
        "tags": {
          "amenity": "fuel"
        }
      },
      {
        "type": "node",
        "id": 8980629772,
        "lat": 26.9049054,
        "lon": 75.8446913,
        "tags": {
          "construction": "yes",
          "name": "Transport Nagar (u/c) , JAIPUR",
          "network": "Jaipur Metro",
          "note": "Contributors are requested to not edit the \"network\" and the \"operator\" tags. (2023/11/08)",
          "operator": "Jaipur Metro Rail Corporation Limited",
          "public_transport": "stop_position",
          "railway": "stop",
          "subway": "yes"
        }
      },
      {
        "type": "node",
        "id": 10936813194,
        "lat": 26.9136157,
        "lon": 75.8310726,
        "tags": {
          "amenity": "fuel",
          "brand": "Indian Oil",
          "brand:wikidata": "Q1289348",
          "name": "Indian Oil",
          "operator": "Indian Oil"
        }
      },
      {
        "type": "node",
        "id": 10936829402,
        "lat": 26.9130655,
        "lon": 75.8344291,
        "tags": {
          "amenity": "fuel"
        }
      },
      {
        "type": "node",
        "id": 11586819554,
        "lat": 26.8959825,
        "lon": 75.8093318,
        "tags": {
          "amenity": "fuel",
          "brand": "Hindustan Petroleum",
          "brand:wikidata": "Q1619375",
          "name": "HP",
          "official_name": "Hindustan Petroleum"
        }
      }
    ]
  }
}