{
  "pois_1km": {
    "version": 0.6,
    "generator": "Overpass API 0.7.62.8 e802775f",
    "osm3s": {
      "timestamp_osm_base": "2025-09-07T12:16:26Z",
      "copyright": "The data included in this document is from www.openstreetmap.org. The data is made available under ODbL."
    },
    "elements": [
      {
        "type": "node",
        "id": 8972208043,
        "lat": 23.0875162,
        "lon": 72.683768,
        "tags": {
          "addr:city": "Ahmedabad",
          "addr:housenumber": "4,5,6, Nadroda Business Hub",
          "addr:postcode": "382330",
          "addr:street": "opp. Satva Green Party Plot, Nr. Ring Road Circle Hanspura, Naroda - Dahegam Road",
          "air_conditioning": "yes",
          "amenity": "restaurant",
          "capacity": "100",
          "cuisine": "indian;regional;asian",
          "diet:meat": "yes",
          "diet:vegan": "yes",
          "diet:vegetarian": "yes",
          "name": "Babadeepsingh Restaurant",
          "opening_hours": "Mo-Su 11:00-23:00",
          "source": "Flood DMBD;Flood;Flood DMBD Clientele;Reu",
          "website": "https://www.google.com/maps/place/Babadeepsingh+Restaurant/@23.0874355,72.6838467,44m/data=!3m1!1e3!4m5!3m4!1s0x0:0xb4ba50b58fd62be4!8m2!3d23.0874765!4d72.6838011"
        }
      },
      {
        "type": "node",
        "id": 9078990286,
        "lat": 23.0875987,
        "lon": 72.6839578,
        "tags": {
          "addr:city": "Ahmedabad",
          "addr:housenumber": "106, Naroda business hub, NR. New D-Mart, Naroda-dehgam road",
          "addr:postcode": "382330",
          "addr:street": "Hanspura",
          "air_conditioning": "yes",
          "amenity": "cafe",
          "bar": "no",
          "cuisine": "coffee_shop;pizza;burger;sandwich",
          "description": "Crush culture is a dine-in cafe bar with love and peaceful moments to be enjoyed. You can make parties over here like birthday, anniversary, reunion and bachelor party. Our specialty:- 1. Photo wall 2. Couple box 3. Nitrogen coffee 4. Fish massage 5. Birt",
          "image": "https://www.google.com/local/place/fid/0x395e81e7a7ee76af:0x348c69d3c446bfa4/photosphere?iu=https://lh5.googleusercontent.com/p/AF1QipNJ0e2M7nBwKtsz5pXD05YE1kgbJdg_zrJRvYPA%3Dw160-h106-k-no-pi-0-ya60.000004-ro-0-fo100&ik=CAoSLEFGMVFpcE5KMGUyTTduQndLdHN6NX",
          "internet_access": "no",
          "name": "Crush Culture Cafe Bar",
          "opening_hours": "Mo-Su 10:00-22:00",
          "phone": "+91 9974 973181",
          "source": "Flood DMBD;Flood;Flood DMBD Clientele;Reu",
          "website": "https://instagram.com/crush_culture_cafebar?utm_medium=copy_link"
        }
      }
    ]
  },
  "pois_2_5km": {
    "version": 0.6,
    "generator": "Overpass API 0.7.62.8 e802775f",
    "osm3s": {
      "timestamp_osm_base": "2025-09-07T12:16:26Z",
      "copyright": "The data included in this document is from www.openstreetmap.org. The data is made available under ODbL."
    },
    "elements": [
      {
        "type": "node",
        "id": 4483242065,
        "lat": 23.0797088,
        "lon": 72.6678593,
        "tags": {
          "amenity": "fuel",
          "name": "Petrol pump Nava Naroda"
        }
      },
      {
        "type": "node",
        "id": 5286955825,
        "lat": 23.0846729,
        "lon": 72.6862592,
        "tags": {
          "addr:street": "Sardar Patel Ring Road",
          "amenity": "fuel",
          "name": "CNG gas station"
        }
      }
    ]
  }
}