{
  "pois_1km": {
    "version": 0.6,
    "generator": "Overpass API 0.7.62.8 e802775f",
    "osm3s": {
      "timestamp_osm_base": "2025-09-07T12:08:15Z",
      "copyright": "The data included in this document is from www.openstreetmap.org. The data is made available under ODbL."
    },
    "elements": [
      {
        "type": "node",
        "id": 2034596325,
        "lat": 23.0058514,
        "lon": 72.5910422,
        "tags": {
          "amenity": "bank",
          "atm": "yes",
          "brand:wikidata": "Q2003797",
          "brand:wikipedia": "en:Bank of Baroda",
          "name": "Bank of Baroda",
          "name:en": "Bank of Baroda",
          "short_name": "BoB",
          "website": "http://www.bankofbaroda.com"
        }
      },
      {
        "type": "node",
        "id": 6970081773,
        "lat": 23.0061658,
        "lon": 72.5959302,
        "tags": {
          "addr:district": "Ahmedabad",
          "addr:full": "No. 17, Chunibhai Colony, Foot Ball Ground, Kankaria",
          "addr:postcode": "380022",
          "addr:state": "Gujarat",
          "amenity": "clinic",
          "name": "Kadam Maternity Home and Sonography Clinic",
          "source": "OpenGovernmentData"
        }
      },
      {
        "type": "node",
        "id": 6971034528,
        "lat": 23.0013354,
        "lon": 72.5905041,
        "tags": {
          "addr:district": "Ahmedabad",
          "addr:full": "Madhuvan Society,Opposite Bhaktavallabh Dhola School, Shahalam Tolnaka, Kankaria Road",
          "addr:postcode": "380028",
          "addr:state": "Gujarat",
          "amenity": "hospital",
          "name": "Jankalyan Hospital, Ahmedabad",
          "source": "OpenGovernmentData"
        }
      },
      {
        "type": "node",
        "id": 6971932535,
        "lat": 23.000933,
        "lon": 72.595249,
        "tags": {
          "addr:district": "Ahmedabad",
          "addr:full": "Gordhanwadi Tekra, Kankaria",
          "addr:postcode": "380028",
          "addr:state": "Gujarat",
          "amenity": "hospital",
          "name": "Ratan Hospital",
          "source": "OpenGovernmentData"
        }
      },
      {
        "type": "node",
        "id": 6971932551,
        "lat": 22.9990899,
        "lon": 72.6009165,
        "tags": {
          "addr:district": "Ahmedabad",
          "addr:full": "1,2 Nikunj Society,Sardar Patel Hospital Lane Rambaug Maninagar",
          "addr:postcode": "380028",
          "addr:state": "Gujarat",
          "amenity": "hospital",
          "contact:mobile": "9825255636",
          "name": "Sardar Hosital",
          "source": "OpenGovernmentData"
        }
      },
      {
        "type": "node",
        "id": 6971932552,
        "lat": 23.0001972,
        "lon": 72.6048513,
        "tags": {
          "addr:district": "Ahmedabad",
          "addr:full": "Above Tapan Medical Store, Opp L G Hospital, Maninagar",
          "addr:postcode": "380008",
          "addr:state": "Gujarat",
          "addr:subdistrict": "Ahmedabad",
          "amenity": "hospital",
          "name": "Clear Vision Eye Hospital (Unit 3)",
          "operator:type": "private",
          "source": "OpenGovernmentData"
        }
      },
      {
        "type": "node",
        "id": 6971932554,
        "lat": 22.9961937,
        "lon": 72.6038629,
        "tags": {
          "addr:district": "Ahmedabad",
          "addr:full": "Sakar Complex, First Floor, Maninagar",
          "addr:postcode": "380008",
          "addr:state": "Gujarat",
          "amenity": "hospital",
          "name": "Kothari Onco Surgical Hospital",
          "source": "OpenGovernmentData"
        }
      },
      {
        "type": "node",
        "id": 6971973794,
        "lat": 22.9968677,
        "lon": 72.6037475,
        "tags": {
          "addr:district": "Ahmedabad",
          "addr:full": "2, Mohil Apartment Opp: Jalaram Plaza, Jawahar Chowk Maninagar",
          "addr:postcode": "380008",
          "addr:state": "Gujarat",
          "amenity": "hospital",
          "contact:phone": "7925462847",
          "name": "Dr Sunil Shah's Eye Hospital",
          "source": "OpenGovernmentData"
        }
      },
      {
        "type": "node",
        "id": 6975868180,
        "lat": 23.0026356,
        "lon": 72.5971751,
        "tags": {
          "addr:district": "Ahmedabad",
          "addr:full": "14,Pushpakunj Soc., Near Apsara Theartre,B/D.,Love Complex,Kankaria",
          "addr:postcode": "380028",
          "addr:state": "Gujarat",
          "amenity": "clinic",
          "name": "Geeta Nursing Home, Ahmedabad",
          "source": "OpenGovernmentData"
        }
      },
      {
        "type": "node",
        "id": 6977175156,
        "lat": 23.0095864,
        "lon": 72.5988331,
        "tags": {
          "addr:district": "Ahmedabad",
          "addr:full": "3 Vijay Tower, Opposite Abad Dairy, Kankaria",
          "addr:postcode": "380022",
          "addr:state": "Gujarat",
          "amenity": "hospital",
          "name": "Dr. Shailesh Shah Surgical Hospital and End. Clinic",
          "source": "OpenGovernmentData"
        }
      },
      {
        "type": "node",
        "id": 6977562756,
        "lat": 23.0048092,
        "lon": 72.5901327,
        "tags": {
          "addr:district": "Ahmedabad",
          "addr:full": "Mangal Park Bus Stop, Opp, Petrol Pump Gita Mandir Road",
          "addr:postcode": "380022",
          "addr:state": "Gujarat",
          "amenity": "hospital",
          "name": "Parth Eye Hospital, Ahmedabad",
          "source": "OpenGovernmentData"
        }
      },
      {
        "type": "node",
        "id": 6978658096,
        "lat": 23.0017415,
        "lon": 72.5917406,
        "tags": {
          "addr:district": "Ahmedabad",
          "addr:full": "2-Hari Nagar Society, OppositeTelephone Exchange,Kankaria Road, Near Shahalam Tolnaka",
          "addr:postcode": "380028",
          "addr:state": "Gujarat",
          "amenity": "hospital",
          "name": "Dr.Soneji Hospital",
          "source": "OpenGovernmentData"
        }
      },
      {
        "type": "node",
        "id": 6979071770,
        "lat": 23.0042895,
        "lon": 72.5905082,
        "tags": {
          "addr:district": "Ahmedabad",
          "addr:full": "3Road Floor, Sanket Complex, Opp Petrol Pump Mangal Park, Bhulabhai Park, Geetamandir Road",
          "addr:postcode": "380022",
          "addr:state": "Gujarat",
          "amenity": "hospital",
          "name": "Trupti Heart and Medical Hospital, Ahmedabad",
          "source": "OpenGovernmentData"
        }
      },
      {
        "type": "node",
        "id": 6980978805,
        "lat": 23.0024575,
        "lon": 72.595257,
        "tags": {
          "addr:district": "Ahmedabad",
          "addr:full": "101, Hira Anand Complex, Gordhanwadi Cross Road, Kakariya",
          "addr:postcode": "380028",
          "addr:state": "Gujarat",
          "amenity": "hospital",
          "contact:mobile": "9426002912",
          "name": "Arpan Orthopedic and Trauma Hospital",
          "source": "OpenGovernmentData"
        }
      },
      {
        "type": "node",
        "id": 6983778648,
        "lat": 23.0029007,
        "lon": 72.595717,
        "tags": {
          "addr:district": "Ahmedabad",
          "addr:full": "M-102, Hira Anand Complex,Gordhan Wadi Circle,Kankaria",
          "addr:postcode": "380022",
          "addr:state": "Gujarat",
          "amenity": "hospital",
          "name": "Vishwa Medical And Heart Hospital",
          "source": "OpenGovernmentData"
        }
      },
      {
        "type": "node",
        "id": 6986551300,
        "lat": 22.9998947,
        "lon": 72.5906262,
        "tags": {
          "addr:district": "Ahmedabad",
          "addr:full": "CGHS Dispensary No.2, GovernmentF.Colony,Block No.34/284, 285, Shahalam, Tolnaka, Shaha Alam",
          "addr:state": "Gujarat",
          "amenity": "clinic",
          "contact:phone": "7925393262",
          "health_facility:type": "dispensary",
          "healthcare": "centre",
          "name": "CGHS Dispensary No.2",
          "operator:type": "government",
          "source": "OpenGovernmentData",
          "website": "http://nb.bsf.gov.in/CGHS%20DIspenseries.pdf"
        }
      },
      {
        "type": "node",
        "id": 6989132421,
        "lat": 23.0054634,
        "lon": 72.5904116,
        "tags": {
          "addr:district": "Ahmedabad",
          "addr:full": "Ami Ganga Complex Rohit Mill Circle",
          "addr:postcode": "380001",
          "addr:state": "Gujarat",
          "amenity": "hospital",
          "name": "Smruti Hospital",
          "source": "OpenGovernmentData"
        }
      },
      {
        "type": "node",
        "id": 6990257834,
        "lat": 23.0041352,
        "lon": 72.6064526,
        "tags": {
          "addr:district": "Ahmedabad",
          "addr:full": "Near Jaldhara Water Park , Balvatika, Kankaria Maninagar",
          "addr:postcode": "380008",
          "addr:state": "Gujarat",
          "amenity": "hospital",
          "name": "Siddhi Vinayak Hospital, Ahmedabad",
          "source": "OpenGovernmentData"
        }
      },
      {
        "type": "node",
        "id": 6991109755,
        "lat": 23.0031649,
        "lon": 72.5952208,
        "tags": {
          "addr:district": "Ahmedabad",
          "addr:full": "2ndfloor,Urmi Kunj Kankaria , A`Bad",
          "addr:postcode": "380022",
          "addr:state": "Gujarat",
          "amenity": "hospital",
          "name": "Neha Children Hospitals and Neonatal Centre",
          "source": "OpenGovernmentData"
        }
      },
      {
        "type": "node",
        "id": 6993884689,
        "lat": 23.0094926,
        "lon": 72.5988793,
        "tags": {
          "addr:district": "Ahmedabad",
          "addr:full": "Vijay Tower,First Floor,Opp Abad Dairy",
          "addr:postcode": "380022",
          "addr:state": "Gujarat",
          "amenity": "hospital",
          "name": "Giriraj Orthopaedic Hospital",
          "source": "OpenGovernmentData"
        }
      },
      {
        "type": "node",
        "id": 7020233388,
        "lat": 23.0012911,
        "lon": 72.5995705,
        "tags": {
          "amenity": "restaurant",
          "name:ko": "Domino Pizza"
        }
      },
      {
        "type": "node",
        "id": 7862753703,
        "lat": 22.9995851,
        "lon": 72.6003159,
        "tags": {
          "addr:district": "Ahmedabad",
          "addr:full": "Pushpkunj, Maninagar",
          "addr:postcode": "380008",
          "addr:state": "Gujarat",
          "amenity": "hospital",
          "name": "Chanchalba Maternity Hospital",
          "source": "Local Knowledge"
        }
      },
      {
        "type": "node",
        "id": 7862753704,
        "lat": 22.998028,
        "lon": 72.600585,
        "tags": {
          "addr:district": "Ahmedabad",
          "addr:full": "Rambagh, Maninagar",
          "addr:postcode": "380008",
          "addr:state": "Gujarat",
          "amenity": "hospital",
          "name": "Dr. Ramanlal Hospital",
          "source": "Local Knowledge"
        }
      },
      {
        "type": "node",
        "id": 7862753705,
        "lat": 23.001855,
        "lon": 72.589145,
        "tags": {
          "addr:district": "Ahmedabad",
          "addr:full": "Bhavna Colony, Behrampura",
          "addr:postcode": "380022",
          "addr:state": "Gujarat",
          "amenity": "doctors",
          "name": "Dr. Mubassir Saiyad",
          "source": "Local Knowledge"
        }
      },
      {
        "type": "node",
        "id": 7862753709,
        "lat": 23.005749,
        "lon": 72.595118,
        "tags": {
          "addr:district": "Ahmedabad",
          "addr:full": "Kankaria",
          "addr:postcode": "380002",
          "addr:state": "Gujarat",
          "amenity": "hospital",
          "name": "Bhanu Jit Maternity and Nursing Home",
          "source": "Local Knowledge"
        }
      },
      {
        "type": "node",
        "id": 7862753710,
        "lat": 22.997505,
        "lon": 72.604633,
        "tags": {
          "addr:district": "Ahmedabad",
          "addr:full": "Balvatika, Maninagar",
          "addr:postcode": "380008",
          "addr:state": "Gujarat",
          "amenity": "clinic",
          "name": "Atharva Ayurveda Clinic and Panchakarma Centre",
          "source": "Local Knowledge"
        }
      },
      {
        "type": "node",
        "id": 7862753712,
        "lat": 23.000113,
        "lon": 72.603228,
        "tags": {
          "addr:district": "Ahmedabad",
          "addr:full": "Jagabhai Park, Maninagar",
          "addr:postcode": "380008",
          "addr:state": "Gujarat",
          "amenity": "clinic",
          "name": "Madhavbaug Clinic",
          "source": "Local Knowledge"
        }
      },
      {
        "type": "node",
        "id": 7862753718,
        "lat": 22.9982724,
        "lon": 72.5943965,
        "tags": {
          "addr:district": "Ahmedabad",
          "addr:full": "Kankaria, Maninagar",
          "addr:postcode": "380008",
          "addr:state": "Gujarat",
          "amenity": "clinic",
          "name": "Rupam Women's Clinic",
          "source": "Local Knowledge"
        }
      },
      {
        "type": "node",
        "id": 7862753725,
        "lat": 22.9981001,
        "lon": 72.6021433,
        "tags": {
          "addr:district": "Ahmedabad",
          "addr:full": "Rambagh, Maninagar",
          "addr:postcode": "380008",
          "addr:state": "Gujarat",
          "amenity": "clinic",
          "name": "Niruj Rheumotogy Clinic",
          "source": "Local Knowledge"
        }
      },
      {
        "type": "node",
        "id": 7862753727,
        "lat": 22.9969506,
        "lon": 72.601663,
        "tags": {
          "addr:district": "Ahmedabad",
          "addr:full": "Rambagh, Maninagar",
          "addr:postcode": "380008",
          "addr:state": "Gujarat",
          "amenity": "hospital",
          "name": "Mithakhali Stavya Hospital",
          "source": "Local Knowledge"
        }
      },
      {
        "type": "node",
        "id": 7862753730,
        "lat": 23.000123,
        "lon": 72.604134,
        "tags": {
          "addr:district": "Ahmedabad",
          "addr:full": "Balvatika, Maninagar",
          "addr:postcode": "380008",
          "addr:state": "Gujarat",
          "amenity": "doctors",
          "name": "Dr. Kirit C. Shah",
          "source": "Local Knowledge"
        }
      },
      {
        "type": "node",
        "id": 7862753737,
        "lat": 23.003436,
        "lon": 72.596416,
        "tags": {
          "addr:district": "Ahmedabad",
          "addr:full": "Kankaria",
          "addr:postcode": "380002",
          "addr:state": "Gujarat",
          "amenity": "hospital",
          "name": "Navdeep Hospital",
          "source": "Local Knowledge"
        }
      },
      {
        "type": "node",
        "id": 7862753751,
        "lat": 23.0003225,
        "lon": 72.6037424,
        "tags": {
          "addr:district": "Ahmedabad",
          "addr:full": "Balvatika, Maninagar",
          "addr:postcode": "380008",
          "addr:state": "Gujarat",
          "amenity": "hospital",
          "name": "Shivam Children Hospital and Pediatric Critical Care Centre",
          "source": "Local Knowledge"
        }
      },
      {
        "type": "node",
        "id": 7862753753,
        "lat": 23.0058864,
        "lon": 72.5917151,
        "tags": {
          "addr:district": "Ahmedabad",
          "addr:full": "Kankaria, Maninagar",
          "addr:postcode": "380002",
          "addr:state": "Gujarat",
          "amenity": "hospital",
          "name": "Aaditya Spine Hospital",
          "source": "Local Knowledge"
        }
      },
      {
        "type": "node",
        "id": 7862753755,
        "lat": 23.000179,
        "lon": 72.6043884,
        "tags": {
          "addr:district": "Ahmedabad",
          "addr:full": "Balvatika, Maninagar",
          "addr:postcode": "380008",
          "addr:state": "Gujarat",
          "amenity": "doctors",
          "name": "Dr. Tapan A Shah",
          "source": "Local Knowledge"
        }
      },
      {
        "type": "node",
        "id": 9709187217,
        "lat": 23.0048635,
        "lon": 72.598021,
        "tags": {
          "leisure": "garden",
          "name": "One Tree Hill Garden"
        }
      }
    ]
  },
  "pois_2_5km": {
    "version": 0.6,
    "generator": "Overpass API 0.7.62.8 e802775f",
    "osm3s": {
      "timestamp_osm_base": "2025-09-07T12:08:15Z",
      "copyright": "The data included in this document is from www.openstreetmap.org. The data is made available under ODbL."
    },
    "elements": [
      {
        "type": "node",
        "id": 323120091,
        "lat": 22.9986596,
        "lon": 72.6114013,
        "tags": {
          "internet_access": "no",
          "name": "Maninagar",
          "network": "IR",
          "operator": "WR",
          "public_transport": "station",
          "railway": "station",
          "ref": "MAN",
          "train": "yes",
          "wikidata": "Q6749778",
          "wikipedia": "en:Maninagar railway station"
        }
      },
      {
        "type": "node",
        "id": 1206485486,
        "lat": 23.0251057,
        "lon": 72.6017011,
        "tags": {
          "name": "Ahmedabad Junction",
          "public_transport": "stop_position",
          "railway": "stop",
          "ref": "10",
          "train": "yes"
        }
      },
      {
        "type": "node",
        "id": 1206485574,
        "lat": 23.0251068,
        "lon": 72.6020896,
        "tags": {
          "name": "Ahmedabad Junction",
          "public_transport": "stop_position",
          "railway": "stop",
          "ref": "10",
          "train": "yes"
        }
      },
      {
        "type": "node",
        "id": 1206490577,
        "lat": 23.0251064,
        "lon": 72.6019452,
        "tags": {
          "name": "Ahmedabad Junction",
          "public_transport": "stop_position",
          "railway": "stop",
          "ref": "10",
          "train": "yes"
        }
      },
      {
        "type": "node",
        "id": 3336777167,
        "lat": 23.0218734,
        "lon": 72.5984903,
        "tags": {
          "addr:street": "Gandhi Road",
          "amenity": "bus_station",
          "bus": "yes",
          "name": "Ahmedabad",
          "name:en": "Kalupur Bus stop",
          "public_transport": "station"
        }
      },
      {
        "type": "node",
        "id": 3355748461,
        "lat": 23.0186671,
        "lon": 72.5883471,
        "tags": {
          "bus": "yes",
          "public_transport": "stop_position"
        }
      },
      {
        "type": "node",
        "id": 3393656497,
        "lat": 23.011445,
        "lon": 72.5864365,
        "tags": {
          "amenity": "fuel",
          "brand": "Adani",
          "name": "Adani CNG Gas Station",
          "operator": "Adani"
        }
      },
      {
        "type": "node",
        "id": 4530241653,
        "lat": 23.0251063,
        "lon": 72.6018905,
        "tags": {
          "name": "Ahmedabad Junction",
          "public_transport": "stop_position",
          "railway": "stop",
          "ref": "10",
          "train": "yes"
        }
      },
      {
        "type": "node",
        "id": 5540117738,
        "lat": 23.0024253,
        "lon": 72.5928352,
        "tags": {
          "amenity": "bus_station",
          "bus": "yes",
          "name": "Kankaria Telephone exchange",
          "operator": "BRTS, Ahmedabad",
          "public_transport": "station"
        }
      },
      {
        "type": "node",
        "id": 5622701027,
        "lat": 23.0106557,
        "lon": 72.6182366,
        "tags": {
          "name": "Apparel Park",
          "name:gu": "\u0a8f\u0aaa\u0ab0\u0ab2 \u0aaa\u0abe\u0ab0\u0acd\u0a95",
          "network": "Ahmedabad Metro",
          "operator": "Gujarat Metro Rail Corporation Limited",
          "public_transport": "stop_position",
          "public_transport:version": "2",
          "railway": "stop",
          "subway": "yes"
        }
      },
      {
        "type": "node",
        "id": 5622701037,
        "lat": 23.0154543,
        "lon": 72.6069352,
        "tags": {
          "name": "Kankaria East",
          "public_transport": "stop_position",
          "railway": "stop",
          "subway": "yes"
        }
      },
      {
        "type": "node",
        "id": 5622701044,
        "lat": 23.0246945,
        "lon": 72.603093,
        "tags": {
          "name": "Kalupur Railway Station",
          "public_transport": "stop_position",
          "railway": "stop",
          "subway": "yes"
        }
      },
      {
        "type": "node",
        "id": 7707519216,
        "lat": 23.025107,
        "lon": 72.6021398,
        "tags": {
          "name": "Ahmedabad Junction",
          "public_transport": "stop_position",
          "railway": "stop",
          "ref": "10",
          "train": "yes"
        }
      },
      {
        "type": "node",
        "id": 7944287415,
        "lat": 23.0246913,
        "lon": 72.6031447,
        "tags": {
          "name": "Kalupur Railway Station",
          "name:gu": "\u0a95\u0abe\u0ab2\u0ac1\u0aaa\u0ac1\u0ab0 \u0ab0\u0ac7\u0ab2\u0acd\u0ab5\u0ac7 \u0ab8\u0acd\u0a9f\u0ac7\u0ab6\u0aa8",
          "public_transport": "station",
          "railway": "station",
          "station": "subway",
          "subway": "yes",
          "wikidata": "Q114400466"
        }
      },
      {
        "type": "node",
        "id": 7944287418,
        "lat": 23.0154573,
        "lon": 72.6070016,
        "tags": {
          "name": "Kankaria East",
          "public_transport": "station",
          "railway": "station",
          "station": "subway",
          "subway": "yes",
          "wikidata": "Q114400460"
        }
      },
      {
        "type": "node",
        "id": 9655564621,
        "lat": 23.0107028,
        "lon": 72.6182378,
        "tags": {
          "name": "Apparel Park",
          "name:gu": "\u0a8f\u0aaa\u0ab0\u0ab2 \u0aaa\u0abe\u0ab0\u0acd\u0a95",
          "network": "Ahmedabad Metro",
          "operator": "Gujarat Metro Rail Corporation Limited",
          "public_transport": "stop_position",
          "public_transport:version": "2",
          "railway": "stop",
          "subway": "yes"
        }
      },
      {
        "type": "node",
        "id": 10076537485,
        "lat": 23.0154585,
        "lon": 72.6070566,
        "tags": {
          "name": "Kankaria East",
          "public_transport": "stop_position",
          "railway": "stop",
          "subway": "yes"
        }
      },
      {
        "type": "node",
        "id": 10076537499,
        "lat": 23.0246998,
        "lon": 72.603211,
        "tags": {
          "name": "Kalupur Railway Station",
          "public_transport": "stop_position",
          "railway": "stop",
          "subway": "yes"
        }
      }
    ]
  }
}