{
  "pois_1km": {
    "version": 0.6,
    "generator": "Overpass API 0.7.62.8 e802775f",
    "osm3s": {
      "timestamp_osm_base": "2025-09-07T12:05:15Z",
      "copyright": "The data included in this document is from www.openstreetmap.org. The data is made available under ODbL."
    },
    "elements": [
      {
        "type": "node",
        "id": 1964926897,
        "lat": 23.0376713,
        "lon": 72.565775,
        "tags": {
          "amenity": "restaurant",
          "cuisine": "italian",
          "name": "Havmor Restaurant",
          "operator": "indian&international"
        }
      },
      {
        "type": "node",
        "id": 1973440767,
        "lat": 23.0328812,
        "lon": 72.5655478,
        "tags": {
          "addr:housename": "Shri Krishna Centre",
          "addr:postcode": "380009",
          "addr:street": "Law Garden Road",
          "amenity": "fast_food",
          "cuisine": "ice_cream",
          "name": "Natural Ice Cream",
          "website": "https://naturalicecreams.in/"
        }
      },
      {
        "type": "node",
        "id": 3242226330,
        "lat": 23.0329764,
        "lon": 72.5600005,
        "tags": {
          "amenity": "cafe",
          "brand": "Cafe Coffee Day",
          "brand:wikidata": "Q5017235",
          "cuisine": "coffee_shop",
          "internet_access": "no",
          "internet_access:fee": "no",
          "name": "Cafe Coffee Day",
          "opening_hours": "Mo-Su 09:00-23:00",
          "operator": "Cafe Coffee Day",
          "phone": "+91 93776 19151",
          "smoking": "no",
          "takeaway": "yes",
          "website": "https://www.cafecoffeeday.com/",
          "wheelchair": "no"
        }
      },
      {
        "type": "node",
        "id": 3242226331,
        "lat": 23.0337365,
        "lon": 72.5608865,
        "tags": {
          "addr:city": "Ahmedabad",
          "addr:postcode": "380009",
          "amenity": "bank",
          "name": "Citibank"
        }
      },
      {
        "type": "node",
        "id": 3242226333,
        "lat": 23.0328329,
        "lon": 72.5598654,
        "tags": {
          "amenity": "bank",
          "atm": "yes",
          "brand": "The State bank of India",
          "brand:wikidata": "Q1340361",
          "name": "The State Bank of India, Ahmedabad Office",
          "opening_hours": "09:30-15:30",
          "operator": "The State Bank of India"
        }
      },
      {
        "type": "node",
        "id": 3242235763,
        "lat": 23.0331142,
        "lon": 72.5599842,
        "tags": {
          "amenity": "bank",
          "atm": "yes",
          "brand:wikidata": "Q2040404",
          "brand:wikipedia": "en:Kotak Mahindra Bank",
          "name": "Kotak Mahindra Bank",
          "name:en": "Kotak Mahindra Bank",
          "website": "http://www.kotak.com"
        }
      },
      {
        "type": "node",
        "id": 3776238973,
        "lat": 23.0342579,
        "lon": 72.5609251,
        "tags": {
          "amenity": "restaurant",
          "name": "waah"
        }
      },
      {
        "type": "node",
        "id": 3776238974,
        "lat": 23.0342641,
        "lon": 72.5608446,
        "tags": {
          "amenity": "restaurant",
          "cuisine": "regional",
          "name": "havmor"
        }
      },
      {
        "type": "node",
        "id": 3776238976,
        "lat": 23.0344715,
        "lon": 72.5611879,
        "tags": {
          "amenity": "restaurant"
        }
      },
      {
        "type": "node",
        "id": 3776238977,
        "lat": 23.0344517,
        "lon": 72.5612536,
        "tags": {
          "amenity": "restaurant",
          "cuisine": "pizza",
          "name": "choice"
        }
      },
      {
        "type": "node",
        "id": 3776238978,
        "lat": 23.0358422,
        "lon": 72.5617312,
        "tags": {
          "amenity": "cafe",
          "name": "chocolate room"
        }
      },
      {
        "type": "node",
        "id": 3776238979,
        "lat": 23.0342345,
        "lon": 72.5610096,
        "tags": {
          "amenity": "restaurant",
          "name": "purohit"
        }
      },
      {
        "type": "node",
        "id": 4358562490,
        "lat": 23.0384792,
        "lon": 72.5692563,
        "tags": {
          "addr:street": "Ashram Road",
          "amenity": "bank",
          "brand:wikidata": "Q2040404",
          "brand:wikipedia": "en:Kotak Mahindra Bank",
          "name": "Kotak Mahindra Bank",
          "name:en": "Kotak Mahindra Bank",
          "website": "http://www.kotak.com"
        }
      },
      {
        "type": "node",
        "id": 5276640722,
        "lat": 23.0346667,
        "lon": 72.5603703,
        "tags": {
          "amenity": "cafe",
          "name": "Seva Cafe"
        }
      },
      {
        "type": "node",
        "id": 5329590125,
        "lat": 23.033026,
        "lon": 72.5577346,
        "tags": {
          "amenity": "cafe",
          "name": "Unlocked"
        }
      },
      {
        "type": "node",
        "id": 5340470022,
        "lat": 23.0320819,
        "lon": 72.5600295,
        "tags": {
          "addr:street": "Chimanlal Girdharlal Road",
          "amenity": "cafe",
          "name": "Cafe udipi richi"
        }
      },
      {
        "type": "node",
        "id": 5527659737,
        "lat": 23.0275402,
        "lon": 72.559229,
        "tags": {
          "amenity": "restaurant",
          "name": "Takshshila Food Court"
        }
      },
      {
        "type": "node",
        "id": 6968717622,
        "lat": 23.0383141,
        "lon": 72.567755,
        "tags": {
          "addr:district": "Ahmedabad",
          "addr:full": "Behind Old Gujrat High Court",
          "addr:postcode": "380009",
          "addr:state": "Gujarat",
          "addr:subdistrict": "Navrangpura",
          "amenity": "hospital",
          "contact:phone": "7927540336",
          "name": "Jagmohan Hospital, Ahmedabad",
          "operator:type": "private",
          "source": "OpenGovernmentData"
        }
      },
      {
        "type": "node",
        "id": 6970443687,
        "lat": 23.0396088,
        "lon": 72.5659485,
        "tags": {
          "addr:district": "Ahmedabad",
          "addr:full": "Dhanlaxmi Complex, Jivraj Park, Vejalpur Road",
          "addr:postcode": "380015",
          "addr:state": "Gujarat",
          "amenity": "hospital",
          "name": "Dr Rupesh Shah Killol Children Hospital",
          "source": "OpenGovernmentData"
        }
      },
      {
        "type": "node",
        "id": 6970541617,
        "lat": 23.0376566,
        "lon": 72.5647707,
        "tags": {
          "addr:district": "Ahmedabad",
          "addr:full": "270/B/5, Near Amco Bank, Stadium Circle, Navrangpura",
          "addr:postcode": "380009",
          "addr:state": "Gujarat",
          "amenity": "hospital",
          "name": "Shrey Hospital",
          "source": "OpenGovernmentData"
        }
      },
      {
        "type": "node",
        "id": 6970546266,
        "lat": 23.0402628,
        "lon": 72.5598451,
        "tags": {
          "addr:district": "Ahmedabad",
          "addr:full": "Vedanta Institute of Medical Sciences 1st Floor, Stadium Commerce College Road, Navrangpur",
          "addr:postcode": "380004",
          "addr:state": "Gujarat",
          "amenity": "clinic",
          "name": "Hemato-Oncology Clinic",
          "source": "OpenGovernmentData"
        }
      },
      {
        "type": "node",
        "id": 6970854205,
        "lat": 23.0309628,
        "lon": 72.561022,
        "tags": {
          "addr:district": "Ahmedabad",
          "addr:full": "OppositeSardar Patel Seva Samaj Hall , In Lane Opp Navrang Pura",
          "addr:postcode": "380001",
          "addr:state": "Gujarat",
          "amenity": "hospital",
          "name": "Navneet Memorial Hospital",
          "source": "OpenGovernmentData"
        }
      },
      {
        "type": "node",
        "id": 6971932520,
        "lat": 23.0328801,
        "lon": 72.5554597,
        "tags": {
          "addr:district": "Ahmedabad",
          "addr:full": "101, White Cross, 15, Patel Society, Gulbai Tekra",
          "addr:postcode": "380009",
          "addr:state": "Gujarat",
          "amenity": "hospital",
          "email": "amdavad@newvisionindia.com",
          "healthcare:speciality": "Eye Care",
          "name": "Centre For Sight, Ahmedabad",
          "operator:type": "private",
          "source": "OpenGovernmentData",
          "website": "https://www.centreforsight.net/"
        }
      },
      {
        "type": "node",
        "id": 6972590229,
        "lat": 23.0381253,
        "lon": 72.5591853,
        "tags": {
          "addr:district": "Ahmedabad",
          "addr:full": "Third Floor, Shashwat Complex, Naranpura Char Rasta",
          "addr:postcode": "380013",
          "addr:state": "Gujarat",
          "amenity": "hospital",
          "name": "Hari Urosurgical Hospital and Andrology Centre",
          "source": "OpenGovernmentData"
        }
      },
      {
        "type": "node",
        "id": 6973933639,
        "lat": 23.0402999,
        "lon": 72.5583807,
        "tags": {
          "addr:district": "Ahmedabad",
          "addr:full": "Second Floor, Near Sopan Flats, Navrangpura",
          "addr:postcode": "380009",
          "addr:state": "Gujarat",
          "amenity": "clinic",
          "name": "Samdev Urology and Surgery Clinic",
          "source": "OpenGovernmentData"
        }
      },
      {
        "type": "node",
        "id": 6973933640,
        "lat": 23.0385165,
        "lon": 72.5585751,
        "tags": {
          "addr:district": "Ahmedabad",
          "addr:full": "108, Swastik Society",
          "addr:postcode": "380009",
          "addr:state": "Gujarat",
          "addr:subdistrict": "Navrangpura",
          "amenity": "clinic",
          "name": "Nova Pulse Ivf Clinic Ahmedabad Pvt.Ltd.",
          "operator:type": "private",
          "source": "OpenGovernmentData",
          "website": "https://www.novaivifertility.com/"
        }
      },
      {
        "type": "node",
        "id": 6975737976,
        "lat": 23.0403424,
        "lon": 72.5532469,
        "tags": {
          "addr:district": "Ahmedabad",
          "addr:full": "4Th Floor,Dolly Complex,Near Vipul Dudhiya,Stadium Cross Roads",
          "addr:postcode": "380009",
          "addr:state": "Gujarat",
          "amenity": "hospital",
          "healthcare": "hospital",
          "name": "Sahjanand Eye Care Hospital",
          "source": "OpenGovernmentData"
        }
      },
      {
        "type": "node",
        "id": 6975737981,
        "lat": 23.0328949,
        "lon": 72.5553042,
        "tags": {
          "addr:district": "Ahmedabad",
          "addr:full": "4Th Floor,Gala Business Centre,St. Xavier's College Corner,Near Hotel Klassic Gold,Sardar Patel Nagar Road,Navrangpura",
          "addr:postcode": "380006",
          "addr:state": "Gujarat",
          "amenity": "hospital",
          "name": "Maniar Hospital",
          "source": "OpenGovernmentData"
        }
      },
      {
        "type": "node",
        "id": 6976489896,
        "lat": 23.0397778,
        "lon": 72.5661081,
        "tags": {
          "addr:district": "Ahmedabad",
          "addr:full": "B-104, Angel Complex, Near Stadium Five Roads",
          "addr:postcode": "380014",
          "addr:state": "Gujarat",
          "amenity": "clinic",
          "name": "Pankit Nursing Home",
          "source": "OpenGovernmentData"
        }
      },
      {
        "type": "node",
        "id": 6976524012,
        "lat": 23.0315465,
        "lon": 72.5653041,
        "tags": {
          "addr:district": "Ahmedabad",
          "addr:full": "7, Rashmi Society, Mithakhali, Navrangpura",
          "addr:postcode": "380009",
          "addr:state": "Gujarat",
          "amenity": "clinic",
          "name": "Dr. Rajendra C. Patel Orthopaedic Nursing Home",
          "source": "OpenGovernmentData"
        }
      },
      {
        "type": "node",
        "id": 6978013050,
        "lat": 23.0354102,
        "lon": 72.5594562,
        "tags": {
          "addr:district": "Ahmedabad",
          "addr:full": "Anamay Building, Near Hotel President,Swastik Char Rasta,C.G.Road,Navrangpura",
          "addr:postcode": "380009",
          "addr:state": "Gujarat",
          "amenity": "hospital",
          "name": "Super Surgical Hospital, Ahmedabad",
          "source": "OpenGovernmentData"
        }
      },
      {
        "type": "node",
        "id": 6978995195,
        "lat": 23.0411786,
        "lon": 72.5621706,
        "tags": {
          "addr:district": "Ahmedabad",
          "addr:full": "45, Hindu Colony, Nr Stadium Circle, Navrangura",
          "addr:postcode": "380009",
          "addr:state": "Gujarat",
          "amenity": "hospital",
          "name": "Pramukh Neurosurgical Hosptial",
          "source": "OpenGovernmentData"
        }
      },
      {
        "type": "node",
        "id": 6979320336,
        "lat": 23.0402678,
        "lon": 72.5659271,
        "tags": {
          "addr:district": "Ahmedabad",
          "addr:full": "Blue Star Complex, Near Income Tax Railway Under Bridge",
          "addr:postcode": "380014",
          "addr:state": "Gujarat",
          "amenity": "hospital",
          "name": "Brain and Spine Hospital",
          "source": "OpenGovernmentData"
        }
      },
      {
        "type": "node",
        "id": 6979940478,
        "lat": 23.0379772,
        "lon": 72.5595984,
        "tags": {
          "addr:district": "Ahmedabad",
          "addr:full": "Silver Spring, B/H Xavier's Ladies Hostel, Navrangpuram",
          "addr:postcode": "380009",
          "addr:state": "Gujarat",
          "amenity": "hospital",
          "name": "The Holistic Medical Centre Ayulink Ayurveda Hospital",
          "source": "OpenGovernmentData"
        }
      },
      {
        "type": "node",
        "id": 6981571792,
        "lat": 23.0416302,
        "lon": 72.5542541,
        "tags": {
          "addr:district": "Ahmedabad",
          "addr:full": "5 Subhash Society, Behind Ishwar Bhuvan, Near H.L. Commerce College Six Roads, Navrangpura",
          "addr:postcode": "380009",
          "addr:state": "Gujarat",
          "amenity": "clinic",
          "name": "Banker`S Retina Clinic and Laser Centre",
          "source": "OpenGovernmentData"
        }
      },
      {
        "type": "node",
        "id": 6981681464,
        "lat": 23.0355015,
        "lon": 72.5694904,
        "tags": {
          "addr:district": "Ahmedabad",
          "addr:full": "CGHS Dispensary No.3, 1, Jeevan PrakashSociety, Darpan Six Roads, Near St.Xaviers School Road, Navrangpura",
          "addr:postcode": "380014",
          "addr:state": "Gujarat",
          "amenity": "clinic",
          "contact:phone": "7926430021",
          "health_facility:type": "dispensary",
          "healthcare": "centre",
          "name": "CGHS Dispensary No.3",
          "operator:type": "government",
          "source": "OpenGovernmentData",
          "website": "http://nb.bsf.gov.in/CGHS%20DIspenseries.pdf"
        }
      },
      {
        "type": "node",
        "id": 6981802923,
        "lat": 23.0421276,
        "lon": 72.5592698,
        "tags": {
          "addr:district": "Ahmedabad",
          "addr:full": "Near Somlalit School, Behind Hindu Colony, Stadium,Navrangpura",
          "addr:postcode": "380009",
          "addr:state": "Gujarat",
          "amenity": "hospital",
          "name": "Jaju Plastic Surgery Center",
          "source": "OpenGovernmentData"
        }
      },
      {
        "type": "node",
        "id": 6981984553,
        "lat": 23.0288615,
        "lon": 72.5642949,
        "tags": {
          "addr:district": "Ahmedabad",
          "addr:full": "1, Maharastra Society, Mithakhali Six Road",
          "addr:postcode": "380006",
          "addr:state": "Gujarat",
          "addr:subdistrict": "Ellisbridge",
          "amenity": "hospital",
          "contact:mobile": "90996 12345",
          "email": "info.ao@hcgel.com",
          "name": "HCG Multi Specialty Hospital",
          "operator:type": "private",
          "source": "OpenGovernmentData",
          "website": "https://www.hcghospitals.in/"
        }
      },
      {
        "type": "node",
        "id": 6982031216,
        "lat": 23.0364864,
        "lon": 72.5696392,
        "tags": {
          "addr:district": "Ahmedabad",
          "addr:full": "Off'ashram Road,Near Kandoibhogilal Mulchand,Dinesh Hall Navrangpura",
          "addr:postcode": "380009",
          "addr:state": "Gujarat",
          "amenity": "hospital",
          "name": "Sukhmani Hospital / Saviour Annexe Hospital",
          "source": "OpenGovernmentData"
        }
      },
      {
        "type": "node",
        "id": 6982092139,
        "lat": 23.0288813,
        "lon": 72.5643083,
        "tags": {
          "addr:district": "Ahmedabad",
          "addr:full": "# 1, Maharastra Soc. , Near Mithakhali Six Road,Ellisrbridge",
          "addr:postcode": "380006",
          "addr:state": "Gujarat",
          "amenity": "hospital",
          "name": "Hcg Medi-Surge Hospitals Private Limited",
          "source": "OpenGovernmentData"
        }
      },
      {
        "type": "node",
        "id": 6983294306,
        "lat": 23.0376687,
        "lon": 72.5652552,
        "tags": {
          "addr:district": "Ahmedabad",
          "addr:full": "304, Narayan Complex, Opp,Havmor Restaurant Near Navrangpura",
          "addr:postcode": "380009",
          "addr:state": "Gujarat",
          "amenity": "doctors",
          "name": "Dr. Suresh K. Bhanshali",
          "source": "OpenGovernmentData"
        }
      },
      {
        "type": "node",
        "id": 6983683410,
        "lat": 23.0405319,
        "lon": 72.5581983,
        "tags": {
          "addr:district": "Ahmedabad",
          "addr:full": "Near Sopan Flats On Stadium Circle To Commerce College Six Road Navrangpura",
          "addr:postcode": "380009",
          "addr:state": "Gujarat",
          "amenity": "hospital",
          "name": "Samved Orthopaedic Hospital, Ahmedabad",
          "source": "OpenGovernmentData"
        }
      },
      {
        "type": "node",
        "id": 6983693366,
        "lat": 23.0377477,
        "lon": 72.5625488,
        "tags": {
          "addr:district": "Ahmedabad",
          "addr:full": "Umalaya, Swastic Society, Navrangpura",
          "addr:postcode": "380009",
          "addr:state": "Gujarat",
          "amenity": "clinic",
          "name": "Dr. Devendra Patel Nursing Home",
          "source": "OpenGovernmentData"
        }
      },
      {
        "type": "node",
        "id": 6983723687,
        "lat": 23.0403048,
        "lon": 72.5543117,
        "tags": {
          "addr:district": "Ahmedabad",
          "addr:full": "405 Swapneel-5,H.L.Commerce College Circle, Navrangpura",
          "addr:postcode": "380009",
          "addr:state": "Gujarat",
          "amenity": "hospital",
          "contact:mobile": "9898382799",
          "healthcare": "hospital",
          "name": "Cheers Interventional Pain Management Hospital",
          "source": "OpenGovernmentData"
        }
      },
      {
        "type": "node",
        "id": 6986477087,
        "lat": 23.0402147,
        "lon": 72.5598545,
        "tags": {
          "addr:district": "Ahmedabad",
          "addr:full": "2nd Floor, Vedanta, Stadium Commerce College Road, Navrangpura",
          "addr:postcode": "380009",
          "addr:state": "Gujarat",
          "amenity": "hospital",
          "name": "Vedanta Institute Of Medical Sciences Hospital",
          "source": "OpenGovernmentData"
        }
      },
      {
        "type": "node",
        "id": 6989177912,
        "lat": 23.0429384,
        "lon": 72.5579488,
        "tags": {
          "addr:district": "Ahmedabad",
          "addr:full": "302 Zodiac Plaza, St. Xavier`S College Corner, Hl Commerce College Road, Navrangpura",
          "addr:postcode": "380009",
          "addr:state": "Gujarat",
          "amenity": "clinic",
          "name": "Rangshree Clinic",
          "source": "OpenGovernmentData"
        }
      },
      {
        "type": "node",
        "id": 6991207885,
        "lat": 23.0396353,
        "lon": 72.5659411,
        "tags": {
          "addr:district": "Ahmedabad",
          "addr:full": "1st Floor, Near Collegian Restaurant, Near Doctor House, Parimal Crossing",
          "addr:postcode": "380006",
          "addr:state": "Gujarat",
          "amenity": "hospital",
          "name": "Kavit Urosurgical Hospital",
          "source": "OpenGovernmentData"
        }
      },
      {
        "type": "node",
        "id": 8039346176,
        "lat": 23.0360509,
        "lon": 72.5611735,
        "tags": {
          "addr:city": "Ahmedabad",
          "addr:country": "IN",
          "addr:housenumber": "1",
          "addr:postcode": "380009",
          "addr:street": "Swastik Cross Road /Swastik Society Road / Swastik X Road",
          "air_conditioning": "yes",
          "amenity": "cafe",
          "capacity": "50",
          "cuisine": "pizza;coffee_shop;sandwich;italian;ice_cream;regional;mexican",
          "delivery": "yes",
          "description": "Freshly Brewed Coffee and delicious food",
          "email": "coffeestandbbc@gmail.com",
          "internet_access": "wlan",
          "internet_access:fee": "customers",
          "level": "2",
          "name": "Coffee Stand-CG Road",
          "opening_hours": "24/7",
          "outdoor_seating": "yes",
          "payment:american_express": "yes",
          "payment:cards": "yes",
          "payment:cash": "yes",
          "payment:coins": "yes",
          "payment:contactless": "yes",
          "payment:debit_cards": "yes",
          "payment:maestro": "yes",
          "payment:mastercard": "yes",
          "payment:visa": "yes",
          "phone": "+919726323358",
          "takeaway": "yes"
        }
      },
      {
        "type": "node",
        "id": 9318813907,
        "lat": 23.0276271,
        "lon": 72.5588748,
        "tags": {
          "address": "Ground Floor 1, P 2 HUB Opposite National Handloom, Law Garden Road, Off, Chimanlal Girdharlal Rd, Ahmedabad, Gujarat 380006",
          "amenity": "fast_food",
          "cuisine": "pizza",
          "name": "Puffiza",
          "opening_hours": "Mo-Su 11:00-22:00",
          "phone": "079 4039 5555",
          "website": "https://puffiza.com"
        }
      },
      {
        "type": "node",
        "id": 9348528050,
        "lat": 23.0322805,
        "lon": 72.5551823,
        "tags": {
          "addr:city": "Ahmedabad",
          "addr:housenumber": "Ground Floor, Vaibhav Flats,",
          "addr:postcode": "380009",
          "addr:street": "H.L Commerce College Rd, Navrangpara",
          "amenity": "restaurant",
          "brand": "The Waffling Station",
          "cuisine": "dessert;waffles;shakes;cold_coffee",
          "diet:vegetarian": "yes",
          "name": "The Waffling Station",
          "opening_hours": "Mo-Su 12:00-00:00",
          "phone": "+919725035686",
          "website": "https://thewafflingstation.com/"
        }
      },
      {
        "type": "node",
        "id": 9878358235,
        "lat": 23.0396084,
        "lon": 72.5644073,
        "tags": {
          "addr:street": "Navrangpura",
          "amenity": "restaurant",
          "description": "daskhamanhouse@yahoo.com",
          "name": "The House of Khaman",
          "opening_hours": "Mo-Su 08:30-21:30",
          "phone": "+91 88660 79988",
          "website": "http://daskhaman.com"
        }
      },
      {
        "type": "node",
        "id": 10172958942,
        "lat": 23.036498,
        "lon": 72.5696194,
        "tags": {
          "addr:city": "Ahmedabad",
          "amenity": "hospital",
          "healthcare": "hospital",
          "name": "Sukhmani hospital"
        }
      }
    ]
  },
  "pois_2_5km": {
    "version": 0.6,
    "generator": "Overpass API 0.7.62.8 e802775f",
    "osm3s": {
      "timestamp_osm_base": "2025-09-07T12:05:15Z",
      "copyright": "The data included in this document is from www.openstreetmap.org. The data is made available under ODbL."
    },
    "elements": [
      {
        "type": "node",
        "id": 429460556,
        "lat": 23.0241439,
        "lon": 72.5804883,
        "tags": {
          "bus": "yes",
          "public_transport": "stop_position"
        }
      },
      {
        "type": "node",
        "id": 1782729611,
        "lat": 23.0268403,
        "lon": 72.5806381,
        "tags": {
          "bus": "yes",
          "public_transport": "stop_position"
        }
      },
      {
        "type": "node",
        "id": 3306683587,
        "lat": 23.0282432,
        "lon": 72.5814362,
        "tags": {
          "bus": "yes",
          "public_transport": "stop_position"
        }
      },
      {
        "type": "node",
        "id": 3306683590,
        "lat": 23.0326462,
        "lon": 72.5701007,
        "tags": {
          "bus": "yes",
          "public_transport": "stop_position"
        }
      },
      {
        "type": "node",
        "id": 3306683591,
        "lat": 23.0338698,
        "lon": 72.5695244,
        "tags": {
          "bus": "yes",
          "public_transport": "stop_position"
        }
      },
      {
        "type": "node",
        "id": 3306683598,
        "lat": 23.035934,
        "lon": 72.568865,
        "tags": {
          "bus": "yes",
          "public_transport": "stop_position"
        }
      },
      {
        "type": "node",
        "id": 3306683627,
        "lat": 23.0423375,
        "lon": 72.5695809,
        "tags": {
          "bus": "yes",
          "public_transport": "stop_position"
        }
      },
      {
        "type": "node",
        "id": 3306683628,
        "lat": 23.0433539,
        "lon": 72.5697209,
        "tags": {
          "bus": "yes",
          "public_transport": "stop_position"
        }
      },
      {
        "type": "node",
        "id": 3355794772,
        "lat": 23.0241902,
        "lon": 72.5785562,
        "tags": {
          "amenity": "bus_station",
          "bus": "yes",
          "name": "Lal Darwaja AMTS Bus Stop",
          "operator": "Ahmedabad Municipal Transport Service",
          "public_transport": "station",
          "wikidata": "Q4696119",
          "wikipedia": "en:Ahmedabad Municipal Transport Service"
        }
      },
      {
        "type": "node",
        "id": 4326504193,
        "lat": 23.0135186,
        "lon": 72.5644029,
        "tags": {
          "addr:street": "Ashram Road",
          "amenity": "fuel",
          "name": "CNG Adani"
        }
      },
      {
        "type": "node",
        "id": 4483474713,
        "lat": 23.0400891,
        "lon": 72.5781297,
        "tags": {
          "addr:street": "Kasturba Gandhi Road",
          "amenity": "fuel",
          "name": "CNG Bharat petroleum"
        }
      },
      {
        "type": "node",
        "id": 5527662484,
        "lat": 23.0140063,
        "lon": 72.5658082,
        "tags": {
          "amenity": "fuel",
          "brand": "Bharat Petroleum"
        }
      },
      {
        "type": "node",
        "id": 5622701067,
        "lat": 23.0375426,
        "lon": 72.5670608,
        "tags": {
          "name": "Old High Court",
          "public_transport": "stop_position",
          "railway": "stop",
          "subway": "yes"
        }
      },
      {
        "type": "node",
        "id": 5622701075,
        "lat": 23.040679,
        "lon": 72.5530608,
        "tags": {
          "name": "Commerce Six Roads",
          "public_transport": "stop_position",
          "railway": "stop",
          "subway": "yes"
        }
      },
      {
        "type": "node",
        "id": 5622776290,
        "lat": 23.0564338,
        "lon": 72.5622541,
        "tags": {
          "name": "Vijay Nagar",
          "public_transport": "stop_position",
          "railway": "stop",
          "subway": "yes"
        }
      },
      {
        "type": "node",
        "id": 7944287421,
        "lat": 23.0392105,
        "lon": 72.5810327,
        "tags": {
          "name": "Shahpur Station",
          "name:gu": "\u0ab6\u0abe\u0ab9\u0aaa\u0ac1\u0ab0",
          "public_transport": "station",
          "railway": "station",
          "station": "subway",
          "subway": "yes"
        }
      },
      {
        "type": "node",
        "id": 10076565224,
        "lat": 23.0392509,
        "lon": 72.5810332,
        "tags": {
          "name": "Shahpur Station",
          "public_transport": "stop_position",
          "railway": "stop",
          "subway": "yes"
        }
      },
      {
        "type": "node",
        "id": 10076565225,
        "lat": 23.0391575,
        "lon": 72.5810285,
        "tags": {
          "name": "Shahpur Station",
          "public_transport": "stop_position",
          "railway": "stop",
          "subway": "yes"
        }
      },
      {
        "type": "node",
        "id": 10076565256,
        "lat": 23.0375956,
        "lon": 72.5670605,
        "tags": {
          "name": "Old High Court",
          "public_transport": "stop_position",
          "railway": "stop",
          "subway": "yes"
        }
      },
      {
        "type": "node",
        "id": 10076565279,
        "lat": 23.0398916,
        "lon": 72.5616387,
        "tags": {
          "name": "Stadium",
          "name:gu": "\u0ab8\u0acd\u0a9f\u0ac7\u0aa1\u0abf\u0aaf\u0aae",
          "public_transport": "stop_position",
          "railway": "stop",
          "subway": "yes"
        }
      },
      {
        "type": "node",
        "id": 10076565280,
        "lat": 23.0398351,
        "lon": 72.5616387,
        "tags": {
          "name": "Stadium",
          "name:gu": "\u0ab8\u0acd\u0a9f\u0ac7\u0aa1\u0abf\u0aaf\u0aae",
          "public_transport": "stop_position",
          "railway": "stop",
          "subway": "yes"
        }
      },
      {
        "type": "node",
        "id": 10076565295,
        "lat": 23.0407242,
        "lon": 72.5530873,
        "tags": {
          "name": "Commerce Six Roads",
          "public_transport": "stop_position",
          "railway": "stop",
          "subway": "yes"
        }
      },
      {
        "type": "node",
        "id": 10076565314,
        "lat": 23.0448371,
        "lon": 72.5435125,
        "tags": {
          "name": "Gujarat University Station",
          "public_transport": "stop_position",
          "railway": "stop",
          "subway": "yes"
        }
      },
      {
        "type": "node",
        "id": 10076565315,
        "lat": 23.0448892,
        "lon": 72.5435282,
        "tags": {
          "name": "Gujarat University Station",
          "public_transport": "stop_position",
          "railway": "stop",
          "subway": "yes"
        }
      },
      {
        "type": "node",
        "id": 10076616710,
        "lat": 23.0271728,
        "lon": 72.5688973,
        "tags": {
          "name": "Gandhigram",
          "public_transport": "stop_position",
          "railway": "stop",
          "subway": "yes"
        }
      },
      {
        "type": "node",
        "id": 10076616711,
        "lat": 23.0271754,
        "lon": 72.5688202,
        "tags": {
          "name": "Gandhigram",
          "public_transport": "stop_position",
          "railway": "stop",
          "subway": "yes"
        }
      },
      {
        "type": "node",
        "id": 10076616748,
        "lat": 23.0564531,
        "lon": 72.5623294,
        "tags": {
          "name": "Vijay Nagar",
          "public_transport": "stop_position",
          "railway": "stop",
          "subway": "yes"
        }
      },
      {
        "type": "node",
        "id": 10076616753,
        "lat": 23.0459092,
        "lon": 72.564927,
        "tags": {
          "name": "Usmanpura",
          "public_transport": "stop_position",
          "railway": "stop",
          "subway": "yes"
        }
      },
      {
        "type": "node",
        "id": 10076616754,
        "lat": 23.045936,
        "lon": 72.5649953,
        "tags": {
          "name": "Usmanpura",
          "public_transport": "stop_position",
          "railway": "stop",
          "subway": "yes"
        }
      },
      {
        "type": "node",
        "id": 10076616759,
        "lat": 23.0374805,
        "lon": 72.5670541,
        "tags": {
          "name": "Old High Court",
          "public_transport": "stop_position",
          "railway": "stop",
          "subway": "yes"
        }
      },
      {
        "type": "node",
        "id": 10076616764,
        "lat": 23.0374696,
        "lon": 72.5668751,
        "tags": {
          "name": "Old High Court",
          "public_transport": "stop_position",
          "railway": "stop",
          "subway": "yes"
        }
      },
      {
        "type": "node",
        "id": 10076859848,
        "lat": 23.0185472,
        "lon": 72.5623281,
        "tags": {
          "name": "Paldi",
          "public_transport": "stop_position",
          "railway": "stop",
          "subway": "yes"
        }
      },
      {
        "type": "node",
        "id": 10076859849,
        "lat": 23.0184541,
        "lon": 72.5623806,
        "tags": {
          "name": "Paldi",
          "public_transport": "stop_position",
          "railway": "stop",
          "subway": "yes"
        }
      },
      {
        "type": "node",
        "id": 12526081066,
        "lat": 23.0575051,
        "lon": 72.5562557,
        "tags": {
          "amenity": "fuel",
          "brand": "Indian Oil",
          "brand:wikidata": "Q1289348",
          "name": "Indian Oil"
        }
      }
    ]
  }
}