{
  "pois_1km": {
    "version": 0.6,
    "generator": "Overpass API 0.7.62.8 e802775f",
    "osm3s": {
      "timestamp_osm_base": "2025-09-07T12:17:28Z",
      "copyright": "The data included in this document is from www.openstreetmap.org. The data is made available under ODbL."
    },
    "elements": [
      {
        "type": "node",
        "id": 4746799624,
        "lat": 23.0300762,
        "lon": 72.5287891,
        "tags": {
          "addr:city": "Ahmedabad",
          "addr:housenumber": "103 Shivalik High STreet, Between Keshavbaug - Mansi Circle",
          "addr:postcode": "380015",
          "addr:street": "Judges Bungalow Road",
          "amenity": "hospital",
          "name": "Excel Eye Care",
          "operator": "Dr Jayesh Vazirani"
        }
      },
      {
        "type": "node",
        "id": 5140818187,
        "lat": 23.0398379,
        "lon": 72.5276503,
        "tags": {
          "amenity": "fast_food",
          "delivery": "no",
          "drive_through": "no",
          "name": "Iscon Ghantiya",
          "outdoor_seating": "no",
          "smoking": "no",
          "takeaway": "yes"
        }
      },
      {
        "type": "node",
        "id": 6970039123,
        "lat": 23.0363111,
        "lon": 72.5325295,
        "tags": {
          "addr:district": "Amreli",
          "addr:full": "2, Chaitanya Society, Opp. IIM New Gate, Vastrapur",
          "addr:postcode": "380015",
          "addr:state": "Gujarat",
          "amenity": "hospital",
          "name": "Shivam Orthopaedic and Gynec Hospital",
          "source": "OpenGovernmentData"
        }
      },
      {
        "type": "node",
        "id": 6970101822,
        "lat": 23.0324778,
        "lon": 72.5245567,
        "tags": {
          "addr:district": "Ahmedabad",
          "addr:full": "A-405, Milenium Plaza, Opposite Swaminarayan Temple, Judges Banglow Road, Vastrapur",
          "addr:postcode": "380015",
          "addr:state": "Gujarat",
          "amenity": "hospital",
          "healthcare": "hospital",
          "name": "Aakshardeep Eye Hospital",
          "source": "OpenGovernmentData"
        }
      },
      {
        "type": "node",
        "id": 6972593093,
        "lat": 23.0371812,
        "lon": 72.522199,
        "tags": {
          "addr:district": "Ahmedabad",
          "addr:full": "49-A, Lad Society ,Sandesh Press Road, Bodakdev",
          "addr:postcode": "380054",
          "addr:state": "Gujarat",
          "amenity": "hospital",
          "name": "Avataran Eye Hospital and Oculoplasty Clinic",
          "source": "OpenGovernmentData"
        }
      },
      {
        "type": "node",
        "id": 6972593094,
        "lat": 23.0311411,
        "lon": 72.5271638,
        "tags": {
          "addr:district": "Ahmedabad",
          "addr:full": "96,Nalanda Complex,Vastrapur",
          "addr:postcode": "382418",
          "addr:state": "Gujarat",
          "amenity": "hospital",
          "contact:phone": "26751386",
          "name": "Akshay Heart and Medical Hospital",
          "source": "OpenGovernmentData"
        }
      },
      {
        "type": "node",
        "id": 6974588378,
        "lat": 23.0405047,
        "lon": 72.5211865,
        "tags": {
          "addr:district": "Ahmedabad",
          "addr:full": "7, Platinum Plaza ( Ground Floor ), Judges`S Bunglow Road, Opp Ioc Petrol Pump",
          "addr:postcode": "380054",
          "addr:state": "Gujarat",
          "amenity": "hospital",
          "name": "Arthro Care Hospital",
          "source": "OpenGovernmentData"
        }
      },
      {
        "type": "node",
        "id": 6974893894,
        "lat": 23.0344821,
        "lon": 72.5212294,
        "tags": {
          "addr:district": "Ahmedabad",
          "addr:full": "U- 14, Akshardham Complex Near Premchand Nagar Bus Stand, Judges Bunglaw Road, Bodakdev",
          "addr:postcode": "380054",
          "addr:state": "Gujarat",
          "amenity": "clinic",
          "contact:mobile": "9824093149",
          "healthcare": "clinic",
          "name": "Vatsalya Maternity Nursing Home",
          "source": "OpenGovernmentData"
        }
      },
      {
        "type": "node",
        "id": 6975854570,
        "lat": 23.0371183,
        "lon": 72.5290078,
        "tags": {
          "addr:district": "Ahmedabad",
          "addr:full": "A/405-406, Himalaya Arcade, Opposite Vastrapur Lake, Vastrapur",
          "addr:postcode": "380015",
          "addr:state": "Gujarat",
          "amenity": "hospital",
          "name": "Aashwi E.N.T.Hospital",
          "operator:type": "private",
          "source": "OpenGovernmentData",
          "website": "https://aashwient.com/"
        }
      },
      {
        "type": "node",
        "id": 6981937281,
        "lat": 23.0318187,
        "lon": 72.5260091,
        "tags": {
          "addr:district": "Ahmedabad",
          "addr:full": "29/30, Mansi Complex.B, Premchand Nagar Road, Vastrapur",
          "addr:postcode": "380015",
          "addr:state": "Gujarat",
          "amenity": "hospital",
          "contact:phone": "7926753892; 26763777",
          "name": "Rosemaarry Womens Hospital",
          "source": "OpenGovernmentData"
        }
      },
      {
        "type": "node",
        "id": 6982092223,
        "lat": 23.0369328,
        "lon": 72.5273097,
        "tags": {
          "addr:district": "Ahmedabad",
          "addr:full": "24, Himalay Complex Nehru Park Vastrapur",
          "addr:postcode": "380015",
          "addr:state": "Gujarat",
          "amenity": "hospital",
          "name": "Ashish Orthopaedic Hospital, Ahmedabad",
          "source": "OpenGovernmentData"
        }
      },
      {
        "type": "node",
        "id": 6982197103,
        "lat": 23.036039,
        "lon": 72.5174716,
        "tags": {
          "addr:district": "Ahmedabad",
          "addr:full": "2nd and 3Road Floor Polyclinic Center, Opp Chiefjustic , Judges Bungalows Cross Road Vastrapur",
          "addr:postcode": "380015",
          "addr:state": "Gujarat",
          "amenity": "hospital",
          "contact:mobile": "9825020080",
          "healthcare": "hospital",
          "name": "Raksha Hospital Pvt Ltd",
          "source": "OpenGovernmentData"
        }
      },
      {
        "type": "node",
        "id": 6988501343,
        "lat": 23.0280247,
        "lon": 72.5263859,
        "tags": {
          "addr:district": "Ahmedabad",
          "addr:full": "Nr:Gurukrupa School,Ramrol Road",
          "addr:postcode": "380008",
          "addr:state": "Gujarat",
          "amenity": "clinic",
          "healthcare": "clinic",
          "name": "Netr-The Eye Care Clinic, Ahmedabad",
          "source": "OpenGovernmentData"
        }
      },
      {
        "type": "node",
        "id": 7864133785,
        "lat": 23.031238,
        "lon": 72.527118,
        "tags": {
          "addr:district": "Ahmedabad",
          "addr:full": "Satellite",
          "addr:postcode": "380015",
          "addr:state": "Gujarat",
          "amenity": "doctors",
          "name": "Dr. Shailesh Jain",
          "source": "Local Knowledge"
        }
      },
      {
        "type": "node",
        "id": 7864133804,
        "lat": 23.0323612,
        "lon": 72.5247419,
        "tags": {
          "addr:district": "Ahmedabad",
          "addr:postcode": "380015",
          "addr:state": "Gujarat",
          "amenity": "hospital",
          "healthcare": "hospital",
          "name": "Tender Touch Children's Hospital",
          "source": "Local Knowledge"
        }
      },
      {
        "type": "node",
        "id": 7864133820,
        "lat": 23.0310152,
        "lon": 72.5257914,
        "tags": {
          "addr:district": "Ahmedabad",
          "addr:postcode": "380015",
          "addr:state": "Gujarat",
          "amenity": "hospital",
          "healthcare": "hospital",
          "name": "Devi Hospital",
          "source": "Local Knowledge"
        }
      },
      {
        "type": "node",
        "id": 7864133843,
        "lat": 23.0405865,
        "lon": 72.5264512,
        "tags": {
          "addr:district": "Ahmedabad",
          "addr:full": "Vastrapur",
          "addr:postcode": "380015",
          "addr:state": "Gujarat",
          "amenity": "hospital",
          "name": "Brinda Women's Hospital",
          "source": "Local Knowledge"
        }
      },
      {
        "type": "node",
        "id": 7864133850,
        "lat": 23.040905,
        "lon": 72.526418,
        "tags": {
          "addr:district": "Ahmedabad",
          "addr:full": "Vastrapur",
          "addr:postcode": "380015",
          "addr:state": "Gujarat",
          "amenity": "hospital",
          "name": "Shri Gordhandas Charitable Hospital",
          "source": "Local Knowledge"
        }
      },
      {
        "type": "node",
        "id": 9287451026,
        "lat": 23.0371443,
        "lon": 72.5290405,
        "tags": {
          "addr:housenumber": "Himalaya Arcade B",
          "addr:street": "Sargam Marg, Nehru Park Cir, Mahavir Nagar society, Vastrapur, Ahmedabad, Gujarat 380015",
          "amenity": "fast_food",
          "name": "Shreeji Krupa Bombay Vadapav"
        }
      },
      {
        "type": "node",
        "id": 9296316189,
        "lat": 23.0371776,
        "lon": 72.5291086,
        "tags": {
          "addr:housenumber": "Himalaya Arcade B",
          "addr:street": "Sargam Marg, Nehru Park Cir, Mahavir Nagar society, Vastrapur, Ahmedabad, Gujarat 380015",
          "amenity": "fast_food",
          "name": "Gajanand Pauva House",
          "opening_hours": "Mo-Su 04:30-23:30"
        }
      },
      {
        "type": "node",
        "id": 9296318313,
        "lat": 23.0371316,
        "lon": 72.5290981,
        "tags": {
          "addr:housenumber": "Himalaya Arcade B",
          "addr:street": "Sargam Marg, Nehru Park Cir, Mahavir Nagar society, Vastrapur, Ahmedabad, Gujarat 380015",
          "amenity": "fast_food",
          "description": "Chole Puri, Parathas, Thepla, Pulav",
          "name": "Jay Mataji Fast Food",
          "opening_hours": "Mo-Su 08:00-21:00",
          "phone": "+919377080380"
        }
      },
      {
        "type": "node",
        "id": 10172958948,
        "lat": 23.0318655,
        "lon": 72.5259992,
        "tags": {
          "addr:city": "Ahmedabad",
          "amenity": "hospital",
          "healthcare": "hospital",
          "name": "Rosemary Womens Hospital"
        }
      },
      {
        "type": "node",
        "id": 10172958949,
        "lat": 23.0311855,
        "lon": 72.5271428,
        "tags": {
          "addr:city": "Ahmedabad",
          "amenity": "hospital",
          "healthcare": "hospital",
          "name": "Akshay Heart and Medical Hospital"
        }
      },
      {
        "type": "node",
        "id": 10750415881,
        "lat": 23.0410761,
        "lon": 72.5269272,
        "tags": {
          "amenity": "cafe",
          "name": "Choco drama"
        }
      },
      {
        "type": "node",
        "id": 10750415883,
        "lat": 23.040802,
        "lon": 72.5256771,
        "tags": {
          "name": "market",
          "shop": "supermarket"
        }
      },
      {
        "type": "node",
        "id": 10750415884,
        "lat": 23.040704,
        "lon": 72.528048,
        "tags": {
          "leisure": "park",
          "name": "park"
        }
      },
      {
        "type": "node",
        "id": 10750415885,
        "lat": 23.0407863,
        "lon": 72.5275081,
        "tags": {
          "amenity": "fast_food",
          "name": "leela sandwich"
        }
      }
    ]
  },
  "pois_2_5km": {
    "version": 0.6,
    "generator": "Overpass API 0.7.62.8 e802775f",
    "osm3s": {
      "timestamp_osm_base": "2025-09-07T12:17:28Z",
      "copyright": "The data included in this document is from www.openstreetmap.org. The data is made available under ODbL."
    },
    "elements": [
      {
        "type": "node",
        "id": 429790303,
        "lat": 23.0245953,
        "lon": 72.5072957,
        "tags": {
          "amenity": "cinema",
          "name": "Wide Angle"
        }
      },
      {
        "type": "node",
        "id": 440320409,
        "lat": 23.0465768,
        "lon": 72.531028,
        "tags": {
          "amenity": "cinema",
          "name": "Adlabs, BIG Cinema"
        }
      },
      {
        "type": "node",
        "id": 761308175,
        "lat": 23.0156527,
        "lon": 72.5301088,
        "tags": {
          "addr:city": "Ahmedabad",
          "addr:postcode": "380015",
          "addr:street": "132 Ft. Ring Road",
          "amenity": "cinema",
          "name": "City Gold Shyamal",
          "opening_hours:covid19": "closed",
          "screen": "4"
        }
      },
      {
        "type": "node",
        "id": 1746677973,
        "lat": 23.0331106,
        "lon": 72.5139509,
        "tags": {
          "amenity": "fuel",
          "brand": "Hindustan Petroleum",
          "brand:wikidata": "Q1619375",
          "name": "HP Fuel Station",
          "official_name": "Hindustan Petroleum",
          "operator": "HP"
        }
      },
      {
        "type": "node",
        "id": 3247497622,
        "lat": 23.0490934,
        "lon": 72.5160613,
        "tags": {
          "addr:city": "Ahmedabad",
          "addr:postcode": "380054",
          "amenity": "cinema",
          "name": "PVR, acropolis mall"
        }
      },
      {
        "type": "node",
        "id": 5622701095,
        "lat": 23.04814,
        "lon": 72.5245036,
        "tags": {
          "name": "Doordarshan Kendra",
          "public_transport": "stop_position",
          "railway": "stop",
          "subway": "yes"
        }
      },
      {
        "type": "node",
        "id": 5622701102,
        "lat": 23.0497505,
        "lon": 72.5159937,
        "tags": {
          "name": "Thaltej",
          "public_transport": "stop_position",
          "railway": "stop",
          "subway": "yes"
        }
      },
      {
        "type": "node",
        "id": 9117287086,
        "lat": 23.0263829,
        "lon": 72.5097931,
        "tags": {
          "addr:level": "4",
          "amenity": "cinema",
          "name": "Mukta A2 Cinemas"
        }
      },
      {
        "type": "node",
        "id": 10076565314,
        "lat": 23.0448371,
        "lon": 72.5435125,
        "tags": {
          "name": "Gujarat University Station",
          "public_transport": "stop_position",
          "railway": "stop",
          "subway": "yes"
        }
      },
      {
        "type": "node",
        "id": 10076565315,
        "lat": 23.0448892,
        "lon": 72.5435282,
        "tags": {
          "name": "Gujarat University Station",
          "public_transport": "stop_position",
          "railway": "stop",
          "subway": "yes"
        }
      },
      {
        "type": "node",
        "id": 10076565330,
        "lat": 23.045928,
        "lon": 72.5348776,
        "tags": {
          "name": "Gurukul Road",
          "name:gu": "\u0a97\u0ac1\u0ab0\u0ac1\u0a95\u0ac1\u0ab2 \u0ab0\u0acb\u0aa1",
          "public_transport": "stop_position",
          "railway": "stop",
          "subway": "yes"
        }
      },
      {
        "type": "node",
        "id": 10076565331,
        "lat": 23.0458688,
        "lon": 72.5348755,
        "tags": {
          "name": "Gurukul Road",
          "name:gu": "\u0a97\u0ac1\u0ab0\u0ac1\u0a95\u0ac1\u0ab2 \u0ab0\u0acb\u0aa1",
          "public_transport": "stop_position",
          "railway": "stop",
          "subway": "yes"
        }
      },
      {
        "type": "node",
        "id": 10076565352,
        "lat": 23.0481838,
        "lon": 72.5245109,
        "tags": {
          "name": "Doordarshan Kendra",
          "public_transport": "stop_position",
          "railway": "stop",
          "subway": "yes"
        }
      },
      {
        "type": "node",
        "id": 10076565366,
        "lat": 23.049782,
        "lon": 72.5160136,
        "tags": {
          "name": "Thaltej",
          "public_transport": "stop_position",
          "railway": "stop",
          "subway": "yes"
        }
      },
      {
        "type": "node",
        "id": 12406995811,
        "lat": 23.049748,
        "lon": 72.5160152,
        "tags": {
          "name": "Thaltej",
          "name:gu": "\u0aa5\u0ab2\u0aa4\u0ac7\u0a9c",
          "network": "Ahmedabad Metro",
          "network:wikidata": "Q1895288",
          "operator": "Gujarat Metro Rail Corporation Limited",
          "operator:wikidata": "Q113158873",
          "operator:wikipedia": "en:Gujarat Metro Rail Corporation Limited",
          "public_transport": "station",
          "railway": "station",
          "station": "subway",
          "subway": "yes",
          "wikidata": "Q114400494"
        }
      }
    ]
  }
}