{
  "pois_1km": {
    "version": 0.6,
    "generator": "Overpass API 0.7.62.8 e802775f",
    "osm3s": {
      "timestamp_osm_base": "2025-09-07T12:11:17Z",
      "copyright": "The data included in this document is from www.openstreetmap.org. The data is made available under ODbL."
    },
    "elements": [
      {
        "type": "node",
        "id": 611572691,
        "lat": 23.0924908,
        "lon": 72.5917525,
        "tags": {
          "amenity": "hospital"
        }
      },
      {
        "type": "node",
        "id": 6970426107,
        "lat": 23.0997283,
        "lon": 72.5914751,
        "tags": {
          "addr:district": "Ahmedabad",
          "addr:full": "3Road Floor, Urja Avenue, Near Deshawar Hotel, Sabarmati, Gandhinagar Highway",
          "addr:postcode": "380005",
          "addr:state": "Gujarat",
          "amenity": "hospital",
          "name": "Om Pediatric and Neonatal Criticare Hospital",
          "source": "OpenGovernmentData"
        }
      },
      {
        "type": "node",
        "id": 7864058598,
        "lat": 23.096892,
        "lon": 72.596062,
        "tags": {
          "addr:district": "Ahmedabad",
          "addr:full": "Motera",
          "addr:postcode": "380005",
          "addr:state": "Gujarat",
          "amenity": "hospital",
          "name": "Sevak Maternity & Surgical Hospital",
          "source": "Local Knowledge"
        }
      },
      {
        "type": "node",
        "id": 7864058619,
        "lat": 23.0958571,
        "lon": 72.5958301,
        "tags": {
          "addr:district": "Ahmedabad",
          "addr:full": "Parvati Nagar, Acher",
          "addr:postcode": "380005",
          "addr:state": "Gujarat",
          "amenity": "hospital",
          "name": "Parimal Hospital",
          "source": "Local Knowledge"
        }
      },
      {
        "type": "node",
        "id": 7864058656,
        "lat": 23.092043,
        "lon": 72.591111,
        "tags": {
          "addr:district": "Ahmedabad",
          "addr:full": "Sabarmati, Ahmedabad",
          "addr:postcode": "380005",
          "addr:state": "Gujarat",
          "amenity": "hospital",
          "name": "Indus Hospital",
          "source": "Local Knowledge"
        }
      },
      {
        "type": "node",
        "id": 8138856440,
        "lat": 23.1029944,
        "lon": 72.5957915,
        "tags": {
          "addr:city": "Motera, Ahmedabad",
          "addr:housenumber": "4d Square mall",
          "addr:postcode": "380005",
          "addr:street": "Visat-Gandhinagar road",
          "name": "4D Square mall.",
          "opening_hours": "24/7",
          "operator": "4D Square mall Management",
          "shop": "mall"
        }
      },
      {
        "type": "node",
        "id": 10959640143,
        "lat": 23.1035224,
        "lon": 72.5960745,
        "tags": {
          "amenity": "restaurant",
          "name": "Subway."
        }
      },
      {
        "type": "node",
        "id": 10959699945,
        "lat": 23.1034803,
        "lon": 72.5961933,
        "tags": {
          "amenity": "restaurant",
          "name": "La Pino's Pizza."
        }
      },
      {
        "type": "node",
        "id": 10959715013,
        "lat": 23.1033646,
        "lon": 72.5961458,
        "tags": {
          "amenity": "restaurant",
          "name": "Dangee Dums"
        }
      },
      {
        "type": "node",
        "id": 10959718509,
        "lat": 23.103377,
        "lon": 72.5958266,
        "tags": {
          "amenity": "restaurant",
          "name": "La Milano Pizzeria."
        }
      },
      {
        "type": "node",
        "id": 10959725324,
        "lat": 23.102916,
        "lon": 72.5952916,
        "tags": {
          "amenity": "restaurant",
          "name": "Gwalia Sweets Private Limited"
        }
      }
    ]
  },
  "pois_2_5km": {
    "version": 0.6,
    "generator": "Overpass API 0.7.62.8 e802775f",
    "osm3s": {
      "timestamp_osm_base": "2025-09-07T12:11:17Z",
      "copyright": "The data included in this document is from www.openstreetmap.org. The data is made available under ODbL."
    },
    "elements": [
      {
        "type": "node",
        "id": 323189766,
        "lat": 23.0770712,
        "lon": 72.5890677,
        "tags": {
          "historic:ref": "SBI",
          "internet_access": "no",
          "name": "Sabarmati",
          "network": "IR",
          "operator": "WR",
          "public_transport": "station",
          "railway": "station",
          "ref": "SBIB",
          "train": "yes",
          "wikidata": "Q7395913",
          "wikipedia": "en:Sabarmati Junction railway station"
        }
      },
      {
        "type": "node",
        "id": 611572690,
        "lat": 23.0923921,
        "lon": 72.5938017,
        "tags": {
          "amenity": "cinema"
        }
      },
      {
        "type": "node",
        "id": 1349429257,
        "lat": 23.0980898,
        "lon": 72.5780885,
        "tags": {
          "internet_access": "no",
          "name": "Kali Road",
          "network": "IR",
          "operator": "WR",
          "public_transport": "station",
          "railway": "station",
          "ref": "KLRD",
          "wikidata": "Q63356483"
        }
      },
      {
        "type": "node",
        "id": 3306683647,
        "lat": 23.0788487,
        "lon": 72.6100908,
        "tags": {
          "bus": "yes",
          "public_transport": "stop_position"
        }
      },
      {
        "type": "node",
        "id": 3306683648,
        "lat": 23.0804623,
        "lon": 72.6171044,
        "tags": {
          "bus": "yes",
          "public_transport": "stop_position"
        }
      },
      {
        "type": "node",
        "id": 5622776434,
        "lat": 23.0856228,
        "lon": 72.5921818,
        "tags": {
          "name": "Sabarmati",
          "public_transport": "stop_position",
          "railway": "stop",
          "subway": "yes"
        }
      },
      {
        "type": "node",
        "id": 5622776445,
        "lat": 23.0967876,
        "lon": 72.5966689,
        "tags": {
          "name": "Motera Stadium",
          "public_transport": "stop_position",
          "railway": "stop",
          "subway": "yes"
        }
      },
      {
        "type": "node",
        "id": 6422003787,
        "lat": 23.0778134,
        "lon": 72.5885153,
        "tags": {
          "name": "Sabarmati Junction",
          "public_transport": "stop_position",
          "railway": "stop",
          "ref": "1",
          "train": "yes"
        }
      },
      {
        "type": "node",
        "id": 7707085294,
        "lat": 23.0777093,
        "lon": 72.5882396,
        "tags": {
          "name": "Sabarmati Junction",
          "public_transport": "stop_position",
          "railway": "stop",
          "ref": "1",
          "train": "yes"
        }
      },
      {
        "type": "node",
        "id": 7707519215,
        "lat": 23.0777671,
        "lon": 72.5883938,
        "tags": {
          "name": "Sabarmati Junction",
          "public_transport": "stop_position",
          "railway": "stop",
          "ref": "2",
          "train": "yes"
        }
      },
      {
        "type": "node",
        "id": 10076836152,
        "lat": 23.0967601,
        "lon": 72.5967207,
        "tags": {
          "name": "Motera Stadium",
          "public_transport": "stop_position",
          "railway": "stop",
          "subway": "yes"
        }
      },
      {
        "type": "node",
        "id": 10076836172,
        "lat": 23.0856327,
        "lon": 72.5922247,
        "tags": {
          "name": "Sabarmati",
          "public_transport": "stop_position",
          "railway": "stop",
          "subway": "yes"
        }
      },
      {
        "type": "node",
        "id": 10076836189,
        "lat": 23.0751227,
        "lon": 72.5932705,
        "tags": {
          "name": "AEC",
          "public_transport": "stop_position",
          "railway": "stop",
          "subway": "yes"
        }
      },
      {
        "type": "node",
        "id": 10076836190,
        "lat": 23.0750932,
        "lon": 72.5933161,
        "tags": {
          "name": "AEC",
          "public_transport": "stop_position",
          "railway": "stop",
          "subway": "yes"
        }
      },
      {
        "type": "node",
        "id": 10959757852,
        "lat": 23.1030557,
        "lon": 72.5958911,
        "tags": {
          "amenity": "cinema",
          "name": "PVR Motera"
        }
      },
      {
        "type": "node",
        "id": 11115121913,
        "lat": 23.1142071,
        "lon": 72.608378,
        "tags": {
          "name": "Vishwakarma College",
          "name:gu": "\u0ab5\u0abf\u0ab6\u0acd\u0ab5\u0a95\u0ab0\u0acd\u0aae\u0abe \u0a95\u0acb\u0ab2\u0ac7\u0a9c",
          "public_transport": "stop_position",
          "railway": "stop",
          "start_date": "2024-09-17",
          "subway": "yes"
        }
      },
      {
        "type": "node",
        "id": 11115121962,
        "lat": 23.114189,
        "lon": 72.6083924,
        "tags": {
          "name": "Vishwakarma College",
          "name:gu": "\u0ab5\u0abf\u0ab6\u0acd\u0ab5\u0a95\u0ab0\u0acd\u0aae\u0abe \u0a95\u0acb\u0ab2\u0ac7\u0a9c",
          "public_transport": "stop_position",
          "railway": "stop",
          "start_date": "2024-09-17",
          "subway": "yes"
        }
      },
      {
        "type": "node",
        "id": 11115121970,
        "lat": 23.1031046,
        "lon": 72.602153,
        "tags": {
          "name": "Koteshwar Road",
          "name:gu": "\u0a95\u0acb\u0a9f\u0ac7\u0ab6\u0acd\u0ab5\u0ab0 \u0ab0\u0acb\u0aa1",
          "public_transport": "stop_position",
          "railway": "stop",
          "start_date": "2024-09-17",
          "subway": "yes"
        }
      },
      {
        "type": "node",
        "id": 11115121971,
        "lat": 23.1031194,
        "lon": 72.6021114,
        "tags": {
          "name": "Koteshwar Road",
          "name:gu": "\u0a95\u0acb\u0a9f\u0ac7\u0ab6\u0acd\u0ab5\u0ab0 \u0ab0\u0acb\u0aa1",
          "public_transport": "stop_position",
          "railway": "stop",
          "start_date": "2024-09-17",
          "subway": "yes"
        }
      },
      {
        "type": "node",
        "id": 11991899052,
        "lat": 23.0710381,
        "lon": 72.6208273,
        "tags": {
          "aeroway": "terminal",
          "name": "Terminal 4 Building"
        }
      },
      {
        "type": "node",
        "id": 12196641348,
        "lat": 23.1141999,
        "lon": 72.6083864,
        "tags": {
          "name": "Vishwakarma College",
          "name:gu": "\u0ab5\u0abf\u0ab6\u0acd\u0ab5\u0a95\u0ab0\u0acd\u0aae\u0abe \u0a95\u0acb\u0ab2\u0ac7\u0a9c",
          "network": "Ahmedabad Metro",
          "operator": "Gujarat Metro Rail Corporation Limited",
          "operator:wikidata": "Q113158873",
          "operator:wikipedia": "en:Gujarat Metro Rail Corporation Limited",
          "public_transport": "station",
          "railway": "station",
          "start_date": "2024-09-17",
          "station": "subway",
          "subway": "yes"
        }
      },
      {
        "type": "node",
        "id": 12196641349,
        "lat": 23.1031114,
        "lon": 72.6021329,
        "tags": {
          "name": "Koteshwar Road",
          "name:gu": "\u0a95\u0acb\u0a9f\u0ac7\u0ab6\u0acd\u0ab5\u0ab0 \u0ab0\u0acb\u0aa1",
          "network": "Ahmedabad Metro",
          "operator": "Gujarat Metro Rail Corporation Limited",
          "operator:wikidata": "Q113158873",
          "operator:wikipedia": "en:Gujarat Metro Rail Corporation Limited",
          "public_transport": "station",
          "railway": "station",
          "start_date": "2024-09-17",
          "station": "subway",
          "subway": "yes"
        }
      },
      {
        "type": "node",
        "id": 12196641362,
        "lat": 23.0751088,
        "lon": 72.593291,
        "tags": {
          "name": "AEC",
          "name:gu": "\u0a8f \u0a87 \u0ab8\u0ac0",
          "network": "Ahmedabad Metro",
          "operator": "Gujarat Metro Rail Corporation Limited",
          "operator:wikidata": "Q113158873",
          "operator:wikipedia": "en:Gujarat Metro Rail Corporation Limited",
          "public_transport": "station",
          "railway": "station",
          "station": "subway",
          "subway": "yes",
          "wikidata": "Q114427225"
        }
      },
      {
        "type": "node",
        "id": 12196641364,
        "lat": 23.0856303,
        "lon": 72.592206,
        "tags": {
          "name": "Sabarmati",
          "name:gu": "\u0ab8\u0abe\u0aac\u0ab0\u0aae\u0aa4\u0ac0",
          "network": "Ahmedabad Metro",
          "operator": "Gujarat Metro Rail Corporation Limited",
          "operator:wikidata": "Q113158873",
          "operator:wikipedia": "en:Gujarat Metro Rail Corporation Limited",
          "public_transport": "station",
          "railway": "station",
          "station": "subway",
          "subway": "yes",
          "wheelchair": "yes",
          "wikidata": "Q114427233"
        }
      },
      {
        "type": "node",
        "id": 12196641366,
        "lat": 23.0967726,
        "lon": 72.596692,
        "tags": {
          "name": "Motera Stadium",
          "name:gu": "\u0aae\u0acb\u0a9f\u0ac7\u0ab0\u0abe \u0ab8\u0acd\u0a9f\u0ac7\u0aa1\u0abf\u0aaf\u0aae",
          "network": "Ahmedabad Metro",
          "operator": "Gujarat Metro Rail Corporation Limited",
          "operator:wikidata": "Q113158873",
          "operator:wikipedia": "en:Gujarat Metro Rail Corporation Limited",
          "public_transport": "station",
          "railway": "station",
          "station": "subway",
          "subway": "yes",
          "wikidata": "Q114427229"
        }
      },
      {
        "type": "node",
        "id": 12794883035,
        "lat": 23.0775605,
        "lon": 72.5878977,
        "tags": {
          "name": "Sabarmati Junction",
          "public_transport": "stop_position",
          "railway": "stop",
          "ref": "2",
          "train": "yes"
        }
      },
      {
        "type": "node",
        "id": 12794883088,
        "lat": 23.0776675,
        "lon": 72.5881298,
        "tags": {
          "name": "Sabarmati Junction",
          "public_transport": "stop_position",
          "railway": "stop",
          "ref": "2",
          "train": "yes"
        }
      },
      {
        "type": "node",
        "id": 12794883137,
        "lat": 23.0776023,
        "lon": 72.5880078,
        "tags": {
          "name": "Sabarmati Junction",
          "public_transport": "stop_position",
          "railway": "stop",
          "ref": "1",
          "train": "yes"
        }
      }
    ]
  }
}