{
  "pois_1km": {
    "version": 0.6,
    "generator": "Overpass API 0.7.62.8 e802775f",
    "osm3s": {
      "timestamp_osm_base": "2025-09-07T12:35:59Z",
      "copyright": "The data included in this document is from www.openstreetmap.org. The data is made available under ODbL."
    },
    "elements": [
      {
        "type": "node",
        "id": 611573353,
        "lat": 23.0648296,
        "lon": 72.5821405,
        "tags": {
          "amenity": "restaurant"
        }
      },
      {
        "type": "node",
        "id": 4480996895,
        "lat": 23.0680121,
        "lon": 72.5761383,
        "tags": {
          "name": "D Mart",
          "name:en": "D Mart",
          "name:hi": "D \u092e\u093e\u0930\u094d\u091f",
          "shop": "department_store"
        }
      },
      {
        "type": "node",
        "id": 4480996896,
        "lat": 23.0680414,
        "lon": 72.5758088,
        "tags": {
          "name": "Relince Digital",
          "name:en": "Relince Digital",
          "shop": "department_store"
        }
      },
      {
        "type": "node",
        "id": 4481079389,
        "lat": 23.0679571,
        "lon": 72.5760578,
        "tags": {
          "name": "Arved transcube Plaza",
          "name:en": "Arved transcube Plaza",
          "shop": "supermarket"
        }
      },
      {
        "type": "node",
        "id": 4585364197,
        "lat": 23.0659846,
        "lon": 72.5827993,
        "tags": {
          "amenity": "restaurant",
          "name": "HANDI HOTEL",
          "name:en": "HANDI HOTEL"
        }
      },
      {
        "type": "node",
        "id": 4672030298,
        "lat": 23.0687153,
        "lon": 72.5807241,
        "tags": {
          "amenity": "restaurant"
        }
      },
      {
        "type": "node",
        "id": 4794246526,
        "lat": 23.0681594,
        "lon": 72.5759446,
        "tags": {
          "name": "D Mart",
          "name:en": "D Mart",
          "shop": "supermarket"
        }
      },
      {
        "type": "node",
        "id": 4794252822,
        "lat": 23.0708588,
        "lon": 72.5768807,
        "tags": {
          "amenity": "atm",
          "opening_hours": "24/7",
          "operator": "SBI"
        }
      },
      {
        "type": "node",
        "id": 4794252823,
        "lat": 23.0707904,
        "lon": 72.576858,
        "tags": {
          "amenity": "atm",
          "opening_hours": "24/7",
          "operator": "Canara Bank"
        }
      },
      {
        "type": "node",
        "id": 6977867216,
        "lat": 23.0668688,
        "lon": 72.583823,
        "tags": {
          "addr:district": "Ahmedabad",
          "addr:full": "F-8, Nandanvan Complex, Near Kaveri Complex, Subhasbridge Circle, R.T.O",
          "addr:postcode": "380027",
          "addr:state": "Gujarat",
          "amenity": "hospital",
          "name": "Swari Ent Hospital, Ahmedabad",
          "source": "OpenGovernmentData"
        }
      },
      {
        "type": "node",
        "id": 6981819871,
        "lat": 23.066349,
        "lon": 72.5838341,
        "tags": {
          "addr:district": "Ahmedabad",
          "addr:full": "1st Floor, Kaceri Complex,Subhash Bridge Circle,Opposite R.T.O. Office",
          "addr:postcode": "380027",
          "addr:state": "Gujarat",
          "amenity": "hospital",
          "name": "Shachi Women's Hospital",
          "source": "OpenGovernmentData"
        }
      },
      {
        "type": "node",
        "id": 6981887874,
        "lat": 23.0633976,
        "lon": 72.5809816,
        "tags": {
          "addr:district": "Ahmedabad",
          "addr:full": "4, Gandhi Gram Society Opposite Boi",
          "addr:postcode": "380027",
          "addr:state": "Gujarat",
          "amenity": "clinic",
          "name": "Ami Eye Clinic",
          "source": "OpenGovernmentData"
        }
      },
      {
        "type": "node",
        "id": 11563630520,
        "lat": 23.0681879,
        "lon": 72.576195,
        "tags": {
          "amenity": "restaurant",
          "cuisine": "indian",
          "diet:vegetarian": "yes",
          "name": "Dosawala",
          "opening_hours": "Mo-Su 09:00-21:00",
          "phone": "8238011325"
        }
      }
    ]
  },
  "pois_2_5km": {
    "version": 0.6,
    "generator": "Overpass API 0.7.62.8 e802775f",
    "osm3s": {
      "timestamp_osm_base": "2025-09-07T12:35:59Z",
      "copyright": "The data included in this document is from www.openstreetmap.org. The data is made available under ODbL."
    },
    "elements": [
      {
        "type": "node",
        "id": 323189766,
        "lat": 23.0770712,
        "lon": 72.5890677,
        "tags": {
          "historic:ref": "SBI",
          "internet_access": "no",
          "name": "Sabarmati",
          "network": "IR",
          "operator": "WR",
          "public_transport": "station",
          "railway": "station",
          "ref": "SBIB",
          "train": "yes",
          "wikidata": "Q7395913",
          "wikipedia": "en:Sabarmati Junction railway station"
        }
      },
      {
        "type": "node",
        "id": 1952553001,
        "lat": 23.0684998,
        "lon": 72.5619985,
        "tags": {
          "amenity": "fuel",
          "brand": "Hindustan Petroleum",
          "name": "Akhbarnagar petrol pump"
        }
      },
      {
        "type": "node",
        "id": 3306683629,
        "lat": 23.0519878,
        "lon": 72.5902552,
        "tags": {
          "bus": "yes",
          "public_transport": "stop_position"
        }
      },
      {
        "type": "node",
        "id": 3306683638,
        "lat": 23.0555329,
        "lon": 72.5719936,
        "tags": {
          "bus": "yes",
          "public_transport": "stop_position"
        }
      },
      {
        "type": "node",
        "id": 3306683639,
        "lat": 23.0560223,
        "lon": 72.5910561,
        "tags": {
          "bus": "yes",
          "public_transport": "stop_position"
        }
      },
      {
        "type": "node",
        "id": 3306683642,
        "lat": 23.0603256,
        "lon": 72.5919869,
        "tags": {
          "bus": "yes",
          "public_transport": "stop_position"
        }
      },
      {
        "type": "node",
        "id": 3306683643,
        "lat": 23.0612354,
        "lon": 72.580309,
        "tags": {
          "bus": "yes",
          "public_transport": "stop_position"
        }
      },
      {
        "type": "node",
        "id": 3306683644,
        "lat": 23.0621551,
        "lon": 72.5952829,
        "tags": {
          "bus": "yes",
          "public_transport": "stop_position"
        }
      },
      {
        "type": "node",
        "id": 3306683645,
        "lat": 23.0645512,
        "lon": 72.5996029,
        "tags": {
          "bus": "yes",
          "public_transport": "stop_position"
        }
      },
      {
        "type": "node",
        "id": 3306683646,
        "lat": 23.0719488,
        "lon": 72.6038956,
        "tags": {
          "bus": "yes",
          "public_transport": "stop_position"
        }
      },
      {
        "type": "node",
        "id": 4486398588,
        "lat": 23.0712603,
        "lon": 72.5870272,
        "tags": {
          "internet_access": "no",
          "name": "Sabarmati Junction",
          "network": "IR",
          "operator": "WR",
          "public_transport": "station",
          "railway": "station",
          "ref": "SBT",
          "train": "yes",
          "wikidata": "Q7395913",
          "wikipedia": "en:Sabarmati Junction railway station"
        }
      },
      {
        "type": "node",
        "id": 4794252824,
        "lat": 23.068497,
        "lon": 72.5760108,
        "tags": {
          "amenity": "theatre",
          "name": "PVR Cinemas",
          "name:en": "PVR Cinemas"
        }
      },
      {
        "type": "node",
        "id": 5622776290,
        "lat": 23.0564338,
        "lon": 72.5622541,
        "tags": {
          "name": "Vijay Nagar",
          "public_transport": "stop_position",
          "railway": "stop",
          "subway": "yes"
        }
      },
      {
        "type": "node",
        "id": 6422003787,
        "lat": 23.0778134,
        "lon": 72.5885153,
        "tags": {
          "name": "Sabarmati Junction",
          "public_transport": "stop_position",
          "railway": "stop",
          "ref": "1",
          "train": "yes"
        }
      },
      {
        "type": "node",
        "id": 7020233387,
        "lat": 23.0430359,
        "lon": 72.5895319,
        "tags": {
          "amenity": "bus_station",
          "bus": "yes",
          "name:ko": "Bus stand(from Jodhpur)",
          "public_transport": "station"
        }
      },
      {
        "type": "node",
        "id": 7707085294,
        "lat": 23.0777093,
        "lon": 72.5882396,
        "tags": {
          "name": "Sabarmati Junction",
          "public_transport": "stop_position",
          "railway": "stop",
          "ref": "1",
          "train": "yes"
        }
      },
      {
        "type": "node",
        "id": 7707519215,
        "lat": 23.0777671,
        "lon": 72.5883938,
        "tags": {
          "name": "Sabarmati Junction",
          "public_transport": "stop_position",
          "railway": "stop",
          "ref": "2",
          "train": "yes"
        }
      },
      {
        "type": "node",
        "id": 9503556232,
        "lat": 23.0677222,
        "lon": 72.5741509,
        "tags": {
          "name": "Ranip",
          "public_transport": "stop_position",
          "railway": "stop",
          "subway": "yes"
        }
      },
      {
        "type": "node",
        "id": 10076616712,
        "lat": 23.067695,
        "lon": 72.5658899,
        "tags": {
          "name": "Vadaj",
          "public_transport": "stop_position",
          "railway": "stop",
          "subway": "yes"
        }
      },
      {
        "type": "node",
        "id": 10076616713,
        "lat": 23.0676478,
        "lon": 72.565892,
        "tags": {
          "name": "Vadaj",
          "public_transport": "stop_position",
          "railway": "stop",
          "subway": "yes"
        }
      },
      {
        "type": "node",
        "id": 10076616748,
        "lat": 23.0564531,
        "lon": 72.5623294,
        "tags": {
          "name": "Vijay Nagar",
          "public_transport": "stop_position",
          "railway": "stop",
          "subway": "yes"
        }
      },
      {
        "type": "node",
        "id": 10076836189,
        "lat": 23.0751227,
        "lon": 72.5932705,
        "tags": {
          "name": "AEC",
          "public_transport": "stop_position",
          "railway": "stop",
          "subway": "yes"
        }
      },
      {
        "type": "node",
        "id": 10076836190,
        "lat": 23.0750932,
        "lon": 72.5933161,
        "tags": {
          "name": "AEC",
          "public_transport": "stop_position",
          "railway": "stop",
          "subway": "yes"
        }
      },
      {
        "type": "node",
        "id": 10076859828,
        "lat": 23.0676615,
        "lon": 72.5741529,
        "tags": {
          "name": "Ranip",
          "public_transport": "stop_position",
          "railway": "stop",
          "subway": "yes"
        }
      },
      {
        "type": "node",
        "id": 11991899052,
        "lat": 23.0710381,
        "lon": 72.6208273,
        "tags": {
          "aeroway": "terminal",
          "name": "Terminal 4 Building"
        }
      },
      {
        "type": "node",
        "id": 12196641362,
        "lat": 23.0751088,
        "lon": 72.593291,
        "tags": {
          "name": "AEC",
          "name:gu": "\u0a8f \u0a87 \u0ab8\u0ac0",
          "network": "Ahmedabad Metro",
          "operator": "Gujarat Metro Rail Corporation Limited",
          "operator:wikidata": "Q113158873",
          "operator:wikipedia": "en:Gujarat Metro Rail Corporation Limited",
          "public_transport": "station",
          "railway": "station",
          "station": "subway",
          "subway": "yes",
          "wikidata": "Q114427225"
        }
      },
      {
        "type": "node",
        "id": 12794883035,
        "lat": 23.0775605,
        "lon": 72.5878977,
        "tags": {
          "name": "Sabarmati Junction",
          "public_transport": "stop_position",
          "railway": "stop",
          "ref": "2",
          "train": "yes"
        }
      },
      {
        "type": "node",
        "id": 12794883088,
        "lat": 23.0776675,
        "lon": 72.5881298,
        "tags": {
          "name": "Sabarmati Junction",
          "public_transport": "stop_position",
          "railway": "stop",
          "ref": "2",
          "train": "yes"
        }
      },
      {
        "type": "node",
        "id": 12794883137,
        "lat": 23.0776023,
        "lon": 72.5880078,
        "tags": {
          "name": "Sabarmati Junction",
          "public_transport": "stop_position",
          "railway": "stop",
          "ref": "1",
          "train": "yes"
        }
      }
    ]
  }
}