{
  "pois_1km": {
    "version": 0.6,
    "generator": "Overpass API 0.7.62.8 e802775f",
    "osm3s": {
      "timestamp_osm_base": "2025-09-07T12:00:05Z",
      "copyright": "The data included in this document is from www.openstreetmap.org. The data is made available under ODbL."
    },
    "elements": [
      {
        "type": "node",
        "id": 695666627,
        "lat": 23.0422876,
        "lon": 72.5699576,
        "tags": {
          "amenity": "cafe",
          "name": "Cyber Cafe"
        }
      },
      {
        "type": "node",
        "id": 3204931795,
        "lat": 23.0406536,
        "lon": 72.5713107,
        "tags": {
          "addr:city": "Ahmedabad",
          "addr:street": "Ashram Road",
          "amenity": "bank",
          "atm": "yes",
          "name": "Ahmedabad District Cooperative Bank",
          "opening_hours": "Mo-Sa 09:30-16:00",
          "operator": "Ahmedabad Distrcit Cooperative Bank Society"
        }
      },
      {
        "type": "node",
        "id": 6969886484,
        "lat": 23.0486991,
        "lon": 72.5665131,
        "tags": {
          "addr:district": "Ahmedabad",
          "addr:full": "3/A,Vikramnagar Society Near panchshil Bus Stop Usmanpura",
          "addr:postcode": "380013",
          "addr:state": "Gujarat",
          "amenity": "hospital",
          "name": "Navkar Surgical Hospital",
          "source": "OpenGovernmentData"
        }
      },
      {
        "type": "node",
        "id": 6970150307,
        "lat": 23.0467529,
        "lon": 72.5695668,
        "tags": {
          "addr:district": "Ahmedabad",
          "addr:full": "1, Vidya Nagar Soc No.1, OppositeUsmanpura Garden",
          "addr:postcode": "380014",
          "addr:state": "Gujarat",
          "amenity": "hospital",
          "name": "Chetna Maternity Home",
          "source": "OpenGovernmentData"
        }
      },
      {
        "type": "node",
        "id": 6970292851,
        "lat": 23.0474527,
        "lon": 72.5616422,
        "tags": {
          "addr:district": "Ahmedabad",
          "addr:full": "Sardar Patel Statue, Stadium Road",
          "addr:postcode": "380014",
          "addr:state": "Gujarat",
          "addr:subdistrict": "Stadium Road -Ahmedabad",
          "amenity": "hospital",
          "email": "info@lifecare.co.in",
          "name": "Life Care Institute Of Medical Sciences Research Hospital",
          "operator:type": "private",
          "source": "OpenGovernmentData",
          "website": "https://www.lifecare.co.in/contact.htm"
        }
      },
      {
        "type": "node",
        "id": 6970584034,
        "lat": 23.0453225,
        "lon": 72.5623058,
        "tags": {
          "addr:district": "Ahmedabad",
          "addr:full": "3Road Flr Royal House,Near Golden Triangal. Stadium Road, Navrangpura",
          "addr:postcode": "380009",
          "addr:state": "Gujarat",
          "amenity": "hospital",
          "name": "Welcare Women's Hospital",
          "source": "OpenGovernmentData"
        }
      },
      {
        "type": "node",
        "id": 6973933641,
        "lat": 23.0481314,
        "lon": 72.5716656,
        "tags": {
          "addr:district": "Ahmedabad",
          "addr:full": "Ashram Road",
          "addr:postcode": "380009",
          "addr:state": "Gujarat",
          "amenity": "hospital",
          "name": "Aalok Hospital, Ahmedabad",
          "source": "OpenGovernmentData"
        }
      },
      {
        "type": "node",
        "id": 6973933650,
        "lat": 23.0542867,
        "lon": 72.5720197,
        "tags": {
          "addr:district": "Ahmedabad",
          "addr:full": "5Th Floor, Bodycare Medical Centre, Juna Wadaj",
          "addr:postcode": "380013",
          "addr:state": "Gujarat",
          "amenity": "hospital",
          "name": "Dr. Manish Ravals Hospital",
          "source": "OpenGovernmentData"
        }
      },
      {
        "type": "node",
        "id": 6973933651,
        "lat": 23.0541596,
        "lon": 72.5720304,
        "tags": {
          "addr:district": "Ahmedabad",
          "addr:full": "4Th Floor , Body Medical Centre,Opposite Juna Wadaj Bus Stand, Ashram Road,Juna Wadaj",
          "addr:postcode": "380013",
          "addr:state": "Gujarat",
          "amenity": "hospital",
          "name": "Harsh Neurosurgical Hospital",
          "source": "OpenGovernmentData"
        }
      },
      {
        "type": "node",
        "id": 6973933652,
        "lat": 23.0542275,
        "lon": 72.5720505,
        "tags": {
          "addr:district": "Ahmedabad",
          "addr:full": "301, 302 3Road Floor, Bodycare Complex",
          "addr:postcode": "380013",
          "addr:state": "Gujarat",
          "amenity": "hospital",
          "name": "Bodycare Orthopaedic and Trauma Hospital",
          "source": "OpenGovernmentData"
        }
      },
      {
        "type": "node",
        "id": 6973933657,
        "lat": 23.0472984,
        "lon": 72.5622028,
        "tags": {
          "addr:district": "Ahmedabad",
          "addr:full": "1st Floor, Chandraprabhu Complex, Near Sardar Patel Statue",
          "addr:postcode": "380014",
          "addr:state": "Gujarat",
          "amenity": "hospital",
          "name": "Shalin Eyecare Hospital, Ahmedabad",
          "source": "OpenGovernmentData"
        }
      },
      {
        "type": "node",
        "id": 6973949897,
        "lat": 23.0477513,
        "lon": 72.5626641,
        "tags": {
          "addr:district": "Ahmedabad",
          "addr:full": "1st Floor, Saptarshi Complex, Near Sardar Patel Bavla, Naranpura",
          "addr:postcode": "380014",
          "addr:state": "Gujarat",
          "amenity": "clinic",
          "email": "pateljitendra66@gmail.com",
          "name": "Pruthvi Medical Nursing Home and Heart Centre",
          "operator:type": "private",
          "source": "OpenGovernmentData",
          "website": "http://pruthvihospital.com/"
        }
      },
      {
        "type": "node",
        "id": 6974599099,
        "lat": 23.0471775,
        "lon": 72.5654282,
        "tags": {
          "addr:district": "Ahmedabad",
          "addr:full": "76-1-B, Kheteswar Bhavan, Kirti Colony, Near Vitthal Bhavan, Usman Pura Underbridge",
          "addr:postcode": "380013",
          "addr:state": "Gujarat",
          "amenity": "hospital",
          "name": "Kheteswar Medical Educational and Research Centre Hospital",
          "source": "OpenGovernmentData"
        }
      },
      {
        "type": "node",
        "id": 6974764947,
        "lat": 23.052411,
        "lon": 72.5697197,
        "tags": {
          "addr:district": "Ahmedabad",
          "addr:full": "21, Shantinagar, Ashram Road, Vadaj",
          "addr:postcode": "380013",
          "addr:state": "Gujarat",
          "amenity": "hospital",
          "name": "Shah Hospital - Vadaj",
          "source": "OpenGovernmentData"
        }
      },
      {
        "type": "node",
        "id": 6975641054,
        "lat": 23.0454856,
        "lon": 72.5623074,
        "tags": {
          "addr:district": "Ahmedabad",
          "addr:full": "Aabhushan Complex,2nd Floor,Near Golden Triangal,Sardar Patel Stadium Road",
          "addr:postcode": "380001",
          "addr:state": "Gujarat",
          "amenity": "hospital",
          "name": "Deep Urosurgical Hospital",
          "source": "OpenGovernmentData"
        }
      },
      {
        "type": "node",
        "id": 6976120285,
        "lat": 23.0519939,
        "lon": 72.5640978,
        "tags": {
          "addr:district": "Ahmedabad",
          "addr:full": "Dhananjibhai Complex, B Block, Near Naranpura Railway Crossing",
          "addr:postcode": "380013",
          "addr:state": "Gujarat",
          "addr:subdistrict": "Naranpura",
          "amenity": "hospital",
          "name": "Raj Ent Hospital",
          "operator:type": "private",
          "source": "OpenGovernmentData"
        }
      },
      {
        "type": "node",
        "id": 6976120295,
        "lat": 23.0461976,
        "lon": 72.5616597,
        "tags": {
          "addr:district": "Ahmedabad",
          "addr:full": "9, Nathalal Colony, Near Sardar Patel Statue, Stadium Road",
          "addr:postcode": "380014",
          "addr:state": "Gujarat",
          "amenity": "hospital",
          "name": "Valu Hospital",
          "source": "OpenGovernmentData"
        }
      },
      {
        "type": "node",
        "id": 6976489896,
        "lat": 23.0397778,
        "lon": 72.5661081,
        "tags": {
          "addr:district": "Ahmedabad",
          "addr:full": "B-104, Angel Complex, Near Stadium Five Roads",
          "addr:postcode": "380014",
          "addr:state": "Gujarat",
          "amenity": "clinic",
          "name": "Pankit Nursing Home",
          "source": "OpenGovernmentData"
        }
      },
      {
        "type": "node",
        "id": 6979129057,
        "lat": 23.0472453,
        "lon": 72.5624844,
        "tags": {
          "addr:district": "Ahmedabad",
          "addr:full": "1st Floor, Subhlaxmi Complex, Opposite Sanghvi School, Naran Pura",
          "addr:postcode": "380013",
          "addr:state": "Gujarat",
          "amenity": "hospital",
          "name": "Aash Surgical Hospital",
          "source": "OpenGovernmentData"
        }
      },
      {
        "type": "node",
        "id": 6979320336,
        "lat": 23.0402678,
        "lon": 72.5659271,
        "tags": {
          "addr:district": "Ahmedabad",
          "addr:full": "Blue Star Complex, Near Income Tax Railway Under Bridge",
          "addr:postcode": "380014",
          "addr:state": "Gujarat",
          "amenity": "hospital",
          "name": "Brain and Spine Hospital",
          "source": "OpenGovernmentData"
        }
      },
      {
        "type": "node",
        "id": 6981560332,
        "lat": 23.0464247,
        "lon": 72.5709508,
        "tags": {
          "addr:district": "Ahmedabad",
          "addr:full": "11, Vidyanagar Society No.2, B/H. Mehta Resturant, Usmanpura",
          "addr:postcode": "380014",
          "addr:state": "Gujarat",
          "amenity": "hospital",
          "name": "Kruti Orthopedic Hospital",
          "source": "OpenGovernmentData"
        }
      },
      {
        "type": "node",
        "id": 6981922067,
        "lat": 23.0477933,
        "lon": 72.5712056,
        "tags": {
          "addr:district": "Ahmedabad",
          "addr:full": "103, Ashvarath Shopping Centre, Usmanpura Ashram Road",
          "addr:postcode": "380013",
          "addr:state": "Gujarat",
          "addr:subdistrict": "Usmanpura",
          "amenity": "hospital",
          "email": "drspp2003@yahoo.com",
          "name": "Patel E.N.T Hospital",
          "operator:type": "private",
          "source": "OpenGovernmentData"
        }
      },
      {
        "type": "node",
        "id": 6982009469,
        "lat": 23.045074,
        "lon": 72.5710642,
        "tags": {
          "addr:district": "Ahmedabad",
          "addr:full": "# 11, Sundervan Society, Ashram Road, Opposite Vidhyapith, Usmanpura",
          "addr:postcode": "380014",
          "addr:state": "Gujarat",
          "amenity": "clinic",
          "name": "Aalap Clinic and Surgical Nursing Home",
          "source": "OpenGovernmentData"
        }
      },
      {
        "type": "node",
        "id": 6982070577,
        "lat": 23.0459888,
        "lon": 72.5615689,
        "tags": {
          "addr:district": "Ahmedabad",
          "addr:full": "3rd Floor, Soham Complex, Near Navrang, Six Road, Navrangpura",
          "addr:postcode": "380009",
          "addr:state": "Gujarat",
          "addr:subdistrict": "Ahmedabad",
          "amenity": "hospital",
          "email": "sanjivanieyehospital@gmail.com",
          "name": "Sanjivani Eye Hospital and Phaco Centre, Ahmedabad",
          "operator:type": "private",
          "source": "OpenGovernmentData",
          "website": "www.sanjivanieyehospital.co.in"
        }
      },
      {
        "type": "node",
        "id": 6982581436,
        "lat": 23.0476847,
        "lon": 72.5663294,
        "tags": {
          "addr:district": "Ahmedabad",
          "addr:full": "14, Vadigam Society, Opposite Nemsnath Society",
          "addr:postcode": "380001",
          "addr:state": "Gujarat",
          "amenity": "hospital",
          "contact:mobile": "9825938397",
          "name": "Adarsh Hospital, Ahmedabad",
          "source": "OpenGovernmentData"
        }
      },
      {
        "type": "node",
        "id": 6983409961,
        "lat": 23.0463124,
        "lon": 72.5624067,
        "tags": {
          "addr:district": "Ahmedabad",
          "addr:full": "14, A, Bharat Colony, Near Sardar Patel Colony, Statue, Stadium Road",
          "addr:postcode": "380014",
          "addr:state": "Gujarat",
          "addr:subdistrict": "Ahmedabad",
          "amenity": "hospital",
          "email": "drjitendra@hotmail.com",
          "name": "J.Chirag Surgical Hospital",
          "operator:type": "private",
          "source": "OpenGovernmentData"
        }
      },
      {
        "type": "node",
        "id": 6986605689,
        "lat": 23.045286,
        "lon": 72.5617717,
        "tags": {
          "addr:district": "Ahmedabad",
          "addr:full": "23, Vishwamitra Complex, Stadium Road Near : Golden Triengle",
          "addr:postcode": "380014",
          "addr:state": "Gujarat",
          "amenity": "clinic",
          "name": "Dr Pratap Desai Eye Clinic",
          "source": "OpenGovernmentData"
        }
      },
      {
        "type": "node",
        "id": 6989221492,
        "lat": 23.040701,
        "lon": 72.5689566,
        "tags": {
          "addr:district": "Ahmedabad",
          "addr:full": "Navdeep Complex, Opp Akashwani Near Income Tax Char Rasta, Ashram Road",
          "addr:postcode": "380014",
          "addr:state": "Gujarat",
          "amenity": "hospital",
          "name": "Dr J J Vora Memorial General Hospital",
          "source": "OpenGovernmentData"
        }
      },
      {
        "type": "node",
        "id": 6993868949,
        "lat": 23.0520284,
        "lon": 72.5641722,
        "tags": {
          "addr:district": "Ahmedabad",
          "addr:full": "Dhanjibhai Complex, 2nd Floor, Near Jivrapark Bus Stop B Block, Nr Naranpura Railway Crossing",
          "addr:postcode": "380013",
          "addr:state": "Gujarat",
          "amenity": "hospital",
          "name": "Killol Children Hospital",
          "source": "OpenGovernmentData"
        }
      },
      {
        "type": "node",
        "id": 10172958943,
        "lat": 23.046029,
        "lon": 72.5615306,
        "tags": {
          "addr:city": "Ahmedabad",
          "amenity": "hospital",
          "healthcare": "hospital",
          "name": "Sanjivani Eye Hospital"
        }
      },
      {
        "type": "node",
        "id": 10172958944,
        "lat": 23.0482467,
        "lon": 72.5617682,
        "tags": {
          "addr:city": "Ahmedabad",
          "amenity": "hospital",
          "healthcare": "hospital",
          "name": "Shreyas Dental Hospital"
        }
      }
    ]
  },
  "pois_2_5km": {
    "version": 0.6,
    "generator": "Overpass API 0.7.62.8 e802775f",
    "osm3s": {
      "timestamp_osm_base": "2025-09-07T12:00:05Z",
      "copyright": "The data included in this document is from www.openstreetmap.org. The data is made available under ODbL."
    },
    "elements": [
      {
        "type": "node",
        "id": 1952553001,
        "lat": 23.0684998,
        "lon": 72.5619985,
        "tags": {
          "amenity": "fuel",
          "brand": "Hindustan Petroleum",
          "name": "Akhbarnagar petrol pump"
        }
      },
      {
        "type": "node",
        "id": 3306683587,
        "lat": 23.0282432,
        "lon": 72.5814362,
        "tags": {
          "bus": "yes",
          "public_transport": "stop_position"
        }
      },
      {
        "type": "node",
        "id": 3306683590,
        "lat": 23.0326462,
        "lon": 72.5701007,
        "tags": {
          "bus": "yes",
          "public_transport": "stop_position"
        }
      },
      {
        "type": "node",
        "id": 3306683591,
        "lat": 23.0338698,
        "lon": 72.5695244,
        "tags": {
          "bus": "yes",
          "public_transport": "stop_position"
        }
      },
      {
        "type": "node",
        "id": 3306683598,
        "lat": 23.035934,
        "lon": 72.568865,
        "tags": {
          "bus": "yes",
          "public_transport": "stop_position"
        }
      },
      {
        "type": "node",
        "id": 3306683627,
        "lat": 23.0423375,
        "lon": 72.5695809,
        "tags": {
          "bus": "yes",
          "public_transport": "stop_position"
        }
      },
      {
        "type": "node",
        "id": 3306683628,
        "lat": 23.0433539,
        "lon": 72.5697209,
        "tags": {
          "bus": "yes",
          "public_transport": "stop_position"
        }
      },
      {
        "type": "node",
        "id": 3306683629,
        "lat": 23.0519878,
        "lon": 72.5902552,
        "tags": {
          "bus": "yes",
          "public_transport": "stop_position"
        }
      },
      {
        "type": "node",
        "id": 3306683638,
        "lat": 23.0555329,
        "lon": 72.5719936,
        "tags": {
          "bus": "yes",
          "public_transport": "stop_position"
        }
      },
      {
        "type": "node",
        "id": 3306683639,
        "lat": 23.0560223,
        "lon": 72.5910561,
        "tags": {
          "bus": "yes",
          "public_transport": "stop_position"
        }
      },
      {
        "type": "node",
        "id": 3306683643,
        "lat": 23.0612354,
        "lon": 72.580309,
        "tags": {
          "bus": "yes",
          "public_transport": "stop_position"
        }
      },
      {
        "type": "node",
        "id": 4483474713,
        "lat": 23.0400891,
        "lon": 72.5781297,
        "tags": {
          "addr:street": "Kasturba Gandhi Road",
          "amenity": "fuel",
          "name": "CNG Bharat petroleum"
        }
      },
      {
        "type": "node",
        "id": 4794252824,
        "lat": 23.068497,
        "lon": 72.5760108,
        "tags": {
          "amenity": "theatre",
          "name": "PVR Cinemas",
          "name:en": "PVR Cinemas"
        }
      },
      {
        "type": "node",
        "id": 5622701067,
        "lat": 23.0375426,
        "lon": 72.5670608,
        "tags": {
          "name": "Old High Court",
          "public_transport": "stop_position",
          "railway": "stop",
          "subway": "yes"
        }
      },
      {
        "type": "node",
        "id": 5622701075,
        "lat": 23.040679,
        "lon": 72.5530608,
        "tags": {
          "name": "Commerce Six Roads",
          "public_transport": "stop_position",
          "railway": "stop",
          "subway": "yes"
        }
      },
      {
        "type": "node",
        "id": 5622776290,
        "lat": 23.0564338,
        "lon": 72.5622541,
        "tags": {
          "name": "Vijay Nagar",
          "public_transport": "stop_position",
          "railway": "stop",
          "subway": "yes"
        }
      },
      {
        "type": "node",
        "id": 7020233387,
        "lat": 23.0430359,
        "lon": 72.5895319,
        "tags": {
          "amenity": "bus_station",
          "bus": "yes",
          "name:ko": "Bus stand(from Jodhpur)",
          "public_transport": "station"
        }
      },
      {
        "type": "node",
        "id": 7944287421,
        "lat": 23.0392105,
        "lon": 72.5810327,
        "tags": {
          "name": "Shahpur Station",
          "name:gu": "\u0ab6\u0abe\u0ab9\u0aaa\u0ac1\u0ab0",
          "public_transport": "station",
          "railway": "station",
          "station": "subway",
          "subway": "yes"
        }
      },
      {
        "type": "node",
        "id": 9503556232,
        "lat": 23.0677222,
        "lon": 72.5741509,
        "tags": {
          "name": "Ranip",
          "public_transport": "stop_position",
          "railway": "stop",
          "subway": "yes"
        }
      },
      {
        "type": "node",
        "id": 10076565224,
        "lat": 23.0392509,
        "lon": 72.5810332,
        "tags": {
          "name": "Shahpur Station",
          "public_transport": "stop_position",
          "railway": "stop",
          "subway": "yes"
        }
      },
      {
        "type": "node",
        "id": 10076565225,
        "lat": 23.0391575,
        "lon": 72.5810285,
        "tags": {
          "name": "Shahpur Station",
          "public_transport": "stop_position",
          "railway": "stop",
          "subway": "yes"
        }
      },
      {
        "type": "node",
        "id": 10076565256,
        "lat": 23.0375956,
        "lon": 72.5670605,
        "tags": {
          "name": "Old High Court",
          "public_transport": "stop_position",
          "railway": "stop",
          "subway": "yes"
        }
      },
      {
        "type": "node",
        "id": 10076565279,
        "lat": 23.0398916,
        "lon": 72.5616387,
        "tags": {
          "name": "Stadium",
          "name:gu": "\u0ab8\u0acd\u0a9f\u0ac7\u0aa1\u0abf\u0aaf\u0aae",
          "public_transport": "stop_position",
          "railway": "stop",
          "subway": "yes"
        }
      },
      {
        "type": "node",
        "id": 10076565280,
        "lat": 23.0398351,
        "lon": 72.5616387,
        "tags": {
          "name": "Stadium",
          "name:gu": "\u0ab8\u0acd\u0a9f\u0ac7\u0aa1\u0abf\u0aaf\u0aae",
          "public_transport": "stop_position",
          "railway": "stop",
          "subway": "yes"
        }
      },
      {
        "type": "node",
        "id": 10076565295,
        "lat": 23.0407242,
        "lon": 72.5530873,
        "tags": {
          "name": "Commerce Six Roads",
          "public_transport": "stop_position",
          "railway": "stop",
          "subway": "yes"
        }
      },
      {
        "type": "node",
        "id": 10076616710,
        "lat": 23.0271728,
        "lon": 72.5688973,
        "tags": {
          "name": "Gandhigram",
          "public_transport": "stop_position",
          "railway": "stop",
          "subway": "yes"
        }
      },
      {
        "type": "node",
        "id": 10076616711,
        "lat": 23.0271754,
        "lon": 72.5688202,
        "tags": {
          "name": "Gandhigram",
          "public_transport": "stop_position",
          "railway": "stop",
          "subway": "yes"
        }
      },
      {
        "type": "node",
        "id": 10076616712,
        "lat": 23.067695,
        "lon": 72.5658899,
        "tags": {
          "name": "Vadaj",
          "public_transport": "stop_position",
          "railway": "stop",
          "subway": "yes"
        }
      },
      {
        "type": "node",
        "id": 10076616713,
        "lat": 23.0676478,
        "lon": 72.565892,
        "tags": {
          "name": "Vadaj",
          "public_transport": "stop_position",
          "railway": "stop",
          "subway": "yes"
        }
      },
      {
        "type": "node",
        "id": 10076616748,
        "lat": 23.0564531,
        "lon": 72.5623294,
        "tags": {
          "name": "Vijay Nagar",
          "public_transport": "stop_position",
          "railway": "stop",
          "subway": "yes"
        }
      },
      {
        "type": "node",
        "id": 10076616753,
        "lat": 23.0459092,
        "lon": 72.564927,
        "tags": {
          "name": "Usmanpura",
          "public_transport": "stop_position",
          "railway": "stop",
          "subway": "yes"
        }
      },
      {
        "type": "node",
        "id": 10076616754,
        "lat": 23.045936,
        "lon": 72.5649953,
        "tags": {
          "name": "Usmanpura",
          "public_transport": "stop_position",
          "railway": "stop",
          "subway": "yes"
        }
      },
      {
        "type": "node",
        "id": 10076616759,
        "lat": 23.0374805,
        "lon": 72.5670541,
        "tags": {
          "name": "Old High Court",
          "public_transport": "stop_position",
          "railway": "stop",
          "subway": "yes"
        }
      },
      {
        "type": "node",
        "id": 10076616764,
        "lat": 23.0374696,
        "lon": 72.5668751,
        "tags": {
          "name": "Old High Court",
          "public_transport": "stop_position",
          "railway": "stop",
          "subway": "yes"
        }
      },
      {
        "type": "node",
        "id": 10076859828,
        "lat": 23.0676615,
        "lon": 72.5741529,
        "tags": {
          "name": "Ranip",
          "public_transport": "stop_position",
          "railway": "stop",
          "subway": "yes"
        }
      },
      {
        "type": "node",
        "id": 12526081066,
        "lat": 23.0575051,
        "lon": 72.5562557,
        "tags": {
          "amenity": "fuel",
          "brand": "Indian Oil",
          "brand:wikidata": "Q1289348",
          "name": "Indian Oil"
        }
      }
    ]
  }
}