{
  "pois_1km": {
    "version": 0.6,
    "generator": "Overpass API 0.7.62.8 e802775f",
    "osm3s": {
      "timestamp_osm_base": "2025-09-07T12:44:06Z",
      "copyright": "The data included in this document is from www.openstreetmap.org. The data is made available under ODbL."
    },
    "elements": [
      {
        "type": "node",
        "id": 632066507,
        "lat": 23.0227338,
        "lon": 72.5920852,
        "tags": {
          "amenity": "restaurant",
          "name": "Mangaldas Ni Haveli"
        }
      },
      {
        "type": "node",
        "id": 4510519793,
        "lat": 23.030136,
        "lon": 72.600163,
        "tags": {
          "amenity": "restaurant",
          "cuisine": "indian",
          "name": "arbi",
          "name:en": "arbi"
        }
      },
      {
        "type": "node",
        "id": 5496066223,
        "lat": 23.0236978,
        "lon": 72.5995018,
        "tags": {
          "amenity": "restaurant",
          "name": "Sanmani Restaurant"
        }
      },
      {
        "type": "node",
        "id": 6970994343,
        "lat": 23.0222866,
        "lon": 72.5941667,
        "tags": {
          "addr:district": "Ahmedabad",
          "addr:full": "1782, Desai Ni Pole, Khadia",
          "addr:postcode": "380001",
          "addr:state": "Gujarat",
          "amenity": "hospital",
          "healthcare": "hospital",
          "name": "Dhwani Children Hospital",
          "source": "OpenGovernmentData"
        }
      },
      {
        "type": "node",
        "id": 6978612436,
        "lat": 23.0273162,
        "lon": 72.5860812,
        "tags": {
          "addr:district": "Ahmedabad",
          "addr:full": "1st Floor,Business Center,Patharkuwa,Relief Road,Ahemdabad",
          "addr:postcode": "380001",
          "addr:state": "Gujarat",
          "amenity": "doctors",
          "healthcare": "doctor",
          "name": "Dr.Haroonbhai Jusabbhai Memon",
          "source": "OpenGovernmentData"
        }
      },
      {
        "type": "node",
        "id": 6983477494,
        "lat": 23.0272274,
        "lon": 72.5861375,
        "tags": {
          "addr:district": "Ahmedabad",
          "addr:full": "112, First Floor, Business Centre, Patharkuva, Relief Road",
          "addr:postcode": "380001",
          "addr:state": "Gujarat",
          "amenity": "hospital",
          "healthcare": "hospital",
          "name": "Memon Ent Hospital",
          "source": "OpenGovernmentData"
        }
      },
      {
        "type": "node",
        "id": 7088275199,
        "lat": 23.0224593,
        "lon": 72.5937037,
        "tags": {
          "leisure": "park",
          "name": "Akha Bhagat Chowk"
        }
      },
      {
        "type": "node",
        "id": 7862753690,
        "lat": 23.019646,
        "lon": 72.593685,
        "tags": {
          "addr:district": "Ahmedabad",
          "addr:full": "Raipur, Khadia",
          "addr:postcode": "380001",
          "addr:state": "Gujarat",
          "amenity": "hospital",
          "healthcare": "hospital",
          "name": "Shree Umiya Multi Speciality Hospital",
          "source": "Local Knowledge"
        }
      },
      {
        "type": "node",
        "id": 7862753698,
        "lat": 23.0234972,
        "lon": 72.5946245,
        "tags": {
          "addr:district": "Ahmedabad",
          "addr:full": "Khadia",
          "addr:postcode": "380001",
          "addr:state": "Gujarat",
          "amenity": "hospital",
          "healthcare": "hospital",
          "name": "Mamta Maternity Home",
          "source": "Local Knowledge"
        }
      },
      {
        "type": "node",
        "id": 7862753700,
        "lat": 23.0210847,
        "lon": 72.5900772,
        "tags": {
          "addr:district": "Ahmedabad",
          "addr:full": "Khadia",
          "addr:postcode": "380001",
          "addr:state": "Gujarat",
          "amenity": "hospital",
          "healthcare": "hospital",
          "name": "Mysorewala Surgical Hospital",
          "source": "Local Knowledge"
        }
      },
      {
        "type": "node",
        "id": 7862753702,
        "lat": 23.028639,
        "lon": 72.596633,
        "tags": {
          "addr:district": "Ahmedabad",
          "addr:full": "Kalupur",
          "addr:postcode": "380002",
          "addr:state": "Gujarat",
          "amenity": "hospital",
          "healthcare": "hospital",
          "name": "Shree Jee Eye and Orthopedic Hospital",
          "source": "Local Knowledge"
        }
      },
      {
        "type": "node",
        "id": 7862753714,
        "lat": 23.02645,
        "lon": 72.591737,
        "tags": {
          "addr:district": "Ahmedabad",
          "addr:full": "Tankshal, Khadia",
          "addr:postcode": "380001",
          "addr:state": "Gujarat",
          "amenity": "hospital",
          "healthcare": "hospital",
          "name": "Chhapan Hospital",
          "source": "Local Knowledge"
        }
      },
      {
        "type": "node",
        "id": 7862753719,
        "lat": 23.029419,
        "lon": 72.5933157,
        "tags": {
          "addr:district": "Ahmedabad",
          "addr:full": "Kalupur",
          "addr:postcode": "380001",
          "addr:state": "Gujarat",
          "amenity": "hospital",
          "healthcare": "hospital",
          "name": "Pinakin Dalal Hospital",
          "source": "Local Knowledge"
        }
      },
      {
        "type": "node",
        "id": 7862753735,
        "lat": 23.023421,
        "lon": 72.597732,
        "tags": {
          "addr:district": "Ahmedabad",
          "addr:full": "Khadia",
          "addr:postcode": "380001",
          "addr:state": "Gujarat",
          "amenity": "hospital",
          "healthcare": "hospital",
          "name": "Divya Children's Hospital",
          "source": "Local Knowledge"
        }
      },
      {
        "type": "node",
        "id": 7862753736,
        "lat": 23.024842,
        "lon": 72.598982,
        "tags": {
          "addr:district": "Ahmedabad",
          "addr:full": "Khadia",
          "addr:postcode": "380002",
          "addr:state": "Gujarat",
          "amenity": "hospital",
          "healthcare": "hospital",
          "name": "Chinubhai Baronet Hospital",
          "source": "Local Knowledge"
        }
      },
      {
        "type": "node",
        "id": 7862753739,
        "lat": 23.029011,
        "lon": 72.592461,
        "tags": {
          "addr:district": "Ahmedabad",
          "addr:postcode": "380001",
          "addr:state": "Gujarat",
          "amenity": "hospital",
          "healthcare": "hospital",
          "name": "Dr. Tanumati Shah Hospital",
          "source": "Local Knowledge"
        }
      },
      {
        "type": "node",
        "id": 7862753745,
        "lat": 23.02691,
        "lon": 72.587214,
        "tags": {
          "addr:district": "Ahmedabad",
          "addr:full": "Tankshal, Khadia",
          "addr:postcode": "380001",
          "addr:state": "Gujarat",
          "amenity": "hospital",
          "healthcare": "hospital",
          "name": "Jay Orthopedic Hospital",
          "source": "Local Knowledge"
        }
      },
      {
        "type": "node",
        "id": 7862753750,
        "lat": 23.0259793,
        "lon": 72.5919014,
        "tags": {
          "addr:district": "Ahmedabad",
          "addr:full": "Tankshal, Kalupur",
          "addr:postcode": "380001",
          "addr:state": "Gujarat",
          "amenity": "hospital",
          "healthcare": "hospital",
          "name": "Sheth Jamnabhai Bhagubhai Trust",
          "source": "Local Knowledge"
        }
      },
      {
        "type": "node",
        "id": 7862753752,
        "lat": 23.0293947,
        "lon": 72.5905625,
        "tags": {
          "addr:district": "Ahmedabad",
          "addr:full": "Zaveriwad, Kalupur",
          "addr:postcode": "380001",
          "addr:state": "Gujarat",
          "amenity": "hospital",
          "healthcare": "hospital",
          "name": "Parijat Children Hospital",
          "source": "Local Knowledge"
        }
      },
      {
        "type": "node",
        "id": 7862753754,
        "lat": 23.0290414,
        "lon": 72.5946976,
        "tags": {
          "addr:district": "Ahmedabad",
          "addr:full": "Dariyapur",
          "addr:postcode": "380001",
          "addr:state": "Gujarat",
          "amenity": "doctors",
          "healthcare": "doctor",
          "name": "Dr. Nilofar Shaikh",
          "source": "Local Knowledge"
        }
      },
      {
        "type": "node",
        "id": 7864058641,
        "lat": 23.0347002,
        "lon": 72.5951832,
        "tags": {
          "addr:district": "Ahmedabad",
          "addr:full": "Dariapur",
          "addr:postcode": "380001",
          "addr:state": "Gujarat",
          "amenity": "hospital",
          "healthcare": "hospital",
          "name": "Lokhandwala General Hospital",
          "source": "Local Knowledge"
        }
      },
      {
        "type": "node",
        "id": 10172958936,
        "lat": 23.0294026,
        "lon": 72.5905818,
        "tags": {
          "addr:city": "Ahmedabad",
          "amenity": "hospital",
          "healthcare": "hospital",
          "name": "Parijat Children Hospital"
        }
      },
      {
        "type": "node",
        "id": 10172958937,
        "lat": 23.0294443,
        "lon": 72.5933151,
        "tags": {
          "amenity": "hospital",
          "healthcare": "hospital",
          "name": "Pinakin Dala Hospital"
        }
      },
      {
        "type": "node",
        "id": 10225625719,
        "lat": 23.0319107,
        "lon": 72.5883477,
        "tags": {
          "amenity": "cafe",
          "cuisine": "indian",
          "name": "Authentic cafe"
        }
      }
    ]
  },
  "pois_2_5km": {
    "version": 0.6,
    "generator": "Overpass API 0.7.62.8 e802775f",
    "osm3s": {
      "timestamp_osm_base": "2025-09-07T12:44:06Z",
      "copyright": "The data included in this document is from www.openstreetmap.org. The data is made available under ODbL."
    },
    "elements": [
      {
        "type": "node",
        "id": 429460556,
        "lat": 23.0241439,
        "lon": 72.5804883,
        "tags": {
          "bus": "yes",
          "public_transport": "stop_position"
        }
      },
      {
        "type": "node",
        "id": 1206485486,
        "lat": 23.0251057,
        "lon": 72.6017011,
        "tags": {
          "name": "Ahmedabad Junction",
          "public_transport": "stop_position",
          "railway": "stop",
          "ref": "10",
          "train": "yes"
        }
      },
      {
        "type": "node",
        "id": 1206485574,
        "lat": 23.0251068,
        "lon": 72.6020896,
        "tags": {
          "name": "Ahmedabad Junction",
          "public_transport": "stop_position",
          "railway": "stop",
          "ref": "10",
          "train": "yes"
        }
      },
      {
        "type": "node",
        "id": 1206490577,
        "lat": 23.0251064,
        "lon": 72.6019452,
        "tags": {
          "name": "Ahmedabad Junction",
          "public_transport": "stop_position",
          "railway": "stop",
          "ref": "10",
          "train": "yes"
        }
      },
      {
        "type": "node",
        "id": 1782729611,
        "lat": 23.0268403,
        "lon": 72.5806381,
        "tags": {
          "bus": "yes",
          "public_transport": "stop_position"
        }
      },
      {
        "type": "node",
        "id": 2377178512,
        "lat": 23.0263196,
        "lon": 72.5841287,
        "tags": {
          "amenity": "fuel"
        }
      },
      {
        "type": "node",
        "id": 2669084968,
        "lat": 23.0263312,
        "lon": 72.601,
        "tags": {
          "addr:postcode": "380001",
          "addr:street": "Station Road",
          "alt_name": "Kalupur Railway Station",
          "historic:ref": "ADIJ",
          "internet_access": "wlan",
          "name": "Ahmedabad Junction",
          "network": "IR",
          "operator": "WR",
          "public_transport": "station",
          "railway": "station",
          "ref": "ADI",
          "train": "yes",
          "wikidata": "Q4696124",
          "wikipedia": "en:Ahmedabad Junction railway station"
        }
      },
      {
        "type": "node",
        "id": 3306683587,
        "lat": 23.0282432,
        "lon": 72.5814362,
        "tags": {
          "bus": "yes",
          "public_transport": "stop_position"
        }
      },
      {
        "type": "node",
        "id": 3306683612,
        "lat": 23.0396523,
        "lon": 72.5955759,
        "tags": {
          "amenity": "fuel",
          "brand": "Indian Oil",
          "brand:wikidata": "Q1289348",
          "name": "Indian Oil"
        }
      },
      {
        "type": "node",
        "id": 3336777167,
        "lat": 23.0218734,
        "lon": 72.5984903,
        "tags": {
          "addr:street": "Gandhi Road",
          "amenity": "bus_station",
          "bus": "yes",
          "name": "Ahmedabad",
          "name:en": "Kalupur Bus stop",
          "public_transport": "station"
        }
      },
      {
        "type": "node",
        "id": 3355748461,
        "lat": 23.0186671,
        "lon": 72.5883471,
        "tags": {
          "bus": "yes",
          "public_transport": "stop_position"
        }
      },
      {
        "type": "node",
        "id": 3355794772,
        "lat": 23.0241902,
        "lon": 72.5785562,
        "tags": {
          "amenity": "bus_station",
          "bus": "yes",
          "name": "Lal Darwaja AMTS Bus Stop",
          "operator": "Ahmedabad Municipal Transport Service",
          "public_transport": "station",
          "wikidata": "Q4696119",
          "wikipedia": "en:Ahmedabad Municipal Transport Service"
        }
      },
      {
        "type": "node",
        "id": 3393656497,
        "lat": 23.011445,
        "lon": 72.5864365,
        "tags": {
          "amenity": "fuel",
          "brand": "Adani",
          "name": "Adani CNG Gas Station",
          "operator": "Adani"
        }
      },
      {
        "type": "node",
        "id": 4483474713,
        "lat": 23.0400891,
        "lon": 72.5781297,
        "tags": {
          "addr:street": "Kasturba Gandhi Road",
          "amenity": "fuel",
          "name": "CNG Bharat petroleum"
        }
      },
      {
        "type": "node",
        "id": 4530241653,
        "lat": 23.0251063,
        "lon": 72.6018905,
        "tags": {
          "name": "Ahmedabad Junction",
          "public_transport": "stop_position",
          "railway": "stop",
          "ref": "10",
          "train": "yes"
        }
      },
      {
        "type": "node",
        "id": 5622701037,
        "lat": 23.0154543,
        "lon": 72.6069352,
        "tags": {
          "name": "Kankaria East",
          "public_transport": "stop_position",
          "railway": "stop",
          "subway": "yes"
        }
      },
      {
        "type": "node",
        "id": 5622701044,
        "lat": 23.0246945,
        "lon": 72.603093,
        "tags": {
          "name": "Kalupur Railway Station",
          "public_transport": "stop_position",
          "railway": "stop",
          "subway": "yes"
        }
      },
      {
        "type": "node",
        "id": 5622701055,
        "lat": 23.0287794,
        "lon": 72.586749,
        "tags": {
          "name": "Gheekanta",
          "public_transport": "stop_position",
          "railway": "stop",
          "subway": "yes"
        }
      },
      {
        "type": "node",
        "id": 7020233387,
        "lat": 23.0430359,
        "lon": 72.5895319,
        "tags": {
          "amenity": "bus_station",
          "bus": "yes",
          "name:ko": "Bus stand(from Jodhpur)",
          "public_transport": "station"
        }
      },
      {
        "type": "node",
        "id": 7707519216,
        "lat": 23.025107,
        "lon": 72.6021398,
        "tags": {
          "name": "Ahmedabad Junction",
          "public_transport": "stop_position",
          "railway": "stop",
          "ref": "10",
          "train": "yes"
        }
      },
      {
        "type": "node",
        "id": 7944287415,
        "lat": 23.0246913,
        "lon": 72.6031447,
        "tags": {
          "name": "Kalupur Railway Station",
          "name:gu": "\u0a95\u0abe\u0ab2\u0ac1\u0aaa\u0ac1\u0ab0 \u0ab0\u0ac7\u0ab2\u0acd\u0ab5\u0ac7 \u0ab8\u0acd\u0a9f\u0ac7\u0ab6\u0aa8",
          "public_transport": "station",
          "railway": "station",
          "station": "subway",
          "subway": "yes",
          "wikidata": "Q114400466"
        }
      },
      {
        "type": "node",
        "id": 7944287418,
        "lat": 23.0154573,
        "lon": 72.6070016,
        "tags": {
          "name": "Kankaria East",
          "public_transport": "station",
          "railway": "station",
          "station": "subway",
          "subway": "yes",
          "wikidata": "Q114400460"
        }
      },
      {
        "type": "node",
        "id": 7944287421,
        "lat": 23.0392105,
        "lon": 72.5810327,
        "tags": {
          "name": "Shahpur Station",
          "name:gu": "\u0ab6\u0abe\u0ab9\u0aaa\u0ac1\u0ab0",
          "public_transport": "station",
          "railway": "station",
          "station": "subway",
          "subway": "yes"
        }
      },
      {
        "type": "node",
        "id": 7944287424,
        "lat": 23.028794,
        "lon": 72.5867752,
        "tags": {
          "name": "Gheekanta",
          "name:gu": "\u0a98\u0ac0\u0a95\u0abe\u0a82\u0a9f\u0abe",
          "public_transport": "station",
          "railway": "station",
          "station": "subway",
          "subway": "yes"
        }
      },
      {
        "type": "node",
        "id": 10076537485,
        "lat": 23.0154585,
        "lon": 72.6070566,
        "tags": {
          "name": "Kankaria East",
          "public_transport": "stop_position",
          "railway": "stop",
          "subway": "yes"
        }
      },
      {
        "type": "node",
        "id": 10076537499,
        "lat": 23.0246998,
        "lon": 72.603211,
        "tags": {
          "name": "Kalupur Railway Station",
          "public_transport": "stop_position",
          "railway": "stop",
          "subway": "yes"
        }
      },
      {
        "type": "node",
        "id": 10076537516,
        "lat": 23.0287972,
        "lon": 72.5868045,
        "tags": {
          "name": "Gheekanta",
          "public_transport": "stop_position",
          "railway": "stop",
          "subway": "yes"
        }
      },
      {
        "type": "node",
        "id": 10076565224,
        "lat": 23.0392509,
        "lon": 72.5810332,
        "tags": {
          "name": "Shahpur Station",
          "public_transport": "stop_position",
          "railway": "stop",
          "subway": "yes"
        }
      },
      {
        "type": "node",
        "id": 10076565225,
        "lat": 23.0391575,
        "lon": 72.5810285,
        "tags": {
          "name": "Shahpur Station",
          "public_transport": "stop_position",
          "railway": "stop",
          "subway": "yes"
        }
      }
    ]
  }
}