{
  "pois_1km": {
    "version": 0.6,
    "generator": "Overpass API 0.7.62.8 e802775f",
    "osm3s": {
      "timestamp_osm_base": "2025-09-07T12:16:26Z",
      "copyright": "The data included in this document is from www.openstreetmap.org. The data is made available under ODbL."
    },
    "elements": [
      {
        "type": "node",
        "id": 5119000602,
        "lat": 23.0160978,
        "lon": 72.5733412,
        "tags": {
          "access": "permissive",
          "leisure": "garden",
          "name": "EVENT GROUND"
        }
      },
      {
        "type": "node",
        "id": 6183928288,
        "lat": 23.0169709,
        "lon": 72.5835893,
        "tags": {
          "amenity": "restaurant",
          "name": "Chicken biryani",
          "name:ja": "\u30c1\u30ad\u30f3\u30d3\u30ea\u30e4\u30cb"
        }
      },
      {
        "type": "node",
        "id": 6981152500,
        "lat": 23.0098432,
        "lon": 72.5806028,
        "tags": {
          "addr:district": "Ahmedabad",
          "addr:full": "202/203, 2 Nd Floor, Bagmar Plaza, Nr Jamalpur Cross Road, Jamalpur",
          "addr:postcode": "380043",
          "addr:state": "Gujarat",
          "amenity": "hospital",
          "name": "Pearl Eye Hospital",
          "source": "OpenGovernmentData"
        }
      },
      {
        "type": "node",
        "id": 7862753692,
        "lat": 23.014903,
        "lon": 72.582281,
        "tags": {
          "addr:district": "Ahmedabad",
          "addr:full": "Raikhad",
          "addr:postcode": "380001",
          "addr:state": "Gujarat",
          "amenity": "clinic",
          "name": "Herbal Unani Clinic",
          "source": "Local Knowledge"
        }
      },
      {
        "type": "node",
        "id": 7862753724,
        "lat": 23.006527,
        "lon": 72.583296,
        "tags": {
          "addr:district": "Ahmedabad",
          "addr:full": "Behrampura",
          "addr:postcode": "380022",
          "addr:state": "Gujarat",
          "amenity": "hospital",
          "name": "Sambhav General Hospital",
          "source": "Local Knowledge"
        }
      },
      {
        "type": "node",
        "id": 7862753738,
        "lat": 23.012988,
        "lon": 72.587951,
        "tags": {
          "addr:district": "Ahmedabad",
          "addr:full": "Jamalpur",
          "addr:postcode": "380001",
          "addr:state": "Gujarat",
          "amenity": "hospital",
          "name": "Hindu Muslim Ekta Trust Hospital",
          "source": "Local Knowledge"
        }
      },
      {
        "type": "node",
        "id": 7862753740,
        "lat": 23.009168,
        "lon": 72.585876,
        "tags": {
          "addr:district": "Ahmedabad",
          "addr:postcode": "380043",
          "addr:state": "Gujarat",
          "amenity": "hospital",
          "name": "Munsipal Hospital",
          "source": "Local Knowledge"
        }
      }
    ]
  },
  "pois_2_5km": {
    "version": 0.6,
    "generator": "Overpass API 0.7.62.8 e802775f",
    "osm3s": {
      "timestamp_osm_base": "2025-09-07T12:16:26Z",
      "copyright": "The data included in this document is from www.openstreetmap.org. The data is made available under ODbL."
    },
    "elements": [
      {
        "type": "node",
        "id": 429460556,
        "lat": 23.0241439,
        "lon": 72.5804883,
        "tags": {
          "bus": "yes",
          "public_transport": "stop_position"
        }
      },
      {
        "type": "node",
        "id": 625175627,
        "lat": 23.0111829,
        "lon": 72.5707945,
        "tags": {
          "amenity": "theatre",
          "name": "Amphitheatre"
        }
      },
      {
        "type": "node",
        "id": 1781763832,
        "lat": 23.0045263,
        "lon": 72.5644882,
        "tags": {
          "amenity": "fuel",
          "name": "Ansh Petrol Pump"
        }
      },
      {
        "type": "node",
        "id": 1782729611,
        "lat": 23.0268403,
        "lon": 72.5806381,
        "tags": {
          "bus": "yes",
          "public_transport": "stop_position"
        }
      },
      {
        "type": "node",
        "id": 2377178512,
        "lat": 23.0263196,
        "lon": 72.5841287,
        "tags": {
          "amenity": "fuel"
        }
      },
      {
        "type": "node",
        "id": 3302227672,
        "lat": 23.0120486,
        "lon": 72.5638517,
        "tags": {
          "amenity": "fuel",
          "brand": "Hindustan Petroleum",
          "fuel:diesel": "yes",
          "fuel:octane_80": "yes",
          "name": "Hindustan Petroleum Station",
          "operator": "Hindustan Petroleum"
        }
      },
      {
        "type": "node",
        "id": 3306683465,
        "lat": 23.0117408,
        "lon": 72.562166,
        "tags": {
          "bus": "yes",
          "public_transport": "stop_position"
        }
      },
      {
        "type": "node",
        "id": 3306683587,
        "lat": 23.0282432,
        "lon": 72.5814362,
        "tags": {
          "bus": "yes",
          "public_transport": "stop_position"
        }
      },
      {
        "type": "node",
        "id": 3336777167,
        "lat": 23.0218734,
        "lon": 72.5984903,
        "tags": {
          "addr:street": "Gandhi Road",
          "amenity": "bus_station",
          "bus": "yes",
          "name": "Ahmedabad",
          "name:en": "Kalupur Bus stop",
          "public_transport": "station"
        }
      },
      {
        "type": "node",
        "id": 3355748461,
        "lat": 23.0186671,
        "lon": 72.5883471,
        "tags": {
          "bus": "yes",
          "public_transport": "stop_position"
        }
      },
      {
        "type": "node",
        "id": 3355794772,
        "lat": 23.0241902,
        "lon": 72.5785562,
        "tags": {
          "amenity": "bus_station",
          "bus": "yes",
          "name": "Lal Darwaja AMTS Bus Stop",
          "operator": "Ahmedabad Municipal Transport Service",
          "public_transport": "station",
          "wikidata": "Q4696119",
          "wikipedia": "en:Ahmedabad Municipal Transport Service"
        }
      },
      {
        "type": "node",
        "id": 3393656497,
        "lat": 23.011445,
        "lon": 72.5864365,
        "tags": {
          "amenity": "fuel",
          "brand": "Adani",
          "name": "Adani CNG Gas Station",
          "operator": "Adani"
        }
      },
      {
        "type": "node",
        "id": 4326504193,
        "lat": 23.0135186,
        "lon": 72.5644029,
        "tags": {
          "addr:street": "Ashram Road",
          "amenity": "fuel",
          "name": "CNG Adani"
        }
      },
      {
        "type": "node",
        "id": 5527662484,
        "lat": 23.0140063,
        "lon": 72.5658082,
        "tags": {
          "amenity": "fuel",
          "brand": "Bharat Petroleum"
        }
      },
      {
        "type": "node",
        "id": 5540117738,
        "lat": 23.0024253,
        "lon": 72.5928352,
        "tags": {
          "amenity": "bus_station",
          "bus": "yes",
          "name": "Kankaria Telephone exchange",
          "operator": "BRTS, Ahmedabad",
          "public_transport": "station"
        }
      },
      {
        "type": "node",
        "id": 5622701055,
        "lat": 23.0287794,
        "lon": 72.586749,
        "tags": {
          "name": "Gheekanta",
          "public_transport": "stop_position",
          "railway": "stop",
          "subway": "yes"
        }
      },
      {
        "type": "node",
        "id": 7944287424,
        "lat": 23.028794,
        "lon": 72.5867752,
        "tags": {
          "name": "Gheekanta",
          "name:gu": "\u0a98\u0ac0\u0a95\u0abe\u0a82\u0a9f\u0abe",
          "public_transport": "station",
          "railway": "station",
          "station": "subway",
          "subway": "yes"
        }
      },
      {
        "type": "node",
        "id": 10076537516,
        "lat": 23.0287972,
        "lon": 72.5868045,
        "tags": {
          "name": "Gheekanta",
          "public_transport": "stop_position",
          "railway": "stop",
          "subway": "yes"
        }
      },
      {
        "type": "node",
        "id": 10076616710,
        "lat": 23.0271728,
        "lon": 72.5688973,
        "tags": {
          "name": "Gandhigram",
          "public_transport": "stop_position",
          "railway": "stop",
          "subway": "yes"
        }
      },
      {
        "type": "node",
        "id": 10076616711,
        "lat": 23.0271754,
        "lon": 72.5688202,
        "tags": {
          "name": "Gandhigram",
          "public_transport": "stop_position",
          "railway": "stop",
          "subway": "yes"
        }
      },
      {
        "type": "node",
        "id": 10076859848,
        "lat": 23.0185472,
        "lon": 72.5623281,
        "tags": {
          "name": "Paldi",
          "public_transport": "stop_position",
          "railway": "stop",
          "subway": "yes"
        }
      },
      {
        "type": "node",
        "id": 10076859849,
        "lat": 23.0184541,
        "lon": 72.5623806,
        "tags": {
          "name": "Paldi",
          "public_transport": "stop_position",
          "railway": "stop",
          "subway": "yes"
        }
      }
    ]
  }
}