{
  "pois_1km": {
    "version": 0.6,
    "generator": "Overpass API 0.7.62.8 e802775f",
    "osm3s": {
      "timestamp_osm_base": "2025-09-07T12:47:15Z",
      "copyright": "The data included in this document is from www.openstreetmap.org. The data is made available under ODbL."
    },
    "elements": [
      {
        "type": "node",
        "id": 2034596325,
        "lat": 23.0058514,
        "lon": 72.5910422,
        "tags": {
          "amenity": "bank",
          "atm": "yes",
          "brand:wikidata": "Q2003797",
          "brand:wikipedia": "en:Bank of Baroda",
          "name": "Bank of Baroda",
          "name:en": "Bank of Baroda",
          "short_name": "BoB",
          "website": "http://www.bankofbaroda.com"
        }
      },
      {
        "type": "node",
        "id": 4456641892,
        "lat": 23.0142393,
        "lon": 72.5935884,
        "tags": {
          "amenity": "atm",
          "operator": "Gita mandir"
        }
      },
      {
        "type": "node",
        "id": 6183928288,
        "lat": 23.0169709,
        "lon": 72.5835893,
        "tags": {
          "amenity": "restaurant",
          "name": "Chicken biryani",
          "name:ja": "\u30c1\u30ad\u30f3\u30d3\u30ea\u30e4\u30cb"
        }
      },
      {
        "type": "node",
        "id": 6971034528,
        "lat": 23.0013354,
        "lon": 72.5905041,
        "tags": {
          "addr:district": "Ahmedabad",
          "addr:full": "Madhuvan Society,Opposite Bhaktavallabh Dhola School, Shahalam Tolnaka, Kankaria Road",
          "addr:postcode": "380028",
          "addr:state": "Gujarat",
          "amenity": "hospital",
          "name": "Jankalyan Hospital, Ahmedabad",
          "source": "OpenGovernmentData"
        }
      },
      {
        "type": "node",
        "id": 6977562756,
        "lat": 23.0048092,
        "lon": 72.5901327,
        "tags": {
          "addr:district": "Ahmedabad",
          "addr:full": "Mangal Park Bus Stop, Opp, Petrol Pump Gita Mandir Road",
          "addr:postcode": "380022",
          "addr:state": "Gujarat",
          "amenity": "hospital",
          "name": "Parth Eye Hospital, Ahmedabad",
          "source": "OpenGovernmentData"
        }
      },
      {
        "type": "node",
        "id": 6978658096,
        "lat": 23.0017415,
        "lon": 72.5917406,
        "tags": {
          "addr:district": "Ahmedabad",
          "addr:full": "2-Hari Nagar Society, OppositeTelephone Exchange,Kankaria Road, Near Shahalam Tolnaka",
          "addr:postcode": "380028",
          "addr:state": "Gujarat",
          "amenity": "hospital",
          "name": "Dr.Soneji Hospital",
          "source": "OpenGovernmentData"
        }
      },
      {
        "type": "node",
        "id": 6979071770,
        "lat": 23.0042895,
        "lon": 72.5905082,
        "tags": {
          "addr:district": "Ahmedabad",
          "addr:full": "3Road Floor, Sanket Complex, Opp Petrol Pump Mangal Park, Bhulabhai Park, Geetamandir Road",
          "addr:postcode": "380022",
          "addr:state": "Gujarat",
          "amenity": "hospital",
          "name": "Trupti Heart and Medical Hospital, Ahmedabad",
          "source": "OpenGovernmentData"
        }
      },
      {
        "type": "node",
        "id": 6981152500,
        "lat": 23.0098432,
        "lon": 72.5806028,
        "tags": {
          "addr:district": "Ahmedabad",
          "addr:full": "202/203, 2 Nd Floor, Bagmar Plaza, Nr Jamalpur Cross Road, Jamalpur",
          "addr:postcode": "380043",
          "addr:state": "Gujarat",
          "amenity": "hospital",
          "name": "Pearl Eye Hospital",
          "source": "OpenGovernmentData"
        }
      },
      {
        "type": "node",
        "id": 6989132421,
        "lat": 23.0054634,
        "lon": 72.5904116,
        "tags": {
          "addr:district": "Ahmedabad",
          "addr:full": "Ami Ganga Complex Rohit Mill Circle",
          "addr:postcode": "380001",
          "addr:state": "Gujarat",
          "amenity": "hospital",
          "name": "Smruti Hospital",
          "source": "OpenGovernmentData"
        }
      },
      {
        "type": "node",
        "id": 7862753692,
        "lat": 23.014903,
        "lon": 72.582281,
        "tags": {
          "addr:district": "Ahmedabad",
          "addr:full": "Raikhad",
          "addr:postcode": "380001",
          "addr:state": "Gujarat",
          "amenity": "clinic",
          "name": "Herbal Unani Clinic",
          "source": "Local Knowledge"
        }
      },
      {
        "type": "node",
        "id": 7862753705,
        "lat": 23.001855,
        "lon": 72.589145,
        "tags": {
          "addr:district": "Ahmedabad",
          "addr:full": "Bhavna Colony, Behrampura",
          "addr:postcode": "380022",
          "addr:state": "Gujarat",
          "amenity": "doctors",
          "name": "Dr. Mubassir Saiyad",
          "source": "Local Knowledge"
        }
      },
      {
        "type": "node",
        "id": 7862753709,
        "lat": 23.005749,
        "lon": 72.595118,
        "tags": {
          "addr:district": "Ahmedabad",
          "addr:full": "Kankaria",
          "addr:postcode": "380002",
          "addr:state": "Gujarat",
          "amenity": "hospital",
          "name": "Bhanu Jit Maternity and Nursing Home",
          "source": "Local Knowledge"
        }
      },
      {
        "type": "node",
        "id": 7862753724,
        "lat": 23.006527,
        "lon": 72.583296,
        "tags": {
          "addr:district": "Ahmedabad",
          "addr:full": "Behrampura",
          "addr:postcode": "380022",
          "addr:state": "Gujarat",
          "amenity": "hospital",
          "name": "Sambhav General Hospital",
          "source": "Local Knowledge"
        }
      },
      {
        "type": "node",
        "id": 7862753738,
        "lat": 23.012988,
        "lon": 72.587951,
        "tags": {
          "addr:district": "Ahmedabad",
          "addr:full": "Jamalpur",
          "addr:postcode": "380001",
          "addr:state": "Gujarat",
          "amenity": "hospital",
          "name": "Hindu Muslim Ekta Trust Hospital",
          "source": "Local Knowledge"
        }
      },
      {
        "type": "node",
        "id": 7862753740,
        "lat": 23.009168,
        "lon": 72.585876,
        "tags": {
          "addr:district": "Ahmedabad",
          "addr:postcode": "380043",
          "addr:state": "Gujarat",
          "amenity": "hospital",
          "name": "Munsipal Hospital",
          "source": "Local Knowledge"
        }
      },
      {
        "type": "node",
        "id": 7862753743,
        "lat": 23.015985,
        "lon": 72.587351,
        "tags": {
          "addr:district": "Ahmedabad",
          "addr:full": "Panch Pipli, Astodia, Khamasa",
          "addr:postcode": "380001",
          "addr:state": "Gujarat",
          "amenity": "hospital",
          "name": "Chhipa Welfare Trust Hospital",
          "source": "Local Knowledge"
        }
      },
      {
        "type": "node",
        "id": 7862753744,
        "lat": 23.0151021,
        "lon": 72.5908296,
        "tags": {
          "addr:district": "Ahmedabad",
          "addr:full": "Astodia, Khamasa",
          "addr:postcode": "380001",
          "addr:state": "Gujarat",
          "amenity": "hospital",
          "name": "TB Hospital",
          "source": "Local Knowledge"
        }
      },
      {
        "type": "node",
        "id": 7862753753,
        "lat": 23.0058864,
        "lon": 72.5917151,
        "tags": {
          "addr:district": "Ahmedabad",
          "addr:full": "Kankaria, Maninagar",
          "addr:postcode": "380002",
          "addr:state": "Gujarat",
          "amenity": "hospital",
          "name": "Aaditya Spine Hospital",
          "source": "Local Knowledge"
        }
      },
      {
        "type": "node",
        "id": 7862753757,
        "lat": 23.0012666,
        "lon": 72.5877721,
        "tags": {
          "addr:district": "Ahmedabad",
          "addr:full": "Danilimda",
          "addr:postcode": "380028",
          "addr:state": "Gujarat",
          "amenity": "hospital",
          "name": "Safal Children Hospital",
          "source": "Local Knowledge"
        }
      }
    ]
  },
  "pois_2_5km": {
    "version": 0.6,
    "generator": "Overpass API 0.7.62.8 e802775f",
    "osm3s": {
      "timestamp_osm_base": "2025-09-07T12:47:15Z",
      "copyright": "The data included in this document is from www.openstreetmap.org. The data is made available under ODbL."
    },
    "elements": [
      {
        "type": "node",
        "id": 429460556,
        "lat": 23.0241439,
        "lon": 72.5804883,
        "tags": {
          "bus": "yes",
          "public_transport": "stop_position"
        }
      },
      {
        "type": "node",
        "id": 625175627,
        "lat": 23.0111829,
        "lon": 72.5707945,
        "tags": {
          "amenity": "theatre",
          "name": "Amphitheatre"
        }
      },
      {
        "type": "node",
        "id": 1206485486,
        "lat": 23.0251057,
        "lon": 72.6017011,
        "tags": {
          "name": "Ahmedabad Junction",
          "public_transport": "stop_position",
          "railway": "stop",
          "ref": "10",
          "train": "yes"
        }
      },
      {
        "type": "node",
        "id": 1206485574,
        "lat": 23.0251068,
        "lon": 72.6020896,
        "tags": {
          "name": "Ahmedabad Junction",
          "public_transport": "stop_position",
          "railway": "stop",
          "ref": "10",
          "train": "yes"
        }
      },
      {
        "type": "node",
        "id": 1206490577,
        "lat": 23.0251064,
        "lon": 72.6019452,
        "tags": {
          "name": "Ahmedabad Junction",
          "public_transport": "stop_position",
          "railway": "stop",
          "ref": "10",
          "train": "yes"
        }
      },
      {
        "type": "node",
        "id": 1781763832,
        "lat": 23.0045263,
        "lon": 72.5644882,
        "tags": {
          "amenity": "fuel",
          "name": "Ansh Petrol Pump"
        }
      },
      {
        "type": "node",
        "id": 1782729611,
        "lat": 23.0268403,
        "lon": 72.5806381,
        "tags": {
          "bus": "yes",
          "public_transport": "stop_position"
        }
      },
      {
        "type": "node",
        "id": 2377178512,
        "lat": 23.0263196,
        "lon": 72.5841287,
        "tags": {
          "amenity": "fuel"
        }
      },
      {
        "type": "node",
        "id": 2669084968,
        "lat": 23.0263312,
        "lon": 72.601,
        "tags": {
          "addr:postcode": "380001",
          "addr:street": "Station Road",
          "alt_name": "Kalupur Railway Station",
          "historic:ref": "ADIJ",
          "internet_access": "wlan",
          "name": "Ahmedabad Junction",
          "network": "IR",
          "operator": "WR",
          "public_transport": "station",
          "railway": "station",
          "ref": "ADI",
          "train": "yes",
          "wikidata": "Q4696124",
          "wikipedia": "en:Ahmedabad Junction railway station"
        }
      },
      {
        "type": "node",
        "id": 3302227672,
        "lat": 23.0120486,
        "lon": 72.5638517,
        "tags": {
          "amenity": "fuel",
          "brand": "Hindustan Petroleum",
          "fuel:diesel": "yes",
          "fuel:octane_80": "yes",
          "name": "Hindustan Petroleum Station",
          "operator": "Hindustan Petroleum"
        }
      },
      {
        "type": "node",
        "id": 3306683587,
        "lat": 23.0282432,
        "lon": 72.5814362,
        "tags": {
          "bus": "yes",
          "public_transport": "stop_position"
        }
      },
      {
        "type": "node",
        "id": 3336777167,
        "lat": 23.0218734,
        "lon": 72.5984903,
        "tags": {
          "addr:street": "Gandhi Road",
          "amenity": "bus_station",
          "bus": "yes",
          "name": "Ahmedabad",
          "name:en": "Kalupur Bus stop",
          "public_transport": "station"
        }
      },
      {
        "type": "node",
        "id": 3355748461,
        "lat": 23.0186671,
        "lon": 72.5883471,
        "tags": {
          "bus": "yes",
          "public_transport": "stop_position"
        }
      },
      {
        "type": "node",
        "id": 3355794772,
        "lat": 23.0241902,
        "lon": 72.5785562,
        "tags": {
          "amenity": "bus_station",
          "bus": "yes",
          "name": "Lal Darwaja AMTS Bus Stop",
          "operator": "Ahmedabad Municipal Transport Service",
          "public_transport": "station",
          "wikidata": "Q4696119",
          "wikipedia": "en:Ahmedabad Municipal Transport Service"
        }
      },
      {
        "type": "node",
        "id": 3393656497,
        "lat": 23.011445,
        "lon": 72.5864365,
        "tags": {
          "amenity": "fuel",
          "brand": "Adani",
          "name": "Adani CNG Gas Station",
          "operator": "Adani"
        }
      },
      {
        "type": "node",
        "id": 4326504193,
        "lat": 23.0135186,
        "lon": 72.5644029,
        "tags": {
          "addr:street": "Ashram Road",
          "amenity": "fuel",
          "name": "CNG Adani"
        }
      },
      {
        "type": "node",
        "id": 4530241653,
        "lat": 23.0251063,
        "lon": 72.6018905,
        "tags": {
          "name": "Ahmedabad Junction",
          "public_transport": "stop_position",
          "railway": "stop",
          "ref": "10",
          "train": "yes"
        }
      },
      {
        "type": "node",
        "id": 5527662484,
        "lat": 23.0140063,
        "lon": 72.5658082,
        "tags": {
          "amenity": "fuel",
          "brand": "Bharat Petroleum"
        }
      },
      {
        "type": "node",
        "id": 5540117738,
        "lat": 23.0024253,
        "lon": 72.5928352,
        "tags": {
          "amenity": "bus_station",
          "bus": "yes",
          "name": "Kankaria Telephone exchange",
          "operator": "BRTS, Ahmedabad",
          "public_transport": "station"
        }
      },
      {
        "type": "node",
        "id": 5622701037,
        "lat": 23.0154543,
        "lon": 72.6069352,
        "tags": {
          "name": "Kankaria East",
          "public_transport": "stop_position",
          "railway": "stop",
          "subway": "yes"
        }
      },
      {
        "type": "node",
        "id": 5622701044,
        "lat": 23.0246945,
        "lon": 72.603093,
        "tags": {
          "name": "Kalupur Railway Station",
          "public_transport": "stop_position",
          "railway": "stop",
          "subway": "yes"
        }
      },
      {
        "type": "node",
        "id": 5622701055,
        "lat": 23.0287794,
        "lon": 72.586749,
        "tags": {
          "name": "Gheekanta",
          "public_transport": "stop_position",
          "railway": "stop",
          "subway": "yes"
        }
      },
      {
        "type": "node",
        "id": 7707519216,
        "lat": 23.025107,
        "lon": 72.6021398,
        "tags": {
          "name": "Ahmedabad Junction",
          "public_transport": "stop_position",
          "railway": "stop",
          "ref": "10",
          "train": "yes"
        }
      },
      {
        "type": "node",
        "id": 7944287415,
        "lat": 23.0246913,
        "lon": 72.6031447,
        "tags": {
          "name": "Kalupur Railway Station",
          "name:gu": "\u0a95\u0abe\u0ab2\u0ac1\u0aaa\u0ac1\u0ab0 \u0ab0\u0ac7\u0ab2\u0acd\u0ab5\u0ac7 \u0ab8\u0acd\u0a9f\u0ac7\u0ab6\u0aa8",
          "public_transport": "station",
          "railway": "station",
          "station": "subway",
          "subway": "yes",
          "wikidata": "Q114400466"
        }
      },
      {
        "type": "node",
        "id": 7944287418,
        "lat": 23.0154573,
        "lon": 72.6070016,
        "tags": {
          "name": "Kankaria East",
          "public_transport": "station",
          "railway": "station",
          "station": "subway",
          "subway": "yes",
          "wikidata": "Q114400460"
        }
      },
      {
        "type": "node",
        "id": 7944287424,
        "lat": 23.028794,
        "lon": 72.5867752,
        "tags": {
          "name": "Gheekanta",
          "name:gu": "\u0a98\u0ac0\u0a95\u0abe\u0a82\u0a9f\u0abe",
          "public_transport": "station",
          "railway": "station",
          "station": "subway",
          "subway": "yes"
        }
      },
      {
        "type": "node",
        "id": 10076537485,
        "lat": 23.0154585,
        "lon": 72.6070566,
        "tags": {
          "name": "Kankaria East",
          "public_transport": "stop_position",
          "railway": "stop",
          "subway": "yes"
        }
      },
      {
        "type": "node",
        "id": 10076537499,
        "lat": 23.0246998,
        "lon": 72.603211,
        "tags": {
          "name": "Kalupur Railway Station",
          "public_transport": "stop_position",
          "railway": "stop",
          "subway": "yes"
        }
      },
      {
        "type": "node",
        "id": 10076537516,
        "lat": 23.0287972,
        "lon": 72.5868045,
        "tags": {
          "name": "Gheekanta",
          "public_transport": "stop_position",
          "railway": "stop",
          "subway": "yes"
        }
      }
    ]
  }
}