{
  "pois_1km": {
    "version": 0.6,
    "generator": "Overpass API 0.7.62.8 e802775f",
    "osm3s": {
      "timestamp_osm_base": "2025-09-07T12:02:09Z",
      "copyright": "The data included in this document is from www.openstreetmap.org. The data is made available under ODbL."
    },
    "elements": [
      {
        "type": "node",
        "id": 611573353,
        "lat": 23.0648296,
        "lon": 72.5821405,
        "tags": {
          "amenity": "restaurant"
        }
      },
      {
        "type": "node",
        "id": 4585364197,
        "lat": 23.0659846,
        "lon": 72.5827993,
        "tags": {
          "amenity": "restaurant",
          "name": "HANDI HOTEL",
          "name:en": "HANDI HOTEL"
        }
      },
      {
        "type": "node",
        "id": 4794228821,
        "lat": 23.0576222,
        "lon": 72.5700771,
        "tags": {
          "amenity": "hospital",
          "name": "Shivam X-ray & Sonography clinic",
          "name:en": "Dr Ghanshyam Dabhi",
          "opening_hours": "Mo-Sa 08:00-15:00, 17:00-21:00",
          "phone": "+917927641100"
        }
      },
      {
        "type": "node",
        "id": 6969893727,
        "lat": 23.0575049,
        "lon": 72.5703567,
        "tags": {
          "addr:district": "Ahmedabad",
          "addr:full": "Niddhi Complex Opp Mehsana Society Bhimjipura Nava Vadaj Road",
          "addr:postcode": "380013",
          "addr:state": "Gujarat",
          "amenity": "hospital",
          "name": "Navjyot Eye Hospital, Ahmedabad",
          "source": "OpenGovernmentData"
        }
      },
      {
        "type": "node",
        "id": 6973933650,
        "lat": 23.0542867,
        "lon": 72.5720197,
        "tags": {
          "addr:district": "Ahmedabad",
          "addr:full": "5Th Floor, Bodycare Medical Centre, Juna Wadaj",
          "addr:postcode": "380013",
          "addr:state": "Gujarat",
          "amenity": "hospital",
          "name": "Dr. Manish Ravals Hospital",
          "source": "OpenGovernmentData"
        }
      },
      {
        "type": "node",
        "id": 6973933651,
        "lat": 23.0541596,
        "lon": 72.5720304,
        "tags": {
          "addr:district": "Ahmedabad",
          "addr:full": "4Th Floor , Body Medical Centre,Opposite Juna Wadaj Bus Stand, Ashram Road,Juna Wadaj",
          "addr:postcode": "380013",
          "addr:state": "Gujarat",
          "amenity": "hospital",
          "name": "Harsh Neurosurgical Hospital",
          "source": "OpenGovernmentData"
        }
      },
      {
        "type": "node",
        "id": 6973933652,
        "lat": 23.0542275,
        "lon": 72.5720505,
        "tags": {
          "addr:district": "Ahmedabad",
          "addr:full": "301, 302 3Road Floor, Bodycare Complex",
          "addr:postcode": "380013",
          "addr:state": "Gujarat",
          "amenity": "hospital",
          "name": "Bodycare Orthopaedic and Trauma Hospital",
          "source": "OpenGovernmentData"
        }
      },
      {
        "type": "node",
        "id": 6973933658,
        "lat": 23.0575728,
        "lon": 72.5703634,
        "tags": {
          "addr:district": "Ahmedabad",
          "addr:full": "Near Bhimajipura Cross Roads, Nava Vadaj Road",
          "addr:postcode": "380013",
          "addr:state": "Gujarat",
          "addr:subdistrict": "Navavadaj",
          "amenity": "hospital",
          "contact:phone": "7927642100",
          "email": "marketing@devasyahospital.com",
          "name": "Devasya Kidney and Multi speciality Hospital, Ahmedabad",
          "operator:type": "private",
          "source": "OpenGovernmentData",
          "website": "https://www.devasyahospital.com/contact-us/"
        }
      },
      {
        "type": "node",
        "id": 6975686200,
        "lat": 23.0576184,
        "lon": 72.5692952,
        "tags": {
          "addr:district": "Ahmedabad",
          "addr:full": "20, Mehsana Society, Opposite Laxmi Hospital,Opposite Sanjivani Complex, Nava Vadaj Road",
          "addr:postcode": "380013",
          "addr:state": "Gujarat",
          "amenity": "hospital",
          "name": "Vadaj Orthopaedic Hospital",
          "source": "OpenGovernmentData"
        }
      },
      {
        "type": "node",
        "id": 6981887874,
        "lat": 23.0633976,
        "lon": 72.5809816,
        "tags": {
          "addr:district": "Ahmedabad",
          "addr:full": "4, Gandhi Gram Society Opposite Boi",
          "addr:postcode": "380027",
          "addr:state": "Gujarat",
          "amenity": "clinic",
          "name": "Ami Eye Clinic",
          "source": "OpenGovernmentData"
        }
      },
      {
        "type": "node",
        "id": 6982051126,
        "lat": 23.0578122,
        "lon": 72.5701462,
        "tags": {
          "addr:district": "Ahmedabad",
          "addr:full": "Sanjeevani Complex,Opposite Mehsana Society Nava Wadaj Road, Vadaj",
          "addr:postcode": "380013",
          "addr:state": "Gujarat",
          "amenity": "hospital",
          "name": "Auro Ent Hospital",
          "source": "OpenGovernmentData"
        }
      },
      {
        "type": "node",
        "id": 6982092239,
        "lat": 23.0578196,
        "lon": 72.5701541,
        "tags": {
          "addr:district": "Ahmedabad",
          "addr:full": "Sanjeevani Complex, Opposite Mehsana Soc., Nava Vadaj Road",
          "addr:postcode": "380013",
          "addr:state": "Gujarat",
          "amenity": "hospital",
          "name": "Sanjivani Heart and Medical Hospital (Ahmedabad)",
          "source": "OpenGovernmentData"
        }
      }
    ]
  },
  "pois_2_5km": {
    "version": 0.6,
    "generator": "Overpass API 0.7.62.8 e802775f",
    "osm3s": {
      "timestamp_osm_base": "2025-09-07T12:02:09Z",
      "copyright": "The data included in this document is from www.openstreetmap.org. The data is made available under ODbL."
    },
    "elements": [
      {
        "type": "node",
        "id": 323189766,
        "lat": 23.0770712,
        "lon": 72.5890677,
        "tags": {
          "historic:ref": "SBI",
          "internet_access": "no",
          "name": "Sabarmati",
          "network": "IR",
          "operator": "WR",
          "public_transport": "station",
          "railway": "station",
          "ref": "SBIB",
          "train": "yes",
          "wikidata": "Q7395913",
          "wikipedia": "en:Sabarmati Junction railway station"
        }
      },
      {
        "type": "node",
        "id": 1952553001,
        "lat": 23.0684998,
        "lon": 72.5619985,
        "tags": {
          "amenity": "fuel",
          "brand": "Hindustan Petroleum",
          "name": "Akhbarnagar petrol pump"
        }
      },
      {
        "type": "node",
        "id": 3306683627,
        "lat": 23.0423375,
        "lon": 72.5695809,
        "tags": {
          "bus": "yes",
          "public_transport": "stop_position"
        }
      },
      {
        "type": "node",
        "id": 3306683628,
        "lat": 23.0433539,
        "lon": 72.5697209,
        "tags": {
          "bus": "yes",
          "public_transport": "stop_position"
        }
      },
      {
        "type": "node",
        "id": 3306683629,
        "lat": 23.0519878,
        "lon": 72.5902552,
        "tags": {
          "bus": "yes",
          "public_transport": "stop_position"
        }
      },
      {
        "type": "node",
        "id": 3306683638,
        "lat": 23.0555329,
        "lon": 72.5719936,
        "tags": {
          "bus": "yes",
          "public_transport": "stop_position"
        }
      },
      {
        "type": "node",
        "id": 3306683639,
        "lat": 23.0560223,
        "lon": 72.5910561,
        "tags": {
          "bus": "yes",
          "public_transport": "stop_position"
        }
      },
      {
        "type": "node",
        "id": 3306683642,
        "lat": 23.0603256,
        "lon": 72.5919869,
        "tags": {
          "bus": "yes",
          "public_transport": "stop_position"
        }
      },
      {
        "type": "node",
        "id": 3306683643,
        "lat": 23.0612354,
        "lon": 72.580309,
        "tags": {
          "bus": "yes",
          "public_transport": "stop_position"
        }
      },
      {
        "type": "node",
        "id": 3306683644,
        "lat": 23.0621551,
        "lon": 72.5952829,
        "tags": {
          "bus": "yes",
          "public_transport": "stop_position"
        }
      },
      {
        "type": "node",
        "id": 3306683645,
        "lat": 23.0645512,
        "lon": 72.5996029,
        "tags": {
          "bus": "yes",
          "public_transport": "stop_position"
        }
      },
      {
        "type": "node",
        "id": 4483474713,
        "lat": 23.0400891,
        "lon": 72.5781297,
        "tags": {
          "addr:street": "Kasturba Gandhi Road",
          "amenity": "fuel",
          "name": "CNG Bharat petroleum"
        }
      },
      {
        "type": "node",
        "id": 4486398588,
        "lat": 23.0712603,
        "lon": 72.5870272,
        "tags": {
          "internet_access": "no",
          "name": "Sabarmati Junction",
          "network": "IR",
          "operator": "WR",
          "public_transport": "station",
          "railway": "station",
          "ref": "SBT",
          "train": "yes",
          "wikidata": "Q7395913",
          "wikipedia": "en:Sabarmati Junction railway station"
        }
      },
      {
        "type": "node",
        "id": 4794252824,
        "lat": 23.068497,
        "lon": 72.5760108,
        "tags": {
          "amenity": "theatre",
          "name": "PVR Cinemas",
          "name:en": "PVR Cinemas"
        }
      },
      {
        "type": "node",
        "id": 5622776290,
        "lat": 23.0564338,
        "lon": 72.5622541,
        "tags": {
          "name": "Vijay Nagar",
          "public_transport": "stop_position",
          "railway": "stop",
          "subway": "yes"
        }
      },
      {
        "type": "node",
        "id": 6422003787,
        "lat": 23.0778134,
        "lon": 72.5885153,
        "tags": {
          "name": "Sabarmati Junction",
          "public_transport": "stop_position",
          "railway": "stop",
          "ref": "1",
          "train": "yes"
        }
      },
      {
        "type": "node",
        "id": 7020233387,
        "lat": 23.0430359,
        "lon": 72.5895319,
        "tags": {
          "amenity": "bus_station",
          "bus": "yes",
          "name:ko": "Bus stand(from Jodhpur)",
          "public_transport": "station"
        }
      },
      {
        "type": "node",
        "id": 7707085294,
        "lat": 23.0777093,
        "lon": 72.5882396,
        "tags": {
          "name": "Sabarmati Junction",
          "public_transport": "stop_position",
          "railway": "stop",
          "ref": "1",
          "train": "yes"
        }
      },
      {
        "type": "node",
        "id": 7707519215,
        "lat": 23.0777671,
        "lon": 72.5883938,
        "tags": {
          "name": "Sabarmati Junction",
          "public_transport": "stop_position",
          "railway": "stop",
          "ref": "2",
          "train": "yes"
        }
      },
      {
        "type": "node",
        "id": 7944287421,
        "lat": 23.0392105,
        "lon": 72.5810327,
        "tags": {
          "name": "Shahpur Station",
          "name:gu": "\u0ab6\u0abe\u0ab9\u0aaa\u0ac1\u0ab0",
          "public_transport": "station",
          "railway": "station",
          "station": "subway",
          "subway": "yes"
        }
      },
      {
        "type": "node",
        "id": 9503556232,
        "lat": 23.0677222,
        "lon": 72.5741509,
        "tags": {
          "name": "Ranip",
          "public_transport": "stop_position",
          "railway": "stop",
          "subway": "yes"
        }
      },
      {
        "type": "node",
        "id": 10076565224,
        "lat": 23.0392509,
        "lon": 72.5810332,
        "tags": {
          "name": "Shahpur Station",
          "public_transport": "stop_position",
          "railway": "stop",
          "subway": "yes"
        }
      },
      {
        "type": "node",
        "id": 10076565225,
        "lat": 23.0391575,
        "lon": 72.5810285,
        "tags": {
          "name": "Shahpur Station",
          "public_transport": "stop_position",
          "railway": "stop",
          "subway": "yes"
        }
      },
      {
        "type": "node",
        "id": 10076616712,
        "lat": 23.067695,
        "lon": 72.5658899,
        "tags": {
          "name": "Vadaj",
          "public_transport": "stop_position",
          "railway": "stop",
          "subway": "yes"
        }
      },
      {
        "type": "node",
        "id": 10076616713,
        "lat": 23.0676478,
        "lon": 72.565892,
        "tags": {
          "name": "Vadaj",
          "public_transport": "stop_position",
          "railway": "stop",
          "subway": "yes"
        }
      },
      {
        "type": "node",
        "id": 10076616748,
        "lat": 23.0564531,
        "lon": 72.5623294,
        "tags": {
          "name": "Vijay Nagar",
          "public_transport": "stop_position",
          "railway": "stop",
          "subway": "yes"
        }
      },
      {
        "type": "node",
        "id": 10076616753,
        "lat": 23.0459092,
        "lon": 72.564927,
        "tags": {
          "name": "Usmanpura",
          "public_transport": "stop_position",
          "railway": "stop",
          "subway": "yes"
        }
      },
      {
        "type": "node",
        "id": 10076616754,
        "lat": 23.045936,
        "lon": 72.5649953,
        "tags": {
          "name": "Usmanpura",
          "public_transport": "stop_position",
          "railway": "stop",
          "subway": "yes"
        }
      },
      {
        "type": "node",
        "id": 10076836189,
        "lat": 23.0751227,
        "lon": 72.5932705,
        "tags": {
          "name": "AEC",
          "public_transport": "stop_position",
          "railway": "stop",
          "subway": "yes"
        }
      },
      {
        "type": "node",
        "id": 10076836190,
        "lat": 23.0750932,
        "lon": 72.5933161,
        "tags": {
          "name": "AEC",
          "public_transport": "stop_position",
          "railway": "stop",
          "subway": "yes"
        }
      },
      {
        "type": "node",
        "id": 10076859828,
        "lat": 23.0676615,
        "lon": 72.5741529,
        "tags": {
          "name": "Ranip",
          "public_transport": "stop_position",
          "railway": "stop",
          "subway": "yes"
        }
      },
      {
        "type": "node",
        "id": 11991899052,
        "lat": 23.0710381,
        "lon": 72.6208273,
        "tags": {
          "aeroway": "terminal",
          "name": "Terminal 4 Building"
        }
      },
      {
        "type": "node",
        "id": 12196641362,
        "lat": 23.0751088,
        "lon": 72.593291,
        "tags": {
          "name": "AEC",
          "name:gu": "\u0a8f \u0a87 \u0ab8\u0ac0",
          "network": "Ahmedabad Metro",
          "operator": "Gujarat Metro Rail Corporation Limited",
          "operator:wikidata": "Q113158873",
          "operator:wikipedia": "en:Gujarat Metro Rail Corporation Limited",
          "public_transport": "station",
          "railway": "station",
          "station": "subway",
          "subway": "yes",
          "wikidata": "Q114427225"
        }
      },
      {
        "type": "node",
        "id": 12526081066,
        "lat": 23.0575051,
        "lon": 72.5562557,
        "tags": {
          "amenity": "fuel",
          "brand": "Indian Oil",
          "brand:wikidata": "Q1289348",
          "name": "Indian Oil"
        }
      },
      {
        "type": "node",
        "id": 12794883035,
        "lat": 23.0775605,
        "lon": 72.5878977,
        "tags": {
          "name": "Sabarmati Junction",
          "public_transport": "stop_position",
          "railway": "stop",
          "ref": "2",
          "train": "yes"
        }
      },
      {
        "type": "node",
        "id": 12794883088,
        "lat": 23.0776675,
        "lon": 72.5881298,
        "tags": {
          "name": "Sabarmati Junction",
          "public_transport": "stop_position",
          "railway": "stop",
          "ref": "2",
          "train": "yes"
        }
      },
      {
        "type": "node",
        "id": 12794883137,
        "lat": 23.0776023,
        "lon": 72.5880078,
        "tags": {
          "name": "Sabarmati Junction",
          "public_transport": "stop_position",
          "railway": "stop",
          "ref": "1",
          "train": "yes"
        }
      }
    ]
  }
}