{
  "pois_1km": {
    "version": 0.6,
    "generator": "Overpass API 0.7.62.8 e802775f",
    "osm3s": {
      "timestamp_osm_base": "2025-09-07T12:12:16Z",
      "copyright": "The data included in this document is from www.openstreetmap.org. The data is made available under ODbL."
    },
    "elements": [
      {
        "type": "node",
        "id": 4415934891,
        "lat": 23.0997272,
        "lon": 72.5363217,
        "tags": {
          "addr:housenumber": "1, royal homes",
          "addr:postcode": "382481",
          "addr:street": "Satyamev Vista Road",
          "amenity": "hospital",
          "healthcare": "hospital",
          "name": "vizcare hospital",
          "name:en": "vizcare hospital",
          "opening_hours": "24/7"
        }
      },
      {
        "type": "node",
        "id": 11773753701,
        "lat": 23.1048411,
        "lon": 72.5379754,
        "tags": {
          "address": "Cross Road, Devnagar, Ahmedabad, Gujarat 382481",
          "amenity": "cafe",
          "name": "The Gyan Caf\u00e9",
          "website": "https://thegyancafe.com"
        }
      }
    ]
  },
  "pois_2_5km": {
    "version": 0.6,
    "generator": "Overpass API 0.7.62.8 e802775f",
    "osm3s": {
      "timestamp_osm_base": "2025-09-07T12:12:16Z",
      "copyright": "The data included in this document is from www.openstreetmap.org. The data is made available under ODbL."
    },
    "elements": []
  }
}