{
  "pois_1km": {
    "version": 0.6,
    "generator": "Overpass API 0.7.62.8 e802775f",
    "osm3s": {
      "timestamp_osm_base": "2025-09-07T11:56:00Z",
      "copyright": "The data included in this document is from www.openstreetmap.org. The data is made available under ODbL."
    },
    "elements": [
      {
        "type": "node",
        "id": 1746708885,
        "lat": 23.0263264,
        "lon": 72.5077538,
        "tags": {
          "amenity": "atm",
          "brand": "State Bank of India",
          "brand:wikidata": "Q1340361",
          "brand:wikipedia": "en:State Bank of India",
          "name": "State Bank of India",
          "operator": "State Bank of India",
          "operator:wikidata": "Q1340361",
          "operator:wikipedia": "en:State Bank of India",
          "short_name": "SBI"
        }
      },
      {
        "type": "node",
        "id": 4199023903,
        "lat": 23.0245018,
        "lon": 72.5073318,
        "tags": {
          "amenity": "cafe",
          "brand": "Cafe Coffee Day",
          "brand:wikidata": "Q5017235",
          "cuisine": "coffee_shop",
          "name": "Cafe Coffee Day",
          "takeaway": "yes"
        }
      },
      {
        "type": "node",
        "id": 4199023906,
        "lat": 23.0244178,
        "lon": 72.507327,
        "tags": {
          "amenity": "fast_food",
          "brand": "McDonald's",
          "brand:wikidata": "Q38076",
          "cuisine": "burger",
          "name": "McDonald's",
          "takeaway": "yes"
        }
      },
      {
        "type": "node",
        "id": 4534049990,
        "lat": 23.035392,
        "lon": 72.5065,
        "tags": {
          "amenity": "restaurant",
          "name": "Cooking Culture",
          "name:en": "Cooking Culture"
        }
      },
      {
        "type": "node",
        "id": 4595604995,
        "lat": 23.0324134,
        "lon": 72.5082222,
        "tags": {
          "amenity": "restaurant",
          "name": "Little Italy",
          "name:en": "Little Italy"
        }
      },
      {
        "type": "node",
        "id": 6649963089,
        "lat": 23.0355672,
        "lon": 72.5061396,
        "tags": {
          "addr:city": "ahmedabad",
          "addr:housenumber": "0",
          "addr:postcode": "380054",
          "addr:street": "behind bogarosa, rajpath club, bodakdev.",
          "air_conditioning": "yes",
          "amenity": "cafe",
          "cuisine": "pizza;italian;coffee_shop;indian",
          "delivery": "yes",
          "name": "cabana lounge",
          "outdoor_seating": "yes",
          "phone": "+919998822297"
        }
      },
      {
        "type": "node",
        "id": 7137331982,
        "lat": 23.034043,
        "lon": 72.5018226,
        "tags": {
          "amenity": "cafe",
          "name": "The Cafe Date"
        }
      },
      {
        "type": "node",
        "id": 9809086195,
        "lat": 23.0267886,
        "lon": 72.5079662,
        "tags": {
          "addr:city": "Ahemedabad",
          "addr:postcode": "380015",
          "addr:street": "Dev Arc Commercial Complex, 106, Iskcon Cross Rd, Near iscon cross road, Ramdev Nagar,",
          "amenity": "restaurant",
          "cuisine": "indian",
          "diet:vegetarian": "yes",
          "name": "The Grill Street"
        }
      },
      {
        "type": "node",
        "id": 9809117886,
        "lat": 23.0269943,
        "lon": 72.5066805,
        "tags": {
          "addr:city": "Ahemedabad",
          "addr:postcode": "380015",
          "addr:street": "Iskcon Cross Rd, Sanidhya",
          "name": "Shivalik Shilp",
          "shop": "supermarket"
        }
      },
      {
        "type": "node",
        "id": 9951265800,
        "lat": 23.0218092,
        "lon": 72.5062361,
        "tags": {
          "address": "Service Road, Besides Novotel, Opposite Karnavati Club, S.G. Highway, Ahmedabad",
          "amenity": "fast_food",
          "name": "Bhookh Lagi Hai?",
          "phone": "+919001293435"
        }
      },
      {
        "type": "node",
        "id": 12165401782,
        "lat": 23.0287739,
        "lon": 72.5062996,
        "tags": {
          "leisure": "park",
          "name": "Iskcon Garden"
        }
      },
      {
        "type": "node",
        "id": 12809739186,
        "lat": 23.0362706,
        "lon": 72.5034854,
        "tags": {
          "amenity": "restaurant",
          "cuisine": "asian",
          "name": "Timtim",
          "survey:date": "2025-05-04"
        }
      }
    ]
  },
  "pois_2_5km": {
    "version": 0.6,
    "generator": "Overpass API 0.7.62.8 e802775f",
    "osm3s": {
      "timestamp_osm_base": "2025-09-07T11:56:00Z",
      "copyright": "The data included in this document is from www.openstreetmap.org. The data is made available under ODbL."
    },
    "elements": [
      {
        "type": "node",
        "id": 429790303,
        "lat": 23.0245953,
        "lon": 72.5072957,
        "tags": {
          "amenity": "cinema",
          "name": "Wide Angle"
        }
      },
      {
        "type": "node",
        "id": 1746677973,
        "lat": 23.0331106,
        "lon": 72.5139509,
        "tags": {
          "amenity": "fuel",
          "brand": "Hindustan Petroleum",
          "brand:wikidata": "Q1619375",
          "name": "HP Fuel Station",
          "official_name": "Hindustan Petroleum",
          "operator": "HP"
        }
      },
      {
        "type": "node",
        "id": 4254423389,
        "lat": 23.0121167,
        "lon": 72.5124778,
        "tags": {
          "addr:postcode": "380015",
          "addr:street": "100 Ft. Road",
          "amenity": "fuel",
          "name": "Shell"
        }
      },
      {
        "type": "node",
        "id": 9117287086,
        "lat": 23.0263829,
        "lon": 72.5097931,
        "tags": {
          "addr:level": "4",
          "amenity": "cinema",
          "name": "Mukta A2 Cinemas"
        }
      }
    ]
  }
}