{
  "pois_1km": {
    "version": 0.6,
    "generator": "Overpass API 0.7.62.8 e802775f",
    "osm3s": {
      "timestamp_osm_base": "2025-09-07T11:55:01Z",
      "copyright": "The data included in this document is from www.openstreetmap.org. The data is made available under ODbL."
    },
    "elements": [
      {
        "type": "node",
        "id": 3426621651,
        "lat": 23.0206812,
        "lon": 72.5540845,
        "tags": {
          "amenity": "fast_food",
          "name": "Jasuben Pizza"
        }
      },
      {
        "type": "node",
        "id": 4633783690,
        "lat": 23.0199957,
        "lon": 72.5580704,
        "tags": {
          "addr:housenumber": "Gf-7",
          "addr:postcode": "380006",
          "addr:street": "Chimanlal Girdharlal Road",
          "amenity": "restaurant",
          "cuisine": "burger;sandwich;regional;ice_cream;grill;cake;coffee_shop;pasta;noodles;pancake;pizza;chicken;fish_and_chips;curry;indian;fish;breakfast;savory_pancakes;tea;seafood;sausage;local;barbecue",
          "diet:vegan": "yes",
          "email": "tandoorworkz@gmail.com",
          "name": "Tandoorworkz",
          "name:en": "Tandoorworkz",
          "opening_hours": "Mo-Su 11:30-18:30",
          "phone": "+91 90168 61000"
        }
      },
      {
        "type": "node",
        "id": 5340470022,
        "lat": 23.0320819,
        "lon": 72.5600295,
        "tags": {
          "addr:street": "Chimanlal Girdharlal Road",
          "amenity": "cafe",
          "name": "Cafe udipi richi"
        }
      },
      {
        "type": "node",
        "id": 5527659737,
        "lat": 23.0275402,
        "lon": 72.559229,
        "tags": {
          "amenity": "restaurant",
          "name": "Takshshila Food Court"
        }
      },
      {
        "type": "node",
        "id": 6969947773,
        "lat": 23.0178468,
        "lon": 72.5582948,
        "tags": {
          "addr:district": "Ahmedabad",
          "addr:full": "B-108, Doctor House, Ellisbridge",
          "addr:postcode": "380006",
          "addr:state": "Gujarat",
          "amenity": "clinic",
          "name": "Talsania Clinic",
          "source": "OpenGovernmentData"
        }
      },
      {
        "type": "node",
        "id": 6970331911,
        "lat": 23.0201192,
        "lon": 72.5615162,
        "tags": {
          "addr:district": "Ahmedabad",
          "addr:full": "No. 406-7, Harikrupa Tower,Near Government Ladies Hostel,Behind College,Ellisbridge",
          "addr:postcode": "380006",
          "addr:state": "Gujarat",
          "amenity": "hospital",
          "healthcare": "hospital",
          "name": "Niyati Ent Hospital",
          "source": "OpenGovernmentData"
        }
      },
      {
        "type": "node",
        "id": 6970525741,
        "lat": 23.0172667,
        "lon": 72.5577027,
        "tags": {
          "addr:district": "Ahmedabad",
          "addr:full": "1st Floor, Abhigam Complex, Near Parimal Railway Crossing, Opposite Doctor House, Ambawadi",
          "addr:postcode": "380006",
          "addr:state": "Gujarat",
          "amenity": "hospital",
          "name": "Parimal Multispeciality Hospital",
          "source": "OpenGovernmentData"
        }
      },
      {
        "type": "node",
        "id": 6970657405,
        "lat": 23.0187491,
        "lon": 72.5542206,
        "tags": {
          "addr:district": "Ahmedabad",
          "addr:full": "8/A, Hirabaug, Ambawadi, Ellisbridge",
          "addr:postcode": "380006",
          "addr:state": "Gujarat",
          "amenity": "clinic",
          "name": "Mangeet Medical Nursing Home and Heart Care",
          "source": "OpenGovernmentData"
        }
      },
      {
        "type": "node",
        "id": 6970854205,
        "lat": 23.0309628,
        "lon": 72.561022,
        "tags": {
          "addr:district": "Ahmedabad",
          "addr:full": "OppositeSardar Patel Seva Samaj Hall , In Lane Opp Navrang Pura",
          "addr:postcode": "380001",
          "addr:state": "Gujarat",
          "amenity": "hospital",
          "name": "Navneet Memorial Hospital",
          "source": "OpenGovernmentData"
        }
      },
      {
        "type": "node",
        "id": 6971013949,
        "lat": 23.0183023,
        "lon": 72.5626011,
        "tags": {
          "addr:district": "Ahmedabad",
          "addr:full": "23, Jain Society, Ellisbridge",
          "addr:postcode": "380006",
          "addr:state": "Gujarat",
          "amenity": "hospital",
          "name": "Sannidhya Hospital",
          "source": "OpenGovernmentData"
        }
      },
      {
        "type": "node",
        "id": 6974774960,
        "lat": 23.0194415,
        "lon": 72.5586167,
        "tags": {
          "addr:district": "Ahmedabad",
          "addr:full": "36,Palm Spring,Opposite Collegian Restaurant, Near Doctor House Parimal Crosssing",
          "addr:postcode": "380006",
          "addr:state": "Gujarat",
          "amenity": "hospital",
          "name": "Sarthak Orthopaedic Hospital, Parimal Crosssing",
          "source": "OpenGovernmentData"
        }
      },
      {
        "type": "node",
        "id": 6974862427,
        "lat": 23.0259277,
        "lon": 72.5660652,
        "tags": {
          "addr:district": "Ahmedabad",
          "addr:full": "Near Nagari Hospital , Mithakhali Ellishridge",
          "addr:postcode": "380006",
          "addr:state": "Gujarat",
          "amenity": "hospital",
          "healthcare": "hospital",
          "name": "Stavya Spine Hospital and Research Institute",
          "source": "OpenGovernmentData"
        }
      },
      {
        "type": "node",
        "id": 6975605658,
        "lat": 23.0197773,
        "lon": 72.5653967,
        "tags": {
          "addr:district": "Ahmedabad",
          "addr:full": "50 Pritamnagar, Ellisbridge",
          "addr:postcode": "380006",
          "addr:state": "Gujarat",
          "amenity": "clinic",
          "name": "Dr Praful Munishi's Nursing Home",
          "source": "OpenGovernmentData"
        }
      },
      {
        "type": "node",
        "id": 6975904288,
        "lat": 23.0199612,
        "lon": 72.5604567,
        "tags": {
          "addr:district": "Ahmedabad",
          "addr:full": "Ahmedabad",
          "addr:postcode": "380001",
          "addr:state": "Gujarat",
          "amenity": "doctors",
          "healthcare": "doctor",
          "name": "Dr.Santosh C.Raibagkar",
          "source": "OpenGovernmentData"
        }
      },
      {
        "type": "node",
        "id": 6976062877,
        "lat": 23.0182599,
        "lon": 72.5568886,
        "tags": {
          "addr:district": "Ahmedabad",
          "addr:full": "17, Parimal Society B/H Prerna Arcade, Near Parimal Garden",
          "addr:postcode": "380006",
          "addr:state": "Gujarat",
          "amenity": "hospital",
          "healthcare": "hospital",
          "name": "Diva Eye Institute Hospital",
          "source": "OpenGovernmentData"
        }
      },
      {
        "type": "node",
        "id": 6976100898,
        "lat": 23.0186294,
        "lon": 72.5584531,
        "tags": {
          "addr:district": "Ahmedabad",
          "addr:full": "4Th Floor Nand Kutir B/H Doctor House Nr Parimal Rly Crossing Ellisbridge",
          "addr:postcode": "380006",
          "addr:state": "Gujarat",
          "amenity": "hospital",
          "name": "Khush Eye Hospital",
          "source": "OpenGovernmentData"
        }
      },
      {
        "type": "node",
        "id": 6976113865,
        "lat": 23.0241454,
        "lon": 72.5498479,
        "tags": {
          "addr:district": "Ahmedabad",
          "addr:full": "Eye Care Hospital, Polytechnic Road , B/H Ioc Petrol Pump Ambawadi",
          "addr:postcode": "380015",
          "addr:state": "Gujarat",
          "amenity": "hospital",
          "name": "Eye Care Hospital Pvt. Ltd.",
          "source": "OpenGovernmentData"
        }
      },
      {
        "type": "node",
        "id": 6977128103,
        "lat": 23.0176604,
        "lon": 72.560572,
        "tags": {
          "addr:district": "Ahmedabad",
          "addr:full": "Sonal Nursing Home, Opposite Jalaram Mandir Shitalbaug, Paldi",
          "addr:postcode": "380007",
          "addr:state": "Gujarat",
          "addr:subdistrict": "Paldi",
          "amenity": "hospital",
          "name": "Aash Arthoscopy Centre",
          "operator:type": "private",
          "source": "OpenGovernmentData",
          "website": "https://aasharthroscopy.com/"
        }
      },
      {
        "type": "node",
        "id": 6977976017,
        "lat": 23.0179184,
        "lon": 72.5582573,
        "tags": {
          "addr:district": "Bhavnagar",
          "addr:full": "Plot No: 2162, Near Hotel Sankalp, Sansakar Mandal",
          "addr:postcode": "364002",
          "addr:state": "Gujarat",
          "amenity": "clinic",
          "name": "Om Surgical Nursing Home",
          "source": "OpenGovernmentData"
        }
      },
      {
        "type": "node",
        "id": 6978625512,
        "lat": 23.0188639,
        "lon": 72.5606538,
        "tags": {
          "addr:district": "Ahmedabad",
          "addr:full": "60, Bhrahmin Mitra Mandal Soc., Near Old Sharda Mandir Railway Crossing, Ellisbridge",
          "addr:postcode": "380006",
          "addr:state": "Gujarat",
          "addr:subdistrict": "Ahmedabad",
          "amenity": "hospital",
          "email": "rajanjoshi44@gmail.com",
          "name": "Dr.Joshi Maternity And Gynec Hospital",
          "operator:type": "private",
          "source": "OpenGovernmentData",
          "website": "http://www.joshigynechospital.com/"
        }
      },
      {
        "type": "node",
        "id": 6979632888,
        "lat": 23.0176617,
        "lon": 72.5539094,
        "tags": {
          "addr:district": "Ahmedabad",
          "addr:full": "Anand Park, Near Amrut Jyoti School,Ambawadi",
          "addr:postcode": "380006",
          "addr:state": "Gujarat",
          "amenity": "hospital",
          "name": "Dr. Rajiv Thakores Hospital",
          "source": "OpenGovernmentData"
        }
      },
      {
        "type": "node",
        "id": 6981981259,
        "lat": 23.0200612,
        "lon": 72.5615551,
        "tags": {
          "addr:district": "Mahesana",
          "addr:full": "Near Coneress Bhavan,Opposite District Sudbe Bunglow",
          "addr:postcode": "384001",
          "addr:state": "Gujarat",
          "amenity": "hospital",
          "healthcare": "hospital",
          "name": "Shree Harikrupa Hospital",
          "source": "OpenGovernmentData"
        }
      },
      {
        "type": "node",
        "id": 6981982797,
        "lat": 23.0202065,
        "lon": 72.5642668,
        "tags": {
          "addr:district": "Ahmedabad",
          "addr:full": "#65, Pritamnagar Society, Government Ladies Hospel Road, Near College, Ellisbridge",
          "addr:postcode": "380006",
          "addr:state": "Gujarat",
          "amenity": "hospital",
          "name": "Amardeep Multispeciality Children Hospital",
          "source": "OpenGovernmentData"
        }
      },
      {
        "type": "node",
        "id": 6981984553,
        "lat": 23.0288615,
        "lon": 72.5642949,
        "tags": {
          "addr:district": "Ahmedabad",
          "addr:full": "1, Maharastra Society, Mithakhali Six Road",
          "addr:postcode": "380006",
          "addr:state": "Gujarat",
          "addr:subdistrict": "Ellisbridge",
          "amenity": "hospital",
          "contact:mobile": "90996 12345",
          "email": "info.ao@hcgel.com",
          "name": "HCG Multi Specialty Hospital",
          "operator:type": "private",
          "source": "OpenGovernmentData",
          "website": "https://www.hcghospitals.in/"
        }
      },
      {
        "type": "node",
        "id": 6982092139,
        "lat": 23.0288813,
        "lon": 72.5643083,
        "tags": {
          "addr:district": "Ahmedabad",
          "addr:full": "# 1, Maharastra Soc. , Near Mithakhali Six Road,Ellisrbridge",
          "addr:postcode": "380006",
          "addr:state": "Gujarat",
          "amenity": "hospital",
          "name": "Hcg Medi-Surge Hospitals Private Limited",
          "source": "OpenGovernmentData"
        }
      },
      {
        "type": "node",
        "id": 6983803124,
        "lat": 23.0201772,
        "lon": 72.557914,
        "tags": {
          "addr:district": "Ahmedabad",
          "addr:full": "Tf/4, 3Road Floor, Dev Parimal Garden Cross Roads, C G Road",
          "addr:postcode": "380006",
          "addr:state": "Gujarat",
          "amenity": "doctors",
          "healthcare": "doctor",
          "healthcare:speciality": "ophthalmology",
          "name": "Cure Sight Laser Centre",
          "source": "OpenGovernmentData"
        }
      },
      {
        "type": "node",
        "id": 6988534634,
        "lat": 23.0193453,
        "lon": 72.5572944,
        "tags": {
          "addr:district": "Ahmedabad",
          "addr:full": "4Th Floor,Viva Complex Opp: Parimal Garden Ellisbridge",
          "addr:postcode": "380006",
          "addr:state": "Gujarat",
          "amenity": "hospital",
          "name": "Shyam Urological Hospital",
          "source": "OpenGovernmentData"
        }
      },
      {
        "type": "node",
        "id": 6989112022,
        "lat": 23.0175456,
        "lon": 72.5576954,
        "tags": {
          "addr:district": "Ahmedabad",
          "addr:full": "A - 101 / 104, Silver Brook, Near Parimal Crossing Ambawdi",
          "addr:postcode": "380006",
          "addr:state": "Gujarat",
          "amenity": "hospital",
          "name": "Siddhivinayak Hospital, Ahmedabad",
          "source": "OpenGovernmentData"
        }
      },
      {
        "type": "node",
        "id": 6990838192,
        "lat": 23.0193008,
        "lon": 72.5572461,
        "tags": {
          "addr:district": "Ahmedabad",
          "addr:full": "1st Floor, Kaycrest, 21-Parimal Society, Above Andhra Bank, Nr Parimal Garden, Ellisbridge",
          "addr:postcode": "380006",
          "addr:state": "Gujarat",
          "amenity": "hospital",
          "name": "Netralaya-The Eye Associates",
          "source": "OpenGovernmentData"
        }
      },
      {
        "type": "node",
        "id": 8143691114,
        "lat": 23.0210027,
        "lon": 72.5546839,
        "tags": {
          "addr:city": "Ahmadabad",
          "addr:housenumber": "Shivalik Building, 501",
          "addr:postcode": "380006",
          "addr:street": "Panchavati Rd, Panchavati Society, Gulbai Tekra, Ahmedabad, Gujarat 380006",
          "name": "SkinYoga",
          "organic": "only",
          "shop": "supermarket",
          "website": "https://skinyoga.in/"
        }
      },
      {
        "type": "node",
        "id": 8252389265,
        "lat": 23.0253822,
        "lon": 72.5542516,
        "tags": {
          "addr:city": "Ahmedabad, Gujarat. India",
          "addr:postcode": "380009",
          "addr:street": "Gulbai Tekra Road",
          "name": "Greenobazaar",
          "organic": "only",
          "payment:cash": "yes",
          "payment:debit_cards": "yes",
          "shop": "supermarket",
          "website": "https://www.greenobazaar.com/"
        }
      },
      {
        "type": "node",
        "id": 8455774613,
        "lat": 23.0221413,
        "lon": 72.5567513,
        "tags": {
          "amenity": "fast_food",
          "brand": "McDonald's",
          "brand:pa": "\u0a2e\u0a48\u0a15\u0a21\u0a4b\u0a28\u0a32\u0a21\u2019\u0a1c\u0a3c",
          "brand:ur": "\u0645\u06a9\u0688\u0648\u0646\u0644\u0688\u0632",
          "brand:wikidata": "Q38076",
          "brand:wikipedia": "en:McDonald's",
          "brand:wikipedia:pa": "\u0a2e\u0a48\u0a15\u0a21\u0a4b\u0a28\u0a32\u0a21\u2019\u0a1c\u0a3c",
          "brand:wikipedia:ur": "\u0645\u06a9\u0688\u0648\u0646\u0644\u0688\u0632",
          "cuisine": "burger",
          "name": "McDonald's",
          "name:pa": "\u0a2e\u0a48\u0a15\u0a21\u0a4b\u0a28\u0a32\u0a21\u2019\u0a1c\u0a3c",
          "name:ur": "\u0645\u06a9\u0688\u0648\u0646\u0644\u0688\u0632",
          "takeaway": "yes"
        }
      },
      {
        "type": "node",
        "id": 8548483880,
        "lat": 23.0244466,
        "lon": 72.5589826,
        "tags": {
          "amenity": "restaurant",
          "cuisine": "Gujarati;regional",
          "diet:vegetarian": "yes",
          "name": "Swati Snacks",
          "website": "https://www.swatisnacks.com/"
        }
      },
      {
        "type": "node",
        "id": 9318813907,
        "lat": 23.0276271,
        "lon": 72.5588748,
        "tags": {
          "address": "Ground Floor 1, P 2 HUB Opposite National Handloom, Law Garden Road, Off, Chimanlal Girdharlal Rd, Ahmedabad, Gujarat 380006",
          "amenity": "fast_food",
          "cuisine": "pizza",
          "name": "Puffiza",
          "opening_hours": "Mo-Su 11:00-22:00",
          "phone": "079 4039 5555",
          "website": "https://puffiza.com"
        }
      },
      {
        "type": "node",
        "id": 9348528050,
        "lat": 23.0322805,
        "lon": 72.5551823,
        "tags": {
          "addr:city": "Ahmedabad",
          "addr:housenumber": "Ground Floor, Vaibhav Flats,",
          "addr:postcode": "380009",
          "addr:street": "H.L Commerce College Rd, Navrangpara",
          "amenity": "restaurant",
          "brand": "The Waffling Station",
          "cuisine": "dessert;waffles;shakes;cold_coffee",
          "diet:vegetarian": "yes",
          "name": "The Waffling Station",
          "opening_hours": "Mo-Su 12:00-00:00",
          "phone": "+919725035686",
          "website": "https://thewafflingstation.com/"
        }
      },
      {
        "type": "node",
        "id": 9844197559,
        "lat": 23.0172912,
        "lon": 72.55578,
        "tags": {
          "addr:city": "Ahmedabad",
          "addr:postcode": "380006",
          "addr:street": "No.1, Tulsi Baugh Society Opp. Doctor House, near Parimal Garden, Ambawadi,Gujarat, India",
          "amenity": "clinic",
          "healthcare": "clinic",
          "healthcare:speciality": "consultant_joint_replacement",
          "name": "Dr. Maulik Patwa",
          "opening_hours": "available on call",
          "operator": "Novosalus",
          "operator:type": "private",
          "website": "https://drmaulikpatwa.in/"
        }
      },
      {
        "type": "node",
        "id": 10172958955,
        "lat": 23.0201123,
        "lon": 72.5615615,
        "tags": {
          "addr:city": "Ahmedabad",
          "amenity": "hospital",
          "healthcare": "hospital",
          "name": "Shree Harikrupa Hospital"
        }
      },
      {
        "type": "node",
        "id": 11900380051,
        "lat": 23.0226039,
        "lon": 72.5509537,
        "tags": {
          "addr:city": "Ahmedabad",
          "addr:district": "Ahmedabad",
          "addr:housenumber": "House of ADORN, opp. JIO petrol pump, Ambawadi Circle, Ambawadi,",
          "addr:postcode": "380006",
          "addr:street": "Surendra Mangaldas Road",
          "amenity": "hospital",
          "contact:facebook": "https://www.facebook.com/cosmeticsurgeryclinic",
          "emergency": "yes",
          "healthcare": "hospital",
          "healthcare:speciality": "clinical_pathology;plastic_surgery;dermatology;dermatovenereology;dental_oral_maxillo_facial_surgery;dentist",
          "image": "https://adorn.clinic/_next/image?url=%2Fimages%2Fabout%2Fabout-banner-img1.webp&w=1200&q=75",
          "mobile": "+917048004800",
          "name": "ADORN AESTHETIC CLINIC",
          "opening_hours": "24/7",
          "operator": "Dr Harsh Amin",
          "operator:type": "private",
          "source": "streetlevel imagery",
          "start_date": "2024-05-01",
          "website": "https://adorn.clinic",
          "wheelchair": "yes"
        }
      },
      {
        "type": "node",
        "id": 13041581330,
        "lat": 23.0218259,
        "lon": 72.55691,
        "tags": {
          "amenity": "fast_food",
          "brand": "McDonald's",
          "cuisine": "burger",
          "indoor_seating": "yes",
          "level": "0",
          "name": "McDonald's",
          "opening_hours": "10:00-04:00",
          "takeaway": "yes",
          "toilets": "yes"
        }
      },
      {
        "type": "node",
        "id": 13041668531,
        "lat": 23.0217347,
        "lon": 72.5569853,
        "tags": {
          "amenity": "fast_food",
          "brand": "Burger King",
          "cuisine": "burger",
          "name": "Burger King",
          "takeaway": "yes"
        }
      },
      {
        "type": "node",
        "id": 13041668532,
        "lat": 23.0217891,
        "lon": 72.5569528,
        "tags": {
          "amenity": "fast_food",
          "brand": "Taco Bell",
          "cuisine": "tex-mex",
          "name": "Taco Bell",
          "takeaway": "yes"
        }
      },
      {
        "type": "node",
        "id": 13041668533,
        "lat": 23.0216444,
        "lon": 72.5570471,
        "tags": {
          "alt_name": "Kentucky Fried Chicken",
          "alt_name:en": "Kentucky Fried Chicken",
          "alt_name:hi": "\u0915\u0947\u0902\u091f\u0941\u0915\u0940 \u092b\u094d\u0930\u093e\u0907\u0921 \u091a\u093f\u0915\u0928",
          "alt_name:pa": "\u0a15\u0a48\u0a02\u0a1f\u0a41\u0a15\u0a40 \u0a2b\u0a4d\u0a30\u0a3e\u0a08\u0a21 \u0a1a\u0a3f\u0a15\u0a28",
          "alt_name:pnb": "\u06a9\u06cc\u0646\u0679\u06a9\u06cc \u0641\u0631\u0627\u0626\u06cc\u0688 \u0686\u06a9\u0646",
          "alt_name:ur": "\u06a9\u06cc\u0646\u0679\u06a9\u06cc \u0641\u0631\u0627\u0626\u06cc\u0688 \u0686\u06a9\u0646",
          "amenity": "fast_food",
          "brand": "KFC",
          "brand:en": "KFC",
          "brand:hi": "\u0915\u0947\u090f\u092b\u0938\u0940",
          "brand:pa": "\u0a15\u0a47\u0a10\u0a2b\u0a38\u0a40",
          "brand:pnb": "\u06a9\u06d2 \u0627\u06cc\u0641 \u0633\u06cc",
          "brand:ur": "\u06a9\u06d2 \u0627\u06cc\u0641 \u0633\u06cc",
          "cuisine": "chicken",
          "name": "KFC",
          "name:en": "KFC",
          "name:hi": "\u0915\u0947\u090f\u092b\u0938\u0940",
          "name:pa": "\u0a15\u0a47\u0a10\u0a2b\u0a38\u0a40",
          "name:pnb": "\u06a9\u06d2 \u0627\u06cc\u0641 \u0633\u06cc",
          "name:ur": "\u06a9\u06d2 \u0627\u06cc\u0641 \u0633\u06cc",
          "takeaway": "yes"
        }
      },
      {
        "type": "node",
        "id": 13041668534,
        "lat": 23.0216852,
        "lon": 72.5570151,
        "tags": {
          "amenity": "restaurant",
          "name": "Shri Maruti Nandan"
        }
      }
    ]
  },
  "pois_2_5km": {
    "version": 0.6,
    "generator": "Overpass API 0.7.62.8 e802775f",
    "osm3s": {
      "timestamp_osm_base": "2025-09-07T11:55:01Z",
      "copyright": "The data included in this document is from www.openstreetmap.org. The data is made available under ODbL."
    },
    "elements": [
      {
        "type": "node",
        "id": 429460556,
        "lat": 23.0241439,
        "lon": 72.5804883,
        "tags": {
          "bus": "yes",
          "public_transport": "stop_position"
        }
      },
      {
        "type": "node",
        "id": 625175627,
        "lat": 23.0111829,
        "lon": 72.5707945,
        "tags": {
          "amenity": "theatre",
          "name": "Amphitheatre"
        }
      },
      {
        "type": "node",
        "id": 1781763832,
        "lat": 23.0045263,
        "lon": 72.5644882,
        "tags": {
          "amenity": "fuel",
          "name": "Ansh Petrol Pump"
        }
      },
      {
        "type": "node",
        "id": 1782729611,
        "lat": 23.0268403,
        "lon": 72.5806381,
        "tags": {
          "bus": "yes",
          "public_transport": "stop_position"
        }
      },
      {
        "type": "node",
        "id": 3302227672,
        "lat": 23.0120486,
        "lon": 72.5638517,
        "tags": {
          "amenity": "fuel",
          "brand": "Hindustan Petroleum",
          "fuel:diesel": "yes",
          "fuel:octane_80": "yes",
          "name": "Hindustan Petroleum Station",
          "operator": "Hindustan Petroleum"
        }
      },
      {
        "type": "node",
        "id": 3306683260,
        "lat": 23.0049181,
        "lon": 72.5529832,
        "tags": {
          "amenity": "fuel",
          "brand": "Indian Oil"
        }
      },
      {
        "type": "node",
        "id": 3306683465,
        "lat": 23.0117408,
        "lon": 72.562166,
        "tags": {
          "bus": "yes",
          "public_transport": "stop_position"
        }
      },
      {
        "type": "node",
        "id": 3306683590,
        "lat": 23.0326462,
        "lon": 72.5701007,
        "tags": {
          "bus": "yes",
          "public_transport": "stop_position"
        }
      },
      {
        "type": "node",
        "id": 3306683591,
        "lat": 23.0338698,
        "lon": 72.5695244,
        "tags": {
          "bus": "yes",
          "public_transport": "stop_position"
        }
      },
      {
        "type": "node",
        "id": 3306683598,
        "lat": 23.035934,
        "lon": 72.568865,
        "tags": {
          "bus": "yes",
          "public_transport": "stop_position"
        }
      },
      {
        "type": "node",
        "id": 3306683627,
        "lat": 23.0423375,
        "lon": 72.5695809,
        "tags": {
          "bus": "yes",
          "public_transport": "stop_position"
        }
      },
      {
        "type": "node",
        "id": 3355794772,
        "lat": 23.0241902,
        "lon": 72.5785562,
        "tags": {
          "amenity": "bus_station",
          "bus": "yes",
          "name": "Lal Darwaja AMTS Bus Stop",
          "operator": "Ahmedabad Municipal Transport Service",
          "public_transport": "station",
          "wikidata": "Q4696119",
          "wikipedia": "en:Ahmedabad Municipal Transport Service"
        }
      },
      {
        "type": "node",
        "id": 4326504193,
        "lat": 23.0135186,
        "lon": 72.5644029,
        "tags": {
          "addr:street": "Ashram Road",
          "amenity": "fuel",
          "name": "CNG Adani"
        }
      },
      {
        "type": "node",
        "id": 5527662484,
        "lat": 23.0140063,
        "lon": 72.5658082,
        "tags": {
          "amenity": "fuel",
          "brand": "Bharat Petroleum"
        }
      },
      {
        "type": "node",
        "id": 5622701067,
        "lat": 23.0375426,
        "lon": 72.5670608,
        "tags": {
          "name": "Old High Court",
          "public_transport": "stop_position",
          "railway": "stop",
          "subway": "yes"
        }
      },
      {
        "type": "node",
        "id": 5622701075,
        "lat": 23.040679,
        "lon": 72.5530608,
        "tags": {
          "name": "Commerce Six Roads",
          "public_transport": "stop_position",
          "railway": "stop",
          "subway": "yes"
        }
      },
      {
        "type": "node",
        "id": 10076565256,
        "lat": 23.0375956,
        "lon": 72.5670605,
        "tags": {
          "name": "Old High Court",
          "public_transport": "stop_position",
          "railway": "stop",
          "subway": "yes"
        }
      },
      {
        "type": "node",
        "id": 10076565279,
        "lat": 23.0398916,
        "lon": 72.5616387,
        "tags": {
          "name": "Stadium",
          "name:gu": "\u0ab8\u0acd\u0a9f\u0ac7\u0aa1\u0abf\u0aaf\u0aae",
          "public_transport": "stop_position",
          "railway": "stop",
          "subway": "yes"
        }
      },
      {
        "type": "node",
        "id": 10076565280,
        "lat": 23.0398351,
        "lon": 72.5616387,
        "tags": {
          "name": "Stadium",
          "name:gu": "\u0ab8\u0acd\u0a9f\u0ac7\u0aa1\u0abf\u0aaf\u0aae",
          "public_transport": "stop_position",
          "railway": "stop",
          "subway": "yes"
        }
      },
      {
        "type": "node",
        "id": 10076565295,
        "lat": 23.0407242,
        "lon": 72.5530873,
        "tags": {
          "name": "Commerce Six Roads",
          "public_transport": "stop_position",
          "railway": "stop",
          "subway": "yes"
        }
      },
      {
        "type": "node",
        "id": 10076616710,
        "lat": 23.0271728,
        "lon": 72.5688973,
        "tags": {
          "name": "Gandhigram",
          "public_transport": "stop_position",
          "railway": "stop",
          "subway": "yes"
        }
      },
      {
        "type": "node",
        "id": 10076616711,
        "lat": 23.0271754,
        "lon": 72.5688202,
        "tags": {
          "name": "Gandhigram",
          "public_transport": "stop_position",
          "railway": "stop",
          "subway": "yes"
        }
      },
      {
        "type": "node",
        "id": 10076616759,
        "lat": 23.0374805,
        "lon": 72.5670541,
        "tags": {
          "name": "Old High Court",
          "public_transport": "stop_position",
          "railway": "stop",
          "subway": "yes"
        }
      },
      {
        "type": "node",
        "id": 10076616764,
        "lat": 23.0374696,
        "lon": 72.5668751,
        "tags": {
          "name": "Old High Court",
          "public_transport": "stop_position",
          "railway": "stop",
          "subway": "yes"
        }
      },
      {
        "type": "node",
        "id": 10076859848,
        "lat": 23.0185472,
        "lon": 72.5623281,
        "tags": {
          "name": "Paldi",
          "public_transport": "stop_position",
          "railway": "stop",
          "subway": "yes"
        }
      },
      {
        "type": "node",
        "id": 10076859849,
        "lat": 23.0184541,
        "lon": 72.5623806,
        "tags": {
          "name": "Paldi",
          "public_transport": "stop_position",
          "railway": "stop",
          "subway": "yes"
        }
      },
      {
        "type": "node",
        "id": 10076859862,
        "lat": 23.0136478,
        "lon": 72.5492445,
        "tags": {
          "name": "Shreyas",
          "public_transport": "stop_position",
          "railway": "stop",
          "subway": "yes"
        }
      },
      {
        "type": "node",
        "id": 10076859863,
        "lat": 23.0136045,
        "lon": 72.5492643,
        "tags": {
          "name": "Shreyas",
          "public_transport": "stop_position",
          "railway": "stop",
          "subway": "yes"
        }
      }
    ]
  }
}