{
  "pois_1km": {
    "version": 0.6,
    "generator": "Overpass API 0.7.62.8 e802775f",
    "osm3s": {
      "timestamp_osm_base": "2025-09-07T12:08:15Z",
      "copyright": "The data included in this document is from www.openstreetmap.org. The data is made available under ODbL."
    },
    "elements": [
      {
        "type": "node",
        "id": 695666626,
        "lat": 23.0317635,
        "lon": 72.5701852,
        "tags": {
          "amenity": "fast_food",
          "brand": "McDonald's",
          "brand:pa": "\u0a2e\u0a48\u0a15\u0a21\u0a4b\u0a28\u0a32\u0a21\u2019\u0a1c\u0a3c",
          "brand:ur": "\u0645\u06a9\u0688\u0648\u0646\u0644\u0688\u0632",
          "brand:wikidata": "Q38076",
          "brand:wikipedia": "en:McDonald's",
          "brand:wikipedia:pa": "\u0a2e\u0a48\u0a15\u0a21\u0a4b\u0a28\u0a32\u0a21\u2019\u0a1c\u0a3c",
          "brand:wikipedia:ur": "\u0645\u06a9\u0688\u0648\u0646\u0644\u0688\u0632",
          "cuisine": "burger",
          "name": "McDonald's",
          "name:pa": "\u0a2e\u0a48\u0a15\u0a21\u0a4b\u0a28\u0a32\u0a21\u2019\u0a1c\u0a3c",
          "name:ur": "\u0645\u06a9\u0688\u0648\u0646\u0644\u0688\u0632"
        }
      },
      {
        "type": "node",
        "id": 1973440767,
        "lat": 23.0328812,
        "lon": 72.5655478,
        "tags": {
          "addr:housename": "Shri Krishna Centre",
          "addr:postcode": "380009",
          "addr:street": "Law Garden Road",
          "amenity": "fast_food",
          "cuisine": "ice_cream",
          "name": "Natural Ice Cream",
          "website": "https://naturalicecreams.in/"
        }
      },
      {
        "type": "node",
        "id": 5527662483,
        "lat": 23.0246356,
        "lon": 72.5714777,
        "tags": {
          "amenity": "restaurant",
          "cuisine": "gujarati;kathiawari;punjabi",
          "name": "Jai Jalaram Parontha House"
        }
      },
      {
        "type": "node",
        "id": 6970732343,
        "lat": 23.0285678,
        "lon": 72.5714216,
        "tags": {
          "addr:district": "Ahmedabad",
          "addr:full": "1, Nutan Servoday Society, B/H Kochrab Ashram, Ellisbridge",
          "addr:postcode": "380006",
          "addr:state": "Gujarat",
          "amenity": "hospital",
          "name": "Dr. Dilip Modi Hospital",
          "source": "OpenGovernmentData"
        }
      },
      {
        "type": "node",
        "id": 6970854205,
        "lat": 23.0309628,
        "lon": 72.561022,
        "tags": {
          "addr:district": "Ahmedabad",
          "addr:full": "OppositeSardar Patel Seva Samaj Hall , In Lane Opp Navrang Pura",
          "addr:postcode": "380001",
          "addr:state": "Gujarat",
          "amenity": "hospital",
          "name": "Navneet Memorial Hospital",
          "source": "OpenGovernmentData"
        }
      },
      {
        "type": "node",
        "id": 6974862427,
        "lat": 23.0259277,
        "lon": 72.5660652,
        "tags": {
          "addr:district": "Ahmedabad",
          "addr:full": "Near Nagari Hospital , Mithakhali Ellishridge",
          "addr:postcode": "380006",
          "addr:state": "Gujarat",
          "amenity": "hospital",
          "healthcare": "hospital",
          "name": "Stavya Spine Hospital and Research Institute",
          "source": "OpenGovernmentData"
        }
      },
      {
        "type": "node",
        "id": 6975510816,
        "lat": 23.0217016,
        "lon": 72.5725166,
        "tags": {
          "addr:district": "Ahmedabad",
          "addr:full": "Opposite Town Hall, Ellisbridge",
          "addr:postcode": "380006",
          "addr:state": "Gujarat",
          "amenity": "hospital",
          "name": "Karnavati Hospital Pvt. Ltd.",
          "source": "OpenGovernmentData"
        }
      },
      {
        "type": "node",
        "id": 6975605658,
        "lat": 23.0197773,
        "lon": 72.5653967,
        "tags": {
          "addr:district": "Ahmedabad",
          "addr:full": "50 Pritamnagar, Ellisbridge",
          "addr:postcode": "380006",
          "addr:state": "Gujarat",
          "amenity": "clinic",
          "name": "Dr Praful Munishi's Nursing Home",
          "source": "OpenGovernmentData"
        }
      },
      {
        "type": "node",
        "id": 6975617784,
        "lat": 23.0231938,
        "lon": 72.5699329,
        "tags": {
          "addr:district": "Ahmedabad",
          "addr:full": "9Th Floor, Medicare Building, Behind Town Hall, Ellis Bridge, Ashram Road",
          "addr:postcode": "380006",
          "addr:state": "Gujarat",
          "amenity": "clinic",
          "name": "Sparsh Orthopedic Oncology Clinic",
          "source": "OpenGovernmentData"
        }
      },
      {
        "type": "node",
        "id": 6976524012,
        "lat": 23.0315465,
        "lon": 72.5653041,
        "tags": {
          "addr:district": "Ahmedabad",
          "addr:full": "7, Rashmi Society, Mithakhali, Navrangpura",
          "addr:postcode": "380009",
          "addr:state": "Gujarat",
          "amenity": "clinic",
          "name": "Dr. Rajendra C. Patel Orthopaedic Nursing Home",
          "source": "OpenGovernmentData"
        }
      },
      {
        "type": "node",
        "id": 6978708394,
        "lat": 23.0232494,
        "lon": 72.5719513,
        "tags": {
          "addr:district": "Ahmedabad",
          "addr:full": "Agrawal Chamber ,2nd Floor.Opposite Town Halll,Asharam Road",
          "addr:postcode": "380007",
          "addr:state": "Gujarat",
          "amenity": "hospital",
          "name": "Dr. Manoj Tank E.N.T. Hospital",
          "source": "OpenGovernmentData"
        }
      },
      {
        "type": "node",
        "id": 6981681464,
        "lat": 23.0355015,
        "lon": 72.5694904,
        "tags": {
          "addr:district": "Ahmedabad",
          "addr:full": "CGHS Dispensary No.3, 1, Jeevan PrakashSociety, Darpan Six Roads, Near St.Xaviers School Road, Navrangpura",
          "addr:postcode": "380014",
          "addr:state": "Gujarat",
          "amenity": "clinic",
          "contact:phone": "7926430021",
          "health_facility:type": "dispensary",
          "healthcare": "centre",
          "name": "CGHS Dispensary No.3",
          "operator:type": "government",
          "source": "OpenGovernmentData",
          "website": "http://nb.bsf.gov.in/CGHS%20DIspenseries.pdf"
        }
      },
      {
        "type": "node",
        "id": 6981982797,
        "lat": 23.0202065,
        "lon": 72.5642668,
        "tags": {
          "addr:district": "Ahmedabad",
          "addr:full": "#65, Pritamnagar Society, Government Ladies Hospel Road, Near College, Ellisbridge",
          "addr:postcode": "380006",
          "addr:state": "Gujarat",
          "amenity": "hospital",
          "name": "Amardeep Multispeciality Children Hospital",
          "source": "OpenGovernmentData"
        }
      },
      {
        "type": "node",
        "id": 6981984553,
        "lat": 23.0288615,
        "lon": 72.5642949,
        "tags": {
          "addr:district": "Ahmedabad",
          "addr:full": "1, Maharastra Society, Mithakhali Six Road",
          "addr:postcode": "380006",
          "addr:state": "Gujarat",
          "addr:subdistrict": "Ellisbridge",
          "amenity": "hospital",
          "contact:mobile": "90996 12345",
          "email": "info.ao@hcgel.com",
          "name": "HCG Multi Specialty Hospital",
          "operator:type": "private",
          "source": "OpenGovernmentData",
          "website": "https://www.hcghospitals.in/"
        }
      },
      {
        "type": "node",
        "id": 6982092139,
        "lat": 23.0288813,
        "lon": 72.5643083,
        "tags": {
          "addr:district": "Ahmedabad",
          "addr:full": "# 1, Maharastra Soc. , Near Mithakhali Six Road,Ellisrbridge",
          "addr:postcode": "380006",
          "addr:state": "Gujarat",
          "amenity": "hospital",
          "name": "Hcg Medi-Surge Hospitals Private Limited",
          "source": "OpenGovernmentData"
        }
      },
      {
        "type": "node",
        "id": 6986605760,
        "lat": 23.0226864,
        "lon": 72.5697332,
        "tags": {
          "addr:district": "Ahmedabad",
          "addr:full": "Opp X Ray House B/H Town Hall ,Ellisbridge",
          "addr:postcode": "380006",
          "addr:state": "Gujarat",
          "amenity": "hospital",
          "name": "Jaliyan Orthopaedic Hospital",
          "source": "OpenGovernmentData"
        }
      },
      {
        "type": "node",
        "id": 6993868923,
        "lat": 23.0187158,
        "lon": 72.5714269,
        "tags": {
          "addr:district": "Ahmedabad",
          "addr:full": "Ellis Bridge",
          "addr:postcode": "380006",
          "addr:state": "Gujarat",
          "amenity": "hospital",
          "email": "Info@nhlmmc.edu.in",
          "name": "Smt.NHL Municipal Medical College Hospital",
          "operator:type": "government",
          "source": "OpenGovernmentData",
          "website": "https://www.nhlmmc.edu.in/"
        }
      },
      {
        "type": "node",
        "id": 7864058632,
        "lat": 23.032023,
        "lon": 72.577351,
        "tags": {
          "addr:district": "Ahmedabad",
          "addr:full": "Shahpur",
          "addr:postcode": "380001",
          "addr:state": "Gujarat",
          "amenity": "hospital",
          "healthcare": "hospital",
          "name": "Shraddha Multi Speciality Hospital",
          "source": "Local Knowledge"
        }
      }
    ]
  },
  "pois_2_5km": {
    "version": 0.6,
    "generator": "Overpass API 0.7.62.8 e802775f",
    "osm3s": {
      "timestamp_osm_base": "2025-09-07T12:08:15Z",
      "copyright": "The data included in this document is from www.openstreetmap.org. The data is made available under ODbL."
    },
    "elements": [
      {
        "type": "node",
        "id": 429460556,
        "lat": 23.0241439,
        "lon": 72.5804883,
        "tags": {
          "bus": "yes",
          "public_transport": "stop_position"
        }
      },
      {
        "type": "node",
        "id": 625175627,
        "lat": 23.0111829,
        "lon": 72.5707945,
        "tags": {
          "amenity": "theatre",
          "name": "Amphitheatre"
        }
      },
      {
        "type": "node",
        "id": 1782729611,
        "lat": 23.0268403,
        "lon": 72.5806381,
        "tags": {
          "bus": "yes",
          "public_transport": "stop_position"
        }
      },
      {
        "type": "node",
        "id": 2377178512,
        "lat": 23.0263196,
        "lon": 72.5841287,
        "tags": {
          "amenity": "fuel"
        }
      },
      {
        "type": "node",
        "id": 3302227672,
        "lat": 23.0120486,
        "lon": 72.5638517,
        "tags": {
          "amenity": "fuel",
          "brand": "Hindustan Petroleum",
          "fuel:diesel": "yes",
          "fuel:octane_80": "yes",
          "name": "Hindustan Petroleum Station",
          "operator": "Hindustan Petroleum"
        }
      },
      {
        "type": "node",
        "id": 3306683465,
        "lat": 23.0117408,
        "lon": 72.562166,
        "tags": {
          "bus": "yes",
          "public_transport": "stop_position"
        }
      },
      {
        "type": "node",
        "id": 3306683587,
        "lat": 23.0282432,
        "lon": 72.5814362,
        "tags": {
          "bus": "yes",
          "public_transport": "stop_position"
        }
      },
      {
        "type": "node",
        "id": 3306683590,
        "lat": 23.0326462,
        "lon": 72.5701007,
        "tags": {
          "bus": "yes",
          "public_transport": "stop_position"
        }
      },
      {
        "type": "node",
        "id": 3306683591,
        "lat": 23.0338698,
        "lon": 72.5695244,
        "tags": {
          "bus": "yes",
          "public_transport": "stop_position"
        }
      },
      {
        "type": "node",
        "id": 3306683598,
        "lat": 23.035934,
        "lon": 72.568865,
        "tags": {
          "bus": "yes",
          "public_transport": "stop_position"
        }
      },
      {
        "type": "node",
        "id": 3306683627,
        "lat": 23.0423375,
        "lon": 72.5695809,
        "tags": {
          "bus": "yes",
          "public_transport": "stop_position"
        }
      },
      {
        "type": "node",
        "id": 3306683628,
        "lat": 23.0433539,
        "lon": 72.5697209,
        "tags": {
          "bus": "yes",
          "public_transport": "stop_position"
        }
      },
      {
        "type": "node",
        "id": 3355748461,
        "lat": 23.0186671,
        "lon": 72.5883471,
        "tags": {
          "bus": "yes",
          "public_transport": "stop_position"
        }
      },
      {
        "type": "node",
        "id": 3355794772,
        "lat": 23.0241902,
        "lon": 72.5785562,
        "tags": {
          "amenity": "bus_station",
          "bus": "yes",
          "name": "Lal Darwaja AMTS Bus Stop",
          "operator": "Ahmedabad Municipal Transport Service",
          "public_transport": "station",
          "wikidata": "Q4696119",
          "wikipedia": "en:Ahmedabad Municipal Transport Service"
        }
      },
      {
        "type": "node",
        "id": 3393656497,
        "lat": 23.011445,
        "lon": 72.5864365,
        "tags": {
          "amenity": "fuel",
          "brand": "Adani",
          "name": "Adani CNG Gas Station",
          "operator": "Adani"
        }
      },
      {
        "type": "node",
        "id": 4326504193,
        "lat": 23.0135186,
        "lon": 72.5644029,
        "tags": {
          "addr:street": "Ashram Road",
          "amenity": "fuel",
          "name": "CNG Adani"
        }
      },
      {
        "type": "node",
        "id": 4483474713,
        "lat": 23.0400891,
        "lon": 72.5781297,
        "tags": {
          "addr:street": "Kasturba Gandhi Road",
          "amenity": "fuel",
          "name": "CNG Bharat petroleum"
        }
      },
      {
        "type": "node",
        "id": 5527662484,
        "lat": 23.0140063,
        "lon": 72.5658082,
        "tags": {
          "amenity": "fuel",
          "brand": "Bharat Petroleum"
        }
      },
      {
        "type": "node",
        "id": 5622701055,
        "lat": 23.0287794,
        "lon": 72.586749,
        "tags": {
          "name": "Gheekanta",
          "public_transport": "stop_position",
          "railway": "stop",
          "subway": "yes"
        }
      },
      {
        "type": "node",
        "id": 5622701067,
        "lat": 23.0375426,
        "lon": 72.5670608,
        "tags": {
          "name": "Old High Court",
          "public_transport": "stop_position",
          "railway": "stop",
          "subway": "yes"
        }
      },
      {
        "type": "node",
        "id": 5622701075,
        "lat": 23.040679,
        "lon": 72.5530608,
        "tags": {
          "name": "Commerce Six Roads",
          "public_transport": "stop_position",
          "railway": "stop",
          "subway": "yes"
        }
      },
      {
        "type": "node",
        "id": 7944287421,
        "lat": 23.0392105,
        "lon": 72.5810327,
        "tags": {
          "name": "Shahpur Station",
          "name:gu": "\u0ab6\u0abe\u0ab9\u0aaa\u0ac1\u0ab0",
          "public_transport": "station",
          "railway": "station",
          "station": "subway",
          "subway": "yes"
        }
      },
      {
        "type": "node",
        "id": 7944287424,
        "lat": 23.028794,
        "lon": 72.5867752,
        "tags": {
          "name": "Gheekanta",
          "name:gu": "\u0a98\u0ac0\u0a95\u0abe\u0a82\u0a9f\u0abe",
          "public_transport": "station",
          "railway": "station",
          "station": "subway",
          "subway": "yes"
        }
      },
      {
        "type": "node",
        "id": 10076537516,
        "lat": 23.0287972,
        "lon": 72.5868045,
        "tags": {
          "name": "Gheekanta",
          "public_transport": "stop_position",
          "railway": "stop",
          "subway": "yes"
        }
      },
      {
        "type": "node",
        "id": 10076565224,
        "lat": 23.0392509,
        "lon": 72.5810332,
        "tags": {
          "name": "Shahpur Station",
          "public_transport": "stop_position",
          "railway": "stop",
          "subway": "yes"
        }
      },
      {
        "type": "node",
        "id": 10076565225,
        "lat": 23.0391575,
        "lon": 72.5810285,
        "tags": {
          "name": "Shahpur Station",
          "public_transport": "stop_position",
          "railway": "stop",
          "subway": "yes"
        }
      },
      {
        "type": "node",
        "id": 10076565256,
        "lat": 23.0375956,
        "lon": 72.5670605,
        "tags": {
          "name": "Old High Court",
          "public_transport": "stop_position",
          "railway": "stop",
          "subway": "yes"
        }
      },
      {
        "type": "node",
        "id": 10076565279,
        "lat": 23.0398916,
        "lon": 72.5616387,
        "tags": {
          "name": "Stadium",
          "name:gu": "\u0ab8\u0acd\u0a9f\u0ac7\u0aa1\u0abf\u0aaf\u0aae",
          "public_transport": "stop_position",
          "railway": "stop",
          "subway": "yes"
        }
      },
      {
        "type": "node",
        "id": 10076565280,
        "lat": 23.0398351,
        "lon": 72.5616387,
        "tags": {
          "name": "Stadium",
          "name:gu": "\u0ab8\u0acd\u0a9f\u0ac7\u0aa1\u0abf\u0aaf\u0aae",
          "public_transport": "stop_position",
          "railway": "stop",
          "subway": "yes"
        }
      },
      {
        "type": "node",
        "id": 10076565295,
        "lat": 23.0407242,
        "lon": 72.5530873,
        "tags": {
          "name": "Commerce Six Roads",
          "public_transport": "stop_position",
          "railway": "stop",
          "subway": "yes"
        }
      },
      {
        "type": "node",
        "id": 10076616710,
        "lat": 23.0271728,
        "lon": 72.5688973,
        "tags": {
          "name": "Gandhigram",
          "public_transport": "stop_position",
          "railway": "stop",
          "subway": "yes"
        }
      },
      {
        "type": "node",
        "id": 10076616711,
        "lat": 23.0271754,
        "lon": 72.5688202,
        "tags": {
          "name": "Gandhigram",
          "public_transport": "stop_position",
          "railway": "stop",
          "subway": "yes"
        }
      },
      {
        "type": "node",
        "id": 10076616753,
        "lat": 23.0459092,
        "lon": 72.564927,
        "tags": {
          "name": "Usmanpura",
          "public_transport": "stop_position",
          "railway": "stop",
          "subway": "yes"
        }
      },
      {
        "type": "node",
        "id": 10076616754,
        "lat": 23.045936,
        "lon": 72.5649953,
        "tags": {
          "name": "Usmanpura",
          "public_transport": "stop_position",
          "railway": "stop",
          "subway": "yes"
        }
      },
      {
        "type": "node",
        "id": 10076616759,
        "lat": 23.0374805,
        "lon": 72.5670541,
        "tags": {
          "name": "Old High Court",
          "public_transport": "stop_position",
          "railway": "stop",
          "subway": "yes"
        }
      },
      {
        "type": "node",
        "id": 10076616764,
        "lat": 23.0374696,
        "lon": 72.5668751,
        "tags": {
          "name": "Old High Court",
          "public_transport": "stop_position",
          "railway": "stop",
          "subway": "yes"
        }
      },
      {
        "type": "node",
        "id": 10076859848,
        "lat": 23.0185472,
        "lon": 72.5623281,
        "tags": {
          "name": "Paldi",
          "public_transport": "stop_position",
          "railway": "stop",
          "subway": "yes"
        }
      },
      {
        "type": "node",
        "id": 10076859849,
        "lat": 23.0184541,
        "lon": 72.5623806,
        "tags": {
          "name": "Paldi",
          "public_transport": "stop_position",
          "railway": "stop",
          "subway": "yes"
        }
      }
    ]
  }
}