{
  "pois_1km": {
    "version": 0.6,
    "generator": "Overpass API 0.7.62.8 e802775f",
    "osm3s": {
      "timestamp_osm_base": "2025-09-07T12:27:45Z",
      "copyright": "The data included in this document is from www.openstreetmap.org. The data is made available under ODbL."
    },
    "elements": [
      {
        "type": "node",
        "id": 1313805179,
        "lat": 23.0312796,
        "lon": 72.5493907,
        "tags": {
          "amenity": "cafe",
          "cost:coffee": "$2",
          "name": "Cafe Coffee Day"
        }
      },
      {
        "type": "node",
        "id": 2908966984,
        "lat": 23.0212619,
        "lon": 72.543503,
        "tags": {
          "addr:city": "Ahmedabad",
          "addr:street": "Nehrunagar",
          "amenity": "restaurant",
          "cuisine": "pizza",
          "name": "Real Paprika"
        }
      },
      {
        "type": "node",
        "id": 4633783889,
        "lat": 23.0353395,
        "lon": 72.5429261,
        "tags": {
          "addr:city": "Ahmedabad",
          "addr:housenumber": "Gujarat University",
          "addr:postcode": "380009",
          "addr:street": "Gujarat University Internal Road",
          "amenity": "atm",
          "currency:INR": "yes",
          "name": "State Bank Of India",
          "opening_hours": "24/7",
          "operator": "SBI ATM"
        }
      },
      {
        "type": "node",
        "id": 4650625621,
        "lat": 23.0249306,
        "lon": 72.5434079,
        "tags": {
          "addr:district": "Ahmedabad",
          "addr:full": "26/1`L`Colony,Sahjanand College Cross Roads Ambavadi",
          "addr:housenumber": "26/1",
          "addr:postcode": "380015",
          "addr:state": "Gujarat",
          "amenity": "hospital",
          "name": "Planet Women Fertility and Counseling",
          "source": "OpenGovernmentData"
        }
      },
      {
        "type": "node",
        "id": 6970275374,
        "lat": 23.0217867,
        "lon": 72.5420675,
        "tags": {
          "addr:district": "Ahmedabad",
          "addr:full": "Model House, Shastri Park Colony, Nehrunagar",
          "addr:postcode": "380015",
          "addr:state": "Gujarat",
          "amenity": "hospital",
          "contact:mobile": "9825009659",
          "name": "Saumya Children Hospital and Neonatal Care Center",
          "source": "OpenGovernmentData"
        }
      },
      {
        "type": "node",
        "id": 6970425348,
        "lat": 23.02741,
        "lon": 72.5411409,
        "tags": {
          "addr:district": "Ahmedabad",
          "addr:full": "C-1,2,3 Shivani Appt Opp Azad Society",
          "addr:postcode": "380006",
          "addr:state": "Gujarat",
          "amenity": "hospital",
          "name": "Dr Sanjay Gandhi Hospital",
          "source": "OpenGovernmentData"
        }
      },
      {
        "type": "node",
        "id": 6971932502,
        "lat": 23.0221879,
        "lon": 72.5385243,
        "tags": {
          "addr:district": "Ahmedabad",
          "addr:full": "1st Floor, Ocean Park, Satellite Road, Nehru Nagar",
          "addr:postcode": "380015",
          "addr:state": "Gujarat",
          "amenity": "hospital",
          "name": "Jyoti Maternity Hospital",
          "source": "OpenGovernmentData"
        }
      },
      {
        "type": "node",
        "id": 6976113865,
        "lat": 23.0241454,
        "lon": 72.5498479,
        "tags": {
          "addr:district": "Ahmedabad",
          "addr:full": "Eye Care Hospital, Polytechnic Road , B/H Ioc Petrol Pump Ambawadi",
          "addr:postcode": "380015",
          "addr:state": "Gujarat",
          "amenity": "hospital",
          "name": "Eye Care Hospital Pvt. Ltd.",
          "source": "OpenGovernmentData"
        }
      },
      {
        "type": "node",
        "id": 6976489889,
        "lat": 23.0218028,
        "lon": 72.5413272,
        "tags": {
          "addr:district": "Ahmedabad",
          "addr:full": "1 Tapovan Society S M Road Nehrunagar Char Rasta, Satelite Road Ambawadi",
          "addr:postcode": "380015",
          "addr:state": "Gujarat",
          "amenity": "hospital",
          "name": "Bavishi Eye Hospital, Ahmedabad",
          "source": "OpenGovernmentData"
        }
      },
      {
        "type": "node",
        "id": 6981004951,
        "lat": 23.0199254,
        "lon": 72.5458769,
        "tags": {
          "addr:district": "Ahmedabad",
          "addr:full": "Urmi, 3 State Bank Society, Opposite Snehkunj, Behind C N Vidyalaya, S M Road, Ambawadi",
          "addr:postcode": "380015",
          "addr:state": "Gujarat",
          "amenity": "hospital",
          "name": "Jarmarwala Hospital",
          "source": "OpenGovernmentData"
        }
      },
      {
        "type": "node",
        "id": 6982527814,
        "lat": 23.0246015,
        "lon": 72.5449569,
        "tags": {
          "addr:district": "Ahmedabad",
          "addr:full": "204-205, Shyamak Complex, Opposite Sahajanand College, B/H. Kamdhenu Complex, Plytechnic",
          "addr:postcode": "380015",
          "addr:state": "Gujarat",
          "amenity": "hospital",
          "name": "Babul E.N.T. Hospital",
          "source": "OpenGovernmentData"
        }
      },
      {
        "type": "node",
        "id": 6986434686,
        "lat": 23.0209844,
        "lon": 72.5436446,
        "tags": {
          "addr:district": "Ahmedabad",
          "addr:full": "5/A, Medicare Cenre, Behin M.J Library, Ellisbridge",
          "addr:postcode": "380006",
          "addr:state": "Gujarat",
          "amenity": "hospital",
          "name": "Jagdish Orthopadic Hospital",
          "source": "OpenGovernmentData"
        }
      },
      {
        "type": "node",
        "id": 6987467519,
        "lat": 23.0249533,
        "lon": 72.5472508,
        "tags": {
          "addr:district": "Ahmedabad",
          "addr:full": "201, Aasthan Complex, Opposite Polytecnic,Anbawadi",
          "addr:postcode": "380015",
          "addr:state": "Gujarat",
          "amenity": "hospital",
          "name": "Dr. Trivedis Arthroscopy Clinic And Hospital",
          "source": "OpenGovernmentData"
        }
      },
      {
        "type": "node",
        "id": 6988494095,
        "lat": 23.0213053,
        "lon": 72.5435185,
        "tags": {
          "addr:district": "Ahmedabad",
          "addr:full": "107,Shailbhadra.OppositeAmbawadi Jain Derasar,Near Nehrunagar Circle,Ambawadi",
          "addr:postcode": "380015",
          "addr:state": "Gujarat",
          "amenity": "hospital",
          "name": "Rushil Cancer And Endocrine Care",
          "source": "OpenGovernmentData"
        }
      },
      {
        "type": "node",
        "id": 6993975134,
        "lat": 23.027216,
        "lon": 72.5454128,
        "tags": {
          "addr:district": "Ahmedabad",
          "addr:full": "No. 205, Vraj Avenue, Near St. Xaviers Ladies Hostel, Navarangpura",
          "addr:postcode": "380009",
          "addr:state": "Gujarat",
          "amenity": "hospital",
          "name": "Amdawad Eye Laser Hospitals Pvt Ltd",
          "source": "OpenGovernmentData"
        }
      },
      {
        "type": "node",
        "id": 8252389265,
        "lat": 23.0253822,
        "lon": 72.5542516,
        "tags": {
          "addr:city": "Ahmedabad, Gujarat. India",
          "addr:postcode": "380009",
          "addr:street": "Gulbai Tekra Road",
          "name": "Greenobazaar",
          "organic": "only",
          "payment:cash": "yes",
          "payment:debit_cards": "yes",
          "shop": "supermarket",
          "website": "https://www.greenobazaar.com/"
        }
      },
      {
        "type": "node",
        "id": 10172958952,
        "lat": 23.02222,
        "lon": 72.538511,
        "tags": {
          "addr:city": "ahmedabad",
          "amenity": "hospital",
          "healthcare": "hospital",
          "name": "Jyoti Maternity Hospital"
        }
      },
      {
        "type": "node",
        "id": 11900380051,
        "lat": 23.0226039,
        "lon": 72.5509537,
        "tags": {
          "addr:city": "Ahmedabad",
          "addr:district": "Ahmedabad",
          "addr:housenumber": "House of ADORN, opp. JIO petrol pump, Ambawadi Circle, Ambawadi,",
          "addr:postcode": "380006",
          "addr:street": "Surendra Mangaldas Road",
          "amenity": "hospital",
          "contact:facebook": "https://www.facebook.com/cosmeticsurgeryclinic",
          "emergency": "yes",
          "healthcare": "hospital",
          "healthcare:speciality": "clinical_pathology;plastic_surgery;dermatology;dermatovenereology;dental_oral_maxillo_facial_surgery;dentist",
          "image": "https://adorn.clinic/_next/image?url=%2Fimages%2Fabout%2Fabout-banner-img1.webp&w=1200&q=75",
          "mobile": "+917048004800",
          "name": "ADORN AESTHETIC CLINIC",
          "opening_hours": "24/7",
          "operator": "Dr Harsh Amin",
          "operator:type": "private",
          "source": "streetlevel imagery",
          "start_date": "2024-05-01",
          "website": "https://adorn.clinic",
          "wheelchair": "yes"
        }
      }
    ]
  },
  "pois_2_5km": {
    "version": 0.6,
    "generator": "Overpass API 0.7.62.8 e802775f",
    "osm3s": {
      "timestamp_osm_base": "2025-09-07T12:27:45Z",
      "copyright": "The data included in this document is from www.openstreetmap.org. The data is made available under ODbL."
    },
    "elements": [
      {
        "type": "node",
        "id": 761308175,
        "lat": 23.0156527,
        "lon": 72.5301088,
        "tags": {
          "addr:city": "Ahmedabad",
          "addr:postcode": "380015",
          "addr:street": "132 Ft. Ring Road",
          "amenity": "cinema",
          "name": "City Gold Shyamal",
          "opening_hours:covid19": "closed",
          "screen": "4"
        }
      },
      {
        "type": "node",
        "id": 3302227672,
        "lat": 23.0120486,
        "lon": 72.5638517,
        "tags": {
          "amenity": "fuel",
          "brand": "Hindustan Petroleum",
          "fuel:diesel": "yes",
          "fuel:octane_80": "yes",
          "name": "Hindustan Petroleum Station",
          "operator": "Hindustan Petroleum"
        }
      },
      {
        "type": "node",
        "id": 3306683465,
        "lat": 23.0117408,
        "lon": 72.562166,
        "tags": {
          "bus": "yes",
          "public_transport": "stop_position"
        }
      },
      {
        "type": "node",
        "id": 4326504193,
        "lat": 23.0135186,
        "lon": 72.5644029,
        "tags": {
          "addr:street": "Ashram Road",
          "amenity": "fuel",
          "name": "CNG Adani"
        }
      },
      {
        "type": "node",
        "id": 5622701067,
        "lat": 23.0375426,
        "lon": 72.5670608,
        "tags": {
          "name": "Old High Court",
          "public_transport": "stop_position",
          "railway": "stop",
          "subway": "yes"
        }
      },
      {
        "type": "node",
        "id": 5622701075,
        "lat": 23.040679,
        "lon": 72.5530608,
        "tags": {
          "name": "Commerce Six Roads",
          "public_transport": "stop_position",
          "railway": "stop",
          "subway": "yes"
        }
      },
      {
        "type": "node",
        "id": 10076565256,
        "lat": 23.0375956,
        "lon": 72.5670605,
        "tags": {
          "name": "Old High Court",
          "public_transport": "stop_position",
          "railway": "stop",
          "subway": "yes"
        }
      },
      {
        "type": "node",
        "id": 10076565279,
        "lat": 23.0398916,
        "lon": 72.5616387,
        "tags": {
          "name": "Stadium",
          "name:gu": "\u0ab8\u0acd\u0a9f\u0ac7\u0aa1\u0abf\u0aaf\u0aae",
          "public_transport": "stop_position",
          "railway": "stop",
          "subway": "yes"
        }
      },
      {
        "type": "node",
        "id": 10076565280,
        "lat": 23.0398351,
        "lon": 72.5616387,
        "tags": {
          "name": "Stadium",
          "name:gu": "\u0ab8\u0acd\u0a9f\u0ac7\u0aa1\u0abf\u0aaf\u0aae",
          "public_transport": "stop_position",
          "railway": "stop",
          "subway": "yes"
        }
      },
      {
        "type": "node",
        "id": 10076565295,
        "lat": 23.0407242,
        "lon": 72.5530873,
        "tags": {
          "name": "Commerce Six Roads",
          "public_transport": "stop_position",
          "railway": "stop",
          "subway": "yes"
        }
      },
      {
        "type": "node",
        "id": 10076565314,
        "lat": 23.0448371,
        "lon": 72.5435125,
        "tags": {
          "name": "Gujarat University Station",
          "public_transport": "stop_position",
          "railway": "stop",
          "subway": "yes"
        }
      },
      {
        "type": "node",
        "id": 10076565315,
        "lat": 23.0448892,
        "lon": 72.5435282,
        "tags": {
          "name": "Gujarat University Station",
          "public_transport": "stop_position",
          "railway": "stop",
          "subway": "yes"
        }
      },
      {
        "type": "node",
        "id": 10076565330,
        "lat": 23.045928,
        "lon": 72.5348776,
        "tags": {
          "name": "Gurukul Road",
          "name:gu": "\u0a97\u0ac1\u0ab0\u0ac1\u0a95\u0ac1\u0ab2 \u0ab0\u0acb\u0aa1",
          "public_transport": "stop_position",
          "railway": "stop",
          "subway": "yes"
        }
      },
      {
        "type": "node",
        "id": 10076565331,
        "lat": 23.0458688,
        "lon": 72.5348755,
        "tags": {
          "name": "Gurukul Road",
          "name:gu": "\u0a97\u0ac1\u0ab0\u0ac1\u0a95\u0ac1\u0ab2 \u0ab0\u0acb\u0aa1",
          "public_transport": "stop_position",
          "railway": "stop",
          "subway": "yes"
        }
      },
      {
        "type": "node",
        "id": 10076616710,
        "lat": 23.0271728,
        "lon": 72.5688973,
        "tags": {
          "name": "Gandhigram",
          "public_transport": "stop_position",
          "railway": "stop",
          "subway": "yes"
        }
      },
      {
        "type": "node",
        "id": 10076616711,
        "lat": 23.0271754,
        "lon": 72.5688202,
        "tags": {
          "name": "Gandhigram",
          "public_transport": "stop_position",
          "railway": "stop",
          "subway": "yes"
        }
      },
      {
        "type": "node",
        "id": 10076616759,
        "lat": 23.0374805,
        "lon": 72.5670541,
        "tags": {
          "name": "Old High Court",
          "public_transport": "stop_position",
          "railway": "stop",
          "subway": "yes"
        }
      },
      {
        "type": "node",
        "id": 10076616764,
        "lat": 23.0374696,
        "lon": 72.5668751,
        "tags": {
          "name": "Old High Court",
          "public_transport": "stop_position",
          "railway": "stop",
          "subway": "yes"
        }
      },
      {
        "type": "node",
        "id": 10076859848,
        "lat": 23.0185472,
        "lon": 72.5623281,
        "tags": {
          "name": "Paldi",
          "public_transport": "stop_position",
          "railway": "stop",
          "subway": "yes"
        }
      },
      {
        "type": "node",
        "id": 10076859849,
        "lat": 23.0184541,
        "lon": 72.5623806,
        "tags": {
          "name": "Paldi",
          "public_transport": "stop_position",
          "railway": "stop",
          "subway": "yes"
        }
      },
      {
        "type": "node",
        "id": 10076859862,
        "lat": 23.0136478,
        "lon": 72.5492445,
        "tags": {
          "name": "Shreyas",
          "public_transport": "stop_position",
          "railway": "stop",
          "subway": "yes"
        }
      },
      {
        "type": "node",
        "id": 10076859863,
        "lat": 23.0136045,
        "lon": 72.5492643,
        "tags": {
          "name": "Shreyas",
          "public_transport": "stop_position",
          "railway": "stop",
          "subway": "yes"
        }
      },
      {
        "type": "node",
        "id": 10076859881,
        "lat": 23.0097711,
        "lon": 72.5367573,
        "tags": {
          "name": "Rajiv Nagar",
          "public_transport": "stop_position",
          "railway": "stop",
          "subway": "yes"
        }
      },
      {
        "type": "node",
        "id": 10076859882,
        "lat": 23.009732,
        "lon": 72.5367627,
        "tags": {
          "name": "Rajiv Nagar",
          "public_transport": "stop_position",
          "railway": "stop",
          "subway": "yes"
        }
      }
    ]
  }
}