{
  "pois_1km": {
    "version": 0.6,
    "generator": "Overpass API 0.7.62.8 e802775f",
    "osm3s": {
      "timestamp_osm_base": "2025-09-07T12:23:36Z",
      "copyright": "The data included in this document is from www.openstreetmap.org. The data is made available under ODbL."
    },
    "elements": [
      {
        "type": "node",
        "id": 4794228821,
        "lat": 23.0576222,
        "lon": 72.5700771,
        "tags": {
          "amenity": "hospital",
          "name": "Shivam X-ray & Sonography clinic",
          "name:en": "Dr Ghanshyam Dabhi",
          "opening_hours": "Mo-Sa 08:00-15:00, 17:00-21:00",
          "phone": "+917927641100"
        }
      },
      {
        "type": "node",
        "id": 6969886484,
        "lat": 23.0486991,
        "lon": 72.5665131,
        "tags": {
          "addr:district": "Ahmedabad",
          "addr:full": "3/A,Vikramnagar Society Near panchshil Bus Stop Usmanpura",
          "addr:postcode": "380013",
          "addr:state": "Gujarat",
          "amenity": "hospital",
          "name": "Navkar Surgical Hospital",
          "source": "OpenGovernmentData"
        }
      },
      {
        "type": "node",
        "id": 6969893727,
        "lat": 23.0575049,
        "lon": 72.5703567,
        "tags": {
          "addr:district": "Ahmedabad",
          "addr:full": "Niddhi Complex Opp Mehsana Society Bhimjipura Nava Vadaj Road",
          "addr:postcode": "380013",
          "addr:state": "Gujarat",
          "amenity": "hospital",
          "name": "Navjyot Eye Hospital, Ahmedabad",
          "source": "OpenGovernmentData"
        }
      },
      {
        "type": "node",
        "id": 6970711353,
        "lat": 23.0604581,
        "lon": 72.566667,
        "tags": {
          "addr:district": "Ahmedabad",
          "addr:full": "3Road & 4Th Floor, Lifeline Complex ,12 Virnagar Society Bhimjipura Kiranpark Road Nava Vadaj",
          "addr:postcode": "380013",
          "addr:state": "Gujarat",
          "amenity": "hospital",
          "name": "Pulse Iccu and Hospital",
          "source": "OpenGovernmentData"
        }
      },
      {
        "type": "node",
        "id": 6973933641,
        "lat": 23.0481314,
        "lon": 72.5716656,
        "tags": {
          "addr:district": "Ahmedabad",
          "addr:full": "Ashram Road",
          "addr:postcode": "380009",
          "addr:state": "Gujarat",
          "amenity": "hospital",
          "name": "Aalok Hospital, Ahmedabad",
          "source": "OpenGovernmentData"
        }
      },
      {
        "type": "node",
        "id": 6973933650,
        "lat": 23.0542867,
        "lon": 72.5720197,
        "tags": {
          "addr:district": "Ahmedabad",
          "addr:full": "5Th Floor, Bodycare Medical Centre, Juna Wadaj",
          "addr:postcode": "380013",
          "addr:state": "Gujarat",
          "amenity": "hospital",
          "name": "Dr. Manish Ravals Hospital",
          "source": "OpenGovernmentData"
        }
      },
      {
        "type": "node",
        "id": 6973933651,
        "lat": 23.0541596,
        "lon": 72.5720304,
        "tags": {
          "addr:district": "Ahmedabad",
          "addr:full": "4Th Floor , Body Medical Centre,Opposite Juna Wadaj Bus Stand, Ashram Road,Juna Wadaj",
          "addr:postcode": "380013",
          "addr:state": "Gujarat",
          "amenity": "hospital",
          "name": "Harsh Neurosurgical Hospital",
          "source": "OpenGovernmentData"
        }
      },
      {
        "type": "node",
        "id": 6973933652,
        "lat": 23.0542275,
        "lon": 72.5720505,
        "tags": {
          "addr:district": "Ahmedabad",
          "addr:full": "301, 302 3Road Floor, Bodycare Complex",
          "addr:postcode": "380013",
          "addr:state": "Gujarat",
          "amenity": "hospital",
          "name": "Bodycare Orthopaedic and Trauma Hospital",
          "source": "OpenGovernmentData"
        }
      },
      {
        "type": "node",
        "id": 6973933658,
        "lat": 23.0575728,
        "lon": 72.5703634,
        "tags": {
          "addr:district": "Ahmedabad",
          "addr:full": "Near Bhimajipura Cross Roads, Nava Vadaj Road",
          "addr:postcode": "380013",
          "addr:state": "Gujarat",
          "addr:subdistrict": "Navavadaj",
          "amenity": "hospital",
          "contact:phone": "7927642100",
          "email": "marketing@devasyahospital.com",
          "name": "Devasya Kidney and Multi speciality Hospital, Ahmedabad",
          "operator:type": "private",
          "source": "OpenGovernmentData",
          "website": "https://www.devasyahospital.com/contact-us/"
        }
      },
      {
        "type": "node",
        "id": 6974764947,
        "lat": 23.052411,
        "lon": 72.5697197,
        "tags": {
          "addr:district": "Ahmedabad",
          "addr:full": "21, Shantinagar, Ashram Road, Vadaj",
          "addr:postcode": "380013",
          "addr:state": "Gujarat",
          "amenity": "hospital",
          "name": "Shah Hospital - Vadaj",
          "source": "OpenGovernmentData"
        }
      },
      {
        "type": "node",
        "id": 6975686200,
        "lat": 23.0576184,
        "lon": 72.5692952,
        "tags": {
          "addr:district": "Ahmedabad",
          "addr:full": "20, Mehsana Society, Opposite Laxmi Hospital,Opposite Sanjivani Complex, Nava Vadaj Road",
          "addr:postcode": "380013",
          "addr:state": "Gujarat",
          "amenity": "hospital",
          "name": "Vadaj Orthopaedic Hospital",
          "source": "OpenGovernmentData"
        }
      },
      {
        "type": "node",
        "id": 6976120285,
        "lat": 23.0519939,
        "lon": 72.5640978,
        "tags": {
          "addr:district": "Ahmedabad",
          "addr:full": "Dhananjibhai Complex, B Block, Near Naranpura Railway Crossing",
          "addr:postcode": "380013",
          "addr:state": "Gujarat",
          "addr:subdistrict": "Naranpura",
          "amenity": "hospital",
          "name": "Raj Ent Hospital",
          "operator:type": "private",
          "source": "OpenGovernmentData"
        }
      },
      {
        "type": "node",
        "id": 6981446717,
        "lat": 23.0602795,
        "lon": 72.5647576,
        "tags": {
          "addr:district": "Ahmedabad",
          "addr:full": "Chakravrti Complex, Opposite Kiral Park, Bhimjipura",
          "addr:postcode": "380013",
          "addr:state": "Gujarat",
          "amenity": "hospital",
          "name": "Gayatri Heart And Medical Hospital, Bhimjipura",
          "source": "OpenGovernmentData"
        }
      },
      {
        "type": "node",
        "id": 6981922067,
        "lat": 23.0477933,
        "lon": 72.5712056,
        "tags": {
          "addr:district": "Ahmedabad",
          "addr:full": "103, Ashvarath Shopping Centre, Usmanpura Ashram Road",
          "addr:postcode": "380013",
          "addr:state": "Gujarat",
          "addr:subdistrict": "Usmanpura",
          "amenity": "hospital",
          "email": "drspp2003@yahoo.com",
          "name": "Patel E.N.T Hospital",
          "operator:type": "private",
          "source": "OpenGovernmentData"
        }
      },
      {
        "type": "node",
        "id": 6982051126,
        "lat": 23.0578122,
        "lon": 72.5701462,
        "tags": {
          "addr:district": "Ahmedabad",
          "addr:full": "Sanjeevani Complex,Opposite Mehsana Society Nava Wadaj Road, Vadaj",
          "addr:postcode": "380013",
          "addr:state": "Gujarat",
          "amenity": "hospital",
          "name": "Auro Ent Hospital",
          "source": "OpenGovernmentData"
        }
      },
      {
        "type": "node",
        "id": 6982092239,
        "lat": 23.0578196,
        "lon": 72.5701541,
        "tags": {
          "addr:district": "Ahmedabad",
          "addr:full": "Sanjeevani Complex, Opposite Mehsana Soc., Nava Vadaj Road",
          "addr:postcode": "380013",
          "addr:state": "Gujarat",
          "amenity": "hospital",
          "name": "Sanjivani Heart and Medical Hospital (Ahmedabad)",
          "source": "OpenGovernmentData"
        }
      },
      {
        "type": "node",
        "id": 6993868949,
        "lat": 23.0520284,
        "lon": 72.5641722,
        "tags": {
          "addr:district": "Ahmedabad",
          "addr:full": "Dhanjibhai Complex, 2nd Floor, Near Jivrapark Bus Stop B Block, Nr Naranpura Railway Crossing",
          "addr:postcode": "380013",
          "addr:state": "Gujarat",
          "amenity": "hospital",
          "name": "Killol Children Hospital",
          "source": "OpenGovernmentData"
        }
      }
    ]
  },
  "pois_2_5km": {
    "version": 0.6,
    "generator": "Overpass API 0.7.62.8 e802775f",
    "osm3s": {
      "timestamp_osm_base": "2025-09-07T12:23:36Z",
      "copyright": "The data included in this document is from www.openstreetmap.org. The data is made available under ODbL."
    },
    "elements": [
      {
        "type": "node",
        "id": 1952553001,
        "lat": 23.0684998,
        "lon": 72.5619985,
        "tags": {
          "amenity": "fuel",
          "brand": "Hindustan Petroleum",
          "name": "Akhbarnagar petrol pump"
        }
      },
      {
        "type": "node",
        "id": 3306683591,
        "lat": 23.0338698,
        "lon": 72.5695244,
        "tags": {
          "bus": "yes",
          "public_transport": "stop_position"
        }
      },
      {
        "type": "node",
        "id": 3306683598,
        "lat": 23.035934,
        "lon": 72.568865,
        "tags": {
          "bus": "yes",
          "public_transport": "stop_position"
        }
      },
      {
        "type": "node",
        "id": 3306683627,
        "lat": 23.0423375,
        "lon": 72.5695809,
        "tags": {
          "bus": "yes",
          "public_transport": "stop_position"
        }
      },
      {
        "type": "node",
        "id": 3306683628,
        "lat": 23.0433539,
        "lon": 72.5697209,
        "tags": {
          "bus": "yes",
          "public_transport": "stop_position"
        }
      },
      {
        "type": "node",
        "id": 3306683629,
        "lat": 23.0519878,
        "lon": 72.5902552,
        "tags": {
          "bus": "yes",
          "public_transport": "stop_position"
        }
      },
      {
        "type": "node",
        "id": 3306683638,
        "lat": 23.0555329,
        "lon": 72.5719936,
        "tags": {
          "bus": "yes",
          "public_transport": "stop_position"
        }
      },
      {
        "type": "node",
        "id": 3306683639,
        "lat": 23.0560223,
        "lon": 72.5910561,
        "tags": {
          "bus": "yes",
          "public_transport": "stop_position"
        }
      },
      {
        "type": "node",
        "id": 3306683642,
        "lat": 23.0603256,
        "lon": 72.5919869,
        "tags": {
          "bus": "yes",
          "public_transport": "stop_position"
        }
      },
      {
        "type": "node",
        "id": 3306683643,
        "lat": 23.0612354,
        "lon": 72.580309,
        "tags": {
          "bus": "yes",
          "public_transport": "stop_position"
        }
      },
      {
        "type": "node",
        "id": 3306683644,
        "lat": 23.0621551,
        "lon": 72.5952829,
        "tags": {
          "bus": "yes",
          "public_transport": "stop_position"
        }
      },
      {
        "type": "node",
        "id": 4483474713,
        "lat": 23.0400891,
        "lon": 72.5781297,
        "tags": {
          "addr:street": "Kasturba Gandhi Road",
          "amenity": "fuel",
          "name": "CNG Bharat petroleum"
        }
      },
      {
        "type": "node",
        "id": 4486398588,
        "lat": 23.0712603,
        "lon": 72.5870272,
        "tags": {
          "internet_access": "no",
          "name": "Sabarmati Junction",
          "network": "IR",
          "operator": "WR",
          "public_transport": "station",
          "railway": "station",
          "ref": "SBT",
          "train": "yes",
          "wikidata": "Q7395913",
          "wikipedia": "en:Sabarmati Junction railway station"
        }
      },
      {
        "type": "node",
        "id": 4794252824,
        "lat": 23.068497,
        "lon": 72.5760108,
        "tags": {
          "amenity": "theatre",
          "name": "PVR Cinemas",
          "name:en": "PVR Cinemas"
        }
      },
      {
        "type": "node",
        "id": 5622701067,
        "lat": 23.0375426,
        "lon": 72.5670608,
        "tags": {
          "name": "Old High Court",
          "public_transport": "stop_position",
          "railway": "stop",
          "subway": "yes"
        }
      },
      {
        "type": "node",
        "id": 5622776290,
        "lat": 23.0564338,
        "lon": 72.5622541,
        "tags": {
          "name": "Vijay Nagar",
          "public_transport": "stop_position",
          "railway": "stop",
          "subway": "yes"
        }
      },
      {
        "type": "node",
        "id": 7020233387,
        "lat": 23.0430359,
        "lon": 72.5895319,
        "tags": {
          "amenity": "bus_station",
          "bus": "yes",
          "name:ko": "Bus stand(from Jodhpur)",
          "public_transport": "station"
        }
      },
      {
        "type": "node",
        "id": 7944287421,
        "lat": 23.0392105,
        "lon": 72.5810327,
        "tags": {
          "name": "Shahpur Station",
          "name:gu": "\u0ab6\u0abe\u0ab9\u0aaa\u0ac1\u0ab0",
          "public_transport": "station",
          "railway": "station",
          "station": "subway",
          "subway": "yes"
        }
      },
      {
        "type": "node",
        "id": 9503556232,
        "lat": 23.0677222,
        "lon": 72.5741509,
        "tags": {
          "name": "Ranip",
          "public_transport": "stop_position",
          "railway": "stop",
          "subway": "yes"
        }
      },
      {
        "type": "node",
        "id": 10076565224,
        "lat": 23.0392509,
        "lon": 72.5810332,
        "tags": {
          "name": "Shahpur Station",
          "public_transport": "stop_position",
          "railway": "stop",
          "subway": "yes"
        }
      },
      {
        "type": "node",
        "id": 10076565225,
        "lat": 23.0391575,
        "lon": 72.5810285,
        "tags": {
          "name": "Shahpur Station",
          "public_transport": "stop_position",
          "railway": "stop",
          "subway": "yes"
        }
      },
      {
        "type": "node",
        "id": 10076565256,
        "lat": 23.0375956,
        "lon": 72.5670605,
        "tags": {
          "name": "Old High Court",
          "public_transport": "stop_position",
          "railway": "stop",
          "subway": "yes"
        }
      },
      {
        "type": "node",
        "id": 10076565279,
        "lat": 23.0398916,
        "lon": 72.5616387,
        "tags": {
          "name": "Stadium",
          "name:gu": "\u0ab8\u0acd\u0a9f\u0ac7\u0aa1\u0abf\u0aaf\u0aae",
          "public_transport": "stop_position",
          "railway": "stop",
          "subway": "yes"
        }
      },
      {
        "type": "node",
        "id": 10076565280,
        "lat": 23.0398351,
        "lon": 72.5616387,
        "tags": {
          "name": "Stadium",
          "name:gu": "\u0ab8\u0acd\u0a9f\u0ac7\u0aa1\u0abf\u0aaf\u0aae",
          "public_transport": "stop_position",
          "railway": "stop",
          "subway": "yes"
        }
      },
      {
        "type": "node",
        "id": 10076616712,
        "lat": 23.067695,
        "lon": 72.5658899,
        "tags": {
          "name": "Vadaj",
          "public_transport": "stop_position",
          "railway": "stop",
          "subway": "yes"
        }
      },
      {
        "type": "node",
        "id": 10076616713,
        "lat": 23.0676478,
        "lon": 72.565892,
        "tags": {
          "name": "Vadaj",
          "public_transport": "stop_position",
          "railway": "stop",
          "subway": "yes"
        }
      },
      {
        "type": "node",
        "id": 10076616748,
        "lat": 23.0564531,
        "lon": 72.5623294,
        "tags": {
          "name": "Vijay Nagar",
          "public_transport": "stop_position",
          "railway": "stop",
          "subway": "yes"
        }
      },
      {
        "type": "node",
        "id": 10076616753,
        "lat": 23.0459092,
        "lon": 72.564927,
        "tags": {
          "name": "Usmanpura",
          "public_transport": "stop_position",
          "railway": "stop",
          "subway": "yes"
        }
      },
      {
        "type": "node",
        "id": 10076616754,
        "lat": 23.045936,
        "lon": 72.5649953,
        "tags": {
          "name": "Usmanpura",
          "public_transport": "stop_position",
          "railway": "stop",
          "subway": "yes"
        }
      },
      {
        "type": "node",
        "id": 10076616759,
        "lat": 23.0374805,
        "lon": 72.5670541,
        "tags": {
          "name": "Old High Court",
          "public_transport": "stop_position",
          "railway": "stop",
          "subway": "yes"
        }
      },
      {
        "type": "node",
        "id": 10076616764,
        "lat": 23.0374696,
        "lon": 72.5668751,
        "tags": {
          "name": "Old High Court",
          "public_transport": "stop_position",
          "railway": "stop",
          "subway": "yes"
        }
      },
      {
        "type": "node",
        "id": 10076859828,
        "lat": 23.0676615,
        "lon": 72.5741529,
        "tags": {
          "name": "Ranip",
          "public_transport": "stop_position",
          "railway": "stop",
          "subway": "yes"
        }
      },
      {
        "type": "node",
        "id": 12526081066,
        "lat": 23.0575051,
        "lon": 72.5562557,
        "tags": {
          "amenity": "fuel",
          "brand": "Indian Oil",
          "brand:wikidata": "Q1289348",
          "name": "Indian Oil"
        }
      }
    ]
  }
}