{
  "pois_1km": {
    "version": 0.6,
    "generator": "Overpass API 0.7.62.8 e802775f",
    "osm3s": {
      "timestamp_osm_base": "2025-09-07T12:09:15Z",
      "copyright": "The data included in this document is from www.openstreetmap.org. The data is made available under ODbL."
    },
    "elements": [
      {
        "type": "node",
        "id": 6970081773,
        "lat": 23.0061658,
        "lon": 72.5959302,
        "tags": {
          "addr:district": "Ahmedabad",
          "addr:full": "No. 17, Chunibhai Colony, Foot Ball Ground, Kankaria",
          "addr:postcode": "380022",
          "addr:state": "Gujarat",
          "amenity": "clinic",
          "name": "Kadam Maternity Home and Sonography Clinic",
          "source": "OpenGovernmentData"
        }
      },
      {
        "type": "node",
        "id": 6970969227,
        "lat": 22.9995355,
        "lon": 72.6079452,
        "tags": {
          "addr:district": "Ahmedabad",
          "addr:full": "Vibhav Complex, Opposite Canana Bank, L. G. Corner, Maninagar",
          "addr:postcode": "380008",
          "addr:state": "Gujarat",
          "amenity": "hospital",
          "name": "Abhishek Hospital and Heart Centre",
          "source": "OpenGovernmentData"
        }
      },
      {
        "type": "node",
        "id": 6971932493,
        "lat": 22.9997731,
        "lon": 72.6090623,
        "tags": {
          "addr:district": "Ahmedabad",
          "addr:full": "Punit Marg, Near Overbridge, Maninagar",
          "addr:postcode": "380008",
          "addr:state": "Gujarat",
          "amenity": "hospital",
          "name": "Parimal Hospital, Ahmedabad",
          "source": "OpenGovernmentData"
        }
      },
      {
        "type": "node",
        "id": 6971932551,
        "lat": 22.9990899,
        "lon": 72.6009165,
        "tags": {
          "addr:district": "Ahmedabad",
          "addr:full": "1,2 Nikunj Society,Sardar Patel Hospital Lane Rambaug Maninagar",
          "addr:postcode": "380028",
          "addr:state": "Gujarat",
          "amenity": "hospital",
          "contact:mobile": "9825255636",
          "name": "Sardar Hosital",
          "source": "OpenGovernmentData"
        }
      },
      {
        "type": "node",
        "id": 6971932552,
        "lat": 23.0001972,
        "lon": 72.6048513,
        "tags": {
          "addr:district": "Ahmedabad",
          "addr:full": "Above Tapan Medical Store, Opp L G Hospital, Maninagar",
          "addr:postcode": "380008",
          "addr:state": "Gujarat",
          "addr:subdistrict": "Ahmedabad",
          "amenity": "hospital",
          "name": "Clear Vision Eye Hospital (Unit 3)",
          "operator:type": "private",
          "source": "OpenGovernmentData"
        }
      },
      {
        "type": "node",
        "id": 6971973794,
        "lat": 22.9968677,
        "lon": 72.6037475,
        "tags": {
          "addr:district": "Ahmedabad",
          "addr:full": "2, Mohil Apartment Opp: Jalaram Plaza, Jawahar Chowk Maninagar",
          "addr:postcode": "380008",
          "addr:state": "Gujarat",
          "amenity": "hospital",
          "contact:phone": "7925462847",
          "name": "Dr Sunil Shah's Eye Hospital",
          "source": "OpenGovernmentData"
        }
      },
      {
        "type": "node",
        "id": 6975626580,
        "lat": 22.9990078,
        "lon": 72.6082449,
        "tags": {
          "addr:district": "Ahmedabad",
          "addr:full": "Nakshatra 2 Nd Floor Near Ganesh Gali Mani Nagar Cross Roads",
          "addr:postcode": "380008",
          "addr:state": "Gujarat",
          "amenity": "clinic",
          "name": "Ratan Deep Surgical And Endoscopy Clinic",
          "source": "OpenGovernmentData"
        }
      },
      {
        "type": "node",
        "id": 6975868180,
        "lat": 23.0026356,
        "lon": 72.5971751,
        "tags": {
          "addr:district": "Ahmedabad",
          "addr:full": "14,Pushpakunj Soc., Near Apsara Theartre,B/D.,Love Complex,Kankaria",
          "addr:postcode": "380028",
          "addr:state": "Gujarat",
          "amenity": "clinic",
          "name": "Geeta Nursing Home, Ahmedabad",
          "source": "OpenGovernmentData"
        }
      },
      {
        "type": "node",
        "id": 6975868232,
        "lat": 22.9980056,
        "lon": 72.6097913,
        "tags": {
          "addr:district": "Ahmedabad",
          "addr:full": "2nd Floor Akash Compelx,Maninagar Station Road",
          "addr:postcode": "380008",
          "addr:state": "Gujarat",
          "amenity": "hospital",
          "name": "Dr. Shurti Ent Hospital",
          "source": "OpenGovernmentData"
        }
      },
      {
        "type": "node",
        "id": 6977175156,
        "lat": 23.0095864,
        "lon": 72.5988331,
        "tags": {
          "addr:district": "Ahmedabad",
          "addr:full": "3 Vijay Tower, Opposite Abad Dairy, Kankaria",
          "addr:postcode": "380022",
          "addr:state": "Gujarat",
          "amenity": "hospital",
          "name": "Dr. Shailesh Shah Surgical Hospital and End. Clinic",
          "source": "OpenGovernmentData"
        }
      },
      {
        "type": "node",
        "id": 6980928760,
        "lat": 22.9977455,
        "lon": 72.6091146,
        "tags": {
          "addr:district": "Ahmedabad",
          "addr:full": "11, Gokulnagar Society",
          "addr:postcode": "380015",
          "addr:state": "Gujarat",
          "amenity": "clinic",
          "name": "Kanan Maternity and Nursing Home",
          "source": "OpenGovernmentData"
        }
      },
      {
        "type": "node",
        "id": 6981998855,
        "lat": 22.9978986,
        "lon": 72.6079211,
        "tags": {
          "addr:district": "Ahmedabad",
          "addr:full": "2nd Floor, Mahalaxmi Mkt. No.1, Maninagar Char Rasta",
          "addr:postcode": "380008",
          "addr:state": "Gujarat",
          "amenity": "hospital",
          "name": "Ashirwad Children and Eye Hospital",
          "source": "OpenGovernmentData"
        }
      },
      {
        "type": "node",
        "id": 6982001606,
        "lat": 22.9980843,
        "lon": 72.6098563,
        "tags": {
          "addr:district": "Ahmedabad",
          "addr:full": "Gopal Tower Maninagar",
          "addr:postcode": "380008",
          "addr:state": "Gujarat",
          "amenity": "hospital",
          "contact:phone": "7925463679",
          "name": "Ravi Surgical Hospital, Ahmedabad",
          "source": "OpenGovernmentData"
        }
      },
      {
        "type": "node",
        "id": 6988060743,
        "lat": 22.9973331,
        "lon": 72.6092997,
        "tags": {
          "addr:district": "Ahmedabad",
          "addr:full": "2nd Floor, Aakash Complex, Opposite Bhagawan Chambers,Near Gopal Tower, Station Road",
          "addr:postcode": "380008",
          "addr:state": "Gujarat",
          "amenity": "doctors",
          "contact:phone": "7925469195",
          "name": "Dr. Ashish B. Dave",
          "source": "OpenGovernmentData"
        }
      },
      {
        "type": "node",
        "id": 6990257834,
        "lat": 23.0041352,
        "lon": 72.6064526,
        "tags": {
          "addr:district": "Ahmedabad",
          "addr:full": "Near Jaldhara Water Park , Balvatika, Kankaria Maninagar",
          "addr:postcode": "380008",
          "addr:state": "Gujarat",
          "amenity": "hospital",
          "name": "Siddhi Vinayak Hospital, Ahmedabad",
          "source": "OpenGovernmentData"
        }
      },
      {
        "type": "node",
        "id": 6993472071,
        "lat": 22.9970288,
        "lon": 72.6068388,
        "tags": {
          "addr:district": "Ahmedabad",
          "addr:full": "Kamal Apartments, Near Bank Of Baroda, Maninagar Char Rasta",
          "addr:postcode": "380008",
          "addr:state": "Gujarat",
          "amenity": "hospital",
          "name": "V and M Orthopaedic Centre",
          "source": "OpenGovernmentData"
        }
      },
      {
        "type": "node",
        "id": 6993884689,
        "lat": 23.0094926,
        "lon": 72.5988793,
        "tags": {
          "addr:district": "Ahmedabad",
          "addr:full": "Vijay Tower,First Floor,Opp Abad Dairy",
          "addr:postcode": "380022",
          "addr:state": "Gujarat",
          "amenity": "hospital",
          "name": "Giriraj Orthopaedic Hospital",
          "source": "OpenGovernmentData"
        }
      },
      {
        "type": "node",
        "id": 7020233388,
        "lat": 23.0012911,
        "lon": 72.5995705,
        "tags": {
          "amenity": "restaurant",
          "name:ko": "Domino Pizza"
        }
      },
      {
        "type": "node",
        "id": 7862753694,
        "lat": 22.997277,
        "lon": 72.609198,
        "tags": {
          "addr:district": "Ahmedabad",
          "addr:full": "Maninagar",
          "addr:postcode": "380008",
          "addr:state": "Gujarat",
          "amenity": "hospital",
          "name": "Shruti ENT Hospital",
          "source": "Local Knowledge"
        }
      },
      {
        "type": "node",
        "id": 7862753696,
        "lat": 22.999263,
        "lon": 72.608319,
        "tags": {
          "addr:district": "Ahmedabad",
          "addr:full": "Balvatika, Maninagar",
          "addr:postcode": "380008",
          "addr:state": "Gujarat",
          "amenity": "clinic",
          "name": "Apollo Clinic",
          "source": "Local Knowledge"
        }
      },
      {
        "type": "node",
        "id": 7862753703,
        "lat": 22.9995851,
        "lon": 72.6003159,
        "tags": {
          "addr:district": "Ahmedabad",
          "addr:full": "Pushpkunj, Maninagar",
          "addr:postcode": "380008",
          "addr:state": "Gujarat",
          "amenity": "hospital",
          "name": "Chanchalba Maternity Hospital",
          "source": "Local Knowledge"
        }
      },
      {
        "type": "node",
        "id": 7862753704,
        "lat": 22.998028,
        "lon": 72.600585,
        "tags": {
          "addr:district": "Ahmedabad",
          "addr:full": "Rambagh, Maninagar",
          "addr:postcode": "380008",
          "addr:state": "Gujarat",
          "amenity": "hospital",
          "name": "Dr. Ramanlal Hospital",
          "source": "Local Knowledge"
        }
      },
      {
        "type": "node",
        "id": 7862753706,
        "lat": 22.9970061,
        "lon": 72.6063718,
        "tags": {
          "addr:district": "Ahmedabad",
          "addr:full": "Maninagar",
          "addr:postcode": "380008",
          "addr:state": "Gujarat",
          "amenity": "hospital",
          "name": "Kilu ENT Hospital",
          "source": "Local Knowledge"
        }
      },
      {
        "type": "node",
        "id": 7862753710,
        "lat": 22.997505,
        "lon": 72.604633,
        "tags": {
          "addr:district": "Ahmedabad",
          "addr:full": "Balvatika, Maninagar",
          "addr:postcode": "380008",
          "addr:state": "Gujarat",
          "amenity": "clinic",
          "name": "Atharva Ayurveda Clinic and Panchakarma Centre",
          "source": "Local Knowledge"
        }
      },
      {
        "type": "node",
        "id": 7862753712,
        "lat": 23.000113,
        "lon": 72.603228,
        "tags": {
          "addr:district": "Ahmedabad",
          "addr:full": "Jagabhai Park, Maninagar",
          "addr:postcode": "380008",
          "addr:state": "Gujarat",
          "amenity": "clinic",
          "name": "Madhavbaug Clinic",
          "source": "Local Knowledge"
        }
      },
      {
        "type": "node",
        "id": 7862753716,
        "lat": 22.998786,
        "lon": 72.608215,
        "tags": {
          "addr:district": "Ahmedabad",
          "addr:full": "Balvatika, Maninagar",
          "addr:postcode": "380008",
          "addr:state": "Gujarat",
          "amenity": "clinic",
          "name": "Sneh Clinic",
          "source": "Local Knowledge"
        }
      },
      {
        "type": "node",
        "id": 7862753717,
        "lat": 23.002052,
        "lon": 72.607654,
        "tags": {
          "addr:district": "Ahmedabad",
          "addr:full": "Balvatika, Maninagar",
          "addr:postcode": "380008",
          "addr:state": "Gujarat",
          "amenity": "hospital",
          "name": "Artificial Eye Surgery",
          "source": "Local Knowledge"
        }
      },
      {
        "type": "node",
        "id": 7862753725,
        "lat": 22.9981001,
        "lon": 72.6021433,
        "tags": {
          "addr:district": "Ahmedabad",
          "addr:full": "Rambagh, Maninagar",
          "addr:postcode": "380008",
          "addr:state": "Gujarat",
          "amenity": "clinic",
          "name": "Niruj Rheumotogy Clinic",
          "source": "Local Knowledge"
        }
      },
      {
        "type": "node",
        "id": 7862753726,
        "lat": 23.000266,
        "lon": 72.608195,
        "tags": {
          "addr:district": "Ahmedabad",
          "addr:full": "Maninagar",
          "addr:postcode": "380008",
          "addr:state": "Gujarat",
          "amenity": "hospital",
          "name": "Kushi Women Hospital",
          "source": "Local Knowledge"
        }
      },
      {
        "type": "node",
        "id": 7862753730,
        "lat": 23.000123,
        "lon": 72.604134,
        "tags": {
          "addr:district": "Ahmedabad",
          "addr:full": "Balvatika, Maninagar",
          "addr:postcode": "380008",
          "addr:state": "Gujarat",
          "amenity": "doctors",
          "name": "Dr. Kirit C. Shah",
          "source": "Local Knowledge"
        }
      },
      {
        "type": "node",
        "id": 7862753731,
        "lat": 22.999176,
        "lon": 72.607469,
        "tags": {
          "addr:district": "Ahmedabad",
          "addr:full": "Balvatika, Maninagar",
          "addr:postcode": "380008",
          "addr:state": "Gujarat",
          "amenity": "clinic",
          "name": "Dr. Dave Eye Care",
          "source": "Local Knowledge"
        }
      },
      {
        "type": "node",
        "id": 7862753737,
        "lat": 23.003436,
        "lon": 72.596416,
        "tags": {
          "addr:district": "Ahmedabad",
          "addr:full": "Kankaria",
          "addr:postcode": "380002",
          "addr:state": "Gujarat",
          "amenity": "hospital",
          "name": "Navdeep Hospital",
          "source": "Local Knowledge"
        }
      },
      {
        "type": "node",
        "id": 7862753751,
        "lat": 23.0003225,
        "lon": 72.6037424,
        "tags": {
          "addr:district": "Ahmedabad",
          "addr:full": "Balvatika, Maninagar",
          "addr:postcode": "380008",
          "addr:state": "Gujarat",
          "amenity": "hospital",
          "name": "Shivam Children Hospital and Pediatric Critical Care Centre",
          "source": "Local Knowledge"
        }
      },
      {
        "type": "node",
        "id": 7862753755,
        "lat": 23.000179,
        "lon": 72.6043884,
        "tags": {
          "addr:district": "Ahmedabad",
          "addr:full": "Balvatika, Maninagar",
          "addr:postcode": "380008",
          "addr:state": "Gujarat",
          "amenity": "doctors",
          "name": "Dr. Tapan A Shah",
          "source": "Local Knowledge"
        }
      },
      {
        "type": "node",
        "id": 7862753759,
        "lat": 23.000081,
        "lon": 72.608487,
        "tags": {
          "addr:district": "Ahmedabad",
          "addr:full": "Balvatika, Maninagar",
          "addr:postcode": "380008",
          "addr:state": "Gujarat",
          "amenity": "hospital",
          "name": "Devam Hospital",
          "source": "Local Knowledge"
        }
      },
      {
        "type": "node",
        "id": 9709187217,
        "lat": 23.0048635,
        "lon": 72.598021,
        "tags": {
          "leisure": "garden",
          "name": "One Tree Hill Garden"
        }
      }
    ]
  },
  "pois_2_5km": {
    "version": 0.6,
    "generator": "Overpass API 0.7.62.8 e802775f",
    "osm3s": {
      "timestamp_osm_base": "2025-09-07T12:09:15Z",
      "copyright": "The data included in this document is from www.openstreetmap.org. The data is made available under ODbL."
    },
    "elements": [
      {
        "type": "node",
        "id": 323120091,
        "lat": 22.9986596,
        "lon": 72.6114013,
        "tags": {
          "internet_access": "no",
          "name": "Maninagar",
          "network": "IR",
          "operator": "WR",
          "public_transport": "station",
          "railway": "station",
          "ref": "MAN",
          "train": "yes",
          "wikidata": "Q6749778",
          "wikipedia": "en:Maninagar railway station"
        }
      },
      {
        "type": "node",
        "id": 1206485486,
        "lat": 23.0251057,
        "lon": 72.6017011,
        "tags": {
          "name": "Ahmedabad Junction",
          "public_transport": "stop_position",
          "railway": "stop",
          "ref": "10",
          "train": "yes"
        }
      },
      {
        "type": "node",
        "id": 1206485574,
        "lat": 23.0251068,
        "lon": 72.6020896,
        "tags": {
          "name": "Ahmedabad Junction",
          "public_transport": "stop_position",
          "railway": "stop",
          "ref": "10",
          "train": "yes"
        }
      },
      {
        "type": "node",
        "id": 1206490577,
        "lat": 23.0251064,
        "lon": 72.6019452,
        "tags": {
          "name": "Ahmedabad Junction",
          "public_transport": "stop_position",
          "railway": "stop",
          "ref": "10",
          "train": "yes"
        }
      },
      {
        "type": "node",
        "id": 2669084968,
        "lat": 23.0263312,
        "lon": 72.601,
        "tags": {
          "addr:postcode": "380001",
          "addr:street": "Station Road",
          "alt_name": "Kalupur Railway Station",
          "historic:ref": "ADIJ",
          "internet_access": "wlan",
          "name": "Ahmedabad Junction",
          "network": "IR",
          "operator": "WR",
          "public_transport": "station",
          "railway": "station",
          "ref": "ADI",
          "train": "yes",
          "wikidata": "Q4696124",
          "wikipedia": "en:Ahmedabad Junction railway station"
        }
      },
      {
        "type": "node",
        "id": 3336777167,
        "lat": 23.0218734,
        "lon": 72.5984903,
        "tags": {
          "addr:street": "Gandhi Road",
          "amenity": "bus_station",
          "bus": "yes",
          "name": "Ahmedabad",
          "name:en": "Kalupur Bus stop",
          "public_transport": "station"
        }
      },
      {
        "type": "node",
        "id": 3355748461,
        "lat": 23.0186671,
        "lon": 72.5883471,
        "tags": {
          "bus": "yes",
          "public_transport": "stop_position"
        }
      },
      {
        "type": "node",
        "id": 3393656497,
        "lat": 23.011445,
        "lon": 72.5864365,
        "tags": {
          "amenity": "fuel",
          "brand": "Adani",
          "name": "Adani CNG Gas Station",
          "operator": "Adani"
        }
      },
      {
        "type": "node",
        "id": 4530241653,
        "lat": 23.0251063,
        "lon": 72.6018905,
        "tags": {
          "name": "Ahmedabad Junction",
          "public_transport": "stop_position",
          "railway": "stop",
          "ref": "10",
          "train": "yes"
        }
      },
      {
        "type": "node",
        "id": 5540117738,
        "lat": 23.0024253,
        "lon": 72.5928352,
        "tags": {
          "amenity": "bus_station",
          "bus": "yes",
          "name": "Kankaria Telephone exchange",
          "operator": "BRTS, Ahmedabad",
          "public_transport": "station"
        }
      },
      {
        "type": "node",
        "id": 5622701027,
        "lat": 23.0106557,
        "lon": 72.6182366,
        "tags": {
          "name": "Apparel Park",
          "name:gu": "\u0a8f\u0aaa\u0ab0\u0ab2 \u0aaa\u0abe\u0ab0\u0acd\u0a95",
          "network": "Ahmedabad Metro",
          "operator": "Gujarat Metro Rail Corporation Limited",
          "public_transport": "stop_position",
          "public_transport:version": "2",
          "railway": "stop",
          "subway": "yes"
        }
      },
      {
        "type": "node",
        "id": 5622701037,
        "lat": 23.0154543,
        "lon": 72.6069352,
        "tags": {
          "name": "Kankaria East",
          "public_transport": "stop_position",
          "railway": "stop",
          "subway": "yes"
        }
      },
      {
        "type": "node",
        "id": 5622701044,
        "lat": 23.0246945,
        "lon": 72.603093,
        "tags": {
          "name": "Kalupur Railway Station",
          "public_transport": "stop_position",
          "railway": "stop",
          "subway": "yes"
        }
      },
      {
        "type": "node",
        "id": 6432742906,
        "lat": 23.0078462,
        "lon": 72.6283735,
        "tags": {
          "name": "Amraiwadi",
          "name:gu": "\u0a85\u0aae\u0ab0\u0ac0\u0ab5\u0abe\u0aa1\u0ac0",
          "network": "Ahmedabad Metro",
          "operator": "Gujarat Metro Rail Corporation Limited",
          "public_transport": "stop_position",
          "public_transport:version": "2",
          "railway": "stop",
          "subway": "yes"
        }
      },
      {
        "type": "node",
        "id": 7707519216,
        "lat": 23.025107,
        "lon": 72.6021398,
        "tags": {
          "name": "Ahmedabad Junction",
          "public_transport": "stop_position",
          "railway": "stop",
          "ref": "10",
          "train": "yes"
        }
      },
      {
        "type": "node",
        "id": 7944287415,
        "lat": 23.0246913,
        "lon": 72.6031447,
        "tags": {
          "name": "Kalupur Railway Station",
          "name:gu": "\u0a95\u0abe\u0ab2\u0ac1\u0aaa\u0ac1\u0ab0 \u0ab0\u0ac7\u0ab2\u0acd\u0ab5\u0ac7 \u0ab8\u0acd\u0a9f\u0ac7\u0ab6\u0aa8",
          "public_transport": "station",
          "railway": "station",
          "station": "subway",
          "subway": "yes",
          "wikidata": "Q114400466"
        }
      },
      {
        "type": "node",
        "id": 7944287418,
        "lat": 23.0154573,
        "lon": 72.6070016,
        "tags": {
          "name": "Kankaria East",
          "public_transport": "station",
          "railway": "station",
          "station": "subway",
          "subway": "yes",
          "wikidata": "Q114400460"
        }
      },
      {
        "type": "node",
        "id": 9655564621,
        "lat": 23.0107028,
        "lon": 72.6182378,
        "tags": {
          "name": "Apparel Park",
          "name:gu": "\u0a8f\u0aaa\u0ab0\u0ab2 \u0aaa\u0abe\u0ab0\u0acd\u0a95",
          "network": "Ahmedabad Metro",
          "operator": "Gujarat Metro Rail Corporation Limited",
          "public_transport": "stop_position",
          "public_transport:version": "2",
          "railway": "stop",
          "subway": "yes"
        }
      },
      {
        "type": "node",
        "id": 9655564654,
        "lat": 23.0078943,
        "lon": 72.6284005,
        "tags": {
          "name": "Amraiwadi",
          "name:gu": "\u0a85\u0aae\u0ab0\u0ac0\u0ab5\u0abe\u0aa1\u0ac0",
          "network": "Ahmedabad Metro",
          "operator": "Gujarat Metro Rail Corporation Limited",
          "public_transport": "stop_position",
          "public_transport:version": "2",
          "railway": "stop",
          "subway": "yes"
        }
      },
      {
        "type": "node",
        "id": 10076537485,
        "lat": 23.0154585,
        "lon": 72.6070566,
        "tags": {
          "name": "Kankaria East",
          "public_transport": "stop_position",
          "railway": "stop",
          "subway": "yes"
        }
      },
      {
        "type": "node",
        "id": 10076537499,
        "lat": 23.0246998,
        "lon": 72.603211,
        "tags": {
          "name": "Kalupur Railway Station",
          "public_transport": "stop_position",
          "railway": "stop",
          "subway": "yes"
        }
      }
    ]
  }
}