{
  "pois_1km": {
    "version": 0.6,
    "generator": "Overpass API 0.7.62.8 e802775f",
    "osm3s": {
      "timestamp_osm_base": "2025-09-07T12:02:09Z",
      "copyright": "The data included in this document is from www.openstreetmap.org. The data is made available under ODbL."
    },
    "elements": [
      {
        "type": "node",
        "id": 6968861334,
        "lat": 23.0506982,
        "lon": 72.5157067,
        "tags": {
          "addr:district": "Ahmedabad",
          "addr:full": "1st Floor, Bhaikaka Complex Bhai Kaka Nagar Thaltej",
          "addr:postcode": "380059",
          "addr:state": "Gujarat",
          "amenity": "hospital",
          "healthcare": "hospital",
          "name": "Samarpan Maternity And Urosurgical Hospital",
          "source": "OpenGovernmentData"
        }
      },
      {
        "type": "node",
        "id": 6970257402,
        "lat": 23.0502539,
        "lon": 72.5209209,
        "tags": {
          "addr:district": "Ahmedabad",
          "addr:full": "A-6 Venunad Complex, Opposite Udgam School, Thaltej",
          "addr:postcode": "380054",
          "addr:state": "Gujarat",
          "amenity": "hospital",
          "healthcare": "hospital",
          "name": "Udit Hospital Multi Speciality",
          "source": "OpenGovernmentData"
        }
      },
      {
        "type": "node",
        "id": 6970544615,
        "lat": 23.0457442,
        "lon": 72.5139306,
        "tags": {
          "addr:district": "Ahmedabad",
          "addr:full": "G-K, Mondeal Business Park, Near Gurudwara, S.G.Highway",
          "addr:postcode": "380054",
          "addr:state": "Gujarat",
          "amenity": "hospital",
          "name": "Apex Heart Institute",
          "source": "OpenGovernmentData"
        }
      },
      {
        "type": "node",
        "id": 6972593092,
        "lat": 23.0553553,
        "lon": 72.5209102,
        "tags": {
          "addr:district": "Ahmedabad",
          "addr:full": "60, Jeevandeep Row House, B/H. Goyal Intercity, Thaltej",
          "addr:postcode": "380054",
          "addr:state": "Gujarat",
          "amenity": "hospital",
          "name": "Surveen Children Hospital And Vaccination Centre",
          "source": "OpenGovernmentData"
        }
      },
      {
        "type": "node",
        "id": 10882768855,
        "lat": 23.0492471,
        "lon": 72.5219853,
        "tags": {
          "addr:city": "Ahmedabad",
          "addr:postcode": "380054",
          "addr:street": "Opp. Sardar Patel Institute, Next to Udgam School for Children",
          "amenity": "hospital",
          "description": "Are you looking for a gynecology hospital in Ahmedabad? Diva Women's Hospital provides pregnancy counseling, infertility management, PCOD/PCOS, ultrasonic sonography, and much more under one roof.",
          "emergency": "yes",
          "healthcare": "hospital",
          "healthcare:speciality": "gynaecology",
          "name": "Diva Women's Hospital",
          "opening_hours": "Open 24 Hours",
          "phone": "9978872345",
          "website": "https://divahospital.com/"
        }
      },
      {
        "type": "node",
        "id": 11300307469,
        "lat": 23.0581218,
        "lon": 72.5208841,
        "tags": {
          "addr:postcode": "380054",
          "addr:street": "Service road - Sarkhej Gandhinagar Highway",
          "internet_access": "wlan",
          "name": "Palladium Mall",
          "shop": "mall"
        }
      }
    ]
  },
  "pois_2_5km": {
    "version": 0.6,
    "generator": "Overpass API 0.7.62.8 e802775f",
    "osm3s": {
      "timestamp_osm_base": "2025-09-07T12:03:11Z",
      "copyright": "The data included in this document is from www.openstreetmap.org. The data is made available under ODbL."
    },
    "elements": [
      {
        "type": "node",
        "id": 440320409,
        "lat": 23.0465768,
        "lon": 72.531028,
        "tags": {
          "amenity": "cinema",
          "name": "Adlabs, BIG Cinema"
        }
      },
      {
        "type": "node",
        "id": 1746677973,
        "lat": 23.0331106,
        "lon": 72.5139509,
        "tags": {
          "amenity": "fuel",
          "brand": "Hindustan Petroleum",
          "brand:wikidata": "Q1619375",
          "name": "HP Fuel Station",
          "official_name": "Hindustan Petroleum",
          "operator": "HP"
        }
      },
      {
        "type": "node",
        "id": 2699807313,
        "lat": 23.0664215,
        "lon": 72.5316963,
        "tags": {
          "addr:city": "Ahmedabad",
          "addr:postcode": "380061",
          "addr:street": "Ravishankar Maharaj Road",
          "amenity": "cinema",
          "name": "Rajhans Cinemas",
          "payment:cash": "yes",
          "payment:credit_cards": "yes",
          "payment:debit_cards": "yes",
          "payment:electronic_purses": "yes",
          "screen": "4"
        }
      },
      {
        "type": "node",
        "id": 3247497622,
        "lat": 23.0490934,
        "lon": 72.5160613,
        "tags": {
          "addr:city": "Ahmedabad",
          "addr:postcode": "380054",
          "amenity": "cinema",
          "name": "PVR, acropolis mall"
        }
      },
      {
        "type": "node",
        "id": 5622701095,
        "lat": 23.04814,
        "lon": 72.5245036,
        "tags": {
          "name": "Doordarshan Kendra",
          "public_transport": "stop_position",
          "railway": "stop",
          "subway": "yes"
        }
      },
      {
        "type": "node",
        "id": 5622701102,
        "lat": 23.0497505,
        "lon": 72.5159937,
        "tags": {
          "name": "Thaltej",
          "public_transport": "stop_position",
          "railway": "stop",
          "subway": "yes"
        }
      },
      {
        "type": "node",
        "id": 10076565330,
        "lat": 23.045928,
        "lon": 72.5348776,
        "tags": {
          "name": "Gurukul Road",
          "name:gu": "\u0a97\u0ac1\u0ab0\u0ac1\u0a95\u0ac1\u0ab2 \u0ab0\u0acb\u0aa1",
          "public_transport": "stop_position",
          "railway": "stop",
          "subway": "yes"
        }
      },
      {
        "type": "node",
        "id": 10076565331,
        "lat": 23.0458688,
        "lon": 72.5348755,
        "tags": {
          "name": "Gurukul Road",
          "name:gu": "\u0a97\u0ac1\u0ab0\u0ac1\u0a95\u0ac1\u0ab2 \u0ab0\u0acb\u0aa1",
          "public_transport": "stop_position",
          "railway": "stop",
          "subway": "yes"
        }
      },
      {
        "type": "node",
        "id": 10076565352,
        "lat": 23.0481838,
        "lon": 72.5245109,
        "tags": {
          "name": "Doordarshan Kendra",
          "public_transport": "stop_position",
          "railway": "stop",
          "subway": "yes"
        }
      },
      {
        "type": "node",
        "id": 10076565366,
        "lat": 23.049782,
        "lon": 72.5160136,
        "tags": {
          "name": "Thaltej",
          "public_transport": "stop_position",
          "railway": "stop",
          "subway": "yes"
        }
      },
      {
        "type": "node",
        "id": 11115111903,
        "lat": 23.0501817,
        "lon": 72.5070211,
        "tags": {
          "name": "Thaltej Gam",
          "public_transport": "stop_position",
          "railway": "stop",
          "subway": "yes"
        }
      },
      {
        "type": "node",
        "id": 11115111904,
        "lat": 23.050233,
        "lon": 72.5070056,
        "tags": {
          "name": "Thaltej Gam",
          "public_transport": "stop_position",
          "railway": "stop",
          "subway": "yes"
        }
      },
      {
        "type": "node",
        "id": 12406995811,
        "lat": 23.049748,
        "lon": 72.5160152,
        "tags": {
          "name": "Thaltej",
          "name:gu": "\u0aa5\u0ab2\u0aa4\u0ac7\u0a9c",
          "network": "Ahmedabad Metro",
          "network:wikidata": "Q1895288",
          "operator": "Gujarat Metro Rail Corporation Limited",
          "operator:wikidata": "Q113158873",
          "operator:wikipedia": "en:Gujarat Metro Rail Corporation Limited",
          "public_transport": "station",
          "railway": "station",
          "station": "subway",
          "subway": "yes",
          "wikidata": "Q114400494"
        }
      },
      {
        "type": "node",
        "id": 12408894281,
        "lat": 23.0502062,
        "lon": 72.5070123,
        "tags": {
          "name": "Thaltej Gam",
          "name:gu": "\u0aa5\u0ab2\u0aa4\u0ac7\u0a9c",
          "network": "Ahmedabad Metro",
          "network:wikidata": "Q1895288",
          "operator": "Gujarat Metro Rail Corporation Limited",
          "operator:wikidata": "Q113158873",
          "operator:wikipedia": "en:Gujarat Metro Rail Corporation Limited",
          "public_transport": "station",
          "railway": "station",
          "station": "subway",
          "subway": "yes"
        }
      }
    ]
  }
}