{
  "pois_1km": {
    "version": 0.6,
    "generator": "Overpass API 0.7.62.8 e802775f",
    "osm3s": {
      "timestamp_osm_base": "2025-09-07T12:09:15Z",
      "copyright": "The data included in this document is from www.openstreetmap.org. The data is made available under ODbL."
    },
    "elements": [
      {
        "type": "node",
        "id": 1313805176,
        "lat": 23.0410467,
        "lon": 72.5485619,
        "tags": {
          "amenity": "restaurant",
          "name": "Cafe Souq"
        }
      },
      {
        "type": "node",
        "id": 1313805177,
        "lat": 23.0407234,
        "lon": 72.5485324,
        "tags": {
          "amenity": "cafe",
          "cost:coffee": "$3",
          "name": "Chocolate Room"
        }
      },
      {
        "type": "node",
        "id": 1313805178,
        "lat": 23.0427079,
        "lon": 72.5494685,
        "tags": {
          "amenity": "cafe",
          "cost:coffee": "$2",
          "name": "Barrista, Vijay 4 Roads"
        }
      },
      {
        "type": "node",
        "id": 1313805181,
        "lat": 23.0412121,
        "lon": 72.5485673,
        "tags": {
          "addr:city": "Ahmedabad",
          "addr:housenumber": "Aarohi Complex",
          "addr:postcode": "380009",
          "addr:street": "Vijay Cross Roads",
          "amenity": "restaurant",
          "capacity": "40",
          "cuisine": "international",
          "name": "Upper Crust Cafe",
          "opening_hours": "07:00-23:00",
          "phone": "91-79-26401554",
          "smoking": "no",
          "source": "http://www.cafeuppercrust.com/cafe-uppercrust.php",
          "website": "https://www.cafeuppercrust.com/",
          "wheelchair": "no"
        }
      },
      {
        "type": "node",
        "id": 1779118412,
        "lat": 23.0457522,
        "lon": 72.5524611,
        "tags": {
          "amenity": "restaurant",
          "name": "Dinner Bell"
        }
      },
      {
        "type": "node",
        "id": 1779119065,
        "lat": 23.0456657,
        "lon": 72.5522734,
        "tags": {
          "amenity": "pharmacy",
          "name": "Apollo Pharmacy"
        }
      },
      {
        "type": "node",
        "id": 1779126826,
        "lat": 23.0458191,
        "lon": 72.5523558,
        "tags": {
          "amenity": "bank",
          "atm": "yes",
          "brand": "State Bank of India",
          "brand:wikidata": "Q1340361",
          "brand:wikipedia": "en:State Bank of India",
          "drive_through": "no",
          "name": "State Bank of India, St. Xavier's School Road Branch",
          "short_name": "SBI"
        }
      },
      {
        "type": "node",
        "id": 1830548403,
        "lat": 23.0471515,
        "lon": 72.5527534,
        "tags": {
          "amenity": "bank",
          "brand": "Central Bank of India",
          "brand:wikidata": "Q2007090",
          "brand:wikipedia": "en:Central Bank of India",
          "name": "Central Bank of India",
          "name:en": "Central Bank of India",
          "website": "https://www.centralbankofindia.co.in"
        }
      },
      {
        "type": "node",
        "id": 1830570013,
        "lat": 23.0453324,
        "lon": 72.5517832,
        "tags": {
          "amenity": "bank",
          "name": "Kalupur Commercial Co-operative Bank"
        }
      },
      {
        "type": "node",
        "id": 3239361169,
        "lat": 23.0362229,
        "lon": 72.5494261,
        "tags": {
          "amenity": "cafe",
          "cuisine": "coffee;snack",
          "internet_access": "no",
          "internet_access:fee": "no",
          "name": "Zen Cafe",
          "opening_hours": "16:00-20:00",
          "smoking": "yes",
          "wheelchair": "yes"
        }
      },
      {
        "type": "node",
        "id": 3293763762,
        "lat": 23.0423379,
        "lon": 72.549193,
        "tags": {
          "amenity": "fast_food",
          "delivery": "yes",
          "name": "Shreeji krupa vadapav",
          "opening_hours": "Mo-Su 10:00-22:00",
          "takeaway": "yes"
        }
      },
      {
        "type": "node",
        "id": 3293792062,
        "lat": 23.0423816,
        "lon": 72.5486525,
        "tags": {
          "addr:street": "120 Feet Ring Road",
          "amenity": "fast_food",
          "brand": "McDonald's",
          "brand:pa": "\u0a2e\u0a48\u0a15\u0a21\u0a4b\u0a28\u0a32\u0a21\u2019\u0a1c\u0a3c",
          "brand:ur": "\u0645\u06a9\u0688\u0648\u0646\u0644\u0688\u0632",
          "brand:wikidata": "Q38076",
          "brand:wikipedia": "en:McDonald's",
          "brand:wikipedia:pa": "\u0a2e\u0a48\u0a15\u0a21\u0a4b\u0a28\u0a32\u0a21\u2019\u0a1c\u0a3c",
          "brand:wikipedia:ur": "\u0645\u06a9\u0688\u0648\u0646\u0644\u0688\u0632",
          "cuisine": "burger",
          "name": "McDonald's",
          "name:pa": "\u0a2e\u0a48\u0a15\u0a21\u0a4b\u0a28\u0a32\u0a21\u2019\u0a1c\u0a3c",
          "name:ur": "\u0645\u06a9\u0688\u0648\u0646\u0644\u0688\u0632",
          "opening_hours": "24/7",
          "takeaway": "yes"
        }
      },
      {
        "type": "node",
        "id": 3294081761,
        "lat": 23.0426757,
        "lon": 72.5492422,
        "tags": {
          "addr:street": "120 Feet Ring Road",
          "amenity": "fast_food",
          "cuisine": "ice_cream",
          "name": "Asharfilal Kulfi",
          "opening_hours": "24/7"
        }
      },
      {
        "type": "node",
        "id": 4319362053,
        "lat": 23.0371357,
        "lon": 72.5443257,
        "tags": {
          "amenity": "cafe",
          "name": "Nescafe"
        }
      },
      {
        "type": "node",
        "id": 4797415998,
        "lat": 23.0422816,
        "lon": 72.549183,
        "tags": {
          "amenity": "fast_food",
          "brand": "Subway",
          "brand:pa": "\u0a38\u0a2c\u0a35\u0a47\u0a05",
          "brand:ur": "\u0633\u0628 \u0648\u06d2",
          "brand:wikidata": "Q244457",
          "brand:wikipedia": "en:Subway (restaurant)",
          "cuisine": "sandwich",
          "name": "Subway",
          "name:pa": "\u0a38\u0a2c\u0a35\u0a47\u0a05",
          "name:ur": "\u0633\u0628 \u0648\u06d2",
          "takeaway": "yes"
        }
      },
      {
        "type": "node",
        "id": 4797416004,
        "lat": 23.042429,
        "lon": 72.5486687,
        "tags": {
          "addr:city": "Ahmedabad",
          "addr:housenumber": "G2 Yash Aqua",
          "addr:postcode": "380009",
          "addr:street": "Vijay Cross Road, Navarangpura",
          "amenity": "cafe",
          "cuisine": "pizza",
          "name": "Fullfills Ahmedabad",
          "takeaway": "yes"
        }
      },
      {
        "type": "node",
        "id": 4797416005,
        "lat": 23.0416337,
        "lon": 72.5490709,
        "tags": {
          "amenity": "cafe",
          "cuisine": "pizza",
          "name": "quinches"
        }
      },
      {
        "type": "node",
        "id": 4797416006,
        "lat": 23.042389,
        "lon": 72.5492178,
        "tags": {
          "amenity": "cafe",
          "name": "uno pizza"
        }
      },
      {
        "type": "node",
        "id": 5029238558,
        "lat": 23.0444534,
        "lon": 72.5505062,
        "tags": {
          "addr:city": "ahmedabad",
          "addr:housenumber": "34",
          "addr:street": "memnagar",
          "amenity": "cafe",
          "cuisine": "Multi_Cuisine",
          "name": "The Cafe Baraco",
          "opening_hours": "11:00-01:00",
          "outdoor_seating": "no",
          "smoking": "outside"
        }
      },
      {
        "type": "node",
        "id": 6970546266,
        "lat": 23.0402628,
        "lon": 72.5598451,
        "tags": {
          "addr:district": "Ahmedabad",
          "addr:full": "Vedanta Institute of Medical Sciences 1st Floor, Stadium Commerce College Road, Navrangpur",
          "addr:postcode": "380004",
          "addr:state": "Gujarat",
          "amenity": "clinic",
          "name": "Hemato-Oncology Clinic",
          "source": "OpenGovernmentData"
        }
      },
      {
        "type": "node",
        "id": 6970590541,
        "lat": 23.0411016,
        "lon": 72.5474321,
        "tags": {
          "addr:district": "Ahmedabad",
          "addr:full": "15,Amar Society,, Opp University Hostel Near University Library, Navrangpura",
          "addr:postcode": "380009",
          "addr:state": "Gujarat",
          "amenity": "hospital",
          "contact:phone": "26461475",
          "healthcare": "hospital",
          "name": "Arpan Newborncare Centre",
          "source": "OpenGovernmentData"
        }
      },
      {
        "type": "node",
        "id": 6971932520,
        "lat": 23.0328801,
        "lon": 72.5554597,
        "tags": {
          "addr:district": "Ahmedabad",
          "addr:full": "101, White Cross, 15, Patel Society, Gulbai Tekra",
          "addr:postcode": "380009",
          "addr:state": "Gujarat",
          "amenity": "hospital",
          "email": "amdavad@newvisionindia.com",
          "healthcare:speciality": "Eye Care",
          "name": "Centre For Sight, Ahmedabad",
          "operator:type": "private",
          "source": "OpenGovernmentData",
          "website": "https://www.centreforsight.net/"
        }
      },
      {
        "type": "node",
        "id": 6972590220,
        "lat": 23.0437233,
        "lon": 72.5501624,
        "tags": {
          "addr:district": "Ahmedabad",
          "addr:full": "Opp Memnagar Fire Station Vijay Char Rasta Navrangpura",
          "addr:postcode": "380009",
          "addr:state": "Gujarat",
          "amenity": "hospital",
          "healthcare": "hospital",
          "name": "Panchal Urology Centre, Ahmedabad",
          "source": "OpenGovernmentData"
        }
      },
      {
        "type": "node",
        "id": 6972590229,
        "lat": 23.0381253,
        "lon": 72.5591853,
        "tags": {
          "addr:district": "Ahmedabad",
          "addr:full": "Third Floor, Shashwat Complex, Naranpura Char Rasta",
          "addr:postcode": "380013",
          "addr:state": "Gujarat",
          "amenity": "hospital",
          "name": "Hari Urosurgical Hospital and Andrology Centre",
          "source": "OpenGovernmentData"
        }
      },
      {
        "type": "node",
        "id": 6972590276,
        "lat": 23.0474249,
        "lon": 72.5505593,
        "tags": {
          "addr:district": "Ahmedabad",
          "addr:full": "403 4Th Floor, B Wing Rudra Arcade Police Halmet Cross Roads Junction Of 132 Feet Ring Road Gurukul Road Memnagar",
          "addr:postcode": "380052",
          "addr:state": "Gujarat",
          "amenity": "hospital",
          "name": "Jaydeep Hospital, Ahmedabad",
          "source": "OpenGovernmentData"
        }
      },
      {
        "type": "node",
        "id": 6973933639,
        "lat": 23.0402999,
        "lon": 72.5583807,
        "tags": {
          "addr:district": "Ahmedabad",
          "addr:full": "Second Floor, Near Sopan Flats, Navrangpura",
          "addr:postcode": "380009",
          "addr:state": "Gujarat",
          "amenity": "clinic",
          "name": "Samdev Urology and Surgery Clinic",
          "source": "OpenGovernmentData"
        }
      },
      {
        "type": "node",
        "id": 6973933640,
        "lat": 23.0385165,
        "lon": 72.5585751,
        "tags": {
          "addr:district": "Ahmedabad",
          "addr:full": "108, Swastik Society",
          "addr:postcode": "380009",
          "addr:state": "Gujarat",
          "addr:subdistrict": "Navrangpura",
          "amenity": "clinic",
          "name": "Nova Pulse Ivf Clinic Ahmedabad Pvt.Ltd.",
          "operator:type": "private",
          "source": "OpenGovernmentData",
          "website": "https://www.novaivifertility.com/"
        }
      },
      {
        "type": "node",
        "id": 6975737976,
        "lat": 23.0403424,
        "lon": 72.5532469,
        "tags": {
          "addr:district": "Ahmedabad",
          "addr:full": "4Th Floor,Dolly Complex,Near Vipul Dudhiya,Stadium Cross Roads",
          "addr:postcode": "380009",
          "addr:state": "Gujarat",
          "amenity": "hospital",
          "healthcare": "hospital",
          "name": "Sahjanand Eye Care Hospital",
          "source": "OpenGovernmentData"
        }
      },
      {
        "type": "node",
        "id": 6975737981,
        "lat": 23.0328949,
        "lon": 72.5553042,
        "tags": {
          "addr:district": "Ahmedabad",
          "addr:full": "4Th Floor,Gala Business Centre,St. Xavier's College Corner,Near Hotel Klassic Gold,Sardar Patel Nagar Road,Navrangpura",
          "addr:postcode": "380006",
          "addr:state": "Gujarat",
          "amenity": "hospital",
          "name": "Maniar Hospital",
          "source": "OpenGovernmentData"
        }
      },
      {
        "type": "node",
        "id": 6975865066,
        "lat": 23.0469542,
        "lon": 72.5556147,
        "tags": {
          "addr:district": "Ahmedabad",
          "addr:full": "Soham Complex, Opp. Ganesh Tower Soham Complex, Navrangapura",
          "addr:postcode": "380014",
          "addr:state": "Gujarat",
          "amenity": "hospital",
          "name": "Aarogyam Speciality Hospital",
          "source": "OpenGovernmentData"
        }
      },
      {
        "type": "node",
        "id": 6977209293,
        "lat": 23.0471713,
        "lon": 72.5582439,
        "tags": {
          "addr:district": "Ahmedabad",
          "addr:full": "Beside Meghaiaya Flats, Near Sardar Patel Colony, Naranpura",
          "addr:postcode": "380014",
          "addr:state": "Gujarat",
          "amenity": "hospital",
          "name": "Vrundavan Hospital, Ahmedabad",
          "source": "OpenGovernmentData"
        }
      },
      {
        "type": "node",
        "id": 6978013050,
        "lat": 23.0354102,
        "lon": 72.5594562,
        "tags": {
          "addr:district": "Ahmedabad",
          "addr:full": "Anamay Building, Near Hotel President,Swastik Char Rasta,C.G.Road,Navrangpura",
          "addr:postcode": "380009",
          "addr:state": "Gujarat",
          "amenity": "hospital",
          "name": "Super Surgical Hospital, Ahmedabad",
          "source": "OpenGovernmentData"
        }
      },
      {
        "type": "node",
        "id": 6979940478,
        "lat": 23.0379772,
        "lon": 72.5595984,
        "tags": {
          "addr:district": "Ahmedabad",
          "addr:full": "Silver Spring, B/H Xavier's Ladies Hostel, Navrangpuram",
          "addr:postcode": "380009",
          "addr:state": "Gujarat",
          "amenity": "hospital",
          "name": "The Holistic Medical Centre Ayulink Ayurveda Hospital",
          "source": "OpenGovernmentData"
        }
      },
      {
        "type": "node",
        "id": 6981571792,
        "lat": 23.0416302,
        "lon": 72.5542541,
        "tags": {
          "addr:district": "Ahmedabad",
          "addr:full": "5 Subhash Society, Behind Ishwar Bhuvan, Near H.L. Commerce College Six Roads, Navrangpura",
          "addr:postcode": "380009",
          "addr:state": "Gujarat",
          "amenity": "clinic",
          "name": "Banker`S Retina Clinic and Laser Centre",
          "source": "OpenGovernmentData"
        }
      },
      {
        "type": "node",
        "id": 6981802923,
        "lat": 23.0421276,
        "lon": 72.5592698,
        "tags": {
          "addr:district": "Ahmedabad",
          "addr:full": "Near Somlalit School, Behind Hindu Colony, Stadium,Navrangpura",
          "addr:postcode": "380009",
          "addr:state": "Gujarat",
          "amenity": "hospital",
          "name": "Jaju Plastic Surgery Center",
          "source": "OpenGovernmentData"
        }
      },
      {
        "type": "node",
        "id": 6983683410,
        "lat": 23.0405319,
        "lon": 72.5581983,
        "tags": {
          "addr:district": "Ahmedabad",
          "addr:full": "Near Sopan Flats On Stadium Circle To Commerce College Six Road Navrangpura",
          "addr:postcode": "380009",
          "addr:state": "Gujarat",
          "amenity": "hospital",
          "name": "Samved Orthopaedic Hospital, Ahmedabad",
          "source": "OpenGovernmentData"
        }
      },
      {
        "type": "node",
        "id": 6983723687,
        "lat": 23.0403048,
        "lon": 72.5543117,
        "tags": {
          "addr:district": "Ahmedabad",
          "addr:full": "405 Swapneel-5,H.L.Commerce College Circle, Navrangpura",
          "addr:postcode": "380009",
          "addr:state": "Gujarat",
          "amenity": "hospital",
          "contact:mobile": "9898382799",
          "healthcare": "hospital",
          "name": "Cheers Interventional Pain Management Hospital",
          "source": "OpenGovernmentData"
        }
      },
      {
        "type": "node",
        "id": 6986477087,
        "lat": 23.0402147,
        "lon": 72.5598545,
        "tags": {
          "addr:district": "Ahmedabad",
          "addr:full": "2nd Floor, Vedanta, Stadium Commerce College Road, Navrangpura",
          "addr:postcode": "380009",
          "addr:state": "Gujarat",
          "amenity": "hospital",
          "name": "Vedanta Institute Of Medical Sciences Hospital",
          "source": "OpenGovernmentData"
        }
      },
      {
        "type": "node",
        "id": 6989177912,
        "lat": 23.0429384,
        "lon": 72.5579488,
        "tags": {
          "addr:district": "Ahmedabad",
          "addr:full": "302 Zodiac Plaza, St. Xavier`S College Corner, Hl Commerce College Road, Navrangpura",
          "addr:postcode": "380009",
          "addr:state": "Gujarat",
          "amenity": "clinic",
          "name": "Rangshree Clinic",
          "source": "OpenGovernmentData"
        }
      },
      {
        "type": "node",
        "id": 6993387967,
        "lat": 23.0473058,
        "lon": 72.5586636,
        "tags": {
          "addr:district": "Ahmedabad",
          "addr:full": "1/2, Meghalay Flat, Nr Sardar Patel Colony, Naranpura",
          "addr:postcode": "380013",
          "addr:state": "Gujarat",
          "amenity": "hospital",
          "name": "Bhadra Clinic Hospital",
          "source": "OpenGovernmentData"
        }
      },
      {
        "type": "node",
        "id": 8815159955,
        "lat": 23.0457257,
        "lon": 72.5523509,
        "tags": {
          "amenity": "bank",
          "atm": "yes",
          "brand": "Axis Bank",
          "brand:wikidata": "Q2003549",
          "brand:wikipedia": "en:Axis Bank",
          "drive_through": "no",
          "name": "Axis Bank, Memnagar Branch"
        }
      }
    ]
  },
  "pois_2_5km": {
    "version": 0.6,
    "generator": "Overpass API 0.7.62.8 e802775f",
    "osm3s": {
      "timestamp_osm_base": "2025-09-07T12:09:15Z",
      "copyright": "The data included in this document is from www.openstreetmap.org. The data is made available under ODbL."
    },
    "elements": [
      {
        "type": "node",
        "id": 440320409,
        "lat": 23.0465768,
        "lon": 72.531028,
        "tags": {
          "amenity": "cinema",
          "name": "Adlabs, BIG Cinema"
        }
      },
      {
        "type": "node",
        "id": 3306683590,
        "lat": 23.0326462,
        "lon": 72.5701007,
        "tags": {
          "bus": "yes",
          "public_transport": "stop_position"
        }
      },
      {
        "type": "node",
        "id": 3306683591,
        "lat": 23.0338698,
        "lon": 72.5695244,
        "tags": {
          "bus": "yes",
          "public_transport": "stop_position"
        }
      },
      {
        "type": "node",
        "id": 3306683598,
        "lat": 23.035934,
        "lon": 72.568865,
        "tags": {
          "bus": "yes",
          "public_transport": "stop_position"
        }
      },
      {
        "type": "node",
        "id": 3306683627,
        "lat": 23.0423375,
        "lon": 72.5695809,
        "tags": {
          "bus": "yes",
          "public_transport": "stop_position"
        }
      },
      {
        "type": "node",
        "id": 3306683628,
        "lat": 23.0433539,
        "lon": 72.5697209,
        "tags": {
          "bus": "yes",
          "public_transport": "stop_position"
        }
      },
      {
        "type": "node",
        "id": 5622701067,
        "lat": 23.0375426,
        "lon": 72.5670608,
        "tags": {
          "name": "Old High Court",
          "public_transport": "stop_position",
          "railway": "stop",
          "subway": "yes"
        }
      },
      {
        "type": "node",
        "id": 5622701075,
        "lat": 23.040679,
        "lon": 72.5530608,
        "tags": {
          "name": "Commerce Six Roads",
          "public_transport": "stop_position",
          "railway": "stop",
          "subway": "yes"
        }
      },
      {
        "type": "node",
        "id": 5622776290,
        "lat": 23.0564338,
        "lon": 72.5622541,
        "tags": {
          "name": "Vijay Nagar",
          "public_transport": "stop_position",
          "railway": "stop",
          "subway": "yes"
        }
      },
      {
        "type": "node",
        "id": 10076565256,
        "lat": 23.0375956,
        "lon": 72.5670605,
        "tags": {
          "name": "Old High Court",
          "public_transport": "stop_position",
          "railway": "stop",
          "subway": "yes"
        }
      },
      {
        "type": "node",
        "id": 10076565279,
        "lat": 23.0398916,
        "lon": 72.5616387,
        "tags": {
          "name": "Stadium",
          "name:gu": "\u0ab8\u0acd\u0a9f\u0ac7\u0aa1\u0abf\u0aaf\u0aae",
          "public_transport": "stop_position",
          "railway": "stop",
          "subway": "yes"
        }
      },
      {
        "type": "node",
        "id": 10076565280,
        "lat": 23.0398351,
        "lon": 72.5616387,
        "tags": {
          "name": "Stadium",
          "name:gu": "\u0ab8\u0acd\u0a9f\u0ac7\u0aa1\u0abf\u0aaf\u0aae",
          "public_transport": "stop_position",
          "railway": "stop",
          "subway": "yes"
        }
      },
      {
        "type": "node",
        "id": 10076565295,
        "lat": 23.0407242,
        "lon": 72.5530873,
        "tags": {
          "name": "Commerce Six Roads",
          "public_transport": "stop_position",
          "railway": "stop",
          "subway": "yes"
        }
      },
      {
        "type": "node",
        "id": 10076565314,
        "lat": 23.0448371,
        "lon": 72.5435125,
        "tags": {
          "name": "Gujarat University Station",
          "public_transport": "stop_position",
          "railway": "stop",
          "subway": "yes"
        }
      },
      {
        "type": "node",
        "id": 10076565315,
        "lat": 23.0448892,
        "lon": 72.5435282,
        "tags": {
          "name": "Gujarat University Station",
          "public_transport": "stop_position",
          "railway": "stop",
          "subway": "yes"
        }
      },
      {
        "type": "node",
        "id": 10076565330,
        "lat": 23.045928,
        "lon": 72.5348776,
        "tags": {
          "name": "Gurukul Road",
          "name:gu": "\u0a97\u0ac1\u0ab0\u0ac1\u0a95\u0ac1\u0ab2 \u0ab0\u0acb\u0aa1",
          "public_transport": "stop_position",
          "railway": "stop",
          "subway": "yes"
        }
      },
      {
        "type": "node",
        "id": 10076565331,
        "lat": 23.0458688,
        "lon": 72.5348755,
        "tags": {
          "name": "Gurukul Road",
          "name:gu": "\u0a97\u0ac1\u0ab0\u0ac1\u0a95\u0ac1\u0ab2 \u0ab0\u0acb\u0aa1",
          "public_transport": "stop_position",
          "railway": "stop",
          "subway": "yes"
        }
      },
      {
        "type": "node",
        "id": 10076616710,
        "lat": 23.0271728,
        "lon": 72.5688973,
        "tags": {
          "name": "Gandhigram",
          "public_transport": "stop_position",
          "railway": "stop",
          "subway": "yes"
        }
      },
      {
        "type": "node",
        "id": 10076616711,
        "lat": 23.0271754,
        "lon": 72.5688202,
        "tags": {
          "name": "Gandhigram",
          "public_transport": "stop_position",
          "railway": "stop",
          "subway": "yes"
        }
      },
      {
        "type": "node",
        "id": 10076616748,
        "lat": 23.0564531,
        "lon": 72.5623294,
        "tags": {
          "name": "Vijay Nagar",
          "public_transport": "stop_position",
          "railway": "stop",
          "subway": "yes"
        }
      },
      {
        "type": "node",
        "id": 10076616753,
        "lat": 23.0459092,
        "lon": 72.564927,
        "tags": {
          "name": "Usmanpura",
          "public_transport": "stop_position",
          "railway": "stop",
          "subway": "yes"
        }
      },
      {
        "type": "node",
        "id": 10076616754,
        "lat": 23.045936,
        "lon": 72.5649953,
        "tags": {
          "name": "Usmanpura",
          "public_transport": "stop_position",
          "railway": "stop",
          "subway": "yes"
        }
      },
      {
        "type": "node",
        "id": 10076616759,
        "lat": 23.0374805,
        "lon": 72.5670541,
        "tags": {
          "name": "Old High Court",
          "public_transport": "stop_position",
          "railway": "stop",
          "subway": "yes"
        }
      },
      {
        "type": "node",
        "id": 10076616764,
        "lat": 23.0374696,
        "lon": 72.5668751,
        "tags": {
          "name": "Old High Court",
          "public_transport": "stop_position",
          "railway": "stop",
          "subway": "yes"
        }
      },
      {
        "type": "node",
        "id": 12526081066,
        "lat": 23.0575051,
        "lon": 72.5562557,
        "tags": {
          "amenity": "fuel",
          "brand": "Indian Oil",
          "brand:wikidata": "Q1289348",
          "name": "Indian Oil"
        }
      }
    ]
  }
}